{"type": "FeatureCollection", "features": [{"id": "12", "type": "Feature", "properties": {"fill": "#a3a3a3", "value_min": 0.33, "value_max": -0.67}, "geometry": {"type": "MultiPolygon", "coordinates": [[[[-8.019456, 41.83138], [-8.007058, 41.821904], [-7.997308, 41.817661], [-7.985315, 41.814659], [-7.961253, 41.813574], [-7.937138, 41.815756], [-7.925035, 41.819538], [-7.912281, 41.830052], [-7.901733, 41.847965], [-7.898682, 41.860684], [-7.902203, 41.861591], [-7.904515, 41.860471], [-7.905475, 41.848001], [-7.915165, 41.830079], [-7.924994, 41.822003], [-7.937112, 41.817381], [-7.961227, 41.81519], [-7.985256, 41.818403], [-7.997213, 41.82372], [-8.007101, 41.830911], [-8.010942, 41.83625], [-8.013363, 41.829124], [-8.019456, 41.83138]]], [[[-8.082625, 41.714449], [-8.088418, 41.705488], [-8.119044, 41.678706], [-8.120986, 41.669714], [-8.11309, 41.660646], [-8.095947, 41.652653], [-8.083962, 41.650921], [-8.071946, 41.651407], [-8.059885, 41.654935], [-8.052915, 41.660166], [-8.045962, 41.669116], [-8.027338, 41.686974], [-8.023301, 41.695946], [-8.02426, 41.704962], [-8.030404, 41.714021], [-8.034928, 41.717725], [-8.04684, 41.725113], [-8.058827, 41.727558], [-8.070893, 41.724584], [-8.082625, 41.714449]], [[-8.058926, 41.720763], [-8.046924, 41.719441], [-8.038387, 41.714088], [-8.031726, 41.705025], [-8.032939, 41.696028], [-8.047516, 41.679303], [-8.053435, 41.669178], [-8.062279, 41.660243], [-8.071887, 41.655487], [-8.08392, 41.653839], [-8.09591, 41.655281], [-8.107845, 41.660719], [-8.117015, 41.669684], [-8.116499, 41.678687], [-8.095333, 41.696461], [-8.081651, 41.705435], [-8.071021, 41.715716], [-8.058926, 41.720763]]], [[[-8.395958, 41.67691], [-8.401567, 41.671517], [-8.402175, 41.662514], [-8.396158, 41.655531], [-8.38419, 41.651071], [-8.372161, 41.653122], [-8.363176, 41.662304], [-8.363704, 41.671314], [-8.371909, 41.678997], [-8.377924, 41.680399], [-8.383901, 41.681405], [-8.395958, 41.67691]]], [[[-8.361326, 41.534086], [-8.373381, 41.527048], [-8.383352, 41.518298], [-8.390206, 41.509327], [-8.393815, 41.500339], [-8.394306, 41.473319], [-8.390448, 41.455284], [-8.383242, 41.446238], [-8.374219, 41.440015], [-8.362294, 41.43544], [-8.338394, 41.431613], [-8.314438, 41.433366], [-8.302429, 41.437067], [-8.286657, 41.44568], [-8.277372, 41.454629], [-8.271253, 41.463598], [-8.267168, 41.481587], [-8.269501, 41.499617], [-8.281362, 41.517706], [-8.292489, 41.526782], [-8.311841, 41.535907], [-8.325311, 41.539108], [-8.337294, 41.539605], [-8.3493, 41.537906], [-8.361326, 41.534086]], [[-8.327884, 41.526995], [-8.313491, 41.523137], [-8.304944, 41.517851], [-8.295489, 41.508786], [-8.28703, 41.490719], [-8.285755, 41.481704], [-8.287202, 41.472705], [-8.291724, 41.463726], [-8.300448, 41.454772], [-8.314292, 41.447264], [-8.326295, 41.444158], [-8.338276, 41.443235], [-8.350234, 41.444496], [-8.362171, 41.447972], [-8.373587, 41.455193], [-8.38105, 41.464241], [-8.38556, 41.48228], [-8.383852, 41.500286], [-8.378959, 41.509267], [-8.373498, 41.51495], [-8.361435, 41.523013], [-8.349412, 41.526717], [-8.337412, 41.528053], [-8.327884, 41.526995]]], [[[-8.60474, 41.164881], [-8.608491, 41.186002], [-8.62337, 41.222083], [-8.629871, 41.231112], [-8.638678, 41.239011], [-8.650576, 41.24569], [-8.662492, 41.249464], [-8.674416, 41.251773], [-8.698285, 41.252334], [-8.746054, 41.245735], [-8.763682, 41.240472], [-8.781905, 41.231842], [-8.795025, 41.222516], [-8.802482, 41.215048], [-8.799695, 41.14406], [-8.758624, 41.144974], [-8.77023, 41.158211], [-8.775447, 41.168432], [-8.777619, 41.177444], [-8.776137, 41.195457], [-8.765848, 41.213453], [-8.755873, 41.22244], [-8.734168, 41.233811], [-8.72222, 41.237514], [-8.698336, 41.241257], [-8.674474, 41.239973], [-8.662557, 41.236819], [-8.650656, 41.230662], [-8.638787, 41.219298], [-8.630482, 41.20409], [-8.627171, 41.187747], [-8.627155, 41.187615], [-8.627144, 41.187522], [-8.621132, 41.178994], [-8.613374, 41.177451], [-8.608583, 41.174095], [-8.609164, 41.172066], [-8.60474, 41.164881]]]]}}, {"id": "13", "type": "Feature", "properties": {"fill": "#a3a3a3", "value_min": 0.67, "value_max": -1.0}, "geometry": {"type": "MultiPolygon", "coordinates": [[[[-8.010942, 41.83625], [-8.007101, 41.830911], [-7.997213, 41.82372], [-7.985256, 41.818403], [-7.961227, 41.81519], [-7.937112, 41.817381], [-7.924994, 41.822003], [-7.915165, 41.830079], [-7.905475, 41.848001], [-7.904515, 41.860471], [-7.907309, 41.865203], [-7.906095, 41.868126], [-7.910299, 41.871285], [-7.910285, 41.875562], [-7.915391, 41.879397], [-7.921089, 41.878283], [-7.911615, 41.866073], [-7.908938, 41.857041], [-7.909218, 41.848036], [-7.917946, 41.830106], [-7.930946, 41.821221], [-7.949157, 41.817042], [-7.973218, 41.818257], [-7.984296, 41.821705], [-7.99835, 41.830835], [-8.005162, 41.839901], [-8.006206, 41.843971], [-8.007928, 41.838796], [-8.010942, 41.83625]]], [[[-8.058926, 41.720763], [-8.071021, 41.715716], [-8.081651, 41.705435], [-8.095333, 41.696461], [-8.116499, 41.678687], [-8.117015, 41.669684], [-8.107845, 41.660719], [-8.09591, 41.655281], [-8.08392, 41.653839], [-8.071887, 41.655487], [-8.062279, 41.660243], [-8.053435, 41.669178], [-8.047516, 41.679303], [-8.032939, 41.696028], [-8.031726, 41.705025], [-8.038387, 41.714088], [-8.046924, 41.719441], [-8.058926, 41.720763]], [[-8.046999, 41.714318], [-8.039189, 41.705087], [-8.043108, 41.696113], [-8.052584, 41.687185], [-8.05496, 41.678197], [-8.060023, 41.669232], [-8.070331, 41.660308], [-8.083881, 41.656616], [-8.095873, 41.65791], [-8.1078, 41.663965], [-8.113623, 41.669657], [-8.113954, 41.678667], [-8.104762, 41.687603], [-8.095354, 41.694982], [-8.089169, 41.696487], [-8.083257, 41.700641], [-8.071176, 41.704974], [-8.060662, 41.714272], [-8.046999, 41.714318]]], [[[-8.327884, 41.526995], [-8.337412, 41.528053], [-8.349412, 41.526717], [-8.361435, 41.523013], [-8.373498, 41.51495], [-8.378959, 41.509267], [-8.383852, 41.500286], [-8.38556, 41.48228], [-8.38105, 41.464241], [-8.373587, 41.455193], [-8.362171, 41.447972], [-8.350234, 41.444496], [-8.338276, 41.443235], [-8.326295, 41.444158], [-8.314292, 41.447264], [-8.300448, 41.454772], [-8.291724, 41.463726], [-8.287202, 41.472705], [-8.285755, 41.481704], [-8.28703, 41.490719], [-8.295489, 41.508786], [-8.304944, 41.517851], [-8.313491, 41.523137], [-8.327884, 41.526995]], [[-8.33749, 41.520401], [-8.325526, 41.51836], [-8.313597, 41.513124], [-8.308228, 41.508863], [-8.301223, 41.499814], [-8.2973, 41.490782], [-8.296583, 41.481771], [-8.302092, 41.468541], [-8.314181, 41.457726], [-8.326202, 41.45316], [-8.338191, 41.451606], [-8.35015, 41.452894], [-8.36208, 41.457301], [-8.370727, 41.464185], [-8.37687, 41.473226], [-8.37947, 41.482248], [-8.379454, 41.491255], [-8.373601, 41.504261], [-8.361515, 41.51487], [-8.349488, 41.519151], [-8.33749, 41.520401]]], [[[-8.627171, 41.187747], [-8.630482, 41.20409], [-8.638787, 41.219298], [-8.650656, 41.230662], [-8.662557, 41.236819], [-8.674474, 41.239973], [-8.698336, 41.241257], [-8.72222, 41.237514], [-8.734168, 41.233811], [-8.755873, 41.22244], [-8.765848, 41.213453], [-8.776137, 41.195457], [-8.777619, 41.177444], [-8.775447, 41.168432], [-8.77023, 41.158211], [-8.758624, 41.144974], [-8.67527, 41.147484], [-8.676193, 41.146567], [-8.674793, 41.146932], [-8.674204, 41.147693], [-8.674825, 41.15078], [-8.686847, 41.147988], [-8.698766, 41.147392], [-8.710677, 41.148841], [-8.722579, 41.152417], [-8.735033, 41.159338], [-8.746342, 41.171365], [-8.751994, 41.1864], [-8.751567, 41.195407], [-8.748293, 41.204408], [-8.741862, 41.213401], [-8.730315, 41.222383], [-8.710318, 41.230267], [-8.698377, 41.232239], [-8.686444, 41.232341], [-8.674522, 41.230348], [-8.662614, 41.225662], [-8.650734, 41.216084], [-8.643432, 41.204131], [-8.641372, 41.195339], [-8.638841, 41.196025], [-8.638231, 41.194227], [-8.634946, 41.193341], [-8.632526, 41.188624], [-8.627171, 41.187747]]], [[[-8.627144, 41.187522], [-8.627144, 41.187522], [-8.627155, 41.187615], [-8.627144, 41.187522]]], [[[-8.654963, 41.162272], [-8.654963, 41.162272], [-8.655834, 41.161509], [-8.654963, 41.162272]]], [[[-8.655851, 41.161494], [-8.655851, 41.161494], [-8.656092, 41.161283], [-8.655851, 41.161494]]], [[[-8.656146, 41.161235], [-8.656146, 41.161235], [-8.656608, 41.16083], [-8.656146, 41.161235]]], [[[-8.656738, 41.160717], [-8.656738, 41.160717], [-8.656867, 41.160604], [-8.656738, 41.160717]]], [[[-8.657034, 41.160457], [-8.657034, 41.160457], [-8.657125, 41.160378], [-8.657034, 41.160457]]], [[[-8.661474, 41.157029], [-8.661474, 41.157029], [-8.662171, 41.156528], [-8.661474, 41.157029]]], [[[-8.662362, 41.15639], [-8.662362, 41.15639], [-8.662486, 41.156301], [-8.662362, 41.15639]]], [[[-8.674528, 41.15091], [-8.674528, 41.15091], [-8.674683, 41.150842], [-8.674528, 41.15091]]]]}}, {"id": "14", "type": "Feature", "properties": {"fill": "#97a3b2", "value_min": 1.0, "value_max": -1.33}, "geometry": {"type": "MultiPolygon", "coordinates": [[[[-8.006206, 41.843971], [-8.005162, 41.839901], [-7.99835, 41.830835], [-7.984296, 41.821705], [-7.973218, 41.818257], [-7.949157, 41.817042], [-7.930946, 41.821221], [-7.917946, 41.830106], [-7.909218, 41.848036], [-7.908938, 41.857041], [-7.911615, 41.866073], [-7.921089, 41.878283], [-7.930457, 41.877082], [-7.924135, 41.873309], [-7.917656, 41.86613], [-7.913505, 41.857084], [-7.912861, 41.848071], [-7.914963, 41.839084], [-7.920728, 41.830132], [-7.935318, 41.821261], [-7.949135, 41.818422], [-7.961175, 41.818424], [-7.976458, 41.821635], [-7.992143, 41.830781], [-7.998029, 41.839839], [-8.000083, 41.850716], [-8.00339, 41.85027], [-8.006206, 41.843971]]], [[[-8.046999, 41.714318], [-8.060662, 41.714272], [-8.071176, 41.704974], [-8.083257, 41.700641], [-8.089169, 41.696487], [-8.095354, 41.694982], [-8.104762, 41.687603], [-8.113954, 41.678667], [-8.113623, 41.669657], [-8.1078, 41.663965], [-8.095873, 41.65791], [-8.083881, 41.656616], [-8.070331, 41.660308], [-8.060023, 41.669232], [-8.05496, 41.678197], [-8.052584, 41.687185], [-8.043108, 41.696113], [-8.039189, 41.705087], [-8.046999, 41.714318]], [[-8.047126, 41.70572], [-8.047148, 41.704269], [-8.059175, 41.70374], [-8.059928, 41.705259], [-8.047126, 41.70572]], [[-8.083316, 41.696437], [-8.071316, 41.695208], [-8.061765, 41.68726], [-8.060714, 41.678244], [-8.064322, 41.669267], [-8.071776, 41.663225], [-8.083842, 41.659393], [-8.095837, 41.660531], [-8.110232, 41.669631], [-8.111409, 41.678647], [-8.095375, 41.693503], [-8.083316, 41.696437]]], [[[-8.33749, 41.520401], [-8.349488, 41.519151], [-8.361515, 41.51487], [-8.373601, 41.504261], [-8.379454, 41.491255], [-8.37947, 41.482248], [-8.37687, 41.473226], [-8.370727, 41.464185], [-8.36208, 41.457301], [-8.35015, 41.452894], [-8.338191, 41.451606], [-8.326202, 41.45316], [-8.314181, 41.457726], [-8.302092, 41.468541], [-8.296583, 41.481771], [-8.2973, 41.490782], [-8.301223, 41.499814], [-8.308228, 41.508863], [-8.313597, 41.513124], [-8.325526, 41.51836], [-8.33749, 41.520401]], [[-8.337551, 41.514437], [-8.325593, 41.511907], [-8.31369, 41.504349], [-8.309491, 41.499864], [-8.305292, 41.490831], [-8.304944, 41.481821], [-8.308523, 41.472836], [-8.314083, 41.467051], [-8.326128, 41.460279], [-8.338124, 41.458171], [-8.350085, 41.459384], [-8.362005, 41.464925], [-8.369962, 41.473189], [-8.373454, 41.482215], [-8.373424, 41.491222], [-8.369697, 41.500209], [-8.361582, 41.508023], [-8.349545, 41.513394], [-8.337551, 41.514437]]], [[[-8.641372, 41.195339], [-8.643432, 41.204131], [-8.650734, 41.216084], [-8.662614, 41.225662], [-8.674522, 41.230348], [-8.686444, 41.232341], [-8.698377, 41.232239], [-8.710318, 41.230267], [-8.730315, 41.222383], [-8.741862, 41.213401], [-8.748293, 41.204408], [-8.751567, 41.195407], [-8.751994, 41.1864], [-8.746342, 41.171365], [-8.735033, 41.159338], [-8.722579, 41.152417], [-8.710677, 41.148841], [-8.698766, 41.147392], [-8.686847, 41.147988], [-8.674825, 41.15078], [-8.674683, 41.150842], [-8.674528, 41.15091], [-8.674849, 41.153767], [-8.672489, 41.15648], [-8.662486, 41.156301], [-8.662362, 41.15639], [-8.662171, 41.156528], [-8.661474, 41.157029], [-8.660313, 41.160813], [-8.657125, 41.160378], [-8.657034, 41.160457], [-8.656867, 41.160604], [-8.656738, 41.160717], [-8.656608, 41.16083], [-8.656146, 41.161235], [-8.656092, 41.161283], [-8.655851, 41.161494], [-8.655834, 41.161509], [-8.654963, 41.162272], [-8.653231, 41.169174], [-8.655366, 41.175467], [-8.647955, 41.180228], [-8.647696, 41.185181], [-8.641372, 41.195339]], [[-8.686486, 41.223741], [-8.674569, 41.220946], [-8.661981, 41.213195], [-8.655887, 41.204169], [-8.653905, 41.195155], [-8.655485, 41.186152], [-8.662874, 41.175049], [-8.674833, 41.167461], [-8.686769, 41.164301], [-8.69869, 41.164175], [-8.710597, 41.166979], [-8.722488, 41.173945], [-8.731337, 41.186354], [-8.732476, 41.195364], [-8.729868, 41.204366], [-8.722321, 41.213536], [-8.710362, 41.220323], [-8.703726, 41.222317], [-8.686486, 41.223741]]]]}}, {"id": "11", "type": "Feature", "properties": {"fill": "#a3a3a3", "value_min": 0.0, "value_max": -0.33}, "geometry": {"type": "MultiPolygon", "coordinates": [[[[-8.037737, 41.830048], [-8.021374, 41.818586], [-8.009404, 41.814014], [-7.997405, 41.811432], [-7.973339, 41.810669], [-7.937165, 41.81413], [-7.925078, 41.817004], [-7.912891, 41.825665], [-7.90245, 41.838965], [-7.892001, 41.859095], [-7.898682, 41.860684], [-7.901733, 41.847965], [-7.912281, 41.830052], [-7.925035, 41.819538], [-7.937138, 41.815756], [-7.961253, 41.813574], [-7.985315, 41.814659], [-7.997308, 41.817661], [-8.007058, 41.821904], [-8.019456, 41.83138], [-8.02901, 41.829589], [-8.036532, 41.831171], [-8.037737, 41.830048]]], [[[-7.722892, 41.793362], [-7.732824, 41.797427], [-7.744888, 41.795989], [-7.750136, 41.792375], [-7.754434, 41.783415], [-7.749144, 41.774351], [-7.745363, 41.771632], [-7.733366, 41.769866], [-7.726935, 41.772192], [-7.7254, 41.777152], [-7.727191, 41.779184], [-7.724177, 41.780299], [-7.725372, 41.781653], [-7.722592, 41.793239], [-7.722858, 41.793348], [-7.722892, 41.793362]]], [[[-8.082851, 41.729178], [-8.08738, 41.723494], [-8.094512, 41.705537], [-8.100027, 41.696573], [-8.119578, 41.681093], [-8.125042, 41.678752], [-8.127296, 41.669762], [-8.118522, 41.660688], [-8.107934, 41.654243], [-8.095993, 41.64933], [-8.084017, 41.647029], [-8.059999, 41.647125], [-8.04708, 41.651111], [-8.035688, 41.66683], [-8.015487, 41.677866], [-8.009653, 41.686823], [-8.00959, 41.695829], [-8.013432, 41.704869], [-8.02249, 41.713953], [-8.046734, 41.732305], [-8.05869, 41.736923], [-8.070728, 41.736033], [-8.082851, 41.729178]], [[-8.082625, 41.714449], [-8.070893, 41.724584], [-8.058827, 41.727558], [-8.04684, 41.725113], [-8.034928, 41.717725], [-8.030404, 41.714021], [-8.02426, 41.704962], [-8.023301, 41.695946], [-8.027338, 41.686974], [-8.045962, 41.669116], [-8.052915, 41.660166], [-8.059885, 41.654935], [-8.071946, 41.651407], [-8.083962, 41.650921], [-8.095947, 41.652653], [-8.11309, 41.660646], [-8.120986, 41.669714], [-8.119044, 41.678706], [-8.088418, 41.705488], [-8.082625, 41.714449]]], [[[-7.860191, 41.703451], [-7.854955, 41.697981], [-7.842893, 41.700456], [-7.84004, 41.70325], [-7.842794, 41.712284], [-7.854665, 41.714319], [-7.857411, 41.712431], [-7.860191, 41.703451]]], [[[-8.41989, 41.687612], [-8.428395, 41.680661], [-8.442013, 41.662714], [-8.456217, 41.65449], [-8.468306, 41.644862], [-8.472789, 41.635838], [-8.472557, 41.626829], [-8.467198, 41.617797], [-8.456586, 41.610506], [-8.444613, 41.607257], [-8.429041, 41.608607], [-8.420568, 41.611986], [-8.397171, 41.626459], [-8.37237, 41.631556], [-8.36031, 41.637114], [-8.351888, 41.644227], [-8.345789, 41.653199], [-8.343644, 41.662194], [-8.34501, 41.671209], [-8.350202, 41.680246], [-8.359798, 41.688745], [-8.371757, 41.694617], [-8.383753, 41.69694], [-8.395772, 41.696793], [-8.407813, 41.694254], [-8.41989, 41.687612]], [[-8.395958, 41.67691], [-8.383901, 41.681405], [-8.377924, 41.680399], [-8.371909, 41.678997], [-8.363704, 41.671314], [-8.363176, 41.662304], [-8.372161, 41.653122], [-8.38419, 41.651071], [-8.396158, 41.655531], [-8.402175, 41.662514], [-8.401567, 41.671517], [-8.395958, 41.67691]]], [[[-8.361135, 41.553461], [-8.373195, 41.546373], [-8.385285, 41.535779], [-8.406291, 41.509411], [-8.411045, 41.491421], [-8.409752, 41.481715], [-8.417127, 41.46443], [-8.418352, 41.455429], [-8.416614, 41.446412], [-8.41115, 41.437377], [-8.400193, 41.428313], [-8.386352, 41.422752], [-8.326613, 41.413398], [-8.302694, 41.412311], [-8.290712, 41.413901], [-8.278702, 41.417909], [-8.266666, 41.424067], [-8.254592, 41.433403], [-8.243962, 41.445407], [-8.215217, 41.490252], [-8.21211, 41.499238], [-8.211739, 41.508243], [-8.214598, 41.517269], [-8.222097, 41.526328], [-8.229488, 41.531917], [-8.241414, 41.537157], [-8.301159, 41.555361], [-8.325096, 41.559741], [-8.337088, 41.559758], [-8.349099, 41.55791], [-8.361135, 41.553461]], [[-8.361326, 41.534086], [-8.3493, 41.537906], [-8.337294, 41.539605], [-8.325311, 41.539108], [-8.311841, 41.535907], [-8.292489, 41.526782], [-8.281362, 41.517706], [-8.269501, 41.499617], [-8.267168, 41.481587], [-8.271253, 41.463598], [-8.277372, 41.454629], [-8.286657, 41.44568], [-8.302429, 41.437067], [-8.314438, 41.433366], [-8.338394, 41.431613], [-8.362294, 41.43544], [-8.374219, 41.440015], [-8.383242, 41.446238], [-8.390448, 41.455284], [-8.394306, 41.473319], [-8.393815, 41.500339], [-8.390206, 41.509327], [-8.383352, 41.518298], [-8.373381, 41.527048], [-8.361326, 41.534086]]], [[[-8.628294, 41.519351], [-8.625145, 41.518216], [-8.62105, 41.519327], [-8.613902, 41.528311], [-8.625056, 41.533646], [-8.634021, 41.528376], [-8.628294, 41.519351]]], [[[-8.581035, 41.191763], [-8.59117, 41.203957], [-8.605959, 41.24004], [-8.614832, 41.249078], [-8.638558, 41.260854], [-8.674327, 41.269553], [-8.698196, 41.271687], [-8.769833, 41.271705], [-8.804466, 41.265502], [-8.802482, 41.215048], [-8.795025, 41.222516], [-8.781905, 41.231842], [-8.763682, 41.240472], [-8.746054, 41.245735], [-8.698285, 41.252334], [-8.674416, 41.251773], [-8.662492, 41.249464], [-8.650576, 41.24569], [-8.638678, 41.239011], [-8.629871, 41.231112], [-8.62337, 41.222083], [-8.608491, 41.186002], [-8.60474, 41.164881], [-8.59422, 41.165149], [-8.589766, 41.167193], [-8.589194, 41.170572], [-8.583263, 41.174422], [-8.582094, 41.177803], [-8.578825, 41.178941], [-8.581035, 41.191763]]]]}}, {"id": "15", "type": "Feature", "properties": {"fill": "#80a4d0", "value_min": 1.33, "value_max": -1.67}, "geometry": {"type": "MultiPolygon", "coordinates": [[[[-8.000083, 41.850716], [-7.998029, 41.839839], [-7.992143, 41.830781], [-7.976458, 41.821635], [-7.961175, 41.818424], [-7.949135, 41.818422], [-7.935318, 41.821261], [-7.920728, 41.830132], [-7.914963, 41.839084], [-7.912861, 41.848071], [-7.913505, 41.857084], [-7.917656, 41.86613], [-7.924135, 41.873309], [-7.930457, 41.877082], [-7.937691, 41.874873], [-7.923648, 41.866186], [-7.91754, 41.857122], [-7.915775, 41.848099], [-7.917452, 41.839108], [-7.92351, 41.830158], [-7.937032, 41.822207], [-7.949112, 41.819801], [-7.961149, 41.82004], [-7.973143, 41.82298], [-7.986359, 41.83073], [-7.992937, 41.839794], [-7.99433, 41.848813], [-7.990826, 41.859483], [-7.995547, 41.858138], [-7.994044, 41.856786], [-7.994652, 41.853861], [-7.996765, 41.851162], [-8.000083, 41.850716]]], [[[-7.990726, 41.859612], [-7.990726, 41.859612], [-7.990479, 41.859933], [-7.990726, 41.859612]]], [[[-7.990424, 41.860004], [-7.990424, 41.860004], [-7.990306, 41.860157], [-7.990424, 41.860004]]], [[[-7.990122, 41.860395], [-7.984481, 41.867409], [-7.970817, 41.875089], [-7.973828, 41.875216], [-7.987996, 41.869157], [-7.990122, 41.860395]]], [[[-8.047126, 41.70572], [-8.059928, 41.705259], [-8.059175, 41.70374], [-8.047148, 41.704269], [-8.047126, 41.70572]]], [[[-8.083316, 41.696437], [-8.095375, 41.693503], [-8.111409, 41.678647], [-8.110232, 41.669631], [-8.095837, 41.660531], [-8.083842, 41.659393], [-8.071776, 41.663225], [-8.064322, 41.669267], [-8.060714, 41.678244], [-8.061765, 41.68726], [-8.071316, 41.695208], [-8.083316, 41.696437]], [[-8.083343, 41.694584], [-8.071384, 41.690531], [-8.067509, 41.687307], [-8.064235, 41.678273], [-8.068622, 41.669302], [-8.071725, 41.666786], [-8.08381, 41.661666], [-8.09581, 41.662408], [-8.106951, 41.669606], [-8.108865, 41.678628], [-8.095396, 41.692023], [-8.083343, 41.694584]]], [[[-8.337551, 41.514437], [-8.349545, 41.513394], [-8.361582, 41.508023], [-8.369697, 41.500209], [-8.373424, 41.491222], [-8.373454, 41.482215], [-8.369962, 41.473189], [-8.362005, 41.464925], [-8.350085, 41.459384], [-8.338124, 41.458171], [-8.326128, 41.460279], [-8.314083, 41.467051], [-8.308523, 41.472836], [-8.304944, 41.481821], [-8.305292, 41.490831], [-8.309491, 41.499864], [-8.31369, 41.504349], [-8.325593, 41.511907], [-8.337551, 41.514437]], [[-8.337241, 41.509034], [-8.325655, 41.505947], [-8.31745, 41.499911], [-8.312072, 41.490872], [-8.311921, 41.481863], [-8.317175, 41.472887], [-8.326062, 41.466682], [-8.338066, 41.463871], [-8.350028, 41.465091], [-8.361939, 41.471619], [-8.368392, 41.482187], [-8.368423, 41.491195], [-8.361643, 41.501828], [-8.349598, 41.508119], [-8.337241, 41.509034]]], [[[-8.686486, 41.223741], [-8.703726, 41.222317], [-8.710362, 41.220323], [-8.722321, 41.213536], [-8.729868, 41.204366], [-8.732476, 41.195364], [-8.731337, 41.186354], [-8.722488, 41.173945], [-8.710597, 41.166979], [-8.69869, 41.164175], [-8.686769, 41.164301], [-8.674833, 41.167461], [-8.662874, 41.175049], [-8.655485, 41.186152], [-8.653905, 41.195155], [-8.655887, 41.204169], [-8.661981, 41.213195], [-8.674569, 41.220946], [-8.686486, 41.223741]], [[-8.686532, 41.213979], [-8.674629, 41.208657], [-8.670339, 41.204211], [-8.668294, 41.195197], [-8.674751, 41.184159], [-8.686697, 41.179322], [-8.698617, 41.179974], [-8.71051, 41.186712], [-8.71421, 41.19532], [-8.711955, 41.204323], [-8.698727, 41.213297], [-8.686532, 41.213979]]]]}}, {"id": "10", "type": "Feature", "properties": {"fill": "#a3a3a3", "value_min": -0.33, "value_max": -0.0}, "geometry": {"type": "MultiPolygon", "coordinates": [[[[-8.064244, 41.816785], [-8.064244, 41.816785], [-8.063933, 41.816531], [-8.064244, 41.816785]]], [[[-8.063693, 41.816335], [-8.057597, 41.81166], [-8.04564, 41.806132], [-8.021616, 41.802672], [-7.985458, 41.805625], [-7.92512, 41.81447], [-7.912955, 41.821866], [-7.886268, 41.855802], [-7.888076, 41.855486], [-7.892001, 41.859095], [-7.90245, 41.838965], [-7.912891, 41.825665], [-7.925078, 41.817004], [-7.937165, 41.81413], [-7.973339, 41.810669], [-7.997405, 41.811432], [-8.009404, 41.814014], [-8.021374, 41.818586], [-8.037737, 41.830048], [-8.041351, 41.828023], [-8.041054, 41.825097], [-8.045268, 41.824425], [-8.046775, 41.821951], [-8.056712, 41.81588], [-8.063693, 41.816335]]], [[[-7.728177, 41.814011], [-7.744581, 41.811721], [-7.756728, 41.806119], [-7.768011, 41.792568], [-7.769794, 41.783581], [-7.767849, 41.774553], [-7.757596, 41.761189], [-7.74688, 41.755201], [-7.743866, 41.756509], [-7.740214, 41.763924], [-7.726935, 41.772192], [-7.733366, 41.769866], [-7.745363, 41.771632], [-7.749144, 41.774351], [-7.754434, 41.783415], [-7.750136, 41.792375], [-7.744888, 41.795989], [-7.732824, 41.797427], [-7.722892, 41.793362], [-7.728879, 41.797871], [-7.72705, 41.801691], [-7.728177, 41.814011]]], [[[-7.722858, 41.793348], [-7.722858, 41.793348], [-7.722592, 41.793239], [-7.722858, 41.793348]]], [[[-8.521211, 41.660075], [-8.498095, 41.626944], [-8.4792, 41.608845], [-8.456719, 41.594734], [-8.417065, 41.581525], [-8.4059, 41.572461], [-8.40244, 41.563435], [-8.404873, 41.545433], [-8.415144, 41.527472], [-8.453727, 41.491632], [-8.475727, 41.464712], [-8.481038, 41.455728], [-8.485178, 41.446739], [-8.486679, 41.437739], [-8.485889, 41.428728], [-8.479554, 41.410684], [-8.458531, 41.377402], [-8.446683, 41.364407], [-8.434801, 41.355774], [-8.422831, 41.35752], [-8.418352, 41.365353], [-8.401598, 41.383282], [-8.386011, 41.392208], [-8.374648, 41.395287], [-8.362678, 41.396188], [-8.350732, 41.394502], [-8.338823, 41.389322], [-8.330516, 41.382891], [-8.325027, 41.373851], [-8.323442, 41.364834], [-8.325037, 41.355836], [-8.329776, 41.346856], [-8.339353, 41.336929], [-8.351371, 41.330218], [-8.357975, 41.328473], [-8.357673, 41.327249], [-8.347523, 41.328169], [-8.342462, 41.333131], [-8.333215, 41.336299], [-8.326363, 41.342163], [-8.324568, 41.341041], [-8.323376, 41.341943], [-8.320676, 41.338121], [-8.312604, 41.334983], [-8.313794, 41.333405], [-8.31139, 41.328007], [-8.307502, 41.325762], [-8.305116, 41.326891], [-8.303024, 41.325994], [-8.303615, 41.323742], [-8.301216, 41.319694], [-8.296431, 41.316774], [-8.297618, 41.313846], [-8.295817, 41.310022], [-8.281801, 41.316569], [-8.281808, 41.319721], [-8.278828, 41.321976], [-8.278238, 41.325128], [-8.273161, 41.325134], [-8.269582, 41.326939], [-8.265709, 41.331221], [-8.269004, 41.336169], [-8.263339, 41.340902], [-8.262751, 41.345405], [-8.256483, 41.347663], [-8.255889, 41.349689], [-8.249622, 41.353072], [-8.251123, 41.356897], [-8.248141, 41.360052], [-8.248448, 41.364328], [-8.245461, 41.364781], [-8.244272, 41.368384], [-8.239197, 41.371315], [-8.232024, 41.369971], [-8.224854, 41.370878], [-8.21738, 41.368182], [-8.214399, 41.373587], [-8.208127, 41.376968], [-8.199163, 41.377423], [-8.194677, 41.374275], [-8.191691, 41.376302], [-8.189299, 41.375403], [-8.184818, 41.376756], [-8.168382, 41.377438], [-8.164499, 41.38059], [-8.152544, 41.375866], [-8.151049, 41.37339], [-8.145073, 41.374742], [-8.141188, 41.377668], [-8.136159, 41.376093], [-8.148463, 41.399703], [-8.170869, 41.428731], [-8.180432, 41.444972], [-8.185957, 41.463026], [-8.191395, 41.508101], [-8.198049, 41.526163], [-8.203743, 41.535209], [-8.217289, 41.549548], [-8.229175, 41.558317], [-8.2836, 41.589778], [-8.297186, 41.598869], [-8.306801, 41.607935], [-8.31217, 41.616974], [-8.314701, 41.625997], [-8.319603, 41.662054], [-8.328253, 41.680119], [-8.335775, 41.68917], [-8.366421, 41.716365], [-8.379147, 41.732808], [-8.384922, 41.73032], [-8.387032, 41.731891], [-8.393033, 41.729852], [-8.396942, 41.730518], [-8.400531, 41.726683], [-8.402934, 41.726452], [-8.404721, 41.722847], [-8.417349, 41.725067], [-8.422737, 41.720552], [-8.429643, 41.719859], [-8.430533, 41.717381], [-8.435927, 41.714441], [-8.441333, 41.714201], [-8.4446, 41.70654], [-8.453868, 41.697961], [-8.453255, 41.695487], [-8.461659, 41.694563], [-8.467939, 41.689593], [-8.478124, 41.685061], [-8.482012, 41.682123], [-8.484371, 41.674238], [-8.49308, 41.674886], [-8.499963, 41.671038], [-8.50927, 41.671233], [-8.51018, 41.672806], [-8.511967, 41.670324], [-8.509856, 41.668755], [-8.512252, 41.667847], [-8.514629, 41.663788], [-8.521211, 41.660075]], [[-8.41989, 41.687612], [-8.407813, 41.694254], [-8.395772, 41.696793], [-8.383753, 41.69694], [-8.371757, 41.694617], [-8.359798, 41.688745], [-8.350202, 41.680246], [-8.34501, 41.671209], [-8.343644, 41.662194], [-8.345789, 41.653199], [-8.351888, 41.644227], [-8.36031, 41.637114], [-8.37237, 41.631556], [-8.397171, 41.626459], [-8.420568, 41.611986], [-8.429041, 41.608607], [-8.444613, 41.607257], [-8.456586, 41.610506], [-8.467198, 41.617797], [-8.472557, 41.626829], [-8.472789, 41.635838], [-8.468306, 41.644862], [-8.456217, 41.65449], [-8.442013, 41.662714], [-8.428395, 41.680661], [-8.41989, 41.687612]], [[-8.361135, 41.553461], [-8.349099, 41.55791], [-8.337088, 41.559758], [-8.325096, 41.559741], [-8.301159, 41.555361], [-8.241414, 41.537157], [-8.229488, 41.531917], [-8.222097, 41.526328], [-8.214598, 41.517269], [-8.211739, 41.508243], [-8.21211, 41.499238], [-8.215217, 41.490252], [-8.243962, 41.445407], [-8.254592, 41.433403], [-8.266666, 41.424067], [-8.278702, 41.417909], [-8.290712, 41.413901], [-8.302694, 41.412311], [-8.326613, 41.413398], [-8.386352, 41.422752], [-8.400193, 41.428313], [-8.41115, 41.437377], [-8.416614, 41.446412], [-8.418352, 41.455429], [-8.417127, 41.46443], [-8.409752, 41.481715], [-8.411045, 41.491421], [-8.406291, 41.509411], [-8.385285, 41.535779], [-8.373195, 41.546373], [-8.361135, 41.553461]]], [[[-8.385139, 41.325726], [-8.41112, 41.330354], [-8.423089, 41.328283], [-8.437605, 41.311403], [-8.448304, 41.302447], [-8.465164, 41.293519], [-8.483154, 41.288257], [-8.503004, 41.284681], [-8.542918, 41.280863], [-8.578756, 41.278696], [-8.602635, 41.279051], [-8.626499, 41.282087], [-8.650347, 41.288661], [-8.662258, 41.29475], [-8.697968, 41.321017], [-8.721827, 41.329956], [-8.80754, 41.343538], [-8.804466, 41.265502], [-8.769833, 41.271705], [-8.698196, 41.271687], [-8.674327, 41.269553], [-8.638558, 41.260854], [-8.614832, 41.249078], [-8.605959, 41.24004], [-8.59117, 41.203957], [-8.581035, 41.191763], [-8.575958, 41.195609], [-8.576894, 41.201908], [-8.574515, 41.202593], [-8.57423, 41.20462], [-8.567971, 41.204644], [-8.565895, 41.206227], [-8.567697, 41.208246], [-8.566512, 41.209376], [-8.559636, 41.206251], [-8.554271, 41.20627], [-8.549521, 41.209214], [-8.544157, 41.209458], [-8.54238, 41.211265], [-8.532257, 41.213102], [-8.52713, 41.203215], [-8.523236, 41.200077], [-8.51163, 41.203042], [-8.510456, 41.206197], [-8.506583, 41.206435], [-8.504239, 41.213646], [-8.500076, 41.21546], [-8.50308, 41.219502], [-8.502204, 41.222656], [-8.495642, 41.222227], [-8.495947, 41.223351], [-8.490894, 41.226294], [-8.487935, 41.230354], [-8.490331, 41.232373], [-8.489156, 41.235528], [-8.486181, 41.236888], [-8.484411, 41.240495], [-8.476346, 41.237818], [-8.475756, 41.23917], [-8.470986, 41.23941], [-8.471604, 41.243459], [-8.469227, 41.245267], [-8.463258, 41.244384], [-8.459989, 41.246644], [-8.454323, 41.246886], [-8.455541, 41.251834], [-8.452276, 41.25522], [-8.449891, 41.255452], [-8.449304, 41.257479], [-8.447812, 41.257258], [-8.449028, 41.261982], [-8.439785, 41.262907], [-8.438023, 41.268989], [-8.434745, 41.269673], [-8.432691, 41.277107], [-8.427032, 41.279372], [-8.429143, 41.284319], [-8.426171, 41.287028], [-8.426488, 41.291079], [-8.425013, 41.294909], [-8.422037, 41.296942], [-8.422647, 41.299867], [-8.407744, 41.304856], [-8.406262, 41.307335], [-8.403277, 41.307342], [-8.401801, 41.311398], [-8.399712, 41.311628], [-8.400316, 41.313202], [-8.396738, 41.314336], [-8.398835, 41.316131], [-8.393775, 41.31997], [-8.393489, 41.323122], [-8.391105, 41.324253], [-8.386325, 41.323588], [-8.385139, 41.325726]]], [[[-8.136076, 41.375868], [-8.136076, 41.375868], [-8.136108, 41.375954], [-8.136076, 41.375868]]], [[[-8.094627, 41.741565], [-8.100069, 41.732601], [-8.101843, 41.723608], [-8.098944, 41.705571], [-8.102436, 41.696592], [-8.119536, 41.684157], [-8.132739, 41.67881], [-8.135615, 41.669825], [-8.126008, 41.660745], [-8.096047, 41.645468], [-8.060115, 41.63912], [-8.024221, 41.630708], [-8.012221, 41.630342], [-8.000075, 41.632697], [-7.986164, 41.641583], [-7.980771, 41.650542], [-7.978938, 41.659533], [-7.97936, 41.668544], [-7.984223, 41.686601], [-7.994928, 41.704709], [-8.008062, 41.71383], [-8.022848, 41.721567], [-8.033698, 41.732062], [-8.046477, 41.749617], [-8.058399, 41.756889], [-8.070418, 41.757519], [-8.082514, 41.752839], [-8.094627, 41.741565]], [[-8.082851, 41.729178], [-8.070728, 41.736033], [-8.05869, 41.736923], [-8.046734, 41.732305], [-8.02249, 41.713953], [-8.013432, 41.704869], [-8.00959, 41.695829], [-8.009653, 41.686823], [-8.015487, 41.677866], [-8.035688, 41.66683], [-8.04708, 41.651111], [-8.059999, 41.647125], [-8.084017, 41.647029], [-8.095993, 41.64933], [-8.107934, 41.654243], [-8.118522, 41.660688], [-8.127296, 41.669762], [-8.125042, 41.678752], [-8.119578, 41.681093], [-8.100027, 41.696573], [-8.094512, 41.705537], [-8.08738, 41.723494], [-8.082851, 41.729178]]], [[[-7.827576, 41.708819], [-7.828924, 41.712144], [-7.842553, 41.719441], [-7.854574, 41.719472], [-7.864704, 41.712503], [-7.867979, 41.703528], [-7.866947, 41.699484], [-7.855332, 41.688407], [-7.855076, 41.688243], [-7.854776, 41.688222], [-7.847538, 41.695365], [-7.837309, 41.699391], [-7.835792, 41.702763], [-7.839682, 41.705924], [-7.838465, 41.709522], [-7.832453, 41.710407], [-7.827576, 41.708819]], [[-7.860191, 41.703451], [-7.857411, 41.712431], [-7.854665, 41.714319], [-7.842794, 41.712284], [-7.84004, 41.70325], [-7.842893, 41.700456], [-7.854955, 41.697981], [-7.860191, 41.703451]]], [[[-8.684864, 41.560387], [-8.690495, 41.555564], [-8.695745, 41.546571], [-8.697037, 41.537567], [-8.695221, 41.528555], [-8.689223, 41.519531], [-8.677162, 41.510491], [-8.649228, 41.497232], [-8.625319, 41.488108], [-8.613343, 41.487541], [-8.601345, 41.49057], [-8.589316, 41.498478], [-8.582035, 41.510184], [-8.580456, 41.519186], [-8.581514, 41.528197], [-8.589037, 41.542566], [-8.600951, 41.554744], [-8.612897, 41.562409], [-8.624861, 41.567441], [-8.636838, 41.570343], [-8.648827, 41.571305], [-8.660826, 41.570409], [-8.672837, 41.567161], [-8.684864, 41.560387]], [[-8.628294, 41.519351], [-8.634021, 41.528376], [-8.625056, 41.533646], [-8.613902, 41.528311], [-8.62105, 41.519327], [-8.625145, 41.518216], [-8.628294, 41.519351]]]]}}, {"id": "16", "type": "Feature", "properties": {"fill": "#6ba5ec", "value_min": 1.67, "value_max": -2.0}, "geometry": {"type": "MultiPolygon", "coordinates": [[[[-7.970817, 41.875089], [-7.984481, 41.867409], [-7.990122, 41.860395], [-7.990306, 41.860157], [-7.990424, 41.860004], [-7.990479, 41.859933], [-7.990726, 41.859612], [-7.990826, 41.859483], [-7.99433, 41.848813], [-7.992937, 41.839794], [-7.986359, 41.83073], [-7.973143, 41.82298], [-7.961149, 41.82004], [-7.949112, 41.819801], [-7.937032, 41.822207], [-7.92351, 41.830158], [-7.917452, 41.839108], [-7.915775, 41.848099], [-7.91754, 41.857122], [-7.923648, 41.866186], [-7.937691, 41.874873], [-7.941014, 41.871319], [-7.930466, 41.86625], [-7.921576, 41.85716], [-7.918688, 41.848126], [-7.919943, 41.839131], [-7.92616, 41.830183], [-7.937006, 41.823746], [-7.94909, 41.821181], [-7.961123, 41.821652], [-7.973105, 41.825348], [-7.981945, 41.830691], [-7.988203, 41.839753], [-7.989331, 41.848769], [-7.985835, 41.857745], [-7.976685, 41.866671], [-7.972401, 41.869322], [-7.960291, 41.873031], [-7.955765, 41.873102], [-7.956362, 41.875191], [-7.960878, 41.875648], [-7.962086, 41.874074], [-7.970817, 41.875089]]], [[[-8.083343, 41.694584], [-8.095396, 41.692023], [-8.108865, 41.678628], [-8.106951, 41.669606], [-8.09581, 41.662408], [-8.08381, 41.661666], [-8.071725, 41.666786], [-8.068622, 41.669302], [-8.064235, 41.678273], [-8.067509, 41.687307], [-8.071384, 41.690531], [-8.083343, 41.694584]], [[-8.083369, 41.692729], [-8.072631, 41.687348], [-8.067756, 41.678302], [-8.072762, 41.669335], [-8.083782, 41.663644], [-8.095784, 41.664285], [-8.103983, 41.669583], [-8.10667, 41.678611], [-8.095416, 41.690543], [-8.083369, 41.692729]]], [[[-8.337241, 41.509034], [-8.349598, 41.508119], [-8.361643, 41.501828], [-8.368423, 41.491195], [-8.368392, 41.482187], [-8.361939, 41.471619], [-8.350028, 41.465091], [-8.338066, 41.463871], [-8.326062, 41.466682], [-8.317175, 41.472887], [-8.311921, 41.481863], [-8.312072, 41.490872], [-8.31745, 41.499911], [-8.325655, 41.505947], [-8.337241, 41.509034]], [[-8.337651, 41.504664], [-8.325207, 41.499957], [-8.318337, 41.490909], [-8.31841, 41.481902], [-8.326, 41.472687], [-8.338017, 41.468632], [-8.34998, 41.469959], [-8.355378, 41.473108], [-8.36333, 41.482159], [-8.363423, 41.491167], [-8.355769, 41.500132], [-8.349644, 41.503553], [-8.337651, 41.504664]]], [[[-8.686532, 41.213979], [-8.698727, 41.213297], [-8.711955, 41.204323], [-8.71421, 41.19532], [-8.71051, 41.186712], [-8.698617, 41.179974], [-8.686697, 41.179322], [-8.674751, 41.184159], [-8.668294, 41.195197], [-8.670339, 41.204211], [-8.674629, 41.208657], [-8.686532, 41.213979]]]]}}, {"id": "6", "type": "Feature", "properties": {"fill": "#cba158", "value_min": -1.67, "value_max": -1.33}, "geometry": {"type": "MultiPolygon", "coordinates": [[[[-7.888651, 41.834725], [-7.913223, 41.80603], [-7.92528, 41.804929], [-7.949347, 41.80545], [-7.958275, 41.803458], [-7.972119, 41.794576], [-7.975448, 41.785599], [-7.971858, 41.77656], [-7.961961, 41.769746], [-7.930326, 41.767174], [-7.919036, 41.758061], [-7.918865, 41.749053], [-7.92981, 41.731142], [-7.932686, 41.722161], [-7.932044, 41.713148], [-7.926965, 41.703817], [-7.915416, 41.694979], [-7.903127, 41.692095], [-7.891051, 41.695499], [-7.883072, 41.703676], [-7.878802, 41.708834], [-7.869254, 41.730562], [-7.866363, 41.732734], [-7.842174, 41.74056], [-7.827608, 41.748158], [-7.820666, 41.757094], [-7.818139, 41.766074], [-7.812892, 41.802048], [-7.814586, 41.820079], [-7.819155, 41.829132], [-7.828367, 41.838409], [-7.840298, 41.8447], [-7.852307, 41.846723], [-7.864367, 41.845908], [-7.876477, 41.842183], [-7.888651, 41.834725]], [[-7.852444, 41.839035], [-7.840484, 41.834377], [-7.833814, 41.829282], [-7.827861, 41.820215], [-7.825611, 41.811185], [-7.826695, 41.802189], [-7.835537, 41.784266], [-7.83768, 41.775281], [-7.836428, 41.766261], [-7.837685, 41.757267], [-7.84575, 41.748342], [-7.854129, 41.74452], [-7.866198, 41.742069], [-7.878221, 41.742271], [-7.887988, 41.748758], [-7.891965, 41.757803], [-7.894931, 41.775846], [-7.901576, 41.783136], [-7.913627, 41.782126], [-7.923554, 41.776117], [-7.937831, 41.773804], [-7.949855, 41.774306], [-7.961816, 41.778711], [-7.967775, 41.78553], [-7.965985, 41.794521], [-7.961512, 41.797568], [-7.950065, 41.803383], [-7.937336, 41.80383], [-7.913413, 41.794802], [-7.906493, 41.802977], [-7.897383, 41.820903], [-7.888729, 41.830208], [-7.876566, 41.837106], [-7.864475, 41.839792], [-7.852444, 41.839035]], [[-7.890316, 41.738261], [-7.882604, 41.730692], [-7.879125, 41.721651], [-7.881622, 41.712669], [-7.890932, 41.702465], [-7.902986, 41.70036], [-7.914909, 41.706056], [-7.920221, 41.713038], [-7.920068, 41.722043], [-7.914515, 41.729468], [-7.90236, 41.737149], [-7.890316, 41.738261]]], [[[-8.328717, 41.763292], [-8.330143, 41.752187], [-8.327873, 41.743167], [-8.322265, 41.734127], [-8.311352, 41.724486], [-8.299392, 41.718661], [-8.287397, 41.716233], [-8.275377, 41.716115], [-8.263332, 41.718237], [-8.249704, 41.724669], [-8.239381, 41.733608], [-8.231448, 41.742562], [-8.229178, 41.751554], [-8.231031, 41.760573], [-8.237605, 41.769624], [-8.251251, 41.781395], [-8.251845, 41.777172], [-8.257551, 41.773564], [-8.261762, 41.774235], [-8.26583, 41.771079], [-8.254348, 41.760727], [-8.251905, 41.751704], [-8.253638, 41.742708], [-8.260918, 41.733748], [-8.275257, 41.726843], [-8.287291, 41.725902], [-8.299285, 41.728587], [-8.308301, 41.734043], [-8.315699, 41.743095], [-8.317576, 41.752113], [-8.314353, 41.761965], [-8.318308, 41.761283], [-8.325233, 41.765098], [-8.328717, 41.763292]]], [[[-8.251361, 41.781449], [-8.251361, 41.781449], [-8.252154, 41.781838], [-8.251361, 41.781449]]], [[[-8.190585, 41.767382], [-8.204008, 41.760389], [-8.211754, 41.751436], [-8.211296, 41.742426], [-8.203303, 41.733363], [-8.191102, 41.7262], [-8.179101, 41.724408], [-8.16706, 41.725858], [-8.15326, 41.733006], [-8.146198, 41.74196], [-8.145724, 41.750964], [-8.154546, 41.763277], [-8.166509, 41.768419], [-8.178527, 41.769447], [-8.190585, 41.767382]], [[-8.166648, 41.757716], [-8.156293, 41.751042], [-8.154207, 41.742019], [-8.166985, 41.731684], [-8.179004, 41.732033], [-8.190075, 41.742278], [-8.187847, 41.751269], [-8.178683, 41.757237], [-8.166648, 41.757716]]], [[[-8.127118, 41.696782], [-8.119423, 41.692473], [-8.111782, 41.696664], [-8.119238, 41.706055], [-8.127118, 41.696782]], [[-8.116397, 41.6967], [-8.119388, 41.695059], [-8.122399, 41.696746], [-8.119315, 41.700419], [-8.116397, 41.6967]]], [[[-8.216098, 41.688416], [-8.203423, 41.688329], [-8.198655, 41.697303], [-8.203399, 41.704044], [-8.21541, 41.704649], [-8.221861, 41.697462], [-8.216098, 41.688416]]], [[[-8.167116, 41.634029], [-8.166268, 41.625016], [-8.159681, 41.615961], [-8.144579, 41.607702], [-8.120626, 41.604102], [-8.096745, 41.595515], [-8.084735, 41.596308], [-8.072634, 41.603434], [-8.07057, 41.606268], [-8.068893, 41.615261], [-8.075871, 41.624325], [-8.084286, 41.627993], [-8.096278, 41.628959], [-8.108218, 41.633696], [-8.115077, 41.642647], [-8.131998, 41.650922], [-8.144, 41.651465], [-8.156061, 41.647519], [-8.162933, 41.643006], [-8.167116, 41.634029]], [[-8.132049, 41.647141], [-8.122008, 41.642701], [-8.11532, 41.633642], [-8.117804, 41.624654], [-8.132447, 41.617455], [-8.14443, 41.619], [-8.152728, 41.624917], [-8.156003, 41.633948], [-8.151074, 41.642919], [-8.144068, 41.646364], [-8.132049, 41.647141]], [[-8.084417, 41.618744], [-8.081466, 41.615362], [-8.084524, 41.61121], [-8.096498, 41.613178], [-8.09853, 41.615498], [-8.09644, 41.617322], [-8.084417, 41.618744]]], [[[-8.534199, 41.573052], [-8.528915, 41.566788], [-8.516947, 41.563348], [-8.504899, 41.570526], [-8.503243, 41.572922], [-8.506149, 41.581942], [-8.516773, 41.586729], [-8.528788, 41.584276], [-8.531722, 41.582049], [-8.534199, 41.573052]]], [[[-8.07589, 41.554784], [-8.085255, 41.559418], [-8.097214, 41.561844], [-8.109206, 41.561839], [-8.121232, 41.559375], [-8.13332, 41.552254], [-8.140996, 41.543765], [-8.144242, 41.534782], [-8.143828, 41.525772], [-8.138749, 41.516726], [-8.13384, 41.513294], [-8.120335, 41.50758], [-8.109981, 41.50536], [-8.092402, 41.504171], [-8.0912, 41.511025], [-8.097941, 41.509494], [-8.109915, 41.510166], [-8.126759, 41.516636], [-8.132916, 41.52569], [-8.132502, 41.534694], [-8.125692, 41.54365], [-8.121404, 41.546701], [-8.109362, 41.550514], [-8.097374, 41.550336], [-8.083389, 41.544902], [-8.081886, 41.550977], [-8.079489, 41.551876], [-8.074097, 41.549848], [-8.072897, 41.551197], [-8.07589, 41.554784]]], [[[-8.66176, 41.391166], [-8.673763, 41.382795], [-8.679501, 41.375384], [-8.681864, 41.366383], [-8.68059, 41.357372], [-8.675587, 41.34835], [-8.666569, 41.339317], [-8.650126, 41.330015], [-8.638195, 41.326634], [-8.62625, 41.325809], [-8.614291, 41.327448], [-8.602313, 41.332041], [-8.590301, 41.341826], [-8.585859, 41.348063], [-8.583359, 41.357061], [-8.584174, 41.366072], [-8.588524, 41.375095], [-8.597018, 41.384133], [-8.613903, 41.393143], [-8.625847, 41.396175], [-8.637806, 41.39683], [-8.649776, 41.395259], [-8.66176, 41.391166]], [[-8.637859, 41.3873], [-8.625901, 41.386751], [-8.613963, 41.382861], [-8.603323, 41.375147], [-8.59783, 41.36612], [-8.597132, 41.35711], [-8.60099, 41.348116], [-8.612013, 41.339146], [-8.626197, 41.335001], [-8.638146, 41.335344], [-8.650078, 41.338958], [-8.662768, 41.348314], [-8.667838, 41.357336], [-8.668242, 41.366345], [-8.663752, 41.375339], [-8.650672, 41.384308], [-8.637859, 41.3873]]]]}}, {"id": "7", "type": "Feature", "properties": {"fill": "#b1a288", "value_min": -1.33, "value_max": -1.0}, "geometry": {"type": "MultiPolygon", "coordinates": [[[[-7.875547, 41.848256], [-7.888571, 41.839379], [-7.913109, 41.8128], [-7.925222, 41.808392], [-7.949315, 41.807364], [-7.966681, 41.803534], [-7.981176, 41.794657], [-7.986374, 41.785696], [-7.987231, 41.776696], [-7.983823, 41.76766], [-7.955541, 41.731378], [-7.944722, 41.704259], [-7.938276, 41.695192], [-7.927272, 41.685356], [-7.915354, 41.679555], [-7.903363, 41.678165], [-7.89129, 41.68158], [-7.887679, 41.685707], [-7.878989, 41.698099], [-7.866517, 41.723975], [-7.854384, 41.730179], [-7.818195, 41.736579], [-7.811081, 41.738981], [-7.801547, 41.747889], [-7.798916, 41.756868], [-7.796475, 41.81989], [-7.799209, 41.828926], [-7.805037, 41.837993], [-7.816123, 41.849251], [-7.828056, 41.855465], [-7.840062, 41.857725], [-7.852126, 41.85683], [-7.864225, 41.853901], [-7.872444, 41.849804], [-7.873066, 41.844875], [-7.875547, 41.848256]], [[-7.888651, 41.834725], [-7.876477, 41.842183], [-7.864367, 41.845908], [-7.852307, 41.846723], [-7.840298, 41.8447], [-7.828367, 41.838409], [-7.819155, 41.829132], [-7.814586, 41.820079], [-7.812892, 41.802048], [-7.818139, 41.766074], [-7.820666, 41.757094], [-7.827608, 41.748158], [-7.842174, 41.74056], [-7.866363, 41.732734], [-7.869254, 41.730562], [-7.878802, 41.708834], [-7.883072, 41.703676], [-7.891051, 41.695499], [-7.903127, 41.692095], [-7.915416, 41.694979], [-7.926965, 41.703817], [-7.932044, 41.713148], [-7.932686, 41.722161], [-7.92981, 41.731142], [-7.918865, 41.749053], [-7.919036, 41.758061], [-7.930326, 41.767174], [-7.961961, 41.769746], [-7.971858, 41.77656], [-7.975448, 41.785599], [-7.972119, 41.794576], [-7.958275, 41.803458], [-7.949347, 41.80545], [-7.92528, 41.804929], [-7.913223, 41.80603], [-7.888651, 41.834725]]], [[[-8.346592, 41.761009], [-8.342248, 41.74325], [-8.337102, 41.734213], [-8.323428, 41.719412], [-8.311495, 41.711127], [-8.299537, 41.705367], [-8.263627, 41.692378], [-8.239795, 41.675213], [-8.227847, 41.669719], [-8.215866, 41.667116], [-8.203842, 41.668107], [-8.191757, 41.673871], [-8.186968, 41.679207], [-8.181614, 41.688176], [-8.178826, 41.70617], [-8.172735, 41.715133], [-8.167171, 41.717243], [-8.14383, 41.732936], [-8.135944, 41.741884], [-8.133786, 41.750874], [-8.135027, 41.759891], [-8.139839, 41.768934], [-8.154301, 41.781886], [-8.178249, 41.79124], [-8.215598, 41.800838], [-8.217598, 41.80016], [-8.217589, 41.793634], [-8.224207, 41.794303], [-8.229917, 41.791598], [-8.240744, 41.791588], [-8.24074, 41.789338], [-8.244347, 41.787984], [-8.245546, 41.785731], [-8.250356, 41.785052], [-8.252154, 41.781838], [-8.251361, 41.781449], [-8.251251, 41.781395], [-8.237605, 41.769624], [-8.231031, 41.760573], [-8.229178, 41.751554], [-8.231448, 41.742562], [-8.239381, 41.733608], [-8.249704, 41.724669], [-8.263332, 41.718237], [-8.275377, 41.716115], [-8.287397, 41.716233], [-8.299392, 41.718661], [-8.311352, 41.724486], [-8.322265, 41.734127], [-8.327873, 41.743167], [-8.330143, 41.752187], [-8.328717, 41.763292], [-8.336653, 41.763728], [-8.338452, 41.762149], [-8.344765, 41.762363], [-8.346592, 41.761009]], [[-8.190585, 41.767382], [-8.178527, 41.769447], [-8.166509, 41.768419], [-8.154546, 41.763277], [-8.145724, 41.750964], [-8.146198, 41.74196], [-8.15326, 41.733006], [-8.16706, 41.725858], [-8.179101, 41.724408], [-8.191102, 41.7262], [-8.203303, 41.733363], [-8.211296, 41.742426], [-8.211754, 41.751436], [-8.204008, 41.760389], [-8.190585, 41.767382]], [[-8.216098, 41.688416], [-8.221861, 41.697462], [-8.21541, 41.704649], [-8.203399, 41.704044], [-8.198655, 41.697303], [-8.203423, 41.688329], [-8.216098, 41.688416]]], [[[-8.131375, 41.697296], [-8.131395, 41.695835], [-8.119458, 41.689886], [-8.107253, 41.696629], [-8.107621, 41.705639], [-8.11918, 41.710323], [-8.131375, 41.697296]], [[-8.127118, 41.696782], [-8.119238, 41.706055], [-8.111782, 41.696664], [-8.119423, 41.692473], [-8.127118, 41.696782]]], [[[-8.058055, 41.578874], [-8.054626, 41.606138], [-8.056998, 41.615164], [-8.063874, 41.624228], [-8.072262, 41.629384], [-8.084205, 41.633719], [-8.096184, 41.635661], [-8.120003, 41.649909], [-8.131941, 41.655171], [-8.143923, 41.657311], [-8.155937, 41.657008], [-8.167983, 41.65422], [-8.173611, 41.65209], [-8.184218, 41.643159], [-8.187786, 41.634177], [-8.187605, 41.625169], [-8.184444, 41.616139], [-8.178429, 41.607089], [-8.151735, 41.579874], [-8.150482, 41.570857], [-8.157328, 41.550197], [-8.159389, 41.534894], [-8.154065, 41.51684], [-8.144027, 41.507758], [-8.133963, 41.50405], [-8.07205, 41.494157], [-8.078332, 41.500331], [-8.092402, 41.504171], [-8.109981, 41.50536], [-8.120335, 41.50758], [-8.13384, 41.513294], [-8.138749, 41.516726], [-8.143828, 41.525772], [-8.144242, 41.534782], [-8.140996, 41.543765], [-8.13332, 41.552254], [-8.121232, 41.559375], [-8.109206, 41.561839], [-8.097214, 41.561844], [-8.085255, 41.559418], [-8.07589, 41.554784], [-8.076188, 41.557276], [-8.080082, 41.558854], [-8.081576, 41.565157], [-8.078879, 41.56493], [-8.075279, 41.568305], [-8.073182, 41.568079], [-8.069283, 41.570553], [-8.068081, 41.573478], [-8.058055, 41.578874]], [[-8.167116, 41.634029], [-8.162933, 41.643006], [-8.156061, 41.647519], [-8.144, 41.651465], [-8.131998, 41.650922], [-8.115077, 41.642647], [-8.108218, 41.633696], [-8.096278, 41.628959], [-8.084286, 41.627993], [-8.075871, 41.624325], [-8.068893, 41.615261], [-8.07057, 41.606268], [-8.072634, 41.603434], [-8.084735, 41.596308], [-8.096745, 41.595515], [-8.120626, 41.604102], [-8.144579, 41.607702], [-8.159681, 41.615961], [-8.166268, 41.625016], [-8.167116, 41.634029]]], [[[-8.552131, 41.582131], [-8.552505, 41.573125], [-8.548435, 41.564102], [-8.540975, 41.557336], [-8.529023, 41.551904], [-8.51704, 41.550869], [-8.505025, 41.553984], [-8.492049, 41.563866], [-8.48815, 41.572856], [-8.490044, 41.581872], [-8.498017, 41.590914], [-8.50471, 41.595314], [-8.516681, 41.598984], [-8.52868, 41.599078], [-8.540708, 41.595166], [-8.546441, 41.591116], [-8.552131, 41.582131]], [[-8.534199, 41.573052], [-8.531722, 41.582049], [-8.528788, 41.584276], [-8.516773, 41.586729], [-8.506149, 41.581942], [-8.503243, 41.572922], [-8.504899, 41.570526], [-8.516947, 41.563348], [-8.528915, 41.566788], [-8.534199, 41.573052]]], [[[-8.673669, 41.401567], [-8.687468, 41.393422], [-8.695565, 41.384436], [-8.699122, 41.375437], [-8.699314, 41.36643], [-8.696404, 41.357415], [-8.690713, 41.348392], [-8.674009, 41.333445], [-8.662099, 41.325673], [-8.650178, 41.320239], [-8.63825, 41.31667], [-8.62631, 41.315266], [-8.61436, 41.315733], [-8.602397, 41.318178], [-8.590419, 41.322956], [-8.579643, 41.330025], [-8.571328, 41.339002], [-8.567188, 41.347994], [-8.565719, 41.356996], [-8.566742, 41.366007], [-8.570057, 41.375028], [-8.576818, 41.38406], [-8.58724, 41.393106], [-8.601892, 41.401185], [-8.625779, 41.40795], [-8.649708, 41.408019], [-8.661684, 41.405753], [-8.673669, 41.401567]], [[-8.66176, 41.391166], [-8.649776, 41.395259], [-8.637806, 41.39683], [-8.625847, 41.396175], [-8.613903, 41.393143], [-8.597018, 41.384133], [-8.588524, 41.375095], [-8.584174, 41.366072], [-8.583359, 41.357061], [-8.585859, 41.348063], [-8.590301, 41.341826], [-8.602313, 41.332041], [-8.614291, 41.327448], [-8.62625, 41.325809], [-8.638195, 41.326634], [-8.650126, 41.330015], [-8.666569, 41.339317], [-8.675587, 41.34835], [-8.68059, 41.357372], [-8.681864, 41.366383], [-8.679501, 41.375384], [-8.673763, 41.382795], [-8.66176, 41.391166]]]]}}, {"id": "5", "type": "Feature", "properties": {"fill": "#e79f24", "value_min": -2.0, "value_max": -1.67}, "geometry": {"type": "MultiPolygon", "coordinates": [[[[-7.852444, 41.839035], [-7.864475, 41.839792], [-7.876566, 41.837106], [-7.888729, 41.830208], [-7.897383, 41.820903], [-7.906493, 41.802977], [-7.913413, 41.794802], [-7.937336, 41.80383], [-7.950065, 41.803383], [-7.961512, 41.797568], [-7.965985, 41.794521], [-7.967775, 41.78553], [-7.961816, 41.778711], [-7.949855, 41.774306], [-7.937831, 41.773804], [-7.923554, 41.776117], [-7.913627, 41.782126], [-7.901576, 41.783136], [-7.894931, 41.775846], [-7.891965, 41.757803], [-7.887988, 41.748758], [-7.878221, 41.742271], [-7.866198, 41.742069], [-7.854129, 41.74452], [-7.84575, 41.748342], [-7.837685, 41.757267], [-7.836428, 41.766261], [-7.83768, 41.775281], [-7.835537, 41.784266], [-7.826695, 41.802189], [-7.825611, 41.811185], [-7.827861, 41.820215], [-7.833814, 41.829282], [-7.840484, 41.834377], [-7.852444, 41.839035]], [[-7.864563, 41.834802], [-7.85256, 41.832527], [-7.840676, 41.823725], [-7.837876, 41.820317], [-7.835487, 41.811286], [-7.837806, 41.802302], [-7.845468, 41.793373], [-7.85336, 41.787724], [-7.865438, 41.785238], [-7.877457, 41.786123], [-7.891724, 41.793828], [-7.897706, 41.802893], [-7.897659, 41.811899], [-7.893233, 41.820863], [-7.888809, 41.825625], [-7.87664, 41.832904], [-7.864563, 41.834802]], [[-7.937389, 41.800595], [-7.925473, 41.794149], [-7.925005, 41.785138], [-7.937755, 41.778426], [-7.949784, 41.778665], [-7.960791, 41.785467], [-7.95997, 41.794467], [-7.94943, 41.80037], [-7.937389, 41.800595]], [[-7.856735, 41.766465], [-7.853791, 41.763505], [-7.852236, 41.757413], [-7.866031, 41.751605], [-7.875083, 41.757639], [-7.870564, 41.766602], [-7.86571, 41.76983], [-7.856735, 41.766465]]], [[[-8.314353, 41.761965], [-8.317576, 41.752113], [-8.315699, 41.743095], [-8.308301, 41.734043], [-8.299285, 41.728587], [-8.287291, 41.725902], [-8.275257, 41.726843], [-8.260918, 41.733748], [-8.253638, 41.742708], [-8.251905, 41.751704], [-8.254348, 41.760727], [-8.26583, 41.771079], [-8.271366, 41.766346], [-8.274372, 41.766342], [-8.27792, 41.764087], [-8.270719, 41.760832], [-8.264612, 41.751786], [-8.266819, 41.742793], [-8.275151, 41.736269], [-8.2872, 41.734063], [-8.299175, 41.738706], [-8.303689, 41.743023], [-8.30561, 41.752041], [-8.301469, 41.758609], [-8.305674, 41.758152], [-8.311096, 41.762195], [-8.314353, 41.761965]]], [[[-8.301467, 41.758612], [-8.301467, 41.758612], [-8.301327, 41.758834], [-8.301467, 41.758612]]], [[[-8.166648, 41.757716], [-8.178683, 41.757237], [-8.187847, 41.751269], [-8.190075, 41.742278], [-8.179004, 41.732033], [-8.166985, 41.731684], [-8.154207, 41.742019], [-8.156293, 41.751042], [-8.166648, 41.757716]], [[-8.164427, 41.742094], [-8.166877, 41.73999], [-8.175662, 41.742175], [-8.166796, 41.746254], [-8.164427, 41.742094]]], [[[-7.890316, 41.738261], [-7.90236, 41.737149], [-7.914515, 41.729468], [-7.920068, 41.722043], [-7.920221, 41.713038], [-7.914909, 41.706056], [-7.902986, 41.70036], [-7.890932, 41.702465], [-7.881622, 41.712669], [-7.879125, 41.721651], [-7.882604, 41.730692], [-7.890316, 41.738261]], [[-7.89051, 41.726989], [-7.885979, 41.721718], [-7.886989, 41.712721], [-7.890826, 41.708592], [-7.902861, 41.707721], [-7.909891, 41.71294], [-7.909412, 41.721943], [-7.90253, 41.727162], [-7.89051, 41.726989]]], [[[-8.116397, 41.6967], [-8.119315, 41.700419], [-8.122399, 41.696746], [-8.119388, 41.695059], [-8.116397, 41.6967]]], [[[-8.132049, 41.647141], [-8.144068, 41.646364], [-8.151074, 41.642919], [-8.156003, 41.633948], [-8.152728, 41.624917], [-8.14443, 41.619], [-8.132447, 41.617455], [-8.117804, 41.624654], [-8.11532, 41.633642], [-8.122008, 41.642701], [-8.132049, 41.647141]], [[-8.130764, 41.642767], [-8.122998, 41.633701], [-8.132348, 41.624886], [-8.144298, 41.628973], [-8.147585, 41.633886], [-8.144167, 41.638895], [-8.136049, 41.642807], [-8.130764, 41.642767]]], [[[-8.084417, 41.618744], [-8.09644, 41.617322], [-8.09853, 41.615498], [-8.096498, 41.613178], [-8.084524, 41.61121], [-8.081466, 41.615362], [-8.084417, 41.618744]]], [[[-8.083389, 41.544902], [-8.097374, 41.550336], [-8.109362, 41.550514], [-8.121404, 41.546701], [-8.125692, 41.54365], [-8.132502, 41.534694], [-8.132916, 41.52569], [-8.126759, 41.516636], [-8.109915, 41.510166], [-8.097941, 41.509494], [-8.0912, 41.511025], [-8.089996, 41.519697], [-8.093512, 41.516379], [-8.097866, 41.514916], [-8.109849, 41.514968], [-8.114226, 41.51654], [-8.123796, 41.525621], [-8.12156, 41.535164], [-8.109479, 41.541972], [-8.103464, 41.541727], [-8.106759, 41.543557], [-8.101666, 41.542655], [-8.094175, 41.544904], [-8.087885, 41.542876], [-8.083389, 41.544902]]], [[[-8.637859, 41.3873], [-8.650672, 41.384308], [-8.663752, 41.375339], [-8.668242, 41.366345], [-8.667838, 41.357336], [-8.662768, 41.348314], [-8.650078, 41.338958], [-8.638146, 41.335344], [-8.626197, 41.335001], [-8.612013, 41.339146], [-8.60099, 41.348116], [-8.597132, 41.35711], [-8.59783, 41.36612], [-8.603323, 41.375147], [-8.613963, 41.382861], [-8.625901, 41.386751], [-8.637859, 41.3873]], [[-8.625954, 41.377555], [-8.614037, 41.370503], [-8.610665, 41.366164], [-8.609999, 41.357155], [-8.617065, 41.348171], [-8.626144, 41.344312], [-8.638097, 41.344227], [-8.650021, 41.349638], [-8.655516, 41.3573], [-8.655268, 41.366307], [-8.64611, 41.375287], [-8.63791, 41.378086], [-8.625954, 41.377555]]]]}}, {"id": "9", "type": "Feature", "properties": {"fill": "#a3a3a3", "value_min": -0.67, "value_max": -0.33}, "geometry": {"type": "MultiPolygon", "coordinates": [[[[-8.553433, 41.615259], [-8.557244, 41.617046], [-8.564441, 41.616794], [-8.568056, 41.619031], [-8.570735, 41.616095], [-8.577321, 41.614269], [-8.581231, 41.615829], [-8.585766, 41.620988], [-8.591462, 41.620515], [-8.596534, 41.616668], [-8.601628, 41.615972], [-8.603996, 41.611686], [-8.613256, 41.606696], [-8.619881, 41.610269], [-8.621338, 41.604636], [-8.628833, 41.604378], [-8.636302, 41.600744], [-8.64075, 41.594422], [-8.645536, 41.593051], [-8.646744, 41.594171], [-8.649125, 41.591909], [-8.656622, 41.5921], [-8.660788, 41.588255], [-8.663794, 41.589141], [-8.665265, 41.585758], [-8.66948, 41.587989], [-8.684455, 41.586117], [-8.685608, 41.58071], [-8.697261, 41.576376], [-8.701703, 41.570277], [-8.707704, 41.570923], [-8.711586, 41.569327], [-8.716422, 41.573805], [-8.720316, 41.57356], [-8.725151, 41.577811], [-8.726633, 41.576003], [-8.734424, 41.575737], [-8.736564, 41.580228], [-8.738354, 41.579318], [-8.740778, 41.582006], [-8.74467, 41.581535], [-8.750711, 41.58623], [-8.756374, 41.582823], [-8.75635, 41.580347], [-8.762327, 41.578514], [-8.764443, 41.580303], [-8.767441, 41.580286], [-8.769874, 41.583874], [-8.768997, 41.58613], [-8.773228, 41.589482], [-8.775371, 41.593972], [-8.78556, 41.593464], [-8.797327, 41.600599], [-8.804218, 41.600109], [-8.80456, 41.604158], [-8.809434, 41.611332], [-8.828644, 41.609656], [-8.82839, 41.585633], [-8.818497, 41.554794], [-8.8221, 41.547542], [-8.821965, 41.534907], [-8.815926, 41.525624], [-8.81063, 41.5101], [-8.813279, 41.503483], [-8.812636, 41.496944], [-8.804699, 41.482068], [-8.798552, 41.474753], [-8.80154, 41.446836], [-8.806115, 41.43713], [-8.807354, 41.425915], [-8.811166, 41.417099], [-8.80754, 41.343538], [-8.721827, 41.329956], [-8.697968, 41.321017], [-8.662258, 41.29475], [-8.650347, 41.288661], [-8.626499, 41.282087], [-8.602635, 41.279051], [-8.578756, 41.278696], [-8.542918, 41.280863], [-8.503004, 41.284681], [-8.483154, 41.288257], [-8.465164, 41.293519], [-8.448304, 41.302447], [-8.437605, 41.311403], [-8.423089, 41.328283], [-8.41112, 41.330354], [-8.385139, 41.325726], [-8.380382, 41.331254], [-8.375305, 41.33104], [-8.37201, 41.328346], [-8.365142, 41.32836], [-8.362758, 41.329715], [-8.357975, 41.328473], [-8.351371, 41.330218], [-8.339353, 41.336929], [-8.329776, 41.346856], [-8.325037, 41.355836], [-8.323442, 41.364834], [-8.325027, 41.373851], [-8.330516, 41.382891], [-8.338823, 41.389322], [-8.350732, 41.394502], [-8.362678, 41.396188], [-8.374648, 41.395287], [-8.386011, 41.392208], [-8.401598, 41.383282], [-8.418352, 41.365353], [-8.422831, 41.35752], [-8.434801, 41.355774], [-8.446683, 41.364407], [-8.458531, 41.377402], [-8.479554, 41.410684], [-8.485889, 41.428728], [-8.486679, 41.437739], [-8.485178, 41.446739], [-8.481038, 41.455728], [-8.475727, 41.464712], [-8.453727, 41.491632], [-8.415144, 41.527472], [-8.404873, 41.545433], [-8.40244, 41.563435], [-8.4059, 41.572461], [-8.417065, 41.581525], [-8.456719, 41.594734], [-8.4792, 41.608845], [-8.498095, 41.626944], [-8.521211, 41.660075], [-8.522103, 41.658811], [-8.525706, 41.659023], [-8.527769, 41.652714], [-8.534066, 41.652017], [-8.537355, 41.64998], [-8.537634, 41.646602], [-8.543876, 41.637352], [-8.543855, 41.633976], [-8.536342, 41.631977], [-8.535132, 41.630406], [-8.542247, 41.617025], [-8.528552, 41.616727], [-8.516568, 41.614215], [-8.504604, 41.60912], [-8.492656, 41.602253], [-8.47846, 41.590827], [-8.468843, 41.579444], [-8.456932, 41.569233], [-8.444985, 41.563823], [-8.433073, 41.554476], [-8.43001, 41.545561], [-8.43249, 41.536566], [-8.455829, 41.518664], [-8.460316, 41.509678], [-8.467668, 41.500704], [-8.481522, 41.494028], [-8.493503, 41.493902], [-8.509114, 41.500889], [-8.522292, 41.518959], [-8.532243, 41.528007], [-8.553079, 41.54107], [-8.564988, 41.553033], [-8.573259, 41.564196], [-8.579999, 41.582236], [-8.579662, 41.591242], [-8.575847, 41.600235], [-8.566945, 41.609209], [-8.553433, 41.615259]], [[-8.684864, 41.560387], [-8.672837, 41.567161], [-8.660826, 41.570409], [-8.648827, 41.571305], [-8.636838, 41.570343], [-8.624861, 41.567441], [-8.612897, 41.562409], [-8.600951, 41.554744], [-8.589037, 41.542566], [-8.581514, 41.528197], [-8.580456, 41.519186], [-8.582035, 41.510184], [-8.589316, 41.498478], [-8.601345, 41.49057], [-8.613343, 41.487541], [-8.625319, 41.488108], [-8.649228, 41.497232], [-8.677162, 41.510491], [-8.689223, 41.519531], [-8.695221, 41.528555], [-8.697037, 41.537567], [-8.695745, 41.546571], [-8.690495, 41.555564], [-8.684864, 41.560387]], [[-8.67355, 41.425288], [-8.637633, 41.427862], [-8.613715, 41.424841], [-8.589835, 41.41611], [-8.577908, 41.410017], [-8.564547, 41.40203], [-8.553258, 41.392979], [-8.54515, 41.383939], [-8.539948, 41.374911], [-8.53665, 41.36589], [-8.536132, 41.347873], [-8.539007, 41.338877], [-8.544423, 41.329891], [-8.553177, 41.320917], [-8.566592, 41.312314], [-8.578572, 41.307178], [-8.602497, 41.301761], [-8.626388, 41.301667], [-8.63832, 41.303881], [-8.650246, 41.307618], [-8.67407, 41.32117], [-8.701482, 41.339413], [-8.722806, 41.357482], [-8.729739, 41.366506], [-8.733173, 41.375521], [-8.734147, 41.384531], [-8.732226, 41.393534], [-8.726849, 41.402529], [-8.709498, 41.415179], [-8.695183, 41.420465], [-8.67355, 41.425288]]], [[[-8.379147, 41.732808], [-8.366421, 41.716365], [-8.335775, 41.68917], [-8.328253, 41.680119], [-8.319603, 41.662054], [-8.314701, 41.625997], [-8.31217, 41.616974], [-8.306801, 41.607935], [-8.297186, 41.598869], [-8.2836, 41.589778], [-8.229175, 41.558317], [-8.217289, 41.549548], [-8.203743, 41.535209], [-8.198049, 41.526163], [-8.191395, 41.508101], [-8.185957, 41.463026], [-8.180432, 41.444972], [-8.170869, 41.428731], [-8.148463, 41.399703], [-8.136159, 41.376093], [-8.136108, 41.375954], [-8.136076, 41.375868], [-8.131924, 41.374292], [-8.119672, 41.376768], [-8.119672, 41.378569], [-8.116683, 41.380144], [-8.117578, 41.386447], [-8.113992, 41.386896], [-8.112795, 41.390723], [-8.110105, 41.390947], [-8.108011, 41.393648], [-8.103827, 41.392972], [-8.105321, 41.394998], [-8.10263, 41.396123], [-8.10801, 41.398825], [-8.108606, 41.403102], [-8.104419, 41.406252], [-8.104119, 41.408728], [-8.101727, 41.409403], [-8.102025, 41.411204], [-8.092756, 41.411201], [-8.09126, 41.414352], [-8.079893, 41.41975], [-8.077503, 41.416597], [-8.070923, 41.41862], [-8.066739, 41.416142], [-8.061654, 41.417489], [-8.059852, 41.424916], [-8.055959, 41.429415], [-8.05745, 41.432793], [-8.056549, 41.436394], [-8.069999, 41.447206], [-8.068498, 41.452832], [-8.069729, 41.45891], [-8.074645, 41.462445], [-8.087113, 41.480299], [-8.096906, 41.489383], [-8.110141, 41.493701], [-8.122107, 41.494714], [-8.146112, 41.491343], [-8.15805, 41.494524], [-8.169844, 41.509107], [-8.18577, 41.553098], [-8.193087, 41.567288], [-8.203012, 41.580241], [-8.242869, 41.625546], [-8.298093, 41.679939], [-8.340581, 41.716219], [-8.356492, 41.736231], [-8.357897, 41.735103], [-8.362407, 41.735994], [-8.368703, 41.73193], [-8.373822, 41.734846], [-8.379147, 41.732808]]], [[[-7.886268, 41.855802], [-7.912955, 41.821866], [-7.92512, 41.81447], [-7.985458, 41.805625], [-8.021616, 41.802672], [-8.04564, 41.806132], [-8.057597, 41.81166], [-8.063693, 41.816335], [-8.063933, 41.816531], [-8.064244, 41.816785], [-8.06995, 41.816113], [-8.072962, 41.813414], [-8.078678, 41.813417], [-8.082892, 41.810493], [-8.091013, 41.812521], [-8.093421, 41.811397], [-8.093723, 41.808471], [-8.101845, 41.809824], [-8.104853, 41.81185], [-8.115984, 41.812302], [-8.123807, 41.808702], [-8.132141, 41.808927], [-8.121876, 41.795818], [-8.117181, 41.786775], [-8.114257, 41.777746], [-8.113947, 41.75973], [-8.11996, 41.741762], [-8.126415, 41.732805], [-8.143035, 41.724249], [-8.154926, 41.715004], [-8.158516, 41.706023], [-8.155733, 41.687989], [-8.15731, 41.678993], [-8.153577, 41.669959], [-8.096107, 41.641215], [-8.064778, 41.633242], [-8.049271, 41.624108], [-8.024898, 41.602257], [-8.02367, 41.603156], [-8.019174, 41.601802], [-8.005971, 41.60629], [-8.003562, 41.611239], [-7.998761, 41.612809], [-7.999669, 41.608759], [-7.996976, 41.605829], [-7.996684, 41.602003], [-7.984685, 41.603564], [-7.982292, 41.60086], [-7.975689, 41.603552], [-7.974482, 41.606701], [-7.970882, 41.607147], [-7.969091, 41.603768], [-7.965796, 41.602413], [-7.9541, 41.602846], [-7.952606, 41.600592], [-7.947808, 41.60081], [-7.945413, 41.599456], [-7.942725, 41.595625], [-7.936733, 41.594264], [-7.93791, 41.601694], [-7.937004, 41.603718], [-7.931604, 41.604384], [-7.930073, 41.614735], [-7.925255, 41.620579], [-7.920755, 41.620796], [-7.917748, 41.623041], [-7.915933, 41.627764], [-7.913229, 41.628885], [-7.912613, 41.63361], [-7.908774, 41.633603], [-7.939653, 41.663068], [-7.974862, 41.715065], [-7.986722, 41.725319], [-8.01077, 41.725202], [-8.022559, 41.731968], [-8.022598, 41.740975], [-8.013822, 41.749907], [-8.011127, 41.758891], [-8.01119, 41.776905], [-8.006645, 41.785873], [-7.99563, 41.794784], [-7.976532, 41.803622], [-7.949284, 41.809277], [-7.925164, 41.811854], [-7.913031, 41.817421], [-7.888466, 41.845409], [-7.879656, 41.852979], [-7.886268, 41.855802]], [[-8.094627, 41.741565], [-8.082514, 41.752839], [-8.070418, 41.757519], [-8.058399, 41.756889], [-8.046477, 41.749617], [-8.033698, 41.732062], [-8.022848, 41.721567], [-8.008062, 41.71383], [-7.994928, 41.704709], [-7.984223, 41.686601], [-7.97936, 41.668544], [-7.978938, 41.659533], [-7.980771, 41.650542], [-7.986164, 41.641583], [-8.000075, 41.632697], [-8.012221, 41.630342], [-8.024221, 41.630708], [-8.060115, 41.63912], [-8.096047, 41.645468], [-8.126008, 41.660745], [-8.135615, 41.669825], [-8.132739, 41.67881], [-8.119536, 41.684157], [-8.102436, 41.696592], [-8.098944, 41.705571], [-8.101843, 41.723608], [-8.100069, 41.732601], [-8.094627, 41.741565]], [[-8.107124, 41.712854], [-8.103161, 41.705604], [-8.104845, 41.696611], [-8.107377, 41.694581], [-8.119495, 41.687222], [-8.131523, 41.686327], [-8.139622, 41.687869], [-8.142491, 41.696898], [-8.131308, 41.702287], [-8.119121, 41.714591], [-8.107124, 41.712854]]], [[[-7.745913, 41.840693], [-7.756175, 41.834725], [-7.768459, 41.822137], [-7.779902, 41.801702], [-7.782578, 41.792723], [-7.783536, 41.783727], [-7.780114, 41.765677], [-7.769927, 41.74538], [-7.762026, 41.734645], [-7.759597, 41.739005], [-7.75689, 41.739446], [-7.758687, 41.740577], [-7.757758, 41.745301], [-7.748417, 41.749321], [-7.74688, 41.755201], [-7.757596, 41.761189], [-7.767849, 41.774553], [-7.769794, 41.783581], [-7.768011, 41.792568], [-7.756728, 41.806119], [-7.744581, 41.811721], [-7.728177, 41.814011], [-7.732041, 41.821514], [-7.743152, 41.825154], [-7.742839, 41.827178], [-7.738918, 41.82874], [-7.742196, 41.833928], [-7.74729, 41.837772], [-7.745913, 41.840693]]], [[[-7.815183, 41.718689], [-7.830441, 41.724395], [-7.842436, 41.725968], [-7.85448, 41.72478], [-7.860157, 41.721465], [-7.866638, 41.717064], [-7.872588, 41.703574], [-7.87278, 41.694569], [-7.870369, 41.685966], [-7.867999, 41.68551], [-7.868008, 41.68326], [-7.864403, 41.683701], [-7.864096, 41.685276], [-7.858987, 41.68639], [-7.857773, 41.689538], [-7.855332, 41.688407], [-7.866947, 41.699484], [-7.867979, 41.703528], [-7.864704, 41.712503], [-7.854574, 41.719472], [-7.842553, 41.719441], [-7.828924, 41.712144], [-7.827576, 41.708819], [-7.825252, 41.708813], [-7.818621, 41.713522], [-7.815183, 41.718689]]], [[[-7.854776, 41.688222], [-7.854776, 41.688222], [-7.855076, 41.688243], [-7.854776, 41.688222]]]]}}, {"id": "8", "type": "Feature", "properties": {"fill": "#a3a3a3", "value_min": -1.0, "value_max": -0.67}, "geometry": {"type": "MultiPolygon", "coordinates": [[[[-7.879656, 41.852979], [-7.888466, 41.845409], [-7.913031, 41.817421], [-7.925164, 41.811854], [-7.949284, 41.809277], [-7.976532, 41.803622], [-7.99563, 41.794784], [-8.006645, 41.785873], [-8.01119, 41.776905], [-8.011127, 41.758891], [-8.013822, 41.749907], [-8.022598, 41.740975], [-8.022559, 41.731968], [-8.01077, 41.725202], [-7.986722, 41.725319], [-7.974862, 41.715065], [-7.939653, 41.663068], [-7.908774, 41.633603], [-7.906014, 41.633147], [-7.906884, 41.641927], [-7.904483, 41.641923], [-7.897869, 41.645511], [-7.89696, 41.647985], [-7.893961, 41.647528], [-7.892455, 41.649101], [-7.892145, 41.651576], [-7.901724, 41.658573], [-7.902017, 41.660599], [-7.899913, 41.66127], [-7.900198, 41.665547], [-7.898396, 41.665769], [-7.896885, 41.668692], [-7.882465, 41.671588], [-7.877044, 41.676077], [-7.876723, 41.681253], [-7.873702, 41.685973], [-7.870369, 41.685966], [-7.87278, 41.694569], [-7.872588, 41.703574], [-7.866638, 41.717064], [-7.860157, 41.721465], [-7.85448, 41.72478], [-7.842436, 41.725968], [-7.830441, 41.724395], [-7.815183, 41.718689], [-7.808986, 41.717996], [-7.808396, 41.715744], [-7.803298, 41.714154], [-7.790966, 41.717044], [-7.789449, 41.719966], [-7.78464, 41.720402], [-7.78252, 41.723546], [-7.776204, 41.724652], [-7.773786, 41.727346], [-7.770798, 41.72441], [-7.765698, 41.723044], [-7.761765, 41.727758], [-7.763248, 41.731139], [-7.762026, 41.734645], [-7.769927, 41.74538], [-7.780114, 41.765677], [-7.783536, 41.783727], [-7.782578, 41.792723], [-7.779902, 41.801702], [-7.768459, 41.822137], [-7.756175, 41.834725], [-7.745913, 41.840693], [-7.746349, 41.84407], [-7.750541, 41.847685], [-7.750532, 41.849261], [-7.743309, 41.849012], [-7.746901, 41.8524], [-7.746881, 41.855776], [-7.73843, 41.859348], [-7.734159, 41.868337], [-7.730228, 41.871024], [-7.729293, 41.875972], [-7.722351, 41.878424], [-7.720523, 41.881793], [-7.725335, 41.882935], [-7.726208, 41.887665], [-7.737044, 41.888828], [-7.737935, 41.890857], [-7.74246, 41.889747], [-7.742785, 41.885922], [-7.756022, 41.888441], [-7.758719, 41.890926], [-7.756592, 41.89407], [-7.758076, 41.897901], [-7.763193, 41.898593], [-7.779227, 41.886264], [-7.785257, 41.885157], [-7.788886, 41.882467], [-7.794007, 41.882257], [-7.796739, 41.878214], [-7.794349, 41.87438], [-7.797064, 41.873488], [-7.803381, 41.874857], [-7.804914, 41.869459], [-7.813032, 41.871958], [-7.814229, 41.873537], [-7.823863, 41.874013], [-7.825059, 41.875817], [-7.830479, 41.875831], [-7.830789, 41.874031], [-7.832894, 41.874712], [-7.83772, 41.872924], [-7.842528, 41.875187], [-7.841663, 41.866632], [-7.849515, 41.861475], [-7.858542, 41.862622], [-7.859456, 41.860148], [-7.864877, 41.859711], [-7.872444, 41.849804], [-7.864225, 41.853901], [-7.852126, 41.85683], [-7.840062, 41.857725], [-7.828056, 41.855465], [-7.816123, 41.849251], [-7.805037, 41.837993], [-7.799209, 41.828926], [-7.796475, 41.81989], [-7.798916, 41.756868], [-7.801547, 41.747889], [-7.811081, 41.738981], [-7.818195, 41.736579], [-7.854384, 41.730179], [-7.866517, 41.723975], [-7.878989, 41.698099], [-7.887679, 41.685707], [-7.89129, 41.68158], [-7.903363, 41.678165], [-7.915354, 41.679555], [-7.927272, 41.685356], [-7.938276, 41.695192], [-7.944722, 41.704259], [-7.955541, 41.731378], [-7.983823, 41.76766], [-7.987231, 41.776696], [-7.986374, 41.785696], [-7.981176, 41.794657], [-7.966681, 41.803534], [-7.949315, 41.807364], [-7.925222, 41.808392], [-7.913109, 41.8128], [-7.888571, 41.839379], [-7.875547, 41.848256], [-7.879656, 41.852979]]], [[[-8.356492, 41.736231], [-8.340581, 41.716219], [-8.298093, 41.679939], [-8.242869, 41.625546], [-8.203012, 41.580241], [-8.193087, 41.567288], [-8.18577, 41.553098], [-8.169844, 41.509107], [-8.15805, 41.494524], [-8.146112, 41.491343], [-8.122107, 41.494714], [-8.110141, 41.493701], [-8.096906, 41.489383], [-8.087113, 41.480299], [-8.074645, 41.462445], [-8.069729, 41.45891], [-8.068788, 41.462286], [-8.073872, 41.46499], [-8.074164, 41.473543], [-8.066374, 41.482318], [-8.066069, 41.48817], [-8.072054, 41.490199], [-8.07205, 41.494157], [-8.133963, 41.50405], [-8.144027, 41.507758], [-8.154065, 41.51684], [-8.159389, 41.534894], [-8.157328, 41.550197], [-8.150482, 41.570857], [-8.151735, 41.579874], [-8.178429, 41.607089], [-8.184444, 41.616139], [-8.187605, 41.625169], [-8.187786, 41.634177], [-8.184218, 41.643159], [-8.173611, 41.65209], [-8.167983, 41.65422], [-8.155937, 41.657008], [-8.143923, 41.657311], [-8.131941, 41.655171], [-8.120003, 41.649909], [-8.096184, 41.635661], [-8.084205, 41.633719], [-8.072262, 41.629384], [-8.063874, 41.624228], [-8.056998, 41.615164], [-8.054626, 41.606138], [-8.058055, 41.578874], [-8.052181, 41.584498], [-8.052777, 41.587649], [-8.048277, 41.590122], [-8.047974, 41.592373], [-8.044072, 41.595521], [-8.031467, 41.602938], [-8.024898, 41.602257], [-8.049271, 41.624108], [-8.064778, 41.633242], [-8.096107, 41.641215], [-8.153577, 41.669959], [-8.15731, 41.678993], [-8.155733, 41.687989], [-8.158516, 41.706023], [-8.154926, 41.715004], [-8.143035, 41.724249], [-8.126415, 41.732805], [-8.11996, 41.741762], [-8.113947, 41.75973], [-8.114257, 41.777746], [-8.117181, 41.786775], [-8.121876, 41.795818], [-8.132141, 41.808927], [-8.138247, 41.808477], [-8.139751, 41.813203], [-8.14276, 41.812978], [-8.145769, 41.815453], [-8.149078, 41.814777], [-8.153893, 41.817928], [-8.165326, 41.81815], [-8.173744, 41.808019], [-8.177655, 41.808242], [-8.183676, 41.812741], [-8.190291, 41.809587], [-8.197158, 41.814129], [-8.201063, 41.808724], [-8.204973, 41.807372], [-8.205872, 41.804445], [-8.213692, 41.803765], [-8.215598, 41.800838], [-8.178249, 41.79124], [-8.154301, 41.781886], [-8.139839, 41.768934], [-8.135027, 41.759891], [-8.133786, 41.750874], [-8.135944, 41.741884], [-8.14383, 41.732936], [-8.167171, 41.717243], [-8.172735, 41.715133], [-8.178826, 41.70617], [-8.181614, 41.688176], [-8.186968, 41.679207], [-8.191757, 41.673871], [-8.203842, 41.668107], [-8.215866, 41.667116], [-8.227847, 41.669719], [-8.239795, 41.675213], [-8.263627, 41.692378], [-8.299537, 41.705367], [-8.311495, 41.711127], [-8.323428, 41.719412], [-8.337102, 41.734213], [-8.342248, 41.74325], [-8.346592, 41.761009], [-8.349267, 41.760103], [-8.352557, 41.755145], [-8.349814, 41.744122], [-8.352516, 41.743441], [-8.352203, 41.739616], [-8.356492, 41.736231]]], [[[-8.107124, 41.712854], [-8.119121, 41.714591], [-8.131308, 41.702287], [-8.142491, 41.696898], [-8.139622, 41.687869], [-8.131523, 41.686327], [-8.119495, 41.687222], [-8.107377, 41.694581], [-8.104845, 41.696611], [-8.103161, 41.705604], [-8.107124, 41.712854]], [[-8.131375, 41.697296], [-8.11918, 41.710323], [-8.107621, 41.705639], [-8.107253, 41.696629], [-8.119458, 41.689886], [-8.131395, 41.695835], [-8.131375, 41.697296]]], [[[-8.553433, 41.615259], [-8.566945, 41.609209], [-8.575847, 41.600235], [-8.579662, 41.591242], [-8.579999, 41.582236], [-8.573259, 41.564196], [-8.564988, 41.553033], [-8.553079, 41.54107], [-8.532243, 41.528007], [-8.522292, 41.518959], [-8.509114, 41.500889], [-8.493503, 41.493902], [-8.481522, 41.494028], [-8.467668, 41.500704], [-8.460316, 41.509678], [-8.455829, 41.518664], [-8.43249, 41.536566], [-8.43001, 41.545561], [-8.433073, 41.554476], [-8.444985, 41.563823], [-8.456932, 41.569233], [-8.468843, 41.579444], [-8.47846, 41.590827], [-8.492656, 41.602253], [-8.504604, 41.60912], [-8.516568, 41.614215], [-8.528552, 41.616727], [-8.542247, 41.617025], [-8.543431, 41.61462], [-8.553433, 41.615259]], [[-8.552131, 41.582131], [-8.546441, 41.591116], [-8.540708, 41.595166], [-8.52868, 41.599078], [-8.516681, 41.598984], [-8.50471, 41.595314], [-8.498017, 41.590914], [-8.490044, 41.581872], [-8.48815, 41.572856], [-8.492049, 41.563866], [-8.505025, 41.553984], [-8.51704, 41.550869], [-8.529023, 41.551904], [-8.540975, 41.557336], [-8.548435, 41.564102], [-8.552505, 41.573125], [-8.552131, 41.582131]]], [[[-8.67355, 41.425288], [-8.695183, 41.420465], [-8.709498, 41.415179], [-8.726849, 41.402529], [-8.732226, 41.393534], [-8.734147, 41.384531], [-8.733173, 41.375521], [-8.729739, 41.366506], [-8.722806, 41.357482], [-8.701482, 41.339413], [-8.67407, 41.32117], [-8.650246, 41.307618], [-8.63832, 41.303881], [-8.626388, 41.301667], [-8.602497, 41.301761], [-8.578572, 41.307178], [-8.566592, 41.312314], [-8.553177, 41.320917], [-8.544423, 41.329891], [-8.539007, 41.338877], [-8.536132, 41.347873], [-8.53665, 41.36589], [-8.539948, 41.374911], [-8.54515, 41.383939], [-8.553258, 41.392979], [-8.564547, 41.40203], [-8.577908, 41.410017], [-8.589835, 41.41611], [-8.613715, 41.424841], [-8.637633, 41.427862], [-8.67355, 41.425288]], [[-8.673669, 41.401567], [-8.661684, 41.405753], [-8.649708, 41.408019], [-8.625779, 41.40795], [-8.601892, 41.401185], [-8.58724, 41.393106], [-8.576818, 41.38406], [-8.570057, 41.375028], [-8.566742, 41.366007], [-8.565719, 41.356996], [-8.567188, 41.347994], [-8.571328, 41.339002], [-8.579643, 41.330025], [-8.590419, 41.322956], [-8.602397, 41.318178], [-8.61436, 41.315733], [-8.62631, 41.315266], [-8.63825, 41.31667], [-8.650178, 41.320239], [-8.662099, 41.325673], [-8.674009, 41.333445], [-8.690713, 41.348392], [-8.696404, 41.357415], [-8.699314, 41.36643], [-8.699122, 41.375437], [-8.695565, 41.384436], [-8.687468, 41.393422], [-8.673669, 41.401567]]]]}}, {"id": "17", "type": "Feature", "properties": {"fill": "#5599f7", "value_min": 2.0, "value_max": -2.33}, "geometry": {"type": "MultiPolygon", "coordinates": [[[[-7.955765, 41.873102], [-7.960291, 41.873031], [-7.972401, 41.869322], [-7.976685, 41.866671], [-7.985835, 41.857745], [-7.989331, 41.848769], [-7.988203, 41.839753], [-7.981945, 41.830691], [-7.973105, 41.825348], [-7.961123, 41.821652], [-7.94909, 41.821181], [-7.937006, 41.823746], [-7.92616, 41.830183], [-7.919943, 41.839131], [-7.918688, 41.848126], [-7.921576, 41.85716], [-7.930466, 41.86625], [-7.941014, 41.871319], [-7.951254, 41.871132], [-7.955765, 41.873102]], [[-7.948301, 41.869352], [-7.93631, 41.865773], [-7.925701, 41.857199], [-7.9216, 41.848153], [-7.922432, 41.839154], [-7.928689, 41.830206], [-7.936981, 41.825285], [-7.949065, 41.822696], [-7.961097, 41.823225], [-7.977928, 41.830655], [-7.9839, 41.839715], [-7.984436, 41.848726], [-7.980242, 41.857696], [-7.972482, 41.864268], [-7.960359, 41.868862], [-7.948301, 41.869352]]], [[[-8.083369, 41.692729], [-8.095416, 41.690543], [-8.10667, 41.678611], [-8.103983, 41.669583], [-8.095784, 41.664285], [-8.083782, 41.663644], [-8.072762, 41.669335], [-8.067756, 41.678302], [-8.072631, 41.687348], [-8.083369, 41.692729]], [[-8.083395, 41.690876], [-8.076417, 41.687379], [-8.071278, 41.67833], [-8.076506, 41.669365], [-8.083753, 41.665622], [-8.095758, 41.666163], [-8.101015, 41.66956], [-8.104823, 41.678596], [-8.095437, 41.689065], [-8.083395, 41.690876]]], [[[-8.337651, 41.504664], [-8.349644, 41.503553], [-8.355769, 41.500132], [-8.363423, 41.491167], [-8.36333, 41.482159], [-8.355378, 41.473108], [-8.34998, 41.469959], [-8.338017, 41.468632], [-8.326, 41.472687], [-8.31841, 41.481902], [-8.318337, 41.490909], [-8.325207, 41.499957], [-8.337651, 41.504664]], [[-8.337183, 41.500027], [-8.32442, 41.490945], [-8.324703, 41.481939], [-8.337968, 41.473449], [-8.349928, 41.475177], [-8.357365, 41.482126], [-8.357626, 41.491135], [-8.349693, 41.498647], [-8.337183, 41.500027]]]]}}, {"id": "18", "type": "Feature", "properties": {"fill": "#4182f2", "value_min": 2.33, "value_max": -2.67}, "geometry": {"type": "MultiPolygon", "coordinates": [[[[-7.948301, 41.869352], [-7.960359, 41.868862], [-7.972482, 41.864268], [-7.980242, 41.857696], [-7.984436, 41.848726], [-7.9839, 41.839715], [-7.977928, 41.830655], [-7.961097, 41.823225], [-7.949065, 41.822696], [-7.936981, 41.825285], [-7.928689, 41.830206], [-7.922432, 41.839154], [-7.9216, 41.848153], [-7.925701, 41.857199], [-7.93631, 41.865773], [-7.948301, 41.869352]], [[-7.96042, 41.865099], [-7.94836, 41.865725], [-7.936367, 41.862351], [-7.930041, 41.857239], [-7.924514, 41.848181], [-7.924961, 41.839178], [-7.931216, 41.83023], [-7.936955, 41.826824], [-7.94904, 41.824235], [-7.961072, 41.824796], [-7.97391, 41.830619], [-7.980574, 41.839685], [-7.980603, 41.848692], [-7.974814, 41.857647], [-7.96042, 41.865099]]], [[[-8.083395, 41.690876], [-8.095437, 41.689065], [-8.104823, 41.678596], [-8.101015, 41.66956], [-8.095758, 41.666163], [-8.083753, 41.665622], [-8.076506, 41.669365], [-8.071278, 41.67833], [-8.076417, 41.687379], [-8.083395, 41.690876]], [[-8.083422, 41.689022], [-8.080203, 41.687409], [-8.073805, 41.678351], [-8.08025, 41.669395], [-8.083725, 41.6676], [-8.095732, 41.66804], [-8.102975, 41.678582], [-8.095458, 41.687585], [-8.083422, 41.689022]]], [[[-8.337183, 41.500027], [-8.349693, 41.498647], [-8.357626, 41.491135], [-8.357365, 41.482126], [-8.349928, 41.475177], [-8.337968, 41.473449], [-8.324703, 41.481939], [-8.32442, 41.490945], [-8.337183, 41.500027]], [[-8.337755, 41.494412], [-8.33266, 41.490993], [-8.333366, 41.48199], [-8.33791, 41.4792], [-8.349869, 41.481014], [-8.351426, 41.4911], [-8.349753, 41.492684], [-8.337755, 41.494412]]]]}}, {"id": "19", "type": "Feature", "properties": {"fill": "#2e6eed", "value_min": 2.67, "value_max": -3.0}, "geometry": {"type": "MultiPolygon", "coordinates": [[[[-7.96042, 41.865099], [-7.974814, 41.857647], [-7.980603, 41.848692], [-7.980574, 41.839685], [-7.97391, 41.830619], [-7.961072, 41.824796], [-7.94904, 41.824235], [-7.936955, 41.826824], [-7.931216, 41.83023], [-7.924961, 41.839178], [-7.924514, 41.848181], [-7.930041, 41.857239], [-7.936367, 41.862351], [-7.94836, 41.865725], [-7.96042, 41.865099]], [[-7.948407, 41.862858], [-7.934381, 41.857279], [-7.927534, 41.848209], [-7.927909, 41.839206], [-7.933743, 41.830253], [-7.93693, 41.828363], [-7.949014, 41.825775], [-7.961047, 41.826368], [-7.97027, 41.830587], [-7.977248, 41.839656], [-7.976772, 41.848658], [-7.968895, 41.857594], [-7.960472, 41.861851], [-7.948407, 41.862858]]], [[[-8.083422, 41.689022], [-8.095458, 41.687585], [-8.102975, 41.678582], [-8.095732, 41.66804], [-8.083725, 41.6676], [-8.08025, 41.669395], [-8.073805, 41.678351], [-8.080203, 41.687409], [-8.083422, 41.689022]], [[-8.08345, 41.687023], [-8.076248, 41.67837], [-8.083696, 41.669652], [-8.095702, 41.670115], [-8.101128, 41.678567], [-8.095489, 41.685342], [-8.08345, 41.687023]]], [[[-8.337755, 41.494412], [-8.349753, 41.492684], [-8.351426, 41.4911], [-8.349869, 41.481014], [-8.33791, 41.4792], [-8.333366, 41.48199], [-8.33266, 41.490993], [-8.337755, 41.494412]]]]}}, {"id": "22", "type": "Feature", "properties": {"fill": "#1f4099", "value_min": 3.67, "value_max": -4.0}, "geometry": {"type": "MultiPolygon", "coordinates": [[[[-7.967979, 41.839573], [-7.963206, 41.830523], [-7.960996, 41.829512], [-7.948964, 41.828854], [-7.942067, 41.83033], [-7.936834, 41.834149], [-7.933802, 41.839261], [-7.933578, 41.848265], [-7.936541, 41.851863], [-7.94851, 41.856592], [-7.960601, 41.853919], [-7.966878, 41.84857], [-7.967979, 41.839573]]], [[[-8.095624, 41.675721], [-8.083613, 41.675504], [-8.081131, 41.678409], [-8.083531, 41.681294], [-8.095553, 41.680797], [-8.097432, 41.678539], [-8.095624, 41.675721]]]]}}, {"id": "20", "type": "Feature", "properties": {"fill": "#245bd9", "value_min": 3.0, "value_max": -3.33}, "geometry": {"type": "MultiPolygon", "coordinates": [[[[-7.948407, 41.862858], [-7.960472, 41.861851], [-7.968895, 41.857594], [-7.976772, 41.848658], [-7.977248, 41.839656], [-7.97027, 41.830587], [-7.961047, 41.826368], [-7.949014, 41.825775], [-7.93693, 41.828363], [-7.933743, 41.830253], [-7.927909, 41.839206], [-7.927534, 41.848209], [-7.934381, 41.857279], [-7.948407, 41.862858]], [[-7.948454, 41.85999], [-7.936482, 41.855432], [-7.930556, 41.848237], [-7.930856, 41.839233], [-7.936904, 41.829902], [-7.948989, 41.827314], [-7.961021, 41.827941], [-7.966738, 41.830555], [-7.973922, 41.839626], [-7.97294, 41.848624], [-7.960525, 41.858603], [-7.948454, 41.85999]]], [[[-8.08345, 41.687023], [-8.095489, 41.685342], [-8.101128, 41.678567], [-8.095702, 41.670115], [-8.083696, 41.669652], [-8.076248, 41.67837], [-8.08345, 41.687023]], [[-8.083491, 41.684158], [-8.078689, 41.67839], [-8.083655, 41.672578], [-8.095663, 41.672918], [-8.09928, 41.678553], [-8.095521, 41.683069], [-8.083491, 41.684158]]]]}}, {"id": "21", "type": "Feature", "properties": {"fill": "#214db8", "value_min": 3.33, "value_max": -3.67}, "geometry": {"type": "MultiPolygon", "coordinates": [[[[-7.948454, 41.85999], [-7.960525, 41.858603], [-7.97294, 41.848624], [-7.973922, 41.839626], [-7.966738, 41.830555], [-7.961021, 41.827941], [-7.948989, 41.827314], [-7.936904, 41.829902], [-7.930856, 41.839233], [-7.930556, 41.848237], [-7.936482, 41.855432], [-7.948454, 41.85999]], [[-7.967979, 41.839573], [-7.966878, 41.84857], [-7.960601, 41.853919], [-7.94851, 41.856592], [-7.936541, 41.851863], [-7.933578, 41.848265], [-7.933802, 41.839261], [-7.936834, 41.834149], [-7.942067, 41.83033], [-7.948964, 41.828854], [-7.960996, 41.829512], [-7.963206, 41.830523], [-7.967979, 41.839573]]], [[[-8.083491, 41.684158], [-8.095521, 41.683069], [-8.09928, 41.678553], [-8.095663, 41.672918], [-8.083655, 41.672578], [-8.078689, 41.67839], [-8.083491, 41.684158]], [[-8.095624, 41.675721], [-8.097432, 41.678539], [-8.095553, 41.680797], [-8.083531, 41.681294], [-8.081131, 41.678409], [-8.083613, 41.675504], [-8.095624, 41.675721]]]]}}, {"id": "0", "type": "Feature", "properties": {"fill": "#9c1c1c", "value_min": -3.67, "value_max": -3.33}, "geometry": {"type": "Polygon", "coordinates": [[[-7.877023, 41.810992], [-7.864974, 41.811517], [-7.86492, 41.81158], [-7.876997, 41.812457], [-7.877023, 41.810992]]]}}, {"id": "2", "type": "Feature", "properties": {"fill": "#c33119", "value_min": -3.0, "value_max": -2.67}, "geometry": {"type": "Polygon", "coordinates": [[[-7.88875, 41.811813], [-7.884147, 41.802762], [-7.877244, 41.798323], [-7.865214, 41.797919], [-7.855964, 41.802485], [-7.850625, 41.811438], [-7.85475, 41.820486], [-7.864727, 41.825514], [-7.876782, 41.824767], [-7.883072, 41.820765], [-7.88875, 41.811813]], [[-7.864808, 41.820957], [-7.857731, 41.811509], [-7.865127, 41.802888], [-7.87716, 41.803146], [-7.883133, 41.811759], [-7.876968, 41.820705], [-7.864808, 41.820957]]]}}, {"id": "4", "type": "Feature", "properties": {"fill": "#ea870e", "value_min": -2.33, "value_max": -2.0}, "geometry": {"type": "MultiPolygon", "coordinates": [[[[-7.864563, 41.834802], [-7.87664, 41.832904], [-7.888809, 41.825625], [-7.893233, 41.820863], [-7.897659, 41.811899], [-7.897706, 41.802893], [-7.891724, 41.793828], [-7.877457, 41.786123], [-7.865438, 41.785238], [-7.85336, 41.787724], [-7.845468, 41.793373], [-7.837806, 41.802302], [-7.835487, 41.811286], [-7.837876, 41.820317], [-7.840676, 41.823725], [-7.85256, 41.832527], [-7.864563, 41.834802]], [[-7.862646, 41.829571], [-7.852679, 41.825876], [-7.846437, 41.820403], [-7.843692, 41.811368], [-7.847061, 41.802396], [-7.853192, 41.797125], [-7.865305, 41.792813], [-7.877325, 41.79368], [-7.889246, 41.800309], [-7.893236, 41.811857], [-7.888888, 41.821034], [-7.876712, 41.828753], [-7.862646, 41.829571]]], [[[-7.937389, 41.800595], [-7.94943, 41.80037], [-7.95997, 41.794467], [-7.960791, 41.785467], [-7.949784, 41.778665], [-7.937755, 41.778426], [-7.925005, 41.785138], [-7.925473, 41.794149], [-7.937389, 41.800595]], [[-7.937448, 41.796997], [-7.932301, 41.794213], [-7.932592, 41.785209], [-7.937688, 41.782468], [-7.949722, 41.782474], [-7.954472, 41.78541], [-7.954259, 41.794415], [-7.949483, 41.797089], [-7.937448, 41.796997]]], [[[-7.856735, 41.766465], [-7.86571, 41.76983], [-7.870564, 41.766602], [-7.875083, 41.757639], [-7.866031, 41.751605], [-7.852236, 41.757413], [-7.853791, 41.763505], [-7.856735, 41.766465]]], [[[-8.301327, 41.758834], [-8.301467, 41.758612], [-8.301469, 41.758609], [-8.30561, 41.752041], [-8.303689, 41.743023], [-8.299175, 41.738706], [-8.2872, 41.734063], [-8.275151, 41.736269], [-8.266819, 41.742793], [-8.264612, 41.751786], [-8.270719, 41.760832], [-8.27792, 41.764087], [-8.280681, 41.764083], [-8.284038, 41.761109], [-8.284931, 41.757507], [-8.287033, 41.756829], [-8.298457, 41.757263], [-8.301327, 41.758834]], [[-8.284346, 41.751911], [-8.287041, 41.748477], [-8.288435, 41.751936], [-8.286992, 41.752867], [-8.284346, 41.751911]]], [[[-8.164427, 41.742094], [-8.166796, 41.746254], [-8.175662, 41.742175], [-8.166877, 41.73999], [-8.164427, 41.742094]]], [[[-7.89051, 41.726989], [-7.90253, 41.727162], [-7.909412, 41.721943], [-7.909891, 41.71294], [-7.902861, 41.707721], [-7.890826, 41.708592], [-7.886989, 41.712721], [-7.885979, 41.721718], [-7.89051, 41.726989]]], [[[-8.130764, 41.642767], [-8.136049, 41.642807], [-8.144167, 41.638895], [-8.147585, 41.633886], [-8.144298, 41.628973], [-8.132348, 41.624886], [-8.122998, 41.633701], [-8.130764, 41.642767]], [[-8.131704, 41.633767], [-8.132235, 41.633267], [-8.133321, 41.633779], [-8.132221, 41.63437], [-8.131704, 41.633767]]], [[[-8.103464, 41.541727], [-8.109479, 41.541972], [-8.12156, 41.535164], [-8.123796, 41.525621], [-8.114226, 41.51654], [-8.109849, 41.514968], [-8.097866, 41.514916], [-8.093512, 41.516379], [-8.089996, 41.519697], [-8.090594, 41.522169], [-8.093588, 41.52307], [-8.091786, 41.531848], [-8.103464, 41.541727]], [[-8.09768, 41.528298], [-8.096471, 41.525409], [-8.097736, 41.52429], [-8.109736, 41.523233], [-8.112467, 41.525534], [-8.109626, 41.531279], [-8.09768, 41.528298]]], [[[-8.625954, 41.377555], [-8.63791, 41.378086], [-8.64611, 41.375287], [-8.655268, 41.366307], [-8.655516, 41.3573], [-8.650021, 41.349638], [-8.638097, 41.344227], [-8.626144, 41.344312], [-8.617065, 41.348171], [-8.609999, 41.357155], [-8.610665, 41.366164], [-8.614037, 41.370503], [-8.625954, 41.377555]], [[-8.636907, 41.357243], [-8.638026, 41.357169], [-8.638021, 41.358073], [-8.636907, 41.357243]]]]}}, {"id": "3", "type": "Feature", "properties": {"fill": "#d75e13", "value_min": -2.67, "value_max": -2.33}, "geometry": {"type": "MultiPolygon", "coordinates": [[[[-7.862646, 41.829571], [-7.876712, 41.828753], [-7.888888, 41.821034], [-7.893236, 41.811857], [-7.889246, 41.800309], [-7.877325, 41.79368], [-7.865305, 41.792813], [-7.853192, 41.797125], [-7.847061, 41.802396], [-7.843692, 41.811368], [-7.846437, 41.820403], [-7.852679, 41.825876], [-7.862646, 41.829571]], [[-7.88875, 41.811813], [-7.883072, 41.820765], [-7.876782, 41.824767], [-7.864727, 41.825514], [-7.85475, 41.820486], [-7.850625, 41.811438], [-7.855964, 41.802485], [-7.865214, 41.797919], [-7.877244, 41.798323], [-7.884147, 41.802762], [-7.88875, 41.811813]]], [[[-7.937448, 41.796997], [-7.949483, 41.797089], [-7.954259, 41.794415], [-7.954472, 41.78541], [-7.949722, 41.782474], [-7.937688, 41.782468], [-7.932592, 41.785209], [-7.932301, 41.794213], [-7.937448, 41.796997]]], [[[-8.284346, 41.751911], [-8.286992, 41.752867], [-8.288435, 41.751936], [-8.287041, 41.748477], [-8.284346, 41.751911]]], [[[-8.131704, 41.633767], [-8.132221, 41.63437], [-8.133321, 41.633779], [-8.132235, 41.633267], [-8.131704, 41.633767]]], [[[-8.09768, 41.528298], [-8.109626, 41.531279], [-8.112467, 41.525534], [-8.109736, 41.523233], [-8.097736, 41.52429], [-8.096471, 41.525409], [-8.09768, 41.528298]]], [[[-8.636907, 41.357243], [-8.638021, 41.358073], [-8.638026, 41.357169], [-8.636907, 41.357243]]]]}}, {"id": "1", "type": "Feature", "properties": {"fill": "#ae1c1c", "value_min": -3.33, "value_max": -3.0}, "geometry": {"type": "Polygon", "coordinates": [[[-7.864808, 41.820957], [-7.876968, 41.820705], [-7.883133, 41.811759], [-7.87716, 41.803146], [-7.865127, 41.802888], [-7.857731, 41.811509], [-7.864808, 41.820957]], [[-7.877023, 41.810992], [-7.876997, 41.812457], [-7.86492, 41.81158], [-7.864974, 41.811517], [-7.877023, 41.810992]]]}}]}