{"type": "FeatureCollection", "features": [{"id": "2", "type": "Feature", "properties": {"fill": "#fecb90", "value_min": 0.53, "value_max": 0.6}, "geometry": {"type": "MultiPolygon", "coordinates": [[[[-7.777552, 41.724431], [-7.805882, 41.752152], [-7.817766, 41.759993], [-7.829758, 41.762043], [-7.836738, 41.757257], [-7.854033, 41.749929], [-7.866067, 41.749558], [-7.880119, 41.757689], [-7.889818, 41.767195], [-7.901886, 41.764961], [-7.92237, 41.749086], [-7.956027, 41.731383], [-7.964299, 41.722451], [-7.969204, 41.713488], [-7.972622, 41.695505], [-7.971405, 41.686487], [-7.963611, 41.667138], [-7.951956, 41.645129], [-7.94022, 41.628483], [-7.928517, 41.616083], [-7.925255, 41.620579], [-7.920755, 41.620796], [-7.917748, 41.623041], [-7.915933, 41.627764], [-7.913229, 41.628885], [-7.912613, 41.63361], [-7.906014, 41.633147], [-7.906884, 41.641927], [-7.897869, 41.645511], [-7.89696, 41.647985], [-7.892759, 41.647976], [-7.892145, 41.651576], [-7.902319, 41.659925], [-7.899913, 41.66127], [-7.900198, 41.665547], [-7.898396, 41.665769], [-7.896885, 41.668692], [-7.883969, 41.67069], [-7.879755, 41.673607], [-7.877044, 41.676077], [-7.876723, 41.681253], [-7.873401, 41.686198], [-7.868896, 41.686413], [-7.868008, 41.68326], [-7.864403, 41.683701], [-7.864096, 41.685276], [-7.858987, 41.68639], [-7.857773, 41.689538], [-7.854776, 41.68818], [-7.848748, 41.69343], [-7.85502, 41.694341], [-7.862022, 41.703469], [-7.859127, 41.712448], [-7.854615, 41.717164], [-7.842573, 41.71829], [-7.830366, 41.712158], [-7.829736, 41.710175], [-7.825252, 41.708813], [-7.818621, 41.713522], [-7.815291, 41.718689], [-7.808986, 41.717996], [-7.808396, 41.715744], [-7.804499, 41.714158], [-7.79939, 41.714593], [-7.79788, 41.716164], [-7.796383, 41.71526], [-7.790966, 41.717044], [-7.789449, 41.719966], [-7.78464, 41.720402], [-7.78252, 41.723546], [-7.777552, 41.724431]], [[-7.902205, 41.746288], [-7.890187, 41.745775], [-7.878238, 41.741272], [-7.861998, 41.73049], [-7.863254, 41.721495], [-7.866623, 41.717894], [-7.871368, 41.703562], [-7.87441, 41.685578], [-7.879336, 41.678086], [-7.891452, 41.672198], [-7.903472, 41.671749], [-7.915434, 41.674779], [-7.927341, 41.681199], [-7.932754, 41.686134], [-7.939449, 41.695203], [-7.942957, 41.704242], [-7.94303, 41.71325], [-7.939055, 41.72222], [-7.931729, 41.731159], [-7.9143, 41.742232], [-7.902205, 41.746288]]], [[[-8.767443, 41.580503], [-8.774968, 41.573775], [-8.788126, 41.555786], [-8.794247, 41.537782], [-8.794398, 41.519767], [-8.791997, 41.510756], [-8.787725, 41.501741], [-8.780618, 41.49272], [-8.769085, 41.4836], [-8.757127, 41.478098], [-8.745159, 41.475686], [-8.733181, 41.475923], [-8.721192, 41.478848], [-8.690093, 41.492511], [-8.673205, 41.494203], [-8.661233, 41.492472], [-8.646075, 41.483377], [-8.637383, 41.472721], [-8.625441, 41.466907], [-8.613452, 41.469219], [-8.575545, 41.492146], [-8.565361, 41.501115], [-8.558898, 41.510098], [-8.556981, 41.519098], [-8.558009, 41.528109], [-8.56174, 41.537131], [-8.57406, 41.555192], [-8.588849, 41.572147], [-8.612725, 41.591206], [-8.633908, 41.601205], [-8.639577, 41.597804], [-8.640152, 41.59465], [-8.645536, 41.593051], [-8.646744, 41.594171], [-8.649125, 41.591909], [-8.656622, 41.5921], [-8.660788, 41.588255], [-8.663794, 41.589141], [-8.665265, 41.585758], [-8.66948, 41.587989], [-8.684455, 41.586117], [-8.685608, 41.58071], [-8.697261, 41.576376], [-8.701703, 41.570277], [-8.707704, 41.570923], [-8.712485, 41.569323], [-8.716422, 41.573805], [-8.720316, 41.57356], [-8.725151, 41.577811], [-8.726633, 41.576003], [-8.734424, 41.575737], [-8.736564, 41.580228], [-8.738354, 41.579318], [-8.740778, 41.582006], [-8.74467, 41.581535], [-8.750711, 41.58623], [-8.75993, 41.578527], [-8.767443, 41.580503]], [[-8.624994, 41.54433], [-8.613022, 41.541385], [-8.607533, 41.537296], [-8.602258, 41.528271], [-8.604524, 41.519271], [-8.613195, 41.512314], [-8.625192, 41.510057], [-8.637154, 41.513838], [-8.644459, 41.519402], [-8.647821, 41.528419], [-8.643669, 41.537414], [-8.636997, 41.542012], [-8.624994, 41.54433]]], [[[-8.37343, 41.521991], [-8.384689, 41.509298], [-8.387969, 41.500308], [-8.38833, 41.482295], [-8.385984, 41.461798], [-8.380569, 41.446224], [-8.374246, 41.437219], [-8.362387, 41.425866], [-8.350479, 41.419905], [-8.338518, 41.419365], [-8.326531, 41.421359], [-8.302494, 41.431035], [-8.28013, 41.445639], [-8.254201, 41.4676], [-8.230107, 41.479684], [-8.218009, 41.489742], [-8.212763, 41.499242], [-8.211909, 41.508244], [-8.217642, 41.520231], [-8.229521, 41.529186], [-8.241467, 41.532615], [-8.253449, 41.533051], [-8.277471, 41.528871], [-8.289461, 41.528512], [-8.313389, 41.532791], [-8.337351, 41.534052], [-8.349354, 41.532459], [-8.36138, 41.528602], [-8.37343, 41.521991]]], [[[-8.386604, 41.396001], [-8.397475, 41.383261], [-8.400121, 41.374267], [-8.399099, 41.365254], [-8.39392, 41.356219], [-8.387034, 41.350131], [-8.38103, 41.347143], [-8.375133, 41.344687], [-8.363196, 41.34302], [-8.351229, 41.344496], [-8.339223, 41.349737], [-8.33211, 41.355877], [-8.327128, 41.363447], [-8.324603, 41.373849], [-8.326901, 41.385502], [-8.3387, 41.401438], [-8.350597, 41.408101], [-8.362568, 41.40743], [-8.374573, 41.403174], [-8.386604, 41.396001]]], [[[-8.589184, 41.169108], [-8.603164, 41.191621], [-8.608517, 41.204017], [-8.614336, 41.222053], [-8.621156, 41.258107], [-8.624684, 41.267126], [-8.638436, 41.282985], [-8.686051, 41.31446], [-8.697966, 41.321564], [-8.709894, 41.32628], [-8.721829, 41.329647], [-8.745716, 41.332866], [-8.781567, 41.333179], [-8.807046, 41.331011], [-8.799695, 41.14406], [-8.674793, 41.146932], [-8.674849, 41.153767], [-8.672489, 41.15648], [-8.66117, 41.156307], [-8.662078, 41.158104], [-8.660313, 41.160813], [-8.657033, 41.160378], [-8.654961, 41.161963], [-8.653231, 41.169174], [-8.655366, 41.175467], [-8.647955, 41.180228], [-8.647696, 41.185181], [-8.640929, 41.196241], [-8.634946, 41.193341], [-8.632526, 41.188624], [-8.625658, 41.186628], [-8.621132, 41.178994], [-8.613374, 41.177451], [-8.608583, 41.174095], [-8.609164, 41.172066], [-8.604942, 41.164881], [-8.59422, 41.165149], [-8.589174, 41.167645], [-8.589184, 41.169108]]]]}}, {"id": "1", "type": "Feature", "properties": {"fill": "#fffebe", "value_min": 0.47, "value_max": 0.53}, "geometry": {"type": "MultiPolygon", "coordinates": [[[[-8.767443, 41.580503], [-8.769874, 41.583874], [-8.768997, 41.58613], [-8.773228, 41.589482], [-8.774165, 41.593303], [-8.78556, 41.593464], [-8.797327, 41.600599], [-8.804218, 41.600109], [-8.80456, 41.604158], [-8.809434, 41.611332], [-8.828644, 41.609656], [-8.82839, 41.585633], [-8.818497, 41.554794], [-8.8221, 41.547542], [-8.821965, 41.534907], [-8.815926, 41.525624], [-8.81063, 41.5101], [-8.813279, 41.503483], [-8.812636, 41.496944], [-8.804699, 41.482068], [-8.798552, 41.474753], [-8.80154, 41.446836], [-8.806115, 41.43713], [-8.807354, 41.425915], [-8.811166, 41.417099], [-8.807046, 41.331011], [-8.781567, 41.333179], [-8.745716, 41.332866], [-8.721829, 41.329647], [-8.709894, 41.32628], [-8.697966, 41.321564], [-8.686051, 41.31446], [-8.638436, 41.282985], [-8.624684, 41.267126], [-8.621156, 41.258107], [-8.614336, 41.222053], [-8.608517, 41.204017], [-8.603164, 41.191621], [-8.589184, 41.169108], [-8.589194, 41.170572], [-8.583263, 41.174422], [-8.582094, 41.177803], [-8.578825, 41.178941], [-8.581296, 41.191762], [-8.575958, 41.195609], [-8.576894, 41.201908], [-8.574515, 41.202593], [-8.57423, 41.20462], [-8.567971, 41.204644], [-8.565895, 41.206227], [-8.567697, 41.208246], [-8.566512, 41.209376], [-8.559636, 41.206251], [-8.554271, 41.20627], [-8.549521, 41.209214], [-8.544157, 41.209458], [-8.54238, 41.211265], [-8.532257, 41.213102], [-8.52653, 41.202542], [-8.523236, 41.200077], [-8.518471, 41.200543], [-8.51163, 41.203042], [-8.510456, 41.206197], [-8.505693, 41.207113], [-8.504239, 41.213646], [-8.500076, 41.21546], [-8.50308, 41.219502], [-8.502204, 41.222656], [-8.495642, 41.222227], [-8.495947, 41.223351], [-8.490894, 41.226294], [-8.487935, 41.230354], [-8.490331, 41.232373], [-8.489156, 41.235528], [-8.486181, 41.236888], [-8.484411, 41.240495], [-8.476346, 41.237818], [-8.475756, 41.23917], [-8.470986, 41.23941], [-8.471604, 41.243459], [-8.469227, 41.245267], [-8.463258, 41.244384], [-8.459989, 41.246644], [-8.454323, 41.246886], [-8.455541, 41.251834], [-8.452276, 41.25522], [-8.449891, 41.255452], [-8.449304, 41.257479], [-8.447812, 41.257258], [-8.449028, 41.261982], [-8.439785, 41.262907], [-8.438023, 41.268989], [-8.434745, 41.269673], [-8.432691, 41.277107], [-8.427032, 41.279372], [-8.429143, 41.284319], [-8.426171, 41.287028], [-8.426488, 41.291079], [-8.425013, 41.294909], [-8.422037, 41.296942], [-8.422647, 41.299867], [-8.407744, 41.304856], [-8.406262, 41.307335], [-8.403277, 41.307342], [-8.401801, 41.311398], [-8.399712, 41.311628], [-8.400316, 41.313202], [-8.396738, 41.314336], [-8.398835, 41.316131], [-8.393775, 41.31997], [-8.393489, 41.323122], [-8.391105, 41.324253], [-8.386325, 41.323588], [-8.380382, 41.331254], [-8.375305, 41.33104], [-8.37201, 41.328346], [-8.361563, 41.329718], [-8.358276, 41.329049], [-8.357673, 41.327249], [-8.350207, 41.327264], [-8.346032, 41.328847], [-8.342462, 41.333131], [-8.333215, 41.336299], [-8.326363, 41.342163], [-8.324568, 41.341041], [-8.323376, 41.341943], [-8.320676, 41.338121], [-8.312604, 41.334983], [-8.313794, 41.333405], [-8.31139, 41.328007], [-8.307502, 41.325762], [-8.305116, 41.326891], [-8.303024, 41.325994], [-8.303615, 41.323742], [-8.301216, 41.319694], [-8.296431, 41.316774], [-8.297618, 41.313846], [-8.295817, 41.310022], [-8.281801, 41.316569], [-8.281808, 41.319721], [-8.278828, 41.321976], [-8.278238, 41.325128], [-8.273161, 41.325134], [-8.269582, 41.326939], [-8.265709, 41.331221], [-8.269004, 41.336169], [-8.263339, 41.340902], [-8.262751, 41.345405], [-8.256483, 41.347663], [-8.255889, 41.349689], [-8.249622, 41.353072], [-8.251123, 41.356897], [-8.248141, 41.360052], [-8.248448, 41.364328], [-8.245461, 41.364781], [-8.244272, 41.368384], [-8.239197, 41.371315], [-8.232024, 41.369971], [-8.224854, 41.370878], [-8.21738, 41.368182], [-8.214399, 41.373587], [-8.208127, 41.376968], [-8.199163, 41.377423], [-8.194677, 41.374275], [-8.191691, 41.376302], [-8.189299, 41.375403], [-8.184818, 41.376756], [-8.168382, 41.377438], [-8.164499, 41.38059], [-8.152544, 41.375866], [-8.151049, 41.37339], [-8.145073, 41.374742], [-8.139694, 41.377894], [-8.133418, 41.374292], [-8.119672, 41.376768], [-8.119672, 41.378569], [-8.116683, 41.380144], [-8.117578, 41.386447], [-8.113992, 41.386896], [-8.112795, 41.390723], [-8.110105, 41.390947], [-8.108011, 41.393648], [-8.103827, 41.392972], [-8.105321, 41.394998], [-8.10263, 41.396123], [-8.10801, 41.398825], [-8.108606, 41.403102], [-8.104419, 41.406252], [-8.104119, 41.408728], [-8.101727, 41.409403], [-8.102025, 41.411204], [-8.092756, 41.411201], [-8.09126, 41.414352], [-8.079893, 41.41975], [-8.077503, 41.416597], [-8.070923, 41.41862], [-8.066739, 41.416142], [-8.061953, 41.417264], [-8.059852, 41.424916], [-8.055959, 41.429415], [-8.057743, 41.438645], [-8.061033, 41.438872], [-8.064916, 41.444052], [-8.067908, 41.444279], [-8.069999, 41.447206], [-8.068788, 41.462286], [-8.073872, 41.46499], [-8.074468, 41.468141], [-8.073564, 41.474668], [-8.066374, 41.482318], [-8.066069, 41.48817], [-8.072054, 41.490199], [-8.07175, 41.494925], [-8.078333, 41.49898], [-8.078332, 41.500331], [-8.093, 41.504613], [-8.089398, 41.519242], [-8.090594, 41.522169], [-8.093588, 41.52307], [-8.091487, 41.531173], [-8.097775, 41.536127], [-8.097774, 41.537927], [-8.106759, 41.543557], [-8.101666, 41.542655], [-8.094175, 41.544904], [-8.087885, 41.542876], [-8.083389, 41.5449], [-8.080687, 41.551651], [-8.074097, 41.549848], [-8.073494, 41.553449], [-8.075891, 41.554575], [-8.076188, 41.557276], [-8.079783, 41.558403], [-8.081576, 41.565157], [-8.078879, 41.56493], [-8.075279, 41.568305], [-8.073182, 41.568079], [-8.069283, 41.570553], [-8.068081, 41.573478], [-8.056684, 41.579549], [-8.052181, 41.584498], [-8.052777, 41.587649], [-8.048277, 41.590122], [-8.047974, 41.592373], [-8.031467, 41.602938], [-8.02367, 41.603156], [-8.019174, 41.601802], [-8.015872, 41.603824], [-8.013474, 41.603372], [-8.005971, 41.60629], [-8.003562, 41.611239], [-7.998761, 41.612809], [-7.999669, 41.608759], [-7.996976, 41.605829], [-7.996684, 41.602003], [-7.984685, 41.603564], [-7.982292, 41.60086], [-7.975689, 41.603552], [-7.974482, 41.606701], [-7.970882, 41.607147], [-7.969091, 41.603768], [-7.965796, 41.602413], [-7.9541, 41.602846], [-7.952606, 41.600592], [-7.947808, 41.60081], [-7.945413, 41.599456], [-7.942725, 41.595625], [-7.936733, 41.594264], [-7.93791, 41.601694], [-7.937004, 41.603718], [-7.931604, 41.604384], [-7.930979, 41.612711], [-7.928517, 41.616083], [-7.94022, 41.628483], [-7.951956, 41.645129], [-7.963611, 41.667138], [-7.971405, 41.686487], [-7.972622, 41.695505], [-7.969204, 41.713488], [-7.964299, 41.722451], [-7.956027, 41.731383], [-7.92237, 41.749086], [-7.901886, 41.764961], [-7.889818, 41.767195], [-7.880119, 41.757689], [-7.866067, 41.749558], [-7.854033, 41.749929], [-7.836738, 41.757257], [-7.829758, 41.762043], [-7.817766, 41.759993], [-7.805882, 41.752152], [-7.777552, 41.724431], [-7.773786, 41.727346], [-7.7678, 41.723276], [-7.763888, 41.724389], [-7.761765, 41.727758], [-7.762933, 41.733839], [-7.759307, 41.737203], [-7.759597, 41.739005], [-7.75689, 41.739446], [-7.758687, 41.740577], [-7.757758, 41.745301], [-7.748417, 41.749321], [-7.747786, 41.754496], [-7.743866, 41.756509], [-7.740214, 41.763924], [-7.728449, 41.77041], [-7.725406, 41.776252], [-7.727191, 41.779184], [-7.724177, 41.780299], [-7.725372, 41.781653], [-7.722296, 41.792446], [-7.728879, 41.797871], [-7.727026, 41.805517], [-7.728761, 41.816776], [-7.732041, 41.821514], [-7.743152, 41.825154], [-7.742839, 41.827178], [-7.738918, 41.82874], [-7.742196, 41.833928], [-7.74729, 41.837772], [-7.746349, 41.84407], [-7.750541, 41.847685], [-7.750532, 41.849261], [-7.743309, 41.849012], [-7.746901, 41.8524], [-7.746881, 41.855776], [-7.73843, 41.859348], [-7.734159, 41.868337], [-7.730228, 41.871024], [-7.729293, 41.875972], [-7.720533, 41.880218], [-7.720523, 41.881793], [-7.725335, 41.882935], [-7.726208, 41.887665], [-7.737044, 41.888828], [-7.73944, 41.891087], [-7.74246, 41.889747], [-7.742785, 41.885922], [-7.756022, 41.888441], [-7.758719, 41.890926], [-7.756592, 41.89407], [-7.758076, 41.897901], [-7.764097, 41.898595], [-7.779227, 41.886264], [-7.785257, 41.885157], [-7.788886, 41.882467], [-7.794007, 41.882257], [-7.796739, 41.878214], [-7.794349, 41.87438], [-7.797064, 41.873488], [-7.803381, 41.874857], [-7.804914, 41.869459], [-7.813032, 41.871958], [-7.814229, 41.873537], [-7.823863, 41.874013], [-7.825059, 41.875817], [-7.830479, 41.875831], [-7.830789, 41.874031], [-7.832894, 41.874712], [-7.83772, 41.872924], [-7.842528, 41.875187], [-7.841663, 41.866632], [-7.849515, 41.861475], [-7.858542, 41.862622], [-7.859456, 41.860148], [-7.864877, 41.859711], [-7.87033, 41.851395], [-7.873043, 41.850501], [-7.873066, 41.844875], [-7.879056, 41.85254], [-7.886268, 41.855932], [-7.888076, 41.855486], [-7.891675, 41.859094], [-7.900698, 41.861588], [-7.904318, 41.859795], [-7.907309, 41.865203], [-7.906095, 41.868126], [-7.910299, 41.871285], [-7.909985, 41.875111], [-7.915391, 41.879397], [-7.921118, 41.877833], [-7.928044, 41.87807], [-7.935283, 41.874707], [-7.937389, 41.87516], [-7.941618, 41.870891], [-7.951254, 41.871132], [-7.956367, 41.87339], [-7.956362, 41.875191], [-7.960878, 41.875648], [-7.96299, 41.874075], [-7.972322, 41.875439], [-7.987996, 41.869157], [-7.990123, 41.860157], [-7.995547, 41.858138], [-7.994047, 41.855211], [-7.996162, 41.851837], [-8.003089, 41.850494], [-8.005804, 41.847346], [-8.007928, 41.838796], [-8.012753, 41.833624], [-8.013363, 41.829124], [-8.017873, 41.831379], [-8.02901, 41.829589], [-8.037134, 41.831171], [-8.041351, 41.828023], [-8.041054, 41.825097], [-8.045268, 41.824425], [-8.047679, 41.821276], [-8.057314, 41.815656], [-8.06664, 41.817012], [-8.072961, 41.813414], [-8.078678, 41.813417], [-8.082892, 41.810493], [-8.091013, 41.812521], [-8.093421, 41.811397], [-8.093723, 41.808471], [-8.101845, 41.809824], [-8.104853, 41.81185], [-8.115984, 41.812302], [-8.123807, 41.808702], [-8.138247, 41.808477], [-8.139751, 41.813203], [-8.14276, 41.812978], [-8.144866, 41.815228], [-8.149078, 41.814777], [-8.153291, 41.817703], [-8.158106, 41.818377], [-8.165326, 41.81815], [-8.173744, 41.808019], [-8.177655, 41.808242], [-8.183676, 41.812741], [-8.190291, 41.809587], [-8.197158, 41.814129], [-8.201063, 41.808724], [-8.204973, 41.807372], [-8.205872, 41.804445], [-8.213692, 41.803765], [-8.217598, 41.80016], [-8.217589, 41.793634], [-8.224207, 41.794303], [-8.229917, 41.791598], [-8.240744, 41.791588], [-8.24074, 41.789338], [-8.244347, 41.787984], [-8.245546, 41.785731], [-8.251257, 41.784375], [-8.251845, 41.777172], [-8.257551, 41.773564], [-8.261762, 41.774235], [-8.271366, 41.766346], [-8.280681, 41.764083], [-8.284038, 41.761109], [-8.284931, 41.757507], [-8.305674, 41.758152], [-8.311096, 41.762195], [-8.318308, 41.761283], [-8.325233, 41.765098], [-8.328234, 41.763292], [-8.336653, 41.763728], [-8.341756, 41.761468], [-8.344765, 41.762363], [-8.349267, 41.760103], [-8.352557, 41.755145], [-8.349814, 41.744122], [-8.352516, 41.743441], [-8.352203, 41.739616], [-8.357897, 41.735103], [-8.362407, 41.735994], [-8.368703, 41.73193], [-8.374122, 41.734845], [-8.384922, 41.73032], [-8.387032, 41.731891], [-8.393033, 41.729852], [-8.396942, 41.730518], [-8.400531, 41.726683], [-8.402934, 41.726452], [-8.404721, 41.722847], [-8.417349, 41.725067], [-8.422737, 41.720552], [-8.429643, 41.719859], [-8.430533, 41.717381], [-8.435927, 41.714441], [-8.441632, 41.713975], [-8.4446, 41.70654], [-8.453868, 41.697961], [-8.453255, 41.695487], [-8.461659, 41.694563], [-8.467939, 41.689593], [-8.478124, 41.685061], [-8.482012, 41.682123], [-8.484371, 41.674238], [-8.49308, 41.674886], [-8.499963, 41.671038], [-8.50927, 41.671233], [-8.51018, 41.672806], [-8.511967, 41.670324], [-8.509856, 41.668755], [-8.512252, 41.667847], [-8.514629, 41.663788], [-8.522103, 41.658811], [-8.525706, 41.659023], [-8.527769, 41.652714], [-8.534066, 41.652017], [-8.537951, 41.649302], [-8.537634, 41.646602], [-8.543876, 41.637352], [-8.543855, 41.633976], [-8.536342, 41.631977], [-8.535128, 41.62973], [-8.543431, 41.61462], [-8.554533, 41.615255], [-8.557244, 41.617046], [-8.562639, 41.61635], [-8.568056, 41.619031], [-8.570735, 41.616095], [-8.577321, 41.614269], [-8.581231, 41.615829], [-8.585766, 41.620988], [-8.591462, 41.620515], [-8.596534, 41.616668], [-8.601628, 41.615972], [-8.603996, 41.611686], [-8.609369, 41.608287], [-8.614156, 41.606692], [-8.619881, 41.610269], [-8.621338, 41.604636], [-8.628833, 41.604378], [-8.633908, 41.601205], [-8.612725, 41.591206], [-8.588849, 41.572147], [-8.57406, 41.555192], [-8.56174, 41.537131], [-8.558009, 41.528109], [-8.556981, 41.519098], [-8.558898, 41.510098], [-8.565361, 41.501115], [-8.575545, 41.492146], [-8.613452, 41.469219], [-8.625441, 41.466907], [-8.637383, 41.472721], [-8.646075, 41.483377], [-8.661233, 41.492472], [-8.673205, 41.494203], [-8.690093, 41.492511], [-8.721192, 41.478848], [-8.733181, 41.475923], [-8.745159, 41.475686], [-8.757127, 41.478098], [-8.769085, 41.4836], [-8.780618, 41.49272], [-8.787725, 41.501741], [-8.791997, 41.510756], [-8.794398, 41.519767], [-8.794247, 41.537782], [-8.788126, 41.555786], [-8.774968, 41.573775], [-8.767443, 41.580503]], [[-7.731425, 41.79217], [-7.725296, 41.783095], [-7.733259, 41.775313], [-7.745244, 41.777722], [-7.748995, 41.783356], [-7.744983, 41.791096], [-7.731425, 41.79217]], [[-7.938087, 41.758281], [-7.950141, 41.756795], [-7.952465, 41.758371], [-7.950047, 41.762523], [-7.938087, 41.758281]], [[-8.37343, 41.521991], [-8.36138, 41.528602], [-8.349354, 41.532459], [-8.337351, 41.534052], [-8.313389, 41.532791], [-8.289461, 41.528512], [-8.277471, 41.528871], [-8.253449, 41.533051], [-8.241467, 41.532615], [-8.229521, 41.529186], [-8.217642, 41.520231], [-8.211909, 41.508244], [-8.212763, 41.499242], [-8.218009, 41.489742], [-8.230107, 41.479684], [-8.254201, 41.4676], [-8.28013, 41.445639], [-8.302494, 41.431035], [-8.326531, 41.421359], [-8.338518, 41.419365], [-8.350479, 41.419905], [-8.362387, 41.425866], [-8.374246, 41.437219], [-8.380569, 41.446224], [-8.385984, 41.461798], [-8.38833, 41.482295], [-8.387969, 41.500308], [-8.384689, 41.509298], [-8.37343, 41.521991]], [[-8.386604, 41.396001], [-8.374573, 41.403174], [-8.362568, 41.40743], [-8.350597, 41.408101], [-8.3387, 41.401438], [-8.326901, 41.385502], [-8.324603, 41.373849], [-8.327128, 41.363447], [-8.33211, 41.355877], [-8.339223, 41.349737], [-8.351229, 41.344496], [-8.363196, 41.34302], [-8.375133, 41.344687], [-8.38103, 41.347143], [-8.387034, 41.350131], [-8.39392, 41.356219], [-8.399099, 41.365254], [-8.400121, 41.374267], [-8.397475, 41.383261], [-8.386604, 41.396001]]], [[[-7.829736, 41.710175], [-7.830366, 41.712158], [-7.842573, 41.71829], [-7.854615, 41.717164], [-7.859127, 41.712448], [-7.862022, 41.703469], [-7.85502, 41.694341], [-7.848748, 41.69343], [-7.847538, 41.695365], [-7.840622, 41.697374], [-7.8361, 41.701188], [-7.835792, 41.702763], [-7.839682, 41.705924], [-7.838465, 41.709522], [-7.829736, 41.710175]]]]}}, {"id": "3", "type": "Feature", "properties": {"fill": "#fc9863", "value_min": 0.6, "value_max": 0.67}, "geometry": {"type": "MultiPolygon", "coordinates": [[[[-7.902205, 41.746288], [-7.9143, 41.742232], [-7.931729, 41.731159], [-7.939055, 41.72222], [-7.94303, 41.71325], [-7.942957, 41.704242], [-7.939449, 41.695203], [-7.932754, 41.686134], [-7.927341, 41.681199], [-7.915434, 41.674779], [-7.903472, 41.671749], [-7.891452, 41.672198], [-7.879336, 41.678086], [-7.87441, 41.685578], [-7.871368, 41.703562], [-7.866623, 41.717894], [-7.863254, 41.721495], [-7.861998, 41.73049], [-7.878238, 41.741272], [-7.890187, 41.745775], [-7.902205, 41.746288]], [[-7.902341, 41.738277], [-7.890322, 41.73794], [-7.878384, 41.732898], [-7.875216, 41.73062], [-7.871144, 41.721573], [-7.87893, 41.701512], [-7.891136, 41.69056], [-7.90318, 41.688962], [-7.915137, 41.692449], [-7.918793, 41.695011], [-7.927128, 41.704096], [-7.929672, 41.713126], [-7.926835, 41.722107], [-7.919028, 41.731041], [-7.902341, 41.738277]]], [[[-8.624994, 41.54433], [-8.636997, 41.542012], [-8.643669, 41.537414], [-8.647821, 41.528419], [-8.644459, 41.519402], [-8.637154, 41.513838], [-8.625192, 41.510057], [-8.613195, 41.512314], [-8.604524, 41.519271], [-8.602258, 41.528271], [-8.607533, 41.537296], [-8.613022, 41.541385], [-8.624994, 41.54433]]]]}}, {"id": "4", "type": "Feature", "properties": {"fill": "#f77f52", "value_min": 0.67, "value_max": 0.73}, "geometry": {"type": "Polygon", "coordinates": [[[-7.902341, 41.738277], [-7.919028, 41.731041], [-7.926835, 41.722107], [-7.929672, 41.713126], [-7.927128, 41.704096], [-7.918793, 41.695011], [-7.915137, 41.692449], [-7.90318, 41.688962], [-7.891136, 41.69056], [-7.87893, 41.701512], [-7.871144, 41.721573], [-7.875216, 41.73062], [-7.878384, 41.732898], [-7.890322, 41.73794], [-7.902341, 41.738277]], [[-7.890415, 41.732528], [-7.877313, 41.721634], [-7.878417, 41.712638], [-7.890987, 41.699228], [-7.903026, 41.698036], [-7.915172, 41.703983], [-7.920554, 41.713041], [-7.918726, 41.722031], [-7.914571, 41.726137], [-7.902434, 41.732799], [-7.890415, 41.732528]]]}}, {"id": "5", "type": "Feature", "properties": {"fill": "#ef6d48", "value_min": 0.73, "value_max": 0.8}, "geometry": {"type": "Polygon", "coordinates": [[[-7.890415, 41.732528], [-7.902434, 41.732799], [-7.914571, 41.726137], [-7.918726, 41.722031], [-7.920554, 41.713041], [-7.915172, 41.703983], [-7.903026, 41.698036], [-7.890987, 41.699228], [-7.878417, 41.712638], [-7.877313, 41.721634], [-7.890415, 41.732528]], [[-7.890503, 41.727408], [-7.883533, 41.721694], [-7.883927, 41.712691], [-7.890876, 41.705714], [-7.902908, 41.704976], [-7.912352, 41.712964], [-7.910848, 41.721956], [-7.902525, 41.727476], [-7.890503, 41.727408]]]}}, {"id": "6", "type": "Feature", "properties": {"fill": "#e85c3f", "value_min": 0.8, "value_max": 0.87}, "geometry": {"type": "Polygon", "coordinates": [[[-7.890503, 41.727408], [-7.902525, 41.727476], [-7.910848, 41.721956], [-7.912352, 41.712964], [-7.902908, 41.704976], [-7.890876, 41.705714], [-7.883927, 41.712691], [-7.883533, 41.721694], [-7.890503, 41.727408]], [[-7.890588, 41.722429], [-7.889478, 41.712745], [-7.890777, 41.711441], [-7.902794, 41.711643], [-7.904266, 41.712887], [-7.903146, 41.721883], [-7.890588, 41.722429]]]}}, {"id": "7", "type": "Feature", "properties": {"fill": "#e14a35", "value_min": 0.87, "value_max": 0.93}, "geometry": {"type": "Polygon", "coordinates": [[[-7.890588, 41.722429], [-7.903146, 41.721883], [-7.904266, 41.712887], [-7.902794, 41.711643], [-7.890777, 41.711441], [-7.889478, 41.712745], [-7.890588, 41.722429]]]}}, {"id": "0", "type": "Feature", "properties": {"fill": "#eef8a7", "value_min": 0.4, "value_max": 0.47}, "geometry": {"type": "MultiPolygon", "coordinates": [[[[-7.731425, 41.79217], [-7.744983, 41.791096], [-7.748995, 41.783356], [-7.745244, 41.777722], [-7.733259, 41.775313], [-7.725296, 41.783095], [-7.731425, 41.79217]]], [[[-7.938087, 41.758281], [-7.950047, 41.762523], [-7.952465, 41.758371], [-7.950141, 41.756795], [-7.938087, 41.758281]]]]}}]}