{"type": "FeatureCollection", "features": [{"id": "0", "type": "Feature", "properties": {"fill": "#ddf190", "value_min": 0.33, "value_max": 0.4}, "geometry": {"type": "Polygon", "coordinates": [[[-8.219315, 41.380844], [-8.21929, 41.382881], [-8.22444, 41.382225], [-8.219315, 41.380844]]]}}, {"id": "4", "type": "Feature", "properties": {"fill": "#fc9863", "value_min": 0.6, "value_max": 0.67}, "geometry": {"type": "MultiPolygon", "coordinates": [[[[-8.80453, 41.60121], [-8.817642, 41.582858], [-8.823434, 41.571338], [-8.821417, 41.560283], [-8.818497, 41.554794], [-8.8221, 41.547542], [-8.821717, 41.533832], [-8.815926, 41.525624], [-8.81063, 41.5101], [-8.813279, 41.503483], [-8.812636, 41.496944], [-8.804699, 41.482068], [-8.798552, 41.474753], [-8.798688, 41.46617], [-8.78116, 41.45478], [-8.763229, 41.447648], [-8.733322, 41.441542], [-8.6735, 41.435343], [-8.649587, 41.430598], [-8.625691, 41.423412], [-8.566008, 41.40036], [-8.554062, 41.397796], [-8.542104, 41.397159], [-8.530129, 41.398977], [-8.518129, 41.403951], [-8.50609, 41.413874], [-8.497559, 41.428779], [-8.495801, 41.437779], [-8.497742, 41.455803], [-8.507922, 41.473861], [-8.537985, 41.501008], [-8.544646, 41.510042], [-8.54905, 41.528075], [-8.547557, 41.546083], [-8.540994, 41.55475], [-8.516977, 41.559362], [-8.507145, 41.563932], [-8.498776, 41.572903], [-8.49279, 41.585123], [-8.480751, 41.590393], [-8.444765, 41.589497], [-8.420758, 41.590769], [-8.396703, 41.597072], [-8.379171, 41.608348], [-8.372872, 41.617322], [-8.369532, 41.62631], [-8.370259, 41.635322], [-8.377336, 41.644367], [-8.396151, 41.656277], [-8.400419, 41.662504], [-8.400383, 41.671511], [-8.389397, 41.680461], [-8.362197, 41.68932], [-8.354752, 41.698285], [-8.352712, 41.707281], [-8.353119, 41.71629], [-8.358978, 41.735101], [-8.362407, 41.735994], [-8.368703, 41.73193], [-8.373822, 41.734846], [-8.37941, 41.732808], [-8.376351, 41.725426], [-8.376011, 41.716417], [-8.379756, 41.70743], [-8.395788, 41.695116], [-8.431956, 41.680679], [-8.437805, 41.6717], [-8.432081, 41.667736], [-8.42893, 41.66265], [-8.409748, 41.644538], [-8.402698, 41.635495], [-8.400147, 41.626474], [-8.402011, 41.617477], [-8.409757, 41.60851], [-8.420654, 41.602396], [-8.432683, 41.599112], [-8.444691, 41.598153], [-8.456681, 41.599218], [-8.468656, 41.602213], [-8.48251, 41.60886], [-8.492704, 41.617913], [-8.499188, 41.626948], [-8.501394, 41.635965], [-8.50074, 41.64497], [-8.497033, 41.653961], [-8.489788, 41.662936], [-8.469307, 41.680857], [-8.470796, 41.688234], [-8.482012, 41.682123], [-8.484371, 41.674238], [-8.49308, 41.674886], [-8.499963, 41.671038], [-8.50927, 41.671233], [-8.51018, 41.672806], [-8.511967, 41.670324], [-8.509856, 41.668755], [-8.522103, 41.658811], [-8.525706, 41.659023], [-8.527769, 41.652714], [-8.534066, 41.652017], [-8.537355, 41.64998], [-8.537634, 41.646602], [-8.543876, 41.637352], [-8.543855, 41.633976], [-8.536342, 41.631977], [-8.535128, 41.62973], [-8.543431, 41.61462], [-8.554533, 41.615255], [-8.557244, 41.617046], [-8.562639, 41.61635], [-8.568056, 41.619031], [-8.570735, 41.616095], [-8.577321, 41.614269], [-8.581231, 41.615829], [-8.585766, 41.620988], [-8.591462, 41.620515], [-8.596534, 41.616668], [-8.601628, 41.615972], [-8.603996, 41.611686], [-8.613256, 41.606696], [-8.619881, 41.610269], [-8.621338, 41.604636], [-8.628833, 41.604378], [-8.636302, 41.600744], [-8.64075, 41.594422], [-8.645536, 41.593051], [-8.646744, 41.594171], [-8.649125, 41.591909], [-8.656622, 41.5921], [-8.660788, 41.588255], [-8.663794, 41.589141], [-8.665265, 41.585758], [-8.66948, 41.587989], [-8.684455, 41.586117], [-8.685608, 41.58071], [-8.697261, 41.576376], [-8.701703, 41.570277], [-8.707704, 41.570923], [-8.712485, 41.569323], [-8.716422, 41.573805], [-8.720316, 41.57356], [-8.725151, 41.577811], [-8.726633, 41.576003], [-8.734424, 41.575737], [-8.736564, 41.580228], [-8.738354, 41.579318], [-8.740778, 41.582006], [-8.74467, 41.581535], [-8.750711, 41.58623], [-8.756374, 41.582823], [-8.75635, 41.580347], [-8.762327, 41.578514], [-8.764443, 41.580303], [-8.767441, 41.580286], [-8.769874, 41.583874], [-8.768997, 41.58613], [-8.773228, 41.589482], [-8.775371, 41.593972], [-8.78556, 41.593464], [-8.797327, 41.600599], [-8.804218, 41.600109], [-8.80453, 41.60121]], [[-8.648791, 41.577999], [-8.636792, 41.578628], [-8.624803, 41.577388], [-8.612829, 41.573831], [-8.600867, 41.568387], [-8.588933, 41.558981], [-8.57926, 41.546204], [-8.575324, 41.537182], [-8.571522, 41.501138], [-8.557946, 41.492079], [-8.541475, 41.486632], [-8.529545, 41.479839], [-8.514958, 41.464884], [-8.511404, 41.455861], [-8.511122, 41.446853], [-8.514066, 41.437858], [-8.521298, 41.42888], [-8.529958, 41.422718], [-8.541953, 41.418738], [-8.553927, 41.417652], [-8.565883, 41.419184], [-8.577825, 41.422878], [-8.5896, 41.429144], [-8.600239, 41.438189], [-8.606496, 41.447218], [-8.612549, 41.474261], [-8.621171, 41.483298], [-8.674134, 41.510482], [-8.687065, 41.519526], [-8.693668, 41.528551], [-8.695655, 41.537563], [-8.694609, 41.546568], [-8.690272, 41.555564], [-8.681675, 41.564548], [-8.672821, 41.570383], [-8.660801, 41.575336], [-8.648791, 41.577999]]], [[[-7.888076, 41.757766], [-7.894577, 41.748822], [-7.915644, 41.740016], [-7.92864, 41.731131], [-7.935405, 41.722187], [-7.936777, 41.713192], [-7.934296, 41.704162], [-7.927105, 41.695431], [-7.915214, 41.687903], [-7.903234, 41.685784], [-7.891186, 41.687677], [-7.883534, 41.694673], [-7.878961, 41.699735], [-7.866386, 41.731384], [-7.858015, 41.739457], [-7.842893, 41.748313], [-7.838346, 41.757274], [-7.841741, 41.766315], [-7.853615, 41.773394], [-7.865629, 41.774412], [-7.877734, 41.770196], [-7.882475, 41.766718], [-7.888076, 41.757766]], [[-7.890349, 41.736336], [-7.878464, 41.728299], [-7.876024, 41.721621], [-7.878055, 41.712634], [-7.891003, 41.698321], [-7.903048, 41.69671], [-7.914992, 41.701098], [-7.918467, 41.704015], [-7.923482, 41.713069], [-7.922188, 41.722063], [-7.914503, 41.730146], [-7.90238, 41.735997], [-7.890349, 41.736336]]], [[[-8.022464, 41.746911], [-8.02765, 41.741018], [-8.027815, 41.732013], [-8.022775, 41.726355], [-8.010842, 41.72051], [-7.996788, 41.722739], [-7.988675, 41.731675], [-7.990477, 41.740697], [-7.998403, 41.747363], [-8.010383, 41.750417], [-8.022464, 41.746911]], [[-8.009196, 41.74086], [-8.003052, 41.7318], [-8.010722, 41.728347], [-8.017199, 41.731922], [-8.011727, 41.740882], [-8.009196, 41.74086]]], [[[-8.239357, 41.71242], [-8.246875, 41.706636], [-8.251883, 41.697662], [-8.253275, 41.688664], [-8.249819, 41.679634], [-8.239844, 41.671086], [-8.227888, 41.666342], [-8.215888, 41.665309], [-8.203849, 41.667514], [-8.191758, 41.673819], [-8.186616, 41.679204], [-8.181935, 41.688178], [-8.181654, 41.697183], [-8.186023, 41.706221], [-8.191296, 41.710741], [-8.20324, 41.716888], [-8.215232, 41.719267], [-8.227269, 41.718043], [-8.239357, 41.71242]], [[-8.21531, 41.712888], [-8.203305, 41.711581], [-8.194103, 41.706278], [-8.187974, 41.697228], [-8.18941, 41.688231], [-8.191616, 41.685159], [-8.203732, 41.67703], [-8.21576, 41.675825], [-8.227726, 41.67985], [-8.236331, 41.688553], [-8.237183, 41.697565], [-8.231457, 41.706534], [-8.21531, 41.712888]]], [[[-8.132255, 41.631794], [-8.13022, 41.633756], [-8.132188, 41.636801], [-8.137711, 41.633812], [-8.132255, 41.631794]]], [[[-8.075039, 41.550523], [-8.085318, 41.554986], [-8.097273, 41.557599], [-8.109258, 41.558088], [-8.121273, 41.556366], [-8.130783, 41.552696], [-8.142268, 41.543775], [-8.145777, 41.534793], [-8.144796, 41.525779], [-8.137831, 41.51672], [-8.121899, 41.510087], [-8.110868, 41.507507], [-8.0927, 41.506418], [-8.0909, 41.511999], [-8.097928, 41.510493], [-8.109902, 41.511156], [-8.12616, 41.516631], [-8.133409, 41.525694], [-8.133386, 41.534701], [-8.126379, 41.543655], [-8.121405, 41.54666], [-8.10937, 41.549935], [-8.097385, 41.549538], [-8.084015, 41.544675], [-8.081886, 41.550977], [-8.079489, 41.551876], [-8.075039, 41.550523]]], [[[-8.074097, 41.550032], [-8.074097, 41.550032], [-8.074995, 41.5505], [-8.074097, 41.550032]]], [[[-8.0906, 41.512063], [-8.0906, 41.512063], [-8.090706, 41.51204], [-8.0906, 41.512063]]], [[[-8.361636, 41.50255], [-8.367659, 41.491191], [-8.367439, 41.482182], [-8.361941, 41.471463], [-8.350041, 41.463778], [-8.338089, 41.46157], [-8.326089, 41.46409], [-8.314794, 41.472873], [-8.311287, 41.48186], [-8.312089, 41.490872], [-8.317194, 41.49991], [-8.325644, 41.507051], [-8.337588, 41.510785], [-8.349584, 41.509503], [-8.361636, 41.50255]], [[-8.33773, 41.496849], [-8.329105, 41.490972], [-8.329526, 41.481967], [-8.337935, 41.47672], [-8.349892, 41.478702], [-8.353277, 41.482103], [-8.353647, 41.491113], [-8.349729, 41.495077], [-8.33773, 41.496849]]], [[[-8.137901, 41.377064], [-8.145435, 41.390673], [-8.153113, 41.399737], [-8.163715, 41.408822], [-8.182943, 41.420288], [-8.194852, 41.42495], [-8.218734, 41.429357], [-8.230702, 41.429369], [-8.254688, 41.425017], [-8.268196, 41.418541], [-8.278088, 41.409596], [-8.283457, 41.400622], [-8.28608, 41.391631], [-8.286906, 41.373621], [-8.284047, 41.355588], [-8.279539, 41.342132], [-8.270533, 41.326938], [-8.265709, 41.331221], [-8.269004, 41.336169], [-8.263339, 41.340902], [-8.262751, 41.345405], [-8.258872, 41.347274], [-8.265791, 41.355473], [-8.27035, 41.36451], [-8.272712, 41.38254], [-8.270435, 41.391533], [-8.264984, 41.400506], [-8.25487, 41.409148], [-8.242841, 41.414672], [-8.230847, 41.417061], [-8.218878, 41.417327], [-8.206932, 41.415651], [-8.195016, 41.411662], [-8.177113, 41.399911], [-8.169811, 41.390851], [-8.165103, 41.379464], [-8.1642, 41.38059], [-8.158223, 41.378791], [-8.157026, 41.376991], [-8.152544, 41.375866], [-8.151049, 41.37339], [-8.145073, 41.374742], [-8.141188, 41.377668], [-8.137901, 41.377064]]], [[[-8.803967, 41.252835], [-8.781854, 41.24729], [-8.75799, 41.245411], [-8.734117, 41.246268], [-8.710236, 41.249002], [-8.666959, 41.258248], [-8.649208, 41.267203], [-8.643095, 41.276192], [-8.64356, 41.285202], [-8.653989, 41.303249], [-8.673399, 41.321321], [-8.709809, 41.345412], [-8.73367, 41.3564], [-8.757551, 41.364039], [-8.781456, 41.366484], [-8.793416, 41.365672], [-8.80826, 41.36178], [-8.803967, 41.252835]], [[-8.733784, 41.328356], [-8.721834, 41.328455], [-8.709894, 41.326267], [-8.697966, 41.32152], [-8.685171, 41.312346], [-8.67837, 41.30332], [-8.675685, 41.294304], [-8.676943, 41.2853], [-8.683211, 41.27631], [-8.698214, 41.267662], [-8.710166, 41.264715], [-8.722108, 41.263817], [-8.734042, 41.264801], [-8.744667, 41.267455], [-8.760911, 41.276497], [-8.768089, 41.28552], [-8.770817, 41.294533], [-8.769928, 41.303539], [-8.765479, 41.312538], [-8.754987, 41.321524], [-8.745744, 41.32575], [-8.733784, 41.328356]]], [[[-8.485998, 41.238464], [-8.494182, 41.248611], [-8.507259, 41.259013], [-8.523437, 41.266752], [-8.542982, 41.271686], [-8.554916, 41.27247], [-8.578812, 41.269963], [-8.590772, 41.266545], [-8.602745, 41.260855], [-8.606783, 41.258059], [-8.612904, 41.249072], [-8.614791, 41.24007], [-8.613691, 41.222051], [-8.603147, 41.194516], [-8.591315, 41.179432], [-8.584359, 41.173967], [-8.582094, 41.177803], [-8.578825, 41.178941], [-8.581296, 41.191762], [-8.575958, 41.195609], [-8.576894, 41.201908], [-8.574515, 41.202593], [-8.57423, 41.20462], [-8.567971, 41.204644], [-8.565895, 41.206227], [-8.567401, 41.208479], [-8.57325, 41.2129], [-8.576874, 41.221921], [-8.571188, 41.230908], [-8.567114, 41.233424], [-8.555172, 41.234786], [-8.544347, 41.230805], [-8.539159, 41.221776], [-8.541877, 41.212779], [-8.548127, 41.209444], [-8.532257, 41.213102], [-8.52713, 41.203215], [-8.523236, 41.200077], [-8.51163, 41.203042], [-8.510456, 41.206197], [-8.505693, 41.207113], [-8.504239, 41.213646], [-8.500076, 41.21546], [-8.50308, 41.219502], [-8.502204, 41.222656], [-8.495642, 41.222227], [-8.495947, 41.223351], [-8.490894, 41.226294], [-8.487935, 41.230354], [-8.490331, 41.232373], [-8.489156, 41.235528], [-8.485998, 41.238464]]], [[[-8.548627, 41.209241], [-8.548627, 41.209241], [-8.548686, 41.209217], [-8.548627, 41.209241]]], [[[-8.550708, 41.208395], [-8.550708, 41.208395], [-8.55148, 41.208081], [-8.550708, 41.208395]]], [[[-8.5516, 41.208032], [-8.5516, 41.208032], [-8.553156, 41.2074], [-8.5516, 41.208032]]], [[[-8.553681, 41.207186], [-8.553681, 41.207186], [-8.553715, 41.207173], [-8.553681, 41.207186]]], [[[-8.553979, 41.207066], [-8.553979, 41.207066], [-8.556659, 41.206707], [-8.553979, 41.207066]]], [[[-8.556685, 41.206712], [-8.561433, 41.207463], [-8.559636, 41.206251], [-8.556685, 41.206712]]]]}}, {"id": "3", "type": "Feature", "properties": {"fill": "#fecb90", "value_min": 0.53, "value_max": 0.6}, "geometry": {"type": "MultiPolygon", "coordinates": [[[[-8.470796, 41.688234], [-8.469307, 41.680857], [-8.489788, 41.662936], [-8.497033, 41.653961], [-8.50074, 41.64497], [-8.501394, 41.635965], [-8.499188, 41.626948], [-8.492704, 41.617913], [-8.48251, 41.60886], [-8.468656, 41.602213], [-8.456681, 41.599218], [-8.444691, 41.598153], [-8.432683, 41.599112], [-8.420654, 41.602396], [-8.409757, 41.60851], [-8.402011, 41.617477], [-8.400147, 41.626474], [-8.402698, 41.635495], [-8.409748, 41.644538], [-8.42893, 41.66265], [-8.432081, 41.667736], [-8.437805, 41.6717], [-8.431956, 41.680679], [-8.395788, 41.695116], [-8.379756, 41.70743], [-8.376011, 41.716417], [-8.376351, 41.725426], [-8.37941, 41.732808], [-8.384922, 41.73032], [-8.387332, 41.73189], [-8.393033, 41.729852], [-8.39694, 41.730173], [-8.393266, 41.725516], [-8.392313, 41.716504], [-8.398111, 41.707528], [-8.407743, 41.701848], [-8.419784, 41.699345], [-8.431788, 41.700976], [-8.443709, 41.708765], [-8.453868, 41.697961], [-8.453255, 41.695487], [-8.461659, 41.694563], [-8.470796, 41.688234]], [[-8.456237, 41.652102], [-8.444226, 41.652223], [-8.432249, 41.648588], [-8.417606, 41.635571], [-8.414866, 41.62655], [-8.417913, 41.617558], [-8.432607, 41.607701], [-8.444624, 41.605865], [-8.456611, 41.607521], [-8.473787, 41.617828], [-8.478295, 41.626856], [-8.47786, 41.635861], [-8.468284, 41.647495], [-8.456237, 41.652102]]], [[[-8.009196, 41.74086], [-8.011727, 41.740882], [-8.017199, 41.731922], [-8.010722, 41.728347], [-8.003052, 41.7318], [-8.009196, 41.74086]]], [[[-7.890349, 41.736336], [-7.90238, 41.735997], [-7.914503, 41.730146], [-7.922188, 41.722063], [-7.923482, 41.713069], [-7.918467, 41.704015], [-7.914992, 41.701098], [-7.903048, 41.69671], [-7.891003, 41.698321], [-7.878055, 41.712634], [-7.876024, 41.721621], [-7.878464, 41.728299], [-7.890349, 41.736336]], [[-7.890482, 41.728635], [-7.882966, 41.721689], [-7.883956, 41.712691], [-7.890878, 41.70558], [-7.902915, 41.704518], [-7.913428, 41.712974], [-7.912242, 41.72197], [-7.902504, 41.728695], [-7.890482, 41.728635]]], [[[-8.21531, 41.712888], [-8.231457, 41.706534], [-8.237183, 41.697565], [-8.236331, 41.688553], [-8.227726, 41.67985], [-8.21576, 41.675825], [-8.203732, 41.67703], [-8.191616, 41.685159], [-8.18941, 41.688231], [-8.187974, 41.697228], [-8.194103, 41.706278], [-8.203305, 41.711581], [-8.21531, 41.712888]], [[-8.203368, 41.706556], [-8.194778, 41.697276], [-8.198056, 41.688292], [-8.203643, 41.684238], [-8.215663, 41.683822], [-8.223613, 41.688467], [-8.2266, 41.697494], [-8.217298, 41.706439], [-8.203368, 41.706556]]], [[[-8.648791, 41.577999], [-8.660801, 41.575336], [-8.672821, 41.570383], [-8.681675, 41.564548], [-8.690272, 41.555564], [-8.694609, 41.546568], [-8.695655, 41.537563], [-8.693668, 41.528551], [-8.687065, 41.519526], [-8.674134, 41.510482], [-8.621171, 41.483298], [-8.612549, 41.474261], [-8.606496, 41.447218], [-8.600239, 41.438189], [-8.5896, 41.429144], [-8.577825, 41.422878], [-8.565883, 41.419184], [-8.553927, 41.417652], [-8.541953, 41.418738], [-8.529958, 41.422718], [-8.521298, 41.42888], [-8.514066, 41.437858], [-8.511122, 41.446853], [-8.511404, 41.455861], [-8.514958, 41.464884], [-8.529545, 41.479839], [-8.541475, 41.486632], [-8.557946, 41.492079], [-8.571522, 41.501138], [-8.575324, 41.537182], [-8.57926, 41.546204], [-8.588933, 41.558981], [-8.600867, 41.568387], [-8.612829, 41.573831], [-8.624803, 41.577388], [-8.636792, 41.578628], [-8.648791, 41.577999]], [[-8.623891, 41.555366], [-8.612952, 41.55316], [-8.601003, 41.546355], [-8.593306, 41.537247], [-8.59042, 41.528229], [-8.591253, 41.519225], [-8.596489, 41.510236], [-8.60125, 41.506018], [-8.613259, 41.501561], [-8.625241, 41.501525], [-8.637205, 41.504682], [-8.648112, 41.510406], [-8.658307, 41.519444], [-8.662267, 41.528463], [-8.660994, 41.538296], [-8.655378, 41.546457], [-8.648937, 41.551005], [-8.636924, 41.555074], [-8.623891, 41.555366]], [[-8.553507, 41.478811], [-8.541549, 41.476129], [-8.529628, 41.468334], [-8.526453, 41.464932], [-8.522813, 41.455909], [-8.524058, 41.446907], [-8.529841, 41.438931], [-8.541857, 41.432292], [-8.553836, 41.430866], [-8.56579, 41.433055], [-8.57531, 41.4381], [-8.583603, 41.447138], [-8.585813, 41.456153], [-8.58353, 41.465153], [-8.574228, 41.474126], [-8.565491, 41.477863], [-8.553507, 41.478811]]], [[[-8.084015, 41.544675], [-8.097385, 41.549538], [-8.10937, 41.549935], [-8.121405, 41.54666], [-8.126379, 41.543655], [-8.133386, 41.534701], [-8.133409, 41.525694], [-8.12616, 41.516631], [-8.109902, 41.511156], [-8.097928, 41.510493], [-8.0909, 41.511999], [-8.090706, 41.51204], [-8.0906, 41.512063], [-8.089697, 41.519217], [-8.092895, 41.516374], [-8.097867, 41.514875], [-8.109849, 41.514984], [-8.114677, 41.516544], [-8.124756, 41.525628], [-8.121543, 41.536452], [-8.10947, 41.542666], [-8.105861, 41.542497], [-8.106459, 41.543782], [-8.101666, 41.542655], [-8.094475, 41.544904], [-8.087885, 41.542876], [-8.084015, 41.544675]]], [[[-8.089416, 41.519468], [-8.089416, 41.519468], [-8.089669, 41.519243], [-8.089416, 41.519468]]], [[[-8.33773, 41.496849], [-8.349729, 41.495077], [-8.353647, 41.491113], [-8.353277, 41.482103], [-8.349892, 41.478702], [-8.337935, 41.47672], [-8.329526, 41.481967], [-8.329105, 41.490972], [-8.33773, 41.496849]]], [[[-8.165103, 41.379464], [-8.169811, 41.390851], [-8.177113, 41.399911], [-8.195016, 41.411662], [-8.206932, 41.415651], [-8.218878, 41.417327], [-8.230847, 41.417061], [-8.242841, 41.414672], [-8.25487, 41.409148], [-8.264984, 41.400506], [-8.270435, 41.391533], [-8.272712, 41.38254], [-8.27035, 41.36451], [-8.265791, 41.355473], [-8.258872, 41.347274], [-8.249622, 41.353072], [-8.251123, 41.356897], [-8.249334, 41.35851], [-8.255549, 41.364415], [-8.259623, 41.373449], [-8.260128, 41.38246], [-8.256916, 41.391447], [-8.24817, 41.400397], [-8.24297, 41.403551], [-8.230963, 41.407249], [-8.218993, 41.407706], [-8.207059, 41.405233], [-8.196515, 41.400048], [-8.187117, 41.390975], [-8.183266, 41.38194], [-8.183169, 41.376081], [-8.169578, 41.377212], [-8.165103, 41.379464]]], [[[-8.733784, 41.328356], [-8.745744, 41.32575], [-8.754987, 41.321524], [-8.765479, 41.312538], [-8.769928, 41.303539], [-8.770817, 41.294533], [-8.768089, 41.28552], [-8.760911, 41.276497], [-8.744667, 41.267455], [-8.734042, 41.264801], [-8.722108, 41.263817], [-8.710166, 41.264715], [-8.698214, 41.267662], [-8.683211, 41.27631], [-8.676943, 41.2853], [-8.675685, 41.294304], [-8.67837, 41.30332], [-8.685171, 41.312346], [-8.697966, 41.32152], [-8.709894, 41.326267], [-8.721834, 41.328455], [-8.733784, 41.328356]], [[-8.709976, 41.307726], [-8.703011, 41.303386], [-8.699004, 41.294368], [-8.706393, 41.285379], [-8.710083, 41.283535], [-8.722026, 41.283149], [-8.727706, 41.285431], [-8.735281, 41.294457], [-8.732092, 41.303457], [-8.721919, 41.308481], [-8.709976, 41.307726]]], [[[-8.548127, 41.209444], [-8.541877, 41.212779], [-8.539159, 41.221776], [-8.544347, 41.230805], [-8.555172, 41.234786], [-8.567114, 41.233424], [-8.571188, 41.230908], [-8.576874, 41.221921], [-8.57325, 41.2129], [-8.567401, 41.208479], [-8.565618, 41.20938], [-8.561433, 41.207463], [-8.556685, 41.206712], [-8.556659, 41.206707], [-8.553979, 41.207066], [-8.553715, 41.207173], [-8.553681, 41.207186], [-8.553156, 41.2074], [-8.5516, 41.208032], [-8.55148, 41.208081], [-8.550708, 41.208395], [-8.548686, 41.209217], [-8.548627, 41.209241], [-8.548127, 41.209444]]]]}}, {"id": "2", "type": "Feature", "properties": {"fill": "#fffebe", "value_min": 0.47, "value_max": 0.53}, "geometry": {"type": "MultiPolygon", "coordinates": [[[[-8.443709, 41.708765], [-8.431788, 41.700976], [-8.419784, 41.699345], [-8.407743, 41.701848], [-8.398111, 41.707528], [-8.392313, 41.716504], [-8.393266, 41.725516], [-8.39694, 41.730173], [-8.400531, 41.726683], [-8.402934, 41.726452], [-8.404721, 41.722847], [-8.417349, 41.725067], [-8.422737, 41.720552], [-8.429643, 41.719859], [-8.430533, 41.717381], [-8.435927, 41.714441], [-8.441632, 41.713975], [-8.443709, 41.708765]], [[-8.415956, 41.716627], [-8.41964, 41.715376], [-8.421484, 41.716655], [-8.419605, 41.719337], [-8.415956, 41.716627]]], [[[-7.890482, 41.728635], [-7.902504, 41.728695], [-7.912242, 41.72197], [-7.913428, 41.712974], [-7.902915, 41.704518], [-7.890878, 41.70558], [-7.883956, 41.712691], [-7.882966, 41.721689], [-7.890482, 41.728635]], [[-7.890593, 41.722147], [-7.890768, 41.711988], [-7.902786, 41.712159], [-7.902743, 41.721879], [-7.890593, 41.722147]]], [[[-8.203368, 41.706556], [-8.217298, 41.706439], [-8.2266, 41.697494], [-8.223613, 41.688467], [-8.215663, 41.683822], [-8.203643, 41.684238], [-8.198056, 41.688292], [-8.194778, 41.697276], [-8.203368, 41.706556]], [[-8.203464, 41.698734], [-8.20218, 41.697328], [-8.203516, 41.694554], [-8.215521, 41.695577], [-8.2165, 41.697426], [-8.203464, 41.698734]]], [[[-8.456237, 41.652102], [-8.468284, 41.647495], [-8.47786, 41.635861], [-8.478295, 41.626856], [-8.473787, 41.617828], [-8.456611, 41.607521], [-8.444624, 41.605865], [-8.432607, 41.607701], [-8.417913, 41.617558], [-8.414866, 41.62655], [-8.417606, 41.635571], [-8.432249, 41.648588], [-8.444226, 41.652223], [-8.456237, 41.652102]], [[-8.444318, 41.64156], [-8.432349, 41.637173], [-8.426791, 41.62661], [-8.431714, 41.617627], [-8.444557, 41.613734], [-8.458705, 41.617758], [-8.464423, 41.626792], [-8.461142, 41.635784], [-8.456344, 41.63932], [-8.444318, 41.64156]]], [[[-8.623891, 41.555366], [-8.636924, 41.555074], [-8.648937, 41.551005], [-8.655378, 41.546457], [-8.660994, 41.538296], [-8.662267, 41.528463], [-8.658307, 41.519444], [-8.648112, 41.510406], [-8.637205, 41.504682], [-8.625241, 41.501525], [-8.613259, 41.501561], [-8.60125, 41.506018], [-8.596489, 41.510236], [-8.591253, 41.519225], [-8.59042, 41.528229], [-8.593306, 41.537247], [-8.601003, 41.546355], [-8.612952, 41.55316], [-8.623891, 41.555366]], [[-8.62501, 41.541534], [-8.613039, 41.53853], [-8.605431, 41.528282], [-8.607695, 41.519282], [-8.61318, 41.51482], [-8.625179, 41.512367], [-8.637139, 41.516607], [-8.640704, 41.51939], [-8.643876, 41.528407], [-8.637016, 41.538466], [-8.62501, 41.541534]]], [[[-8.105861, 41.542497], [-8.10947, 41.542666], [-8.121543, 41.536452], [-8.124756, 41.525628], [-8.114677, 41.516544], [-8.109849, 41.514984], [-8.097867, 41.514875], [-8.092895, 41.516374], [-8.089697, 41.519217], [-8.089669, 41.519243], [-8.089416, 41.519468], [-8.090594, 41.522169], [-8.093588, 41.52307], [-8.09209, 41.524645], [-8.092385, 41.532749], [-8.095978, 41.534325], [-8.098073, 41.538152], [-8.105861, 41.542497]], [[-8.102891, 41.534467], [-8.097611, 41.533258], [-8.094355, 41.525393], [-8.097761, 41.522504], [-8.109758, 41.521649], [-8.114644, 41.525551], [-8.110372, 41.534525], [-8.102891, 41.534467]]], [[[-8.553507, 41.478811], [-8.565491, 41.477863], [-8.574228, 41.474126], [-8.58353, 41.465153], [-8.585813, 41.456153], [-8.583603, 41.447138], [-8.57531, 41.4381], [-8.56579, 41.433055], [-8.553836, 41.430866], [-8.541857, 41.432292], [-8.529841, 41.438931], [-8.524058, 41.446907], [-8.522813, 41.455909], [-8.526453, 41.464932], [-8.529628, 41.468334], [-8.541549, 41.476129], [-8.553507, 41.478811]], [[-8.541617, 41.466437], [-8.534397, 41.455957], [-8.538254, 41.446965], [-8.541773, 41.444259], [-8.553759, 41.442091], [-8.565699, 41.446746], [-8.569949, 41.456095], [-8.564868, 41.465083], [-8.553576, 41.468881], [-8.541617, 41.466437]]], [[[-8.183169, 41.376081], [-8.183266, 41.38194], [-8.187117, 41.390975], [-8.196515, 41.400048], [-8.207059, 41.405233], [-8.218993, 41.407706], [-8.230963, 41.407249], [-8.24297, 41.403551], [-8.24817, 41.400397], [-8.256916, 41.391447], [-8.260128, 41.38246], [-8.259623, 41.373449], [-8.255549, 41.364415], [-8.249334, 41.35851], [-8.248448, 41.364328], [-8.245461, 41.364781], [-8.242893, 41.369061], [-8.246239, 41.373362], [-8.247642, 41.382379], [-8.243197, 41.391357], [-8.231076, 41.397644], [-8.219105, 41.398338], [-8.207196, 41.393964], [-8.203364, 41.391088], [-8.198381, 41.382046], [-8.199137, 41.377198], [-8.194976, 41.374275], [-8.191691, 41.376302], [-8.183169, 41.376081]]], [[[-8.709976, 41.307726], [-8.721919, 41.308481], [-8.732092, 41.303457], [-8.735281, 41.294457], [-8.727706, 41.285431], [-8.722026, 41.283149], [-8.710083, 41.283535], [-8.706393, 41.285379], [-8.699004, 41.294368], [-8.703011, 41.303386], [-8.709976, 41.307726]]]]}}, {"id": "5", "type": "Feature", "properties": {"fill": "#f77f52", "value_min": 0.67, "value_max": 0.73}, "geometry": {"type": "MultiPolygon", "coordinates": [[[[-8.80453, 41.60121], [-8.80456, 41.604158], [-8.809434, 41.611332], [-8.828644, 41.609656], [-8.828544, 41.586718], [-8.823434, 41.571338], [-8.817642, 41.582858], [-8.80453, 41.60121]]], [[[-8.358978, 41.735101], [-8.353119, 41.71629], [-8.352712, 41.707281], [-8.354752, 41.698285], [-8.362197, 41.68932], [-8.389397, 41.680461], [-8.400383, 41.671511], [-8.400419, 41.662504], [-8.396151, 41.656277], [-8.377336, 41.644367], [-8.370259, 41.635322], [-8.369532, 41.62631], [-8.372872, 41.617322], [-8.379171, 41.608348], [-8.396703, 41.597072], [-8.420758, 41.590769], [-8.444765, 41.589497], [-8.480751, 41.590393], [-8.49279, 41.585123], [-8.498776, 41.572903], [-8.507145, 41.563932], [-8.516977, 41.559362], [-8.540994, 41.55475], [-8.547557, 41.546083], [-8.54905, 41.528075], [-8.544646, 41.510042], [-8.537985, 41.501008], [-8.507922, 41.473861], [-8.497742, 41.455803], [-8.495801, 41.437779], [-8.497559, 41.428779], [-8.50609, 41.413874], [-8.518129, 41.403951], [-8.530129, 41.398977], [-8.542104, 41.397159], [-8.554062, 41.397796], [-8.566008, 41.40036], [-8.625691, 41.423412], [-8.649587, 41.430598], [-8.6735, 41.435343], [-8.733322, 41.441542], [-8.763229, 41.447648], [-8.78116, 41.45478], [-8.798688, 41.46617], [-8.801548, 41.4468], [-8.806115, 41.43713], [-8.807354, 41.425915], [-8.811166, 41.417099], [-8.80826, 41.36178], [-8.793416, 41.365672], [-8.781456, 41.366484], [-8.757551, 41.364039], [-8.73367, 41.3564], [-8.709809, 41.345412], [-8.673399, 41.321321], [-8.653989, 41.303249], [-8.64356, 41.285202], [-8.643095, 41.276192], [-8.649208, 41.267203], [-8.666959, 41.258248], [-8.710236, 41.249002], [-8.734117, 41.246268], [-8.75799, 41.245411], [-8.781854, 41.24729], [-8.803967, 41.252835], [-8.799695, 41.14406], [-8.773144, 41.144653], [-8.779516, 41.159432], [-8.780518, 41.168442], [-8.777244, 41.186452], [-8.772469, 41.19545], [-8.765571, 41.204444], [-8.755411, 41.213431], [-8.740844, 41.222407], [-8.722253, 41.229621], [-8.710307, 41.232788], [-8.686429, 41.235498], [-8.6745, 41.234802], [-8.660964, 41.231207], [-8.650685, 41.225231], [-8.64063, 41.21313], [-8.636486, 41.204109], [-8.63319, 41.189747], [-8.633128, 41.189309], [-8.633094, 41.189072], [-8.625658, 41.186628], [-8.621132, 41.178994], [-8.613374, 41.177451], [-8.608583, 41.174095], [-8.609164, 41.172066], [-8.605845, 41.166228], [-8.602852, 41.164214], [-8.59422, 41.165149], [-8.589766, 41.167193], [-8.589194, 41.170572], [-8.584359, 41.173967], [-8.591315, 41.179432], [-8.603147, 41.194516], [-8.613691, 41.222051], [-8.614791, 41.24007], [-8.612904, 41.249072], [-8.606783, 41.258059], [-8.602745, 41.260855], [-8.590772, 41.266545], [-8.578812, 41.269963], [-8.554916, 41.27247], [-8.542982, 41.271686], [-8.523437, 41.266752], [-8.507259, 41.259013], [-8.494182, 41.248611], [-8.485998, 41.238464], [-8.484113, 41.240496], [-8.476346, 41.237818], [-8.475756, 41.23917], [-8.470986, 41.23941], [-8.471604, 41.243459], [-8.469227, 41.245267], [-8.463258, 41.244384], [-8.459989, 41.246644], [-8.454323, 41.246886], [-8.455541, 41.251834], [-8.452276, 41.25522], [-8.449891, 41.255452], [-8.449304, 41.257479], [-8.447812, 41.257258], [-8.449028, 41.261982], [-8.439785, 41.262907], [-8.438023, 41.268989], [-8.434745, 41.269673], [-8.432691, 41.277107], [-8.427032, 41.279372], [-8.429143, 41.284319], [-8.426171, 41.287028], [-8.425606, 41.294007], [-8.422633, 41.296733], [-8.435243, 41.304613], [-8.453897, 41.320489], [-8.466347, 41.338563], [-8.470111, 41.356595], [-8.468226, 41.374602], [-8.462366, 41.401598], [-8.463338, 41.419617], [-8.474854, 41.446693], [-8.489567, 41.473781], [-8.514213, 41.50091], [-8.51934, 41.509939], [-8.521131, 41.518954], [-8.520056, 41.527957], [-8.515736, 41.536946], [-8.480906, 41.571113], [-8.468858, 41.577618], [-8.456845, 41.579712], [-8.432856, 41.579366], [-8.360987, 41.568508], [-8.348992, 41.568624], [-8.336959, 41.572452], [-8.312805, 41.587904], [-8.276485, 41.617239], [-8.264394, 41.625003], [-8.252332, 41.630039], [-8.216192, 41.640259], [-8.204124, 41.645169], [-8.192019, 41.652921], [-8.179835, 41.666685], [-8.174268, 41.679116], [-8.172606, 41.688111], [-8.173317, 41.697124], [-8.177772, 41.706163], [-8.187646, 41.71524], [-8.203164, 41.72304], [-8.215138, 41.727055], [-8.22714, 41.728769], [-8.239183, 41.72716], [-8.275453, 41.70942], [-8.287504, 41.706543], [-8.299514, 41.707419], [-8.311481, 41.712394], [-8.323395, 41.722548], [-8.331736, 41.734182], [-8.336237, 41.743215], [-8.341637, 41.761693], [-8.344765, 41.762363], [-8.349267, 41.760103], [-8.351959, 41.756272], [-8.352545, 41.751769], [-8.349814, 41.744122], [-8.352516, 41.743441], [-8.352203, 41.739616], [-8.358978, 41.735101]], [[-8.239357, 41.71242], [-8.227269, 41.718043], [-8.215232, 41.719267], [-8.20324, 41.716888], [-8.191296, 41.710741], [-8.186023, 41.706221], [-8.181654, 41.697183], [-8.181935, 41.688178], [-8.186616, 41.679204], [-8.191758, 41.673819], [-8.203849, 41.667514], [-8.215888, 41.665309], [-8.227888, 41.666342], [-8.239844, 41.671086], [-8.249819, 41.679634], [-8.253275, 41.688664], [-8.251883, 41.697662], [-8.246875, 41.706636], [-8.239357, 41.71242]], [[-8.637237, 41.402282], [-8.613871, 41.398486], [-8.590014, 41.387548], [-8.57322, 41.375039], [-8.561077, 41.356978], [-8.559778, 41.347966], [-8.562261, 41.338968], [-8.569331, 41.329987], [-8.578467, 41.323586], [-8.59045, 41.318075], [-8.602416, 41.315065], [-8.614369, 41.314172], [-8.62631, 41.315209], [-8.638241, 41.318302], [-8.66202, 41.330296], [-8.67398, 41.339272], [-8.683199, 41.348372], [-8.689465, 41.357396], [-8.692651, 41.366413], [-8.692374, 41.37542], [-8.685705, 41.386529], [-8.677276, 41.393393], [-8.661715, 41.399793], [-8.649741, 41.401925], [-8.637237, 41.402282]]], [[[-8.10771, 41.400169], [-8.170808, 41.433505], [-8.194631, 41.44279], [-8.218531, 41.446282], [-8.266401, 41.44763], [-8.278342, 41.450427], [-8.284247, 41.454672], [-8.289258, 41.463711], [-8.300328, 41.499808], [-8.313507, 41.521654], [-8.325384, 41.532067], [-8.337332, 41.53589], [-8.34933, 41.534878], [-8.361394, 41.527165], [-8.375434, 41.509248], [-8.37929, 41.491254], [-8.377197, 41.473228], [-8.374002, 41.462651], [-8.362186, 41.446483], [-8.350283, 41.439602], [-8.319771, 41.427865], [-8.312444, 41.418814], [-8.306886, 41.400766], [-8.30312, 41.373721], [-8.304632, 41.346707], [-8.309663, 41.327559], [-8.307502, 41.325762], [-8.305116, 41.326891], [-8.303024, 41.325994], [-8.303615, 41.323742], [-8.301216, 41.319694], [-8.296431, 41.316774], [-8.297618, 41.313846], [-8.296116, 41.310022], [-8.281801, 41.316569], [-8.281808, 41.319721], [-8.278828, 41.321976], [-8.278238, 41.325128], [-8.273161, 41.325134], [-8.270533, 41.326938], [-8.279539, 41.342132], [-8.284047, 41.355588], [-8.286906, 41.373621], [-8.28608, 41.391631], [-8.283457, 41.400622], [-8.278088, 41.409596], [-8.268196, 41.418541], [-8.254688, 41.425017], [-8.230702, 41.429369], [-8.218734, 41.429357], [-8.194852, 41.42495], [-8.182943, 41.420288], [-8.163715, 41.408822], [-8.153113, 41.399737], [-8.145435, 41.390673], [-8.137901, 41.377064], [-8.131924, 41.374292], [-8.119074, 41.377218], [-8.119672, 41.378569], [-8.116683, 41.380144], [-8.117578, 41.386447], [-8.113992, 41.386896], [-8.112795, 41.390723], [-8.110105, 41.390947], [-8.108011, 41.393648], [-8.103827, 41.392972], [-8.105321, 41.394998], [-8.10263, 41.396123], [-8.107412, 41.39815], [-8.10771, 41.400169]], [[-8.361636, 41.50255], [-8.349584, 41.509503], [-8.337588, 41.510785], [-8.325644, 41.507051], [-8.317194, 41.49991], [-8.312089, 41.490872], [-8.311287, 41.48186], [-8.314794, 41.472873], [-8.326089, 41.46409], [-8.338089, 41.46157], [-8.350041, 41.463778], [-8.361941, 41.471463], [-8.367439, 41.482182], [-8.367659, 41.491191], [-8.361636, 41.50255]]], [[[-7.869865, 41.685965], [-7.871155, 41.703559], [-7.866658, 41.715906], [-7.854455, 41.726155], [-7.818272, 41.732404], [-7.805663, 41.738925], [-7.8013, 41.747886], [-7.802017, 41.756901], [-7.806178, 41.765951], [-7.813385, 41.775032], [-7.828892, 41.784198], [-7.841334, 41.787212], [-7.853362, 41.787611], [-7.877493, 41.784043], [-7.889621, 41.778578], [-7.914015, 41.759116], [-7.926121, 41.754523], [-7.938068, 41.75945], [-7.950084, 41.760279], [-7.95342, 41.75838], [-7.950332, 41.749345], [-7.962365, 41.744643], [-7.998185, 41.761376], [-8.010182, 41.763492], [-8.02224, 41.761626], [-8.034399, 41.75301], [-8.038824, 41.741112], [-8.035949, 41.732081], [-8.022886, 41.719067], [-8.010942, 41.71397], [-7.998955, 41.71177], [-7.974898, 41.712826], [-7.962971, 41.70701], [-7.946571, 41.686262], [-7.93698, 41.677166], [-7.927529, 41.669904], [-7.915623, 41.663554], [-7.902019, 41.659867], [-7.899913, 41.66127], [-7.900198, 41.665547], [-7.898396, 41.665769], [-7.897186, 41.668467], [-7.882465, 41.671588], [-7.877044, 41.676077], [-7.876723, 41.681253], [-7.873702, 41.685973], [-7.869865, 41.685965]], [[-7.888076, 41.757766], [-7.882475, 41.766718], [-7.877734, 41.770196], [-7.865629, 41.774412], [-7.853615, 41.773394], [-7.841741, 41.766315], [-7.838346, 41.757274], [-7.842893, 41.748313], [-7.858015, 41.739457], [-7.866386, 41.731384], [-7.878961, 41.699735], [-7.883534, 41.694673], [-7.891186, 41.687677], [-7.903234, 41.685784], [-7.915214, 41.687903], [-7.927105, 41.695431], [-7.934296, 41.704162], [-7.936777, 41.713192], [-7.935405, 41.722187], [-7.92864, 41.731131], [-7.915644, 41.740016], [-7.894577, 41.748822], [-7.888076, 41.757766]], [[-8.022464, 41.746911], [-8.010383, 41.750417], [-7.998403, 41.747363], [-7.990477, 41.740697], [-7.988675, 41.731675], [-7.996788, 41.722739], [-8.010842, 41.72051], [-8.022775, 41.726355], [-8.027815, 41.732013], [-8.02765, 41.741018], [-8.022464, 41.746911]]], [[[-8.163945, 41.634006], [-8.159497, 41.624967], [-8.144436, 41.618516], [-8.132416, 41.619791], [-8.12556, 41.624713], [-8.118022, 41.633663], [-8.120393, 41.642688], [-8.132024, 41.649039], [-8.14403, 41.649197], [-8.159087, 41.642978], [-8.163945, 41.634006]], [[-8.132255, 41.631794], [-8.137711, 41.633812], [-8.132188, 41.636801], [-8.13022, 41.633756], [-8.132255, 41.631794]]], [[[-8.081576, 41.564677], [-8.097138, 41.567286], [-8.121111, 41.568343], [-8.133118, 41.567318], [-8.145151, 41.564328], [-8.150792, 41.561852], [-8.161599, 41.552924], [-8.165539, 41.543946], [-8.165913, 41.534941], [-8.163443, 41.525916], [-8.156445, 41.516858], [-8.145849, 41.511324], [-8.121958, 41.505777], [-8.078332, 41.500105], [-8.092402, 41.504163], [-8.0927, 41.506418], [-8.110868, 41.507507], [-8.121899, 41.510087], [-8.137831, 41.51672], [-8.144796, 41.525779], [-8.145777, 41.534793], [-8.142268, 41.543775], [-8.130783, 41.552696], [-8.121273, 41.556366], [-8.109258, 41.558088], [-8.097273, 41.557599], [-8.085318, 41.554986], [-8.075039, 41.550523], [-8.074995, 41.5505], [-8.074097, 41.550032], [-8.073494, 41.553449], [-8.075891, 41.554575], [-8.076188, 41.557276], [-8.079783, 41.558403], [-8.081576, 41.564677]]]]}}, {"id": "6", "type": "Feature", "properties": {"fill": "#ef6d48", "value_min": 0.73, "value_max": 0.8}, "geometry": {"type": "MultiPolygon", "coordinates": [[[[-8.341637, 41.761693], [-8.336237, 41.743215], [-8.331736, 41.734182], [-8.323395, 41.722548], [-8.311481, 41.712394], [-8.299514, 41.707419], [-8.287504, 41.706543], [-8.275453, 41.70942], [-8.239183, 41.72716], [-8.22714, 41.728769], [-8.215138, 41.727055], [-8.203164, 41.72304], [-8.187646, 41.71524], [-8.177772, 41.706163], [-8.173317, 41.697124], [-8.172606, 41.688111], [-8.174268, 41.679116], [-8.179835, 41.666685], [-8.192019, 41.652921], [-8.204124, 41.645169], [-8.216192, 41.640259], [-8.252332, 41.630039], [-8.264394, 41.625003], [-8.276485, 41.617239], [-8.312805, 41.587904], [-8.336959, 41.572452], [-8.348992, 41.568624], [-8.360987, 41.568508], [-8.432856, 41.579366], [-8.456845, 41.579712], [-8.468858, 41.577618], [-8.480906, 41.571113], [-8.515736, 41.536946], [-8.520056, 41.527957], [-8.521131, 41.518954], [-8.51934, 41.509939], [-8.514213, 41.50091], [-8.489567, 41.473781], [-8.474854, 41.446693], [-8.463338, 41.419617], [-8.462366, 41.401598], [-8.468226, 41.374602], [-8.470111, 41.356595], [-8.466347, 41.338563], [-8.453897, 41.320489], [-8.435243, 41.304613], [-8.422633, 41.296733], [-8.421756, 41.30077], [-8.416982, 41.301232], [-8.407744, 41.304856], [-8.406262, 41.307335], [-8.402979, 41.307568], [-8.401801, 41.311398], [-8.399712, 41.311628], [-8.400316, 41.313202], [-8.396738, 41.314336], [-8.398835, 41.316131], [-8.393775, 41.31997], [-8.393489, 41.323122], [-8.391105, 41.324253], [-8.386325, 41.323588], [-8.380382, 41.331254], [-8.375305, 41.33104], [-8.37201, 41.328346], [-8.361563, 41.329718], [-8.358276, 41.329049], [-8.357673, 41.327249], [-8.350207, 41.327264], [-8.346032, 41.328847], [-8.342462, 41.333131], [-8.333215, 41.336299], [-8.325766, 41.342164], [-8.324568, 41.341041], [-8.323376, 41.341943], [-8.316788, 41.335876], [-8.313802, 41.336331], [-8.31169, 41.328456], [-8.309663, 41.327559], [-8.304632, 41.346707], [-8.30312, 41.373721], [-8.306886, 41.400766], [-8.312444, 41.418814], [-8.319771, 41.427865], [-8.350283, 41.439602], [-8.362186, 41.446483], [-8.374002, 41.462651], [-8.377197, 41.473228], [-8.37929, 41.491254], [-8.375434, 41.509248], [-8.361394, 41.527165], [-8.34933, 41.534878], [-8.337332, 41.53589], [-8.325384, 41.532067], [-8.313507, 41.521654], [-8.300328, 41.499808], [-8.289258, 41.463711], [-8.284247, 41.454672], [-8.278342, 41.450427], [-8.266401, 41.44763], [-8.218531, 41.446282], [-8.194631, 41.44279], [-8.170808, 41.433505], [-8.10771, 41.400169], [-8.108606, 41.403102], [-8.104419, 41.406252], [-8.104119, 41.408728], [-8.101727, 41.409403], [-8.102025, 41.411204], [-8.092756, 41.411201], [-8.09126, 41.414352], [-8.081986, 41.4193], [-8.078697, 41.419524], [-8.077503, 41.416597], [-8.070923, 41.41862], [-8.066739, 41.416142], [-8.061654, 41.417489], [-8.059852, 41.424916], [-8.055959, 41.429415], [-8.05745, 41.432793], [-8.056549, 41.436394], [-8.057743, 41.438645], [-8.061033, 41.438872], [-8.063424, 41.4409], [-8.064916, 41.444052], [-8.068005, 41.444504], [-8.074965, 41.439924], [-8.086998, 41.435443], [-8.098995, 41.433475], [-8.110962, 41.433563], [-8.134831, 41.438763], [-8.148075, 41.444737], [-8.162479, 41.45385], [-8.182294, 41.471988], [-8.19424, 41.474383], [-8.230248, 41.467819], [-8.242222, 41.467884], [-8.254173, 41.470011], [-8.266091, 41.475154], [-8.280821, 41.490681], [-8.287928, 41.508739], [-8.287352, 41.526751], [-8.282758, 41.535729], [-8.277329, 41.541584], [-8.265255, 41.549143], [-8.253224, 41.552626], [-8.241221, 41.553681], [-8.229242, 41.55269], [-8.217292, 41.549226], [-8.205396, 41.541572], [-8.193587, 41.527046], [-8.181908, 41.502662], [-8.170014, 41.495818], [-8.133993, 41.501818], [-8.110046, 41.500598], [-8.098614, 41.498404], [-8.086179, 41.493771], [-8.075576, 41.489214], [-8.066895, 41.482093], [-8.066069, 41.48817], [-8.072054, 41.490199], [-8.07175, 41.494925], [-8.078332, 41.500105], [-8.121958, 41.505777], [-8.145849, 41.511324], [-8.156445, 41.516858], [-8.163443, 41.525916], [-8.165913, 41.534941], [-8.165539, 41.543946], [-8.161599, 41.552924], [-8.150792, 41.561852], [-8.145151, 41.564328], [-8.133118, 41.567318], [-8.121111, 41.568343], [-8.097138, 41.567286], [-8.081576, 41.564677], [-8.078879, 41.56493], [-8.075279, 41.568305], [-8.073182, 41.568079], [-8.069283, 41.570553], [-8.068081, 41.573478], [-8.060884, 41.576736], [-8.098161, 41.579466], [-8.108932, 41.581801], [-8.125646, 41.588685], [-8.131643, 41.597738], [-8.129766, 41.606731], [-8.109819, 41.6336], [-8.109126, 41.642601], [-8.119951, 41.653758], [-8.143842, 41.663406], [-8.153904, 41.669961], [-8.157972, 41.678998], [-8.161154, 41.697035], [-8.164653, 41.706068], [-8.173543, 41.715139], [-8.207294, 41.733391], [-8.219234, 41.74248], [-8.236518, 41.76061], [-8.23863, 41.769631], [-8.237314, 41.778629], [-8.230516, 41.791597], [-8.240744, 41.791588], [-8.24074, 41.789338], [-8.244347, 41.787984], [-8.245546, 41.785731], [-8.251257, 41.784375], [-8.251845, 41.777172], [-8.257551, 41.773564], [-8.261762, 41.774235], [-8.265383, 41.77108], [-8.261087, 41.769777], [-8.252709, 41.760716], [-8.254165, 41.751719], [-8.260174, 41.742751], [-8.275185, 41.733244], [-8.287226, 41.731752], [-8.299211, 41.735314], [-8.30728, 41.743044], [-8.309692, 41.752066], [-8.307112, 41.758825], [-8.311096, 41.762195], [-8.318308, 41.761283], [-8.325233, 41.765098], [-8.328234, 41.763292], [-8.336653, 41.763728], [-8.341637, 41.761693]], [[-8.163945, 41.634006], [-8.159087, 41.642978], [-8.14403, 41.649197], [-8.132024, 41.649039], [-8.120393, 41.642688], [-8.118022, 41.633663], [-8.12556, 41.624713], [-8.132416, 41.619791], [-8.144436, 41.618516], [-8.159497, 41.624967], [-8.163945, 41.634006]], [[-8.456923, 41.570378], [-8.444925, 41.570749], [-8.432948, 41.568766], [-8.419164, 41.563521], [-8.407532, 41.554455], [-8.401756, 41.545417], [-8.399618, 41.518384], [-8.391109, 41.491317], [-8.39004, 41.473297], [-8.392072, 41.4643], [-8.398035, 41.453555], [-8.410084, 41.445074], [-8.422079, 41.442399], [-8.434038, 41.443793], [-8.445968, 41.448539], [-8.457863, 41.457829], [-8.46332, 41.464655], [-8.467919, 41.473683], [-8.46992, 41.4827], [-8.467799, 41.509712], [-8.475786, 41.518757], [-8.488012, 41.527819], [-8.491455, 41.536842], [-8.48983, 41.545842], [-8.481012, 41.557772], [-8.468946, 41.566814], [-8.456923, 41.570378]], [[-8.374513, 41.40939], [-8.362549, 41.409361], [-8.350605, 41.407289], [-8.338693, 41.402085], [-8.326843, 41.391095], [-8.322651, 41.382845], [-8.320897, 41.373827], [-8.321661, 41.364824], [-8.324975, 41.355836], [-8.331866, 41.346868], [-8.339316, 41.340576], [-8.351322, 41.335179], [-8.363293, 41.333038], [-8.375239, 41.333537], [-8.38716, 41.336724], [-8.399052, 41.343149], [-8.410829, 41.356307], [-8.414387, 41.365333], [-8.414972, 41.374344], [-8.412782, 41.38334], [-8.407764, 41.392322], [-8.398175, 41.40128], [-8.386498, 41.407201], [-8.374513, 41.40939]]], [[[-7.728489, 41.812204], [-7.768704, 41.80935], [-7.780728, 41.810146], [-7.792714, 41.812929], [-7.808949, 41.82002], [-7.836773, 41.838319], [-7.846882, 41.847427], [-7.858255, 41.862621], [-7.859456, 41.860148], [-7.865481, 41.859262], [-7.87033, 41.851395], [-7.873043, 41.850501], [-7.873367, 41.844875], [-7.879056, 41.85254], [-7.886268, 41.855932], [-7.888076, 41.855486], [-7.891675, 41.859094], [-7.900698, 41.861588], [-7.904318, 41.859795], [-7.907309, 41.865203], [-7.906095, 41.868126], [-7.910299, 41.871285], [-7.909985, 41.875111], [-7.915391, 41.879397], [-7.921118, 41.877833], [-7.928044, 41.87807], [-7.935283, 41.874707], [-7.937389, 41.87516], [-7.941618, 41.870891], [-7.951254, 41.871132], [-7.956367, 41.87339], [-7.956362, 41.875191], [-7.960878, 41.875648], [-7.962086, 41.874074], [-7.973828, 41.875216], [-7.987996, 41.869157], [-7.990123, 41.860157], [-7.995547, 41.858138], [-7.994047, 41.855211], [-7.996162, 41.851837], [-8.003089, 41.850494], [-8.005804, 41.847346], [-8.007928, 41.838796], [-8.012753, 41.833624], [-8.013363, 41.829124], [-8.017873, 41.831379], [-8.02901, 41.829589], [-8.037134, 41.831171], [-8.041351, 41.828023], [-8.041054, 41.825097], [-8.045268, 41.824425], [-8.046775, 41.821951], [-8.056712, 41.81588], [-8.06664, 41.817012], [-8.072961, 41.813414], [-8.077775, 41.813641], [-8.07928, 41.812494], [-8.072912, 41.80444], [-8.068837, 41.795401], [-8.062121, 41.759319], [-8.054442, 41.741242], [-8.036647, 41.72308], [-8.022996, 41.711777], [-7.986379, 41.68662], [-7.971615, 41.668475], [-7.963846, 41.650391], [-7.960821, 41.632349], [-7.96364, 41.614361], [-7.96909, 41.604168], [-7.965796, 41.602413], [-7.9541, 41.602846], [-7.952606, 41.600592], [-7.947808, 41.60081], [-7.945413, 41.599456], [-7.942725, 41.595625], [-7.935832, 41.594713], [-7.93791, 41.601694], [-7.937004, 41.603718], [-7.931604, 41.604384], [-7.930979, 41.612711], [-7.925556, 41.620354], [-7.920755, 41.620796], [-7.917748, 41.623041], [-7.915933, 41.627764], [-7.913229, 41.628885], [-7.912613, 41.63361], [-7.906014, 41.633147], [-7.906884, 41.641927], [-7.897869, 41.645511], [-7.89696, 41.647985], [-7.892759, 41.647976], [-7.892145, 41.651576], [-7.900827, 41.657446], [-7.902019, 41.659867], [-7.915623, 41.663554], [-7.927529, 41.669904], [-7.93698, 41.677166], [-7.946571, 41.686262], [-7.962971, 41.70701], [-7.974898, 41.712826], [-7.998955, 41.71177], [-8.010942, 41.71397], [-8.022886, 41.719067], [-8.035949, 41.732081], [-8.038824, 41.741112], [-8.034399, 41.75301], [-8.02224, 41.761626], [-8.010182, 41.763492], [-7.998185, 41.761376], [-7.962365, 41.744643], [-7.950332, 41.749345], [-7.95342, 41.75838], [-7.950084, 41.760279], [-7.938068, 41.75945], [-7.926121, 41.754523], [-7.914015, 41.759116], [-7.889621, 41.778578], [-7.877493, 41.784043], [-7.853362, 41.787611], [-7.841334, 41.787212], [-7.828892, 41.784198], [-7.813385, 41.775032], [-7.806178, 41.765951], [-7.802017, 41.756901], [-7.8013, 41.747886], [-7.805663, 41.738925], [-7.818272, 41.732404], [-7.854455, 41.726155], [-7.866658, 41.715906], [-7.871155, 41.703559], [-7.869865, 41.685965], [-7.867999, 41.68551], [-7.868008, 41.68326], [-7.864403, 41.683701], [-7.864096, 41.685276], [-7.858987, 41.68639], [-7.857773, 41.689538], [-7.855076, 41.688181], [-7.852668, 41.689526], [-7.848143, 41.694403], [-7.855017, 41.694523], [-7.862759, 41.703477], [-7.85959, 41.712452], [-7.854628, 41.71645], [-7.842618, 41.715784], [-7.835848, 41.712214], [-7.835159, 41.709885], [-7.825252, 41.708813], [-7.818621, 41.713522], [-7.815291, 41.718689], [-7.808986, 41.717996], [-7.808396, 41.715744], [-7.804499, 41.714158], [-7.79939, 41.714593], [-7.79788, 41.716164], [-7.796383, 41.71526], [-7.790966, 41.717044], [-7.789449, 41.719966], [-7.78464, 41.720402], [-7.78252, 41.723546], [-7.776204, 41.724652], [-7.773786, 41.727346], [-7.7678, 41.723276], [-7.763888, 41.724389], [-7.761765, 41.727758], [-7.762933, 41.733839], [-7.759307, 41.737203], [-7.759597, 41.739005], [-7.75689, 41.739446], [-7.758687, 41.740577], [-7.757758, 41.745301], [-7.748417, 41.749321], [-7.747786, 41.754496], [-7.743866, 41.756509], [-7.740214, 41.763924], [-7.726937, 41.771755], [-7.7254, 41.777152], [-7.727191, 41.779184], [-7.724177, 41.780299], [-7.725372, 41.781653], [-7.722296, 41.792446], [-7.728879, 41.797871], [-7.72705, 41.801691], [-7.728489, 41.812204]], [[-7.924976, 41.823078], [-7.911246, 41.821035], [-7.902224, 41.811943], [-7.900863, 41.802923], [-7.902386, 41.793931], [-7.906733, 41.784965], [-7.91668, 41.776053], [-7.925827, 41.772132], [-7.961933, 41.771476], [-7.973933, 41.773466], [-7.981565, 41.776646], [-7.994735, 41.785769], [-8.002711, 41.794846], [-8.00597, 41.803881], [-8.002959, 41.812861], [-7.997326, 41.816521], [-7.985226, 41.820281], [-7.949097, 41.820749], [-7.924976, 41.823078]]], [[[-7.837309, 41.699452], [-7.837309, 41.699452], [-7.837376, 41.699391], [-7.837309, 41.699452]]], [[[-7.83761, 41.69918], [-7.83761, 41.69918], [-7.837625, 41.699167], [-7.83761, 41.69918]]], [[[-8.637237, 41.402282], [-8.649741, 41.401925], [-8.661715, 41.399793], [-8.677276, 41.393393], [-8.685705, 41.386529], [-8.692374, 41.37542], [-8.692651, 41.366413], [-8.689465, 41.357396], [-8.683199, 41.348372], [-8.67398, 41.339272], [-8.66202, 41.330296], [-8.638241, 41.318302], [-8.62631, 41.315209], [-8.614369, 41.314172], [-8.602416, 41.315065], [-8.59045, 41.318075], [-8.578467, 41.323586], [-8.569331, 41.329987], [-8.562261, 41.338968], [-8.559778, 41.347966], [-8.561077, 41.356978], [-8.57322, 41.375039], [-8.590014, 41.387548], [-8.613871, 41.398486], [-8.637237, 41.402282]], [[-8.625908, 41.385485], [-8.613971, 41.381513], [-8.604469, 41.375151], [-8.597973, 41.366121], [-8.596603, 41.357108], [-8.599947, 41.348112], [-8.610621, 41.339141], [-8.626198, 41.334839], [-8.638145, 41.335655], [-8.650074, 41.339834], [-8.661176, 41.348309], [-8.666427, 41.357332], [-8.666896, 41.366341], [-8.662199, 41.375335], [-8.64984, 41.383413], [-8.637865, 41.386075], [-8.625908, 41.385485]]], [[[-8.63319, 41.189747], [-8.636486, 41.204109], [-8.64063, 41.21313], [-8.650685, 41.225231], [-8.660964, 41.231207], [-8.6745, 41.234802], [-8.686429, 41.235498], [-8.710307, 41.232788], [-8.722253, 41.229621], [-8.740844, 41.222407], [-8.755411, 41.213431], [-8.765571, 41.204444], [-8.772469, 41.19545], [-8.777244, 41.186452], [-8.780518, 41.168442], [-8.779516, 41.159432], [-8.773144, 41.144653], [-8.674793, 41.146932], [-8.674849, 41.153767], [-8.672489, 41.15648], [-8.66117, 41.156307], [-8.662078, 41.158104], [-8.660313, 41.160813], [-8.657033, 41.160378], [-8.654961, 41.161963], [-8.653231, 41.169174], [-8.655366, 41.175467], [-8.647955, 41.180228], [-8.647696, 41.185181], [-8.640929, 41.196241], [-8.634946, 41.193341], [-8.63319, 41.189747]], [[-8.686522, 41.216161], [-8.67461, 41.212682], [-8.666212, 41.204199], [-8.663778, 41.195184], [-8.667117, 41.186186], [-8.674778, 41.178583], [-8.686721, 41.17433], [-8.698642, 41.17455], [-8.710542, 41.179514], [-8.716993, 41.186319], [-8.719514, 41.195333], [-8.71653, 41.204334], [-8.710407, 41.210125], [-8.698454, 41.215564], [-8.686522, 41.216161]]], [[[-8.633094, 41.189072], [-8.633094, 41.189072], [-8.633128, 41.189309], [-8.633094, 41.189072]]]]}}, {"id": "1", "type": "Feature", "properties": {"fill": "#eef8a7", "value_min": 0.4, "value_max": 0.47}, "geometry": {"type": "MultiPolygon", "coordinates": [[[[-7.890593, 41.722147], [-7.902743, 41.721879], [-7.902786, 41.712159], [-7.890768, 41.711988], [-7.890593, 41.722147]]], [[[-8.415956, 41.716627], [-8.419605, 41.719337], [-8.421484, 41.716655], [-8.41964, 41.715376], [-8.415956, 41.716627]]], [[[-8.203464, 41.698734], [-8.2165, 41.697426], [-8.215521, 41.695577], [-8.203516, 41.694554], [-8.20218, 41.697328], [-8.203464, 41.698734]]], [[[-8.444318, 41.64156], [-8.456344, 41.63932], [-8.461142, 41.635784], [-8.464423, 41.626792], [-8.458705, 41.617758], [-8.444557, 41.613734], [-8.431714, 41.617627], [-8.426791, 41.62661], [-8.432349, 41.637173], [-8.444318, 41.64156]]], [[[-8.62501, 41.541534], [-8.637016, 41.538466], [-8.643876, 41.528407], [-8.640704, 41.51939], [-8.637139, 41.516607], [-8.625179, 41.512367], [-8.61318, 41.51482], [-8.607695, 41.519282], [-8.605431, 41.528282], [-8.613039, 41.53853], [-8.62501, 41.541534]]], [[[-8.102891, 41.534467], [-8.110372, 41.534525], [-8.114644, 41.525551], [-8.109758, 41.521649], [-8.097761, 41.522504], [-8.094355, 41.525393], [-8.097611, 41.533258], [-8.102891, 41.534467]]], [[[-8.541617, 41.466437], [-8.553576, 41.468881], [-8.564868, 41.465083], [-8.569949, 41.456095], [-8.565699, 41.446746], [-8.553759, 41.442091], [-8.541773, 41.444259], [-8.538254, 41.446965], [-8.534397, 41.455957], [-8.541617, 41.466437]]], [[[-8.199137, 41.377198], [-8.198381, 41.382046], [-8.203364, 41.391088], [-8.207196, 41.393964], [-8.219105, 41.398338], [-8.231076, 41.397644], [-8.243197, 41.391357], [-8.247642, 41.382379], [-8.246239, 41.373362], [-8.242893, 41.369061], [-8.239197, 41.371315], [-8.232024, 41.369971], [-8.224854, 41.370878], [-8.21738, 41.368182], [-8.211712, 41.376065], [-8.199137, 41.377198]], [[-8.219315, 41.380844], [-8.22444, 41.382225], [-8.21929, 41.382881], [-8.219315, 41.380844]]]]}}, {"id": "7", "type": "Feature", "properties": {"fill": "#e85c3f", "value_min": 0.8, "value_max": 0.87}, "geometry": {"type": "MultiPolygon", "coordinates": [[[[-7.858255, 41.862621], [-7.846882, 41.847427], [-7.836773, 41.838319], [-7.808949, 41.82002], [-7.792714, 41.812929], [-7.780728, 41.810146], [-7.768704, 41.80935], [-7.728489, 41.812204], [-7.728761, 41.816776], [-7.732041, 41.821514], [-7.74345, 41.825605], [-7.739217, 41.828957], [-7.75632, 41.827222], [-7.768341, 41.8283], [-7.780321, 41.831563], [-7.791481, 41.837851], [-7.801082, 41.846958], [-7.806391, 41.85602], [-7.808996, 41.870596], [-7.814229, 41.873537], [-7.823863, 41.874013], [-7.825059, 41.875817], [-7.830479, 41.875831], [-7.830789, 41.874031], [-7.832894, 41.874712], [-7.83772, 41.872924], [-7.842528, 41.875187], [-7.841663, 41.866632], [-7.849515, 41.861475], [-7.858255, 41.862621]]], [[[-8.230516, 41.791597], [-8.237314, 41.778629], [-8.23863, 41.769631], [-8.236518, 41.76061], [-8.219234, 41.74248], [-8.207294, 41.733391], [-8.173543, 41.715139], [-8.164653, 41.706068], [-8.161154, 41.697035], [-8.157972, 41.678998], [-8.153904, 41.669961], [-8.143842, 41.663406], [-8.119951, 41.653758], [-8.109126, 41.642601], [-8.109819, 41.6336], [-8.129766, 41.606731], [-8.131643, 41.597738], [-8.125646, 41.588685], [-8.108932, 41.581801], [-8.098161, 41.579466], [-8.060884, 41.576736], [-8.052181, 41.584498], [-8.052777, 41.587649], [-8.037169, 41.600242], [-8.031467, 41.602938], [-8.02367, 41.603156], [-8.019174, 41.601802], [-8.015872, 41.603824], [-8.013474, 41.603372], [-8.005971, 41.60629], [-8.003562, 41.611239], [-7.99936, 41.61281], [-7.998462, 41.612359], [-7.999669, 41.608759], [-7.996976, 41.605829], [-7.996684, 41.602003], [-7.984685, 41.603564], [-7.982292, 41.60086], [-7.975689, 41.603552], [-7.974482, 41.606701], [-7.971182, 41.607147], [-7.96909, 41.604168], [-7.96364, 41.614361], [-7.960821, 41.632349], [-7.963846, 41.650391], [-7.971615, 41.668475], [-7.986379, 41.68662], [-8.022996, 41.711777], [-8.036647, 41.72308], [-8.054442, 41.741242], [-8.062121, 41.759319], [-8.068837, 41.795401], [-8.072912, 41.80444], [-8.07928, 41.812494], [-8.084998, 41.810493], [-8.091013, 41.812521], [-8.093421, 41.811397], [-8.093723, 41.808471], [-8.101845, 41.809824], [-8.104853, 41.81185], [-8.115984, 41.812302], [-8.123807, 41.808702], [-8.138247, 41.808477], [-8.139751, 41.813203], [-8.14276, 41.812978], [-8.145769, 41.815453], [-8.149078, 41.814777], [-8.153893, 41.817928], [-8.161415, 41.818376], [-8.165326, 41.81815], [-8.173744, 41.808019], [-8.177054, 41.808017], [-8.182773, 41.812516], [-8.190291, 41.809587], [-8.197158, 41.814129], [-8.201063, 41.808724], [-8.204973, 41.807372], [-8.205872, 41.804445], [-8.213692, 41.803765], [-8.217598, 41.80016], [-8.217589, 41.793634], [-8.224207, 41.794303], [-8.230516, 41.791597]], [[-8.166409, 41.776192], [-8.154396, 41.774662], [-8.141801, 41.768948], [-8.131796, 41.759866], [-8.126942, 41.750822], [-8.126731, 41.741814], [-8.135358, 41.732872], [-8.155051, 41.724784], [-8.167095, 41.723105], [-8.179084, 41.725787], [-8.192483, 41.733288], [-8.19985, 41.742346], [-8.201479, 41.751365], [-8.198713, 41.760352], [-8.190565, 41.768918], [-8.17846, 41.774761], [-8.166409, 41.776192]], [[-8.094852, 41.730801], [-8.070821, 41.72964], [-8.058826, 41.727626], [-8.046875, 41.722729], [-8.034329, 41.714054], [-8.026922, 41.704984], [-8.021234, 41.677915], [-8.010715, 41.668818], [-8.006963, 41.659778], [-8.011942, 41.648648], [-8.024043, 41.642523], [-8.036103, 41.639018], [-8.04167, 41.633052], [-8.044006, 41.615057], [-8.048986, 41.606091], [-8.05893, 41.597166], [-8.072799, 41.591871], [-8.084815, 41.590583], [-8.096791, 41.592178], [-8.107435, 41.597553], [-8.113709, 41.606608], [-8.112883, 41.615609], [-8.107461, 41.624574], [-8.098881, 41.633515], [-8.096141, 41.638728], [-8.090178, 41.642453], [-8.096088, 41.651507], [-8.124321, 41.669739], [-8.131659, 41.676202], [-8.140331, 41.687874], [-8.139858, 41.696878], [-8.13132, 41.701369], [-8.113718, 41.7237], [-8.106893, 41.729584], [-8.094852, 41.730801]]], [[[-7.924976, 41.823078], [-7.949097, 41.820749], [-7.985226, 41.820281], [-7.997326, 41.816521], [-8.002959, 41.812861], [-8.00597, 41.803881], [-8.002711, 41.794846], [-7.994735, 41.785769], [-7.981565, 41.776646], [-7.973933, 41.773466], [-7.961933, 41.771476], [-7.925827, 41.772132], [-7.91668, 41.776053], [-7.906733, 41.784965], [-7.902386, 41.793931], [-7.900863, 41.802923], [-7.902224, 41.811943], [-7.911246, 41.821035], [-7.924976, 41.823078]], [[-7.949276, 41.809769], [-7.937242, 41.809502], [-7.925294, 41.804049], [-7.919183, 41.79409], [-7.921778, 41.785108], [-7.937772, 41.777413], [-7.949806, 41.777335], [-7.961781, 41.78091], [-7.969043, 41.785542], [-7.971609, 41.794571], [-7.966302, 41.803531], [-7.96137, 41.806348], [-7.949276, 41.809769]]], [[[-8.307112, 41.758825], [-8.309692, 41.752066], [-8.30728, 41.743044], [-8.299211, 41.735314], [-8.287226, 41.731752], [-8.275185, 41.733244], [-8.260174, 41.742751], [-8.254165, 41.751719], [-8.252709, 41.760716], [-8.261087, 41.769777], [-8.265383, 41.77108], [-8.271366, 41.766346], [-8.280681, 41.764083], [-8.284038, 41.761109], [-8.284931, 41.757507], [-8.287033, 41.756829], [-8.307112, 41.758825]]], [[[-7.835159, 41.709885], [-7.835848, 41.712214], [-7.842618, 41.715784], [-7.854628, 41.71645], [-7.85959, 41.712452], [-7.862759, 41.703477], [-7.855017, 41.694523], [-7.848143, 41.694403], [-7.837625, 41.699167], [-7.83761, 41.69918], [-7.837376, 41.699391], [-7.837309, 41.699452], [-7.835792, 41.702763], [-7.839679, 41.706599], [-7.838465, 41.709522], [-7.835159, 41.709885]]], [[[-8.456923, 41.570378], [-8.468946, 41.566814], [-8.481012, 41.557772], [-8.48983, 41.545842], [-8.491455, 41.536842], [-8.488012, 41.527819], [-8.475786, 41.518757], [-8.467799, 41.509712], [-8.46992, 41.4827], [-8.467919, 41.473683], [-8.46332, 41.464655], [-8.457863, 41.457829], [-8.445968, 41.448539], [-8.434038, 41.443793], [-8.422079, 41.442399], [-8.410084, 41.445074], [-8.398035, 41.453555], [-8.392072, 41.4643], [-8.39004, 41.473297], [-8.391109, 41.491317], [-8.399618, 41.518384], [-8.401756, 41.545417], [-8.407532, 41.554455], [-8.419164, 41.563521], [-8.432948, 41.568766], [-8.444925, 41.570749], [-8.456923, 41.570378]], [[-8.456991, 41.562296], [-8.444998, 41.562262], [-8.433045, 41.557716], [-8.428371, 41.55456], [-8.422943, 41.545526], [-8.423298, 41.53652], [-8.429653, 41.527544], [-8.433336, 41.524379], [-8.445348, 41.521327], [-8.457316, 41.523366], [-8.469247, 41.530058], [-8.476697, 41.536775], [-8.478033, 41.545789], [-8.472434, 41.554771], [-8.456991, 41.562296]], [[-8.421533, 41.503866], [-8.409604, 41.498019], [-8.404054, 41.491385], [-8.401169, 41.482363], [-8.403073, 41.473365], [-8.411627, 41.464402], [-8.421919, 41.460386], [-8.433887, 41.461106], [-8.445804, 41.467794], [-8.450557, 41.473602], [-8.452433, 41.482618], [-8.445568, 41.495532], [-8.433519, 41.503396], [-8.421533, 41.503866]]], [[[-8.066895, 41.482093], [-8.075576, 41.489214], [-8.086179, 41.493771], [-8.098614, 41.498404], [-8.110046, 41.500598], [-8.133993, 41.501818], [-8.170014, 41.495818], [-8.181908, 41.502662], [-8.193587, 41.527046], [-8.205396, 41.541572], [-8.217292, 41.549226], [-8.229242, 41.55269], [-8.241221, 41.553681], [-8.253224, 41.552626], [-8.265255, 41.549143], [-8.277329, 41.541584], [-8.282758, 41.535729], [-8.287352, 41.526751], [-8.287928, 41.508739], [-8.280821, 41.490681], [-8.266091, 41.475154], [-8.254173, 41.470011], [-8.242222, 41.467884], [-8.230248, 41.467819], [-8.19424, 41.474383], [-8.182294, 41.471988], [-8.162479, 41.45385], [-8.148075, 41.444737], [-8.134831, 41.438763], [-8.110962, 41.433563], [-8.098995, 41.433475], [-8.086998, 41.435443], [-8.074965, 41.439924], [-8.068005, 41.444504], [-8.069999, 41.447206], [-8.068788, 41.462286], [-8.073872, 41.46499], [-8.074468, 41.468592], [-8.073564, 41.474668], [-8.066895, 41.482093]], [[-8.241456, 41.533561], [-8.229496, 41.531282], [-8.220702, 41.526318], [-8.212343, 41.517254], [-8.209744, 41.508229], [-8.21146, 41.499233], [-8.219295, 41.490279], [-8.230045, 41.484982], [-8.242041, 41.483406], [-8.253996, 41.485423], [-8.265892, 41.492793], [-8.271126, 41.499627], [-8.273678, 41.50865], [-8.271964, 41.517647], [-8.265517, 41.525948], [-8.253459, 41.532257], [-8.241456, 41.533561]], [[-8.122069, 41.497557], [-8.110101, 41.496618], [-8.098177, 41.492524], [-8.091493, 41.489341], [-8.084454, 41.480278], [-8.083498, 41.471263], [-8.088519, 41.462295], [-8.098692, 41.455368], [-8.110703, 41.452581], [-8.122667, 41.453219], [-8.134588, 41.457063], [-8.142779, 41.462712], [-8.149451, 41.471769], [-8.150246, 41.480783], [-8.144372, 41.489746], [-8.134084, 41.494952], [-8.122069, 41.497557]]], [[[-8.374513, 41.40939], [-8.386498, 41.407201], [-8.398175, 41.40128], [-8.407764, 41.392322], [-8.412782, 41.38334], [-8.414972, 41.374344], [-8.414387, 41.365333], [-8.410829, 41.356307], [-8.399052, 41.343149], [-8.38716, 41.336724], [-8.375239, 41.333537], [-8.363293, 41.333038], [-8.351322, 41.335179], [-8.339316, 41.340576], [-8.331866, 41.346868], [-8.324975, 41.355836], [-8.321661, 41.364824], [-8.320897, 41.373827], [-8.322651, 41.382845], [-8.326843, 41.391095], [-8.338693, 41.402085], [-8.350605, 41.407289], [-8.362549, 41.409361], [-8.374513, 41.40939]], [[-8.362734, 41.39045], [-8.350801, 41.3876], [-8.344733, 41.382973], [-8.340503, 41.373941], [-8.343742, 41.364952], [-8.351087, 41.358776], [-8.363071, 41.35591], [-8.374997, 41.358847], [-8.382666, 41.365167], [-8.385549, 41.37419], [-8.38119, 41.383174], [-8.374721, 41.387697], [-8.362734, 41.39045]]], [[[-8.625908, 41.385485], [-8.637865, 41.386075], [-8.64984, 41.383413], [-8.662199, 41.375335], [-8.666896, 41.366341], [-8.666427, 41.357332], [-8.661176, 41.348309], [-8.650074, 41.339834], [-8.638145, 41.335655], [-8.626198, 41.334839], [-8.610621, 41.339141], [-8.599947, 41.348112], [-8.596603, 41.357108], [-8.597973, 41.366121], [-8.604469, 41.375151], [-8.613971, 41.381513], [-8.625908, 41.385485]], [[-8.631117, 41.366232], [-8.626039, 41.362681], [-8.625401, 41.357206], [-8.638033, 41.355902], [-8.639784, 41.357252], [-8.638615, 41.366256], [-8.631117, 41.366232]]], [[[-8.686522, 41.216161], [-8.698454, 41.215564], [-8.710407, 41.210125], [-8.71653, 41.204334], [-8.719514, 41.195333], [-8.716993, 41.186319], [-8.710542, 41.179514], [-8.698642, 41.17455], [-8.686721, 41.17433], [-8.674778, 41.178583], [-8.667117, 41.186186], [-8.663778, 41.195184], [-8.666212, 41.204199], [-8.67461, 41.212682], [-8.686522, 41.216161]]]]}}, {"id": "8", "type": "Feature", "properties": {"fill": "#e14a35", "value_min": 0.87, "value_max": 0.93}, "geometry": {"type": "MultiPolygon", "coordinates": [[[[-7.808996, 41.870596], [-7.806391, 41.85602], [-7.801082, 41.846958], [-7.791481, 41.837851], [-7.780321, 41.831563], [-7.768341, 41.8283], [-7.75632, 41.827222], [-7.739217, 41.828957], [-7.742196, 41.833928], [-7.74729, 41.837772], [-7.746066, 41.841119], [-7.756078, 41.83969], [-7.768086, 41.841615], [-7.7779, 41.846714], [-7.785215, 41.855798], [-7.786514, 41.864819], [-7.783069, 41.873789], [-7.772176, 41.88268], [-7.767249, 41.885169], [-7.755157, 41.887214], [-7.745495, 41.885962], [-7.750001, 41.887971], [-7.756022, 41.888441], [-7.758719, 41.890926], [-7.756592, 41.89407], [-7.758076, 41.897901], [-7.764097, 41.898595], [-7.779227, 41.886264], [-7.785257, 41.885157], [-7.788886, 41.882467], [-7.794309, 41.882033], [-7.796739, 41.878214], [-7.794954, 41.873932], [-7.803381, 41.874857], [-7.804612, 41.869684], [-7.808996, 41.870596]]], [[[-7.745249, 41.88593], [-7.735634, 41.882283], [-7.728088, 41.876106], [-7.720533, 41.880218], [-7.720523, 41.881793], [-7.725335, 41.882935], [-7.726208, 41.887665], [-7.737044, 41.888828], [-7.739741, 41.891088], [-7.74246, 41.889747], [-7.742482, 41.886146], [-7.745249, 41.88593]]], [[[-7.949276, 41.809769], [-7.96137, 41.806348], [-7.966302, 41.803531], [-7.971609, 41.794571], [-7.969043, 41.785542], [-7.961781, 41.78091], [-7.949806, 41.777335], [-7.937772, 41.777413], [-7.921778, 41.785108], [-7.919183, 41.79409], [-7.925294, 41.804049], [-7.937242, 41.809502], [-7.949276, 41.809769]], [[-7.937401, 41.799856], [-7.931018, 41.794201], [-7.932921, 41.785212], [-7.937683, 41.782819], [-7.94972, 41.782609], [-7.95579, 41.785422], [-7.957717, 41.794446], [-7.949428, 41.800501], [-7.937401, 41.799856]]], [[[-8.166409, 41.776192], [-8.17846, 41.774761], [-8.190565, 41.768918], [-8.198713, 41.760352], [-8.201479, 41.751365], [-8.19985, 41.742346], [-8.192483, 41.733288], [-8.179084, 41.725787], [-8.167095, 41.723105], [-8.155051, 41.724784], [-8.135358, 41.732872], [-8.126731, 41.741814], [-8.126942, 41.750822], [-8.131796, 41.759866], [-8.141801, 41.768948], [-8.154396, 41.774662], [-8.166409, 41.776192]], [[-8.166636, 41.758625], [-8.152956, 41.751017], [-8.151318, 41.741998], [-8.161786, 41.733068], [-8.16699, 41.731271], [-8.178989, 41.73323], [-8.187211, 41.742258], [-8.185401, 41.751252], [-8.178687, 41.756916], [-8.166636, 41.758625]]], [[[-8.094852, 41.730801], [-8.106893, 41.729584], [-8.113718, 41.7237], [-8.13132, 41.701369], [-8.139858, 41.696878], [-8.140331, 41.687874], [-8.131659, 41.676202], [-8.124321, 41.669739], [-8.096088, 41.651507], [-8.090178, 41.642453], [-8.096141, 41.638728], [-8.098881, 41.633515], [-8.107461, 41.624574], [-8.112883, 41.615609], [-8.113709, 41.606608], [-8.107435, 41.597553], [-8.096791, 41.592178], [-8.084815, 41.590583], [-8.072799, 41.591871], [-8.05893, 41.597166], [-8.048986, 41.606091], [-8.044006, 41.615057], [-8.04167, 41.633052], [-8.036103, 41.639018], [-8.024043, 41.642523], [-8.011942, 41.648648], [-8.006963, 41.659778], [-8.010715, 41.668818], [-8.021234, 41.677915], [-8.026922, 41.704984], [-8.034329, 41.714054], [-8.046875, 41.722729], [-8.058826, 41.727626], [-8.070821, 41.72964], [-8.094852, 41.730801]], [[-8.046986, 41.715246], [-8.037873, 41.705076], [-8.040886, 41.696095], [-8.047346, 41.690864], [-8.064915, 41.687286], [-8.067531, 41.6783], [-8.074336, 41.669348], [-8.083764, 41.664855], [-8.095764, 41.66573], [-8.102525, 41.669571], [-8.11463, 41.687679], [-8.119476, 41.688581], [-8.126067, 41.696774], [-8.119248, 41.705313], [-8.107247, 41.703994], [-8.095333, 41.696468], [-8.082718, 41.696436], [-8.06643, 41.714319], [-8.058983, 41.716907], [-8.046986, 41.715246]], [[-8.084271, 41.629111], [-8.072998, 41.624302], [-8.068358, 41.615257], [-8.073848, 41.606294], [-8.084655, 41.601934], [-8.096629, 41.603783], [-8.10001, 41.606502], [-8.103565, 41.615537], [-8.096315, 41.626266], [-8.084271, 41.629111]]], [[[-8.456991, 41.562296], [-8.472434, 41.554771], [-8.478033, 41.545789], [-8.476697, 41.536775], [-8.469247, 41.530058], [-8.457316, 41.523366], [-8.445348, 41.521327], [-8.433336, 41.524379], [-8.429653, 41.527544], [-8.423298, 41.53652], [-8.422943, 41.545526], [-8.428371, 41.55456], [-8.433045, 41.557716], [-8.444998, 41.562262], [-8.456991, 41.562296]], [[-8.453416, 41.554682], [-8.445071, 41.553768], [-8.436691, 41.545594], [-8.439111, 41.536598], [-8.445251, 41.532671], [-8.457242, 41.532277], [-8.464763, 41.536721], [-8.468266, 41.545744], [-8.457557, 41.554701], [-8.453416, 41.554682]]], [[[-8.241456, 41.533561], [-8.253459, 41.532257], [-8.265517, 41.525948], [-8.271964, 41.517647], [-8.273678, 41.50865], [-8.271126, 41.499627], [-8.265892, 41.492793], [-8.253996, 41.485423], [-8.242041, 41.483406], [-8.230045, 41.484982], [-8.219295, 41.490279], [-8.21146, 41.499233], [-8.209744, 41.508229], [-8.212343, 41.517254], [-8.220702, 41.526318], [-8.229496, 41.531282], [-8.241456, 41.533561]], [[-8.235125, 41.517408], [-8.227817, 41.508352], [-8.233626, 41.499383], [-8.24189, 41.496378], [-8.253841, 41.499005], [-8.258753, 41.508555], [-8.253628, 41.517525], [-8.241616, 41.51985], [-8.235125, 41.517408]]], [[[-8.421533, 41.503866], [-8.433519, 41.503396], [-8.445568, 41.495532], [-8.452433, 41.482618], [-8.450557, 41.473602], [-8.445804, 41.467794], [-8.433887, 41.461106], [-8.421919, 41.460386], [-8.411627, 41.464402], [-8.403073, 41.473365], [-8.401169, 41.482363], [-8.404054, 41.491385], [-8.409604, 41.498019], [-8.421533, 41.503866]], [[-8.421654, 41.490278], [-8.414755, 41.482433], [-8.420878, 41.473456], [-8.433765, 41.475125], [-8.437649, 41.482547], [-8.433653, 41.487997], [-8.421654, 41.490278]]], [[[-8.122069, 41.497557], [-8.134084, 41.494952], [-8.144372, 41.489746], [-8.150246, 41.480783], [-8.149451, 41.471769], [-8.142779, 41.462712], [-8.134588, 41.457063], [-8.122667, 41.453219], [-8.110703, 41.452581], [-8.098692, 41.455368], [-8.088519, 41.462295], [-8.083498, 41.471263], [-8.084454, 41.480278], [-8.091493, 41.489341], [-8.098177, 41.492524], [-8.110101, 41.496618], [-8.122069, 41.497557]], [[-8.110169, 41.491635], [-8.104353, 41.489442], [-8.098325, 41.481819], [-8.098398, 41.476562], [-8.101046, 41.471401], [-8.110518, 41.466117], [-8.122489, 41.466422], [-8.131326, 41.471634], [-8.135491, 41.480673], [-8.129041, 41.489631], [-8.122144, 41.491999], [-8.110169, 41.491635]]], [[[-8.362734, 41.39045], [-8.374721, 41.387697], [-8.38119, 41.383174], [-8.385549, 41.37419], [-8.382666, 41.365167], [-8.374997, 41.358847], [-8.363071, 41.35591], [-8.351087, 41.358776], [-8.343742, 41.364952], [-8.340503, 41.373941], [-8.344733, 41.382973], [-8.350801, 41.3876], [-8.362734, 41.39045]]], [[[-8.631117, 41.366232], [-8.638615, 41.366256], [-8.639784, 41.357252], [-8.638033, 41.355902], [-8.625401, 41.357206], [-8.626039, 41.362681], [-8.631117, 41.366232]]]]}}, {"id": "9", "type": "Feature", "properties": {"fill": "#da382b", "value_min": 0.93, "value_max": 1.0}, "geometry": {"type": "MultiPolygon", "coordinates": [[[[-7.745495, 41.885962], [-7.755157, 41.887214], [-7.767249, 41.885169], [-7.772176, 41.88268], [-7.783069, 41.873789], [-7.786514, 41.864819], [-7.785215, 41.855798], [-7.7779, 41.846714], [-7.768086, 41.841615], [-7.756078, 41.83969], [-7.746066, 41.841119], [-7.746349, 41.84407], [-7.750246, 41.846784], [-7.750532, 41.849261], [-7.743309, 41.849012], [-7.746901, 41.8524], [-7.746881, 41.855776], [-7.73843, 41.859348], [-7.728088, 41.876106], [-7.735634, 41.882283], [-7.745249, 41.88593], [-7.745495, 41.885962]]], [[[-7.937401, 41.799856], [-7.949428, 41.800501], [-7.957717, 41.794446], [-7.95579, 41.785422], [-7.94972, 41.782609], [-7.937683, 41.782819], [-7.932921, 41.785212], [-7.931018, 41.794201], [-7.937401, 41.799856]]], [[[-8.166636, 41.758625], [-8.178687, 41.756916], [-8.185401, 41.751252], [-8.187211, 41.742258], [-8.178989, 41.73323], [-8.16699, 41.731271], [-8.161786, 41.733068], [-8.151318, 41.741998], [-8.152956, 41.751017], [-8.166636, 41.758625]]], [[[-8.046986, 41.715246], [-8.058983, 41.716907], [-8.06643, 41.714319], [-8.082718, 41.696436], [-8.095333, 41.696468], [-8.107247, 41.703994], [-8.119248, 41.705313], [-8.126067, 41.696774], [-8.119476, 41.688581], [-8.11463, 41.687679], [-8.102525, 41.669571], [-8.095764, 41.66573], [-8.083764, 41.664855], [-8.074336, 41.669348], [-8.067531, 41.6783], [-8.064915, 41.687286], [-8.047346, 41.690864], [-8.040886, 41.696095], [-8.037873, 41.705076], [-8.046986, 41.715246]]], [[[-8.084271, 41.629111], [-8.096315, 41.626266], [-8.103565, 41.615537], [-8.10001, 41.606502], [-8.096629, 41.603783], [-8.084655, 41.601934], [-8.073848, 41.606294], [-8.068358, 41.615257], [-8.072998, 41.624302], [-8.084271, 41.629111]]], [[[-8.453416, 41.554682], [-8.457557, 41.554701], [-8.468266, 41.545744], [-8.464763, 41.536721], [-8.457242, 41.532277], [-8.445251, 41.532671], [-8.439111, 41.536598], [-8.436691, 41.545594], [-8.445071, 41.553768], [-8.453416, 41.554682]]], [[[-8.235125, 41.517408], [-8.241616, 41.51985], [-8.253628, 41.517525], [-8.258753, 41.508555], [-8.253841, 41.499005], [-8.24189, 41.496378], [-8.233626, 41.499383], [-8.227817, 41.508352], [-8.235125, 41.517408]]], [[[-8.110169, 41.491635], [-8.122144, 41.491999], [-8.129041, 41.489631], [-8.135491, 41.480673], [-8.131326, 41.471634], [-8.122489, 41.466422], [-8.110518, 41.466117], [-8.101046, 41.471401], [-8.098398, 41.476562], [-8.098325, 41.481819], [-8.104353, 41.489442], [-8.110169, 41.491635]]], [[[-8.421654, 41.490278], [-8.433653, 41.487997], [-8.437649, 41.482547], [-8.433765, 41.475125], [-8.420878, 41.473456], [-8.414755, 41.482433], [-8.421654, 41.490278]]]]}}]}