{"type": "FeatureCollection", "features": [{"id": "1", "type": "Feature", "properties": {"fill": "#fffebe", "value_min": 0.47, "value_max": -0.53}, "geometry": {"type": "MultiPolygon", "coordinates": [[[[-8.150796, 41.63391], [-8.144353, 41.624788], [-8.132378, 41.62266], [-8.128111, 41.624733], [-8.119278, 41.633673], [-8.125018, 41.642724], [-8.132067, 41.645841], [-8.14567, 41.642879], [-8.150796, 41.63391]], [[-8.129531, 41.633751], [-8.132261, 41.631387], [-8.13769, 41.633812], [-8.132184, 41.637109], [-8.129531, 41.633751]]], [[[-8.68525, 41.480672], [-8.685289, 41.472714], [-8.673355, 41.464169], [-8.661378, 41.46475], [-8.651466, 41.474386], [-8.654035, 41.483401], [-8.661256, 41.488207], [-8.673229, 41.489301], [-8.68456, 41.483489], [-8.68525, 41.480672]]], [[[-8.380031, 41.374161], [-8.374949, 41.363854], [-8.363029, 41.360147], [-8.351044, 41.363179], [-8.345071, 41.373967], [-8.350838, 41.383865], [-8.362769, 41.386769], [-8.375183, 41.383142], [-8.380031, 41.374161]]]]}}, {"id": "3", "type": "Feature", "properties": {"fill": "#fc9863", "value_min": 0.6, "value_max": -0.67}, "geometry": {"type": "MultiPolygon", "coordinates": [[[[-8.315516, 41.761738], [-8.318891, 41.752121], [-8.317269, 41.743104], [-8.310097, 41.734054], [-8.299289, 41.728142], [-8.287285, 41.726402], [-8.275239, 41.728444], [-8.26313, 41.735903], [-8.257496, 41.742733], [-8.255395, 41.751727], [-8.257993, 41.760751], [-8.267751, 41.769952], [-8.271366, 41.766346], [-8.280681, 41.764083], [-8.284038, 41.761109], [-8.284931, 41.757507], [-8.287033, 41.756829], [-8.298457, 41.757263], [-8.300866, 41.758835], [-8.305674, 41.758152], [-8.311096, 41.762195], [-8.315516, 41.761738]], [[-8.284138, 41.751909], [-8.287046, 41.748033], [-8.288682, 41.751938], [-8.286991, 41.752985], [-8.284138, 41.751909]]], [[[-8.168091, 41.645822], [-8.171165, 41.643066], [-8.17535, 41.634089], [-8.1748, 41.625077], [-8.169095, 41.616029], [-8.156583, 41.607469], [-8.144629, 41.603896], [-8.132638, 41.603252], [-8.108567, 41.608372], [-8.096586, 41.606853], [-8.084572, 41.607775], [-8.078903, 41.615342], [-8.084339, 41.624303], [-8.096272, 41.629406], [-8.102367, 41.642549], [-8.119935, 41.654924], [-8.131905, 41.65787], [-8.143918, 41.657677], [-8.160689, 41.651997], [-8.168091, 41.645822]], [[-8.144014, 41.650405], [-8.131994, 41.651268], [-8.120041, 41.647146], [-8.114233, 41.642641], [-8.111093, 41.63361], [-8.114818, 41.624631], [-8.120416, 41.619566], [-8.132478, 41.615159], [-8.14447, 41.615957], [-8.158377, 41.624958], [-8.161227, 41.633986], [-8.156908, 41.642962], [-8.144014, 41.650405]]], [[[-8.505309, 41.50988], [-8.499651, 41.500848], [-8.493481, 41.496732], [-8.481517, 41.494545], [-8.469506, 41.498324], [-8.466438, 41.500699], [-8.461501, 41.509683], [-8.465193, 41.518708], [-8.481262, 41.526534], [-8.493255, 41.52562], [-8.503012, 41.518877], [-8.505309, 41.50988]]], [[[-8.721121, 41.495416], [-8.730226, 41.483605], [-8.731893, 41.474602], [-8.730561, 41.465591], [-8.725605, 41.456572], [-8.709369, 41.444128], [-8.697418, 41.439773], [-8.685458, 41.437751], [-8.673489, 41.43758], [-8.66151, 41.439276], [-8.649519, 41.443198], [-8.637502, 41.451438], [-8.633208, 41.456314], [-8.628763, 41.465307], [-8.628167, 41.474313], [-8.631724, 41.483332], [-8.641358, 41.49237], [-8.661181, 41.502502], [-8.673146, 41.505852], [-8.685122, 41.507114], [-8.697109, 41.506285], [-8.712221, 41.501576], [-8.721121, 41.495416]], [[-8.673185, 41.498046], [-8.661215, 41.496062], [-8.649267, 41.489896], [-8.642526, 41.483366], [-8.639874, 41.47435], [-8.642762, 41.465352], [-8.649437, 41.458402], [-8.661439, 41.45293], [-8.673418, 41.451772], [-8.685379, 41.453976], [-8.69732, 41.460959], [-8.701835, 41.46552], [-8.705145, 41.474536], [-8.703435, 41.483539], [-8.69493, 41.492524], [-8.685173, 41.496647], [-8.673185, 41.498046]]], [[[-8.349904, 41.482084], [-8.337897, 41.480515], [-8.33581, 41.482004], [-8.335189, 41.491008], [-8.33777, 41.49291], [-8.349764, 41.491536], [-8.349904, 41.482084]]], [[[-8.325623, 41.341939], [-8.316688, 41.355787], [-8.313957, 41.373786], [-8.319555, 41.391834], [-8.326721, 41.400884], [-8.33862, 41.409287], [-8.350538, 41.414001], [-8.362486, 41.41579], [-8.374455, 41.415404], [-8.386446, 41.41278], [-8.398458, 41.407723], [-8.407969, 41.40133], [-8.416734, 41.392368], [-8.421527, 41.383384], [-8.423767, 41.36538], [-8.421338, 41.356361], [-8.411017, 41.341776], [-8.399146, 41.333007], [-8.383311, 41.327196], [-8.380382, 41.331254], [-8.377097, 41.331261], [-8.37201, 41.328346], [-8.361563, 41.329718], [-8.358276, 41.329049], [-8.357673, 41.327249], [-8.350565, 41.327263], [-8.350208, 41.327401], [-8.349977, 41.327489], [-8.349611, 41.32763], [-8.3488, 41.327942], [-8.348418, 41.328089], [-8.348212, 41.328168], [-8.347226, 41.328547], [-8.347035, 41.32862], [-8.346927, 41.328662], [-8.346447, 41.328847], [-8.346033, 41.329001], [-8.34583, 41.329073], [-8.345734, 41.329107], [-8.342462, 41.333131], [-8.334109, 41.335847], [-8.326566, 41.340812], [-8.32636, 41.341059], [-8.325623, 41.341939]], [[-8.374617, 41.398543], [-8.362641, 41.399896], [-8.350696, 41.398091], [-8.338795, 41.392062], [-8.331157, 41.382895], [-8.32858, 41.373872], [-8.329939, 41.364872], [-8.339196, 41.352436], [-8.351211, 41.346292], [-8.363183, 41.344341], [-8.378655, 41.34713], [-8.387026, 41.351009], [-8.393254, 41.356216], [-8.398744, 41.365252], [-8.399808, 41.374266], [-8.396784, 41.383257], [-8.38842, 41.392221], [-8.374617, 41.398543]]], [[[-8.745774, 41.318153], [-8.753396, 41.312513], [-8.757768, 41.305626], [-8.759995, 41.294511], [-8.756629, 41.285496], [-8.747541, 41.276469], [-8.734018, 41.270779], [-8.722086, 41.269022], [-8.710143, 41.269938], [-8.693762, 41.276338], [-8.684799, 41.285322], [-8.68224, 41.294323], [-8.684217, 41.303336], [-8.691489, 41.312363], [-8.697986, 41.317134], [-8.709912, 41.322185], [-8.721853, 41.323927], [-8.733807, 41.322824], [-8.745774, 41.318153]]]]}}, {"id": "6", "type": "Feature", "properties": {"fill": "#e85c3f", "value_min": 0.8, "value_max": -0.87}, "geometry": {"type": "MultiPolygon", "coordinates": [[[[-8.103583, 41.811174], [-8.0983, 41.795636], [-8.096989, 41.777612], [-8.099871, 41.768627], [-8.107203, 41.759678], [-8.144539, 41.732941], [-8.167156, 41.718441], [-8.174809, 41.715148], [-8.179298, 41.708976], [-8.19136, 41.705608], [-8.203342, 41.708646], [-8.215371, 41.707885], [-8.218253, 41.706445], [-8.226352, 41.697493], [-8.223745, 41.688468], [-8.215671, 41.683224], [-8.203662, 41.682679], [-8.179532, 41.690549], [-8.176494, 41.688139], [-8.155602, 41.682654], [-8.143603, 41.681441], [-8.131573, 41.682585], [-8.119535, 41.687717], [-8.121556, 41.69674], [-8.119332, 41.69917], [-8.107334, 41.697679], [-8.095303, 41.698624], [-8.083309, 41.696979], [-8.06991, 41.687326], [-8.065675, 41.678285], [-8.067945, 41.660289], [-8.065044, 41.651258], [-8.048206, 41.6325], [-8.013803, 41.603372], [-8.005971, 41.60629], [-8.003562, 41.611239], [-7.998761, 41.612809], [-7.999669, 41.608759], [-7.996976, 41.605829], [-7.996684, 41.602003], [-7.984685, 41.603564], [-7.982292, 41.60086], [-7.975689, 41.603552], [-7.974482, 41.606701], [-7.970882, 41.607147], [-7.969091, 41.603768], [-7.965796, 41.602413], [-7.9541, 41.602846], [-7.952606, 41.600592], [-7.947808, 41.60081], [-7.945413, 41.599456], [-7.942725, 41.595625], [-7.936733, 41.594264], [-7.93791, 41.601694], [-7.937004, 41.603718], [-7.931604, 41.604384], [-7.930073, 41.614735], [-7.925255, 41.620579], [-7.920755, 41.620796], [-7.917748, 41.623041], [-7.915933, 41.627764], [-7.913229, 41.628885], [-7.912613, 41.63361], [-7.906014, 41.633147], [-7.905699, 41.637648], [-7.907788, 41.640804], [-7.904182, 41.642225], [-7.934366, 41.677142], [-7.944432, 41.695249], [-7.945443, 41.704265], [-7.94195, 41.71324], [-7.934563, 41.722179], [-7.922682, 41.731075], [-7.914411, 41.735635], [-7.902329, 41.738976], [-7.89032, 41.738007], [-7.866405, 41.730345], [-7.830407, 41.726255], [-7.791264, 41.717541], [-7.789449, 41.719966], [-7.78464, 41.720402], [-7.78252, 41.723546], [-7.776204, 41.724652], [-7.773786, 41.727346], [-7.769534, 41.723956], [-7.767864, 41.729519], [-7.769754, 41.738546], [-7.784254, 41.774728], [-7.790794, 41.810824], [-7.814156, 41.847094], [-7.82124, 41.865181], [-7.822614, 41.87401], [-7.825059, 41.875817], [-7.830479, 41.875831], [-7.830789, 41.874031], [-7.832894, 41.874712], [-7.838021, 41.872924], [-7.842528, 41.875187], [-7.841663, 41.866632], [-7.849515, 41.861475], [-7.858542, 41.862622], [-7.859456, 41.860148], [-7.864877, 41.859711], [-7.87033, 41.851395], [-7.873043, 41.850501], [-7.873066, 41.844875], [-7.879956, 41.853217], [-7.888076, 41.855486], [-7.891675, 41.859094], [-7.894377, 41.859325], [-7.893043, 41.847882], [-7.895625, 41.8389], [-7.902162, 41.829956], [-7.915162, 41.821073], [-7.925054, 41.818449], [-7.961226, 41.815257], [-7.973257, 41.815803], [-7.985255, 41.818435], [-7.992663, 41.821778], [-8.003465, 41.830879], [-8.007927, 41.839402], [-8.012753, 41.833624], [-8.013363, 41.829124], [-8.017873, 41.831379], [-8.02901, 41.829589], [-8.037134, 41.831171], [-8.041351, 41.828023], [-8.041054, 41.825097], [-8.045268, 41.824425], [-8.047679, 41.821276], [-8.057314, 41.815656], [-8.06664, 41.817012], [-8.072961, 41.813414], [-8.078678, 41.813417], [-8.082892, 41.810493], [-8.091013, 41.812521], [-8.093421, 41.811397], [-8.093723, 41.808471], [-8.103583, 41.811174]], [[-7.937307, 41.805545], [-7.930566, 41.803203], [-7.92186, 41.794115], [-7.925317, 41.785141], [-7.937725, 41.780254], [-7.949759, 41.780229], [-7.965067, 41.785506], [-7.968356, 41.794542], [-7.961456, 41.801043], [-7.949343, 41.80568], [-7.937307, 41.805545]], [[-7.865324, 41.791708], [-7.853287, 41.791813], [-7.841298, 41.789211], [-7.829419, 41.780679], [-7.825142, 41.775153], [-7.821711, 41.766111], [-7.822413, 41.757112], [-7.829152, 41.748174], [-7.842156, 41.741553], [-7.854227, 41.739005], [-7.866246, 41.739339], [-7.878214, 41.742666], [-7.891923, 41.748796], [-7.902049, 41.755436], [-7.914147, 41.751271], [-7.92632, 41.74256], [-7.938437, 41.737084], [-7.950484, 41.73569], [-7.962443, 41.7398], [-7.972697, 41.749547], [-7.976748, 41.75859], [-7.9741, 41.767573], [-7.961905, 41.773204], [-7.937828, 41.77399], [-7.913823, 41.770507], [-7.901731, 41.77405], [-7.889519, 41.784481], [-7.877386, 41.790159], [-7.865324, 41.791708]], [[-8.022298, 41.757832], [-8.010286, 41.756717], [-7.998346, 41.75101], [-7.988817, 41.740683], [-7.985263, 41.731645], [-7.986835, 41.722652], [-7.998915, 41.714392], [-8.010943, 41.713908], [-8.022909, 41.7175], [-8.040213, 41.732117], [-8.043362, 41.74115], [-8.040515, 41.750133], [-8.034374, 41.75468], [-8.022298, 41.757832]], [[-8.130964, 41.727821], [-8.119581, 41.723745], [-8.115016, 41.714703], [-8.119154, 41.712192], [-8.12291, 41.705757], [-8.131359, 41.698519], [-8.143417, 41.695492], [-8.155346, 41.70221], [-8.158181, 41.706021], [-8.156276, 41.715014], [-8.143024, 41.725085], [-8.130964, 41.727821]], [[-8.023401, 41.685017], [-8.011395, 41.68439], [-7.995408, 41.677692], [-7.986961, 41.668611], [-7.983691, 41.659575], [-7.985314, 41.650582], [-7.99225, 41.641636], [-8.000113, 41.637002], [-8.012163, 41.634149], [-8.02416, 41.634764], [-8.036105, 41.63887], [-8.049457, 41.651131], [-8.052067, 41.660159], [-8.049234, 41.669143], [-8.04093, 41.678081], [-8.035458, 41.682219], [-8.023401, 41.685017]]], [[[-8.07528, 41.568045], [-8.109111, 41.568809], [-8.145156, 41.56399], [-8.193316, 41.548907], [-8.205337, 41.546352], [-8.241337, 41.543784], [-8.253359, 41.540909], [-8.265424, 41.534229], [-8.272436, 41.526657], [-8.276687, 41.517677], [-8.27745, 41.508674], [-8.275212, 41.499653], [-8.265984, 41.484635], [-8.253738, 41.472493], [-8.247591, 41.463446], [-8.247819, 41.45444], [-8.252833, 41.445465], [-8.266608, 41.42929], [-8.278605, 41.4096], [-8.282987, 41.391612], [-8.282875, 41.373596], [-8.279643, 41.355561], [-8.268988, 41.328513], [-8.265709, 41.331221], [-8.269004, 41.336169], [-8.263339, 41.340902], [-8.262751, 41.345405], [-8.256483, 41.347663], [-8.254547, 41.350141], [-8.264432, 41.364472], [-8.267241, 41.373498], [-8.265823, 41.391504], [-8.261065, 41.400481], [-8.25489, 41.407352], [-8.242833, 41.415375], [-8.230818, 41.419556], [-8.218826, 41.421677], [-8.206859, 41.421676], [-8.194917, 41.41965], [-8.183001, 41.415614], [-8.171493, 41.408878], [-8.161725, 41.3998], [-8.156167, 41.390752], [-8.153326, 41.375866], [-8.150152, 41.37339], [-8.139694, 41.377894], [-8.133418, 41.374292], [-8.119672, 41.376768], [-8.119672, 41.378569], [-8.116683, 41.380144], [-8.117578, 41.386447], [-8.113992, 41.386896], [-8.112795, 41.390723], [-8.110105, 41.390947], [-8.108011, 41.393648], [-8.103827, 41.392972], [-8.105321, 41.394998], [-8.10263, 41.396123], [-8.10801, 41.398825], [-8.108606, 41.403102], [-8.104419, 41.406252], [-8.104119, 41.408728], [-8.101727, 41.409403], [-8.102025, 41.411204], [-8.092756, 41.411201], [-8.09126, 41.414352], [-8.079893, 41.41975], [-8.077503, 41.416597], [-8.070923, 41.41862], [-8.066739, 41.416142], [-8.061654, 41.417489], [-8.059852, 41.424916], [-8.055959, 41.429415], [-8.05745, 41.432793], [-8.056549, 41.436394], [-8.069999, 41.447206], [-8.068788, 41.462286], [-8.073872, 41.46499], [-8.074164, 41.473543], [-8.066374, 41.482318], [-8.066069, 41.48817], [-8.071755, 41.489974], [-8.071753, 41.491715], [-8.086243, 41.489279], [-8.134048, 41.497652], [-8.145927, 41.50538], [-8.151872, 41.516824], [-8.152214, 41.525834], [-8.14891, 41.534817], [-8.141228, 41.543767], [-8.133367, 41.548701], [-8.121311, 41.553546], [-8.109291, 41.555639], [-8.097301, 41.555543], [-8.080264, 41.551651], [-8.074396, 41.549848], [-8.072897, 41.551197], [-8.076188, 41.557276], [-8.079783, 41.558403], [-8.082177, 41.563131], [-8.081276, 41.565382], [-8.078879, 41.56493], [-8.07528, 41.568045]]], [[[-8.445005, 41.706313], [-8.431793, 41.700467], [-8.419781, 41.699717], [-8.407736, 41.702627], [-8.398752, 41.707531], [-8.391889, 41.716502], [-8.391964, 41.72551], [-8.39467, 41.730298], [-8.396942, 41.730518], [-8.400531, 41.726683], [-8.402934, 41.726452], [-8.404721, 41.722847], [-8.417349, 41.725067], [-8.422737, 41.720552], [-8.429643, 41.719859], [-8.430533, 41.717381], [-8.435927, 41.714441], [-8.441632, 41.713975], [-8.441618, 41.711049], [-8.445005, 41.706313]]], [[[-8.480344, 41.641149], [-8.483207, 41.635885], [-8.483118, 41.626877], [-8.478424, 41.617849], [-8.468597, 41.609446], [-8.456639, 41.604179], [-8.444653, 41.602571], [-8.432639, 41.604093], [-8.422953, 41.608577], [-8.414759, 41.617542], [-8.413819, 41.626545], [-8.417979, 41.635573], [-8.432254, 41.64798], [-8.444224, 41.652561], [-8.456224, 41.653668], [-8.468253, 41.65132], [-8.477965, 41.644868], [-8.480344, 41.641149]]], [[[-8.660775, 41.580173], [-8.672817, 41.571078], [-8.677565, 41.564536], [-8.680656, 41.555537], [-8.680689, 41.54653], [-8.677977, 41.537515], [-8.672041, 41.528491], [-8.663559, 41.519459], [-8.650911, 41.510414], [-8.625259, 41.498447], [-8.613296, 41.495332], [-8.601323, 41.494109], [-8.589336, 41.495256], [-8.579366, 41.501167], [-8.572818, 41.510151], [-8.568808, 41.52815], [-8.572983, 41.546181], [-8.585908, 41.564243], [-8.600817, 41.57645], [-8.612781, 41.581822], [-8.624758, 41.585131], [-8.63675, 41.585983], [-8.648756, 41.584395], [-8.660775, 41.580173]], [[-8.621594, 41.555358], [-8.612947, 41.55396], [-8.600995, 41.54765], [-8.592259, 41.537243], [-8.590034, 41.528228], [-8.59187, 41.519227], [-8.600127, 41.510249], [-8.613235, 41.505643], [-8.625215, 41.506031], [-8.638355, 41.510375], [-8.650577, 41.51942], [-8.655821, 41.528444], [-8.656125, 41.537452], [-8.64895, 41.548632], [-8.636926, 41.55469], [-8.621594, 41.555358]]], [[[-8.577502, 41.472635], [-8.582057, 41.465147], [-8.584349, 41.456148], [-8.58355, 41.447138], [-8.577741, 41.435915], [-8.565826, 41.42767], [-8.553874, 41.425269], [-8.541894, 41.427146], [-8.529881, 41.433323], [-8.520593, 41.446893], [-8.520341, 41.455899], [-8.524474, 41.464924], [-8.529616, 41.470073], [-8.541539, 41.477498], [-8.553496, 41.480512], [-8.565476, 41.480126], [-8.577502, 41.472635]]], [[[-8.661757, 41.39171], [-8.673757, 41.383981], [-8.680637, 41.375388], [-8.682728, 41.366386], [-8.681003, 41.357373], [-8.675649, 41.348351], [-8.666752, 41.339318], [-8.650137, 41.328064], [-8.626289, 41.319031], [-8.614353, 41.31692], [-8.602405, 41.316896], [-8.590437, 41.320179], [-8.577503, 41.330017], [-8.571747, 41.339003], [-8.569013, 41.348001], [-8.5698, 41.366019], [-8.573544, 41.375041], [-8.58051, 41.384074], [-8.593571, 41.393128], [-8.601921, 41.396457], [-8.613869, 41.398854], [-8.637796, 41.398578], [-8.649772, 41.396122], [-8.661757, 41.39171]], [[-8.625981, 41.372871], [-8.616566, 41.366184], [-8.615466, 41.357173], [-8.626121, 41.3483], [-8.638075, 41.348225], [-8.649618, 41.357282], [-8.648783, 41.366287], [-8.637936, 41.373359], [-8.625981, 41.372871]]], [[[-8.471589, 41.240587], [-8.478309, 41.24854], [-8.495291, 41.263009], [-8.519069, 41.276307], [-8.530977, 41.280878], [-8.554829, 41.285367], [-8.566771, 41.285262], [-8.578727, 41.283148], [-8.5907, 41.278033], [-8.602687, 41.270464], [-8.626673, 41.251668], [-8.63865, 41.244233], [-8.650881, 41.240185], [-8.698366, 41.234702], [-8.714254, 41.231352], [-8.738426, 41.222402], [-8.753385, 41.213427], [-8.763899, 41.204441], [-8.776821, 41.186451], [-8.782039, 41.168445], [-8.782502, 41.159438], [-8.779922, 41.144502], [-8.674793, 41.146932], [-8.674849, 41.153767], [-8.672489, 41.15648], [-8.66117, 41.156307], [-8.662078, 41.158104], [-8.660313, 41.160813], [-8.657033, 41.160378], [-8.654961, 41.161963], [-8.653231, 41.169174], [-8.655366, 41.175467], [-8.647955, 41.180228], [-8.647696, 41.185181], [-8.640929, 41.196241], [-8.634946, 41.193341], [-8.632526, 41.188624], [-8.625658, 41.186628], [-8.621132, 41.178994], [-8.613374, 41.177451], [-8.608583, 41.174095], [-8.609164, 41.172066], [-8.604942, 41.164881], [-8.59422, 41.165149], [-8.589174, 41.167645], [-8.589194, 41.170572], [-8.583263, 41.174422], [-8.582094, 41.177803], [-8.578825, 41.178941], [-8.581296, 41.191762], [-8.575958, 41.195609], [-8.576894, 41.201908], [-8.574515, 41.202593], [-8.57423, 41.20462], [-8.568567, 41.204547], [-8.579635, 41.212923], [-8.581247, 41.221937], [-8.575934, 41.230926], [-8.567098, 41.235819], [-8.555157, 41.237004], [-8.540613, 41.23079], [-8.5359, 41.221763], [-8.538717, 41.211954], [-8.532257, 41.213102], [-8.52713, 41.203215], [-8.523236, 41.200077], [-8.51163, 41.203042], [-8.510456, 41.206197], [-8.505693, 41.207113], [-8.504239, 41.213646], [-8.500076, 41.21546], [-8.50308, 41.219502], [-8.502204, 41.222656], [-8.495642, 41.222227], [-8.495947, 41.223351], [-8.490894, 41.226294], [-8.487935, 41.230354], [-8.490331, 41.232373], [-8.489156, 41.235528], [-8.486181, 41.236888], [-8.484411, 41.240495], [-8.476346, 41.237818], [-8.475756, 41.23917], [-8.471283, 41.239184], [-8.471589, 41.240587]]], [[[-8.539103, 41.211557], [-8.539103, 41.211557], [-8.539377, 41.211276], [-8.539103, 41.211557]]], [[[-8.539399, 41.211253], [-8.539399, 41.211253], [-8.539597, 41.21105], [-8.539399, 41.211253]]]]}}, {"id": "5", "type": "Feature", "properties": {"fill": "#ef6d48", "value_min": 0.73, "value_max": -0.8}, "geometry": {"type": "MultiPolygon", "coordinates": [[[[-8.445005, 41.706313], [-8.453868, 41.697961], [-8.453255, 41.695487], [-8.461659, 41.694563], [-8.482012, 41.682123], [-8.484371, 41.674238], [-8.49308, 41.674886], [-8.499963, 41.671038], [-8.50927, 41.671233], [-8.51018, 41.672806], [-8.511967, 41.670324], [-8.509856, 41.668755], [-8.522103, 41.658811], [-8.525706, 41.659023], [-8.527769, 41.652714], [-8.534066, 41.652017], [-8.537355, 41.64998], [-8.537634, 41.646602], [-8.543876, 41.637352], [-8.543855, 41.633976], [-8.536342, 41.631977], [-8.535128, 41.62973], [-8.543431, 41.61462], [-8.554533, 41.615255], [-8.557244, 41.617046], [-8.562639, 41.61635], [-8.568056, 41.619031], [-8.570735, 41.616095], [-8.577321, 41.614269], [-8.581231, 41.615829], [-8.585766, 41.620988], [-8.591462, 41.620515], [-8.596534, 41.616668], [-8.601628, 41.615972], [-8.603996, 41.611686], [-8.613256, 41.606696], [-8.619881, 41.610269], [-8.621338, 41.604636], [-8.628833, 41.604378], [-8.636302, 41.600744], [-8.64075, 41.594422], [-8.645536, 41.593051], [-8.646744, 41.594171], [-8.649125, 41.591909], [-8.656622, 41.5921], [-8.660788, 41.588255], [-8.663794, 41.589141], [-8.665265, 41.585758], [-8.66948, 41.587989], [-8.684455, 41.586117], [-8.685608, 41.58071], [-8.697261, 41.576376], [-8.701703, 41.570277], [-8.707704, 41.570923], [-8.712485, 41.569323], [-8.716422, 41.573805], [-8.720316, 41.57356], [-8.725151, 41.577811], [-8.726633, 41.576003], [-8.734424, 41.575737], [-8.736564, 41.580228], [-8.738354, 41.579318], [-8.740778, 41.582006], [-8.74467, 41.581535], [-8.750711, 41.58623], [-8.756374, 41.582823], [-8.75635, 41.580347], [-8.762327, 41.578514], [-8.764443, 41.580303], [-8.767441, 41.580286], [-8.769874, 41.583874], [-8.768997, 41.58613], [-8.773228, 41.589482], [-8.775371, 41.593972], [-8.78556, 41.593464], [-8.797327, 41.600599], [-8.804218, 41.600109], [-8.80456, 41.604158], [-8.809434, 41.611332], [-8.828644, 41.609656], [-8.82839, 41.585633], [-8.818497, 41.554794], [-8.8221, 41.547542], [-8.821965, 41.534907], [-8.815926, 41.525624], [-8.815181, 41.519971], [-8.811755, 41.51463], [-8.81063, 41.5101], [-8.813245, 41.499192], [-8.807638, 41.488954], [-8.799413, 41.501761], [-8.78976, 41.510752], [-8.774986, 41.519731], [-8.756948, 41.526005], [-8.744954, 41.528041], [-8.72098, 41.528066], [-8.697028, 41.523566], [-8.673101, 41.514872], [-8.628828, 41.49233], [-8.617001, 41.483284], [-8.612047, 41.47426], [-8.611098, 41.465249], [-8.616172, 41.447251], [-8.622028, 41.438263], [-8.633192, 41.429292], [-8.649631, 41.422347], [-8.661615, 41.419125], [-8.709519, 41.41054], [-8.745426, 41.407335], [-8.757388, 41.407932], [-8.769344, 41.410414], [-8.781293, 41.415191], [-8.789619, 41.420676], [-8.799309, 41.429701], [-8.805523, 41.438607], [-8.807354, 41.425915], [-8.811202, 41.416419], [-8.807925, 41.353302], [-8.79343, 41.361211], [-8.781463, 41.364337], [-8.769504, 41.365003], [-8.757552, 41.363777], [-8.73367, 41.356346], [-8.709808, 41.345444], [-8.674107, 41.321323], [-8.664653, 41.312288], [-8.658108, 41.303261], [-8.655039, 41.294244], [-8.655529, 41.285238], [-8.659845, 41.276243], [-8.668571, 41.267261], [-8.686322, 41.257971], [-8.710223, 41.251912], [-8.734105, 41.249394], [-8.757974, 41.249762], [-8.781831, 41.253987], [-8.795021, 41.258548], [-8.804389, 41.263558], [-8.799695, 41.14406], [-8.779922, 41.144502], [-8.782502, 41.159438], [-8.782039, 41.168445], [-8.776821, 41.186451], [-8.763899, 41.204441], [-8.753385, 41.213427], [-8.738426, 41.222402], [-8.714254, 41.231352], [-8.698366, 41.234702], [-8.650881, 41.240185], [-8.63865, 41.244233], [-8.626673, 41.251668], [-8.602687, 41.270464], [-8.5907, 41.278033], [-8.578727, 41.283148], [-8.566771, 41.285262], [-8.554829, 41.285367], [-8.530977, 41.280878], [-8.519069, 41.276307], [-8.495291, 41.263009], [-8.478309, 41.24854], [-8.471589, 41.240587], [-8.471604, 41.243459], [-8.469227, 41.245267], [-8.463258, 41.244384], [-8.459989, 41.246644], [-8.455512, 41.245982], [-8.455541, 41.251834], [-8.452276, 41.25522], [-8.449891, 41.255452], [-8.449304, 41.257479], [-8.447812, 41.257258], [-8.449028, 41.261982], [-8.443657, 41.261771], [-8.438004, 41.264938], [-8.438023, 41.268989], [-8.434745, 41.269673], [-8.432691, 41.277107], [-8.427032, 41.279372], [-8.429143, 41.284319], [-8.426171, 41.287028], [-8.426488, 41.291079], [-8.425013, 41.294909], [-8.422037, 41.296942], [-8.422349, 41.300047], [-8.435215, 41.307887], [-8.45019, 41.320471], [-8.464008, 41.338552], [-8.46819, 41.347579], [-8.472362, 41.365613], [-8.472626, 41.374622], [-8.461012, 41.428614], [-8.462354, 41.437628], [-8.466962, 41.446657], [-8.474207, 41.455697], [-8.484503, 41.464751], [-8.521653, 41.491934], [-8.529055, 41.500972], [-8.532871, 41.509995], [-8.533085, 41.519003], [-8.530415, 41.528], [-8.524382, 41.536983], [-8.517098, 41.543062], [-8.493043, 41.552805], [-8.481036, 41.554873], [-8.468643, 41.554753], [-8.457154, 41.542704], [-8.445156, 41.543808], [-8.433136, 41.547288], [-8.385274, 41.536882], [-8.349352, 41.5327], [-8.337401, 41.529095], [-8.325475, 41.52327], [-8.313598, 41.513005], [-8.305183, 41.499838], [-8.300443, 41.481794], [-8.302082, 41.469427], [-8.313015, 41.44584], [-8.314689, 41.436843], [-8.31309, 41.427826], [-8.302836, 41.399055], [-8.298645, 41.373693], [-8.299468, 41.346676], [-8.305574, 41.32599], [-8.303024, 41.325994], [-8.303615, 41.323742], [-8.301216, 41.319694], [-8.296431, 41.316774], [-8.297618, 41.313846], [-8.295817, 41.310022], [-8.281801, 41.316569], [-8.279132, 41.324451], [-8.272266, 41.32536], [-8.268988, 41.328513], [-8.279643, 41.355561], [-8.282875, 41.373596], [-8.282987, 41.391612], [-8.278605, 41.4096], [-8.266608, 41.42929], [-8.252833, 41.445465], [-8.247819, 41.45444], [-8.247591, 41.463446], [-8.253738, 41.472493], [-8.265984, 41.484635], [-8.275212, 41.499653], [-8.27745, 41.508674], [-8.276687, 41.517677], [-8.272436, 41.526657], [-8.265424, 41.534229], [-8.253359, 41.540909], [-8.241337, 41.543784], [-8.205337, 41.546352], [-8.193316, 41.548907], [-8.145156, 41.56399], [-8.109111, 41.568809], [-8.07528, 41.568045], [-8.069883, 41.570103], [-8.068081, 41.573478], [-8.056684, 41.579549], [-8.052181, 41.584498], [-8.052777, 41.587649], [-8.037169, 41.600242], [-8.031467, 41.602938], [-8.02367, 41.603156], [-8.019174, 41.601802], [-8.015872, 41.603824], [-8.013803, 41.603372], [-8.048206, 41.6325], [-8.065044, 41.651258], [-8.067945, 41.660289], [-8.065675, 41.678285], [-8.06991, 41.687326], [-8.083309, 41.696979], [-8.095303, 41.698624], [-8.107334, 41.697679], [-8.119332, 41.69917], [-8.121556, 41.69674], [-8.119535, 41.687717], [-8.131573, 41.682585], [-8.143603, 41.681441], [-8.155602, 41.682654], [-8.176494, 41.688139], [-8.179532, 41.690549], [-8.203662, 41.682679], [-8.215671, 41.683224], [-8.223745, 41.688468], [-8.226352, 41.697493], [-8.218253, 41.706445], [-8.215371, 41.707885], [-8.203342, 41.708646], [-8.19136, 41.705608], [-8.179298, 41.708976], [-8.174809, 41.715148], [-8.167156, 41.718441], [-8.144539, 41.732941], [-8.107203, 41.759678], [-8.099871, 41.768627], [-8.096989, 41.777612], [-8.0983, 41.795636], [-8.103583, 41.811174], [-8.117188, 41.812302], [-8.123807, 41.808702], [-8.138247, 41.808477], [-8.139751, 41.813203], [-8.14276, 41.812978], [-8.145769, 41.815453], [-8.149078, 41.814777], [-8.153893, 41.817928], [-8.161415, 41.818376], [-8.165326, 41.81815], [-8.173744, 41.808019], [-8.177054, 41.808017], [-8.182773, 41.812516], [-8.190291, 41.809587], [-8.197158, 41.814129], [-8.201063, 41.808724], [-8.204973, 41.807372], [-8.205872, 41.804445], [-8.213692, 41.803765], [-8.217598, 41.80016], [-8.217589, 41.793634], [-8.224207, 41.794303], [-8.229917, 41.791598], [-8.23473, 41.792269], [-8.238037, 41.791169], [-8.220573, 41.76951], [-8.217187, 41.76048], [-8.218987, 41.751485], [-8.226944, 41.745194], [-8.23631, 41.733588], [-8.246152, 41.724645], [-8.263407, 41.711639], [-8.275499, 41.705311], [-8.287567, 41.700863], [-8.299605, 41.699105], [-8.311621, 41.699304], [-8.323608, 41.702221], [-8.335525, 41.71215], [-8.343353, 41.725242], [-8.351145, 41.743894], [-8.352516, 41.743441], [-8.352203, 41.739616], [-8.357897, 41.735103], [-8.362407, 41.735994], [-8.368703, 41.73193], [-8.374122, 41.734845], [-8.384922, 41.73032], [-8.387032, 41.731891], [-8.39467, 41.730298], [-8.391964, 41.72551], [-8.391889, 41.716502], [-8.398752, 41.707531], [-8.407736, 41.702627], [-8.419781, 41.699717], [-8.431793, 41.700467], [-8.445005, 41.706313]], [[-8.190592, 41.766825], [-8.178539, 41.768575], [-8.166525, 41.767242], [-8.154169, 41.760033], [-8.148877, 41.750987], [-8.149952, 41.741988], [-8.159747, 41.733053], [-8.167014, 41.729424], [-8.179049, 41.728519], [-8.192966, 41.733291], [-8.209894, 41.751423], [-8.203768, 41.760388], [-8.190592, 41.766825]], [[-8.371787, 41.691544], [-8.359774, 41.691202], [-8.347793, 41.687618], [-8.339164, 41.680183], [-8.336683, 41.671161], [-8.337497, 41.662159], [-8.34202, 41.653178], [-8.353898, 41.644238], [-8.360265, 41.641613], [-8.372289, 41.63994], [-8.384279, 41.641738], [-8.396236, 41.647171], [-8.404102, 41.653516], [-8.410704, 41.662558], [-8.411248, 41.671567], [-8.404233, 41.680538], [-8.395879, 41.685356], [-8.383823, 41.689604], [-8.371787, 41.691544]], [[-8.155821, 41.665919], [-8.131785, 41.666836], [-8.119796, 41.665095], [-8.095918, 41.654734], [-8.072165, 41.636098], [-8.060691, 41.624202], [-8.05616, 41.615157], [-8.056001, 41.606149], [-8.061169, 41.597184], [-8.072829, 41.58977], [-8.084871, 41.586668], [-8.132876, 41.585431], [-8.156849, 41.587078], [-8.166199, 41.588987], [-8.18924, 41.598159], [-8.200281, 41.607243], [-8.205591, 41.616287], [-8.207511, 41.625308], [-8.205212, 41.634299], [-8.199849, 41.643269], [-8.189421, 41.652203], [-8.172803, 41.661092], [-8.155821, 41.665919]], [[-8.480344, 41.641149], [-8.477965, 41.644868], [-8.468253, 41.65132], [-8.456224, 41.653668], [-8.444224, 41.652561], [-8.432254, 41.64798], [-8.417979, 41.635573], [-8.413819, 41.626545], [-8.414759, 41.617542], [-8.422953, 41.608577], [-8.432639, 41.604093], [-8.444653, 41.602571], [-8.456639, 41.604179], [-8.468597, 41.609446], [-8.478424, 41.617849], [-8.483118, 41.626877], [-8.483207, 41.635885], [-8.480344, 41.641149]], [[-8.660775, 41.580173], [-8.648756, 41.584395], [-8.63675, 41.585983], [-8.624758, 41.585131], [-8.612781, 41.581822], [-8.600817, 41.57645], [-8.585908, 41.564243], [-8.572983, 41.546181], [-8.568808, 41.52815], [-8.572818, 41.510151], [-8.579366, 41.501167], [-8.589336, 41.495256], [-8.601323, 41.494109], [-8.613296, 41.495332], [-8.625259, 41.498447], [-8.650911, 41.510414], [-8.663559, 41.519459], [-8.672041, 41.528491], [-8.677977, 41.537515], [-8.680689, 41.54653], [-8.680656, 41.555537], [-8.677565, 41.564536], [-8.672817, 41.571078], [-8.660775, 41.580173]], [[-8.577502, 41.472635], [-8.565476, 41.480126], [-8.553496, 41.480512], [-8.541539, 41.477498], [-8.529616, 41.470073], [-8.524474, 41.464924], [-8.520341, 41.455899], [-8.520593, 41.446893], [-8.529881, 41.433323], [-8.541894, 41.427146], [-8.553874, 41.425269], [-8.565826, 41.42767], [-8.577741, 41.435915], [-8.58355, 41.447138], [-8.584349, 41.456148], [-8.582057, 41.465147], [-8.577502, 41.472635]], [[-8.661757, 41.39171], [-8.649772, 41.396122], [-8.637796, 41.398578], [-8.613869, 41.398854], [-8.601921, 41.396457], [-8.593571, 41.393128], [-8.58051, 41.384074], [-8.573544, 41.375041], [-8.5698, 41.366019], [-8.569013, 41.348001], [-8.571747, 41.339003], [-8.577503, 41.330017], [-8.590437, 41.320179], [-8.602405, 41.316896], [-8.614353, 41.31692], [-8.626289, 41.319031], [-8.650137, 41.328064], [-8.666752, 41.339318], [-8.675649, 41.348351], [-8.681003, 41.357373], [-8.682728, 41.366386], [-8.680637, 41.375388], [-8.673757, 41.383981], [-8.661757, 41.39171]]], [[[-7.822614, 41.87401], [-7.82124, 41.865181], [-7.814156, 41.847094], [-7.790794, 41.810824], [-7.784254, 41.774728], [-7.769754, 41.738546], [-7.767864, 41.729519], [-7.769534, 41.723956], [-7.765698, 41.723044], [-7.761765, 41.727758], [-7.763239, 41.732714], [-7.759307, 41.737203], [-7.759597, 41.739005], [-7.75689, 41.739446], [-7.758687, 41.740577], [-7.757758, 41.745301], [-7.748417, 41.749321], [-7.747786, 41.754496], [-7.743866, 41.756509], [-7.740214, 41.763924], [-7.726937, 41.771755], [-7.7254, 41.777152], [-7.727191, 41.779184], [-7.724177, 41.780299], [-7.725372, 41.781653], [-7.722296, 41.792446], [-7.728879, 41.797871], [-7.727026, 41.805517], [-7.728761, 41.816776], [-7.732041, 41.821514], [-7.743152, 41.825154], [-7.742839, 41.827178], [-7.738918, 41.82874], [-7.742196, 41.833928], [-7.74729, 41.837772], [-7.745767, 41.840692], [-7.747315, 41.844749], [-7.756006, 41.843446], [-7.768434, 41.846613], [-7.777005, 41.855711], [-7.77786, 41.864727], [-7.767419, 41.876338], [-7.755314, 41.879128], [-7.743305, 41.876952], [-7.737182, 41.873294], [-7.733757, 41.86856], [-7.730228, 41.871024], [-7.729293, 41.875972], [-7.720533, 41.880218], [-7.720523, 41.881793], [-7.725335, 41.882935], [-7.726208, 41.887665], [-7.737044, 41.888828], [-7.73944, 41.891087], [-7.74246, 41.889747], [-7.742785, 41.885922], [-7.756022, 41.888441], [-7.758719, 41.890926], [-7.756592, 41.89407], [-7.758076, 41.897901], [-7.763193, 41.898593], [-7.779227, 41.886264], [-7.785257, 41.885157], [-7.788886, 41.882467], [-7.794007, 41.882257], [-7.796739, 41.878214], [-7.794349, 41.87438], [-7.797064, 41.873488], [-7.803381, 41.874857], [-7.804914, 41.869459], [-7.813032, 41.871958], [-7.814229, 41.873537], [-7.822614, 41.87401]]], [[[-7.791264, 41.717541], [-7.830407, 41.726255], [-7.866405, 41.730345], [-7.89032, 41.738007], [-7.902329, 41.738976], [-7.914411, 41.735635], [-7.922682, 41.731075], [-7.934563, 41.722179], [-7.94195, 41.71324], [-7.945443, 41.704265], [-7.944432, 41.695249], [-7.934366, 41.677142], [-7.904182, 41.642225], [-7.897869, 41.645511], [-7.89696, 41.647985], [-7.893961, 41.647528], [-7.892455, 41.649101], [-7.892145, 41.651576], [-7.901724, 41.658573], [-7.902017, 41.660599], [-7.899913, 41.66127], [-7.900198, 41.665547], [-7.898396, 41.665769], [-7.896885, 41.668692], [-7.883969, 41.67069], [-7.879755, 41.673607], [-7.877044, 41.676077], [-7.876723, 41.681253], [-7.873401, 41.686198], [-7.868896, 41.686413], [-7.868008, 41.68326], [-7.864403, 41.683701], [-7.864096, 41.685276], [-7.858987, 41.68639], [-7.857773, 41.689538], [-7.854776, 41.68818], [-7.847538, 41.695365], [-7.837912, 41.698942], [-7.835792, 41.702763], [-7.839682, 41.705924], [-7.838465, 41.709522], [-7.832453, 41.710407], [-7.825252, 41.708813], [-7.818621, 41.713522], [-7.815291, 41.718689], [-7.808986, 41.717996], [-7.808396, 41.715744], [-7.804499, 41.714158], [-7.79939, 41.714593], [-7.79788, 41.716164], [-7.796383, 41.71526], [-7.791264, 41.717541]], [[-7.902492, 41.72943], [-7.890469, 41.72936], [-7.877099, 41.721632], [-7.873517, 41.71259], [-7.880057, 41.703647], [-7.891014, 41.69767], [-7.903021, 41.698288], [-7.912138, 41.703955], [-7.917507, 41.713012], [-7.914655, 41.721992], [-7.902492, 41.72943]]], [[[-7.937307, 41.805545], [-7.949343, 41.80568], [-7.961456, 41.801043], [-7.968356, 41.794542], [-7.965067, 41.785506], [-7.949759, 41.780229], [-7.937725, 41.780254], [-7.925317, 41.785141], [-7.92186, 41.794115], [-7.930566, 41.803203], [-7.937307, 41.805545]]], [[[-8.022298, 41.757832], [-8.034374, 41.75468], [-8.040515, 41.750133], [-8.043362, 41.74115], [-8.040213, 41.732117], [-8.022909, 41.7175], [-8.010943, 41.713908], [-7.998915, 41.714392], [-7.986835, 41.722652], [-7.985263, 41.731645], [-7.988817, 41.740683], [-7.998346, 41.75101], [-8.010286, 41.756717], [-8.022298, 41.757832]]]]}}, {"id": "2", "type": "Feature", "properties": {"fill": "#fecb90", "value_min": 0.53, "value_max": -0.6}, "geometry": {"type": "MultiPolygon", "coordinates": [[[[-8.284138, 41.751909], [-8.286991, 41.752985], [-8.288682, 41.751938], [-8.287046, 41.748033], [-8.284138, 41.751909]]], [[[-8.144014, 41.650405], [-8.156908, 41.642962], [-8.161227, 41.633986], [-8.158377, 41.624958], [-8.14447, 41.615957], [-8.132478, 41.615159], [-8.120416, 41.619566], [-8.114818, 41.624631], [-8.111093, 41.63361], [-8.114233, 41.642641], [-8.120041, 41.647146], [-8.131994, 41.651268], [-8.144014, 41.650405]], [[-8.150796, 41.63391], [-8.14567, 41.642879], [-8.132067, 41.645841], [-8.125018, 41.642724], [-8.119278, 41.633673], [-8.128111, 41.624733], [-8.132378, 41.62266], [-8.144353, 41.624788], [-8.150796, 41.63391]]], [[[-8.673185, 41.498046], [-8.685173, 41.496647], [-8.69493, 41.492524], [-8.703435, 41.483539], [-8.705145, 41.474536], [-8.701835, 41.46552], [-8.69732, 41.460959], [-8.685379, 41.453976], [-8.673418, 41.451772], [-8.661439, 41.45293], [-8.649437, 41.458402], [-8.642762, 41.465352], [-8.639874, 41.47435], [-8.642526, 41.483366], [-8.649267, 41.489896], [-8.661215, 41.496062], [-8.673185, 41.498046]], [[-8.68525, 41.480672], [-8.68456, 41.483489], [-8.673229, 41.489301], [-8.661256, 41.488207], [-8.654035, 41.483401], [-8.651466, 41.474386], [-8.661378, 41.46475], [-8.673355, 41.464169], [-8.685289, 41.472714], [-8.68525, 41.480672]]], [[[-8.374617, 41.398543], [-8.38842, 41.392221], [-8.396784, 41.383257], [-8.399808, 41.374266], [-8.398744, 41.365252], [-8.393254, 41.356216], [-8.387026, 41.351009], [-8.378655, 41.34713], [-8.363183, 41.344341], [-8.351211, 41.346292], [-8.339196, 41.352436], [-8.329939, 41.364872], [-8.32858, 41.373872], [-8.331157, 41.382895], [-8.338795, 41.392062], [-8.350696, 41.398091], [-8.362641, 41.399896], [-8.374617, 41.398543]], [[-8.380031, 41.374161], [-8.375183, 41.383142], [-8.362769, 41.386769], [-8.350838, 41.383865], [-8.345071, 41.373967], [-8.351044, 41.363179], [-8.363029, 41.360147], [-8.374949, 41.363854], [-8.380031, 41.374161]]]]}}, {"id": "7", "type": "Feature", "properties": {"fill": "#e14a35", "value_min": 0.87, "value_max": -0.93}, "geometry": {"type": "MultiPolygon", "coordinates": [[[[-8.007927, 41.839402], [-8.003465, 41.830879], [-7.992663, 41.821778], [-7.985255, 41.818435], [-7.973257, 41.815803], [-7.961226, 41.815257], [-7.925054, 41.818449], [-7.915162, 41.821073], [-7.902162, 41.829956], [-7.895625, 41.8389], [-7.893043, 41.847882], [-7.894377, 41.859325], [-7.900698, 41.861588], [-7.904318, 41.859795], [-7.907309, 41.865203], [-7.906095, 41.868126], [-7.910299, 41.871285], [-7.909985, 41.875111], [-7.915391, 41.879397], [-7.921118, 41.877833], [-7.928044, 41.87807], [-7.935283, 41.874707], [-7.937389, 41.87516], [-7.941618, 41.870891], [-7.951254, 41.871132], [-7.956367, 41.87339], [-7.956362, 41.875191], [-7.960878, 41.875648], [-7.962086, 41.874074], [-7.973828, 41.875216], [-7.987996, 41.869157], [-7.990123, 41.860157], [-7.995547, 41.858138], [-7.994047, 41.855211], [-7.996765, 41.851162], [-8.00339, 41.85027], [-8.007927, 41.839402]], [[-7.948405, 41.863007], [-7.936411, 41.859717], [-7.932933, 41.857266], [-7.92568, 41.848192], [-7.925523, 41.839183], [-7.932177, 41.830239], [-7.949027, 41.82498], [-7.961047, 41.826329], [-7.970222, 41.830586], [-7.97694, 41.839653], [-7.976298, 41.848654], [-7.96829, 41.857589], [-7.960475, 41.861673], [-7.948405, 41.863007]]], [[[-7.865324, 41.791708], [-7.877386, 41.790159], [-7.889519, 41.784481], [-7.901731, 41.77405], [-7.913823, 41.770507], [-7.937828, 41.77399], [-7.961905, 41.773204], [-7.9741, 41.767573], [-7.976748, 41.75859], [-7.972697, 41.749547], [-7.962443, 41.7398], [-7.950484, 41.73569], [-7.938437, 41.737084], [-7.92632, 41.74256], [-7.914147, 41.751271], [-7.902049, 41.755436], [-7.891923, 41.748796], [-7.878214, 41.742666], [-7.866246, 41.739339], [-7.854227, 41.739005], [-7.842156, 41.741553], [-7.829152, 41.748174], [-7.822413, 41.757112], [-7.821711, 41.766111], [-7.825142, 41.775153], [-7.829419, 41.780679], [-7.841298, 41.789211], [-7.853287, 41.791813], [-7.865324, 41.791708]], [[-7.93792, 41.768428], [-7.934313, 41.767211], [-7.928546, 41.75815], [-7.938251, 41.748337], [-7.950289, 41.7477], [-7.953527, 41.749374], [-7.961273, 41.758451], [-7.955074, 41.767402], [-7.949942, 41.768961], [-7.93792, 41.768428]], [[-7.865634, 41.774114], [-7.853631, 41.772483], [-7.845441, 41.766352], [-7.843821, 41.757329], [-7.854068, 41.747963], [-7.866116, 41.746763], [-7.871528, 41.748598], [-7.882453, 41.757711], [-7.880494, 41.766699], [-7.877752, 41.769201], [-7.865634, 41.774114]]], [[[-8.130964, 41.727821], [-8.143024, 41.725085], [-8.156276, 41.715014], [-8.158181, 41.706021], [-8.155346, 41.70221], [-8.143417, 41.695492], [-8.131359, 41.698519], [-8.12291, 41.705757], [-8.119154, 41.712192], [-8.115016, 41.714703], [-8.119581, 41.723745], [-8.130964, 41.727821]], [[-8.131086, 41.718739], [-8.126501, 41.714791], [-8.12913, 41.705804], [-8.131285, 41.703957], [-8.143302, 41.704118], [-8.145816, 41.705929], [-8.145485, 41.714934], [-8.143135, 41.716748], [-8.131086, 41.718739]]], [[[-8.023401, 41.685017], [-8.035458, 41.682219], [-8.04093, 41.678081], [-8.049234, 41.669143], [-8.052067, 41.660159], [-8.049457, 41.651131], [-8.036105, 41.63887], [-8.02416, 41.634764], [-8.012163, 41.634149], [-8.000113, 41.637002], [-7.99225, 41.641636], [-7.985314, 41.650582], [-7.983691, 41.659575], [-7.986961, 41.668611], [-7.995408, 41.677692], [-8.011395, 41.68439], [-8.023401, 41.685017]], [[-8.023581, 41.673126], [-8.010094, 41.668812], [-8.004779, 41.659759], [-8.009264, 41.650791], [-8.023989, 41.646118], [-8.035934, 41.650342], [-8.040918, 41.660067], [-8.035653, 41.669185], [-8.023581, 41.673126]]], [[[-8.621594, 41.555358], [-8.636926, 41.55469], [-8.64895, 41.548632], [-8.656125, 41.537452], [-8.655821, 41.528444], [-8.650577, 41.51942], [-8.638355, 41.510375], [-8.625215, 41.506031], [-8.613235, 41.505643], [-8.600127, 41.510249], [-8.59187, 41.519227], [-8.590034, 41.528228], [-8.592259, 41.537243], [-8.600995, 41.54765], [-8.612947, 41.55396], [-8.621594, 41.555358]], [[-8.61304, 41.538401], [-8.605706, 41.528283], [-8.608666, 41.519285], [-8.613172, 41.516218], [-8.625168, 41.51423], [-8.637127, 41.518701], [-8.641709, 41.528401], [-8.637023, 41.537354], [-8.625012, 41.54124], [-8.61304, 41.538401]]], [[[-8.080264, 41.551651], [-8.097301, 41.555543], [-8.109291, 41.555639], [-8.121311, 41.553546], [-8.133367, 41.548701], [-8.141228, 41.543767], [-8.14891, 41.534817], [-8.152214, 41.525834], [-8.151872, 41.516824], [-8.145927, 41.50538], [-8.134048, 41.497652], [-8.086243, 41.489279], [-8.071753, 41.491715], [-8.07175, 41.494925], [-8.078333, 41.49898], [-8.078332, 41.500331], [-8.093, 41.504613], [-8.0906, 41.51273], [-8.097934, 41.510053], [-8.109912, 41.510387], [-8.124297, 41.516617], [-8.129296, 41.525662], [-8.126713, 41.53465], [-8.121506, 41.539175], [-8.109449, 41.544156], [-8.096755, 41.543554], [-8.094175, 41.544904], [-8.087885, 41.542876], [-8.083689, 41.544675], [-8.082186, 41.550752], [-8.080264, 41.551651]]], [[[-8.153326, 41.375866], [-8.156167, 41.390752], [-8.161725, 41.3998], [-8.171493, 41.408878], [-8.183001, 41.415614], [-8.194917, 41.41965], [-8.206859, 41.421676], [-8.218826, 41.421677], [-8.230818, 41.419556], [-8.242833, 41.415375], [-8.25489, 41.407352], [-8.261065, 41.400481], [-8.265823, 41.391504], [-8.267241, 41.373498], [-8.264432, 41.364472], [-8.254547, 41.350141], [-8.249622, 41.353072], [-8.251123, 41.356897], [-8.248141, 41.360052], [-8.248448, 41.364328], [-8.245174, 41.365232], [-8.250699, 41.373391], [-8.251927, 41.382407], [-8.248322, 41.391391], [-8.243048, 41.396805], [-8.231017, 41.402666], [-8.21904, 41.403773], [-8.204625, 41.400105], [-8.192984, 41.391016], [-8.189162, 41.381982], [-8.189871, 41.375628], [-8.168382, 41.377438], [-8.164499, 41.38059], [-8.153326, 41.375866]]], [[[-8.625981, 41.372871], [-8.637936, 41.373359], [-8.648783, 41.366287], [-8.649618, 41.357282], [-8.638075, 41.348225], [-8.626121, 41.3483], [-8.615466, 41.357173], [-8.616566, 41.366184], [-8.625981, 41.372871]]], [[[-8.538717, 41.211954], [-8.5359, 41.221763], [-8.540613, 41.23079], [-8.555157, 41.237004], [-8.567098, 41.235819], [-8.575934, 41.230926], [-8.581247, 41.221937], [-8.579635, 41.212923], [-8.568567, 41.204547], [-8.565895, 41.206227], [-8.567697, 41.208246], [-8.566512, 41.209376], [-8.559636, 41.206251], [-8.554271, 41.20627], [-8.549521, 41.209214], [-8.539597, 41.21105], [-8.539399, 41.211253], [-8.539377, 41.211276], [-8.539103, 41.211557], [-8.538717, 41.211954]]]]}}, {"id": "4", "type": "Feature", "properties": {"fill": "#f77f52", "value_min": 0.67, "value_max": -0.73}, "geometry": {"type": "MultiPolygon", "coordinates": [[[[-7.733757, 41.86856], [-7.737182, 41.873294], [-7.743305, 41.876952], [-7.755314, 41.879128], [-7.767419, 41.876338], [-7.77786, 41.864727], [-7.777005, 41.855711], [-7.768434, 41.846613], [-7.756006, 41.843446], [-7.747315, 41.844749], [-7.750246, 41.846784], [-7.750532, 41.849261], [-7.743309, 41.849012], [-7.746901, 41.8524], [-7.746881, 41.855776], [-7.73843, 41.859348], [-7.733757, 41.86856]]], [[[-8.351145, 41.743894], [-8.343353, 41.725242], [-8.335525, 41.71215], [-8.323608, 41.702221], [-8.311621, 41.699304], [-8.299605, 41.699105], [-8.287567, 41.700863], [-8.275499, 41.705311], [-8.263407, 41.711639], [-8.246152, 41.724645], [-8.23631, 41.733588], [-8.226944, 41.745194], [-8.218987, 41.751485], [-8.217187, 41.76048], [-8.220573, 41.76951], [-8.238037, 41.791169], [-8.240744, 41.791588], [-8.24074, 41.789338], [-8.244347, 41.787984], [-8.245546, 41.785731], [-8.251257, 41.784375], [-8.251845, 41.777172], [-8.257551, 41.773564], [-8.261762, 41.774235], [-8.267751, 41.769952], [-8.257993, 41.760751], [-8.255395, 41.751727], [-8.257496, 41.742733], [-8.26313, 41.735903], [-8.275239, 41.728444], [-8.287285, 41.726402], [-8.299289, 41.728142], [-8.310097, 41.734054], [-8.317269, 41.743104], [-8.318891, 41.752121], [-8.315516, 41.761738], [-8.318308, 41.761283], [-8.325233, 41.765098], [-8.328234, 41.763292], [-8.336653, 41.763728], [-8.341756, 41.761468], [-8.344765, 41.762363], [-8.349267, 41.760103], [-8.352557, 41.755145], [-8.34982, 41.745922], [-8.351145, 41.743894]]], [[[-8.190592, 41.766825], [-8.203768, 41.760388], [-8.209894, 41.751423], [-8.192966, 41.733291], [-8.179049, 41.728519], [-8.167014, 41.729424], [-8.159747, 41.733053], [-8.149952, 41.741988], [-8.148877, 41.750987], [-8.154169, 41.760033], [-8.166525, 41.767242], [-8.178539, 41.768575], [-8.190592, 41.766825]]], [[[-7.902492, 41.72943], [-7.914655, 41.721992], [-7.917507, 41.713012], [-7.912138, 41.703955], [-7.903021, 41.698288], [-7.891014, 41.69767], [-7.880057, 41.703647], [-7.873517, 41.71259], [-7.877099, 41.721632], [-7.890469, 41.72936], [-7.902492, 41.72943]]], [[[-8.371787, 41.691544], [-8.383823, 41.689604], [-8.395879, 41.685356], [-8.404233, 41.680538], [-8.411248, 41.671567], [-8.410704, 41.662558], [-8.404102, 41.653516], [-8.396236, 41.647171], [-8.384279, 41.641738], [-8.372289, 41.63994], [-8.360265, 41.641613], [-8.353898, 41.644238], [-8.34202, 41.653178], [-8.337497, 41.662159], [-8.336683, 41.671161], [-8.339164, 41.680183], [-8.347793, 41.687618], [-8.359774, 41.691202], [-8.371787, 41.691544]]], [[[-8.155821, 41.665919], [-8.172803, 41.661092], [-8.189421, 41.652203], [-8.199849, 41.643269], [-8.205212, 41.634299], [-8.207511, 41.625308], [-8.205591, 41.616287], [-8.200281, 41.607243], [-8.18924, 41.598159], [-8.166199, 41.588987], [-8.156849, 41.587078], [-8.132876, 41.585431], [-8.084871, 41.586668], [-8.072829, 41.58977], [-8.061169, 41.597184], [-8.056001, 41.606149], [-8.05616, 41.615157], [-8.060691, 41.624202], [-8.072165, 41.636098], [-8.095918, 41.654734], [-8.119796, 41.665095], [-8.131785, 41.666836], [-8.155821, 41.665919]], [[-8.168091, 41.645822], [-8.160689, 41.651997], [-8.143918, 41.657677], [-8.131905, 41.65787], [-8.119935, 41.654924], [-8.102367, 41.642549], [-8.096272, 41.629406], [-8.084339, 41.624303], [-8.078903, 41.615342], [-8.084572, 41.607775], [-8.096586, 41.606853], [-8.108567, 41.608372], [-8.132638, 41.603252], [-8.144629, 41.603896], [-8.156583, 41.607469], [-8.169095, 41.616029], [-8.1748, 41.625077], [-8.17535, 41.634089], [-8.171165, 41.643066], [-8.168091, 41.645822]]], [[[-8.305574, 41.32599], [-8.299468, 41.346676], [-8.298645, 41.373693], [-8.302836, 41.399055], [-8.31309, 41.427826], [-8.314689, 41.436843], [-8.313015, 41.44584], [-8.302082, 41.469427], [-8.300443, 41.481794], [-8.305183, 41.499838], [-8.313598, 41.513005], [-8.325475, 41.52327], [-8.337401, 41.529095], [-8.349352, 41.5327], [-8.385274, 41.536882], [-8.433136, 41.547288], [-8.445156, 41.543808], [-8.457154, 41.542704], [-8.468643, 41.554753], [-8.481036, 41.554873], [-8.493043, 41.552805], [-8.517098, 41.543062], [-8.524382, 41.536983], [-8.530415, 41.528], [-8.533085, 41.519003], [-8.532871, 41.509995], [-8.529055, 41.500972], [-8.521653, 41.491934], [-8.484503, 41.464751], [-8.474207, 41.455697], [-8.466962, 41.446657], [-8.462354, 41.437628], [-8.461012, 41.428614], [-8.472626, 41.374622], [-8.472362, 41.365613], [-8.46819, 41.347579], [-8.464008, 41.338552], [-8.45019, 41.320471], [-8.435215, 41.307887], [-8.422349, 41.300047], [-8.407744, 41.304856], [-8.406262, 41.307335], [-8.403277, 41.307342], [-8.401801, 41.311398], [-8.399712, 41.311628], [-8.400316, 41.313202], [-8.396738, 41.314336], [-8.398835, 41.316131], [-8.393775, 41.31997], [-8.393489, 41.323122], [-8.391105, 41.324253], [-8.386325, 41.323588], [-8.383311, 41.327196], [-8.399146, 41.333007], [-8.411017, 41.341776], [-8.421338, 41.356361], [-8.423767, 41.36538], [-8.421527, 41.383384], [-8.416734, 41.392368], [-8.407969, 41.40133], [-8.398458, 41.407723], [-8.386446, 41.41278], [-8.374455, 41.415404], [-8.362486, 41.41579], [-8.350538, 41.414001], [-8.33862, 41.409287], [-8.326721, 41.400884], [-8.319555, 41.391834], [-8.313957, 41.373786], [-8.316688, 41.355787], [-8.325623, 41.341939], [-8.323376, 41.341943], [-8.316788, 41.335876], [-8.313802, 41.336331], [-8.31139, 41.328007], [-8.305574, 41.32599]], [[-8.505309, 41.50988], [-8.503012, 41.518877], [-8.493255, 41.52562], [-8.481262, 41.526534], [-8.465193, 41.518708], [-8.461501, 41.509683], [-8.466438, 41.500699], [-8.469506, 41.498324], [-8.481517, 41.494545], [-8.493481, 41.496732], [-8.499651, 41.500848], [-8.505309, 41.50988]], [[-8.349904, 41.482084], [-8.349764, 41.491536], [-8.33777, 41.49291], [-8.335189, 41.491008], [-8.33581, 41.482004], [-8.337897, 41.480515], [-8.349904, 41.482084]]], [[[-8.32636, 41.341059], [-8.32636, 41.341059], [-8.326566, 41.340812], [-8.32636, 41.341059]]], [[[-8.345734, 41.329107], [-8.345734, 41.329107], [-8.34583, 41.329073], [-8.345734, 41.329107]]], [[[-8.346033, 41.329001], [-8.346033, 41.329001], [-8.346447, 41.328847], [-8.346033, 41.329001]]], [[[-8.346927, 41.328662], [-8.346927, 41.328662], [-8.347035, 41.32862], [-8.346927, 41.328662]]], [[[-8.347226, 41.328547], [-8.347226, 41.328547], [-8.348212, 41.328168], [-8.347226, 41.328547]]], [[[-8.348418, 41.328089], [-8.348418, 41.328089], [-8.3488, 41.327942], [-8.348418, 41.328089]]], [[[-8.349611, 41.32763], [-8.349611, 41.32763], [-8.349977, 41.327489], [-8.349611, 41.32763]]], [[[-8.350208, 41.327401], [-8.350208, 41.327401], [-8.350565, 41.327263], [-8.350208, 41.327401]]], [[[-8.805523, 41.438607], [-8.799309, 41.429701], [-8.789619, 41.420676], [-8.781293, 41.415191], [-8.769344, 41.410414], [-8.757388, 41.407932], [-8.745426, 41.407335], [-8.709519, 41.41054], [-8.661615, 41.419125], [-8.649631, 41.422347], [-8.633192, 41.429292], [-8.622028, 41.438263], [-8.616172, 41.447251], [-8.611098, 41.465249], [-8.612047, 41.47426], [-8.617001, 41.483284], [-8.628828, 41.49233], [-8.673101, 41.514872], [-8.697028, 41.523566], [-8.72098, 41.528066], [-8.744954, 41.528041], [-8.756948, 41.526005], [-8.774986, 41.519731], [-8.78976, 41.510752], [-8.799413, 41.501761], [-8.807638, 41.488954], [-8.804699, 41.482068], [-8.798552, 41.474753], [-8.798251, 41.469014], [-8.801548, 41.4468], [-8.805523, 41.438607]], [[-8.721121, 41.495416], [-8.712221, 41.501576], [-8.697109, 41.506285], [-8.685122, 41.507114], [-8.673146, 41.505852], [-8.661181, 41.502502], [-8.641358, 41.49237], [-8.631724, 41.483332], [-8.628167, 41.474313], [-8.628763, 41.465307], [-8.633208, 41.456314], [-8.637502, 41.451438], [-8.649519, 41.443198], [-8.66151, 41.439276], [-8.673489, 41.43758], [-8.685458, 41.437751], [-8.697418, 41.439773], [-8.709369, 41.444128], [-8.725605, 41.456572], [-8.730561, 41.465591], [-8.731893, 41.474602], [-8.730226, 41.483605], [-8.721121, 41.495416]]], [[[-8.804389, 41.263558], [-8.795021, 41.258548], [-8.781831, 41.253987], [-8.757974, 41.249762], [-8.734105, 41.249394], [-8.710223, 41.251912], [-8.686322, 41.257971], [-8.668571, 41.267261], [-8.659845, 41.276243], [-8.655529, 41.285238], [-8.655039, 41.294244], [-8.658108, 41.303261], [-8.664653, 41.312288], [-8.674107, 41.321323], [-8.709808, 41.345444], [-8.73367, 41.356346], [-8.757552, 41.363777], [-8.769504, 41.365003], [-8.781463, 41.364337], [-8.79343, 41.361211], [-8.807925, 41.353302], [-8.804389, 41.263558]], [[-8.745774, 41.318153], [-8.733807, 41.322824], [-8.721853, 41.323927], [-8.709912, 41.322185], [-8.697986, 41.317134], [-8.691489, 41.312363], [-8.684217, 41.303336], [-8.68224, 41.294323], [-8.684799, 41.285322], [-8.693762, 41.276338], [-8.710143, 41.269938], [-8.722086, 41.269022], [-8.734018, 41.270779], [-8.747541, 41.276469], [-8.756629, 41.285496], [-8.759995, 41.294511], [-8.757768, 41.305626], [-8.753396, 41.312513], [-8.745774, 41.318153]]]]}}, {"id": "8", "type": "Feature", "properties": {"fill": "#da382b", "value_min": 0.93, "value_max": -1.0}, "geometry": {"type": "MultiPolygon", "coordinates": [[[[-7.948405, 41.863007], [-7.960475, 41.861673], [-7.96829, 41.857589], [-7.976298, 41.848654], [-7.97694, 41.839653], [-7.970222, 41.830586], [-7.961047, 41.826329], [-7.949027, 41.82498], [-7.932177, 41.830239], [-7.925523, 41.839183], [-7.92568, 41.848192], [-7.932933, 41.857266], [-7.936411, 41.859717], [-7.948405, 41.863007]]], [[[-7.93792, 41.768428], [-7.949942, 41.768961], [-7.955074, 41.767402], [-7.961273, 41.758451], [-7.953527, 41.749374], [-7.950289, 41.7477], [-7.938251, 41.748337], [-7.928546, 41.75815], [-7.934313, 41.767211], [-7.93792, 41.768428]]], [[[-7.865634, 41.774114], [-7.877752, 41.769201], [-7.880494, 41.766699], [-7.882453, 41.757711], [-7.871528, 41.748598], [-7.866116, 41.746763], [-7.854068, 41.747963], [-7.843821, 41.757329], [-7.845441, 41.766352], [-7.853631, 41.772483], [-7.865634, 41.774114]]], [[[-8.131086, 41.718739], [-8.143135, 41.716748], [-8.145485, 41.714934], [-8.145816, 41.705929], [-8.143302, 41.704118], [-8.131285, 41.703957], [-8.12913, 41.705804], [-8.126501, 41.714791], [-8.131086, 41.718739]]], [[[-8.023581, 41.673126], [-8.035653, 41.669185], [-8.040918, 41.660067], [-8.035934, 41.650342], [-8.023989, 41.646118], [-8.009264, 41.650791], [-8.004779, 41.659759], [-8.010094, 41.668812], [-8.023581, 41.673126]]], [[[-8.096755, 41.543554], [-8.109449, 41.544156], [-8.121506, 41.539175], [-8.126713, 41.53465], [-8.129296, 41.525662], [-8.124297, 41.516617], [-8.109912, 41.510387], [-8.097934, 41.510053], [-8.0906, 41.51273], [-8.091196, 41.516767], [-8.089398, 41.519468], [-8.090594, 41.522169], [-8.093588, 41.52307], [-8.091786, 41.531848], [-8.097775, 41.536127], [-8.097774, 41.537927], [-8.106759, 41.543106], [-8.096755, 41.543554]]], [[[-8.61304, 41.538401], [-8.625012, 41.54124], [-8.637023, 41.537354], [-8.641709, 41.528401], [-8.637127, 41.518701], [-8.625168, 41.51423], [-8.613172, 41.516218], [-8.608666, 41.519285], [-8.605706, 41.528283], [-8.61304, 41.538401]]], [[[-8.189871, 41.375628], [-8.189162, 41.381982], [-8.192984, 41.391016], [-8.204625, 41.400105], [-8.21904, 41.403773], [-8.231017, 41.402666], [-8.243048, 41.396805], [-8.248322, 41.391391], [-8.251927, 41.382407], [-8.250699, 41.373391], [-8.245174, 41.365232], [-8.244272, 41.368384], [-8.239197, 41.371315], [-8.232024, 41.369971], [-8.224854, 41.370878], [-8.21738, 41.368182], [-8.211712, 41.376065], [-8.200358, 41.377648], [-8.194976, 41.374275], [-8.191691, 41.376302], [-8.189871, 41.375628]]]]}}, {"id": "0", "type": "Feature", "properties": {"fill": "#eef8a7", "value_min": 0.4, "value_max": -0.47}, "geometry": {"type": "Polygon", "coordinates": [[[-8.129531, 41.633751], [-8.132184, 41.637109], [-8.13769, 41.633812], [-8.132261, 41.631387], [-8.129531, 41.633751]]]}}]}