{"type": "FeatureCollection", "features": [{"id": "0", "type": "Feature", "properties": {"fill": "#fc9863", "value_min": 0.6, "value_max": -0.67}, "geometry": {"type": "MultiPolygon", "coordinates": [[[[-7.950131, 41.757403], [-7.941251, 41.758268], [-7.950082, 41.760392], [-7.950131, 41.757403]]], [[[-8.187805, 41.742262], [-8.178975, 41.734343], [-8.166952, 41.734187], [-8.15786, 41.742046], [-8.160657, 41.751074], [-8.166679, 41.755315], [-8.178717, 41.754603], [-8.184177, 41.751243], [-8.187805, 41.742262]]], [[[-8.440791, 41.714203], [-8.436034, 41.70772], [-8.43175, 41.705353], [-8.419755, 41.702648], [-8.407718, 41.704632], [-8.401871, 41.707547], [-8.393976, 41.716513], [-8.394013, 41.72552], [-8.39754, 41.729972], [-8.400531, 41.726683], [-8.402934, 41.726452], [-8.404721, 41.722847], [-8.417349, 41.725067], [-8.422737, 41.720552], [-8.429643, 41.719859], [-8.430533, 41.717381], [-8.435927, 41.714441], [-8.440791, 41.714203]]], [[[-8.2394, 41.708804], [-8.244383, 41.697613], [-8.242164, 41.688591], [-8.233708, 41.679528], [-8.227769, 41.676261], [-8.215789, 41.673489], [-8.20376, 41.674708], [-8.191661, 41.681532], [-8.186457, 41.68821], [-8.184953, 41.697207], [-8.191295, 41.710811], [-8.203212, 41.719146], [-8.215214, 41.720804], [-8.227269, 41.71801], [-8.2394, 41.708804]]], [[[-8.096496, 41.613321], [-8.084537, 41.610301], [-8.080086, 41.615351], [-8.084397, 41.620153], [-8.096442, 41.617225], [-8.096496, 41.613321]]], [[[-8.533203, 41.213098], [-8.531551, 41.221746], [-8.535995, 41.230772], [-8.543227, 41.23649], [-8.555134, 41.240444], [-8.567072, 41.239724], [-8.581838, 41.230947], [-8.585806, 41.221954], [-8.584299, 41.21294], [-8.57922, 41.206402], [-8.574221, 41.203263], [-8.57423, 41.20462], [-8.568566, 41.204416], [-8.565895, 41.206227], [-8.567697, 41.208246], [-8.566512, 41.209376], [-8.559636, 41.206251], [-8.554271, 41.20627], [-8.549521, 41.209214], [-8.544157, 41.209458], [-8.54238, 41.211265], [-8.533203, 41.213098]]]]}}, {"id": "1", "type": "Feature", "properties": {"fill": "#f77f52", "value_min": 0.67, "value_max": -0.73}, "geometry": {"type": "MultiPolygon", "coordinates": [[[[-8.692782, 41.577974], [-8.698452, 41.57547], [-8.701703, 41.570277], [-8.707704, 41.570923], [-8.712485, 41.569323], [-8.716422, 41.573805], [-8.720316, 41.57356], [-8.725151, 41.577811], [-8.726633, 41.576003], [-8.734424, 41.575737], [-8.736564, 41.580228], [-8.738354, 41.579318], [-8.740778, 41.582006], [-8.74467, 41.581535], [-8.750711, 41.58623], [-8.756374, 41.582823], [-8.75635, 41.580347], [-8.762327, 41.578514], [-8.764443, 41.580303], [-8.767441, 41.580286], [-8.769874, 41.583874], [-8.768997, 41.58613], [-8.773228, 41.589482], [-8.775371, 41.593972], [-8.78556, 41.593464], [-8.797327, 41.600599], [-8.804218, 41.600109], [-8.80456, 41.604158], [-8.809434, 41.611332], [-8.828644, 41.609656], [-8.82839, 41.585633], [-8.818497, 41.554794], [-8.8221, 41.547542], [-8.821965, 41.534907], [-8.815926, 41.525624], [-8.81063, 41.5101], [-8.813279, 41.503483], [-8.812636, 41.496944], [-8.804699, 41.482068], [-8.798552, 41.474753], [-8.80154, 41.446836], [-8.806115, 41.43713], [-8.807354, 41.425915], [-8.811211, 41.415789], [-8.799695, 41.14406], [-8.674793, 41.146932], [-8.674849, 41.153767], [-8.672489, 41.15648], [-8.66117, 41.156307], [-8.662078, 41.158104], [-8.660313, 41.160813], [-8.657033, 41.160378], [-8.654961, 41.161963], [-8.653231, 41.169174], [-8.655366, 41.175467], [-8.647955, 41.180228], [-8.647696, 41.185181], [-8.640929, 41.196241], [-8.634946, 41.193341], [-8.632526, 41.188624], [-8.625658, 41.186628], [-8.621132, 41.178994], [-8.613374, 41.177451], [-8.608583, 41.174095], [-8.609164, 41.172066], [-8.604942, 41.164881], [-8.59422, 41.165149], [-8.589174, 41.167645], [-8.589194, 41.170572], [-8.583263, 41.174422], [-8.582094, 41.177803], [-8.578825, 41.178941], [-8.581296, 41.191762], [-8.575958, 41.195609], [-8.576894, 41.201908], [-8.574221, 41.203263], [-8.57922, 41.206402], [-8.584299, 41.21294], [-8.585806, 41.221954], [-8.581838, 41.230947], [-8.567072, 41.239724], [-8.555134, 41.240444], [-8.543227, 41.23649], [-8.535995, 41.230772], [-8.531551, 41.221746], [-8.533203, 41.213098], [-8.529858, 41.210859], [-8.52713, 41.203215], [-8.523236, 41.200077], [-8.51163, 41.203042], [-8.510456, 41.206197], [-8.506583, 41.206435], [-8.504239, 41.213646], [-8.500076, 41.21546], [-8.50308, 41.219502], [-8.502204, 41.222656], [-8.495642, 41.222227], [-8.495947, 41.223351], [-8.490894, 41.226294], [-8.487935, 41.230354], [-8.490331, 41.232373], [-8.489156, 41.235528], [-8.486181, 41.236888], [-8.484411, 41.240495], [-8.476346, 41.237818], [-8.475756, 41.23917], [-8.470986, 41.23941], [-8.471604, 41.243459], [-8.469227, 41.245267], [-8.463258, 41.244384], [-8.459989, 41.246644], [-8.454323, 41.246886], [-8.455541, 41.251834], [-8.452276, 41.25522], [-8.449891, 41.255452], [-8.449304, 41.257479], [-8.447812, 41.257258], [-8.449028, 41.261982], [-8.443657, 41.261771], [-8.438004, 41.264938], [-8.438023, 41.268989], [-8.434745, 41.269673], [-8.432691, 41.277107], [-8.427032, 41.279372], [-8.429143, 41.284319], [-8.426171, 41.287028], [-8.426488, 41.291079], [-8.425013, 41.294909], [-8.422037, 41.296942], [-8.422647, 41.299867], [-8.41609, 41.301973], [-8.438827, 41.320417], [-8.454155, 41.338506], [-8.459488, 41.347538], [-8.463916, 41.356567], [-8.468971, 41.374605], [-8.468914, 41.39262], [-8.464192, 41.401606], [-8.449631, 41.410545], [-8.38478, 41.437239], [-8.371172, 41.446173], [-8.365312, 41.455148], [-8.365314, 41.464156], [-8.369804, 41.482195], [-8.369971, 41.491203], [-8.367682, 41.500198], [-8.361544, 41.511905], [-8.329316, 41.545018], [-8.316718, 41.553951], [-8.297525, 41.562842], [-8.277027, 41.568684], [-8.253001, 41.572044], [-8.229, 41.573035], [-8.169052, 41.571019], [-8.082177, 41.563508], [-8.081276, 41.565382], [-8.078879, 41.56493], [-8.075279, 41.568305], [-8.073182, 41.568079], [-8.069283, 41.570553], [-8.068081, 41.573478], [-8.056684, 41.579549], [-8.052181, 41.584498], [-8.052777, 41.587649], [-8.037169, 41.600242], [-8.031467, 41.602938], [-8.02367, 41.603156], [-8.019174, 41.601802], [-8.014304, 41.603372], [-8.060109, 41.639572], [-8.072015, 41.64656], [-8.083986, 41.649235], [-8.095997, 41.649024], [-8.105413, 41.642573], [-8.120391, 41.621404], [-8.132524, 41.611763], [-8.144582, 41.607446], [-8.156595, 41.606587], [-8.16853, 41.61172], [-8.171969, 41.61605], [-8.175157, 41.62508], [-8.174257, 41.634081], [-8.169626, 41.643054], [-8.155946, 41.656302], [-8.143851, 41.66276], [-8.119696, 41.672454], [-8.115612, 41.67868], [-8.107535, 41.683154], [-8.095363, 41.694347], [-8.088762, 41.696484], [-8.083235, 41.702184], [-8.071238, 41.700679], [-8.059318, 41.693898], [-8.047304, 41.693699], [-8.040234, 41.696089], [-8.02767, 41.70499], [-8.024366, 41.713969], [-8.03061, 41.723029], [-8.034047, 41.732065], [-8.030535, 41.741042], [-8.022485, 41.745519], [-8.010439, 41.74673], [-7.997948, 41.740763], [-7.994093, 41.731722], [-7.998318, 41.713745], [-7.98672, 41.704637], [-7.939341, 41.682112], [-7.927365, 41.679729], [-7.915291, 41.68331], [-7.899347, 41.703833], [-7.890794, 41.710464], [-7.88703, 41.721728], [-7.876366, 41.730631], [-7.866313, 41.73553], [-7.851335, 41.739391], [-7.830827, 41.748191], [-7.824464, 41.757133], [-7.824808, 41.766143], [-7.830316, 41.775206], [-7.841447, 41.780937], [-7.877427, 41.787827], [-7.889325, 41.795717], [-7.895252, 41.802869], [-7.898892, 41.811911], [-7.898418, 41.820913], [-7.888615, 41.836808], [-7.875254, 41.84758], [-7.879956, 41.853217], [-7.888076, 41.855486], [-7.891675, 41.859094], [-7.900698, 41.861588], [-7.904318, 41.859795], [-7.907309, 41.865203], [-7.906095, 41.868126], [-7.910299, 41.871285], [-7.909985, 41.875111], [-7.915391, 41.879397], [-7.921118, 41.877833], [-7.928044, 41.87807], [-7.935283, 41.874707], [-7.937389, 41.87516], [-7.941618, 41.870891], [-7.951254, 41.871132], [-7.956367, 41.87339], [-7.956362, 41.875191], [-7.960878, 41.875648], [-7.962086, 41.874074], [-7.973828, 41.875216], [-7.987996, 41.869157], [-7.990123, 41.860157], [-7.995547, 41.858138], [-7.994047, 41.855211], [-7.996162, 41.851837], [-8.003089, 41.850494], [-8.005804, 41.847346], [-8.007928, 41.838796], [-8.010941, 41.836773], [-8.013965, 41.828899], [-8.017873, 41.831379], [-8.02901, 41.829589], [-8.037134, 41.831171], [-8.041351, 41.828023], [-8.041054, 41.825097], [-8.045268, 41.824425], [-8.046775, 41.821951], [-8.056712, 41.81588], [-8.06664, 41.817012], [-8.072961, 41.813414], [-8.078678, 41.813417], [-8.082892, 41.810493], [-8.091013, 41.812521], [-8.093421, 41.811397], [-8.093723, 41.808471], [-8.101845, 41.809824], [-8.104853, 41.81185], [-8.115984, 41.812302], [-8.123807, 41.808702], [-8.138247, 41.808477], [-8.139751, 41.813203], [-8.14276, 41.812978], [-8.144866, 41.815228], [-8.149078, 41.814777], [-8.153291, 41.817703], [-8.158106, 41.818377], [-8.165326, 41.81815], [-8.173744, 41.808019], [-8.177655, 41.808242], [-8.183676, 41.812741], [-8.190291, 41.809587], [-8.197158, 41.814129], [-8.201063, 41.808724], [-8.204973, 41.807372], [-8.205872, 41.804445], [-8.213692, 41.803765], [-8.217598, 41.80016], [-8.217589, 41.793634], [-8.224207, 41.794303], [-8.229917, 41.791598], [-8.240744, 41.791588], [-8.24074, 41.789338], [-8.244347, 41.787984], [-8.245546, 41.785731], [-8.251257, 41.784375], [-8.251845, 41.777172], [-8.257551, 41.773564], [-8.261762, 41.774235], [-8.271366, 41.766346], [-8.280681, 41.764083], [-8.284038, 41.761109], [-8.284931, 41.757507], [-8.305674, 41.758152], [-8.311096, 41.762195], [-8.318308, 41.761283], [-8.325233, 41.765098], [-8.328234, 41.763292], [-8.336653, 41.763728], [-8.341756, 41.761468], [-8.344765, 41.762363], [-8.349267, 41.760103], [-8.352557, 41.755145], [-8.349814, 41.744122], [-8.352516, 41.743441], [-8.352203, 41.739616], [-8.357897, 41.735103], [-8.362407, 41.735994], [-8.368703, 41.73193], [-8.374122, 41.734845], [-8.384922, 41.73032], [-8.387332, 41.73189], [-8.393033, 41.729852], [-8.39754, 41.729972], [-8.394013, 41.72552], [-8.393976, 41.716513], [-8.401871, 41.707547], [-8.407718, 41.704632], [-8.419755, 41.702648], [-8.43175, 41.705353], [-8.436034, 41.70772], [-8.440791, 41.714203], [-8.4446, 41.70654], [-8.453868, 41.697961], [-8.453255, 41.695487], [-8.461659, 41.694563], [-8.467939, 41.689593], [-8.478124, 41.685061], [-8.482012, 41.682123], [-8.484371, 41.674238], [-8.49308, 41.674886], [-8.499963, 41.671038], [-8.50927, 41.671233], [-8.51018, 41.672806], [-8.511967, 41.670324], [-8.509856, 41.668755], [-8.512252, 41.667847], [-8.514629, 41.663788], [-8.522103, 41.658811], [-8.525706, 41.659023], [-8.527769, 41.652714], [-8.534066, 41.652017], [-8.537951, 41.649302], [-8.537634, 41.646602], [-8.543876, 41.637352], [-8.543855, 41.633976], [-8.538743, 41.632178], [-8.5164, 41.636632], [-8.471618, 41.653847], [-8.456203, 41.656106], [-8.432196, 41.654558], [-8.408234, 41.648307], [-8.400946, 41.6535], [-8.40194, 41.662512], [-8.395998, 41.672612], [-8.383936, 41.677708], [-8.371938, 41.676037], [-8.364918, 41.671321], [-8.362746, 41.662302], [-8.372188, 41.650318], [-8.384231, 41.646762], [-8.396232, 41.647531], [-8.400101, 41.644488], [-8.394153, 41.626443], [-8.394089, 41.617435], [-8.39686, 41.608443], [-8.402671, 41.599466], [-8.408727, 41.594293], [-8.420783, 41.587958], [-8.456857, 41.578213], [-8.491016, 41.554854], [-8.536466, 41.537032], [-8.544204, 41.528055], [-8.54692, 41.519059], [-8.546385, 41.510049], [-8.540892, 41.50102], [-8.508221, 41.473863], [-8.5001, 41.46482], [-8.491201, 41.446766], [-8.48778, 41.428736], [-8.488738, 41.419733], [-8.495456, 41.410755], [-8.50615, 41.406014], [-8.530096, 41.403464], [-8.554002, 41.406592], [-8.577872, 41.415604], [-8.589788, 41.423523], [-8.595659, 41.429166], [-8.601656, 41.439849], [-8.603556, 41.447208], [-8.602906, 41.474229], [-8.605711, 41.483246], [-8.618287, 41.492296], [-8.655919, 41.510429], [-8.680506, 41.528515], [-8.693372, 41.546565], [-8.695969, 41.555579], [-8.696499, 41.564588], [-8.692782, 41.577974]], [[-7.950131, 41.757403], [-7.950082, 41.760392], [-7.941251, 41.758268], [-7.950131, 41.757403]], [[-8.187805, 41.742262], [-8.184177, 41.751243], [-8.178717, 41.754603], [-8.166679, 41.755315], [-8.160657, 41.751074], [-8.15786, 41.742046], [-8.166952, 41.734187], [-8.178975, 41.734343], [-8.187805, 41.742262]], [[-8.117495, 41.732736], [-8.106519, 41.723645], [-8.110197, 41.714666], [-8.119164, 41.711428], [-8.131364, 41.698142], [-8.136058, 41.696849], [-8.143497, 41.689479], [-8.155455, 41.693876], [-8.161954, 41.706048], [-8.160719, 41.715046], [-8.142972, 41.728999], [-8.130899, 41.73268], [-8.117495, 41.732736]], [[-8.2394, 41.708804], [-8.227269, 41.71801], [-8.215214, 41.720804], [-8.203212, 41.719146], [-8.191295, 41.710811], [-8.184953, 41.697207], [-8.186457, 41.68821], [-8.191661, 41.681532], [-8.20376, 41.674708], [-8.215789, 41.673489], [-8.227769, 41.676261], [-8.233708, 41.679528], [-8.242164, 41.688591], [-8.244383, 41.697613], [-8.2394, 41.708804]], [[-8.096496, 41.613321], [-8.096442, 41.617225], [-8.084397, 41.620153], [-8.080086, 41.615351], [-8.084537, 41.610301], [-8.096496, 41.613321]]], [[[-7.872443, 41.849955], [-7.872443, 41.849955], [-7.872082, 41.850274], [-7.872443, 41.849955]]], [[[-7.871839, 41.850488], [-7.871839, 41.850488], [-7.871828, 41.850499], [-7.871839, 41.850488]]], [[[-7.870933, 41.851288], [-7.870933, 41.851288], [-7.87081, 41.851397], [-7.870933, 41.851288]]], [[[-7.870329, 41.851821], [-7.862714, 41.859931], [-7.865481, 41.859262], [-7.870329, 41.851821]]]]}}, {"id": "2", "type": "Feature", "properties": {"fill": "#ef6d48", "value_min": 0.73, "value_max": -0.8}, "geometry": {"type": "MultiPolygon", "coordinates": [[[[-7.862714, 41.859931], [-7.870329, 41.851821], [-7.87081, 41.851397], [-7.870933, 41.851288], [-7.871828, 41.850499], [-7.871839, 41.850488], [-7.872082, 41.850274], [-7.872443, 41.849955], [-7.873066, 41.844875], [-7.875254, 41.84758], [-7.888615, 41.836808], [-7.898418, 41.820913], [-7.898892, 41.811911], [-7.895252, 41.802869], [-7.889325, 41.795717], [-7.877427, 41.787827], [-7.841447, 41.780937], [-7.830316, 41.775206], [-7.824808, 41.766143], [-7.824464, 41.757133], [-7.830827, 41.748191], [-7.851335, 41.739391], [-7.866313, 41.73553], [-7.876366, 41.730631], [-7.88703, 41.721728], [-7.890794, 41.710464], [-7.899347, 41.703833], [-7.915291, 41.68331], [-7.927365, 41.679729], [-7.939341, 41.682112], [-7.98672, 41.704637], [-7.998318, 41.713745], [-7.994093, 41.731722], [-7.997948, 41.740763], [-8.010439, 41.74673], [-8.022485, 41.745519], [-8.030535, 41.741042], [-8.034047, 41.732065], [-8.03061, 41.723029], [-8.024366, 41.713969], [-8.02767, 41.70499], [-8.040234, 41.696089], [-8.047304, 41.693699], [-8.059318, 41.693898], [-8.071238, 41.700679], [-8.083235, 41.702184], [-8.088762, 41.696484], [-8.095363, 41.694347], [-8.107535, 41.683154], [-8.115612, 41.67868], [-8.119696, 41.672454], [-8.143851, 41.66276], [-8.155946, 41.656302], [-8.169626, 41.643054], [-8.174257, 41.634081], [-8.175157, 41.62508], [-8.171969, 41.61605], [-8.16853, 41.61172], [-8.156595, 41.606587], [-8.144582, 41.607446], [-8.132524, 41.611763], [-8.120391, 41.621404], [-8.105413, 41.642573], [-8.095997, 41.649024], [-8.083986, 41.649235], [-8.072015, 41.64656], [-8.060109, 41.639572], [-8.014304, 41.603372], [-8.005971, 41.60629], [-8.003562, 41.611239], [-7.998761, 41.612809], [-7.999669, 41.608759], [-7.996976, 41.605829], [-7.996684, 41.602003], [-7.984685, 41.603564], [-7.982292, 41.60086], [-7.975689, 41.603552], [-7.974482, 41.606701], [-7.970882, 41.607147], [-7.969091, 41.603768], [-7.965796, 41.602413], [-7.9541, 41.602846], [-7.952606, 41.600592], [-7.947808, 41.60081], [-7.945413, 41.599456], [-7.942725, 41.595625], [-7.936132, 41.594488], [-7.93791, 41.601694], [-7.937004, 41.603718], [-7.931604, 41.604384], [-7.930979, 41.612711], [-7.925556, 41.620354], [-7.920755, 41.620796], [-7.917748, 41.623041], [-7.915933, 41.627764], [-7.913229, 41.628885], [-7.912613, 41.63361], [-7.906014, 41.633147], [-7.906884, 41.641927], [-7.897869, 41.645511], [-7.89696, 41.647985], [-7.892759, 41.647976], [-7.892145, 41.651576], [-7.902319, 41.659925], [-7.899913, 41.66127], [-7.900198, 41.665547], [-7.898396, 41.665769], [-7.897186, 41.668467], [-7.892682, 41.668683], [-7.892377, 41.670033], [-7.888171, 41.670925], [-7.883969, 41.67069], [-7.880358, 41.673159], [-7.877044, 41.676077], [-7.876723, 41.681253], [-7.873401, 41.686198], [-7.868896, 41.686413], [-7.868008, 41.68326], [-7.864403, 41.683701], [-7.864096, 41.685276], [-7.858987, 41.68639], [-7.857773, 41.689538], [-7.854776, 41.68818], [-7.847538, 41.695365], [-7.837912, 41.698942], [-7.835792, 41.702763], [-7.839682, 41.705924], [-7.838465, 41.709522], [-7.832453, 41.710407], [-7.825252, 41.708813], [-7.818621, 41.713522], [-7.815291, 41.718689], [-7.808986, 41.717996], [-7.808396, 41.715744], [-7.804499, 41.714158], [-7.79939, 41.714593], [-7.79788, 41.716164], [-7.796383, 41.71526], [-7.790966, 41.717044], [-7.789449, 41.719966], [-7.78464, 41.720402], [-7.78252, 41.723546], [-7.776204, 41.724652], [-7.773786, 41.727346], [-7.770798, 41.72441], [-7.765698, 41.723044], [-7.761765, 41.727758], [-7.762933, 41.733839], [-7.759307, 41.737203], [-7.759597, 41.739005], [-7.75689, 41.739446], [-7.758687, 41.740577], [-7.757758, 41.745301], [-7.748417, 41.749321], [-7.747786, 41.754496], [-7.743866, 41.756509], [-7.740214, 41.763924], [-7.726937, 41.771755], [-7.7254, 41.777152], [-7.727191, 41.779184], [-7.724177, 41.780299], [-7.725372, 41.781653], [-7.722296, 41.792446], [-7.728879, 41.797871], [-7.72705, 41.801691], [-7.728171, 41.814974], [-7.732041, 41.821514], [-7.74345, 41.825605], [-7.738918, 41.82874], [-7.742196, 41.833928], [-7.74729, 41.837772], [-7.746349, 41.84407], [-7.750246, 41.846784], [-7.750532, 41.849261], [-7.743309, 41.849012], [-7.746901, 41.8524], [-7.746881, 41.855776], [-7.73843, 41.859348], [-7.734159, 41.868337], [-7.730228, 41.871024], [-7.729293, 41.875972], [-7.720533, 41.880218], [-7.720523, 41.881793], [-7.725335, 41.882935], [-7.726208, 41.887665], [-7.737044, 41.888828], [-7.73944, 41.891087], [-7.74246, 41.889747], [-7.742785, 41.885922], [-7.756022, 41.888441], [-7.758719, 41.890926], [-7.756592, 41.89407], [-7.758076, 41.897901], [-7.764097, 41.898595], [-7.779227, 41.886264], [-7.785257, 41.885157], [-7.788886, 41.882467], [-7.794007, 41.882257], [-7.796739, 41.878214], [-7.794349, 41.87438], [-7.797064, 41.873488], [-7.803381, 41.874857], [-7.804914, 41.869459], [-7.813032, 41.871958], [-7.814229, 41.873537], [-7.823863, 41.874013], [-7.825059, 41.875817], [-7.830479, 41.875831], [-7.830789, 41.874031], [-7.832894, 41.874712], [-7.83772, 41.872924], [-7.842528, 41.875187], [-7.841663, 41.866632], [-7.849515, 41.861475], [-7.858542, 41.862622], [-7.859456, 41.860148], [-7.862714, 41.859931]], [[-8.020205, 41.659892], [-8.023825, 41.656952], [-8.027978, 41.659958], [-8.02374, 41.662616], [-8.020205, 41.659892]]], [[[-8.082177, 41.563508], [-8.169052, 41.571019], [-8.229, 41.573035], [-8.253001, 41.572044], [-8.277027, 41.568684], [-8.297525, 41.562842], [-8.316718, 41.553951], [-8.329316, 41.545018], [-8.361544, 41.511905], [-8.367682, 41.500198], [-8.369971, 41.491203], [-8.369804, 41.482195], [-8.365314, 41.464156], [-8.365312, 41.455148], [-8.371172, 41.446173], [-8.38478, 41.437239], [-8.449631, 41.410545], [-8.464192, 41.401606], [-8.468914, 41.39262], [-8.468971, 41.374605], [-8.463916, 41.356567], [-8.459488, 41.347538], [-8.454155, 41.338506], [-8.438827, 41.320417], [-8.41609, 41.301973], [-8.407744, 41.304856], [-8.406262, 41.307335], [-8.402979, 41.307568], [-8.401801, 41.311398], [-8.399712, 41.311628], [-8.400316, 41.313202], [-8.396738, 41.314336], [-8.398835, 41.316131], [-8.393775, 41.31997], [-8.393489, 41.323122], [-8.391105, 41.324253], [-8.386325, 41.323588], [-8.380382, 41.331254], [-8.375305, 41.33104], [-8.37201, 41.328346], [-8.361563, 41.329718], [-8.358276, 41.329049], [-8.357673, 41.327249], [-8.350207, 41.327264], [-8.346032, 41.328847], [-8.342462, 41.333131], [-8.333215, 41.336299], [-8.326363, 41.342163], [-8.324568, 41.341041], [-8.323376, 41.341943], [-8.316788, 41.335876], [-8.313802, 41.336331], [-8.310792, 41.327557], [-8.308701, 41.327561], [-8.307502, 41.325762], [-8.305116, 41.326891], [-8.303024, 41.325994], [-8.303615, 41.323742], [-8.301216, 41.319694], [-8.296431, 41.316774], [-8.297618, 41.313846], [-8.295817, 41.310022], [-8.281801, 41.316569], [-8.279132, 41.324451], [-8.272266, 41.32536], [-8.265709, 41.331221], [-8.269004, 41.336169], [-8.263339, 41.340902], [-8.262751, 41.345405], [-8.256483, 41.347663], [-8.255889, 41.349689], [-8.249622, 41.353072], [-8.251123, 41.356897], [-8.248141, 41.360052], [-8.248448, 41.364328], [-8.245461, 41.364781], [-8.244272, 41.368384], [-8.241287, 41.370413], [-8.224854, 41.370878], [-8.21738, 41.368182], [-8.214399, 41.373587], [-8.208127, 41.376968], [-8.199163, 41.377423], [-8.194677, 41.374275], [-8.191691, 41.376302], [-8.189299, 41.375403], [-8.184818, 41.376756], [-8.168382, 41.377438], [-8.164499, 41.38059], [-8.152544, 41.375866], [-8.151049, 41.37339], [-8.145073, 41.374742], [-8.139694, 41.377894], [-8.133418, 41.374292], [-8.125051, 41.375193], [-8.119672, 41.376768], [-8.119672, 41.378569], [-8.116683, 41.380144], [-8.117877, 41.385771], [-8.113992, 41.386896], [-8.112795, 41.390723], [-8.110105, 41.390947], [-8.108011, 41.393648], [-8.103827, 41.392972], [-8.105321, 41.394998], [-8.10263, 41.396123], [-8.10801, 41.398825], [-8.108606, 41.403102], [-8.104419, 41.406252], [-8.104119, 41.408728], [-8.101727, 41.409403], [-8.102025, 41.411204], [-8.092756, 41.411201], [-8.09126, 41.414352], [-8.079893, 41.41975], [-8.077503, 41.416597], [-8.070923, 41.41862], [-8.066739, 41.416142], [-8.061654, 41.417489], [-8.059852, 41.424916], [-8.055959, 41.429415], [-8.05745, 41.432793], [-8.056549, 41.436394], [-8.069999, 41.447206], [-8.068788, 41.462286], [-8.073872, 41.46499], [-8.074468, 41.468141], [-8.073564, 41.474668], [-8.066374, 41.482318], [-8.066069, 41.48817], [-8.072054, 41.490199], [-8.07175, 41.494925], [-8.078333, 41.49898], [-8.078332, 41.500331], [-8.093, 41.504613], [-8.089398, 41.519242], [-8.090594, 41.522169], [-8.093588, 41.52307], [-8.091487, 41.531173], [-8.097775, 41.536127], [-8.097774, 41.537927], [-8.106759, 41.543106], [-8.10616, 41.543782], [-8.101666, 41.542655], [-8.094175, 41.544904], [-8.087885, 41.542876], [-8.083389, 41.5449], [-8.080687, 41.551651], [-8.074097, 41.549848], [-8.073494, 41.553449], [-8.075891, 41.554575], [-8.076188, 41.557276], [-8.079783, 41.558403], [-8.082177, 41.563508]]], [[[-8.117495, 41.732736], [-8.130899, 41.73268], [-8.142972, 41.728999], [-8.160719, 41.715046], [-8.161954, 41.706048], [-8.155455, 41.693876], [-8.143497, 41.689479], [-8.136058, 41.696849], [-8.131364, 41.698142], [-8.119164, 41.711428], [-8.110197, 41.714666], [-8.106519, 41.723645], [-8.117495, 41.732736]]], [[[-8.692782, 41.577974], [-8.696499, 41.564588], [-8.695969, 41.555579], [-8.693372, 41.546565], [-8.680506, 41.528515], [-8.655919, 41.510429], [-8.618287, 41.492296], [-8.605711, 41.483246], [-8.602906, 41.474229], [-8.603556, 41.447208], [-8.601656, 41.439849], [-8.595659, 41.429166], [-8.589788, 41.423523], [-8.577872, 41.415604], [-8.554002, 41.406592], [-8.530096, 41.403464], [-8.50615, 41.406014], [-8.495456, 41.410755], [-8.488738, 41.419733], [-8.48778, 41.428736], [-8.491201, 41.446766], [-8.5001, 41.46482], [-8.508221, 41.473863], [-8.540892, 41.50102], [-8.546385, 41.510049], [-8.54692, 41.519059], [-8.544204, 41.528055], [-8.536466, 41.537032], [-8.491016, 41.554854], [-8.456857, 41.578213], [-8.420783, 41.587958], [-8.408727, 41.594293], [-8.402671, 41.599466], [-8.39686, 41.608443], [-8.394089, 41.617435], [-8.394153, 41.626443], [-8.400101, 41.644488], [-8.396232, 41.647531], [-8.384231, 41.646762], [-8.372188, 41.650318], [-8.362746, 41.662302], [-8.364918, 41.671321], [-8.371938, 41.676037], [-8.383936, 41.677708], [-8.395998, 41.672612], [-8.40194, 41.662512], [-8.400946, 41.6535], [-8.408234, 41.648307], [-8.432196, 41.654558], [-8.456203, 41.656106], [-8.471618, 41.653847], [-8.5164, 41.636632], [-8.538743, 41.632178], [-8.536342, 41.631977], [-8.535128, 41.62973], [-8.543431, 41.61462], [-8.554533, 41.615255], [-8.557244, 41.617046], [-8.562639, 41.61635], [-8.568056, 41.619031], [-8.570735, 41.616095], [-8.577321, 41.614269], [-8.581231, 41.615829], [-8.585766, 41.620988], [-8.591462, 41.620515], [-8.596534, 41.616668], [-8.601628, 41.615972], [-8.603996, 41.611686], [-8.613256, 41.606696], [-8.619881, 41.610269], [-8.621338, 41.604636], [-8.628833, 41.604378], [-8.636302, 41.600744], [-8.639873, 41.597352], [-8.640152, 41.59465], [-8.645536, 41.593051], [-8.646744, 41.594171], [-8.649125, 41.591909], [-8.656622, 41.5921], [-8.660788, 41.588255], [-8.663794, 41.589141], [-8.665265, 41.585758], [-8.66948, 41.587989], [-8.684455, 41.586117], [-8.685608, 41.58071], [-8.692782, 41.577974]]]]}}, {"id": "3", "type": "Feature", "properties": {"fill": "#e85c3f", "value_min": 0.8, "value_max": -0.87}, "geometry": {"type": "Polygon", "coordinates": [[[-8.020205, 41.659892], [-8.02374, 41.662616], [-8.027978, 41.659958], [-8.023825, 41.656952], [-8.020205, 41.659892]]]}}]}