{"type": "FeatureCollection", "features": [{"id": "4", "type": "Feature", "properties": {"fill": "#ef6d48", "value_min": 0.73, "value_max": 0.8}, "geometry": {"type": "MultiPolygon", "coordinates": [[[[-8.621069, 41.608816], [-8.600683, 41.5982], [-8.588735, 41.590172], [-8.559915, 41.564146], [-8.540998, 41.554145], [-8.529021, 41.552129], [-8.517025, 41.552809], [-8.505008, 41.556308], [-8.480907, 41.570921], [-8.475532, 41.572799], [-8.456878, 41.575691], [-8.444887, 41.575203], [-8.426124, 41.572563], [-8.337178, 41.550965], [-8.325246, 41.545343], [-8.313354, 41.536067], [-8.301556, 41.51845], [-8.297391, 41.508798], [-8.283024, 41.472679], [-8.278509, 41.454636], [-8.28037, 41.436633], [-8.290228, 41.409672], [-8.292337, 41.39167], [-8.290242, 41.355627], [-8.283819, 41.316567], [-8.281801, 41.316569], [-8.279132, 41.324451], [-8.272266, 41.32536], [-8.265709, 41.331221], [-8.269004, 41.336169], [-8.263339, 41.340902], [-8.262751, 41.345405], [-8.256483, 41.347663], [-8.253242, 41.351268], [-8.263322, 41.364465], [-8.266303, 41.373492], [-8.266743, 41.382502], [-8.264646, 41.391496], [-8.259454, 41.40047], [-8.254912, 41.405462], [-8.242852, 41.413753], [-8.23084, 41.417667], [-8.218858, 41.419028], [-8.206907, 41.417743], [-8.194985, 41.41415], [-8.183106, 41.407232], [-8.174598, 41.399893], [-8.168025, 41.390838], [-8.164439, 41.38059], [-8.152544, 41.375866], [-8.151049, 41.37339], [-8.145073, 41.374742], [-8.139694, 41.377894], [-8.133418, 41.374292], [-8.119672, 41.376768], [-8.119672, 41.378569], [-8.116683, 41.380144], [-8.117578, 41.386447], [-8.113992, 41.386896], [-8.112795, 41.390723], [-8.110105, 41.390947], [-8.108011, 41.393648], [-8.103827, 41.392972], [-8.105321, 41.394998], [-8.10263, 41.396123], [-8.10801, 41.398825], [-8.108606, 41.403102], [-8.104419, 41.406252], [-8.104119, 41.408728], [-8.101727, 41.409403], [-8.102025, 41.411204], [-8.092756, 41.411201], [-8.09126, 41.414352], [-8.079893, 41.41975], [-8.077503, 41.416597], [-8.070923, 41.41862], [-8.066739, 41.416142], [-8.061953, 41.417264], [-8.059852, 41.424916], [-8.055959, 41.429415], [-8.05655, 41.435537], [-8.075118, 41.429165], [-8.087105, 41.427813], [-8.111016, 41.429639], [-8.122942, 41.432805], [-8.134847, 41.437592], [-8.146724, 41.444632], [-8.156689, 41.453808], [-8.162262, 41.462856], [-8.164588, 41.47188], [-8.162541, 41.48988], [-8.157965, 41.501128], [-8.138593, 41.53474], [-8.13348, 41.540261], [-8.121386, 41.548002], [-8.109355, 41.55099], [-8.097365, 41.550955], [-8.083279, 41.547151], [-8.080687, 41.551651], [-8.074396, 41.549848], [-8.072897, 41.551197], [-8.076188, 41.557276], [-8.080082, 41.558854], [-8.081576, 41.565157], [-8.078879, 41.56493], [-8.075279, 41.568305], [-8.073182, 41.568079], [-8.069283, 41.570553], [-8.068081, 41.573478], [-8.056684, 41.579549], [-8.052181, 41.584498], [-8.052777, 41.587649], [-8.048277, 41.590122], [-8.047974, 41.592373], [-8.031467, 41.602938], [-8.02367, 41.603156], [-8.019174, 41.601802], [-8.015872, 41.603824], [-8.013474, 41.603372], [-8.005971, 41.60629], [-8.003562, 41.611239], [-7.998761, 41.612809], [-7.999669, 41.608759], [-7.996976, 41.605829], [-7.996684, 41.602003], [-7.984685, 41.603564], [-7.982292, 41.60086], [-7.975689, 41.603552], [-7.974482, 41.606701], [-7.970882, 41.607147], [-7.969091, 41.603768], [-7.965796, 41.602413], [-7.9541, 41.602846], [-7.952606, 41.600592], [-7.947808, 41.60081], [-7.945413, 41.599456], [-7.942725, 41.595625], [-7.936132, 41.594488], [-7.93791, 41.601694], [-7.937004, 41.603718], [-7.931604, 41.604384], [-7.930979, 41.612711], [-7.925556, 41.620354], [-7.920755, 41.620796], [-7.917748, 41.623041], [-7.915933, 41.627764], [-7.913229, 41.628885], [-7.912613, 41.63361], [-7.906014, 41.633147], [-7.906884, 41.641927], [-7.897869, 41.645511], [-7.89696, 41.647985], [-7.892759, 41.647976], [-7.892145, 41.651576], [-7.900827, 41.657446], [-7.902319, 41.66015], [-7.900515, 41.660841], [-7.927412, 41.676942], [-7.96304, 41.702711], [-7.974972, 41.708166], [-7.986949, 41.710872], [-8.022994, 41.711914], [-8.042207, 41.696106], [-8.0473, 41.693971], [-8.059336, 41.692662], [-8.068301, 41.69632], [-8.071161, 41.705973], [-8.067204, 41.714325], [-8.058917, 41.721376], [-8.052212, 41.723209], [-8.046779, 41.729218], [-8.03947, 41.759131], [-8.038921, 41.777141], [-8.048446, 41.821276], [-8.057314, 41.815656], [-8.06664, 41.817012], [-8.072961, 41.813414], [-8.078678, 41.813417], [-8.082892, 41.810493], [-8.091013, 41.812521], [-8.093421, 41.811397], [-8.093723, 41.808471], [-8.101845, 41.809824], [-8.104853, 41.81185], [-8.115984, 41.812302], [-8.123807, 41.808702], [-8.132334, 41.808927], [-8.112021, 41.786736], [-8.103466, 41.768655], [-8.10093, 41.750622], [-8.106859, 41.723647], [-8.11138, 41.714675], [-8.119174, 41.710715], [-8.133567, 41.696831], [-8.151892, 41.669946], [-8.192224, 41.636503], [-8.216406, 41.622603], [-8.228458, 41.61856], [-8.252512, 41.614384], [-8.300553, 41.611508], [-8.408724, 41.594682], [-8.432742, 41.592391], [-8.444738, 41.59263], [-8.4687, 41.596903], [-8.48066, 41.601808], [-8.492622, 41.608905], [-8.51363, 41.62701], [-8.533112, 41.65202], [-8.537951, 41.649302], [-8.537634, 41.646602], [-8.543876, 41.637352], [-8.543855, 41.633976], [-8.536342, 41.631977], [-8.535132, 41.630406], [-8.543431, 41.61462], [-8.554533, 41.615255], [-8.557244, 41.617046], [-8.562639, 41.61635], [-8.568056, 41.619031], [-8.570735, 41.616095], [-8.577321, 41.614269], [-8.581231, 41.615829], [-8.586066, 41.620987], [-8.591462, 41.620515], [-8.596534, 41.616668], [-8.601628, 41.615972], [-8.603996, 41.611686], [-8.613256, 41.606696], [-8.616863, 41.607806], [-8.61778, 41.610053], [-8.621069, 41.608816]], [[-8.083372, 41.692539], [-8.074168, 41.68736], [-8.072638, 41.678341], [-8.083743, 41.666396], [-8.095764, 41.665732], [-8.101822, 41.669566], [-8.105952, 41.678605], [-8.099594, 41.687563], [-8.095417, 41.690535], [-8.083372, 41.692539]], [[-8.008465, 41.686812], [-7.999369, 41.685106], [-7.985089, 41.677601], [-7.97648, 41.668518], [-7.971663, 41.659468], [-7.970003, 41.650446], [-7.971172, 41.641449], [-7.975588, 41.632482], [-7.98429, 41.623552], [-8.000439, 41.615942], [-8.012462, 41.614575], [-8.024448, 41.615638], [-8.036395, 41.619393], [-8.048285, 41.627094], [-8.061932, 41.642226], [-8.064499, 41.651254], [-8.05703, 41.669207], [-8.047279, 41.678134], [-8.035432, 41.683989], [-8.023375, 41.686745], [-8.008465, 41.686812]], [[-8.241237, 41.552273], [-8.229261, 41.551097], [-8.214649, 41.544292], [-8.204178, 41.535212], [-8.198339, 41.526165], [-8.195601, 41.517138], [-8.19681, 41.499132], [-8.20097, 41.490154], [-8.208709, 41.4812], [-8.21819, 41.474689], [-8.230205, 41.471432], [-8.242178, 41.471652], [-8.254118, 41.474835], [-8.26601, 41.482324], [-8.277818, 41.49762], [-8.28144, 41.508699], [-8.281736, 41.517708], [-8.279552, 41.526702], [-8.274309, 41.535676], [-8.265309, 41.544381], [-8.253247, 41.550653], [-8.241237, 41.552273]]], [[[-7.831172, 41.874032], [-7.822324, 41.856185], [-7.80952, 41.83804], [-7.792569, 41.820657], [-7.780684, 41.812453], [-7.768732, 41.807873], [-7.72732, 41.806682], [-7.728171, 41.814974], [-7.732041, 41.821514], [-7.74345, 41.825605], [-7.738919, 41.828515], [-7.740704, 41.831905], [-7.756253, 41.830696], [-7.768261, 41.832492], [-7.780278, 41.837733], [-7.790807, 41.846851], [-7.796295, 41.855915], [-7.798354, 41.864943], [-7.797552, 41.87394], [-7.803381, 41.874857], [-7.804914, 41.869459], [-7.813032, 41.871958], [-7.814229, 41.873537], [-7.823863, 41.874013], [-7.825059, 41.875817], [-7.830479, 41.875831], [-7.831172, 41.874032]]], [[[-7.796236, 41.877087], [-7.796236, 41.877087], [-7.79539, 41.87911], [-7.796236, 41.877087]]], [[[-7.795226, 41.879502], [-7.795226, 41.879502], [-7.795108, 41.879784], [-7.795226, 41.879502]]], [[[-7.794921, 41.880231], [-7.794921, 41.880231], [-7.794356, 41.881583], [-7.794921, 41.880231]]], [[[-7.794311, 41.881689], [-7.794311, 41.881689], [-7.794167, 41.882032], [-7.794311, 41.881689]]], [[[-8.323475, 41.763976], [-8.324463, 41.752154], [-8.321803, 41.743131], [-8.315284, 41.734085], [-8.311286, 41.730677], [-8.299322, 41.725148], [-8.287311, 41.724082], [-8.275256, 41.726886], [-8.263887, 41.733767], [-8.256576, 41.742727], [-8.253826, 41.751717], [-8.254519, 41.760728], [-8.261359, 41.774235], [-8.271366, 41.766346], [-8.280681, 41.764083], [-8.284038, 41.761109], [-8.284931, 41.757507], [-8.287033, 41.756829], [-8.298457, 41.757263], [-8.300866, 41.758835], [-8.305674, 41.758152], [-8.311096, 41.762195], [-8.318308, 41.761283], [-8.323475, 41.763976]]], [[[-7.836545, 41.709517], [-7.837683, 41.712233], [-7.842637, 41.71472], [-7.854633, 41.716138], [-7.860939, 41.712466], [-7.864976, 41.703499], [-7.855057, 41.692274], [-7.849953, 41.692472], [-7.847538, 41.695365], [-7.837309, 41.699391], [-7.835792, 41.702763], [-7.839679, 41.706599], [-7.838465, 41.709522], [-7.836545, 41.709517]]]]}}, {"id": "5", "type": "Feature", "properties": {"fill": "#e85c3f", "value_min": 0.8, "value_max": 0.87}, "geometry": {"type": "MultiPolygon", "coordinates": [[[[-8.048446, 41.821276], [-8.038921, 41.777141], [-8.03947, 41.759131], [-8.046779, 41.729218], [-8.052212, 41.723209], [-8.058917, 41.721376], [-8.067204, 41.714325], [-8.071161, 41.705973], [-8.068301, 41.69632], [-8.059336, 41.692662], [-8.0473, 41.693971], [-8.042207, 41.696106], [-8.022994, 41.711914], [-7.986949, 41.710872], [-7.974972, 41.708166], [-7.96304, 41.702711], [-7.927412, 41.676942], [-7.900515, 41.660841], [-7.900198, 41.665547], [-7.898396, 41.665769], [-7.896885, 41.668692], [-7.883969, 41.67069], [-7.877044, 41.676077], [-7.876723, 41.681253], [-7.873401, 41.686198], [-7.868896, 41.686413], [-7.868008, 41.68326], [-7.864403, 41.683701], [-7.864096, 41.685276], [-7.858987, 41.68639], [-7.857773, 41.689538], [-7.854776, 41.68818], [-7.849953, 41.692472], [-7.855057, 41.692274], [-7.864976, 41.703499], [-7.860939, 41.712466], [-7.854633, 41.716138], [-7.842637, 41.71472], [-7.837683, 41.712233], [-7.836545, 41.709517], [-7.832453, 41.710407], [-7.825252, 41.708813], [-7.818621, 41.713522], [-7.815291, 41.718689], [-7.808986, 41.717996], [-7.808396, 41.715744], [-7.804499, 41.714158], [-7.79939, 41.714593], [-7.79788, 41.716164], [-7.796383, 41.71526], [-7.790966, 41.717044], [-7.789449, 41.719966], [-7.78464, 41.720402], [-7.78252, 41.723546], [-7.776204, 41.724652], [-7.773786, 41.727346], [-7.7678, 41.723276], [-7.763888, 41.724389], [-7.761765, 41.727758], [-7.762933, 41.733839], [-7.759307, 41.737203], [-7.759597, 41.739005], [-7.75689, 41.739446], [-7.758687, 41.740577], [-7.757758, 41.745301], [-7.748417, 41.749321], [-7.747786, 41.754496], [-7.743866, 41.756509], [-7.740214, 41.763924], [-7.726937, 41.771755], [-7.7254, 41.777152], [-7.727191, 41.779184], [-7.724177, 41.780299], [-7.725372, 41.781653], [-7.722296, 41.792446], [-7.728879, 41.797871], [-7.72732, 41.806682], [-7.768732, 41.807873], [-7.780684, 41.812453], [-7.792569, 41.820657], [-7.80952, 41.83804], [-7.822324, 41.856185], [-7.831172, 41.874032], [-7.832894, 41.874712], [-7.838021, 41.872924], [-7.842528, 41.875187], [-7.841663, 41.866632], [-7.849515, 41.861475], [-7.858542, 41.862622], [-7.859456, 41.860148], [-7.864877, 41.859711], [-7.872444, 41.849691], [-7.852363, 41.843599], [-7.840475, 41.834906], [-7.8297, 41.820234], [-7.826966, 41.811199], [-7.826846, 41.802191], [-7.832384, 41.784234], [-7.834943, 41.757239], [-7.843075, 41.748315], [-7.854145, 41.743606], [-7.866196, 41.74221], [-7.87818, 41.744638], [-7.886329, 41.748742], [-7.895988, 41.757842], [-7.901857, 41.766664], [-7.913827, 41.770278], [-7.926007, 41.767134], [-7.932328, 41.758186], [-7.938145, 41.754766], [-7.950174, 41.754729], [-7.954348, 41.758388], [-7.95422, 41.767394], [-7.961882, 41.774642], [-7.969555, 41.785546], [-7.970605, 41.794562], [-7.966617, 41.803533], [-7.961319, 41.809532], [-7.949148, 41.817607], [-7.938058, 41.821286], [-7.916909, 41.839103], [-7.896926, 41.847919], [-7.888388, 41.849926], [-7.877559, 41.850357], [-7.879956, 41.853217], [-7.888076, 41.855486], [-7.891675, 41.859094], [-7.900698, 41.861588], [-7.904318, 41.859795], [-7.907309, 41.865203], [-7.906095, 41.868126], [-7.910299, 41.871285], [-7.909985, 41.875111], [-7.915391, 41.879397], [-7.921118, 41.877833], [-7.928044, 41.87807], [-7.935283, 41.874707], [-7.937389, 41.87516], [-7.941618, 41.870891], [-7.951254, 41.871132], [-7.956367, 41.87339], [-7.956362, 41.875191], [-7.960878, 41.875648], [-7.962086, 41.874074], [-7.973828, 41.875216], [-7.987996, 41.869157], [-7.990123, 41.860157], [-7.995547, 41.858138], [-7.994047, 41.855211], [-7.996162, 41.851837], [-8.003089, 41.850494], [-8.005804, 41.847346], [-8.007928, 41.838796], [-8.012753, 41.833624], [-8.013363, 41.829124], [-8.017873, 41.831379], [-8.02901, 41.829589], [-8.037134, 41.831171], [-8.041351, 41.828023], [-8.041054, 41.825097], [-8.045268, 41.824425], [-8.048446, 41.821276]], [[-7.944006, 41.839355], [-7.948848, 41.835953], [-7.952859, 41.839436], [-7.948741, 41.842504], [-7.944006, 41.839355]]], [[[-8.083372, 41.692539], [-8.095417, 41.690535], [-8.099594, 41.687563], [-8.105952, 41.678605], [-8.101822, 41.669566], [-8.095764, 41.665732], [-8.083743, 41.666396], [-8.072638, 41.678341], [-8.074168, 41.68736], [-8.083372, 41.692539]]], [[[-8.621069, 41.608816], [-8.621338, 41.604636], [-8.628833, 41.604378], [-8.636302, 41.600744], [-8.639873, 41.597352], [-8.640152, 41.59465], [-8.645536, 41.593051], [-8.646744, 41.594171], [-8.649125, 41.591909], [-8.656622, 41.5921], [-8.660788, 41.588255], [-8.663794, 41.589141], [-8.665265, 41.585758], [-8.66948, 41.587989], [-8.684455, 41.586117], [-8.685608, 41.58071], [-8.697261, 41.576376], [-8.701703, 41.570277], [-8.707704, 41.570923], [-8.712485, 41.569323], [-8.716422, 41.573805], [-8.720316, 41.57356], [-8.725151, 41.577811], [-8.726633, 41.576003], [-8.734424, 41.575737], [-8.736564, 41.580228], [-8.738354, 41.579318], [-8.740778, 41.582006], [-8.74467, 41.581535], [-8.750711, 41.58623], [-8.75993, 41.578527], [-8.767441, 41.580286], [-8.769874, 41.583874], [-8.768997, 41.58613], [-8.773228, 41.589482], [-8.774165, 41.593303], [-8.78556, 41.593464], [-8.797327, 41.600599], [-8.804218, 41.600109], [-8.80456, 41.604158], [-8.809434, 41.611332], [-8.828644, 41.609656], [-8.82839, 41.585633], [-8.818497, 41.554794], [-8.8221, 41.547542], [-8.821965, 41.534907], [-8.815926, 41.525624], [-8.81063, 41.5101], [-8.813279, 41.503483], [-8.812636, 41.496944], [-8.804699, 41.482068], [-8.798552, 41.474753], [-8.80154, 41.446836], [-8.806115, 41.43713], [-8.807354, 41.425915], [-8.811211, 41.415789], [-8.799695, 41.14406], [-8.674793, 41.146932], [-8.674849, 41.153767], [-8.672489, 41.15648], [-8.66117, 41.156307], [-8.662078, 41.158104], [-8.660313, 41.160813], [-8.657033, 41.160378], [-8.654961, 41.161963], [-8.653231, 41.169174], [-8.655366, 41.175467], [-8.647955, 41.180228], [-8.647696, 41.185181], [-8.640929, 41.196241], [-8.634946, 41.193341], [-8.632526, 41.188624], [-8.625658, 41.186628], [-8.621132, 41.178994], [-8.613374, 41.177451], [-8.608583, 41.174095], [-8.609164, 41.172066], [-8.604942, 41.164881], [-8.59422, 41.165149], [-8.589174, 41.167645], [-8.589194, 41.170572], [-8.583263, 41.174422], [-8.582094, 41.177803], [-8.578825, 41.178941], [-8.581296, 41.191762], [-8.575958, 41.195609], [-8.576894, 41.201908], [-8.574515, 41.202593], [-8.57423, 41.20462], [-8.567971, 41.204644], [-8.565895, 41.206227], [-8.567697, 41.208246], [-8.566512, 41.209376], [-8.559636, 41.206251], [-8.554271, 41.20627], [-8.549521, 41.209214], [-8.544157, 41.209458], [-8.54238, 41.211265], [-8.532257, 41.213102], [-8.52713, 41.203215], [-8.523236, 41.200077], [-8.51163, 41.203042], [-8.510456, 41.206197], [-8.505693, 41.207113], [-8.504239, 41.213646], [-8.500076, 41.21546], [-8.50308, 41.219502], [-8.502204, 41.222656], [-8.495642, 41.222227], [-8.495947, 41.223351], [-8.490894, 41.226294], [-8.487935, 41.230354], [-8.490331, 41.232373], [-8.489156, 41.235528], [-8.486181, 41.236888], [-8.484411, 41.240495], [-8.476346, 41.237818], [-8.475756, 41.23917], [-8.470986, 41.23941], [-8.471604, 41.243459], [-8.469227, 41.245267], [-8.463258, 41.244384], [-8.459989, 41.246644], [-8.454323, 41.246886], [-8.455541, 41.251834], [-8.452276, 41.25522], [-8.449891, 41.255452], [-8.449304, 41.257479], [-8.447812, 41.257258], [-8.449028, 41.261982], [-8.439785, 41.262907], [-8.438023, 41.268989], [-8.434745, 41.269673], [-8.432691, 41.277107], [-8.427032, 41.279372], [-8.429143, 41.284319], [-8.426171, 41.287028], [-8.426488, 41.291079], [-8.425013, 41.294909], [-8.422037, 41.296942], [-8.422647, 41.299867], [-8.407744, 41.304856], [-8.406262, 41.307335], [-8.403277, 41.307342], [-8.401801, 41.311398], [-8.399712, 41.311628], [-8.400316, 41.313202], [-8.396738, 41.314336], [-8.398835, 41.316131], [-8.393775, 41.31997], [-8.393489, 41.323122], [-8.391105, 41.324253], [-8.386325, 41.323588], [-8.380677, 41.330132], [-8.399125, 41.33526], [-8.415588, 41.347324], [-8.421574, 41.356362], [-8.424661, 41.365385], [-8.425223, 41.374395], [-8.418972, 41.392379], [-8.410474, 41.402], [-8.398836, 41.410291], [-8.386413, 41.416306], [-8.374427, 41.418375], [-8.362466, 41.417846], [-8.350535, 41.414249], [-8.338644, 41.406953], [-8.326804, 41.394891], [-8.320854, 41.382834], [-8.319984, 41.364814], [-8.327277, 41.348995], [-8.339341, 41.338125], [-8.35135, 41.332282], [-8.363325, 41.329747], [-8.373806, 41.329428], [-8.365142, 41.32836], [-8.361563, 41.329718], [-8.358276, 41.329049], [-8.357673, 41.327249], [-8.350207, 41.327264], [-8.346032, 41.328847], [-8.342462, 41.333131], [-8.333215, 41.336299], [-8.326363, 41.342163], [-8.324568, 41.341041], [-8.323376, 41.341943], [-8.320676, 41.338121], [-8.312604, 41.334983], [-8.313794, 41.333405], [-8.31139, 41.328007], [-8.307502, 41.325762], [-8.305116, 41.326891], [-8.303024, 41.325994], [-8.303615, 41.323742], [-8.301216, 41.319694], [-8.296431, 41.316774], [-8.297618, 41.313846], [-8.296116, 41.310022], [-8.292241, 41.312504], [-8.288361, 41.312959], [-8.283819, 41.316567], [-8.290242, 41.355627], [-8.292337, 41.39167], [-8.290228, 41.409672], [-8.28037, 41.436633], [-8.278509, 41.454636], [-8.283024, 41.472679], [-8.297391, 41.508798], [-8.301556, 41.51845], [-8.313354, 41.536067], [-8.325246, 41.545343], [-8.337178, 41.550965], [-8.426124, 41.572563], [-8.444887, 41.575203], [-8.456878, 41.575691], [-8.475532, 41.572799], [-8.480907, 41.570921], [-8.505008, 41.556308], [-8.517025, 41.552809], [-8.529021, 41.552129], [-8.540998, 41.554145], [-8.559915, 41.564146], [-8.588735, 41.590172], [-8.600683, 41.5982], [-8.621069, 41.608816]], [[-8.457067, 41.553204], [-8.445091, 41.551332], [-8.437866, 41.5456], [-8.435148, 41.509557], [-8.439238, 41.500569], [-8.457664, 41.481743], [-8.469695, 41.475127], [-8.48168, 41.474099], [-8.493643, 41.475918], [-8.50558, 41.481127], [-8.520141, 41.491928], [-8.526501, 41.500962], [-8.527641, 41.509974], [-8.524383, 41.518968], [-8.514747, 41.527935], [-8.505184, 41.533118], [-8.481149, 41.540707], [-8.457067, 41.553204]], [[-8.697014, 41.526625], [-8.673038, 41.527298], [-8.661063, 41.525125], [-8.625211, 41.506748], [-8.618795, 41.501305], [-8.612617, 41.492277], [-8.609974, 41.48326], [-8.610255, 41.474254], [-8.616018, 41.456258], [-8.621445, 41.447269], [-8.637606, 41.432774], [-8.649604, 41.427421], [-8.661589, 41.424077], [-8.685533, 41.422159], [-8.709451, 41.425756], [-8.721399, 41.430461], [-8.734385, 41.438577], [-8.743431, 41.447605], [-8.749112, 41.456625], [-8.752224, 41.46564], [-8.751979, 41.483654], [-8.7428, 41.501649], [-8.733708, 41.510636], [-8.72102, 41.51876], [-8.709013, 41.523748], [-8.697014, 41.526625]], [[-8.34946, 41.521881], [-8.337489, 41.52051], [-8.325549, 41.516133], [-8.313664, 41.506784], [-8.304772, 41.490828], [-8.303387, 41.481812], [-8.304483, 41.472811], [-8.3086, 41.463829], [-8.314191, 41.45682], [-8.326256, 41.447966], [-8.338283, 41.442547], [-8.350284, 41.439521], [-8.362259, 41.439014], [-8.374202, 41.441808], [-8.391043, 41.455287], [-8.395422, 41.464318], [-8.397067, 41.491349], [-8.395605, 41.500348], [-8.388028, 41.509316], [-8.370362, 41.518228], [-8.34946, 41.521881]]], [[[-8.083279, 41.547151], [-8.097365, 41.550955], [-8.109355, 41.55099], [-8.121386, 41.548002], [-8.13348, 41.540261], [-8.138593, 41.53474], [-8.157965, 41.501128], [-8.162541, 41.48988], [-8.164588, 41.47188], [-8.162262, 41.462856], [-8.156689, 41.453808], [-8.146724, 41.444632], [-8.134847, 41.437592], [-8.122942, 41.432805], [-8.111016, 41.429639], [-8.087105, 41.427813], [-8.075118, 41.429165], [-8.05655, 41.435537], [-8.057743, 41.438645], [-8.061033, 41.438872], [-8.064916, 41.444052], [-8.067908, 41.444279], [-8.069999, 41.447206], [-8.068788, 41.462286], [-8.073872, 41.46499], [-8.074468, 41.468141], [-8.073564, 41.474668], [-8.066374, 41.482318], [-8.066069, 41.48817], [-8.072054, 41.490199], [-8.07175, 41.494925], [-8.078333, 41.49898], [-8.078332, 41.500331], [-8.093, 41.504613], [-8.089398, 41.519242], [-8.090594, 41.522169], [-8.093588, 41.52307], [-8.091487, 41.531173], [-8.097775, 41.536127], [-8.097774, 41.537927], [-8.106759, 41.543106], [-8.10616, 41.543782], [-8.101666, 41.542655], [-8.094175, 41.544904], [-8.087885, 41.542876], [-8.083389, 41.5449], [-8.083279, 41.547151]]]]}}, {"id": "6", "type": "Feature", "properties": {"fill": "#e14a35", "value_min": 0.87, "value_max": 0.93}, "geometry": {"type": "MultiPolygon", "coordinates": [[[[-7.877559, 41.850357], [-7.888388, 41.849926], [-7.896926, 41.847919], [-7.916909, 41.839103], [-7.938058, 41.821286], [-7.949148, 41.817607], [-7.961319, 41.809532], [-7.966617, 41.803533], [-7.970605, 41.794562], [-7.969555, 41.785546], [-7.961882, 41.774642], [-7.95422, 41.767394], [-7.954348, 41.758388], [-7.950174, 41.754729], [-7.938145, 41.754766], [-7.932328, 41.758186], [-7.926007, 41.767134], [-7.913827, 41.770278], [-7.901857, 41.766664], [-7.895988, 41.757842], [-7.886329, 41.748742], [-7.87818, 41.744638], [-7.866196, 41.74221], [-7.854145, 41.743606], [-7.843075, 41.748315], [-7.834943, 41.757239], [-7.832384, 41.784234], [-7.826846, 41.802191], [-7.826966, 41.811199], [-7.8297, 41.820234], [-7.840475, 41.834906], [-7.852363, 41.843599], [-7.872444, 41.849691], [-7.873367, 41.844875], [-7.877559, 41.850357]], [[-7.864786, 41.822172], [-7.862149, 41.82056], [-7.856882, 41.811501], [-7.865142, 41.802018], [-7.877181, 41.80195], [-7.885649, 41.811783], [-7.880032, 41.820735], [-7.876821, 41.822548], [-7.864786, 41.822172]]], [[[-7.944006, 41.839355], [-7.948741, 41.842504], [-7.952859, 41.839436], [-7.948848, 41.835953], [-7.944006, 41.839355]]], [[[-8.457067, 41.553204], [-8.481149, 41.540707], [-8.505184, 41.533118], [-8.514747, 41.527935], [-8.524383, 41.518968], [-8.527641, 41.509974], [-8.526501, 41.500962], [-8.520141, 41.491928], [-8.50558, 41.481127], [-8.493643, 41.475918], [-8.48168, 41.474099], [-8.469695, 41.475127], [-8.457664, 41.481743], [-8.439238, 41.500569], [-8.435148, 41.509557], [-8.437866, 41.5456], [-8.445091, 41.551332], [-8.457067, 41.553204]], [[-8.478222, 41.518768], [-8.472738, 41.509735], [-8.481447, 41.503394], [-8.493393, 41.50793], [-8.494867, 41.509835], [-8.49335, 41.513532], [-8.487416, 41.518809], [-8.481313, 41.520121], [-8.478222, 41.518768]]], [[[-8.697014, 41.526625], [-8.709013, 41.523748], [-8.72102, 41.51876], [-8.733708, 41.510636], [-8.7428, 41.501649], [-8.751979, 41.483654], [-8.752224, 41.46564], [-8.749112, 41.456625], [-8.743431, 41.447605], [-8.734385, 41.438577], [-8.721399, 41.430461], [-8.709451, 41.425756], [-8.685533, 41.422159], [-8.661589, 41.424077], [-8.649604, 41.427421], [-8.637606, 41.432774], [-8.621445, 41.447269], [-8.616018, 41.456258], [-8.610255, 41.474254], [-8.609974, 41.48326], [-8.612617, 41.492277], [-8.618795, 41.501305], [-8.625211, 41.506748], [-8.661063, 41.525125], [-8.673038, 41.527298], [-8.697014, 41.526625]], [[-8.673222, 41.490662], [-8.661247, 41.489767], [-8.652114, 41.483395], [-8.650169, 41.474382], [-8.661379, 41.464403], [-8.673356, 41.463958], [-8.677167, 41.465453], [-8.686862, 41.474488], [-8.685579, 41.483492], [-8.673222, 41.490662]]], [[[-8.34946, 41.521881], [-8.370362, 41.518228], [-8.388028, 41.509316], [-8.395605, 41.500348], [-8.397067, 41.491349], [-8.395422, 41.464318], [-8.391043, 41.455287], [-8.374202, 41.441808], [-8.362259, 41.439014], [-8.350284, 41.439521], [-8.338283, 41.442547], [-8.326256, 41.447966], [-8.314191, 41.45682], [-8.3086, 41.463829], [-8.304483, 41.472811], [-8.303387, 41.481812], [-8.304772, 41.490828], [-8.313664, 41.506784], [-8.325549, 41.516133], [-8.337489, 41.52051], [-8.34946, 41.521881]], [[-8.337646, 41.505153], [-8.325717, 41.49995], [-8.319379, 41.490915], [-8.319067, 41.481906], [-8.326008, 41.471931], [-8.338034, 41.466984], [-8.350005, 41.467439], [-8.361915, 41.474104], [-8.367089, 41.48218], [-8.366969, 41.491187], [-8.360001, 41.500156], [-8.34963, 41.504967], [-8.337646, 41.505153]]], [[[-8.373806, 41.329428], [-8.363325, 41.329747], [-8.35135, 41.332282], [-8.339341, 41.338125], [-8.327277, 41.348995], [-8.319984, 41.364814], [-8.320854, 41.382834], [-8.326804, 41.394891], [-8.338644, 41.406953], [-8.350535, 41.414249], [-8.362466, 41.417846], [-8.374427, 41.418375], [-8.386413, 41.416306], [-8.398836, 41.410291], [-8.410474, 41.402], [-8.418972, 41.392379], [-8.425223, 41.374395], [-8.424661, 41.365385], [-8.421574, 41.356362], [-8.415588, 41.347324], [-8.399125, 41.33526], [-8.380677, 41.330132], [-8.380382, 41.331254], [-8.377097, 41.331261], [-8.373806, 41.329428]], [[-8.355856, 41.374028], [-8.362943, 41.369016], [-8.368711, 41.374099], [-8.362849, 41.378633], [-8.355856, 41.374028]]]]}}, {"id": "7", "type": "Feature", "properties": {"fill": "#da382b", "value_min": 0.93, "value_max": 1.0}, "geometry": {"type": "MultiPolygon", "coordinates": [[[[-7.864786, 41.822172], [-7.876821, 41.822548], [-7.880032, 41.820735], [-7.885649, 41.811783], [-7.877181, 41.80195], [-7.865142, 41.802018], [-7.856882, 41.811501], [-7.862149, 41.82056], [-7.864786, 41.822172]]], [[[-8.478222, 41.518768], [-8.481313, 41.520121], [-8.487416, 41.518809], [-8.49335, 41.513532], [-8.494867, 41.509835], [-8.493393, 41.50793], [-8.481447, 41.503394], [-8.472738, 41.509735], [-8.478222, 41.518768]]], [[[-8.337646, 41.505153], [-8.34963, 41.504967], [-8.360001, 41.500156], [-8.366969, 41.491187], [-8.367089, 41.48218], [-8.361915, 41.474104], [-8.350005, 41.467439], [-8.338034, 41.466984], [-8.326008, 41.471931], [-8.319067, 41.481906], [-8.319379, 41.490915], [-8.325717, 41.49995], [-8.337646, 41.505153]]], [[[-8.673222, 41.490662], [-8.685579, 41.483492], [-8.686862, 41.474488], [-8.677167, 41.465453], [-8.673356, 41.463958], [-8.661379, 41.464403], [-8.650169, 41.474382], [-8.652114, 41.483395], [-8.661247, 41.489767], [-8.673222, 41.490662]]], [[[-8.355856, 41.374028], [-8.362849, 41.378633], [-8.368711, 41.374099], [-8.362943, 41.369016], [-8.355856, 41.374028]]]]}}, {"id": "3", "type": "Feature", "properties": {"fill": "#f77f52", "value_min": 0.67, "value_max": 0.73}, "geometry": {"type": "MultiPolygon", "coordinates": [[[[-7.794167, 41.882032], [-7.794311, 41.881689], [-7.794356, 41.881583], [-7.794921, 41.880231], [-7.795108, 41.879784], [-7.795226, 41.879502], [-7.79539, 41.87911], [-7.796236, 41.877087], [-7.794349, 41.87438], [-7.797552, 41.87394], [-7.798354, 41.864943], [-7.796295, 41.855915], [-7.790807, 41.846851], [-7.780278, 41.837733], [-7.768261, 41.832492], [-7.756253, 41.830696], [-7.740704, 41.831905], [-7.74729, 41.837772], [-7.746349, 41.84407], [-7.750536, 41.848569], [-7.755941, 41.846766], [-7.767913, 41.850608], [-7.773095, 41.85567], [-7.77391, 41.864685], [-7.767491, 41.872577], [-7.755381, 41.875675], [-7.7462, 41.873392], [-7.743398, 41.872193], [-7.737147, 41.864287], [-7.737653, 41.860921], [-7.734159, 41.868337], [-7.730228, 41.871024], [-7.729293, 41.875972], [-7.720533, 41.880218], [-7.720523, 41.881793], [-7.725335, 41.882935], [-7.726208, 41.887665], [-7.737044, 41.888828], [-7.73944, 41.891087], [-7.74246, 41.889747], [-7.742785, 41.885922], [-7.756022, 41.888441], [-7.758719, 41.890926], [-7.756592, 41.89407], [-7.758076, 41.897901], [-7.764097, 41.898595], [-7.779227, 41.886264], [-7.785257, 41.885157], [-7.788886, 41.882467], [-7.794167, 41.882032]]], [[[-7.744805, 41.85048], [-7.74915, 41.849031], [-7.743309, 41.849012], [-7.744805, 41.85048]]], [[[-8.533112, 41.65202], [-8.51363, 41.62701], [-8.492622, 41.608905], [-8.48066, 41.601808], [-8.4687, 41.596903], [-8.444738, 41.59263], [-8.432742, 41.592391], [-8.408724, 41.594682], [-8.300553, 41.611508], [-8.252512, 41.614384], [-8.228458, 41.61856], [-8.216406, 41.622603], [-8.192224, 41.636503], [-8.151892, 41.669946], [-8.133567, 41.696831], [-8.119174, 41.710715], [-8.11138, 41.714675], [-8.106859, 41.723647], [-8.10093, 41.750622], [-8.103466, 41.768655], [-8.112021, 41.786736], [-8.132334, 41.808927], [-8.138247, 41.808477], [-8.139751, 41.813203], [-8.14276, 41.812978], [-8.144866, 41.815228], [-8.149078, 41.814777], [-8.153291, 41.817703], [-8.158106, 41.818377], [-8.165326, 41.81815], [-8.173744, 41.808019], [-8.177655, 41.808242], [-8.183676, 41.812741], [-8.190291, 41.809587], [-8.197158, 41.814129], [-8.201063, 41.808724], [-8.204973, 41.807372], [-8.205872, 41.804445], [-8.213692, 41.803765], [-8.217598, 41.80016], [-8.217589, 41.793634], [-8.224207, 41.794303], [-8.229917, 41.791598], [-8.240744, 41.791588], [-8.24074, 41.789338], [-8.244347, 41.787984], [-8.245546, 41.785731], [-8.251257, 41.784375], [-8.251845, 41.777172], [-8.257551, 41.773564], [-8.261359, 41.774235], [-8.254519, 41.760728], [-8.253826, 41.751717], [-8.256576, 41.742727], [-8.263887, 41.733767], [-8.275256, 41.726886], [-8.287311, 41.724082], [-8.299322, 41.725148], [-8.311286, 41.730677], [-8.315284, 41.734085], [-8.321803, 41.743131], [-8.324463, 41.752154], [-8.323475, 41.763976], [-8.326436, 41.765096], [-8.328234, 41.763292], [-8.336653, 41.763728], [-8.338452, 41.762149], [-8.344765, 41.762363], [-8.349267, 41.760103], [-8.352557, 41.755145], [-8.349814, 41.744122], [-8.352516, 41.743441], [-8.352203, 41.739616], [-8.357897, 41.735103], [-8.360484, 41.735323], [-8.352836, 41.716289], [-8.342367, 41.680201], [-8.341531, 41.671189], [-8.343617, 41.662194], [-8.349731, 41.653222], [-8.360228, 41.645339], [-8.372283, 41.640499], [-8.397009, 41.635465], [-8.408448, 41.624894], [-8.413846, 41.617538], [-8.429959, 41.608612], [-8.444619, 41.606549], [-8.456602, 41.608634], [-8.471394, 41.617817], [-8.476759, 41.626849], [-8.47759, 41.63586], [-8.474823, 41.644854], [-8.463017, 41.662814], [-8.464012, 41.671826], [-8.475192, 41.686645], [-8.482012, 41.682123], [-8.484371, 41.674238], [-8.49308, 41.674886], [-8.499963, 41.671038], [-8.50927, 41.671233], [-8.51018, 41.672806], [-8.511967, 41.670324], [-8.509856, 41.668755], [-8.512252, 41.667847], [-8.514629, 41.663788], [-8.522103, 41.658811], [-8.525706, 41.659023], [-8.527769, 41.652714], [-8.533112, 41.65202]], [[-8.178384, 41.780648], [-8.166364, 41.779649], [-8.154379, 41.775955], [-8.142455, 41.767809], [-8.136159, 41.759899], [-8.133258, 41.75087], [-8.133907, 41.741868], [-8.14299, 41.727598], [-8.15943, 41.715037], [-8.167309, 41.706526], [-8.172534, 41.688111], [-8.179689, 41.67819], [-8.191819, 41.668899], [-8.203891, 41.664095], [-8.215922, 41.662507], [-8.227925, 41.663207], [-8.239896, 41.666628], [-8.247399, 41.670611], [-8.257393, 41.679683], [-8.261138, 41.688715], [-8.260789, 41.697719], [-8.256805, 41.706701], [-8.230844, 41.733551], [-8.215937, 41.760471], [-8.208216, 41.769425], [-8.202537, 41.773726], [-8.190442, 41.778713], [-8.178384, 41.780648]]], [[[-8.36061, 41.735548], [-8.36061, 41.735548], [-8.360603, 41.735534], [-8.36061, 41.735548]]], [[[-8.008465, 41.686812], [-8.023375, 41.686745], [-8.035432, 41.683989], [-8.047279, 41.678134], [-8.05703, 41.669207], [-8.064499, 41.651254], [-8.061932, 41.642226], [-8.048285, 41.627094], [-8.036395, 41.619393], [-8.024448, 41.615638], [-8.012462, 41.614575], [-8.000439, 41.615942], [-7.98429, 41.623552], [-7.975588, 41.632482], [-7.971172, 41.641449], [-7.970003, 41.650446], [-7.971663, 41.659468], [-7.97648, 41.668518], [-7.985089, 41.677601], [-7.999369, 41.685106], [-8.008465, 41.686812]], [[-8.023518, 41.67728], [-8.011527, 41.67577], [-8.000069, 41.668726], [-7.995141, 41.659676], [-7.996647, 41.650682], [-8.0058, 41.641754], [-8.012095, 41.638637], [-8.024121, 41.637331], [-8.037725, 41.642026], [-8.04679, 41.651108], [-8.048063, 41.660126], [-8.043258, 41.669093], [-8.035575, 41.674391], [-8.023518, 41.67728]]], [[[-8.241237, 41.552273], [-8.253247, 41.550653], [-8.265309, 41.544381], [-8.274309, 41.535676], [-8.279552, 41.526702], [-8.281736, 41.517708], [-8.28144, 41.508699], [-8.277818, 41.49762], [-8.26601, 41.482324], [-8.254118, 41.474835], [-8.242178, 41.471652], [-8.230205, 41.471432], [-8.21819, 41.474689], [-8.208709, 41.4812], [-8.20097, 41.490154], [-8.19681, 41.499132], [-8.195601, 41.517138], [-8.198339, 41.526165], [-8.204178, 41.535212], [-8.214649, 41.544292], [-8.229261, 41.551097], [-8.241237, 41.552273]], [[-8.240285, 41.526449], [-8.22959, 41.523339], [-8.222564, 41.517324], [-8.219318, 41.508294], [-8.222456, 41.499308], [-8.229948, 41.493143], [-8.241964, 41.490057], [-8.253913, 41.492661], [-8.262403, 41.499571], [-8.266069, 41.508602], [-8.262752, 41.517588], [-8.253545, 41.52476], [-8.240285, 41.526449]]], [[[-8.164439, 41.38059], [-8.168025, 41.390838], [-8.174598, 41.399893], [-8.183106, 41.407232], [-8.194985, 41.41415], [-8.206907, 41.417743], [-8.218858, 41.419028], [-8.23084, 41.417667], [-8.242852, 41.413753], [-8.254912, 41.405462], [-8.259454, 41.40047], [-8.264646, 41.391496], [-8.266743, 41.382502], [-8.266303, 41.373492], [-8.263322, 41.364465], [-8.253242, 41.351268], [-8.249622, 41.353072], [-8.251123, 41.356897], [-8.248141, 41.360052], [-8.248448, 41.364328], [-8.245461, 41.364781], [-8.244272, 41.368384], [-8.239197, 41.371315], [-8.233571, 41.370645], [-8.237136, 41.373302], [-8.240281, 41.38233], [-8.231136, 41.39254], [-8.219164, 41.393431], [-8.213395, 41.391157], [-8.205571, 41.382096], [-8.206956, 41.376968], [-8.199163, 41.377423], [-8.194677, 41.374275], [-8.191691, 41.376302], [-8.189299, 41.375403], [-8.184818, 41.376756], [-8.168382, 41.377438], [-8.164439, 41.38059]]], [[[-8.216485, 41.369163], [-8.216485, 41.369163], [-8.216648, 41.369083], [-8.216485, 41.369163]]], [[[-8.216783, 41.369017], [-8.216783, 41.369017], [-8.218486, 41.368181], [-8.216783, 41.369017]]]]}}, {"id": "2", "type": "Feature", "properties": {"fill": "#fc9863", "value_min": 0.6, "value_max": 0.67}, "geometry": {"type": "MultiPolygon", "coordinates": [[[[-7.737653, 41.860921], [-7.737147, 41.864287], [-7.743398, 41.872193], [-7.7462, 41.873392], [-7.755381, 41.875675], [-7.767491, 41.872577], [-7.77391, 41.864685], [-7.773095, 41.85567], [-7.767913, 41.850608], [-7.755941, 41.846766], [-7.750536, 41.848569], [-7.74915, 41.849031], [-7.744805, 41.85048], [-7.746901, 41.8524], [-7.746881, 41.855776], [-7.739943, 41.858003], [-7.737653, 41.860921]]], [[[-8.178384, 41.780648], [-8.190442, 41.778713], [-8.202537, 41.773726], [-8.208216, 41.769425], [-8.215937, 41.760471], [-8.230844, 41.733551], [-8.256805, 41.706701], [-8.260789, 41.697719], [-8.261138, 41.688715], [-8.257393, 41.679683], [-8.247399, 41.670611], [-8.239896, 41.666628], [-8.227925, 41.663207], [-8.215922, 41.662507], [-8.203891, 41.664095], [-8.191819, 41.668899], [-8.179689, 41.67819], [-8.172534, 41.688111], [-8.167309, 41.706526], [-8.15943, 41.715037], [-8.14299, 41.727598], [-8.133907, 41.741868], [-8.133258, 41.75087], [-8.136159, 41.759899], [-8.142455, 41.767809], [-8.154379, 41.775955], [-8.166364, 41.779649], [-8.178384, 41.780648]], [[-8.166607, 41.760913], [-8.154656, 41.754884], [-8.151451, 41.751006], [-8.150125, 41.741989], [-8.157528, 41.733037], [-8.167031, 41.728086], [-8.179063, 41.727458], [-8.191007, 41.733714], [-8.195348, 41.742315], [-8.192627, 41.751303], [-8.178641, 41.760511], [-8.166607, 41.760913]], [[-8.215282, 41.715225], [-8.203261, 41.715191], [-8.191324, 41.708487], [-8.1866, 41.697218], [-8.191607, 41.685844], [-8.20371, 41.678763], [-8.215733, 41.678046], [-8.220054, 41.679436], [-8.227689, 41.68298], [-8.233447, 41.688533], [-8.235444, 41.697554], [-8.23106, 41.706531], [-8.227367, 41.709852], [-8.215282, 41.715225]]], [[[-8.475192, 41.686645], [-8.464012, 41.671826], [-8.463017, 41.662814], [-8.474823, 41.644854], [-8.47759, 41.63586], [-8.476759, 41.626849], [-8.471394, 41.617817], [-8.456602, 41.608634], [-8.444619, 41.606549], [-8.429959, 41.608612], [-8.413846, 41.617538], [-8.408448, 41.624894], [-8.397009, 41.635465], [-8.372283, 41.640499], [-8.360228, 41.645339], [-8.349731, 41.653222], [-8.343617, 41.662194], [-8.341531, 41.671189], [-8.342367, 41.680201], [-8.352836, 41.716289], [-8.360484, 41.735323], [-8.360603, 41.735534], [-8.36061, 41.735548], [-8.362407, 41.735994], [-8.368703, 41.73193], [-8.374122, 41.734845], [-8.384922, 41.73032], [-8.387032, 41.731891], [-8.388941, 41.731211], [-8.385345, 41.725474], [-8.384491, 41.716463], [-8.38811, 41.707475], [-8.399819, 41.69853], [-8.407806, 41.695011], [-8.419837, 41.693548], [-8.431837, 41.695456], [-8.446693, 41.704666], [-8.453868, 41.697961], [-8.453255, 41.695487], [-8.461659, 41.694563], [-8.467939, 41.689593], [-8.475192, 41.686645]], [[-8.443621, 41.626693], [-8.44445, 41.626147], [-8.445381, 41.626701], [-8.444439, 41.627477], [-8.443621, 41.626693]]], [[[-8.023518, 41.67728], [-8.035575, 41.674391], [-8.043258, 41.669093], [-8.048063, 41.660126], [-8.04679, 41.651108], [-8.037725, 41.642026], [-8.024121, 41.637331], [-8.012095, 41.638637], [-8.0058, 41.641754], [-7.996647, 41.650682], [-7.995141, 41.659676], [-8.000069, 41.668726], [-8.011527, 41.67577], [-8.023518, 41.67728]], [[-8.020069, 41.668898], [-8.009764, 41.659803], [-8.017032, 41.650858], [-8.023951, 41.648607], [-8.030606, 41.650973], [-8.035865, 41.654947], [-8.038105, 41.660043], [-8.035737, 41.66358], [-8.026874, 41.668956], [-8.02363, 41.669902], [-8.020069, 41.668898]]], [[[-8.240285, 41.526449], [-8.253545, 41.52476], [-8.262752, 41.517588], [-8.266069, 41.508602], [-8.262403, 41.499571], [-8.253913, 41.492661], [-8.241964, 41.490057], [-8.229948, 41.493143], [-8.222456, 41.499308], [-8.219318, 41.508294], [-8.222564, 41.517324], [-8.22959, 41.523339], [-8.240285, 41.526449]]], [[[-8.206956, 41.376968], [-8.205571, 41.382096], [-8.213395, 41.391157], [-8.219164, 41.393431], [-8.231136, 41.39254], [-8.240281, 41.38233], [-8.237136, 41.373302], [-8.233571, 41.370645], [-8.224854, 41.370878], [-8.218486, 41.368181], [-8.216783, 41.369017], [-8.216648, 41.369083], [-8.216485, 41.369163], [-8.212011, 41.375839], [-8.206956, 41.376968]]]]}}, {"id": "1", "type": "Feature", "properties": {"fill": "#fecb90", "value_min": 0.53, "value_max": 0.6}, "geometry": {"type": "MultiPolygon", "coordinates": [[[[-8.166607, 41.760913], [-8.178641, 41.760511], [-8.192627, 41.751303], [-8.195348, 41.742315], [-8.191007, 41.733714], [-8.179063, 41.727458], [-8.167031, 41.728086], [-8.157528, 41.733037], [-8.150125, 41.741989], [-8.151451, 41.751006], [-8.154656, 41.754884], [-8.166607, 41.760913]], [[-8.166058, 41.742106], [-8.166859, 41.741398], [-8.169597, 41.742132], [-8.166833, 41.74338], [-8.166058, 41.742106]]], [[[-8.446693, 41.704666], [-8.431837, 41.695456], [-8.419837, 41.693548], [-8.407806, 41.695011], [-8.399819, 41.69853], [-8.38811, 41.707475], [-8.384491, 41.716463], [-8.385345, 41.725474], [-8.388941, 41.731211], [-8.393033, 41.729852], [-8.396942, 41.730518], [-8.400531, 41.726683], [-8.402934, 41.726452], [-8.404721, 41.722847], [-8.413744, 41.725076], [-8.417349, 41.725067], [-8.418891, 41.723488], [-8.409156, 41.716592], [-8.419661, 41.713119], [-8.424513, 41.71667], [-8.420959, 41.721907], [-8.429643, 41.719859], [-8.430533, 41.717381], [-8.435927, 41.714441], [-8.441333, 41.714201], [-8.441618, 41.711049], [-8.446693, 41.704666]]], [[[-8.420941, 41.721934], [-8.420941, 41.721934], [-8.420806, 41.722132], [-8.420941, 41.721934]]], [[[-8.215282, 41.715225], [-8.227367, 41.709852], [-8.23106, 41.706531], [-8.235444, 41.697554], [-8.233447, 41.688533], [-8.227689, 41.68298], [-8.220054, 41.679436], [-8.215733, 41.678046], [-8.20371, 41.678763], [-8.191607, 41.685844], [-8.1866, 41.697218], [-8.191324, 41.708487], [-8.203261, 41.715191], [-8.215282, 41.715225]], [[-8.203454, 41.699587], [-8.201541, 41.697323], [-8.203526, 41.693701], [-8.215531, 41.694737], [-8.217012, 41.69743], [-8.215478, 41.699035], [-8.203454, 41.699587]]], [[[-8.020069, 41.668898], [-8.02363, 41.669902], [-8.026874, 41.668956], [-8.035737, 41.66358], [-8.038105, 41.660043], [-8.035865, 41.654947], [-8.030606, 41.650973], [-8.023951, 41.648607], [-8.017032, 41.650858], [-8.009764, 41.659803], [-8.020069, 41.668898]]], [[[-8.443621, 41.626693], [-8.444439, 41.627477], [-8.445381, 41.626701], [-8.44445, 41.626147], [-8.443621, 41.626693]]]]}}, {"id": "0", "type": "Feature", "properties": {"fill": "#fffebe", "value_min": 0.47, "value_max": 0.53}, "geometry": {"type": "MultiPolygon", "coordinates": [[[[-8.166058, 41.742106], [-8.166833, 41.74338], [-8.169597, 41.742132], [-8.166859, 41.741398], [-8.166058, 41.742106]]], [[[-8.420806, 41.722132], [-8.420941, 41.721934], [-8.420959, 41.721907], [-8.424513, 41.71667], [-8.419661, 41.713119], [-8.409156, 41.716592], [-8.418891, 41.723488], [-8.420806, 41.722132]]], [[[-8.203454, 41.699587], [-8.215478, 41.699035], [-8.217012, 41.69743], [-8.215531, 41.694737], [-8.203526, 41.693701], [-8.201541, 41.697323], [-8.203454, 41.699587]]]]}}]}