{"type": "FeatureCollection", "features": [{"id": "1", "type": "Feature", "properties": {"fill": "#bde282", "value_min": 0.27, "value_max": 0.33}, "geometry": {"type": "MultiPolygon", "coordinates": [[[[-7.877664, 41.774256], [-7.885664, 41.766749], [-7.887643, 41.757762], [-7.882897, 41.748709], [-7.878169, 41.74526], [-7.866208, 41.741518], [-7.854169, 41.742259], [-7.840888, 41.748293], [-7.834706, 41.757237], [-7.835975, 41.766257], [-7.841605, 41.772172], [-7.853534, 41.777918], [-7.865558, 41.778443], [-7.877664, 41.774256]], [[-7.864838, 41.766545], [-7.853342, 41.757424], [-7.866011, 41.752718], [-7.872377, 41.757613], [-7.864838, 41.766545]]], [[[-8.105879, 41.615555], [-8.103283, 41.606528], [-8.096664, 41.601264], [-8.084683, 41.599973], [-8.072594, 41.606206], [-8.069408, 41.615265], [-8.075919, 41.624325], [-8.084287, 41.627946], [-8.09631, 41.626693], [-8.099616, 41.624513], [-8.105879, 41.615555]], [[-8.082537, 41.615371], [-8.084497, 41.613077], [-8.093779, 41.61546], [-8.084435, 41.61748], [-8.082537, 41.615371]]], [[[-8.433637, 41.489894], [-8.439169, 41.482554], [-8.435063, 41.473527], [-8.421826, 41.470887], [-8.416325, 41.473433], [-8.410721, 41.482412], [-8.419768, 41.491465], [-8.421637, 41.492167], [-8.433637, 41.489894]]], [[[-8.349805, 41.487459], [-8.347921, 41.482073], [-8.337894, 41.480807], [-8.336135, 41.482006], [-8.335451, 41.491009], [-8.337773, 41.492671], [-8.349767, 41.491259], [-8.349805, 41.487459]]], [[[-8.644462, 41.189472], [-8.645963, 41.204139], [-8.650739, 41.215143], [-8.662599, 41.228592], [-8.674494, 41.235894], [-8.68641, 41.239608], [-8.698335, 41.241393], [-8.71027, 41.241158], [-8.722213, 41.239158], [-8.741392, 41.231416], [-8.753477, 41.222435], [-8.760763, 41.213442], [-8.765162, 41.204443], [-8.766699, 41.186431], [-8.764164, 41.177418], [-8.758907, 41.168399], [-8.750451, 41.159373], [-8.735919, 41.150332], [-8.722952, 41.145757], [-8.683159, 41.146616], [-8.674221, 41.149789], [-8.674849, 41.153767], [-8.672489, 41.15648], [-8.66266, 41.156422], [-8.661478, 41.1575], [-8.660313, 41.160813], [-8.658345, 41.160597], [-8.654684, 41.164599], [-8.654416, 41.164892], [-8.654388, 41.164922], [-8.653231, 41.169174], [-8.655366, 41.175467], [-8.647955, 41.180228], [-8.647696, 41.185181], [-8.644462, 41.189472]], [[-8.698443, 41.217875], [-8.686514, 41.217873], [-8.674605, 41.213693], [-8.666361, 41.2042], [-8.664454, 41.195186], [-8.668161, 41.186189], [-8.674774, 41.179561], [-8.686718, 41.174927], [-8.698641, 41.17481], [-8.710544, 41.179], [-8.718612, 41.186323], [-8.721926, 41.195339], [-8.719858, 41.204342], [-8.711366, 41.213329], [-8.698443, 41.217875]]]]}}, {"id": "0", "type": "Feature", "properties": {"fill": "#98d277", "value_min": 0.2, "value_max": 0.27}, "geometry": {"type": "MultiPolygon", "coordinates": [[[[-7.864838, 41.766545], [-7.872377, 41.757613], [-7.866011, 41.752718], [-7.853342, 41.757424], [-7.864838, 41.766545]]], [[[-8.082537, 41.615371], [-8.084435, 41.61748], [-8.093779, 41.61546], [-8.084497, 41.613077], [-8.082537, 41.615371]]], [[[-8.698443, 41.217875], [-8.711366, 41.213329], [-8.719858, 41.204342], [-8.721926, 41.195339], [-8.718612, 41.186323], [-8.710544, 41.179], [-8.698641, 41.17481], [-8.686718, 41.174927], [-8.674774, 41.179561], [-8.668161, 41.186189], [-8.664454, 41.195186], [-8.666361, 41.2042], [-8.674605, 41.213693], [-8.686514, 41.217873], [-8.698443, 41.217875]]]]}}, {"id": "5", "type": "Feature", "properties": {"fill": "#fecb90", "value_min": 0.53, "value_max": 0.6}, "geometry": {"type": "MultiPolygon", "coordinates": [[[[-8.199515, 41.751351], [-8.198802, 41.742339], [-8.191012, 41.733329], [-8.179056, 41.727966], [-8.167032, 41.728024], [-8.155928, 41.733025], [-8.146887, 41.741965], [-8.145238, 41.75096], [-8.149475, 41.759998], [-8.154527, 41.764685], [-8.166504, 41.768817], [-8.178537, 41.768681], [-8.190629, 41.763829], [-8.194555, 41.760323], [-8.199515, 41.751351]], [[-8.166748, 41.750005], [-8.162314, 41.742079], [-8.166897, 41.738457], [-8.178887, 41.74126], [-8.178845, 41.744526], [-8.166748, 41.750005]]], [[[-8.431664, 41.715049], [-8.443793, 41.702572], [-8.448745, 41.689768], [-8.448811, 41.680761], [-8.445349, 41.671737], [-8.43929, 41.662701], [-8.429472, 41.653645], [-8.396413, 41.628218], [-8.384447, 41.624018], [-8.372457, 41.62262], [-8.360442, 41.623722], [-8.348402, 41.627241], [-8.33633, 41.633794], [-8.3259, 41.644077], [-8.321045, 41.653056], [-8.318895, 41.66205], [-8.321573, 41.68008], [-8.326142, 41.689114], [-8.335646, 41.700413], [-8.347569, 41.709869], [-8.359526, 41.716199], [-8.3715, 41.721083], [-8.383498, 41.723608], [-8.395514, 41.724288], [-8.407556, 41.722211], [-8.420058, 41.716648], [-8.431664, 41.715049]], [[-8.383787, 41.693324], [-8.371772, 41.69314], [-8.359797, 41.688863], [-8.349501, 41.680242], [-8.345087, 41.67121], [-8.345113, 41.662203], [-8.349698, 41.653221], [-8.360232, 41.644963], [-8.372277, 41.641113], [-8.384284, 41.641177], [-8.396255, 41.645104], [-8.408217, 41.653538], [-8.414864, 41.662579], [-8.416107, 41.671592], [-8.41151, 41.680576], [-8.395835, 41.690038], [-8.383787, 41.693324]]], [[[-8.071092, 41.710817], [-8.076158, 41.705391], [-8.095346, 41.695562], [-8.115347, 41.678678], [-8.117365, 41.669686], [-8.111632, 41.660635], [-8.095924, 41.654308], [-8.071927, 41.652706], [-8.059964, 41.649496], [-8.03616, 41.63515], [-8.02421, 41.631424], [-8.012219, 41.630499], [-8.000174, 41.633066], [-7.987164, 41.641591], [-7.981783, 41.650551], [-7.980922, 41.65955], [-7.983728, 41.668582], [-7.990599, 41.67765], [-7.999378, 41.684513], [-8.02428, 41.695955], [-8.041141, 41.714111], [-8.046954, 41.717379], [-8.058965, 41.718128], [-8.071092, 41.710817]], [[-8.08337, 41.69268], [-8.071618, 41.68734], [-8.064516, 41.678275], [-8.067959, 41.669296], [-8.083796, 41.662616], [-8.095796, 41.663466], [-8.104783, 41.669589], [-8.106673, 41.678611], [-8.09542, 41.690319], [-8.08337, 41.69268]], [[-8.023555, 41.674823], [-8.011598, 41.67115], [-8.008447, 41.668798], [-8.003894, 41.659752], [-8.007916, 41.65078], [-8.011953, 41.647925], [-8.024004, 41.645077], [-8.035962, 41.648491], [-8.039634, 41.651049], [-8.044952, 41.6601], [-8.041416, 41.669078], [-8.035603, 41.67256], [-8.023555, 41.674823]]], [[[-8.066273, 41.483218], [-8.070935, 41.489177], [-8.088219, 41.498322], [-8.110012, 41.503061], [-8.133961, 41.504209], [-8.152405, 41.498813], [-8.162165, 41.489877], [-8.166155, 41.480899], [-8.166774, 41.471896], [-8.164644, 41.462873], [-8.159203, 41.453826], [-8.146753, 41.442413], [-8.134859, 41.436671], [-8.122932, 41.433482], [-8.110977, 41.432486], [-8.098991, 41.433725], [-8.086974, 41.437188], [-8.074906, 41.444111], [-8.069099, 41.450044], [-8.070288, 41.458235], [-8.068788, 41.462286], [-8.073872, 41.46499], [-8.074164, 41.473543], [-8.066273, 41.483218]], [[-8.122095, 41.495575], [-8.110122, 41.495062], [-8.098207, 41.490353], [-8.090955, 41.480329], [-8.092738, 41.471336], [-8.098554, 41.465279], [-8.110595, 41.460459], [-8.122563, 41.460923], [-8.134458, 41.466862], [-8.138798, 41.47169], [-8.141075, 41.480714], [-8.136488, 41.489687], [-8.122095, 41.495575]]], [[[-8.577442, 41.481889], [-8.589484, 41.471762], [-8.594401, 41.465191], [-8.597625, 41.456195], [-8.598006, 41.447189], [-8.595351, 41.438172], [-8.589744, 41.43057], [-8.577834, 41.421527], [-8.565899, 41.416653], [-8.553948, 41.414514], [-8.54198, 41.414822], [-8.529992, 41.418011], [-8.517973, 41.425142], [-8.50851, 41.437834], [-8.506471, 41.446833], [-8.507112, 41.455843], [-8.510546, 41.464865], [-8.518155, 41.473905], [-8.529528, 41.482141], [-8.541471, 41.487209], [-8.553439, 41.488724], [-8.56543, 41.487089], [-8.577442, 41.481889]], [[-8.553517, 41.477475], [-8.541551, 41.475887], [-8.529623, 41.469056], [-8.525453, 41.464928], [-8.521691, 41.455905], [-8.522837, 41.446902], [-8.529849, 41.437712], [-8.541861, 41.43181], [-8.553837, 41.430795], [-8.565787, 41.433567], [-8.573032, 41.438092], [-8.580439, 41.447126], [-8.581767, 41.456139], [-8.578112, 41.465133], [-8.566862, 41.474098], [-8.553517, 41.477475]]], [[[-8.231297, 41.378942], [-8.219381, 41.375339], [-8.215211, 41.382162], [-8.219254, 41.3859], [-8.231237, 41.384032], [-8.232575, 41.382279], [-8.231297, 41.378942]]], [[[-8.494665, 41.22313], [-8.496797, 41.230607], [-8.507366, 41.244814], [-8.519238, 41.253259], [-8.530478, 41.257773], [-8.543061, 41.260437], [-8.554996, 41.260693], [-8.566947, 41.258725], [-8.578912, 41.254373], [-8.590902, 41.245727], [-8.595541, 41.240004], [-8.599751, 41.231011], [-8.600984, 41.222007], [-8.599613, 41.212995], [-8.595782, 41.203973], [-8.591205, 41.19704], [-8.580372, 41.187387], [-8.581296, 41.191762], [-8.575958, 41.195609], [-8.576894, 41.201908], [-8.574515, 41.202593], [-8.57423, 41.20462], [-8.568063, 41.204643], [-8.578628, 41.21292], [-8.580779, 41.221936], [-8.576554, 41.230928], [-8.56709, 41.237062], [-8.555145, 41.238807], [-8.543236, 41.235186], [-8.537277, 41.230777], [-8.53287, 41.221751], [-8.535805, 41.212189], [-8.532257, 41.213102], [-8.531648, 41.211078], [-8.529858, 41.210859], [-8.52713, 41.203215], [-8.523236, 41.200077], [-8.518471, 41.200543], [-8.51163, 41.203042], [-8.510456, 41.206197], [-8.505693, 41.207113], [-8.504239, 41.213646], [-8.500076, 41.21546], [-8.50308, 41.219502], [-8.502204, 41.222656], [-8.496833, 41.221998], [-8.494665, 41.22313]]], [[[-8.580229, 41.187264], [-8.580229, 41.187264], [-8.580072, 41.187129], [-8.580229, 41.187264]]]]}}, {"id": "6", "type": "Feature", "properties": {"fill": "#fc9863", "value_min": 0.6, "value_max": 0.67}, "geometry": {"type": "MultiPolygon", "coordinates": [[[[-8.166748, 41.750005], [-8.178845, 41.744526], [-8.178887, 41.74126], [-8.166897, 41.738457], [-8.162314, 41.742079], [-8.166748, 41.750005]]], [[[-8.383787, 41.693324], [-8.395835, 41.690038], [-8.41151, 41.680576], [-8.416107, 41.671592], [-8.414864, 41.662579], [-8.408217, 41.653538], [-8.396255, 41.645104], [-8.384284, 41.641177], [-8.372277, 41.641113], [-8.360232, 41.644963], [-8.349698, 41.653221], [-8.345113, 41.662203], [-8.345087, 41.67121], [-8.349501, 41.680242], [-8.359797, 41.688863], [-8.371772, 41.69314], [-8.383787, 41.693324]], [[-8.378097, 41.6804], [-8.371907, 41.679278], [-8.363167, 41.671311], [-8.363181, 41.662304], [-8.372149, 41.654301], [-8.384175, 41.652693], [-8.396128, 41.658699], [-8.399462, 41.662499], [-8.399616, 41.671507], [-8.39597, 41.675565], [-8.386049, 41.680443], [-8.378097, 41.6804]]], [[[-8.08337, 41.69268], [-8.09542, 41.690319], [-8.106673, 41.678611], [-8.104783, 41.669589], [-8.095796, 41.663466], [-8.083796, 41.662616], [-8.067959, 41.669296], [-8.064516, 41.678275], [-8.071618, 41.68734], [-8.08337, 41.69268]], [[-8.083473, 41.685375], [-8.076929, 41.678376], [-8.083679, 41.670849], [-8.095685, 41.671366], [-8.100357, 41.678561], [-8.095507, 41.684085], [-8.083473, 41.685375]]], [[[-8.023555, 41.674823], [-8.035603, 41.67256], [-8.041416, 41.669078], [-8.044952, 41.6601], [-8.039634, 41.651049], [-8.035962, 41.648491], [-8.024004, 41.645077], [-8.011953, 41.647925], [-8.007916, 41.65078], [-8.003894, 41.659752], [-8.008447, 41.668798], [-8.011598, 41.67115], [-8.023555, 41.674823]]], [[[-8.122095, 41.495575], [-8.136488, 41.489687], [-8.141075, 41.480714], [-8.138798, 41.47169], [-8.134458, 41.466862], [-8.122563, 41.460923], [-8.110595, 41.460459], [-8.098554, 41.465279], [-8.092738, 41.471336], [-8.090955, 41.480329], [-8.098207, 41.490353], [-8.110122, 41.495062], [-8.122095, 41.495575]]], [[[-8.553517, 41.477475], [-8.566862, 41.474098], [-8.578112, 41.465133], [-8.581767, 41.456139], [-8.580439, 41.447126], [-8.573032, 41.438092], [-8.565787, 41.433567], [-8.553837, 41.430795], [-8.541861, 41.43181], [-8.529849, 41.437712], [-8.522837, 41.446902], [-8.521691, 41.455905], [-8.525453, 41.464928], [-8.529623, 41.469056], [-8.541551, 41.475887], [-8.553517, 41.477475]], [[-8.541624, 41.465417], [-8.535444, 41.455961], [-8.539632, 41.44697], [-8.541765, 41.445386], [-8.553751, 41.443352], [-8.562369, 41.447059], [-8.567491, 41.456086], [-8.560202, 41.465066], [-8.553585, 41.467479], [-8.541624, 41.465417]]], [[[-8.535805, 41.212189], [-8.53287, 41.221751], [-8.537277, 41.230777], [-8.543236, 41.235186], [-8.555145, 41.238807], [-8.56709, 41.237062], [-8.576554, 41.230928], [-8.580779, 41.221936], [-8.578628, 41.21292], [-8.568063, 41.204643], [-8.565895, 41.206227], [-8.567697, 41.208246], [-8.566512, 41.209376], [-8.559636, 41.206251], [-8.554271, 41.20627], [-8.549521, 41.209214], [-8.535805, 41.212189]]]]}}, {"id": "2", "type": "Feature", "properties": {"fill": "#ddf190", "value_min": 0.33, "value_max": 0.4}, "geometry": {"type": "MultiPolygon", "coordinates": [[[[-7.756592, 41.894132], [-7.767101, 41.892881], [-7.774084, 41.890342], [-7.774196, 41.8903], [-7.774386, 41.890228], [-7.779227, 41.886264], [-7.783239, 41.885601], [-7.794683, 41.873911], [-7.797775, 41.864937], [-7.797234, 41.855925], [-7.792091, 41.846864], [-7.780192, 41.838393], [-7.768209, 41.835166], [-7.756173, 41.834799], [-7.745492, 41.836446], [-7.74729, 41.837772], [-7.746349, 41.84407], [-7.750541, 41.847685], [-7.750532, 41.849261], [-7.743309, 41.849012], [-7.746901, 41.8524], [-7.746881, 41.855776], [-7.73843, 41.859348], [-7.734159, 41.868337], [-7.730228, 41.871024], [-7.729293, 41.875972], [-7.720806, 41.880219], [-7.722477, 41.88225], [-7.725035, 41.882709], [-7.725026, 41.884127], [-7.731709, 41.88881], [-7.737044, 41.888828], [-7.739741, 41.891088], [-7.74246, 41.889747], [-7.742785, 41.885922], [-7.748203, 41.88639], [-7.750001, 41.887971], [-7.756022, 41.888441], [-7.758719, 41.890926], [-7.756592, 41.894132]]], [[[-7.865148, 41.801712], [-7.877215, 41.799981], [-7.889377, 41.792751], [-7.901679, 41.777097], [-7.906822, 41.766953], [-7.908443, 41.748954], [-7.903883, 41.730897], [-7.908142, 41.721931], [-7.907384, 41.712917], [-7.902834, 41.709307], [-7.890816, 41.709181], [-7.886812, 41.712719], [-7.882013, 41.721679], [-7.866466, 41.726866], [-7.818258, 41.733162], [-7.806515, 41.738934], [-7.799294, 41.747865], [-7.79741, 41.756853], [-7.800605, 41.7749], [-7.805256, 41.785863], [-7.817016, 41.80081], [-7.828935, 41.807255], [-7.840948, 41.808672], [-7.853027, 41.806391], [-7.865148, 41.801712]], [[-7.877664, 41.774256], [-7.865558, 41.778443], [-7.853534, 41.777918], [-7.841605, 41.772172], [-7.835975, 41.766257], [-7.834706, 41.757237], [-7.840888, 41.748293], [-7.854169, 41.742259], [-7.866208, 41.741518], [-7.878169, 41.74526], [-7.882897, 41.748709], [-7.887643, 41.757762], [-7.885664, 41.766749], [-7.877664, 41.774256]]], [[[-8.153679, 41.705988], [-8.143397, 41.696958], [-8.119396, 41.694435], [-8.115343, 41.696692], [-8.1178, 41.714725], [-8.131028, 41.723043], [-8.143082, 41.720697], [-8.151199, 41.714976], [-8.153679, 41.705988]]], [[[-8.226873, 41.697496], [-8.22406, 41.68847], [-8.215671, 41.683199], [-8.203656, 41.683154], [-8.195498, 41.688274], [-8.192492, 41.69726], [-8.20336, 41.707143], [-8.215376, 41.707501], [-8.226873, 41.697496]]], [[[-8.108317, 41.626489], [-8.116502, 41.615637], [-8.118389, 41.606644], [-8.115537, 41.597615], [-8.108805, 41.591023], [-8.096877, 41.585982], [-8.084895, 41.584979], [-8.072856, 41.587884], [-8.060741, 41.595995], [-8.055508, 41.606145], [-8.056313, 41.615159], [-8.062138, 41.624213], [-8.072233, 41.631366], [-8.084189, 41.634896], [-8.09621, 41.633808], [-8.108317, 41.626489]], [[-8.105879, 41.615555], [-8.099616, 41.624513], [-8.09631, 41.626693], [-8.084287, 41.627946], [-8.075919, 41.624325], [-8.069408, 41.615265], [-8.072594, 41.606206], [-8.084683, 41.599973], [-8.096664, 41.601264], [-8.103283, 41.606528], [-8.105879, 41.615555]]], [[[-8.660997, 41.537741], [-8.665199, 41.528471], [-8.664637, 41.519462], [-8.659816, 41.510441], [-8.649196, 41.503072], [-8.625233, 41.502908], [-8.613231, 41.506355], [-8.606729, 41.510271], [-8.597818, 41.519248], [-8.595626, 41.528248], [-8.598536, 41.537265], [-8.612977, 41.549005], [-8.624949, 41.552073], [-8.636942, 41.551747], [-8.651697, 41.546446], [-8.660997, 41.537741]]], [[[-8.361483, 41.518134], [-8.385502, 41.512859], [-8.421456, 41.512541], [-8.445475, 41.506463], [-8.455598, 41.500648], [-8.463251, 41.491677], [-8.464898, 41.482677], [-8.463289, 41.473662], [-8.457815, 41.463565], [-8.445938, 41.452106], [-8.434014, 41.44651], [-8.422071, 41.443263], [-8.410107, 41.442509], [-8.338214, 41.449323], [-8.326197, 41.453647], [-8.314141, 41.461541], [-8.305983, 41.47282], [-8.303888, 41.481815], [-8.304765, 41.490828], [-8.308613, 41.499858], [-8.313668, 41.506376], [-8.325561, 41.515026], [-8.337508, 41.518605], [-8.349484, 41.519566], [-8.361483, 41.518134]], [[-8.433637, 41.489894], [-8.421637, 41.492167], [-8.419768, 41.491465], [-8.410721, 41.482412], [-8.416325, 41.473433], [-8.421826, 41.470887], [-8.435063, 41.473527], [-8.439169, 41.482554], [-8.433637, 41.489894]], [[-8.349805, 41.487459], [-8.349767, 41.491259], [-8.337773, 41.492671], [-8.335451, 41.491009], [-8.336135, 41.482006], [-8.337894, 41.480807], [-8.347921, 41.482073], [-8.349805, 41.487459]]], [[[-8.481409, 41.508145], [-8.478815, 41.509763], [-8.481373, 41.512677], [-8.484474, 41.509788], [-8.481409, 41.508145]]], [[[-8.692482, 41.48351], [-8.692471, 41.474503], [-8.685322, 41.465891], [-8.673367, 41.461901], [-8.661386, 41.46312], [-8.648322, 41.474376], [-8.647678, 41.483382], [-8.649276, 41.48832], [-8.661198, 41.499313], [-8.673183, 41.498519], [-8.685191, 41.492948], [-8.692482, 41.48351]]], [[[-8.3748, 41.379422], [-8.377397, 41.374146], [-8.374903, 41.368654], [-8.370875, 41.365103], [-8.363005, 41.362685], [-8.351004, 41.367129], [-8.347858, 41.373983], [-8.350871, 41.380519], [-8.35458, 41.383028], [-8.362783, 41.38534], [-8.370284, 41.383115], [-8.3748, 41.379422]]], [[[-8.625662, 41.186628], [-8.632218, 41.213103], [-8.648811, 41.258194], [-8.649067, 41.294226], [-8.650786, 41.303239], [-8.654345, 41.312258], [-8.670366, 41.33032], [-8.685925, 41.340662], [-8.697851, 41.346308], [-8.721731, 41.352554], [-8.733681, 41.353615], [-8.757595, 41.35219], [-8.769559, 41.34967], [-8.793494, 41.340988], [-8.807139, 41.333367], [-8.799695, 41.14406], [-8.722952, 41.145757], [-8.735919, 41.150332], [-8.750451, 41.159373], [-8.758907, 41.168399], [-8.764164, 41.177418], [-8.766699, 41.186431], [-8.765162, 41.204443], [-8.760763, 41.213442], [-8.753477, 41.222435], [-8.741392, 41.231416], [-8.722213, 41.239158], [-8.71027, 41.241158], [-8.698335, 41.241393], [-8.68641, 41.239608], [-8.674494, 41.235894], [-8.662599, 41.228592], [-8.650739, 41.215143], [-8.645963, 41.204139], [-8.644462, 41.189472], [-8.640035, 41.196245], [-8.634946, 41.193341], [-8.632526, 41.188624], [-8.625662, 41.186628]]], [[[-8.625435, 41.185053], [-8.625435, 41.185053], [-8.625658, 41.186604], [-8.625435, 41.185053]]], [[[-8.654388, 41.164922], [-8.654388, 41.164922], [-8.654416, 41.164892], [-8.654388, 41.164922]]], [[[-8.654684, 41.164599], [-8.658345, 41.160597], [-8.654961, 41.161963], [-8.654684, 41.164599]]], [[[-8.661478, 41.1575], [-8.66266, 41.156422], [-8.66117, 41.156307], [-8.661478, 41.1575]]], [[[-8.674221, 41.149789], [-8.683159, 41.146616], [-8.674793, 41.146932], [-8.674221, 41.149789]]]]}}, {"id": "3", "type": "Feature", "properties": {"fill": "#eef8a7", "value_min": 0.4, "value_max": 0.47}, "geometry": {"type": "MultiPolygon", "coordinates": [[[[-8.59415, 41.618848], [-8.596534, 41.616668], [-8.601628, 41.615972], [-8.603996, 41.611686], [-8.613256, 41.606696], [-8.619881, 41.610269], [-8.621338, 41.604636], [-8.628833, 41.604378], [-8.636302, 41.600744], [-8.64075, 41.594422], [-8.645536, 41.593051], [-8.646744, 41.594171], [-8.649125, 41.591909], [-8.656622, 41.5921], [-8.660788, 41.588255], [-8.663794, 41.589141], [-8.665265, 41.585758], [-8.66948, 41.587989], [-8.684455, 41.586117], [-8.685608, 41.58071], [-8.697261, 41.576376], [-8.701703, 41.570277], [-8.707704, 41.570923], [-8.711586, 41.569327], [-8.716422, 41.573805], [-8.720316, 41.57356], [-8.725151, 41.577811], [-8.726633, 41.576003], [-8.734424, 41.575737], [-8.736564, 41.580228], [-8.738354, 41.579318], [-8.740778, 41.582006], [-8.74467, 41.581535], [-8.750711, 41.58623], [-8.756374, 41.582823], [-8.75635, 41.580347], [-8.762327, 41.578514], [-8.764443, 41.580303], [-8.767441, 41.580286], [-8.769874, 41.583874], [-8.768997, 41.58613], [-8.773228, 41.589482], [-8.775371, 41.593972], [-8.78556, 41.593464], [-8.797327, 41.600599], [-8.804218, 41.600109], [-8.80456, 41.604158], [-8.809434, 41.611332], [-8.828644, 41.609656], [-8.82839, 41.585633], [-8.818497, 41.554794], [-8.8221, 41.547542], [-8.821965, 41.534907], [-8.815926, 41.525624], [-8.81063, 41.5101], [-8.813279, 41.503483], [-8.812636, 41.496944], [-8.804699, 41.482068], [-8.798552, 41.474753], [-8.80154, 41.446836], [-8.806115, 41.43713], [-8.807354, 41.425915], [-8.811166, 41.417099], [-8.807139, 41.333367], [-8.793494, 41.340988], [-8.769559, 41.34967], [-8.757595, 41.35219], [-8.733681, 41.353615], [-8.721731, 41.352554], [-8.697851, 41.346308], [-8.685925, 41.340662], [-8.670366, 41.33032], [-8.654345, 41.312258], [-8.650786, 41.303239], [-8.649067, 41.294226], [-8.648811, 41.258194], [-8.632218, 41.213103], [-8.625662, 41.186628], [-8.625658, 41.186604], [-8.625435, 41.185053], [-8.621132, 41.178994], [-8.613374, 41.177451], [-8.608583, 41.174095], [-8.609164, 41.172066], [-8.604942, 41.164881], [-8.600767, 41.164222], [-8.593133, 41.166279], [-8.603228, 41.181104], [-8.613436, 41.204034], [-8.618603, 41.231075], [-8.615431, 41.24908], [-8.610959, 41.258073], [-8.602697, 41.268754], [-8.590694, 41.279135], [-8.566726, 41.292152], [-8.542784, 41.300127], [-8.518872, 41.303145], [-8.506931, 41.302599], [-8.495, 41.300705], [-8.47118, 41.292143], [-8.435049, 41.271039], [-8.432691, 41.277107], [-8.427032, 41.279372], [-8.429143, 41.284319], [-8.426171, 41.287028], [-8.426488, 41.291079], [-8.425013, 41.294909], [-8.422037, 41.296942], [-8.422647, 41.299867], [-8.407744, 41.304856], [-8.406262, 41.307335], [-8.403277, 41.307342], [-8.401801, 41.311398], [-8.399712, 41.311628], [-8.400316, 41.313202], [-8.396738, 41.314336], [-8.398835, 41.316131], [-8.393775, 41.31997], [-8.393489, 41.323122], [-8.391105, 41.324253], [-8.386325, 41.323588], [-8.380382, 41.331254], [-8.375305, 41.33104], [-8.37201, 41.328346], [-8.361563, 41.329718], [-8.358276, 41.329049], [-8.357673, 41.327249], [-8.350207, 41.327264], [-8.346032, 41.328847], [-8.342462, 41.333131], [-8.333215, 41.336299], [-8.326363, 41.342163], [-8.324568, 41.341041], [-8.323376, 41.341943], [-8.320676, 41.338121], [-8.312604, 41.334983], [-8.313794, 41.333405], [-8.31139, 41.328007], [-8.307502, 41.325762], [-8.305116, 41.326891], [-8.303024, 41.325994], [-8.303615, 41.323742], [-8.301216, 41.319694], [-8.296431, 41.316774], [-8.297618, 41.313846], [-8.296116, 41.310022], [-8.281801, 41.316569], [-8.279053, 41.324451], [-8.286658, 41.364612], [-8.286107, 41.391631], [-8.27947, 41.409605], [-8.259083, 41.436498], [-8.251162, 41.454462], [-8.251737, 41.463473], [-8.255845, 41.472507], [-8.269423, 41.490609], [-8.277234, 41.508673], [-8.277574, 41.519607], [-8.271898, 41.544668], [-8.271829, 41.553675], [-8.277565, 41.562719], [-8.289022, 41.56862], [-8.312963, 41.573018], [-8.384906, 41.575764], [-8.444847, 41.579897], [-8.456859, 41.577948], [-8.468903, 41.572138], [-8.492754, 41.554862], [-8.505062, 41.549157], [-8.52908, 41.544093], [-8.541057, 41.545834], [-8.553001, 41.552443], [-8.563729, 41.564161], [-8.587277, 41.609284], [-8.59415, 41.618848]], [[-8.660997, 41.537741], [-8.651697, 41.546446], [-8.636942, 41.551747], [-8.624949, 41.552073], [-8.612977, 41.549005], [-8.598536, 41.537265], [-8.595626, 41.528248], [-8.597818, 41.519248], [-8.606729, 41.510271], [-8.613231, 41.506355], [-8.625233, 41.502908], [-8.649196, 41.503072], [-8.659816, 41.510441], [-8.664637, 41.519462], [-8.665199, 41.528471], [-8.660997, 41.537741]], [[-8.361483, 41.518134], [-8.349484, 41.519566], [-8.337508, 41.518605], [-8.325561, 41.515026], [-8.313668, 41.506376], [-8.308613, 41.499858], [-8.304765, 41.490828], [-8.303888, 41.481815], [-8.305983, 41.47282], [-8.314141, 41.461541], [-8.326197, 41.453647], [-8.338214, 41.449323], [-8.410107, 41.442509], [-8.422071, 41.443263], [-8.434014, 41.44651], [-8.445938, 41.452106], [-8.457815, 41.463565], [-8.463289, 41.473662], [-8.464898, 41.482677], [-8.463251, 41.491677], [-8.455598, 41.500648], [-8.445475, 41.506463], [-8.421456, 41.512541], [-8.385502, 41.512859], [-8.361483, 41.518134]], [[-8.546273, 41.510049], [-8.541314, 41.509472], [-8.52938, 41.502679], [-8.495755, 41.473809], [-8.485302, 41.455748], [-8.480062, 41.437709], [-8.479269, 41.41969], [-8.485017, 41.401701], [-8.494319, 41.388855], [-8.500745, 41.383755], [-8.506349, 41.379751], [-8.518338, 41.375606], [-8.530303, 41.374739], [-8.542251, 41.376189], [-8.554187, 41.379604], [-8.578033, 41.390677], [-8.612469, 41.411209], [-8.621869, 41.420247], [-8.625639, 41.429267], [-8.625884, 41.438276], [-8.620638, 41.456273], [-8.611195, 41.474257], [-8.603635, 41.483239], [-8.589342, 41.494314], [-8.565288, 41.508204], [-8.553284, 41.511399], [-8.546273, 41.510049]], [[-8.481409, 41.508145], [-8.484474, 41.509788], [-8.481373, 41.512677], [-8.478815, 41.509763], [-8.481409, 41.508145]], [[-8.692482, 41.48351], [-8.685191, 41.492948], [-8.673183, 41.498519], [-8.661198, 41.499313], [-8.649276, 41.48832], [-8.647678, 41.483382], [-8.648322, 41.474376], [-8.661386, 41.46312], [-8.673367, 41.461901], [-8.685322, 41.465891], [-8.692471, 41.474503], [-8.692482, 41.48351]], [[-8.3748, 41.379422], [-8.370284, 41.383115], [-8.362783, 41.38534], [-8.35458, 41.383028], [-8.350871, 41.380519], [-8.347858, 41.373983], [-8.351004, 41.367129], [-8.363005, 41.362685], [-8.370875, 41.365103], [-8.374903, 41.368654], [-8.377397, 41.374146], [-8.3748, 41.379422]]], [[[-8.077975, 41.813416], [-8.034123, 41.771453], [-8.023682, 41.758998], [-8.021759, 41.749975], [-8.024398, 41.740991], [-8.023451, 41.731976], [-8.010777, 41.724705], [-7.99875, 41.725008], [-7.986754, 41.723302], [-7.974864, 41.714979], [-7.963046, 41.702348], [-7.936465, 41.668155], [-7.924713, 41.650031], [-7.914694, 41.628437], [-7.913229, 41.628885], [-7.912613, 41.63361], [-7.906014, 41.633147], [-7.906884, 41.641927], [-7.897869, 41.645511], [-7.89696, 41.647985], [-7.892759, 41.647976], [-7.892145, 41.651576], [-7.902319, 41.659925], [-7.899913, 41.66127], [-7.900198, 41.665547], [-7.898396, 41.665769], [-7.896885, 41.668692], [-7.883969, 41.67069], [-7.879755, 41.673607], [-7.877044, 41.676077], [-7.876723, 41.681253], [-7.873401, 41.686198], [-7.868896, 41.686413], [-7.868008, 41.68326], [-7.864403, 41.683701], [-7.864096, 41.685276], [-7.858987, 41.68639], [-7.857773, 41.689538], [-7.854776, 41.68818], [-7.847538, 41.695365], [-7.837912, 41.698942], [-7.835792, 41.702763], [-7.839682, 41.705924], [-7.838465, 41.709522], [-7.832453, 41.710407], [-7.825252, 41.708813], [-7.818621, 41.713522], [-7.815291, 41.718689], [-7.808986, 41.717996], [-7.808396, 41.715744], [-7.804499, 41.714158], [-7.79939, 41.714593], [-7.79788, 41.716164], [-7.796383, 41.71526], [-7.790966, 41.717044], [-7.789449, 41.719966], [-7.78464, 41.720402], [-7.78252, 41.723546], [-7.776204, 41.724652], [-7.773786, 41.727346], [-7.7678, 41.723276], [-7.763888, 41.724389], [-7.761765, 41.727758], [-7.762933, 41.733839], [-7.759307, 41.737203], [-7.759597, 41.739005], [-7.75689, 41.739446], [-7.758687, 41.740577], [-7.757758, 41.745301], [-7.748417, 41.749321], [-7.747786, 41.754496], [-7.743866, 41.756509], [-7.740214, 41.763924], [-7.726937, 41.771755], [-7.7254, 41.777152], [-7.727191, 41.779184], [-7.724177, 41.780299], [-7.725372, 41.781653], [-7.722616, 41.789521], [-7.722889, 41.793798], [-7.728879, 41.797871], [-7.727026, 41.805517], [-7.728761, 41.816776], [-7.732041, 41.821514], [-7.743152, 41.825154], [-7.742839, 41.827178], [-7.738918, 41.82874], [-7.745492, 41.836446], [-7.756173, 41.834799], [-7.768209, 41.835166], [-7.780192, 41.838393], [-7.792091, 41.846864], [-7.797234, 41.855925], [-7.797775, 41.864937], [-7.794683, 41.873911], [-7.783239, 41.885601], [-7.787377, 41.882912], [-7.794309, 41.882033], [-7.796739, 41.878214], [-7.794349, 41.87438], [-7.797064, 41.873488], [-7.803381, 41.874857], [-7.804914, 41.869459], [-7.813032, 41.871958], [-7.814229, 41.873537], [-7.823863, 41.874013], [-7.825059, 41.875817], [-7.830479, 41.875831], [-7.830789, 41.874031], [-7.832894, 41.874712], [-7.83772, 41.872924], [-7.842528, 41.875187], [-7.841663, 41.866632], [-7.849515, 41.861475], [-7.858542, 41.862622], [-7.859456, 41.860148], [-7.864877, 41.859711], [-7.87033, 41.851395], [-7.873043, 41.850501], [-7.873066, 41.844875], [-7.879056, 41.85254], [-7.886268, 41.855932], [-7.888076, 41.855486], [-7.891675, 41.859094], [-7.900698, 41.861588], [-7.904318, 41.859795], [-7.907309, 41.865203], [-7.906095, 41.868126], [-7.910299, 41.871285], [-7.909985, 41.875111], [-7.915391, 41.879397], [-7.921118, 41.877833], [-7.928044, 41.87807], [-7.935283, 41.874707], [-7.937389, 41.87516], [-7.941618, 41.870891], [-7.951254, 41.871132], [-7.956367, 41.87339], [-7.956362, 41.875191], [-7.960878, 41.875648], [-7.962086, 41.874074], [-7.973828, 41.875216], [-7.987996, 41.869157], [-7.990123, 41.860157], [-7.995547, 41.858138], [-7.994047, 41.855211], [-7.996162, 41.851837], [-8.003089, 41.850494], [-8.005804, 41.847346], [-8.007928, 41.838796], [-8.012753, 41.833624], [-8.013363, 41.829124], [-8.017873, 41.831379], [-8.02901, 41.829589], [-8.037134, 41.831171], [-8.041351, 41.828023], [-8.041054, 41.825097], [-8.045268, 41.824425], [-8.046775, 41.821951], [-8.056712, 41.81588], [-8.06664, 41.817012], [-8.072961, 41.813414], [-8.077975, 41.813416]], [[-7.865148, 41.801712], [-7.853027, 41.806391], [-7.840948, 41.808672], [-7.828935, 41.807255], [-7.817016, 41.80081], [-7.805256, 41.785863], [-7.800605, 41.7749], [-7.79741, 41.756853], [-7.799294, 41.747865], [-7.806515, 41.738934], [-7.818258, 41.733162], [-7.866466, 41.726866], [-7.882013, 41.721679], [-7.886812, 41.712719], [-7.890816, 41.709181], [-7.902834, 41.709307], [-7.907384, 41.712917], [-7.908142, 41.721931], [-7.903883, 41.730897], [-7.908443, 41.748954], [-7.906822, 41.766953], [-7.901679, 41.777097], [-7.889377, 41.792751], [-7.877215, 41.799981], [-7.865148, 41.801712]]], [[[-7.774084, 41.890342], [-7.767101, 41.892881], [-7.756592, 41.894132], [-7.758376, 41.898127], [-7.764097, 41.898595], [-7.774084, 41.890342]]], [[[-7.731709, 41.88881], [-7.725026, 41.884127], [-7.726208, 41.887665], [-7.731709, 41.88881]]], [[[-7.722477, 41.88225], [-7.720806, 41.880219], [-7.720523, 41.881793], [-7.722477, 41.88225]]], [[[-7.774386, 41.890228], [-7.774386, 41.890228], [-7.774196, 41.8903], [-7.774386, 41.890228]]], [[[-8.14294, 41.731381], [-8.167167, 41.71756], [-8.179209, 41.715942], [-8.215136, 41.727158], [-8.227129, 41.7297], [-8.239149, 41.730028], [-8.251211, 41.726815], [-8.263351, 41.716538], [-8.268244, 41.706774], [-8.269622, 41.697776], [-8.269041, 41.688765], [-8.263857, 41.672197], [-8.25206, 41.653524], [-8.240183, 41.642191], [-8.228259, 41.635268], [-8.216292, 41.631971], [-8.204257, 41.634383], [-8.192164, 41.64134], [-8.167503, 41.661053], [-8.153018, 41.669955], [-8.119539, 41.683986], [-8.102366, 41.696591], [-8.097825, 41.705563], [-8.097028, 41.72357], [-8.100722, 41.732606], [-8.106769, 41.738507], [-8.118768, 41.740418], [-8.130832, 41.73761], [-8.14294, 41.731381]], [[-8.153679, 41.705988], [-8.151199, 41.714976], [-8.143082, 41.720697], [-8.131028, 41.723043], [-8.1178, 41.714725], [-8.115343, 41.696692], [-8.119396, 41.694435], [-8.143397, 41.696958], [-8.153679, 41.705988]], [[-8.226873, 41.697496], [-8.215376, 41.707501], [-8.20336, 41.707143], [-8.192492, 41.69726], [-8.195498, 41.688274], [-8.203656, 41.683154], [-8.215671, 41.683199], [-8.22406, 41.68847], [-8.226873, 41.697496]]], [[[-8.024271, 41.602718], [-8.044348, 41.624067], [-8.060169, 41.635437], [-8.072098, 41.640827], [-8.084074, 41.642998], [-8.09608, 41.643116], [-8.108126, 41.640322], [-8.120317, 41.626795], [-8.132447, 41.617447], [-8.144517, 41.612408], [-8.169999, 41.607029], [-8.18904, 41.598157], [-8.19287, 41.589177], [-8.19231, 41.580166], [-8.188213, 41.57113], [-8.144047, 41.525773], [-8.13007, 41.516661], [-8.121846, 41.514053], [-8.109901, 41.511167], [-8.0912, 41.510886], [-8.091196, 41.516767], [-8.089398, 41.519468], [-8.090594, 41.522169], [-8.093588, 41.52307], [-8.091786, 41.531848], [-8.097775, 41.536127], [-8.097774, 41.537927], [-8.106759, 41.543557], [-8.101666, 41.542655], [-8.094175, 41.544904], [-8.087885, 41.542876], [-8.083389, 41.5449], [-8.080687, 41.551651], [-8.074097, 41.549848], [-8.073494, 41.553449], [-8.075891, 41.554575], [-8.076188, 41.557276], [-8.079783, 41.558403], [-8.081576, 41.565157], [-8.078879, 41.56493], [-8.075279, 41.568305], [-8.073182, 41.568079], [-8.069283, 41.570553], [-8.068081, 41.573478], [-8.056684, 41.579549], [-8.052181, 41.584498], [-8.052777, 41.587649], [-8.037169, 41.600242], [-8.031467, 41.602938], [-8.024271, 41.602718]], [[-8.108317, 41.626489], [-8.09621, 41.633808], [-8.084189, 41.634896], [-8.072233, 41.631366], [-8.062138, 41.624213], [-8.056313, 41.615159], [-8.055508, 41.606145], [-8.060741, 41.595995], [-8.072856, 41.587884], [-8.084895, 41.584979], [-8.096877, 41.585982], [-8.108805, 41.591023], [-8.115537, 41.597615], [-8.118389, 41.606644], [-8.116502, 41.615637], [-8.108317, 41.626489]]]]}}, {"id": "4", "type": "Feature", "properties": {"fill": "#fffebe", "value_min": 0.47, "value_max": 0.53}, "geometry": {"type": "MultiPolygon", "coordinates": [[[[-8.59415, 41.618848], [-8.587277, 41.609284], [-8.563729, 41.564161], [-8.553001, 41.552443], [-8.541057, 41.545834], [-8.52908, 41.544093], [-8.505062, 41.549157], [-8.492754, 41.554862], [-8.468903, 41.572138], [-8.456859, 41.577948], [-8.444847, 41.579897], [-8.384906, 41.575764], [-8.312963, 41.573018], [-8.289022, 41.56862], [-8.277565, 41.562719], [-8.271829, 41.553675], [-8.271898, 41.544668], [-8.277574, 41.519607], [-8.277234, 41.508673], [-8.269423, 41.490609], [-8.255845, 41.472507], [-8.251737, 41.463473], [-8.251162, 41.454462], [-8.259083, 41.436498], [-8.27947, 41.409605], [-8.286107, 41.391631], [-8.286658, 41.364612], [-8.279053, 41.324451], [-8.272266, 41.32536], [-8.265709, 41.331221], [-8.269004, 41.336169], [-8.263339, 41.340902], [-8.262751, 41.345405], [-8.256483, 41.347663], [-8.255889, 41.349689], [-8.249622, 41.353072], [-8.251123, 41.356897], [-8.248141, 41.360052], [-8.248448, 41.364328], [-8.245461, 41.364781], [-8.244272, 41.368384], [-8.239197, 41.371315], [-8.232024, 41.369971], [-8.224854, 41.370878], [-8.21738, 41.368182], [-8.214399, 41.373587], [-8.208127, 41.376968], [-8.199163, 41.377423], [-8.194677, 41.374275], [-8.191691, 41.376302], [-8.189299, 41.375403], [-8.184818, 41.376756], [-8.168382, 41.377438], [-8.164499, 41.38059], [-8.152544, 41.375866], [-8.151049, 41.37339], [-8.145073, 41.374742], [-8.139694, 41.377894], [-8.133418, 41.374292], [-8.119672, 41.376768], [-8.119672, 41.378569], [-8.116683, 41.380144], [-8.117578, 41.386447], [-8.113992, 41.386896], [-8.112795, 41.390723], [-8.110105, 41.390947], [-8.108011, 41.393648], [-8.103827, 41.392972], [-8.105321, 41.394998], [-8.10263, 41.396123], [-8.10801, 41.398825], [-8.108606, 41.403102], [-8.104419, 41.406252], [-8.104119, 41.408728], [-8.101727, 41.409403], [-8.102025, 41.411204], [-8.092756, 41.411201], [-8.09126, 41.414352], [-8.079893, 41.41975], [-8.077503, 41.416597], [-8.070923, 41.41862], [-8.066739, 41.416142], [-8.061654, 41.417489], [-8.059852, 41.424916], [-8.055959, 41.429415], [-8.05745, 41.432793], [-8.056549, 41.436394], [-8.057743, 41.438645], [-8.061033, 41.438872], [-8.063424, 41.4409], [-8.064916, 41.444052], [-8.068505, 41.444729], [-8.069999, 41.447206], [-8.069099, 41.450044], [-8.074906, 41.444111], [-8.086974, 41.437188], [-8.098991, 41.433725], [-8.110977, 41.432486], [-8.122932, 41.433482], [-8.134859, 41.436671], [-8.146753, 41.442413], [-8.159203, 41.453826], [-8.164644, 41.462873], [-8.166774, 41.471896], [-8.166155, 41.480899], [-8.162165, 41.489877], [-8.152405, 41.498813], [-8.133961, 41.504209], [-8.110012, 41.503061], [-8.088219, 41.498322], [-8.070935, 41.489177], [-8.066273, 41.483218], [-8.066069, 41.48817], [-8.072054, 41.490199], [-8.072348, 41.495601], [-8.078333, 41.49898], [-8.078332, 41.500331], [-8.093, 41.504613], [-8.0912, 41.510886], [-8.109901, 41.511167], [-8.121846, 41.514053], [-8.13007, 41.516661], [-8.144047, 41.525773], [-8.188213, 41.57113], [-8.19231, 41.580166], [-8.19287, 41.589177], [-8.18904, 41.598157], [-8.169999, 41.607029], [-8.144517, 41.612408], [-8.132447, 41.617447], [-8.120317, 41.626795], [-8.108126, 41.640322], [-8.09608, 41.643116], [-8.084074, 41.642998], [-8.072098, 41.640827], [-8.060169, 41.635437], [-8.044348, 41.624067], [-8.024271, 41.602718], [-8.019174, 41.601802], [-8.015872, 41.603824], [-8.010473, 41.604494], [-8.005671, 41.606515], [-8.003262, 41.611464], [-7.998761, 41.612809], [-7.999669, 41.608759], [-7.996976, 41.605829], [-7.996684, 41.602003], [-7.984685, 41.603564], [-7.982292, 41.60086], [-7.975689, 41.603552], [-7.974482, 41.606701], [-7.970882, 41.607147], [-7.969091, 41.603768], [-7.965796, 41.602413], [-7.9541, 41.602846], [-7.952606, 41.600592], [-7.947808, 41.60081], [-7.945413, 41.599456], [-7.942725, 41.595625], [-7.936733, 41.594264], [-7.93791, 41.601694], [-7.937004, 41.603718], [-7.931604, 41.604384], [-7.930073, 41.614735], [-7.925255, 41.620579], [-7.918952, 41.621918], [-7.914694, 41.628437], [-7.924713, 41.650031], [-7.936465, 41.668155], [-7.963046, 41.702348], [-7.974864, 41.714979], [-7.986754, 41.723302], [-7.99875, 41.725008], [-8.010777, 41.724705], [-8.023451, 41.731976], [-8.024398, 41.740991], [-8.021759, 41.749975], [-8.023682, 41.758998], [-8.034123, 41.771453], [-8.077975, 41.813416], [-8.082892, 41.810493], [-8.091013, 41.812521], [-8.093421, 41.811397], [-8.093723, 41.808471], [-8.101845, 41.809824], [-8.104853, 41.81185], [-8.115984, 41.812302], [-8.123807, 41.808702], [-8.138247, 41.808477], [-8.139751, 41.813203], [-8.14276, 41.812978], [-8.145769, 41.815453], [-8.149078, 41.814777], [-8.153893, 41.817928], [-8.161415, 41.818376], [-8.165326, 41.81815], [-8.173744, 41.808019], [-8.177054, 41.808017], [-8.182773, 41.812516], [-8.190291, 41.809587], [-8.197158, 41.814129], [-8.201063, 41.808724], [-8.204973, 41.807372], [-8.205872, 41.804445], [-8.213692, 41.803765], [-8.217598, 41.80016], [-8.217589, 41.793634], [-8.224207, 41.794303], [-8.229917, 41.791598], [-8.240744, 41.791588], [-8.24074, 41.789338], [-8.244347, 41.787984], [-8.245546, 41.785731], [-8.251257, 41.784375], [-8.251845, 41.777172], [-8.257551, 41.773564], [-8.261762, 41.774235], [-8.271366, 41.766346], [-8.280681, 41.764083], [-8.284038, 41.761109], [-8.284931, 41.757507], [-8.305674, 41.758152], [-8.311096, 41.762195], [-8.318308, 41.761283], [-8.325233, 41.765098], [-8.328234, 41.763292], [-8.336653, 41.763728], [-8.341756, 41.761468], [-8.344765, 41.762363], [-8.349267, 41.760103], [-8.352557, 41.755145], [-8.349814, 41.744122], [-8.352516, 41.743441], [-8.352203, 41.739616], [-8.357897, 41.735103], [-8.362407, 41.735994], [-8.368703, 41.73193], [-8.374122, 41.734845], [-8.384922, 41.73032], [-8.387032, 41.731891], [-8.393033, 41.729852], [-8.396942, 41.730518], [-8.400531, 41.726683], [-8.402934, 41.726452], [-8.404721, 41.722847], [-8.417349, 41.725067], [-8.422737, 41.720552], [-8.429643, 41.719859], [-8.430533, 41.717381], [-8.435927, 41.714441], [-8.441632, 41.713975], [-8.4446, 41.70654], [-8.453868, 41.697961], [-8.453255, 41.695487], [-8.461659, 41.694563], [-8.467939, 41.689593], [-8.478124, 41.685061], [-8.482012, 41.682123], [-8.484371, 41.674238], [-8.49308, 41.674886], [-8.499963, 41.671038], [-8.50927, 41.671233], [-8.51018, 41.672806], [-8.511967, 41.670324], [-8.509856, 41.668755], [-8.512252, 41.667847], [-8.514629, 41.663788], [-8.522103, 41.658811], [-8.525706, 41.659023], [-8.527769, 41.652714], [-8.534066, 41.652017], [-8.537951, 41.649302], [-8.537634, 41.646602], [-8.543876, 41.637352], [-8.543855, 41.633976], [-8.536342, 41.631977], [-8.535128, 41.62973], [-8.543431, 41.61462], [-8.554533, 41.615255], [-8.557244, 41.617046], [-8.562639, 41.61635], [-8.568056, 41.619031], [-8.570735, 41.616095], [-8.577321, 41.614269], [-8.581231, 41.615829], [-8.585766, 41.620988], [-8.591462, 41.620515], [-8.59415, 41.618848]], [[-8.199515, 41.751351], [-8.194555, 41.760323], [-8.190629, 41.763829], [-8.178537, 41.768681], [-8.166504, 41.768817], [-8.154527, 41.764685], [-8.149475, 41.759998], [-8.145238, 41.75096], [-8.146887, 41.741965], [-8.155928, 41.733025], [-8.167032, 41.728024], [-8.179056, 41.727966], [-8.191012, 41.733329], [-8.198802, 41.742339], [-8.199515, 41.751351]], [[-8.14294, 41.731381], [-8.130832, 41.73761], [-8.118768, 41.740418], [-8.106769, 41.738507], [-8.100722, 41.732606], [-8.097028, 41.72357], [-8.097825, 41.705563], [-8.102366, 41.696591], [-8.119539, 41.683986], [-8.153018, 41.669955], [-8.167503, 41.661053], [-8.192164, 41.64134], [-8.204257, 41.634383], [-8.216292, 41.631971], [-8.228259, 41.635268], [-8.240183, 41.642191], [-8.25206, 41.653524], [-8.263857, 41.672197], [-8.269041, 41.688765], [-8.269622, 41.697776], [-8.268244, 41.706774], [-8.263351, 41.716538], [-8.251211, 41.726815], [-8.239149, 41.730028], [-8.227129, 41.7297], [-8.215136, 41.727158], [-8.179209, 41.715942], [-8.167167, 41.71756], [-8.14294, 41.731381]], [[-8.431664, 41.715049], [-8.420058, 41.716648], [-8.407556, 41.722211], [-8.395514, 41.724288], [-8.383498, 41.723608], [-8.3715, 41.721083], [-8.359526, 41.716199], [-8.347569, 41.709869], [-8.335646, 41.700413], [-8.326142, 41.689114], [-8.321573, 41.68008], [-8.318895, 41.66205], [-8.321045, 41.653056], [-8.3259, 41.644077], [-8.33633, 41.633794], [-8.348402, 41.627241], [-8.360442, 41.623722], [-8.372457, 41.62262], [-8.384447, 41.624018], [-8.396413, 41.628218], [-8.429472, 41.653645], [-8.43929, 41.662701], [-8.445349, 41.671737], [-8.448811, 41.680761], [-8.448745, 41.689768], [-8.443793, 41.702572], [-8.431664, 41.715049]], [[-8.071092, 41.710817], [-8.058965, 41.718128], [-8.046954, 41.717379], [-8.041141, 41.714111], [-8.02428, 41.695955], [-7.999378, 41.684513], [-7.990599, 41.67765], [-7.983728, 41.668582], [-7.980922, 41.65955], [-7.981783, 41.650551], [-7.987164, 41.641591], [-8.000174, 41.633066], [-8.012219, 41.630499], [-8.02421, 41.631424], [-8.03616, 41.63515], [-8.059964, 41.649496], [-8.071927, 41.652706], [-8.095924, 41.654308], [-8.111632, 41.660635], [-8.117365, 41.669686], [-8.115347, 41.678678], [-8.095346, 41.695562], [-8.076158, 41.705391], [-8.071092, 41.710817]], [[-8.231297, 41.378942], [-8.232575, 41.382279], [-8.231237, 41.384032], [-8.219254, 41.3859], [-8.215211, 41.382162], [-8.219381, 41.375339], [-8.231297, 41.378942]]], [[[-8.546273, 41.510049], [-8.553284, 41.511399], [-8.565288, 41.508204], [-8.589342, 41.494314], [-8.603635, 41.483239], [-8.611195, 41.474257], [-8.620638, 41.456273], [-8.625884, 41.438276], [-8.625639, 41.429267], [-8.621869, 41.420247], [-8.612469, 41.411209], [-8.578033, 41.390677], [-8.554187, 41.379604], [-8.542251, 41.376189], [-8.530303, 41.374739], [-8.518338, 41.375606], [-8.506349, 41.379751], [-8.500745, 41.383755], [-8.494319, 41.388855], [-8.485017, 41.401701], [-8.479269, 41.41969], [-8.480062, 41.437709], [-8.485302, 41.455748], [-8.495755, 41.473809], [-8.52938, 41.502679], [-8.541314, 41.509472], [-8.546273, 41.510049]], [[-8.577442, 41.481889], [-8.56543, 41.487089], [-8.553439, 41.488724], [-8.541471, 41.487209], [-8.529528, 41.482141], [-8.518155, 41.473905], [-8.510546, 41.464865], [-8.507112, 41.455843], [-8.506471, 41.446833], [-8.50851, 41.437834], [-8.517973, 41.425142], [-8.529992, 41.418011], [-8.54198, 41.414822], [-8.553948, 41.414514], [-8.565899, 41.416653], [-8.577834, 41.421527], [-8.589744, 41.43057], [-8.595351, 41.438172], [-8.598006, 41.447189], [-8.597625, 41.456195], [-8.594401, 41.465191], [-8.589484, 41.471762], [-8.577442, 41.481889]]], [[[-8.435049, 41.271039], [-8.47118, 41.292143], [-8.495, 41.300705], [-8.506931, 41.302599], [-8.518872, 41.303145], [-8.542784, 41.300127], [-8.566726, 41.292152], [-8.590694, 41.279135], [-8.602697, 41.268754], [-8.610959, 41.258073], [-8.615431, 41.24908], [-8.618603, 41.231075], [-8.613436, 41.204034], [-8.603228, 41.181104], [-8.593133, 41.166279], [-8.589174, 41.167645], [-8.589194, 41.170572], [-8.583263, 41.174422], [-8.582094, 41.177803], [-8.578825, 41.178941], [-8.580327, 41.180736], [-8.580072, 41.187129], [-8.580229, 41.187264], [-8.580372, 41.187387], [-8.591205, 41.19704], [-8.595782, 41.203973], [-8.599613, 41.212995], [-8.600984, 41.222007], [-8.599751, 41.231011], [-8.595541, 41.240004], [-8.590902, 41.245727], [-8.578912, 41.254373], [-8.566947, 41.258725], [-8.554996, 41.260693], [-8.543061, 41.260437], [-8.530478, 41.257773], [-8.519238, 41.253259], [-8.507366, 41.244814], [-8.496797, 41.230607], [-8.494665, 41.22313], [-8.487935, 41.230354], [-8.490333, 41.232598], [-8.484411, 41.240495], [-8.476346, 41.237818], [-8.475756, 41.23917], [-8.470986, 41.23941], [-8.471604, 41.243459], [-8.469227, 41.245267], [-8.463258, 41.244384], [-8.459989, 41.246644], [-8.455512, 41.245982], [-8.455541, 41.251834], [-8.452276, 41.25522], [-8.449891, 41.255452], [-8.449304, 41.257479], [-8.447812, 41.257258], [-8.449028, 41.261982], [-8.439785, 41.262907], [-8.438023, 41.268989], [-8.435042, 41.269447], [-8.435049, 41.271039]]]]}}, {"id": "7", "type": "Feature", "properties": {"fill": "#f77f52", "value_min": 0.67, "value_max": 0.73}, "geometry": {"type": "MultiPolygon", "coordinates": [[[[-8.378097, 41.6804], [-8.386049, 41.680443], [-8.39597, 41.675565], [-8.399616, 41.671507], [-8.399462, 41.662499], [-8.396128, 41.658699], [-8.384175, 41.652693], [-8.372149, 41.654301], [-8.363181, 41.662304], [-8.363167, 41.671311], [-8.371907, 41.679278], [-8.378097, 41.6804]]], [[[-8.083473, 41.685375], [-8.095507, 41.684085], [-8.100357, 41.678561], [-8.095685, 41.671366], [-8.083679, 41.670849], [-8.076929, 41.678376], [-8.083473, 41.685375]]], [[[-8.541624, 41.465417], [-8.553585, 41.467479], [-8.560202, 41.465066], [-8.567491, 41.456086], [-8.562369, 41.447059], [-8.553751, 41.443352], [-8.541765, 41.445386], [-8.539632, 41.44697], [-8.535444, 41.455961], [-8.541624, 41.465417]]]]}}]}