{"type": "FeatureCollection", "features": [{"id": "2", "type": "Feature", "properties": {"fill": "#ddf190", "value_min": 0.33, "value_max": -0.4}, "geometry": {"type": "MultiPolygon", "coordinates": [[[[-8.465846, 41.691327], [-8.482012, 41.682123], [-8.484371, 41.674238], [-8.49308, 41.674886], [-8.499963, 41.671038], [-8.50927, 41.671233], [-8.51018, 41.672806], [-8.511967, 41.670324], [-8.509856, 41.668755], [-8.522103, 41.658811], [-8.525706, 41.659023], [-8.527769, 41.652714], [-8.534066, 41.652017], [-8.537355, 41.64998], [-8.537634, 41.646602], [-8.543876, 41.637352], [-8.543855, 41.633976], [-8.536342, 41.631977], [-8.535128, 41.62973], [-8.543431, 41.61462], [-8.554533, 41.615255], [-8.557244, 41.617046], [-8.562639, 41.61635], [-8.568056, 41.619031], [-8.570735, 41.616095], [-8.577321, 41.614269], [-8.581231, 41.615829], [-8.585766, 41.620988], [-8.591462, 41.620515], [-8.596534, 41.616668], [-8.601628, 41.615972], [-8.603996, 41.611686], [-8.613256, 41.606696], [-8.619881, 41.610269], [-8.621338, 41.604636], [-8.628833, 41.604378], [-8.636302, 41.600744], [-8.64075, 41.594422], [-8.645536, 41.593051], [-8.646744, 41.594171], [-8.649125, 41.591909], [-8.656622, 41.5921], [-8.660788, 41.588255], [-8.663794, 41.589141], [-8.665265, 41.585758], [-8.66948, 41.587989], [-8.684455, 41.586117], [-8.685608, 41.58071], [-8.697261, 41.576376], [-8.701703, 41.570277], [-8.707704, 41.570923], [-8.712485, 41.569323], [-8.716422, 41.573805], [-8.720316, 41.57356], [-8.725151, 41.577811], [-8.726633, 41.576003], [-8.734424, 41.575737], [-8.736564, 41.580228], [-8.738354, 41.579318], [-8.740778, 41.582006], [-8.74467, 41.581535], [-8.750711, 41.58623], [-8.756374, 41.582823], [-8.75635, 41.580347], [-8.762327, 41.578514], [-8.764443, 41.580303], [-8.767441, 41.580286], [-8.769874, 41.583874], [-8.768997, 41.58613], [-8.773228, 41.589482], [-8.775371, 41.593972], [-8.78556, 41.593464], [-8.797327, 41.600599], [-8.804218, 41.600109], [-8.80456, 41.604158], [-8.809434, 41.611332], [-8.828644, 41.609656], [-8.82839, 41.585633], [-8.818497, 41.554794], [-8.8221, 41.547542], [-8.821965, 41.534907], [-8.815926, 41.525624], [-8.81063, 41.5101], [-8.813279, 41.503483], [-8.812636, 41.496944], [-8.804699, 41.482068], [-8.798552, 41.474753], [-8.80154, 41.446836], [-8.806115, 41.43713], [-8.807354, 41.425915], [-8.811193, 41.416638], [-8.806499, 41.31713], [-8.791925, 41.330604], [-8.76959, 41.340765], [-8.745672, 41.344331], [-8.721778, 41.341558], [-8.697915, 41.332587], [-8.685998, 41.325487], [-8.669313, 41.312302], [-8.655132, 41.294245], [-8.649605, 41.276212], [-8.649953, 41.267206], [-8.653514, 41.258209], [-8.662484, 41.250956], [-8.686394, 41.242811], [-8.722225, 41.23621], [-8.7461, 41.233853], [-8.769959, 41.235872], [-8.781879, 41.239696], [-8.793793, 41.245938], [-8.804045, 41.254807], [-8.799695, 41.14406], [-8.674793, 41.146932], [-8.674849, 41.153767], [-8.672489, 41.15648], [-8.66117, 41.156307], [-8.662078, 41.158104], [-8.660313, 41.160813], [-8.657033, 41.160378], [-8.654961, 41.161963], [-8.653231, 41.169174], [-8.655366, 41.175467], [-8.647955, 41.180228], [-8.647696, 41.185181], [-8.640929, 41.196241], [-8.634946, 41.193341], [-8.632526, 41.188624], [-8.625658, 41.186628], [-8.621132, 41.178994], [-8.613374, 41.177451], [-8.608583, 41.174095], [-8.609164, 41.172066], [-8.604942, 41.164881], [-8.59422, 41.165149], [-8.589174, 41.167645], [-8.589194, 41.170572], [-8.585633, 41.172563], [-8.594318, 41.176945], [-8.605267, 41.185991], [-8.612094, 41.195022], [-8.61991, 41.213063], [-8.621443, 41.231084], [-8.617997, 41.240081], [-8.608792, 41.249058], [-8.59083, 41.257233], [-8.578873, 41.260439], [-8.554986, 41.262218], [-8.543059, 41.260683], [-8.531146, 41.257215], [-8.515389, 41.248702], [-8.505815, 41.239654], [-8.500055, 41.230621], [-8.497304, 41.221997], [-8.493861, 41.223583], [-8.487935, 41.230354], [-8.490333, 41.232598], [-8.484411, 41.240495], [-8.476346, 41.237818], [-8.475756, 41.23917], [-8.470986, 41.23941], [-8.471604, 41.243459], [-8.469227, 41.245267], [-8.463258, 41.244384], [-8.459989, 41.246644], [-8.454323, 41.246886], [-8.455541, 41.251834], [-8.452276, 41.25522], [-8.449891, 41.255452], [-8.449304, 41.257479], [-8.447812, 41.257258], [-8.449028, 41.261982], [-8.439785, 41.262907], [-8.438023, 41.268989], [-8.434745, 41.269673], [-8.432691, 41.277107], [-8.427032, 41.279372], [-8.429143, 41.284319], [-8.426171, 41.287028], [-8.426488, 41.291079], [-8.425013, 41.294909], [-8.422037, 41.296942], [-8.422647, 41.299867], [-8.407744, 41.304856], [-8.406262, 41.307335], [-8.402979, 41.307568], [-8.401801, 41.311398], [-8.399712, 41.311676], [-8.420659, 41.320327], [-8.436371, 41.329412], [-8.448927, 41.338481], [-8.46649, 41.356579], [-8.473033, 41.374624], [-8.475729, 41.410667], [-8.485809, 41.446742], [-8.495225, 41.464799], [-8.502289, 41.473837], [-8.532277, 41.500985], [-8.538763, 41.510019], [-8.553169, 41.56412], [-8.554871, 41.582141], [-8.550912, 41.591133], [-8.540683, 41.598591], [-8.528666, 41.601056], [-8.516672, 41.600269], [-8.485128, 41.590857], [-8.468774, 41.587831], [-8.420808, 41.585163], [-8.396801, 41.586557], [-8.384782, 41.588784], [-8.372746, 41.592786], [-8.360682, 41.599403], [-8.34858, 41.609541], [-8.335261, 41.626117], [-8.326696, 41.644082], [-8.324885, 41.662086], [-8.330448, 41.680132], [-8.347596, 41.707139], [-8.361703, 41.735771], [-8.361806, 41.735953], [-8.36183, 41.735996], [-8.368703, 41.73193], [-8.374122, 41.734845], [-8.382457, 41.731226], [-8.377817, 41.716427], [-8.379366, 41.707428], [-8.383725, 41.699842], [-8.395839, 41.689574], [-8.40792, 41.682576], [-8.414755, 41.680593], [-8.428582, 41.671655], [-8.405826, 41.644518], [-8.401774, 41.63549], [-8.401562, 41.626482], [-8.405318, 41.617494], [-8.414507, 41.608534], [-8.432661, 41.601608], [-8.444668, 41.600743], [-8.456656, 41.602255], [-8.46862, 41.606642], [-8.483343, 41.617871], [-8.488942, 41.626903], [-8.490657, 41.635918], [-8.489332, 41.644919], [-8.484381, 41.653905], [-8.468111, 41.668602], [-8.460815, 41.671811], [-8.457902, 41.680804], [-8.465846, 41.691327]], [[-8.64884, 41.569011], [-8.636839, 41.570132], [-8.624851, 41.569096], [-8.612878, 41.565554], [-8.600921, 41.559551], [-8.586906, 41.546231], [-8.581598, 41.537205], [-8.579107, 41.528188], [-8.58231, 41.492171], [-8.553451, 41.48696], [-8.541501, 41.482874], [-8.529569, 41.476598], [-8.518094, 41.464897], [-8.514097, 41.455873], [-8.513764, 41.446864], [-8.517888, 41.436525], [-8.529939, 41.425319], [-8.541936, 41.421066], [-8.553909, 41.420152], [-8.565866, 41.421643], [-8.583584, 41.429123], [-8.59443, 41.438169], [-8.599682, 41.447195], [-8.601394, 41.456208], [-8.599525, 41.483224], [-8.637251, 41.496442], [-8.663789, 41.510452], [-8.675633, 41.519494], [-8.682076, 41.528519], [-8.683793, 41.537531], [-8.68201, 41.546534], [-8.672883, 41.558003], [-8.660853, 41.565297], [-8.64884, 41.569011]], [[-8.649678, 41.413678], [-8.625764, 41.410633], [-8.601881, 41.402906], [-8.581197, 41.393084], [-8.554135, 41.374967], [-8.544617, 41.365922], [-8.539823, 41.356895], [-8.539966, 41.347888], [-8.545019, 41.338901], [-8.55534, 41.329933], [-8.5785, 41.318445], [-8.590469, 41.315014], [-8.614376, 41.312948], [-8.638245, 41.317509], [-8.662079, 41.329432], [-8.675768, 41.339343], [-8.69341, 41.357407], [-8.70182, 41.375444], [-8.702111, 41.384453], [-8.697626, 41.395048], [-8.685613, 41.405688], [-8.673625, 41.41047], [-8.649678, 41.413678]]], [[[-8.116503, 41.382395], [-8.132984, 41.399587], [-8.144578, 41.408681], [-8.15904, 41.417912], [-8.182828, 41.429466], [-8.19475, 41.43321], [-8.218646, 41.436711], [-8.278481, 41.437867], [-8.290379, 41.444422], [-8.295369, 41.481763], [-8.301627, 41.499816], [-8.307001, 41.508856], [-8.313554, 41.517209], [-8.325449, 41.525825], [-8.337397, 41.52958], [-8.349388, 41.529102], [-8.361419, 41.524561], [-8.373511, 41.513555], [-8.379664, 41.500263], [-8.380443, 41.482253], [-8.374059, 41.456723], [-8.362255, 41.43944], [-8.350369, 41.430946], [-8.328083, 41.418907], [-8.322665, 41.409867], [-8.317897, 41.391824], [-8.31587, 41.373797], [-8.318579, 41.355798], [-8.324568, 41.341128], [-8.323376, 41.341943], [-8.316788, 41.335876], [-8.313802, 41.336331], [-8.310792, 41.327557], [-8.308701, 41.327561], [-8.307502, 41.325762], [-8.305116, 41.326891], [-8.303024, 41.325994], [-8.303615, 41.323742], [-8.301216, 41.319694], [-8.296431, 41.316774], [-8.297618, 41.313846], [-8.295817, 41.310022], [-8.281801, 41.316569], [-8.281808, 41.319721], [-8.278828, 41.321976], [-8.278238, 41.325128], [-8.273161, 41.325134], [-8.269582, 41.326939], [-8.265709, 41.331221], [-8.269004, 41.336169], [-8.263339, 41.340902], [-8.262751, 41.345405], [-8.25811, 41.347661], [-8.265582, 41.355472], [-8.270553, 41.364511], [-8.272825, 41.373533], [-8.272644, 41.38254], [-8.269682, 41.391528], [-8.263131, 41.400494], [-8.254898, 41.406712], [-8.242871, 41.412074], [-8.230878, 41.414468], [-8.218911, 41.414612], [-8.206969, 41.412611], [-8.19506, 41.408087], [-8.182865, 41.399952], [-8.174987, 41.390888], [-8.170456, 41.377212], [-8.1642, 41.38059], [-8.152544, 41.375866], [-8.151049, 41.37339], [-8.145073, 41.374742], [-8.139694, 41.377894], [-8.131924, 41.374292], [-8.119672, 41.376768], [-8.116503, 41.382395]], [[-8.337615, 41.508134], [-8.325674, 41.50414], [-8.320641, 41.49993], [-8.314842, 41.490888], [-8.314237, 41.481877], [-8.3188, 41.472897], [-8.326059, 41.467008], [-8.338064, 41.464022], [-8.350024, 41.46551], [-8.361625, 41.473143], [-8.366385, 41.482176], [-8.366488, 41.491184], [-8.361638, 41.500165], [-8.349607, 41.507253], [-8.337615, 41.508134]]], [[[-7.889566, 41.781773], [-7.903784, 41.766924], [-7.914168, 41.750059], [-7.933798, 41.731179], [-7.937707, 41.722208], [-7.937778, 41.713202], [-7.934176, 41.704161], [-7.927081, 41.696837], [-7.915177, 41.690115], [-7.903184, 41.688713], [-7.891096, 41.692881], [-7.878831, 41.707183], [-7.872059, 41.721582], [-7.866443, 41.728151], [-7.824182, 41.739116], [-7.811639, 41.747994], [-7.808179, 41.756965], [-7.808842, 41.765978], [-7.81303, 41.775029], [-7.822482, 41.784133], [-7.829289, 41.78784], [-7.841275, 41.790495], [-7.865366, 41.789337], [-7.877441, 41.787051], [-7.889566, 41.781773]], [[-7.853537, 41.77778], [-7.8416, 41.772443], [-7.835355, 41.76625], [-7.833936, 41.757229], [-7.839738, 41.748281], [-7.854183, 41.741498], [-7.866236, 41.73995], [-7.878235, 41.741444], [-7.88743, 41.748753], [-7.889673, 41.757781], [-7.886879, 41.766761], [-7.874498, 41.775647], [-7.865561, 41.778285], [-7.853537, 41.77778]], [[-7.89047, 41.729301], [-7.884339, 41.721702], [-7.885909, 41.71271], [-7.890848, 41.707346], [-7.902889, 41.706058], [-7.912238, 41.712963], [-7.911666, 41.721964], [-7.902498, 41.729046], [-7.89047, 41.729301]]], [[[-8.032427, 41.741058], [-8.031438, 41.732043], [-8.023547, 41.722969], [-8.010893, 41.71719], [-7.998875, 41.716917], [-7.986781, 41.721546], [-7.978412, 41.731584], [-7.980065, 41.740606], [-7.989413, 41.749695], [-7.998292, 41.754459], [-8.010292, 41.756303], [-8.022367, 41.753303], [-8.032427, 41.741058]], [[-8.003989, 41.740815], [-7.998983, 41.731765], [-8.01075, 41.726492], [-8.020533, 41.731951], [-8.016195, 41.740921], [-8.010492, 41.743323], [-8.003989, 41.740815]]], [[[-8.22731, 41.714613], [-8.240297, 41.706593], [-8.246927, 41.697629], [-8.248399, 41.688632], [-8.245165, 41.679604], [-8.239804, 41.674444], [-8.22786, 41.668654], [-8.215865, 41.667217], [-8.203821, 41.669828], [-8.191725, 41.676455], [-8.184186, 41.688194], [-8.183862, 41.697199], [-8.188803, 41.706241], [-8.203265, 41.714866], [-8.215262, 41.716822], [-8.22731, 41.714613]], [[-8.203346, 41.708327], [-8.192107, 41.697257], [-8.194544, 41.688267], [-8.203678, 41.681424], [-8.215702, 41.680643], [-8.228857, 41.688503], [-8.230565, 41.697521], [-8.222452, 41.706474], [-8.215355, 41.70919], [-8.203346, 41.708327]]], [[[-8.076189, 41.556231], [-8.097224, 41.561069], [-8.121218, 41.560445], [-8.133255, 41.557111], [-8.141512, 41.552776], [-8.150741, 41.543837], [-8.154146, 41.534855], [-8.153684, 41.525845], [-8.148377, 41.516798], [-8.133898, 41.50893], [-8.11, 41.504002], [-8.082223, 41.501423], [-8.093, 41.504613], [-8.0909, 41.511478], [-8.097935, 41.50992], [-8.109909, 41.51059], [-8.126752, 41.516636], [-8.133218, 41.525692], [-8.132618, 41.534695], [-8.124686, 41.543642], [-8.109383, 41.549004], [-8.097398, 41.548626], [-8.084967, 41.544225], [-8.083389, 41.5449], [-8.081886, 41.550977], [-8.079489, 41.551876], [-8.074097, 41.549848], [-8.072897, 41.551197], [-8.075889, 41.556135], [-8.07594, 41.556151], [-8.076189, 41.556231]]]]}}, {"id": "1", "type": "Feature", "properties": {"fill": "#bde282", "value_min": 0.27, "value_max": -0.33}, "geometry": {"type": "MultiPolygon", "coordinates": [[[[-7.853537, 41.77778], [-7.865561, 41.778285], [-7.874498, 41.775647], [-7.886879, 41.766761], [-7.889673, 41.757781], [-7.88743, 41.748753], [-7.878235, 41.741444], [-7.866236, 41.73995], [-7.854183, 41.741498], [-7.839738, 41.748281], [-7.833936, 41.757229], [-7.835355, 41.76625], [-7.8416, 41.772443], [-7.853537, 41.77778]], [[-7.853728, 41.767025], [-7.84909, 41.757382], [-7.853993, 41.752137], [-7.866083, 41.748649], [-7.877742, 41.757665], [-7.872005, 41.766616], [-7.865718, 41.76938], [-7.853728, 41.767025]]], [[[-8.465846, 41.691327], [-8.457902, 41.680804], [-8.460815, 41.671811], [-8.468111, 41.668602], [-8.484381, 41.653905], [-8.489332, 41.644919], [-8.490657, 41.635918], [-8.488942, 41.626903], [-8.483343, 41.617871], [-8.46862, 41.606642], [-8.456656, 41.602255], [-8.444668, 41.600743], [-8.432661, 41.601608], [-8.414507, 41.608534], [-8.405318, 41.617494], [-8.401562, 41.626482], [-8.401774, 41.63549], [-8.405826, 41.644518], [-8.428582, 41.671655], [-8.414755, 41.680593], [-8.40792, 41.682576], [-8.395839, 41.689574], [-8.383725, 41.699842], [-8.379366, 41.707428], [-8.377817, 41.716427], [-8.382457, 41.731226], [-8.396942, 41.730518], [-8.400531, 41.726683], [-8.402933, 41.726297], [-8.399527, 41.716542], [-8.407701, 41.706489], [-8.419741, 41.704187], [-8.431539, 41.707698], [-8.436212, 41.71444], [-8.441632, 41.713975], [-8.4446, 41.70654], [-8.453868, 41.697961], [-8.453255, 41.695487], [-8.461659, 41.694563], [-8.465846, 41.691327]], [[-8.444313, 41.642157], [-8.432342, 41.638023], [-8.429626, 41.635632], [-8.426144, 41.626607], [-8.431347, 41.617626], [-8.444557, 41.613708], [-8.458549, 41.617757], [-8.464325, 41.626791], [-8.461333, 41.635784], [-8.456341, 41.639712], [-8.444313, 41.642157]]], [[[-8.003989, 41.740815], [-8.010492, 41.743323], [-8.016195, 41.740921], [-8.020533, 41.731951], [-8.01075, 41.726492], [-7.998983, 41.731765], [-8.003989, 41.740815]]], [[[-7.89047, 41.729301], [-7.902498, 41.729046], [-7.911666, 41.721964], [-7.912238, 41.712963], [-7.902889, 41.706058], [-7.890848, 41.707346], [-7.885909, 41.71271], [-7.884339, 41.721702], [-7.89047, 41.729301]]], [[[-8.203346, 41.708327], [-8.215355, 41.70919], [-8.222452, 41.706474], [-8.230565, 41.697521], [-8.228857, 41.688503], [-8.215702, 41.680643], [-8.203678, 41.681424], [-8.194544, 41.688267], [-8.192107, 41.697257], [-8.203346, 41.708327]], [[-8.20346, 41.699066], [-8.201866, 41.697325], [-8.203525, 41.693795], [-8.215532, 41.694671], [-8.216962, 41.697429], [-8.215482, 41.698749], [-8.20346, 41.699066]]], [[[-8.64884, 41.569011], [-8.660853, 41.565297], [-8.672883, 41.558003], [-8.68201, 41.546534], [-8.683793, 41.537531], [-8.682076, 41.528519], [-8.675633, 41.519494], [-8.663789, 41.510452], [-8.637251, 41.496442], [-8.599525, 41.483224], [-8.601394, 41.456208], [-8.599682, 41.447195], [-8.59443, 41.438169], [-8.583584, 41.429123], [-8.565866, 41.421643], [-8.553909, 41.420152], [-8.541936, 41.421066], [-8.529939, 41.425319], [-8.517888, 41.436525], [-8.513764, 41.446864], [-8.514097, 41.455873], [-8.518094, 41.464897], [-8.529569, 41.476598], [-8.541501, 41.482874], [-8.553451, 41.48696], [-8.58231, 41.492171], [-8.579107, 41.528188], [-8.581598, 41.537205], [-8.586906, 41.546231], [-8.600921, 41.559551], [-8.612878, 41.565554], [-8.624851, 41.569096], [-8.636839, 41.570132], [-8.64884, 41.569011]], [[-8.624995, 41.544205], [-8.613023, 41.541298], [-8.607625, 41.537297], [-8.602202, 41.528271], [-8.604189, 41.51927], [-8.613198, 41.511925], [-8.625193, 41.509971], [-8.637153, 41.514007], [-8.644096, 41.519401], [-8.64746, 41.528418], [-8.643267, 41.537413], [-8.636998, 41.541794], [-8.624995, 41.544205]], [[-8.553569, 41.469847], [-8.54161, 41.467392], [-8.538159, 41.464979], [-8.532947, 41.455951], [-8.536397, 41.446957], [-8.541784, 41.442763], [-8.553769, 41.440678], [-8.568078, 41.447081], [-8.571586, 41.456101], [-8.566982, 41.465091], [-8.553569, 41.469847]]], [[[-8.084967, 41.544225], [-8.097398, 41.548626], [-8.109383, 41.549004], [-8.124686, 41.543642], [-8.132618, 41.534695], [-8.133218, 41.525692], [-8.126752, 41.516636], [-8.109909, 41.51059], [-8.097935, 41.50992], [-8.0909, 41.511478], [-8.091196, 41.516767], [-8.089398, 41.519468], [-8.090594, 41.522169], [-8.093312, 41.52307], [-8.097808, 41.519099], [-8.109801, 41.518506], [-8.118355, 41.525579], [-8.114691, 41.534558], [-8.109542, 41.53736], [-8.097775, 41.536586], [-8.097774, 41.537927], [-8.106459, 41.543782], [-8.101666, 41.542655], [-8.094175, 41.544904], [-8.087885, 41.542876], [-8.084967, 41.544225]]], [[[-8.093466, 41.532749], [-8.092292, 41.529597], [-8.091487, 41.531173], [-8.093466, 41.532749]]], [[[-8.337615, 41.508134], [-8.349607, 41.507253], [-8.361638, 41.500165], [-8.366488, 41.491184], [-8.366385, 41.482176], [-8.361625, 41.473143], [-8.350024, 41.46551], [-8.338064, 41.464022], [-8.326059, 41.467008], [-8.3188, 41.472897], [-8.314237, 41.481877], [-8.314842, 41.490888], [-8.320641, 41.49993], [-8.325674, 41.50414], [-8.337615, 41.508134]], [[-8.335772, 41.491011], [-8.336518, 41.482008], [-8.343656, 41.482049], [-8.346733, 41.491074], [-8.337776, 41.492382], [-8.335772, 41.491011]]], [[[-8.170456, 41.377212], [-8.174987, 41.390888], [-8.182865, 41.399952], [-8.19506, 41.408087], [-8.206969, 41.412611], [-8.218911, 41.414612], [-8.230878, 41.414468], [-8.242871, 41.412074], [-8.254898, 41.406712], [-8.263131, 41.400494], [-8.269682, 41.391528], [-8.272644, 41.38254], [-8.272825, 41.373533], [-8.270553, 41.364511], [-8.265582, 41.355472], [-8.25811, 41.347661], [-8.249622, 41.353072], [-8.251123, 41.356897], [-8.248141, 41.360052], [-8.248448, 41.364328], [-8.245461, 41.364781], [-8.244272, 41.368384], [-8.241585, 41.369971], [-8.244926, 41.373353], [-8.246394, 41.382371], [-8.240916, 41.391342], [-8.231093, 41.396252], [-8.219123, 41.396854], [-8.207217, 41.392231], [-8.20058, 41.382061], [-8.201397, 41.377422], [-8.19707, 41.376524], [-8.194976, 41.374275], [-8.191691, 41.376302], [-8.189299, 41.375403], [-8.184818, 41.376756], [-8.170456, 41.377212]]], [[[-8.804045, 41.254807], [-8.793793, 41.245938], [-8.781879, 41.239696], [-8.769959, 41.235872], [-8.7461, 41.233853], [-8.722225, 41.23621], [-8.686394, 41.242811], [-8.662484, 41.250956], [-8.653514, 41.258209], [-8.649953, 41.267206], [-8.649605, 41.276212], [-8.655132, 41.294245], [-8.669313, 41.312302], [-8.685998, 41.325487], [-8.697915, 41.332587], [-8.721778, 41.341558], [-8.745672, 41.344331], [-8.76959, 41.340765], [-8.791925, 41.330604], [-8.806499, 41.31713], [-8.804045, 41.254807]], [[-8.721877, 41.318326], [-8.709935, 41.317024], [-8.69801, 41.311983], [-8.689792, 41.303351], [-8.686764, 41.294335], [-8.68907, 41.285334], [-8.697719, 41.276349], [-8.710135, 41.271658], [-8.722078, 41.270929], [-8.734007, 41.273465], [-8.740074, 41.276452], [-8.749569, 41.285481], [-8.752214, 41.294495], [-8.750028, 41.303498], [-8.74138, 41.312486], [-8.733834, 41.316099], [-8.721877, 41.318326]]], [[[-8.497304, 41.221997], [-8.500055, 41.230621], [-8.505815, 41.239654], [-8.515389, 41.248702], [-8.531146, 41.257215], [-8.543059, 41.260683], [-8.554986, 41.262218], [-8.578873, 41.260439], [-8.59083, 41.257233], [-8.608792, 41.249058], [-8.617997, 41.240081], [-8.621443, 41.231084], [-8.61991, 41.213063], [-8.612094, 41.195022], [-8.605267, 41.185991], [-8.594318, 41.176945], [-8.585633, 41.172563], [-8.582094, 41.177803], [-8.578825, 41.178941], [-8.581296, 41.191762], [-8.575958, 41.195609], [-8.576894, 41.201908], [-8.574515, 41.202593], [-8.57423, 41.20462], [-8.567971, 41.204644], [-8.565895, 41.206227], [-8.567697, 41.208246], [-8.566512, 41.209376], [-8.559636, 41.206251], [-8.554271, 41.20627], [-8.549521, 41.209214], [-8.544157, 41.209458], [-8.54238, 41.211265], [-8.532257, 41.213102], [-8.52653, 41.202542], [-8.523236, 41.200077], [-8.520554, 41.200086], [-8.51163, 41.203042], [-8.510456, 41.206197], [-8.505693, 41.207113], [-8.504239, 41.213646], [-8.500076, 41.21546], [-8.50308, 41.219502], [-8.502204, 41.222656], [-8.497304, 41.221997]]]]}}, {"id": "0", "type": "Feature", "properties": {"fill": "#98d277", "value_min": 0.2, "value_max": -0.27}, "geometry": {"type": "MultiPolygon", "coordinates": [[[[-7.853728, 41.767025], [-7.865718, 41.76938], [-7.872005, 41.766616], [-7.877742, 41.757665], [-7.866083, 41.748649], [-7.853993, 41.752137], [-7.84909, 41.757382], [-7.853728, 41.767025]]], [[[-8.436212, 41.71444], [-8.431539, 41.707698], [-8.419741, 41.704187], [-8.407701, 41.706489], [-8.399527, 41.716542], [-8.402933, 41.726297], [-8.404721, 41.722847], [-8.417349, 41.725067], [-8.422737, 41.720552], [-8.429643, 41.719859], [-8.430533, 41.717381], [-8.436212, 41.71444]]], [[[-8.20346, 41.699066], [-8.215482, 41.698749], [-8.216962, 41.697429], [-8.215532, 41.694671], [-8.203525, 41.693795], [-8.201866, 41.697325], [-8.20346, 41.699066]]], [[[-8.444313, 41.642157], [-8.456341, 41.639712], [-8.461333, 41.635784], [-8.464325, 41.626791], [-8.458549, 41.617757], [-8.444557, 41.613708], [-8.431347, 41.617626], [-8.426144, 41.626607], [-8.429626, 41.635632], [-8.432342, 41.638023], [-8.444313, 41.642157]]], [[[-8.624995, 41.544205], [-8.636998, 41.541794], [-8.643267, 41.537413], [-8.64746, 41.528418], [-8.644096, 41.519401], [-8.637153, 41.514007], [-8.625193, 41.509971], [-8.613198, 41.511925], [-8.604189, 41.51927], [-8.602202, 41.528271], [-8.607625, 41.537297], [-8.613023, 41.541298], [-8.624995, 41.544205]]], [[[-8.097775, 41.536586], [-8.109542, 41.53736], [-8.114691, 41.534558], [-8.118355, 41.525579], [-8.109801, 41.518506], [-8.097808, 41.519099], [-8.093312, 41.52307], [-8.092292, 41.529597], [-8.093466, 41.532749], [-8.097775, 41.536586]]], [[[-8.335772, 41.491011], [-8.337776, 41.492382], [-8.346733, 41.491074], [-8.343656, 41.482049], [-8.336518, 41.482008], [-8.335772, 41.491011]]], [[[-8.553569, 41.469847], [-8.566982, 41.465091], [-8.571586, 41.456101], [-8.568078, 41.447081], [-8.553769, 41.440678], [-8.541784, 41.442763], [-8.536397, 41.446957], [-8.532947, 41.455951], [-8.538159, 41.464979], [-8.54161, 41.467392], [-8.553569, 41.469847]]], [[[-8.201397, 41.377422], [-8.20058, 41.382061], [-8.207217, 41.392231], [-8.219123, 41.396854], [-8.231093, 41.396252], [-8.240916, 41.391342], [-8.246394, 41.382371], [-8.244926, 41.373353], [-8.241585, 41.369971], [-8.239197, 41.371315], [-8.232024, 41.369971], [-8.224854, 41.370878], [-8.21738, 41.368182], [-8.211712, 41.376065], [-8.201397, 41.377422]]], [[[-8.721877, 41.318326], [-8.733834, 41.316099], [-8.74138, 41.312486], [-8.750028, 41.303498], [-8.752214, 41.294495], [-8.749569, 41.285481], [-8.740074, 41.276452], [-8.734007, 41.273465], [-8.722078, 41.270929], [-8.710135, 41.271658], [-8.697719, 41.276349], [-8.68907, 41.285334], [-8.686764, 41.294335], [-8.689792, 41.303351], [-8.69801, 41.311983], [-8.709935, 41.317024], [-8.721877, 41.318326]]]]}}, {"id": "3", "type": "Feature", "properties": {"fill": "#eef8a7", "value_min": 0.4, "value_max": -0.47}, "geometry": {"type": "MultiPolygon", "coordinates": [[[[-8.36183, 41.735996], [-8.36183, 41.735996], [-8.361806, 41.735953], [-8.36183, 41.735996]]], [[[-8.361703, 41.735771], [-8.347596, 41.707139], [-8.330448, 41.680132], [-8.324885, 41.662086], [-8.326696, 41.644082], [-8.335261, 41.626117], [-8.34858, 41.609541], [-8.360682, 41.599403], [-8.372746, 41.592786], [-8.384782, 41.588784], [-8.396801, 41.586557], [-8.420808, 41.585163], [-8.468774, 41.587831], [-8.485128, 41.590857], [-8.516672, 41.600269], [-8.528666, 41.601056], [-8.540683, 41.598591], [-8.550912, 41.591133], [-8.554871, 41.582141], [-8.553169, 41.56412], [-8.538763, 41.510019], [-8.532277, 41.500985], [-8.502289, 41.473837], [-8.495225, 41.464799], [-8.485809, 41.446742], [-8.475729, 41.410667], [-8.473033, 41.374624], [-8.46649, 41.356579], [-8.448927, 41.338481], [-8.436371, 41.329412], [-8.420659, 41.320327], [-8.399712, 41.311676], [-8.400316, 41.313202], [-8.396738, 41.314336], [-8.398835, 41.316131], [-8.393775, 41.31997], [-8.393489, 41.323122], [-8.391105, 41.324253], [-8.386325, 41.323588], [-8.380382, 41.331254], [-8.375305, 41.33104], [-8.37201, 41.328346], [-8.361563, 41.329718], [-8.358276, 41.329049], [-8.357673, 41.327249], [-8.350207, 41.327264], [-8.346032, 41.328847], [-8.342462, 41.333131], [-8.333215, 41.336299], [-8.326363, 41.342163], [-8.324568, 41.341128], [-8.318579, 41.355798], [-8.31587, 41.373797], [-8.317897, 41.391824], [-8.322665, 41.409867], [-8.328083, 41.418907], [-8.350369, 41.430946], [-8.362255, 41.43944], [-8.374059, 41.456723], [-8.380443, 41.482253], [-8.379664, 41.500263], [-8.373511, 41.513555], [-8.361419, 41.524561], [-8.349388, 41.529102], [-8.337397, 41.52958], [-8.325449, 41.525825], [-8.313554, 41.517209], [-8.307001, 41.508856], [-8.301627, 41.499816], [-8.295369, 41.481763], [-8.290379, 41.444422], [-8.278481, 41.437867], [-8.218646, 41.436711], [-8.19475, 41.43321], [-8.182828, 41.429466], [-8.15904, 41.417912], [-8.144578, 41.408681], [-8.132984, 41.399587], [-8.116503, 41.382395], [-8.117578, 41.386447], [-8.113992, 41.386896], [-8.112795, 41.390723], [-8.110105, 41.390947], [-8.108011, 41.393648], [-8.103827, 41.392972], [-8.105321, 41.394998], [-8.10263, 41.396123], [-8.10801, 41.398825], [-8.108606, 41.403102], [-8.104419, 41.406252], [-8.104119, 41.408728], [-8.101727, 41.409403], [-8.102025, 41.411204], [-8.092756, 41.411201], [-8.09126, 41.414352], [-8.079893, 41.41975], [-8.077503, 41.416597], [-8.070923, 41.41862], [-8.066739, 41.416142], [-8.061953, 41.417264], [-8.059852, 41.424916], [-8.055959, 41.429415], [-8.057743, 41.438645], [-8.061033, 41.438872], [-8.064916, 41.444052], [-8.067908, 41.444279], [-8.069999, 41.447206], [-8.068788, 41.462286], [-8.073872, 41.46499], [-8.074468, 41.468141], [-8.073564, 41.474668], [-8.066374, 41.482318], [-8.066069, 41.48817], [-8.072054, 41.490199], [-8.072348, 41.495601], [-8.078333, 41.49898], [-8.078332, 41.500331], [-8.082223, 41.501423], [-8.11, 41.504002], [-8.133898, 41.50893], [-8.148377, 41.516798], [-8.153684, 41.525845], [-8.154146, 41.534855], [-8.150741, 41.543837], [-8.141512, 41.552776], [-8.133255, 41.557111], [-8.121218, 41.560445], [-8.097224, 41.561069], [-8.076189, 41.556231], [-8.080082, 41.558854], [-8.081576, 41.565157], [-8.078879, 41.56493], [-8.077678, 41.566956], [-8.069283, 41.570553], [-8.069281, 41.572579], [-8.065682, 41.575053], [-8.061484, 41.576183], [-8.096981, 41.578516], [-8.120908, 41.583292], [-8.136757, 41.588769], [-8.14512, 41.597839], [-8.141408, 41.606819], [-8.132532, 41.611128], [-8.118503, 41.62466], [-8.113439, 41.633628], [-8.115187, 41.642648], [-8.120045, 41.646805], [-8.131985, 41.651932], [-8.143981, 41.652923], [-8.168025, 41.651004], [-8.170079, 41.652065], [-8.175308, 41.66111], [-8.17277, 41.688113], [-8.174225, 41.69713], [-8.178982, 41.706171], [-8.188511, 41.715246], [-8.203168, 41.722712], [-8.215147, 41.72625], [-8.227163, 41.726896], [-8.239226, 41.7235], [-8.275511, 41.704249], [-8.287552, 41.702243], [-8.299551, 41.704032], [-8.311517, 41.709051], [-8.323449, 41.717432], [-8.331011, 41.725171], [-8.342272, 41.74325], [-8.347528, 41.760332], [-8.349267, 41.760103], [-8.352557, 41.755145], [-8.34982, 41.745922], [-8.349814, 41.744122], [-8.352516, 41.743441], [-8.352203, 41.739616], [-8.357897, 41.735103], [-8.361703, 41.735771]], [[-8.22731, 41.714613], [-8.215262, 41.716822], [-8.203265, 41.714866], [-8.188803, 41.706241], [-8.183862, 41.697199], [-8.184186, 41.688194], [-8.191725, 41.676455], [-8.203821, 41.669828], [-8.215865, 41.667217], [-8.22786, 41.668654], [-8.239804, 41.674444], [-8.245165, 41.679604], [-8.248399, 41.688632], [-8.246927, 41.697629], [-8.240297, 41.706593], [-8.22731, 41.714613]], [[-8.456935, 41.568983], [-8.444942, 41.568802], [-8.426827, 41.56356], [-8.414497, 41.55449], [-8.409904, 41.545459], [-8.410272, 41.518439], [-8.397656, 41.494406], [-8.39526, 41.482332], [-8.396141, 41.473329], [-8.400341, 41.464343], [-8.40999, 41.455448], [-8.422003, 41.451022], [-8.433975, 41.450949], [-8.447391, 41.455572], [-8.459322, 41.464636], [-8.470411, 41.482702], [-8.480593, 41.491756], [-8.497235, 41.500838], [-8.503695, 41.509873], [-8.50359, 41.51888], [-8.491148, 41.545848], [-8.484952, 41.554827], [-8.468952, 41.566098], [-8.456935, 41.568983]], [[-8.24114, 41.560569], [-8.229151, 41.560281], [-8.217197, 41.557097], [-8.205301, 41.5493], [-8.194629, 41.535146], [-8.190141, 41.526107], [-8.183418, 41.499038], [-8.18402, 41.490034], [-8.18949, 41.481066], [-8.206335, 41.472176], [-8.230256, 41.467103], [-8.242229, 41.467314], [-8.254175, 41.469813], [-8.266087, 41.475531], [-8.279967, 41.490675], [-8.284522, 41.499711], [-8.288366, 41.51775], [-8.287583, 41.526752], [-8.284314, 41.535739], [-8.277292, 41.544937], [-8.265205, 41.553492], [-8.253156, 41.558592], [-8.24114, 41.560569]], [[-8.134063, 41.496532], [-8.122058, 41.498307], [-8.110093, 41.497151], [-8.089266, 41.489323], [-8.080315, 41.480245], [-8.077736, 41.471217], [-8.079847, 41.462226], [-8.088684, 41.453289], [-8.098786, 41.448528], [-8.110784, 41.446666], [-8.122744, 41.44745], [-8.140576, 41.453689], [-8.153473, 41.462792], [-8.159234, 41.471841], [-8.159815, 41.480853], [-8.152543, 41.489807], [-8.134063, 41.496532]]], [[[-7.944757, 41.871346], [-7.936302, 41.866283], [-7.927308, 41.857214], [-7.922119, 41.848158], [-7.90822, 41.802993], [-7.908848, 41.793992], [-7.913197, 41.785027], [-7.925783, 41.774798], [-7.937848, 41.772814], [-7.961907, 41.77309], [-7.977632, 41.776611], [-8.009734, 41.792599], [-8.021772, 41.79245], [-8.033914, 41.785336], [-8.040657, 41.777155], [-8.046214, 41.76739], [-8.049638, 41.750209], [-8.047661, 41.741186], [-8.043154, 41.732141], [-8.022961, 41.714093], [-7.995656, 41.695708], [-7.981486, 41.677569], [-7.961262, 41.632353], [-7.959676, 41.614325], [-7.964231, 41.60241], [-7.9541, 41.602846], [-7.952606, 41.600592], [-7.947808, 41.60081], [-7.945413, 41.599456], [-7.942725, 41.595625], [-7.935832, 41.594713], [-7.93791, 41.601694], [-7.937004, 41.603718], [-7.931604, 41.604384], [-7.930979, 41.612711], [-7.925556, 41.620354], [-7.920755, 41.620796], [-7.917748, 41.623041], [-7.915933, 41.627764], [-7.913229, 41.628885], [-7.912613, 41.63361], [-7.906014, 41.633147], [-7.906884, 41.641927], [-7.897869, 41.645511], [-7.89696, 41.647985], [-7.892759, 41.647976], [-7.892145, 41.651576], [-7.902319, 41.659925], [-7.899913, 41.66127], [-7.900198, 41.665547], [-7.898396, 41.665769], [-7.896885, 41.668692], [-7.883969, 41.67069], [-7.879755, 41.673607], [-7.877044, 41.676077], [-7.876723, 41.681253], [-7.873401, 41.686198], [-7.868896, 41.686413], [-7.868008, 41.68326], [-7.864547, 41.683702], [-7.867189, 41.685712], [-7.871421, 41.694555], [-7.871961, 41.703567], [-7.866659, 41.715893], [-7.854509, 41.723136], [-7.842474, 41.723829], [-7.829989, 41.721162], [-7.818617, 41.714373], [-7.815291, 41.718689], [-7.808986, 41.717996], [-7.808396, 41.715744], [-7.804499, 41.714158], [-7.79939, 41.714593], [-7.79788, 41.716164], [-7.796383, 41.71526], [-7.790966, 41.717044], [-7.789449, 41.719966], [-7.78464, 41.720402], [-7.78252, 41.723546], [-7.776204, 41.724652], [-7.773786, 41.727346], [-7.770798, 41.72441], [-7.765698, 41.723044], [-7.761765, 41.727758], [-7.762933, 41.733839], [-7.759307, 41.737203], [-7.759597, 41.739005], [-7.75689, 41.739446], [-7.758687, 41.740577], [-7.757758, 41.745301], [-7.748417, 41.749321], [-7.747786, 41.754496], [-7.743866, 41.756509], [-7.743242, 41.760333], [-7.737574, 41.765265], [-7.745453, 41.767024], [-7.755691, 41.774422], [-7.75987, 41.783474], [-7.756893, 41.797579], [-7.748002, 41.810365], [-7.759873, 41.819501], [-7.780379, 41.828527], [-7.794425, 41.837882], [-7.810236, 41.85606], [-7.815858, 41.873541], [-7.818448, 41.872873], [-7.823863, 41.874013], [-7.825059, 41.875817], [-7.830479, 41.875831], [-7.830789, 41.874031], [-7.832894, 41.874712], [-7.838021, 41.872924], [-7.842528, 41.875187], [-7.841663, 41.866632], [-7.849515, 41.861475], [-7.858542, 41.862622], [-7.859456, 41.860148], [-7.864877, 41.859711], [-7.87033, 41.851395], [-7.873043, 41.850501], [-7.873066, 41.844875], [-7.879056, 41.85254], [-7.886268, 41.855932], [-7.888076, 41.855486], [-7.891675, 41.859094], [-7.900698, 41.861588], [-7.904318, 41.859795], [-7.907309, 41.865203], [-7.906095, 41.868126], [-7.910299, 41.871285], [-7.909985, 41.875111], [-7.915391, 41.879397], [-7.928949, 41.877847], [-7.935283, 41.874707], [-7.937389, 41.87516], [-7.941015, 41.871115], [-7.944757, 41.871346]], [[-7.889566, 41.781773], [-7.877441, 41.787051], [-7.865366, 41.789337], [-7.841275, 41.790495], [-7.829289, 41.78784], [-7.822482, 41.784133], [-7.81303, 41.775029], [-7.808842, 41.765978], [-7.808179, 41.756965], [-7.811639, 41.747994], [-7.824182, 41.739116], [-7.866443, 41.728151], [-7.872059, 41.721582], [-7.878831, 41.707183], [-7.891096, 41.692881], [-7.903184, 41.688713], [-7.915177, 41.690115], [-7.927081, 41.696837], [-7.934176, 41.704161], [-7.937778, 41.713202], [-7.937707, 41.722208], [-7.933798, 41.731179], [-7.914168, 41.750059], [-7.903784, 41.766924], [-7.889566, 41.781773]], [[-8.032427, 41.741058], [-8.022367, 41.753303], [-8.010292, 41.756303], [-7.998292, 41.754459], [-7.989413, 41.749695], [-7.980065, 41.740606], [-7.978412, 41.731584], [-7.986781, 41.721546], [-7.998875, 41.716917], [-8.010893, 41.71719], [-8.023547, 41.722969], [-8.031438, 41.732043], [-8.032427, 41.741058]]], [[[-8.07594, 41.556151], [-8.07594, 41.556151], [-8.075889, 41.556135], [-8.07594, 41.556151]]], [[[-8.026099, 41.650935], [-8.023934, 41.649745], [-8.018332, 41.650869], [-8.01184, 41.65531], [-8.008466, 41.659791], [-8.023658, 41.668038], [-8.035154, 41.660018], [-8.026099, 41.650935]]], [[[-8.649678, 41.413678], [-8.673625, 41.41047], [-8.685613, 41.405688], [-8.697626, 41.395048], [-8.702111, 41.384453], [-8.70182, 41.375444], [-8.69341, 41.357407], [-8.675768, 41.339343], [-8.662079, 41.329432], [-8.638245, 41.317509], [-8.614376, 41.312948], [-8.590469, 41.315014], [-8.5785, 41.318445], [-8.55534, 41.329933], [-8.545019, 41.338901], [-8.539966, 41.347888], [-8.539823, 41.356895], [-8.544617, 41.365922], [-8.554135, 41.374967], [-8.581197, 41.393084], [-8.601881, 41.402906], [-8.625764, 41.410633], [-8.649678, 41.413678]], [[-8.637877, 41.383983], [-8.62592, 41.383457], [-8.613986, 41.379041], [-8.608416, 41.375164], [-8.601925, 41.366135], [-8.601132, 41.357124], [-8.605894, 41.348133], [-8.614204, 41.34217], [-8.626176, 41.338661], [-8.638125, 41.339228], [-8.650051, 41.344008], [-8.65581, 41.348293], [-8.662144, 41.357319], [-8.66271, 41.366329], [-8.65741, 41.375321], [-8.649855, 41.3806], [-8.637877, 41.383983]]]]}}, {"id": "6", "type": "Feature", "properties": {"fill": "#fc9863", "value_min": 0.6, "value_max": -0.67}, "geometry": {"type": "MultiPolygon", "coordinates": [[[[-8.300485, 41.75861], [-8.30452, 41.752035], [-8.302446, 41.743015], [-8.299161, 41.739926], [-8.287187, 41.73523], [-8.275136, 41.737611], [-8.26813, 41.742802], [-8.265256, 41.75179], [-8.271012, 41.760834], [-8.279126, 41.764085], [-8.284038, 41.761109], [-8.284931, 41.757507], [-8.287033, 41.756829], [-8.298457, 41.757263], [-8.300485, 41.75861]]], [[[-8.190749, 41.754307], [-8.192705, 41.751303], [-8.192861, 41.742297], [-8.185224, 41.733237], [-8.179035, 41.729657], [-8.167045, 41.727025], [-8.154993, 41.729211], [-8.14865, 41.732971], [-8.143728, 41.741942], [-8.144862, 41.750957], [-8.154581, 41.760577], [-8.166562, 41.764396], [-8.178608, 41.76315], [-8.190749, 41.754307]], [[-8.164993, 41.742098], [-8.166868, 41.740681], [-8.171719, 41.742147], [-8.166815, 41.744788], [-8.164993, 41.742098]]], [[[-8.069878, 41.70534], [-8.065103, 41.696294], [-8.059316, 41.694039], [-8.047279, 41.695385], [-8.041037, 41.705103], [-8.047023, 41.712703], [-8.059015, 41.714677], [-8.069878, 41.70534]]], [[[-8.131305, 41.702468], [-8.134804, 41.69684], [-8.125448, 41.687762], [-8.107556, 41.681648], [-8.106119, 41.678606], [-8.095708, 41.669755], [-8.083688, 41.670236], [-8.075985, 41.678368], [-8.078893, 41.687398], [-8.083385, 41.691568], [-8.095313, 41.696536], [-8.099194, 41.705573], [-8.107145, 41.711356], [-8.11914, 41.713194], [-8.129269, 41.705805], [-8.131305, 41.702468]]], [[[-8.241764, 41.507221], [-8.240604, 41.508437], [-8.241737, 41.509487], [-8.243949, 41.508459], [-8.241764, 41.507221]]]]}}, {"id": "5", "type": "Feature", "properties": {"fill": "#fecb90", "value_min": 0.53, "value_max": -0.6}, "geometry": {"type": "MultiPolygon", "coordinates": [[[[-7.95761, 41.785438], [-7.949731, 41.78193], [-7.937693, 41.782182], [-7.93179, 41.785201], [-7.929635, 41.794188], [-7.937372, 41.801617], [-7.949395, 41.802499], [-7.960078, 41.794468], [-7.95761, 41.785438]]], [[[-8.321923, 41.763846], [-8.324021, 41.752151], [-8.321765, 41.743131], [-8.315671, 41.734088], [-8.299335, 41.723917], [-8.287336, 41.721769], [-8.275298, 41.723195], [-8.26322, 41.728033], [-8.243265, 41.742641], [-8.238928, 41.748777], [-8.230187, 41.751561], [-8.226835, 41.75421], [-8.202676, 41.733359], [-8.171604, 41.715125], [-8.164742, 41.706069], [-8.155551, 41.686562], [-8.143699, 41.674194], [-8.107893, 41.657209], [-8.084002, 41.648088], [-8.071932, 41.652356], [-8.047538, 41.677824], [-8.033644, 41.687027], [-8.026943, 41.695977], [-8.027665, 41.70499], [-8.034455, 41.714055], [-8.046871, 41.722975], [-8.068761, 41.732352], [-8.08314, 41.741474], [-8.118294, 41.775054], [-8.130212, 41.783571], [-8.142169, 41.789273], [-8.154158, 41.792819], [-8.178212, 41.794137], [-8.190273, 41.792189], [-8.202358, 41.788143], [-8.226572, 41.77616], [-8.238575, 41.778605], [-8.251257, 41.784172], [-8.251845, 41.777172], [-8.257551, 41.773564], [-8.261762, 41.774235], [-8.271366, 41.766346], [-8.279126, 41.764085], [-8.271012, 41.760834], [-8.265256, 41.75179], [-8.26813, 41.742802], [-8.275136, 41.737611], [-8.287187, 41.73523], [-8.299161, 41.739926], [-8.302446, 41.743015], [-8.30452, 41.752035], [-8.300485, 41.75861], [-8.305674, 41.758152], [-8.311096, 41.762195], [-8.318308, 41.761283], [-8.321923, 41.763846]], [[-8.190749, 41.754307], [-8.178608, 41.76315], [-8.166562, 41.764396], [-8.154581, 41.760577], [-8.144862, 41.750957], [-8.143728, 41.741942], [-8.14865, 41.732971], [-8.154993, 41.729211], [-8.167045, 41.727025], [-8.179035, 41.729657], [-8.185224, 41.733237], [-8.192861, 41.742297], [-8.192705, 41.751303], [-8.190749, 41.754307]], [[-8.069878, 41.70534], [-8.059015, 41.714677], [-8.047023, 41.712703], [-8.041037, 41.705103], [-8.047279, 41.695385], [-8.059316, 41.694039], [-8.065103, 41.696294], [-8.069878, 41.70534]], [[-8.131305, 41.702468], [-8.129269, 41.705805], [-8.11914, 41.713194], [-8.107145, 41.711356], [-8.099194, 41.705573], [-8.095313, 41.696536], [-8.083385, 41.691568], [-8.078893, 41.687398], [-8.075985, 41.678368], [-8.083688, 41.670236], [-8.095708, 41.669755], [-8.106119, 41.678606], [-8.107556, 41.681648], [-8.125448, 41.687762], [-8.134804, 41.69684], [-8.131305, 41.702468]]], [[[-7.859819, 41.703448], [-7.854947, 41.698465], [-7.842878, 41.701317], [-7.840934, 41.703259], [-7.844972, 41.712306], [-7.854671, 41.713983], [-7.857055, 41.712427], [-7.859819, 41.703448]]], [[[-8.09625, 41.630958], [-8.10763, 41.615569], [-8.105626, 41.606546], [-8.096685, 41.599765], [-8.084708, 41.598191], [-8.072658, 41.601713], [-8.066216, 41.606232], [-8.062257, 41.615207], [-8.06456, 41.624233], [-8.072224, 41.632018], [-8.084168, 41.636352], [-8.087444, 41.633424], [-8.09625, 41.630958]]], [[[-8.462972, 41.536712], [-8.457233, 41.533283], [-8.445236, 41.534409], [-8.442114, 41.536613], [-8.4395, 41.545607], [-8.445093, 41.551121], [-8.457069, 41.552954], [-8.466226, 41.545735], [-8.462972, 41.536712]]], [[[-8.265568, 41.521494], [-8.268409, 41.517624], [-8.270476, 41.50863], [-8.267744, 41.499605], [-8.253962, 41.488429], [-8.242008, 41.486232], [-8.230005, 41.488325], [-8.21792, 41.497127], [-8.213695, 41.508256], [-8.216366, 41.517281], [-8.229531, 41.528349], [-8.241486, 41.531036], [-8.253491, 41.529415], [-8.265568, 41.521494]], [[-8.241764, 41.507221], [-8.243949, 41.508459], [-8.241737, 41.509487], [-8.240604, 41.508437], [-8.241764, 41.507221]]], [[[-8.433638, 41.489739], [-8.439021, 41.482554], [-8.433955, 41.473521], [-8.421813, 41.472367], [-8.414088, 41.482429], [-8.421643, 41.491494], [-8.433638, 41.489739]]]]}}, {"id": "4", "type": "Feature", "properties": {"fill": "#fffebe", "value_min": 0.47, "value_max": -0.53}, "geometry": {"type": "MultiPolygon", "coordinates": [[[[-8.347528, 41.760332], [-8.342272, 41.74325], [-8.331011, 41.725171], [-8.323449, 41.717432], [-8.311517, 41.709051], [-8.299551, 41.704032], [-8.287552, 41.702243], [-8.275511, 41.704249], [-8.239226, 41.7235], [-8.227163, 41.726896], [-8.215147, 41.72625], [-8.203168, 41.722712], [-8.188511, 41.715246], [-8.178982, 41.706171], [-8.174225, 41.69713], [-8.17277, 41.688113], [-8.175308, 41.66111], [-8.170079, 41.652065], [-8.168025, 41.651004], [-8.143981, 41.652923], [-8.131985, 41.651932], [-8.120045, 41.646805], [-8.115187, 41.642648], [-8.113439, 41.633628], [-8.118503, 41.62466], [-8.132532, 41.611128], [-8.141408, 41.606819], [-8.14512, 41.597839], [-8.136757, 41.588769], [-8.120908, 41.583292], [-8.096981, 41.578516], [-8.061484, 41.576183], [-8.052181, 41.584498], [-8.052777, 41.587649], [-8.037169, 41.600242], [-8.031467, 41.602938], [-8.02367, 41.603156], [-8.019174, 41.601802], [-8.015872, 41.603824], [-8.013474, 41.603372], [-8.005971, 41.60629], [-8.003562, 41.611239], [-7.99936, 41.61281], [-7.998462, 41.612359], [-7.999669, 41.608759], [-7.996976, 41.605829], [-7.996684, 41.602003], [-7.984685, 41.603564], [-7.982292, 41.60086], [-7.975689, 41.603552], [-7.974482, 41.606701], [-7.971182, 41.607147], [-7.969091, 41.603768], [-7.964231, 41.60241], [-7.959676, 41.614325], [-7.961262, 41.632353], [-7.981486, 41.677569], [-7.995656, 41.695708], [-8.022961, 41.714093], [-8.043154, 41.732141], [-8.047661, 41.741186], [-8.049638, 41.750209], [-8.046214, 41.76739], [-8.040657, 41.777155], [-8.033914, 41.785336], [-8.021772, 41.79245], [-8.009734, 41.792599], [-7.977632, 41.776611], [-7.961907, 41.77309], [-7.937848, 41.772814], [-7.925783, 41.774798], [-7.913197, 41.785027], [-7.908848, 41.793992], [-7.90822, 41.802993], [-7.922119, 41.848158], [-7.927308, 41.857214], [-7.936302, 41.866283], [-7.944757, 41.871346], [-7.954864, 41.872262], [-7.956362, 41.875191], [-7.960878, 41.875648], [-7.96299, 41.874075], [-7.972322, 41.875439], [-7.987996, 41.869157], [-7.990123, 41.860157], [-7.995547, 41.858138], [-7.994047, 41.855211], [-7.996162, 41.851837], [-8.003089, 41.850494], [-8.005804, 41.847346], [-8.007928, 41.838796], [-8.012753, 41.833624], [-8.013062, 41.829348], [-8.017873, 41.831379], [-8.02901, 41.829589], [-8.037134, 41.831171], [-8.041351, 41.828023], [-8.041054, 41.825097], [-8.045268, 41.824425], [-8.047679, 41.821276], [-8.057314, 41.815656], [-8.06664, 41.817012], [-8.072961, 41.813414], [-8.078678, 41.813417], [-8.082892, 41.810493], [-8.091013, 41.812521], [-8.093421, 41.811397], [-8.093723, 41.808471], [-8.101845, 41.809824], [-8.104853, 41.81185], [-8.115984, 41.812302], [-8.123807, 41.808702], [-8.138247, 41.808477], [-8.139751, 41.813203], [-8.14276, 41.812978], [-8.144866, 41.815228], [-8.149078, 41.814777], [-8.153291, 41.817703], [-8.158106, 41.818377], [-8.165326, 41.81815], [-8.173744, 41.808019], [-8.177655, 41.808242], [-8.183676, 41.812741], [-8.190291, 41.809587], [-8.197158, 41.814129], [-8.201063, 41.808724], [-8.204973, 41.807372], [-8.205872, 41.804445], [-8.213692, 41.803765], [-8.217598, 41.80016], [-8.217589, 41.793634], [-8.224207, 41.794303], [-8.229917, 41.791598], [-8.240744, 41.791588], [-8.24074, 41.789338], [-8.244347, 41.787984], [-8.245546, 41.785731], [-8.249154, 41.785727], [-8.251257, 41.784172], [-8.238575, 41.778605], [-8.226572, 41.77616], [-8.202358, 41.788143], [-8.190273, 41.792189], [-8.178212, 41.794137], [-8.154158, 41.792819], [-8.142169, 41.789273], [-8.130212, 41.783571], [-8.118294, 41.775054], [-8.08314, 41.741474], [-8.068761, 41.732352], [-8.046871, 41.722975], [-8.034455, 41.714055], [-8.027665, 41.70499], [-8.026943, 41.695977], [-8.033644, 41.687027], [-8.047538, 41.677824], [-8.071932, 41.652356], [-8.084002, 41.648088], [-8.107893, 41.657209], [-8.143699, 41.674194], [-8.155551, 41.686562], [-8.164742, 41.706069], [-8.171604, 41.715125], [-8.202676, 41.733359], [-8.226835, 41.75421], [-8.230187, 41.751561], [-8.238928, 41.748777], [-8.243265, 41.742641], [-8.26322, 41.728033], [-8.275298, 41.723195], [-8.287336, 41.721769], [-8.299335, 41.723917], [-8.315671, 41.734088], [-8.321765, 41.743131], [-8.324021, 41.752151], [-8.321923, 41.763846], [-8.326436, 41.765096], [-8.328234, 41.763292], [-8.336653, 41.763728], [-8.341756, 41.761468], [-8.344765, 41.762363], [-8.347528, 41.760332]], [[-7.95761, 41.785438], [-7.960078, 41.794468], [-7.949395, 41.802499], [-7.937372, 41.801617], [-7.929635, 41.794188], [-7.93179, 41.785201], [-7.937693, 41.782182], [-7.949731, 41.78193], [-7.95761, 41.785438]], [[-8.026099, 41.650935], [-8.035154, 41.660018], [-8.023658, 41.668038], [-8.008466, 41.659791], [-8.01184, 41.65531], [-8.018332, 41.650869], [-8.023934, 41.649745], [-8.026099, 41.650935]], [[-8.09625, 41.630958], [-8.087444, 41.633424], [-8.084168, 41.636352], [-8.072224, 41.632018], [-8.06456, 41.624233], [-8.062257, 41.615207], [-8.066216, 41.606232], [-8.072658, 41.601713], [-8.084708, 41.598191], [-8.096685, 41.599765], [-8.105626, 41.606546], [-8.10763, 41.615569], [-8.09625, 41.630958]]], [[[-7.815858, 41.873541], [-7.810236, 41.85606], [-7.794425, 41.837882], [-7.780379, 41.828527], [-7.759873, 41.819501], [-7.748002, 41.810365], [-7.756893, 41.797579], [-7.75987, 41.783474], [-7.755691, 41.774422], [-7.745453, 41.767024], [-7.737574, 41.765265], [-7.726937, 41.771755], [-7.7254, 41.777152], [-7.727191, 41.779184], [-7.724177, 41.780299], [-7.725372, 41.781653], [-7.722296, 41.792446], [-7.728879, 41.797871], [-7.727026, 41.805517], [-7.728761, 41.816776], [-7.732041, 41.821514], [-7.743152, 41.825154], [-7.742839, 41.827178], [-7.738918, 41.82874], [-7.742196, 41.833928], [-7.74729, 41.837772], [-7.746349, 41.84407], [-7.750246, 41.846784], [-7.750532, 41.849261], [-7.743309, 41.849012], [-7.746901, 41.8524], [-7.746881, 41.855776], [-7.73843, 41.859348], [-7.734159, 41.868337], [-7.730228, 41.871024], [-7.729293, 41.875972], [-7.722351, 41.878424], [-7.720523, 41.881793], [-7.725335, 41.882935], [-7.726208, 41.887665], [-7.737044, 41.888828], [-7.737935, 41.890857], [-7.74246, 41.889747], [-7.742785, 41.885922], [-7.756022, 41.888441], [-7.758719, 41.890926], [-7.756592, 41.89407], [-7.758076, 41.897901], [-7.764097, 41.898595], [-7.779227, 41.886264], [-7.785257, 41.885157], [-7.788886, 41.882467], [-7.794309, 41.882033], [-7.796739, 41.878214], [-7.794954, 41.873932], [-7.803381, 41.874857], [-7.804914, 41.869459], [-7.815858, 41.873541]]], [[[-7.818617, 41.714373], [-7.829989, 41.721162], [-7.842474, 41.723829], [-7.854509, 41.723136], [-7.866659, 41.715893], [-7.871961, 41.703567], [-7.871421, 41.694555], [-7.867189, 41.685712], [-7.864547, 41.683702], [-7.864096, 41.685276], [-7.858987, 41.68639], [-7.857773, 41.689538], [-7.854776, 41.68818], [-7.847538, 41.695365], [-7.837309, 41.699391], [-7.835792, 41.702763], [-7.839682, 41.705924], [-7.838465, 41.709522], [-7.832453, 41.710407], [-7.825252, 41.708813], [-7.818617, 41.714373]], [[-7.859819, 41.703448], [-7.857055, 41.712427], [-7.854671, 41.713983], [-7.844972, 41.712306], [-7.840934, 41.703259], [-7.842878, 41.701317], [-7.854947, 41.698465], [-7.859819, 41.703448]]], [[[-8.456935, 41.568983], [-8.468952, 41.566098], [-8.484952, 41.554827], [-8.491148, 41.545848], [-8.50359, 41.51888], [-8.503695, 41.509873], [-8.497235, 41.500838], [-8.480593, 41.491756], [-8.470411, 41.482702], [-8.459322, 41.464636], [-8.447391, 41.455572], [-8.433975, 41.450949], [-8.422003, 41.451022], [-8.40999, 41.455448], [-8.400341, 41.464343], [-8.396141, 41.473329], [-8.39526, 41.482332], [-8.397656, 41.494406], [-8.410272, 41.518439], [-8.409904, 41.545459], [-8.414497, 41.55449], [-8.426827, 41.56356], [-8.444942, 41.568802], [-8.456935, 41.568983]], [[-8.462972, 41.536712], [-8.466226, 41.545735], [-8.457069, 41.552954], [-8.445093, 41.551121], [-8.4395, 41.545607], [-8.442114, 41.536613], [-8.445236, 41.534409], [-8.457233, 41.533283], [-8.462972, 41.536712]], [[-8.433638, 41.489739], [-8.421643, 41.491494], [-8.414088, 41.482429], [-8.421813, 41.472367], [-8.433955, 41.473521], [-8.439021, 41.482554], [-8.433638, 41.489739]]], [[[-8.24114, 41.560569], [-8.253156, 41.558592], [-8.265205, 41.553492], [-8.277292, 41.544937], [-8.284314, 41.535739], [-8.287583, 41.526752], [-8.288366, 41.51775], [-8.284522, 41.499711], [-8.279967, 41.490675], [-8.266087, 41.475531], [-8.254175, 41.469813], [-8.242229, 41.467314], [-8.230256, 41.467103], [-8.206335, 41.472176], [-8.18949, 41.481066], [-8.18402, 41.490034], [-8.183418, 41.499038], [-8.190141, 41.526107], [-8.194629, 41.535146], [-8.205301, 41.5493], [-8.217197, 41.557097], [-8.229151, 41.560281], [-8.24114, 41.560569]], [[-8.265568, 41.521494], [-8.253491, 41.529415], [-8.241486, 41.531036], [-8.229531, 41.528349], [-8.216366, 41.517281], [-8.213695, 41.508256], [-8.21792, 41.497127], [-8.230005, 41.488325], [-8.242008, 41.486232], [-8.253962, 41.488429], [-8.267744, 41.499605], [-8.270476, 41.50863], [-8.268409, 41.517624], [-8.265568, 41.521494]]], [[[-8.134063, 41.496532], [-8.152543, 41.489807], [-8.159815, 41.480853], [-8.159234, 41.471841], [-8.153473, 41.462792], [-8.140576, 41.453689], [-8.122744, 41.44745], [-8.110784, 41.446666], [-8.098786, 41.448528], [-8.088684, 41.453289], [-8.079847, 41.462226], [-8.077736, 41.471217], [-8.080315, 41.480245], [-8.089266, 41.489323], [-8.110093, 41.497151], [-8.122058, 41.498307], [-8.134063, 41.496532]]], [[[-8.637877, 41.383983], [-8.649855, 41.3806], [-8.65741, 41.375321], [-8.66271, 41.366329], [-8.662144, 41.357319], [-8.65581, 41.348293], [-8.650051, 41.344008], [-8.638125, 41.339228], [-8.626176, 41.338661], [-8.614204, 41.34217], [-8.605894, 41.348133], [-8.601132, 41.357124], [-8.601925, 41.366135], [-8.608416, 41.375164], [-8.613986, 41.379041], [-8.62592, 41.383457], [-8.637877, 41.383983]]]]}}, {"id": "7", "type": "Feature", "properties": {"fill": "#f77f52", "value_min": 0.67, "value_max": -0.73}, "geometry": {"type": "Polygon", "coordinates": [[[-8.164993, 41.742098], [-8.166815, 41.744788], [-8.171719, 41.742147], [-8.166868, 41.740681], [-8.164993, 41.742098]]]}}]}