{"type": "FeatureCollection", "features": [{"id": "7", "type": "Feature", "properties": {"fill": "#fffebe", "value_min": 0.47, "value_max": 0.53}, "geometry": {"type": "Polygon", "coordinates": [[[-8.386588, 41.397655], [-8.398642, 41.387713], [-8.4022, 41.383286], [-8.4054, 41.374295], [-8.40511, 41.365285], [-8.398959, 41.353364], [-8.387096, 41.343556], [-8.375186, 41.339125], [-8.363248, 41.337723], [-8.351285, 41.338903], [-8.33929, 41.343174], [-8.327234, 41.353156], [-8.321226, 41.364821], [-8.320508, 41.373825], [-8.322935, 41.382846], [-8.329506, 41.391892], [-8.338729, 41.398551], [-8.350649, 41.402816], [-8.362602, 41.403949], [-8.374581, 41.402282], [-8.386588, 41.397655]], [[-8.36266, 41.397941], [-8.350712, 41.396482], [-8.338809, 41.390671], [-8.331656, 41.382897], [-8.328774, 41.373873], [-8.330112, 41.364873], [-8.339188, 41.353216], [-8.3512, 41.34744], [-8.363168, 41.345883], [-8.375103, 41.347803], [-8.386998, 41.35402], [-8.395286, 41.365234], [-8.396278, 41.374247], [-8.392901, 41.383237], [-8.386664, 41.389601], [-8.374641, 41.396029], [-8.36266, 41.397941]]]}}, {"id": "8", "type": "Feature", "properties": {"fill": "#fecb90", "value_min": 0.53, "value_max": 0.6}, "geometry": {"type": "Polygon", "coordinates": [[[-8.36266, 41.397941], [-8.374641, 41.396029], [-8.386664, 41.389601], [-8.392901, 41.383237], [-8.396278, 41.374247], [-8.395286, 41.365234], [-8.386998, 41.35402], [-8.375103, 41.347803], [-8.363168, 41.345883], [-8.3512, 41.34744], [-8.339188, 41.353216], [-8.330112, 41.364873], [-8.328774, 41.373873], [-8.331656, 41.382897], [-8.338809, 41.390671], [-8.350712, 41.396482], [-8.36266, 41.397941]], [[-8.361379, 41.392074], [-8.350776, 41.390045], [-8.340548, 41.382949], [-8.336797, 41.37392], [-8.338951, 41.364924], [-8.349886, 41.355979], [-8.363095, 41.353366], [-8.375343, 41.35612], [-8.385672, 41.365183], [-8.38777, 41.374202], [-8.383503, 41.383187], [-8.374705, 41.389416], [-8.361379, 41.392074]]]}}, {"id": "9", "type": "Feature", "properties": {"fill": "#fc9863", "value_min": 0.6, "value_max": 0.67}, "geometry": {"type": "Polygon", "coordinates": [[[-8.361379, 41.392074], [-8.374705, 41.389416], [-8.383503, 41.383187], [-8.38777, 41.374202], [-8.385672, 41.365183], [-8.375343, 41.35612], [-8.363095, 41.353366], [-8.349886, 41.355979], [-8.338951, 41.364924], [-8.336797, 41.37392], [-8.340548, 41.382949], [-8.350776, 41.390045], [-8.361379, 41.392074]], [[-8.351863, 41.383013], [-8.346285, 41.373974], [-8.350293, 41.364989], [-8.363017, 41.361426], [-8.37391, 41.36512], [-8.378114, 41.37415], [-8.374792, 41.380279], [-8.371199, 41.38312], [-8.362781, 41.385542], [-8.351863, 41.383013]]]}}, {"id": "10", "type": "Feature", "properties": {"fill": "#f77f52", "value_min": 0.67, "value_max": 0.73}, "geometry": {"type": "Polygon", "coordinates": [[[-8.351863, 41.383013], [-8.362781, 41.385542], [-8.371199, 41.38312], [-8.374792, 41.380279], [-8.378114, 41.37415], [-8.37391, 41.36512], [-8.363017, 41.361426], [-8.350293, 41.364989], [-8.346285, 41.373974], [-8.351863, 41.383013]]]}}, {"id": "6", "type": "Feature", "properties": {"fill": "#eef8a7", "value_min": 0.4, "value_max": 0.47}, "geometry": {"type": "MultiPolygon", "coordinates": [[[[-7.871882, 41.757608], [-7.866003, 41.753174], [-7.853648, 41.757427], [-7.865764, 41.766747], [-7.871882, 41.757608]]], [[[-8.342382, 41.482042], [-8.336712, 41.482009], [-8.335954, 41.491012], [-8.337778, 41.492181], [-8.345118, 41.491065], [-8.342382, 41.482042]]], [[[-8.324761, 41.341716], [-8.315268, 41.354279], [-8.311959, 41.364766], [-8.313885, 41.382793], [-8.318628, 41.391829], [-8.326751, 41.400021], [-8.338645, 41.406817], [-8.35058, 41.409758], [-8.362538, 41.410476], [-8.374516, 41.409097], [-8.386514, 41.405496], [-8.394603, 41.401261], [-8.406111, 41.392313], [-8.412424, 41.383338], [-8.415693, 41.374347], [-8.41603, 41.365341], [-8.413564, 41.356321], [-8.40802, 41.347285], [-8.397998, 41.338226], [-8.387202, 41.332269], [-8.380678, 41.330452], [-8.375305, 41.33104], [-8.37231, 41.32862], [-8.369807, 41.32835], [-8.361563, 41.329718], [-8.357974, 41.328152], [-8.344843, 41.330554], [-8.338885, 41.334938], [-8.333215, 41.336299], [-8.326363, 41.342163], [-8.324761, 41.341716]], [[-8.386588, 41.397655], [-8.374581, 41.402282], [-8.362602, 41.403949], [-8.350649, 41.402816], [-8.338729, 41.398551], [-8.329506, 41.391892], [-8.322935, 41.382846], [-8.320508, 41.373825], [-8.321226, 41.364821], [-8.327234, 41.353156], [-8.33929, 41.343174], [-8.351285, 41.338903], [-8.363248, 41.337723], [-8.375186, 41.339125], [-8.387096, 41.343556], [-8.398959, 41.353364], [-8.40511, 41.365285], [-8.4054, 41.374295], [-8.4022, 41.383286], [-8.398642, 41.387713], [-8.386588, 41.397655]]], [[[-8.712823, 41.195317], [-8.707937, 41.186297], [-8.698612, 41.181185], [-8.686692, 41.180511], [-8.674744, 41.185583], [-8.669758, 41.195201], [-8.671765, 41.204215], [-8.674637, 41.207207], [-8.686537, 41.213024], [-8.69847, 41.211968], [-8.710433, 41.204383], [-8.712823, 41.195317]]]]}}, {"id": "5", "type": "Feature", "properties": {"fill": "#ddf190", "value_min": 0.33, "value_max": 0.4}, "geometry": {"type": "MultiPolygon", "coordinates": [[[[-7.887346, 41.8118], [-7.881622, 41.802737], [-7.877224, 41.799437], [-7.865209, 41.798239], [-7.856639, 41.802491], [-7.851096, 41.811443], [-7.855162, 41.82049], [-7.864727, 41.825516], [-7.876781, 41.824839], [-7.882719, 41.820762], [-7.887346, 41.8118]]], [[[-7.881395, 41.757701], [-7.878038, 41.752779], [-7.866126, 41.746196], [-7.854074, 41.747576], [-7.843397, 41.757325], [-7.844654, 41.766344], [-7.853612, 41.773578], [-7.865624, 41.774712], [-7.877765, 41.76846], [-7.881395, 41.757701]], [[-7.871882, 41.757608], [-7.865764, 41.766747], [-7.853648, 41.757427], [-7.866003, 41.753174], [-7.871882, 41.757608]]], [[[-8.361739, 41.492053], [-8.361846, 41.481158], [-8.349983, 41.469607], [-8.338026, 41.467766], [-8.326011, 41.471656], [-8.317709, 41.481898], [-8.317966, 41.490907], [-8.325424, 41.499958], [-8.337656, 41.504155], [-8.349652, 41.502759], [-8.361739, 41.492053]], [[-8.342382, 41.482042], [-8.345118, 41.491065], [-8.337778, 41.492181], [-8.335954, 41.491012], [-8.336712, 41.482009], [-8.342382, 41.482042]]], [[[-8.312942, 41.335207], [-8.30575, 41.346714], [-8.301724, 41.364705], [-8.303663, 41.382731], [-8.306908, 41.391759], [-8.312886, 41.400802], [-8.326626, 41.412174], [-8.338541, 41.417054], [-8.350489, 41.418963], [-8.374434, 41.417639], [-8.39556, 41.410274], [-8.410065, 41.401341], [-8.41939, 41.392381], [-8.428468, 41.374411], [-8.4282, 41.356395], [-8.422943, 41.344749], [-8.411114, 41.331045], [-8.393779, 41.32084], [-8.393489, 41.323122], [-8.391105, 41.324253], [-8.386325, 41.323588], [-8.380678, 41.330452], [-8.387202, 41.332269], [-8.397998, 41.338226], [-8.40802, 41.347285], [-8.413564, 41.356321], [-8.41603, 41.365341], [-8.415693, 41.374347], [-8.412424, 41.383338], [-8.406111, 41.392313], [-8.394603, 41.401261], [-8.386514, 41.405496], [-8.374516, 41.409097], [-8.362538, 41.410476], [-8.35058, 41.409758], [-8.338645, 41.406817], [-8.326751, 41.400021], [-8.318628, 41.391829], [-8.313885, 41.382793], [-8.311959, 41.364766], [-8.315268, 41.354279], [-8.324761, 41.341716], [-8.316788, 41.335876], [-8.314699, 41.33678], [-8.312942, 41.335207]]], [[[-8.344843, 41.330554], [-8.357974, 41.328152], [-8.350207, 41.327264], [-8.344843, 41.330554]]], [[[-8.369807, 41.32835], [-8.369807, 41.32835], [-8.37231, 41.32862], [-8.369807, 41.32835]]], [[[-8.710356, 41.221773], [-8.725426, 41.213363], [-8.732943, 41.204373], [-8.736097, 41.195373], [-8.735653, 41.186364], [-8.731469, 41.177346], [-8.722511, 41.168577], [-8.710615, 41.162832], [-8.698706, 41.160574], [-8.686785, 41.160975], [-8.67485, 41.164185], [-8.662891, 41.171665], [-8.653473, 41.186146], [-8.652275, 41.19515], [-8.654338, 41.204164], [-8.662666, 41.215496], [-8.674561, 41.222402], [-8.68648, 41.224843], [-8.698413, 41.224563], [-8.710356, 41.221773]], [[-8.712823, 41.195317], [-8.710433, 41.204383], [-8.69847, 41.211968], [-8.686537, 41.213024], [-8.674637, 41.207207], [-8.671765, 41.204215], [-8.669758, 41.195201], [-8.674744, 41.185583], [-8.686692, 41.180511], [-8.698612, 41.181185], [-8.707937, 41.186297], [-8.712823, 41.195317]]]]}}, {"id": "4", "type": "Feature", "properties": {"fill": "#bde282", "value_min": 0.27, "value_max": 0.33}, "geometry": {"type": "MultiPolygon", "coordinates": [[[[-7.736859, 41.861369], [-7.736336, 41.864278], [-7.743368, 41.873709], [-7.755354, 41.877037], [-7.769476, 41.873644], [-7.777184, 41.86472], [-7.77631, 41.855704], [-7.767953, 41.848545], [-7.755956, 41.846003], [-7.750502, 41.847685], [-7.750532, 41.849261], [-7.747826, 41.848705], [-7.744507, 41.84997], [-7.746901, 41.8524], [-7.746881, 41.855776], [-7.739943, 41.858003], [-7.736859, 41.861369]]], [[[-7.888772, 41.827743], [-7.894094, 41.820872], [-7.89614, 41.811884], [-7.893128, 41.802849], [-7.877587, 41.784684], [-7.887956, 41.766772], [-7.888947, 41.757774], [-7.88447, 41.748724], [-7.878189, 41.744132], [-7.866221, 41.740803], [-7.854183, 41.741456], [-7.837672, 41.74826], [-7.831106, 41.7572], [-7.830347, 41.766199], [-7.833682, 41.77524], [-7.83969, 41.784308], [-7.839884, 41.793317], [-7.833875, 41.811269], [-7.835604, 41.820294], [-7.842902, 41.829374], [-7.852519, 41.834815], [-7.864528, 41.836802], [-7.876602, 41.83505], [-7.888772, 41.827743]], [[-7.887346, 41.8118], [-7.882719, 41.820762], [-7.876781, 41.824839], [-7.864727, 41.825516], [-7.855162, 41.82049], [-7.851096, 41.811443], [-7.856639, 41.802491], [-7.865209, 41.798239], [-7.877224, 41.799437], [-7.881622, 41.802737], [-7.887346, 41.8118]], [[-7.881395, 41.757701], [-7.877765, 41.76846], [-7.865624, 41.774712], [-7.853612, 41.773578], [-7.844654, 41.766344], [-7.843397, 41.757325], [-7.854074, 41.747576], [-7.866126, 41.746196], [-7.878038, 41.752779], [-7.881395, 41.757701]]], [[[-8.361587, 41.50754], [-8.368555, 41.500203], [-8.372253, 41.491216], [-8.37245, 41.48221], [-8.369755, 41.473187], [-8.362046, 41.460704], [-8.354294, 41.455087], [-8.35018, 41.449929], [-8.338245, 41.446292], [-8.32625, 41.448491], [-8.314192, 41.456692], [-8.30714, 41.46382], [-8.301774, 41.472795], [-8.29944, 41.481788], [-8.30071, 41.490803], [-8.305122, 41.499837], [-8.315821, 41.508909], [-8.325579, 41.513289], [-8.337545, 41.514996], [-8.349545, 41.513478], [-8.361587, 41.50754]], [[-8.361739, 41.492053], [-8.349652, 41.502759], [-8.337656, 41.504155], [-8.325424, 41.499958], [-8.317966, 41.490907], [-8.317709, 41.481898], [-8.326011, 41.471656], [-8.338026, 41.467766], [-8.349983, 41.469607], [-8.361846, 41.481158], [-8.361739, 41.492053]]], [[[-8.300649, 41.319469], [-8.295127, 41.328634], [-8.290254, 41.346619], [-8.289839, 41.364632], [-8.293641, 41.391678], [-8.301079, 41.409738], [-8.307964, 41.418788], [-8.326394, 41.434641], [-8.334386, 41.436958], [-8.338268, 41.443943], [-8.35095, 41.437053], [-8.362302, 41.434589], [-8.38632, 41.426183], [-8.410356, 41.415006], [-8.429083, 41.401437], [-8.442584, 41.383488], [-8.447444, 41.365497], [-8.447378, 41.356489], [-8.442222, 41.338448], [-8.428497, 41.320366], [-8.407449, 41.305599], [-8.406262, 41.307335], [-8.402979, 41.307568], [-8.401801, 41.311398], [-8.399712, 41.311628], [-8.400316, 41.313202], [-8.396738, 41.314336], [-8.398835, 41.316131], [-8.393779, 41.32084], [-8.411114, 41.331045], [-8.422943, 41.344749], [-8.4282, 41.356395], [-8.428468, 41.374411], [-8.41939, 41.392381], [-8.410065, 41.401341], [-8.39556, 41.410274], [-8.374434, 41.417639], [-8.350489, 41.418963], [-8.338541, 41.417054], [-8.326626, 41.412174], [-8.312886, 41.400802], [-8.306908, 41.391759], [-8.303663, 41.382731], [-8.301724, 41.364705], [-8.30575, 41.346714], [-8.312942, 41.335207], [-8.313794, 41.333405], [-8.31139, 41.328007], [-8.307502, 41.325762], [-8.305116, 41.326891], [-8.303024, 41.325994], [-8.303615, 41.323742], [-8.300649, 41.319469]]], [[[-8.637729, 41.194229], [-8.644291, 41.213141], [-8.650706, 41.2213], [-8.662594, 41.229627], [-8.674506, 41.233644], [-8.698366, 41.23471], [-8.716346, 41.231357], [-8.734206, 41.224537], [-8.750739, 41.213421], [-8.758004, 41.204429], [-8.762647, 41.19543], [-8.764506, 41.186426], [-8.764028, 41.177417], [-8.758292, 41.163522], [-8.74643, 41.150356], [-8.738431, 41.145418], [-8.674793, 41.146932], [-8.674849, 41.153767], [-8.672489, 41.15648], [-8.66117, 41.156307], [-8.662078, 41.158104], [-8.660313, 41.160813], [-8.657033, 41.160378], [-8.654961, 41.161963], [-8.653231, 41.169174], [-8.655366, 41.175467], [-8.647955, 41.180228], [-8.647696, 41.185181], [-8.641225, 41.196014], [-8.638841, 41.196025], [-8.637729, 41.194229]], [[-8.710356, 41.221773], [-8.698413, 41.224563], [-8.68648, 41.224843], [-8.674561, 41.222402], [-8.662666, 41.215496], [-8.654338, 41.204164], [-8.652275, 41.19515], [-8.653473, 41.186146], [-8.662891, 41.171665], [-8.67485, 41.164185], [-8.686785, 41.160975], [-8.698706, 41.160574], [-8.710615, 41.162832], [-8.722511, 41.168577], [-8.731469, 41.177346], [-8.735653, 41.186364], [-8.736097, 41.195373], [-8.732943, 41.204373], [-8.725426, 41.213363], [-8.710356, 41.221773]]]]}}, {"id": "3", "type": "Feature", "properties": {"fill": "#98d277", "value_min": 0.2, "value_max": 0.27}, "geometry": {"type": "MultiPolygon", "coordinates": [[[[-7.819242, 41.8731], [-7.827913, 41.863294], [-7.870327, 41.852306], [-7.873043, 41.850501], [-7.873066, 41.844875], [-7.87696, 41.849527], [-7.888521, 41.842269], [-7.899401, 41.829929], [-7.90408, 41.820967], [-7.905219, 41.811971], [-7.894637, 41.78485], [-7.898266, 41.757864], [-7.895955, 41.748835], [-7.890253, 41.741899], [-7.878341, 41.735366], [-7.86634, 41.734033], [-7.842237, 41.737035], [-7.830144, 41.740786], [-7.818159, 41.748061], [-7.811929, 41.757004], [-7.810195, 41.765992], [-7.810332, 41.793014], [-7.804682, 41.816736], [-7.803103, 41.819959], [-7.792422, 41.82845], [-7.756261, 41.830286], [-7.742203, 41.832762], [-7.74729, 41.837772], [-7.746349, 41.84407], [-7.750502, 41.847685], [-7.755956, 41.846003], [-7.767953, 41.848545], [-7.77631, 41.855704], [-7.777184, 41.86472], [-7.769476, 41.873644], [-7.755354, 41.877037], [-7.743368, 41.873709], [-7.736336, 41.864278], [-7.736859, 41.861369], [-7.734159, 41.868337], [-7.730228, 41.871024], [-7.729293, 41.875972], [-7.722351, 41.878424], [-7.720523, 41.881793], [-7.725335, 41.882935], [-7.726208, 41.887665], [-7.737044, 41.888828], [-7.737935, 41.890857], [-7.74246, 41.889747], [-7.742785, 41.885922], [-7.756022, 41.888441], [-7.758719, 41.890926], [-7.756592, 41.89407], [-7.758376, 41.898127], [-7.764097, 41.898595], [-7.779227, 41.886264], [-7.785257, 41.885157], [-7.788886, 41.882467], [-7.794007, 41.882257], [-7.796739, 41.878214], [-7.794349, 41.87438], [-7.797064, 41.873488], [-7.803381, 41.874857], [-7.804914, 41.869459], [-7.813032, 41.871958], [-7.814229, 41.873537], [-7.819242, 41.8731]], [[-7.888772, 41.827743], [-7.876602, 41.83505], [-7.864528, 41.836802], [-7.852519, 41.834815], [-7.842902, 41.829374], [-7.835604, 41.820294], [-7.833875, 41.811269], [-7.839884, 41.793317], [-7.83969, 41.784308], [-7.833682, 41.77524], [-7.830347, 41.766199], [-7.831106, 41.7572], [-7.837672, 41.74826], [-7.854183, 41.741456], [-7.866221, 41.740803], [-7.878189, 41.744132], [-7.88447, 41.748724], [-7.888947, 41.757774], [-7.887956, 41.766772], [-7.877587, 41.784684], [-7.893128, 41.802849], [-7.89614, 41.811884], [-7.894094, 41.820872], [-7.888772, 41.827743]]], [[[-7.744507, 41.84997], [-7.747826, 41.848705], [-7.743309, 41.849012], [-7.744507, 41.84997]]], [[[-8.268733, 41.336169], [-8.278229, 41.382575], [-8.277334, 41.409592], [-8.271916, 41.43658], [-8.264274, 41.454546], [-8.25418, 41.469442], [-8.230064, 41.483313], [-8.217937, 41.495696], [-8.215105, 41.508266], [-8.217707, 41.514814], [-8.229556, 41.526236], [-8.241499, 41.529875], [-8.253484, 41.530063], [-8.277523, 41.524192], [-8.289511, 41.523985], [-8.325397, 41.530773], [-8.337386, 41.53058], [-8.349397, 41.528253], [-8.361427, 41.523738], [-8.373503, 41.514456], [-8.377538, 41.509259], [-8.381516, 41.500273], [-8.382868, 41.491273], [-8.382822, 41.455243], [-8.388131, 41.446264], [-8.400357, 41.437321], [-8.434293, 41.419478], [-8.447446, 41.410534], [-8.465166, 41.392603], [-8.474956, 41.374633], [-8.477603, 41.365637], [-8.478588, 41.347627], [-8.47384, 41.32959], [-8.462976, 41.311524], [-8.45503, 41.302479], [-8.427033, 41.279668], [-8.429143, 41.284319], [-8.426171, 41.287028], [-8.426488, 41.291079], [-8.425013, 41.294909], [-8.422037, 41.296942], [-8.422647, 41.299867], [-8.407449, 41.305599], [-8.428497, 41.320366], [-8.442222, 41.338448], [-8.447378, 41.356489], [-8.447444, 41.365497], [-8.442584, 41.383488], [-8.429083, 41.401437], [-8.410356, 41.415006], [-8.38632, 41.426183], [-8.362302, 41.434589], [-8.35095, 41.437053], [-8.338268, 41.443943], [-8.334386, 41.436958], [-8.326394, 41.434641], [-8.307964, 41.418788], [-8.301079, 41.409738], [-8.293641, 41.391678], [-8.289839, 41.364632], [-8.290254, 41.346619], [-8.295127, 41.328634], [-8.300649, 41.319469], [-8.296431, 41.316774], [-8.297618, 41.313846], [-8.295817, 41.310022], [-8.281801, 41.316569], [-8.279132, 41.324451], [-8.272266, 41.32536], [-8.267406, 41.329868], [-8.268381, 41.334369], [-8.268403, 41.334481], [-8.268425, 41.334594], [-8.268733, 41.336169]], [[-8.361587, 41.50754], [-8.349545, 41.513478], [-8.337545, 41.514996], [-8.325579, 41.513289], [-8.315821, 41.508909], [-8.305122, 41.499837], [-8.30071, 41.490803], [-8.29944, 41.481788], [-8.301774, 41.472795], [-8.30714, 41.46382], [-8.314192, 41.456692], [-8.32625, 41.448491], [-8.338245, 41.446292], [-8.35018, 41.449929], [-8.354294, 41.455087], [-8.362046, 41.460704], [-8.369755, 41.473187], [-8.37245, 41.48221], [-8.372253, 41.491216], [-8.368555, 41.500203], [-8.361587, 41.50754]]], [[[-8.61921, 41.178552], [-8.629166, 41.213094], [-8.638731, 41.229515], [-8.65061, 41.239412], [-8.66252, 41.244021], [-8.674446, 41.245733], [-8.71026, 41.243459], [-8.734147, 41.238943], [-8.759877, 41.231456], [-8.779178, 41.222487], [-8.792097, 41.213503], [-8.802036, 41.203709], [-8.799695, 41.14406], [-8.738431, 41.145418], [-8.74643, 41.150356], [-8.758292, 41.163522], [-8.764028, 41.177417], [-8.764506, 41.186426], [-8.762647, 41.19543], [-8.758004, 41.204429], [-8.750739, 41.213421], [-8.734206, 41.224537], [-8.716346, 41.231357], [-8.698366, 41.23471], [-8.674506, 41.233644], [-8.662594, 41.229627], [-8.650706, 41.2213], [-8.644291, 41.213141], [-8.637729, 41.194229], [-8.634946, 41.193341], [-8.632526, 41.188624], [-8.625658, 41.186628], [-8.62263, 41.180113], [-8.61921, 41.178552]]]]}}, {"id": "1", "type": "Feature", "properties": {"fill": "#50b061", "value_min": 0.07, "value_max": 0.13}, "geometry": {"type": "MultiPolygon", "coordinates": [[[[-8.669861, 41.587987], [-8.684455, 41.586117], [-8.685608, 41.58071], [-8.697261, 41.576376], [-8.701703, 41.570277], [-8.707704, 41.570923], [-8.712485, 41.569323], [-8.716422, 41.573805], [-8.720316, 41.57356], [-8.725151, 41.577811], [-8.726633, 41.576003], [-8.734424, 41.575737], [-8.736564, 41.580228], [-8.738354, 41.579318], [-8.740778, 41.582006], [-8.74467, 41.581535], [-8.750711, 41.58623], [-8.75993, 41.578527], [-8.767441, 41.580286], [-8.769874, 41.583874], [-8.768997, 41.58613], [-8.773228, 41.589482], [-8.774165, 41.593303], [-8.78556, 41.593464], [-8.797327, 41.600599], [-8.804218, 41.600109], [-8.80456, 41.604158], [-8.809434, 41.611332], [-8.828644, 41.609656], [-8.82839, 41.585633], [-8.818497, 41.554794], [-8.8221, 41.547542], [-8.821965, 41.534907], [-8.815926, 41.525624], [-8.81063, 41.5101], [-8.813279, 41.503483], [-8.812636, 41.496944], [-8.804699, 41.482068], [-8.798552, 41.474753], [-8.80154, 41.446836], [-8.806115, 41.43713], [-8.807354, 41.425915], [-8.811202, 41.416419], [-8.804091, 41.255963], [-8.769897, 41.25333], [-8.734091, 41.252901], [-8.698266, 41.256503], [-8.662421, 41.263141], [-8.650477, 41.264361], [-8.638544, 41.263305], [-8.626652, 41.255274], [-8.609815, 41.204022], [-8.603175, 41.189778], [-8.589191, 41.170047], [-8.583263, 41.174422], [-8.582094, 41.177803], [-8.578825, 41.178941], [-8.581276, 41.188836], [-8.579519, 41.19344], [-8.590157, 41.203954], [-8.594766, 41.212978], [-8.596618, 41.221992], [-8.595791, 41.230997], [-8.590929, 41.24143], [-8.582627, 41.248966], [-8.566966, 41.255732], [-8.555023, 41.256811], [-8.543095, 41.255455], [-8.531188, 41.251412], [-8.519309, 41.243589], [-8.509203, 41.230661], [-8.50658, 41.221642], [-8.506869, 41.212635], [-8.509264, 41.206201], [-8.505693, 41.207113], [-8.504239, 41.213646], [-8.500076, 41.21546], [-8.50308, 41.219502], [-8.502204, 41.222656], [-8.495642, 41.222227], [-8.495947, 41.223351], [-8.490894, 41.226294], [-8.487935, 41.230354], [-8.490331, 41.232373], [-8.489156, 41.235528], [-8.486181, 41.236888], [-8.484411, 41.240495], [-8.476346, 41.237818], [-8.475756, 41.23917], [-8.470986, 41.23941], [-8.471604, 41.243459], [-8.469227, 41.245267], [-8.463626, 41.244383], [-8.475194, 41.257534], [-8.495199, 41.274934], [-8.551647, 41.311904], [-8.569322, 41.329987], [-8.57833, 41.344717], [-8.590274, 41.346216], [-8.602258, 41.341139], [-8.614228, 41.338065], [-8.626182, 41.337594], [-8.638122, 41.339798], [-8.65289, 41.348284], [-8.65905, 41.35731], [-8.659599, 41.36632], [-8.653902, 41.37531], [-8.649867, 41.378334], [-8.637884, 41.382764], [-8.625921, 41.383317], [-8.613977, 41.380643], [-8.601886, 41.375142], [-8.590156, 41.365036], [-8.578243, 41.358198], [-8.525778, 41.401876], [-8.486478, 41.42873], [-8.465002, 41.43764], [-8.422027, 41.44828], [-8.410004, 41.453971], [-8.399332, 41.464338], [-8.395464, 41.473325], [-8.394489, 41.482328], [-8.398662, 41.509372], [-8.398113, 41.518376], [-8.394825, 41.527366], [-8.385249, 41.539568], [-8.373171, 41.548774], [-8.349088, 41.558999], [-8.31305, 41.56485], [-8.277069, 41.564934], [-8.241144, 41.560288], [-8.217254, 41.552382], [-8.202485, 41.544208], [-8.191165, 41.535122], [-8.169847, 41.508887], [-8.157962, 41.501357], [-8.122013, 41.501643], [-8.100793, 41.498421], [-8.081388, 41.489261], [-8.072174, 41.475343], [-8.066374, 41.482318], [-8.066069, 41.48817], [-8.072054, 41.490199], [-8.07175, 41.494925], [-8.078333, 41.49898], [-8.078332, 41.500331], [-8.093, 41.504613], [-8.089398, 41.519468], [-8.090594, 41.522169], [-8.093289, 41.522397], [-8.097802, 41.519497], [-8.10979, 41.519298], [-8.118657, 41.525581], [-8.117942, 41.534583], [-8.109475, 41.542259], [-8.105561, 41.542425], [-8.106459, 41.543782], [-8.101666, 41.542655], [-8.094475, 41.544904], [-8.087885, 41.542876], [-8.083389, 41.5449], [-8.080687, 41.551651], [-8.074097, 41.549848], [-8.072896, 41.552098], [-8.077317, 41.557727], [-8.097262, 41.558363], [-8.121146, 41.565719], [-8.145008, 41.575209], [-8.174102, 41.589044], [-8.228447, 41.619463], [-8.264292, 41.633995], [-8.288222, 41.64145], [-8.300206, 41.643644], [-8.312207, 41.644301], [-8.324228, 41.642971], [-8.336269, 41.63975], [-8.37244, 41.62436], [-8.395784, 41.608437], [-8.420714, 41.595689], [-8.444749, 41.591316], [-8.468749, 41.590958], [-8.480761, 41.58914], [-8.487331, 41.58186], [-8.491567, 41.572871], [-8.498705, 41.563895], [-8.504988, 41.558821], [-8.517016, 41.554064], [-8.529016, 41.552839], [-8.552993, 41.553676], [-8.558233, 41.546125], [-8.56772, 41.519139], [-8.574257, 41.510156], [-8.584217, 41.501185], [-8.601341, 41.491238], [-8.613347, 41.486742], [-8.625337, 41.484897], [-8.637312, 41.485575], [-8.685137, 41.504006], [-8.697074, 41.513793], [-8.705678, 41.528582], [-8.70658, 41.546599], [-8.698987, 41.564594], [-8.684772, 41.579277], [-8.669861, 41.587987]], [[-8.478019, 41.518767], [-8.472314, 41.509733], [-8.481451, 41.502857], [-8.493402, 41.506842], [-8.49627, 41.509841], [-8.491489, 41.518827], [-8.481311, 41.520434], [-8.478019, 41.518767]], [[-8.43357, 41.497549], [-8.421596, 41.496766], [-8.414002, 41.491436], [-8.409723, 41.484884], [-8.409771, 41.479644], [-8.413345, 41.473418], [-8.421851, 41.46809], [-8.43383, 41.467676], [-8.44569, 41.473578], [-8.450399, 41.482608], [-8.445688, 41.491593], [-8.43357, 41.497549]], [[-8.733757, 41.335039], [-8.721805, 41.335128], [-8.709864, 41.332915], [-8.697935, 41.328323], [-8.686021, 41.320756], [-8.677656, 41.312325], [-8.673143, 41.303305], [-8.672658, 41.294296], [-8.67664, 41.285299], [-8.686733, 41.276319], [-8.698197, 41.271336], [-8.71015, 41.268368], [-8.722092, 41.267593], [-8.734025, 41.268984], [-8.754377, 41.276484], [-8.765023, 41.285514], [-8.769913, 41.294531], [-8.771485, 41.303542], [-8.769416, 41.312546], [-8.763547, 41.321542], [-8.757691, 41.326422], [-8.745718, 41.332422], [-8.733757, 41.335039]]], [[[-8.070459, 41.462962], [-8.074824, 41.449848], [-8.087001, 41.435206], [-8.099085, 41.42697], [-8.111122, 41.421901], [-8.123116, 41.419837], [-8.135081, 41.419934], [-8.170912, 41.425338], [-8.194834, 41.426378], [-8.218802, 41.423699], [-8.230813, 41.419959], [-8.242848, 41.41409], [-8.256725, 41.400453], [-8.260931, 41.391472], [-8.262495, 41.382475], [-8.258458, 41.364434], [-8.250058, 41.352847], [-8.251123, 41.356897], [-8.248141, 41.360052], [-8.248448, 41.364328], [-8.245461, 41.364781], [-8.244272, 41.368384], [-8.241287, 41.370413], [-8.236545, 41.371092], [-8.239292, 41.373316], [-8.242318, 41.382344], [-8.236016, 41.39131], [-8.231114, 41.394405], [-8.219136, 41.39582], [-8.207224, 41.391644], [-8.20107, 41.382065], [-8.202317, 41.377196], [-8.199163, 41.377423], [-8.194677, 41.374275], [-8.191691, 41.376302], [-8.189299, 41.375403], [-8.184818, 41.376756], [-8.168382, 41.377438], [-8.1642, 41.38059], [-8.152544, 41.375866], [-8.151049, 41.37339], [-8.145073, 41.374742], [-8.139694, 41.377894], [-8.133418, 41.374292], [-8.119672, 41.376768], [-8.119672, 41.378569], [-8.116683, 41.380144], [-8.117578, 41.386447], [-8.113992, 41.386896], [-8.112795, 41.390723], [-8.110105, 41.390947], [-8.108011, 41.393648], [-8.103827, 41.392972], [-8.105321, 41.394998], [-8.10263, 41.396123], [-8.10801, 41.398825], [-8.108606, 41.403102], [-8.104419, 41.406252], [-8.104119, 41.408728], [-8.101727, 41.409403], [-8.102025, 41.411204], [-8.092756, 41.411201], [-8.09126, 41.414352], [-8.079893, 41.41975], [-8.077503, 41.416597], [-8.070923, 41.41862], [-8.066739, 41.416142], [-8.061654, 41.417489], [-8.059852, 41.424916], [-8.055959, 41.429415], [-8.05745, 41.432793], [-8.056549, 41.436394], [-8.069999, 41.447206], [-8.068497, 41.453282], [-8.070289, 41.45711], [-8.068788, 41.462286], [-8.070459, 41.462962]]], [[[-7.732047, 41.820626], [-7.75654, 41.815861], [-7.76867, 41.811146], [-7.780043, 41.801703], [-7.784892, 41.792748], [-7.786749, 41.783761], [-7.78179, 41.747681], [-7.78282, 41.738685], [-7.791573, 41.729771], [-7.80635, 41.726857], [-7.84239, 41.728499], [-7.854426, 41.727786], [-7.866496, 41.725166], [-7.873769, 41.721599], [-7.879305, 41.712646], [-7.890977, 41.699825], [-7.903033, 41.697632], [-7.91497, 41.7024], [-7.921971, 41.713054], [-7.921358, 41.722056], [-7.911973, 41.739981], [-7.908385, 41.775974], [-7.910173, 41.794005], [-7.916397, 41.812077], [-7.915783, 41.821078], [-7.898894, 41.860862], [-7.902203, 41.861591], [-7.904318, 41.859795], [-7.907309, 41.865203], [-7.906095, 41.868126], [-7.910299, 41.871285], [-7.909985, 41.875111], [-7.915391, 41.879397], [-7.928949, 41.877847], [-7.935283, 41.874707], [-7.937389, 41.87516], [-7.941015, 41.871115], [-7.943597, 41.871344], [-7.936278, 41.867746], [-7.926481, 41.857206], [-7.922989, 41.848166], [-7.923381, 41.839163], [-7.927455, 41.830195], [-7.934196, 41.821251], [-7.935832, 41.812259], [-7.923184, 41.794128], [-7.923295, 41.758101], [-7.927402, 41.749133], [-7.938391, 41.739834], [-7.952994, 41.731355], [-7.959707, 41.722409], [-7.962652, 41.713429], [-7.964021, 41.695427], [-7.94939, 41.641252], [-7.950475, 41.623248], [-7.953189, 41.614266], [-7.960018, 41.601954], [-7.9541, 41.602846], [-7.952606, 41.600592], [-7.947808, 41.60081], [-7.945413, 41.599456], [-7.942725, 41.595625], [-7.935832, 41.594713], [-7.93791, 41.601694], [-7.937004, 41.603718], [-7.931604, 41.604384], [-7.930979, 41.612711], [-7.925556, 41.620354], [-7.920755, 41.620796], [-7.917748, 41.623041], [-7.915933, 41.627764], [-7.913229, 41.628885], [-7.912613, 41.63361], [-7.906014, 41.633147], [-7.906884, 41.641927], [-7.897869, 41.645511], [-7.89696, 41.647985], [-7.892759, 41.647976], [-7.892145, 41.651576], [-7.902319, 41.659925], [-7.899913, 41.66127], [-7.900198, 41.665547], [-7.898396, 41.665769], [-7.896885, 41.668692], [-7.883969, 41.67069], [-7.879755, 41.673607], [-7.877044, 41.676077], [-7.876723, 41.681253], [-7.873401, 41.686198], [-7.868896, 41.686413], [-7.867408, 41.683258], [-7.864403, 41.683701], [-7.864096, 41.685276], [-7.860493, 41.685268], [-7.858982, 41.687602], [-7.868279, 41.694524], [-7.87056, 41.703554], [-7.866706, 41.713211], [-7.854574, 41.71948], [-7.842567, 41.718651], [-7.830294, 41.712158], [-7.828928, 41.709498], [-7.828853, 41.709352], [-7.828813, 41.709272], [-7.825252, 41.708813], [-7.818621, 41.713522], [-7.815291, 41.718689], [-7.808986, 41.717996], [-7.808396, 41.715744], [-7.803298, 41.714154], [-7.790966, 41.717044], [-7.789449, 41.719966], [-7.78464, 41.720402], [-7.78252, 41.723546], [-7.776204, 41.724652], [-7.773786, 41.727346], [-7.770798, 41.72441], [-7.765698, 41.723044], [-7.761765, 41.727758], [-7.762933, 41.733839], [-7.759307, 41.737203], [-7.759597, 41.739005], [-7.75689, 41.739446], [-7.758687, 41.740577], [-7.757758, 41.745301], [-7.748417, 41.749321], [-7.747786, 41.754496], [-7.743866, 41.756545], [-7.757547, 41.76371], [-7.76542, 41.774527], [-7.76714, 41.783552], [-7.76429, 41.792528], [-7.756845, 41.800068], [-7.744708, 41.805229], [-7.727324, 41.805944], [-7.728171, 41.814974], [-7.732047, 41.820626]]], [[[-7.956512, 41.875191], [-7.956512, 41.875191], [-7.956362, 41.875162], [-7.956512, 41.875191]]], [[[-7.944025, 41.871555], [-7.944025, 41.871555], [-7.943724, 41.871407], [-7.944025, 41.871555]]], [[[-8.639867, 41.596594], [-8.612689, 41.597147], [-8.588712, 41.593754], [-8.576713, 41.593834], [-8.564666, 41.601064], [-8.552522, 41.615263], [-8.557244, 41.617046], [-8.562639, 41.61635], [-8.568056, 41.619031], [-8.570735, 41.616095], [-8.577321, 41.614269], [-8.581231, 41.615829], [-8.585766, 41.620988], [-8.591462, 41.620515], [-8.596534, 41.616668], [-8.601628, 41.615972], [-8.603996, 41.611686], [-8.613256, 41.606696], [-8.619881, 41.610269], [-8.621338, 41.604636], [-8.628833, 41.604378], [-8.636302, 41.600744], [-8.639867, 41.596594]]], [[[-8.235989, 41.370643], [-8.235989, 41.370643], [-8.236208, 41.37082], [-8.235989, 41.370643]]], [[[-8.236267, 41.370868], [-8.236267, 41.370868], [-8.236507, 41.371062], [-8.236267, 41.370868]]], [[[-8.131373, 41.697482], [-8.132755, 41.696825], [-8.128831, 41.687788], [-8.119532, 41.684458], [-8.10744, 41.690036], [-8.100539, 41.696577], [-8.101514, 41.705592], [-8.107158, 41.710418], [-8.119179, 41.710337], [-8.131373, 41.697482]]]]}}, {"id": "2", "type": "Feature", "properties": {"fill": "#74c16c", "value_min": 0.13, "value_max": 0.2}, "geometry": {"type": "MultiPolygon", "coordinates": [[[[-7.898894, 41.860862], [-7.915783, 41.821078], [-7.916397, 41.812077], [-7.910173, 41.794005], [-7.908385, 41.775974], [-7.911973, 41.739981], [-7.921358, 41.722056], [-7.921971, 41.713054], [-7.91497, 41.7024], [-7.903033, 41.697632], [-7.890977, 41.699825], [-7.879305, 41.712646], [-7.873769, 41.721599], [-7.866496, 41.725166], [-7.854426, 41.727786], [-7.84239, 41.728499], [-7.80635, 41.726857], [-7.791573, 41.729771], [-7.78282, 41.738685], [-7.78179, 41.747681], [-7.786749, 41.783761], [-7.784892, 41.792748], [-7.780043, 41.801703], [-7.76867, 41.811146], [-7.75654, 41.815861], [-7.732047, 41.820626], [-7.73594, 41.823554], [-7.743152, 41.825154], [-7.742839, 41.827178], [-7.738919, 41.828515], [-7.742203, 41.832762], [-7.756261, 41.830286], [-7.792422, 41.82845], [-7.803103, 41.819959], [-7.804682, 41.816736], [-7.810332, 41.793014], [-7.810195, 41.765992], [-7.811929, 41.757004], [-7.818159, 41.748061], [-7.830144, 41.740786], [-7.842237, 41.737035], [-7.86634, 41.734033], [-7.878341, 41.735366], [-7.890253, 41.741899], [-7.895955, 41.748835], [-7.898266, 41.757864], [-7.894637, 41.78485], [-7.905219, 41.811971], [-7.90408, 41.820967], [-7.899401, 41.829929], [-7.888521, 41.842269], [-7.87696, 41.849527], [-7.879956, 41.853217], [-7.888076, 41.855486], [-7.891675, 41.859094], [-7.898894, 41.860862]]], [[[-7.870327, 41.852306], [-7.827913, 41.863294], [-7.819242, 41.8731], [-7.823863, 41.874013], [-7.825059, 41.875817], [-7.830479, 41.875831], [-7.830789, 41.874031], [-7.832894, 41.874712], [-7.83772, 41.872924], [-7.842528, 41.875187], [-7.841663, 41.866632], [-7.849515, 41.861475], [-7.858542, 41.862622], [-7.859456, 41.860148], [-7.864877, 41.859711], [-7.870327, 41.852306]]], [[[-8.072174, 41.475343], [-8.081388, 41.489261], [-8.100793, 41.498421], [-8.122013, 41.501643], [-8.157962, 41.501357], [-8.169847, 41.508887], [-8.191165, 41.535122], [-8.202485, 41.544208], [-8.217254, 41.552382], [-8.241144, 41.560288], [-8.277069, 41.564934], [-8.31305, 41.56485], [-8.349088, 41.558999], [-8.373171, 41.548774], [-8.385249, 41.539568], [-8.394825, 41.527366], [-8.398113, 41.518376], [-8.398662, 41.509372], [-8.394489, 41.482328], [-8.395464, 41.473325], [-8.399332, 41.464338], [-8.410004, 41.453971], [-8.422027, 41.44828], [-8.465002, 41.43764], [-8.486478, 41.42873], [-8.525778, 41.401876], [-8.578243, 41.358198], [-8.590156, 41.365036], [-8.601886, 41.375142], [-8.613977, 41.380643], [-8.625921, 41.383317], [-8.637884, 41.382764], [-8.649867, 41.378334], [-8.653902, 41.37531], [-8.659599, 41.36632], [-8.65905, 41.35731], [-8.65289, 41.348284], [-8.638122, 41.339798], [-8.626182, 41.337594], [-8.614228, 41.338065], [-8.602258, 41.341139], [-8.590274, 41.346216], [-8.57833, 41.344717], [-8.569322, 41.329987], [-8.551647, 41.311904], [-8.495199, 41.274934], [-8.475194, 41.257534], [-8.463626, 41.244383], [-8.459989, 41.246644], [-8.454323, 41.246886], [-8.455541, 41.251834], [-8.452276, 41.25522], [-8.449891, 41.255452], [-8.449304, 41.257479], [-8.447812, 41.257258], [-8.449028, 41.261982], [-8.439785, 41.262907], [-8.438023, 41.268989], [-8.434745, 41.269673], [-8.432691, 41.277107], [-8.427033, 41.279668], [-8.45503, 41.302479], [-8.462976, 41.311524], [-8.47384, 41.32959], [-8.478588, 41.347627], [-8.477603, 41.365637], [-8.474956, 41.374633], [-8.465166, 41.392603], [-8.447446, 41.410534], [-8.434293, 41.419478], [-8.400357, 41.437321], [-8.388131, 41.446264], [-8.382822, 41.455243], [-8.382868, 41.491273], [-8.381516, 41.500273], [-8.377538, 41.509259], [-8.373503, 41.514456], [-8.361427, 41.523738], [-8.349397, 41.528253], [-8.337386, 41.53058], [-8.325397, 41.530773], [-8.289511, 41.523985], [-8.277523, 41.524192], [-8.253484, 41.530063], [-8.241499, 41.529875], [-8.229556, 41.526236], [-8.217707, 41.514814], [-8.215105, 41.508266], [-8.217937, 41.495696], [-8.230064, 41.483313], [-8.25418, 41.469442], [-8.264274, 41.454546], [-8.271916, 41.43658], [-8.277334, 41.409592], [-8.278229, 41.382575], [-8.268733, 41.336169], [-8.263339, 41.340902], [-8.262751, 41.345405], [-8.256483, 41.347663], [-8.255889, 41.349689], [-8.250058, 41.352847], [-8.258458, 41.364434], [-8.262495, 41.382475], [-8.260931, 41.391472], [-8.256725, 41.400453], [-8.242848, 41.41409], [-8.230813, 41.419959], [-8.218802, 41.423699], [-8.194834, 41.426378], [-8.170912, 41.425338], [-8.135081, 41.419934], [-8.123116, 41.419837], [-8.111122, 41.421901], [-8.099085, 41.42697], [-8.087001, 41.435206], [-8.074824, 41.449848], [-8.070459, 41.462962], [-8.073872, 41.46499], [-8.074468, 41.468141], [-8.074164, 41.473543], [-8.072174, 41.475343]]], [[[-8.589191, 41.170047], [-8.603175, 41.189778], [-8.609815, 41.204022], [-8.626652, 41.255274], [-8.638544, 41.263305], [-8.650477, 41.264361], [-8.662421, 41.263141], [-8.698266, 41.256503], [-8.734091, 41.252901], [-8.769897, 41.25333], [-8.804091, 41.255963], [-8.802036, 41.203709], [-8.792097, 41.213503], [-8.779178, 41.222487], [-8.759877, 41.231456], [-8.734147, 41.238943], [-8.71026, 41.243459], [-8.674446, 41.245733], [-8.66252, 41.244021], [-8.65061, 41.239412], [-8.638731, 41.229515], [-8.629166, 41.213094], [-8.61921, 41.178552], [-8.613374, 41.177451], [-8.608583, 41.174095], [-8.609164, 41.172066], [-8.605845, 41.166228], [-8.602852, 41.164214], [-8.59422, 41.165149], [-8.589174, 41.167645], [-8.589191, 41.170047]]], [[[-8.268425, 41.334594], [-8.268425, 41.334594], [-8.268403, 41.334481], [-8.268425, 41.334594]]], [[[-8.268381, 41.334369], [-8.267406, 41.329868], [-8.265711, 41.332121], [-8.268381, 41.334369]]]]}}, {"id": "0", "type": "Feature", "properties": {"fill": "#2ba055", "value_min": 0.0, "value_max": 0.07}, "geometry": {"type": "MultiPolygon", "coordinates": [[[[-8.552522, 41.615263], [-8.564666, 41.601064], [-8.576713, 41.593834], [-8.588712, 41.593754], [-8.612689, 41.597147], [-8.639867, 41.596594], [-8.64075, 41.594422], [-8.645536, 41.593051], [-8.646744, 41.594171], [-8.649125, 41.591909], [-8.656622, 41.5921], [-8.660788, 41.588255], [-8.663794, 41.589141], [-8.665265, 41.585758], [-8.669861, 41.587987], [-8.684772, 41.579277], [-8.698987, 41.564594], [-8.70658, 41.546599], [-8.705678, 41.528582], [-8.697074, 41.513793], [-8.685137, 41.504006], [-8.637312, 41.485575], [-8.625337, 41.484897], [-8.613347, 41.486742], [-8.601341, 41.491238], [-8.584217, 41.501185], [-8.574257, 41.510156], [-8.56772, 41.519139], [-8.558233, 41.546125], [-8.552993, 41.553676], [-8.529016, 41.552839], [-8.517016, 41.554064], [-8.504988, 41.558821], [-8.498705, 41.563895], [-8.491567, 41.572871], [-8.487331, 41.58186], [-8.480761, 41.58914], [-8.468749, 41.590958], [-8.444749, 41.591316], [-8.420714, 41.595689], [-8.395784, 41.608437], [-8.37244, 41.62436], [-8.336269, 41.63975], [-8.324228, 41.642971], [-8.312207, 41.644301], [-8.300206, 41.643644], [-8.288222, 41.64145], [-8.264292, 41.633995], [-8.228447, 41.619463], [-8.174102, 41.589044], [-8.145008, 41.575209], [-8.121146, 41.565719], [-8.097262, 41.558363], [-8.077317, 41.557727], [-8.080082, 41.558854], [-8.081576, 41.565157], [-8.078879, 41.56493], [-8.075279, 41.568305], [-8.073182, 41.568079], [-8.069283, 41.570553], [-8.068081, 41.573478], [-8.056684, 41.579549], [-8.052181, 41.584498], [-8.052777, 41.587649], [-8.048277, 41.590122], [-8.047974, 41.592373], [-8.031467, 41.602938], [-8.02367, 41.603156], [-8.019174, 41.601802], [-8.015872, 41.603824], [-8.013474, 41.603372], [-8.005971, 41.60629], [-8.003562, 41.611239], [-7.998761, 41.612809], [-7.999669, 41.608759], [-7.996976, 41.605829], [-7.996684, 41.602003], [-7.984685, 41.603564], [-7.982292, 41.60086], [-7.975689, 41.603552], [-7.974482, 41.606701], [-7.971182, 41.607147], [-7.968193, 41.603316], [-7.960018, 41.601954], [-7.953189, 41.614266], [-7.950475, 41.623248], [-7.94939, 41.641252], [-7.964021, 41.695427], [-7.962652, 41.713429], [-7.959707, 41.722409], [-7.952994, 41.731355], [-7.938391, 41.739834], [-7.927402, 41.749133], [-7.923295, 41.758101], [-7.923184, 41.794128], [-7.935832, 41.812259], [-7.934196, 41.821251], [-7.927455, 41.830195], [-7.923381, 41.839163], [-7.922989, 41.848166], [-7.926481, 41.857206], [-7.936278, 41.867746], [-7.943597, 41.871344], [-7.943724, 41.871407], [-7.944025, 41.871555], [-7.951254, 41.871132], [-7.956367, 41.87339], [-7.956362, 41.875162], [-7.956512, 41.875191], [-7.960878, 41.875648], [-7.962086, 41.874074], [-7.973828, 41.875216], [-7.987996, 41.869157], [-7.990123, 41.860157], [-7.995547, 41.858138], [-7.994047, 41.855211], [-7.996162, 41.851837], [-8.003089, 41.850494], [-8.005804, 41.847346], [-8.007928, 41.838796], [-8.012753, 41.833624], [-8.013062, 41.829348], [-8.017873, 41.831379], [-8.02901, 41.829589], [-8.037134, 41.831171], [-8.041351, 41.828023], [-8.041054, 41.825097], [-8.045268, 41.824425], [-8.047679, 41.821276], [-8.057314, 41.815656], [-8.06664, 41.817012], [-8.072961, 41.813414], [-8.078678, 41.813417], [-8.082892, 41.810493], [-8.091013, 41.812521], [-8.093421, 41.811397], [-8.093723, 41.808471], [-8.101845, 41.809824], [-8.104853, 41.81185], [-8.115984, 41.812302], [-8.123807, 41.808702], [-8.138247, 41.808477], [-8.139751, 41.813203], [-8.14276, 41.812978], [-8.144866, 41.815228], [-8.149078, 41.814777], [-8.153291, 41.817703], [-8.158106, 41.818377], [-8.165326, 41.81815], [-8.173744, 41.808019], [-8.177655, 41.808242], [-8.183676, 41.812741], [-8.190291, 41.809587], [-8.197158, 41.814129], [-8.201063, 41.808724], [-8.204973, 41.807372], [-8.205872, 41.804445], [-8.213692, 41.803765], [-8.217598, 41.80016], [-8.217589, 41.793634], [-8.224207, 41.794303], [-8.229917, 41.791598], [-8.240744, 41.791588], [-8.24074, 41.789338], [-8.244347, 41.787984], [-8.245546, 41.785731], [-8.251257, 41.784375], [-8.251845, 41.777172], [-8.257551, 41.773564], [-8.261762, 41.774235], [-8.271366, 41.766346], [-8.280681, 41.764083], [-8.284038, 41.761109], [-8.284931, 41.757507], [-8.305674, 41.758152], [-8.311096, 41.762195], [-8.318308, 41.761283], [-8.325233, 41.765098], [-8.328234, 41.763292], [-8.336653, 41.763728], [-8.341756, 41.761468], [-8.344765, 41.762363], [-8.349267, 41.760103], [-8.352557, 41.755145], [-8.349814, 41.744122], [-8.352516, 41.743441], [-8.352203, 41.739616], [-8.357897, 41.735103], [-8.362407, 41.735994], [-8.368703, 41.73193], [-8.374122, 41.734845], [-8.384922, 41.73032], [-8.387032, 41.731891], [-8.393033, 41.729852], [-8.396942, 41.730518], [-8.400531, 41.726683], [-8.402934, 41.726452], [-8.404721, 41.722847], [-8.417349, 41.725067], [-8.422737, 41.720552], [-8.429643, 41.719859], [-8.430533, 41.717381], [-8.435927, 41.714441], [-8.441632, 41.713975], [-8.4446, 41.70654], [-8.453868, 41.697961], [-8.453255, 41.695487], [-8.461659, 41.694563], [-8.467939, 41.689593], [-8.478124, 41.685061], [-8.482012, 41.682123], [-8.484371, 41.674238], [-8.49308, 41.674886], [-8.499963, 41.671038], [-8.50927, 41.671233], [-8.51018, 41.672806], [-8.511967, 41.670324], [-8.509856, 41.668755], [-8.512252, 41.667847], [-8.514629, 41.663788], [-8.522103, 41.658811], [-8.525706, 41.659023], [-8.527769, 41.652714], [-8.534066, 41.652017], [-8.537951, 41.649302], [-8.537634, 41.646602], [-8.543876, 41.637352], [-8.543855, 41.633976], [-8.536342, 41.631977], [-8.535128, 41.62973], [-8.542257, 41.618676], [-8.542536, 41.615299], [-8.552522, 41.615263]], [[-8.131373, 41.697482], [-8.119179, 41.710337], [-8.107158, 41.710418], [-8.101514, 41.705592], [-8.100539, 41.696577], [-8.10744, 41.690036], [-8.119532, 41.684458], [-8.128831, 41.687788], [-8.132755, 41.696825], [-8.131373, 41.697482]]], [[[-7.727324, 41.805944], [-7.744708, 41.805229], [-7.756845, 41.800068], [-7.76429, 41.792528], [-7.76714, 41.783552], [-7.76542, 41.774527], [-7.757547, 41.76371], [-7.743866, 41.756545], [-7.740214, 41.763924], [-7.728449, 41.77041], [-7.725406, 41.776252], [-7.727191, 41.779184], [-7.724177, 41.780299], [-7.725372, 41.781653], [-7.722296, 41.792446], [-7.728879, 41.797871], [-7.727324, 41.805944]]], [[[-7.828928, 41.709498], [-7.830294, 41.712158], [-7.842567, 41.718651], [-7.854574, 41.71948], [-7.866706, 41.713211], [-7.87056, 41.703554], [-7.868279, 41.694524], [-7.858982, 41.687602], [-7.857773, 41.689538], [-7.854776, 41.68818], [-7.847538, 41.695365], [-7.837309, 41.699391], [-7.835792, 41.702763], [-7.839682, 41.705924], [-7.838465, 41.709522], [-7.828928, 41.709498]]], [[[-7.828813, 41.709272], [-7.828813, 41.709272], [-7.828853, 41.709352], [-7.828813, 41.709272]]], [[[-8.105561, 41.542425], [-8.109475, 41.542259], [-8.117942, 41.534583], [-8.118657, 41.525581], [-8.10979, 41.519298], [-8.097802, 41.519497], [-8.093289, 41.522397], [-8.091786, 41.531848], [-8.097775, 41.536127], [-8.097774, 41.537927], [-8.105561, 41.542425]]], [[[-8.478019, 41.518767], [-8.481311, 41.520434], [-8.491489, 41.518827], [-8.49627, 41.509841], [-8.493402, 41.506842], [-8.481451, 41.502857], [-8.472314, 41.509733], [-8.478019, 41.518767]]], [[[-8.43357, 41.497549], [-8.445688, 41.491593], [-8.450399, 41.482608], [-8.44569, 41.473578], [-8.43383, 41.467676], [-8.421851, 41.46809], [-8.413345, 41.473418], [-8.409771, 41.479644], [-8.409723, 41.484884], [-8.414002, 41.491436], [-8.421596, 41.496766], [-8.43357, 41.497549]]], [[[-8.202317, 41.377196], [-8.20107, 41.382065], [-8.207224, 41.391644], [-8.219136, 41.39582], [-8.231114, 41.394405], [-8.236016, 41.39131], [-8.242318, 41.382344], [-8.239292, 41.373316], [-8.236545, 41.371092], [-8.236507, 41.371062], [-8.236267, 41.370868], [-8.236208, 41.37082], [-8.235989, 41.370643], [-8.224854, 41.370878], [-8.21738, 41.368182], [-8.211712, 41.376065], [-8.202317, 41.377196]]], [[[-8.733757, 41.335039], [-8.745718, 41.332422], [-8.757691, 41.326422], [-8.763547, 41.321542], [-8.769416, 41.312546], [-8.771485, 41.303542], [-8.769913, 41.294531], [-8.765023, 41.285514], [-8.754377, 41.276484], [-8.734025, 41.268984], [-8.722092, 41.267593], [-8.71015, 41.268368], [-8.698197, 41.271336], [-8.686733, 41.276319], [-8.67664, 41.285299], [-8.672658, 41.294296], [-8.673143, 41.303305], [-8.677656, 41.312325], [-8.686021, 41.320756], [-8.697935, 41.328323], [-8.709864, 41.332915], [-8.721805, 41.335128], [-8.733757, 41.335039]]], [[[-8.509264, 41.206201], [-8.506869, 41.212635], [-8.50658, 41.221642], [-8.509203, 41.230661], [-8.519309, 41.243589], [-8.531188, 41.251412], [-8.543095, 41.255455], [-8.555023, 41.256811], [-8.566966, 41.255732], [-8.582627, 41.248966], [-8.590929, 41.24143], [-8.595791, 41.230997], [-8.596618, 41.221992], [-8.594766, 41.212978], [-8.590157, 41.203954], [-8.579519, 41.19344], [-8.575958, 41.195609], [-8.576894, 41.201908], [-8.574515, 41.202593], [-8.57423, 41.20462], [-8.567971, 41.204644], [-8.565895, 41.206227], [-8.567697, 41.208246], [-8.566512, 41.209376], [-8.559636, 41.206251], [-8.554271, 41.20627], [-8.549521, 41.209214], [-8.544157, 41.209458], [-8.54238, 41.211265], [-8.532257, 41.213102], [-8.52713, 41.203215], [-8.523236, 41.200077], [-8.51163, 41.203042], [-8.509264, 41.206201]]]]}}]}