{"type": "FeatureCollection", "features": [{"id": "5", "type": "Feature", "properties": {"fill": "#fecb90", "value_min": 0.53, "value_max": 0.6}, "geometry": {"type": "MultiPolygon", "coordinates": [[[[-8.069635, 41.811762], [-8.081765, 41.805362], [-8.091322, 41.795581], [-8.095988, 41.786611], [-8.098717, 41.768618], [-8.097393, 41.759601], [-8.090811, 41.741535], [-8.0714, 41.705352], [-8.059336, 41.692663], [-8.051058, 41.687172], [-8.047578, 41.678136], [-8.050894, 41.66015], [-8.047935, 41.650914], [-8.036091, 41.63978], [-8.024164, 41.634531], [-8.000214, 41.630456], [-7.964166, 41.632502], [-7.952124, 41.634734], [-7.932567, 41.641097], [-7.921505, 41.650001], [-7.923639, 41.659028], [-7.927647, 41.662765], [-7.939209, 41.690137], [-7.940709, 41.704222], [-7.939393, 41.713217], [-7.936021, 41.722192], [-7.928796, 41.731132], [-7.909711, 41.748966], [-7.907622, 41.757953], [-7.912505, 41.767007], [-7.925806, 41.773418], [-7.961857, 41.776193], [-7.973838, 41.779431], [-7.986005, 41.785693], [-8.009582, 41.802478], [-8.021525, 41.808712], [-8.033506, 41.8125], [-8.045514, 41.814601], [-8.057556, 41.814445], [-8.069635, 41.811762]], [[-8.02198, 41.778785], [-8.009966, 41.777537], [-7.974014, 41.768386], [-7.949899, 41.771647], [-7.937877, 41.77103], [-7.926943, 41.767142], [-7.9211, 41.758081], [-7.926243, 41.747231], [-7.949089, 41.731319], [-7.967955, 41.70447], [-7.975127, 41.69837], [-7.987224, 41.69338], [-7.999263, 41.691945], [-8.011247, 41.694082], [-8.023187, 41.699197], [-8.051843, 41.723206], [-8.058459, 41.732268], [-8.06193, 41.741303], [-8.061983, 41.75031], [-8.058741, 41.759291], [-8.051848, 41.768241], [-8.046138, 41.772559], [-8.034337, 41.777102], [-8.02198, 41.778785]], [[-8.017054, 41.659865], [-8.023849, 41.655384], [-8.029928, 41.659974], [-8.023702, 41.665121], [-8.017054, 41.659865]]], [[[-7.727352, 41.801601], [-7.732724, 41.802491], [-7.745008, 41.801326], [-7.75954, 41.792477], [-7.76358, 41.783514], [-7.762637, 41.774497], [-7.757502, 41.766035], [-7.743257, 41.757758], [-7.740214, 41.763924], [-7.726937, 41.771755], [-7.7254, 41.777152], [-7.727191, 41.779184], [-7.724177, 41.780299], [-7.725372, 41.781653], [-7.722296, 41.792446], [-7.728879, 41.797871], [-7.727352, 41.801601]]], [[[-7.782246, 41.723545], [-7.794482, 41.729801], [-7.818204, 41.736073], [-7.842253, 41.736141], [-7.854321, 41.733716], [-7.866472, 41.726537], [-7.891333, 41.669806], [-7.883969, 41.67069], [-7.877044, 41.676077], [-7.876723, 41.681253], [-7.873401, 41.686198], [-7.868896, 41.686413], [-7.868008, 41.68326], [-7.86017, 41.685717], [-7.867107, 41.690336], [-7.870923, 41.703557], [-7.866672, 41.715156], [-7.85772, 41.721441], [-7.854501, 41.723552], [-7.842465, 41.724302], [-7.830512, 41.720508], [-7.820729, 41.712334], [-7.815291, 41.718689], [-7.808986, 41.717996], [-7.808396, 41.715744], [-7.804499, 41.714158], [-7.79939, 41.714593], [-7.79788, 41.716164], [-7.796383, 41.71526], [-7.790966, 41.717044], [-7.789449, 41.719966], [-7.78464, 41.720402], [-7.782246, 41.723545]]], [[[-7.899685, 41.656768], [-7.90136, 41.64981], [-7.89801, 41.645511], [-7.89696, 41.647985], [-7.892759, 41.647976], [-7.892145, 41.651576], [-7.899685, 41.656768]]], [[[-8.532336, 41.652023], [-8.532336, 41.652023], [-8.532265, 41.65185], [-8.532336, 41.652023]]], [[[-8.532244, 41.651798], [-8.523814, 41.63606], [-8.504443, 41.617964], [-8.480108, 41.599842], [-8.468732, 41.593013], [-8.456772, 41.588417], [-8.444796, 41.585871], [-8.420808, 41.585129], [-8.396767, 41.590133], [-8.384714, 41.595932], [-8.379239, 41.599342], [-8.370755, 41.608303], [-8.366145, 41.617285], [-8.365487, 41.626288], [-8.369431, 41.635317], [-8.380546, 41.644385], [-8.39618, 41.653159], [-8.414463, 41.671584], [-8.420002, 41.675089], [-8.443964, 41.682764], [-8.470681, 41.688234], [-8.475731, 41.686644], [-8.482012, 41.682123], [-8.484371, 41.674238], [-8.49308, 41.674886], [-8.499963, 41.671038], [-8.50927, 41.671233], [-8.51018, 41.672806], [-8.511967, 41.670324], [-8.509856, 41.668755], [-8.512252, 41.667847], [-8.514629, 41.663788], [-8.522103, 41.658811], [-8.525706, 41.659023], [-8.527769, 41.652714], [-8.532244, 41.651798]], [[-8.444133, 41.663113], [-8.432149, 41.659993], [-8.4202, 41.65305], [-8.401768, 41.63549], [-8.39842, 41.626465], [-8.399128, 41.617462], [-8.404919, 41.608485], [-8.420094, 41.599555], [-8.432706, 41.596505], [-8.444707, 41.596267], [-8.456687, 41.598541], [-8.468646, 41.603418], [-8.486566, 41.617886], [-8.491704, 41.626916], [-8.493861, 41.635932], [-8.492155, 41.644932], [-8.485927, 41.653911], [-8.480208, 41.658067], [-8.46816, 41.662632], [-8.456135, 41.664196], [-8.444133, 41.663113]]], [[[-8.723764, 41.576693], [-8.724678, 41.564659], [-8.716557, 41.546624], [-8.696076, 41.528557], [-8.66427, 41.510454], [-8.637248, 41.496991], [-8.613346, 41.487066], [-8.601375, 41.485699], [-8.589381, 41.488131], [-8.577351, 41.495891], [-8.567647, 41.510131], [-8.565641, 41.519131], [-8.567447, 41.537153], [-8.571469, 41.546175], [-8.588862, 41.570185], [-8.612716, 41.592672], [-8.631133, 41.603243], [-8.639577, 41.597804], [-8.640152, 41.59465], [-8.645536, 41.593051], [-8.646744, 41.594171], [-8.649125, 41.591909], [-8.656622, 41.5921], [-8.660788, 41.588255], [-8.663794, 41.589141], [-8.665265, 41.585758], [-8.66948, 41.587989], [-8.684455, 41.586117], [-8.685608, 41.58071], [-8.697261, 41.576376], [-8.701703, 41.570277], [-8.707704, 41.570923], [-8.712485, 41.569323], [-8.716422, 41.573805], [-8.720316, 41.57356], [-8.723764, 41.576693]], [[-8.636843, 41.569536], [-8.624853, 41.568666], [-8.612881, 41.565009], [-8.600926, 41.558896], [-8.589004, 41.547758], [-8.58252, 41.537208], [-8.580514, 41.528194], [-8.581537, 41.51919], [-8.589259, 41.507391], [-8.601288, 41.499846], [-8.613283, 41.497513], [-8.625256, 41.498898], [-8.637214, 41.503041], [-8.651787, 41.510417], [-8.663807, 41.51946], [-8.671027, 41.528488], [-8.674292, 41.537505], [-8.673892, 41.546511], [-8.669309, 41.555505], [-8.657185, 41.564477], [-8.648846, 41.567826], [-8.636843, 41.569536]]], [[[-8.082187, 41.5492], [-8.097351, 41.551964], [-8.121348, 41.550816], [-8.145392, 41.543798], [-8.157488, 41.537891], [-8.172716, 41.525983], [-8.181775, 41.513209], [-8.194057, 41.48922], [-8.207734, 41.472186], [-8.220801, 41.463267], [-8.266465, 41.441935], [-8.287869, 41.427672], [-8.298036, 41.418727], [-8.304826, 41.409761], [-8.308713, 41.400777], [-8.311195, 41.364762], [-8.318144, 41.336774], [-8.314699, 41.33678], [-8.312604, 41.334983], [-8.313794, 41.333405], [-8.310792, 41.327557], [-8.308701, 41.327561], [-8.307502, 41.325762], [-8.305116, 41.326891], [-8.303024, 41.325994], [-8.303615, 41.323742], [-8.301216, 41.319694], [-8.296431, 41.316774], [-8.297618, 41.313846], [-8.296116, 41.310022], [-8.281801, 41.316569], [-8.281808, 41.319721], [-8.278828, 41.321976], [-8.278598, 41.324677], [-8.288332, 41.346607], [-8.291669, 41.373651], [-8.289457, 41.391652], [-8.285937, 41.400638], [-8.278787, 41.410219], [-8.266706, 41.420593], [-8.242636, 41.432307], [-8.182631, 41.445148], [-8.173393, 41.453929], [-8.167682, 41.48091], [-8.164091, 41.489891], [-8.157588, 41.498851], [-8.145899, 41.507512], [-8.133864, 41.511493], [-8.121877, 41.511705], [-8.0921, 41.507435], [-8.091196, 41.516767], [-8.089398, 41.519242], [-8.090594, 41.522169], [-8.093588, 41.52307], [-8.091487, 41.531173], [-8.097775, 41.536127], [-8.097774, 41.537927], [-8.106759, 41.543557], [-8.101666, 41.542655], [-8.094175, 41.544904], [-8.087885, 41.542876], [-8.083389, 41.5449], [-8.082187, 41.5492]]], [[[-8.468167, 41.24527], [-8.483396, 41.25754], [-8.491923, 41.266617], [-8.507048, 41.286989], [-8.518835, 41.308179], [-8.536102, 41.347873], [-8.546487, 41.365929], [-8.562557, 41.384007], [-8.574609, 41.39306], [-8.589929, 41.40112], [-8.613815, 41.407906], [-8.63774, 41.408595], [-8.661685, 41.405615], [-8.709584, 41.39604], [-8.733521, 41.392928], [-8.809373, 41.389971], [-8.799695, 41.14406], [-8.715191, 41.145925], [-8.734497, 41.152448], [-8.746384, 41.16033], [-8.754294, 41.168389], [-8.762908, 41.186423], [-8.762525, 41.204438], [-8.759078, 41.213439], [-8.746114, 41.230406], [-8.734145, 41.239561], [-8.722182, 41.246356], [-8.710238, 41.248429], [-8.698306, 41.247797], [-8.686383, 41.245199], [-8.674473, 41.240124], [-8.662573, 41.233613], [-8.650701, 41.222326], [-8.644873, 41.213143], [-8.639876, 41.19602], [-8.634946, 41.193341], [-8.632526, 41.188624], [-8.625658, 41.186628], [-8.621132, 41.178994], [-8.613374, 41.177451], [-8.608583, 41.174095], [-8.609164, 41.172066], [-8.604942, 41.164881], [-8.59422, 41.165149], [-8.589174, 41.167645], [-8.589194, 41.170572], [-8.583263, 41.174422], [-8.582094, 41.177803], [-8.578825, 41.178941], [-8.581296, 41.191762], [-8.575958, 41.195609], [-8.576894, 41.201908], [-8.574515, 41.202593], [-8.57423, 41.20462], [-8.567971, 41.204644], [-8.566201, 41.207396], [-8.573186, 41.2129], [-8.576742, 41.221921], [-8.571958, 41.230911], [-8.567104, 41.234875], [-8.555151, 41.237889], [-8.543232, 41.235837], [-8.534718, 41.230766], [-8.530875, 41.221743], [-8.534899, 41.212417], [-8.532257, 41.213102], [-8.531648, 41.211078], [-8.529858, 41.210859], [-8.52713, 41.203215], [-8.523236, 41.200077], [-8.51163, 41.203042], [-8.510456, 41.206197], [-8.505693, 41.207113], [-8.504239, 41.213646], [-8.500076, 41.21546], [-8.50308, 41.219502], [-8.502204, 41.222656], [-8.495642, 41.222227], [-8.495947, 41.223351], [-8.490894, 41.226294], [-8.487935, 41.230354], [-8.490331, 41.232373], [-8.489156, 41.235528], [-8.486181, 41.236888], [-8.484411, 41.240495], [-8.476644, 41.237817], [-8.475756, 41.23917], [-8.471283, 41.239184], [-8.471604, 41.243459], [-8.468167, 41.24527]], [[-8.637883, 41.382924], [-8.625927, 41.382286], [-8.609883, 41.375169], [-8.60255, 41.366137], [-8.600796, 41.357123], [-8.603589, 41.348125], [-8.614231, 41.337548], [-8.62621, 41.332791], [-8.638167, 41.331713], [-8.650107, 41.33365], [-8.660328, 41.339299], [-8.667775, 41.348328], [-8.669461, 41.357341], [-8.666926, 41.366341], [-8.658773, 41.375325], [-8.649858, 41.380014], [-8.637883, 41.382924]], [[-8.721868, 41.320352], [-8.70992, 41.320298], [-8.697987, 41.316929], [-8.690668, 41.312361], [-8.683604, 41.303334], [-8.681848, 41.294322], [-8.686211, 41.281035], [-8.698209, 41.268732], [-8.710176, 41.262376], [-8.722116, 41.262074], [-8.734034, 41.266805], [-8.745938, 41.275768], [-8.751732, 41.285486], [-8.752958, 41.294496], [-8.750248, 41.303498], [-8.745809, 41.308945], [-8.73383, 41.317129], [-8.721868, 41.320352]]], [[[-8.060244, 41.438872], [-8.078698, 41.418174], [-8.078936, 41.417948], [-8.078997, 41.41789], [-8.076905, 41.416597], [-8.070325, 41.41862], [-8.066739, 41.416142], [-8.061654, 41.417489], [-8.059852, 41.424916], [-8.055959, 41.429415], [-8.05745, 41.432793], [-8.056549, 41.436394], [-8.057743, 41.438645], [-8.060244, 41.438872]]], [[[-8.674209, 41.148345], [-8.680341, 41.146676], [-8.674793, 41.146932], [-8.674209, 41.148345]]], [[[-8.534935, 41.212394], [-8.534935, 41.212394], [-8.535248, 41.212191], [-8.534935, 41.212394]]]]}}, {"id": "6", "type": "Feature", "properties": {"fill": "#fc9863", "value_min": 0.6, "value_max": 0.67}, "geometry": {"type": "MultiPolygon", "coordinates": [[[[-8.02198, 41.778785], [-8.034337, 41.777102], [-8.046138, 41.772559], [-8.051848, 41.768241], [-8.058741, 41.759291], [-8.061983, 41.75031], [-8.06193, 41.741303], [-8.058459, 41.732268], [-8.051843, 41.723206], [-8.023187, 41.699197], [-8.011247, 41.694082], [-7.999263, 41.691945], [-7.987224, 41.69338], [-7.975127, 41.69837], [-7.967955, 41.70447], [-7.949089, 41.731319], [-7.926243, 41.747231], [-7.9211, 41.758081], [-7.926943, 41.767142], [-7.937877, 41.77103], [-7.949899, 41.771647], [-7.974014, 41.768386], [-8.009966, 41.777537], [-8.02198, 41.778785]], [[-7.937938, 41.767315], [-7.931026, 41.758174], [-7.93777, 41.749229], [-7.950311, 41.746362], [-7.959957, 41.749432], [-7.963446, 41.758471], [-7.953071, 41.767383], [-7.937938, 41.767315]], [[-8.022186, 41.765195], [-8.01015, 41.765586], [-7.998157, 41.763137], [-7.972246, 41.749543], [-7.968284, 41.7405], [-7.969254, 41.731502], [-7.97478, 41.72026], [-7.980682, 41.71359], [-7.986971, 41.709453], [-7.999042, 41.706159], [-8.011056, 41.706567], [-8.023011, 41.710782], [-8.039192, 41.723101], [-8.045561, 41.732161], [-8.047426, 41.741184], [-8.045116, 41.750172], [-8.034281, 41.760867], [-8.022186, 41.765195]]], [[[-7.820729, 41.712334], [-7.830512, 41.720508], [-7.842465, 41.724302], [-7.854501, 41.723552], [-7.85772, 41.721441], [-7.866672, 41.715156], [-7.870923, 41.703557], [-7.867107, 41.690336], [-7.86017, 41.685717], [-7.857773, 41.689538], [-7.854776, 41.68818], [-7.847538, 41.695365], [-7.837309, 41.699391], [-7.835792, 41.702763], [-7.837718, 41.703668], [-7.842937, 41.698035], [-7.854986, 41.696262], [-7.862216, 41.703471], [-7.859222, 41.712449], [-7.854641, 41.71569], [-7.842651, 41.71395], [-7.839889, 41.712255], [-7.838743, 41.707722], [-7.838465, 41.709522], [-7.832753, 41.710408], [-7.825252, 41.708813], [-7.820729, 41.712334]]], [[[-8.444133, 41.663113], [-8.456135, 41.664196], [-8.46816, 41.662632], [-8.480208, 41.658067], [-8.485927, 41.653911], [-8.492155, 41.644932], [-8.493861, 41.635932], [-8.491704, 41.626916], [-8.486566, 41.617886], [-8.468646, 41.603418], [-8.456687, 41.598541], [-8.444707, 41.596267], [-8.432706, 41.596505], [-8.420094, 41.599555], [-8.404919, 41.608485], [-8.399128, 41.617462], [-8.39842, 41.626465], [-8.401768, 41.63549], [-8.4202, 41.65305], [-8.432149, 41.659993], [-8.444133, 41.663113]], [[-8.456239, 41.651802], [-8.444227, 41.652131], [-8.432245, 41.649008], [-8.425131, 41.644616], [-8.415714, 41.635562], [-8.412608, 41.626539], [-8.414781, 41.617542], [-8.420571, 41.611615], [-8.432627, 41.60547], [-8.444639, 41.604149], [-8.456621, 41.606332], [-8.468567, 41.613095], [-8.473831, 41.617828], [-8.478213, 41.626855], [-8.477813, 41.635861], [-8.471562, 41.644839], [-8.456239, 41.651802]]], [[[-8.017054, 41.659865], [-8.023702, 41.665121], [-8.029928, 41.659974], [-8.023849, 41.655384], [-8.017054, 41.659865]]], [[[-8.636843, 41.569536], [-8.648846, 41.567826], [-8.657185, 41.564477], [-8.669309, 41.555505], [-8.673892, 41.546511], [-8.674292, 41.537505], [-8.671027, 41.528488], [-8.663807, 41.51946], [-8.651787, 41.510417], [-8.637214, 41.503041], [-8.625256, 41.498898], [-8.613283, 41.497513], [-8.601288, 41.499846], [-8.589259, 41.507391], [-8.581537, 41.51919], [-8.580514, 41.528194], [-8.58252, 41.537208], [-8.589004, 41.547758], [-8.600926, 41.558896], [-8.612881, 41.565009], [-8.624853, 41.568666], [-8.636843, 41.569536]], [[-8.636931, 41.553722], [-8.624935, 41.554507], [-8.612959, 41.55202], [-8.601013, 41.544702], [-8.59483, 41.537252], [-8.592045, 41.528235], [-8.593687, 41.519234], [-8.601522, 41.510254], [-8.613237, 41.505366], [-8.62522, 41.505157], [-8.640679, 41.510383], [-8.652647, 41.519427], [-8.657482, 41.528449], [-8.657334, 41.537456], [-8.651447, 41.546445], [-8.636931, 41.553722]]], [[[-8.0921, 41.507435], [-8.121877, 41.511705], [-8.133864, 41.511493], [-8.145899, 41.507512], [-8.157588, 41.498851], [-8.164091, 41.489891], [-8.167682, 41.48091], [-8.173393, 41.453929], [-8.182631, 41.445148], [-8.242636, 41.432307], [-8.266706, 41.420593], [-8.278787, 41.410219], [-8.285937, 41.400638], [-8.289457, 41.391652], [-8.291669, 41.373651], [-8.288332, 41.346607], [-8.278598, 41.324677], [-8.272266, 41.32536], [-8.265709, 41.331221], [-8.269004, 41.336169], [-8.265722, 41.337748], [-8.263113, 41.343153], [-8.272343, 41.355515], [-8.275818, 41.364544], [-8.277027, 41.382567], [-8.27467, 41.39156], [-8.269412, 41.400534], [-8.260177, 41.409483], [-8.242795, 41.41861], [-8.230789, 41.422009], [-8.218805, 41.423386], [-8.194896, 41.421338], [-8.182977, 41.417592], [-8.171084, 41.411791], [-8.157181, 41.399767], [-8.151285, 41.390716], [-8.147832, 41.374741], [-8.145073, 41.374742], [-8.139694, 41.377894], [-8.133418, 41.374292], [-8.119672, 41.376768], [-8.119672, 41.378569], [-8.116683, 41.380144], [-8.117578, 41.386447], [-8.113992, 41.386896], [-8.112795, 41.390723], [-8.110105, 41.390947], [-8.108011, 41.393648], [-8.103827, 41.392972], [-8.105321, 41.394998], [-8.10263, 41.396123], [-8.10801, 41.398825], [-8.108606, 41.403102], [-8.104419, 41.406252], [-8.104119, 41.408728], [-8.101727, 41.409403], [-8.102025, 41.411204], [-8.092756, 41.411201], [-8.09126, 41.414352], [-8.081986, 41.4193], [-8.078697, 41.419524], [-8.078698, 41.418174], [-8.060244, 41.438872], [-8.069999, 41.447206], [-8.068788, 41.462286], [-8.073872, 41.46499], [-8.074468, 41.468141], [-8.073564, 41.474668], [-8.066374, 41.482318], [-8.066069, 41.48817], [-8.072054, 41.490199], [-8.07175, 41.494925], [-8.078333, 41.49898], [-8.078332, 41.500331], [-8.092402, 41.504163], [-8.0921, 41.507435]], [[-8.110061, 41.499487], [-8.098134, 41.495631], [-8.088447, 41.489317], [-8.083643, 41.480271], [-8.084485, 41.471271], [-8.091055, 41.462315], [-8.098667, 41.457149], [-8.110683, 41.454031], [-8.122649, 41.454521], [-8.134562, 41.45907], [-8.138764, 41.462682], [-8.145101, 41.471737], [-8.146162, 41.480752], [-8.142489, 41.489732], [-8.134066, 41.496282], [-8.122037, 41.499927], [-8.110061, 41.499487]]], [[[-8.078997, 41.41789], [-8.078997, 41.41789], [-8.078936, 41.417948], [-8.078997, 41.41789]]], [[[-8.637883, 41.382924], [-8.649858, 41.380014], [-8.658773, 41.375325], [-8.666926, 41.366341], [-8.669461, 41.357341], [-8.667775, 41.348328], [-8.660328, 41.339299], [-8.650107, 41.33365], [-8.638167, 41.331713], [-8.62621, 41.332791], [-8.614231, 41.337548], [-8.603589, 41.348125], [-8.600796, 41.357123], [-8.60255, 41.366137], [-8.609883, 41.375169], [-8.625927, 41.382286], [-8.637883, 41.382924]]], [[[-8.721868, 41.320352], [-8.73383, 41.317129], [-8.745809, 41.308945], [-8.750248, 41.303498], [-8.752958, 41.294496], [-8.751732, 41.285486], [-8.745938, 41.275768], [-8.734034, 41.266805], [-8.722116, 41.262074], [-8.710176, 41.262376], [-8.698209, 41.268732], [-8.686211, 41.281035], [-8.681848, 41.294322], [-8.683604, 41.303334], [-8.690668, 41.312361], [-8.697987, 41.316929], [-8.70992, 41.320298], [-8.721868, 41.320352]]], [[[-8.639876, 41.19602], [-8.644873, 41.213143], [-8.650701, 41.222326], [-8.662573, 41.233613], [-8.674473, 41.240124], [-8.686383, 41.245199], [-8.698306, 41.247797], [-8.710238, 41.248429], [-8.722182, 41.246356], [-8.734145, 41.239561], [-8.746114, 41.230406], [-8.759078, 41.213439], [-8.762525, 41.204438], [-8.762908, 41.186423], [-8.754294, 41.168389], [-8.746384, 41.16033], [-8.734497, 41.152448], [-8.715191, 41.145925], [-8.680341, 41.146676], [-8.674209, 41.148345], [-8.674849, 41.153767], [-8.672489, 41.15648], [-8.66117, 41.156307], [-8.662078, 41.158104], [-8.660313, 41.160813], [-8.657033, 41.160378], [-8.654961, 41.161963], [-8.653231, 41.169174], [-8.655366, 41.175467], [-8.647955, 41.180228], [-8.647696, 41.185181], [-8.639876, 41.19602]]]]}}, {"id": "7", "type": "Feature", "properties": {"fill": "#f77f52", "value_min": 0.67, "value_max": 0.73}, "geometry": {"type": "MultiPolygon", "coordinates": [[[[-7.937938, 41.767315], [-7.953071, 41.767383], [-7.963446, 41.758471], [-7.959957, 41.749432], [-7.950311, 41.746362], [-7.93777, 41.749229], [-7.931026, 41.758174], [-7.937938, 41.767315]]], [[[-8.022186, 41.765195], [-8.034281, 41.760867], [-8.045116, 41.750172], [-8.047426, 41.741184], [-8.045561, 41.732161], [-8.039192, 41.723101], [-8.023011, 41.710782], [-8.011056, 41.706567], [-7.999042, 41.706159], [-7.986971, 41.709453], [-7.980682, 41.71359], [-7.97478, 41.72026], [-7.969254, 41.731502], [-7.968284, 41.7405], [-7.972246, 41.749543], [-7.998157, 41.763137], [-8.01015, 41.765586], [-8.022186, 41.765195]], [[-8.010272, 41.757603], [-7.998283, 41.755042], [-7.989489, 41.749696], [-7.981525, 41.740618], [-7.980211, 41.7316], [-7.984527, 41.722631], [-7.99892, 41.714065], [-8.01095, 41.713446], [-8.022916, 41.717065], [-8.030971, 41.723032], [-8.037963, 41.732098], [-8.038759, 41.741112], [-8.033014, 41.75007], [-8.02232, 41.756366], [-8.010272, 41.757603]]], [[[-7.838743, 41.707722], [-7.839889, 41.712255], [-7.842651, 41.71395], [-7.854641, 41.71569], [-7.859222, 41.712449], [-7.862216, 41.703471], [-7.854986, 41.696262], [-7.842937, 41.698035], [-7.837718, 41.703668], [-7.839682, 41.705924], [-7.838743, 41.707722]]], [[[-8.456239, 41.651802], [-8.471562, 41.644839], [-8.477813, 41.635861], [-8.478213, 41.626855], [-8.473831, 41.617828], [-8.468567, 41.613095], [-8.456621, 41.606332], [-8.444639, 41.604149], [-8.432627, 41.60547], [-8.420571, 41.611615], [-8.414781, 41.617542], [-8.412608, 41.626539], [-8.415714, 41.635562], [-8.425131, 41.644616], [-8.432245, 41.649008], [-8.444227, 41.652131], [-8.456239, 41.651802]], [[-8.4443, 41.643652], [-8.432326, 41.639759], [-8.427291, 41.63562], [-8.42352, 41.626594], [-8.427575, 41.617607], [-8.432551, 41.614144], [-8.444577, 41.611358], [-8.456556, 41.614138], [-8.462016, 41.617773], [-8.467193, 41.626805], [-8.464519, 41.635799], [-8.456323, 41.641809], [-8.4443, 41.643652]]], [[[-8.636931, 41.553722], [-8.651447, 41.546445], [-8.657334, 41.537456], [-8.657482, 41.528449], [-8.652647, 41.519427], [-8.640679, 41.510383], [-8.62522, 41.505157], [-8.613237, 41.505366], [-8.601522, 41.510254], [-8.593687, 41.519234], [-8.592045, 41.528235], [-8.59483, 41.537252], [-8.601013, 41.544702], [-8.612959, 41.55202], [-8.624935, 41.554507], [-8.636931, 41.553722]], [[-8.624994, 41.544324], [-8.613021, 41.541503], [-8.607418, 41.537296], [-8.602314, 41.528271], [-8.604848, 41.519272], [-8.613191, 41.513095], [-8.625185, 41.511223], [-8.637145, 41.51555], [-8.642315, 41.519395], [-8.646209, 41.528414], [-8.642501, 41.53741], [-8.636999, 41.541636], [-8.624994, 41.544324]]], [[[-8.110061, 41.499487], [-8.122037, 41.499927], [-8.134066, 41.496282], [-8.142489, 41.489732], [-8.146162, 41.480752], [-8.145101, 41.471737], [-8.138764, 41.462682], [-8.134562, 41.45907], [-8.122649, 41.454521], [-8.110683, 41.454031], [-8.098667, 41.457149], [-8.091055, 41.462315], [-8.084485, 41.471271], [-8.083643, 41.480271], [-8.088447, 41.489317], [-8.098134, 41.495631], [-8.110061, 41.499487]], [[-8.110222, 41.487736], [-8.105458, 41.480443], [-8.110402, 41.474603], [-8.12237, 41.475191], [-8.126461, 41.480604], [-8.122206, 41.487355], [-8.110222, 41.487736]]], [[[-8.147832, 41.374741], [-8.151285, 41.390716], [-8.157181, 41.399767], [-8.171084, 41.411791], [-8.182977, 41.417592], [-8.194896, 41.421338], [-8.218805, 41.423386], [-8.230789, 41.422009], [-8.242795, 41.41861], [-8.260177, 41.409483], [-8.269412, 41.400534], [-8.27467, 41.39156], [-8.277027, 41.382567], [-8.275818, 41.364544], [-8.272343, 41.355515], [-8.263113, 41.343153], [-8.262751, 41.345405], [-8.256483, 41.347663], [-8.251604, 41.35262], [-8.26205, 41.364457], [-8.265108, 41.373484], [-8.265208, 41.382492], [-8.262264, 41.391481], [-8.255171, 41.400443], [-8.239401, 41.409347], [-8.230908, 41.411955], [-8.21893, 41.412957], [-8.206982, 41.411547], [-8.195068, 41.407477], [-8.183405, 41.399956], [-8.17568, 41.390893], [-8.172361, 41.377661], [-8.168382, 41.377438], [-8.1642, 41.38059], [-8.152544, 41.375866], [-8.151049, 41.37339], [-8.147832, 41.374741]]]]}}, {"id": "8", "type": "Feature", "properties": {"fill": "#ef6d48", "value_min": 0.73, "value_max": 0.8}, "geometry": {"type": "MultiPolygon", "coordinates": [[[[-8.010272, 41.757603], [-8.02232, 41.756366], [-8.033014, 41.75007], [-8.038759, 41.741112], [-8.037963, 41.732098], [-8.030971, 41.723032], [-8.022916, 41.717065], [-8.01095, 41.713446], [-7.99892, 41.714065], [-7.984527, 41.722631], [-7.980211, 41.7316], [-7.981525, 41.740618], [-7.989489, 41.749696], [-7.998283, 41.755042], [-8.010272, 41.757603]], [[-8.003097, 41.749815], [-7.998387, 41.748383], [-7.989902, 41.740692], [-7.988218, 41.731671], [-7.994087, 41.722715], [-7.99883, 41.719817], [-8.010882, 41.717859], [-8.024145, 41.722975], [-8.031679, 41.732045], [-8.031287, 41.741049], [-8.022426, 41.749402], [-8.01036, 41.751887], [-8.003097, 41.749815]]], [[[-8.4443, 41.643652], [-8.456323, 41.641809], [-8.464519, 41.635799], [-8.467193, 41.626805], [-8.462016, 41.617773], [-8.456556, 41.614138], [-8.444577, 41.611358], [-8.432551, 41.614144], [-8.427575, 41.617607], [-8.42352, 41.626594], [-8.427291, 41.63562], [-8.432326, 41.639759], [-8.4443, 41.643652]], [[-8.435244, 41.626652], [-8.444505, 41.619742], [-8.455748, 41.626751], [-8.444375, 41.634957], [-8.435244, 41.626652]]], [[[-8.624994, 41.544324], [-8.636999, 41.541636], [-8.642501, 41.53741], [-8.646209, 41.528414], [-8.642315, 41.519395], [-8.637145, 41.51555], [-8.625185, 41.511223], [-8.613191, 41.513095], [-8.604848, 41.519272], [-8.602314, 41.528271], [-8.607418, 41.537296], [-8.613021, 41.541503], [-8.624994, 41.544324]], [[-8.614628, 41.528313], [-8.622668, 41.519332], [-8.625142, 41.518756], [-8.632687, 41.528372], [-8.625058, 41.533298], [-8.614628, 41.528313]]], [[[-8.110222, 41.487736], [-8.122206, 41.487355], [-8.126461, 41.480604], [-8.12237, 41.475191], [-8.110402, 41.474603], [-8.105458, 41.480443], [-8.110222, 41.487736]]], [[[-8.172361, 41.377661], [-8.17568, 41.390893], [-8.183405, 41.399956], [-8.195068, 41.407477], [-8.206982, 41.411547], [-8.21893, 41.412957], [-8.230908, 41.411955], [-8.239401, 41.409347], [-8.255171, 41.400443], [-8.262264, 41.391481], [-8.265208, 41.382492], [-8.265108, 41.373484], [-8.26205, 41.364457], [-8.251604, 41.35262], [-8.249622, 41.353072], [-8.251123, 41.356897], [-8.248141, 41.360052], [-8.247804, 41.364329], [-8.253576, 41.37341], [-8.254378, 41.382423], [-8.250434, 41.391405], [-8.243032, 41.398213], [-8.231011, 41.40322], [-8.219037, 41.404042], [-8.204248, 41.400102], [-8.192684, 41.391014], [-8.188725, 41.381978], [-8.18921, 41.375628], [-8.184818, 41.376756], [-8.175853, 41.376309], [-8.172361, 41.377661]]]]}}, {"id": "9", "type": "Feature", "properties": {"fill": "#e85c3f", "value_min": 0.8, "value_max": 0.87}, "geometry": {"type": "MultiPolygon", "coordinates": [[[[-8.003097, 41.749815], [-8.01036, 41.751887], [-8.022426, 41.749402], [-8.031287, 41.741049], [-8.031679, 41.732045], [-8.024145, 41.722975], [-8.010882, 41.717859], [-7.99883, 41.719817], [-7.994087, 41.722715], [-7.988218, 41.731671], [-7.989902, 41.740692], [-7.998387, 41.748383], [-8.003097, 41.749815]], [[-8.010438, 41.746833], [-7.996792, 41.740753], [-7.99437, 41.731725], [-7.998727, 41.726477], [-8.010817, 41.722116], [-8.022753, 41.7278], [-8.026377, 41.732], [-8.024704, 41.740993], [-8.022522, 41.743049], [-8.010438, 41.746833]]], [[[-8.435244, 41.626652], [-8.444375, 41.634957], [-8.455748, 41.626751], [-8.444505, 41.619742], [-8.435244, 41.626652]]], [[[-8.614628, 41.528313], [-8.625058, 41.533298], [-8.632687, 41.528372], [-8.625142, 41.518756], [-8.622668, 41.519332], [-8.614628, 41.528313]]], [[[-8.18921, 41.375628], [-8.188725, 41.381978], [-8.192684, 41.391014], [-8.204248, 41.400102], [-8.219037, 41.404042], [-8.231011, 41.40322], [-8.243032, 41.398213], [-8.250434, 41.391405], [-8.254378, 41.382423], [-8.253576, 41.37341], [-8.247804, 41.364329], [-8.245461, 41.364781], [-8.244272, 41.368384], [-8.241287, 41.370413], [-8.236986, 41.371092], [-8.240016, 41.373321], [-8.242802, 41.382347], [-8.235701, 41.391308], [-8.231122, 41.393738], [-8.219151, 41.394572], [-8.210294, 41.391136], [-8.20373, 41.382083], [-8.205132, 41.376294], [-8.199163, 41.377423], [-8.194976, 41.374275], [-8.191691, 41.376302], [-8.18921, 41.375628]]]]}}, {"id": "1", "type": "Feature", "properties": {"fill": "#bde282", "value_min": 0.27, "value_max": 0.33}, "geometry": {"type": "MultiPolygon", "coordinates": [[[[-7.888766, 41.828057], [-7.894929, 41.82088], [-7.896895, 41.811892], [-7.892646, 41.802844], [-7.88925, 41.800088], [-7.877306, 41.794774], [-7.865276, 41.794426], [-7.853171, 41.798327], [-7.846892, 41.802394], [-7.841873, 41.81135], [-7.842514, 41.820363], [-7.852581, 41.831353], [-7.864555, 41.835235], [-7.876613, 41.834435], [-7.888766, 41.828057]], [[-7.864755, 41.823928], [-7.859054, 41.820529], [-7.854883, 41.811481], [-7.862886, 41.802553], [-7.877184, 41.801722], [-7.886334, 41.81179], [-7.881564, 41.82075], [-7.876798, 41.82382], [-7.864755, 41.823928]]], [[[-8.096347, 41.624007], [-8.102698, 41.61553], [-8.096582, 41.607187], [-8.084599, 41.60587], [-8.076195, 41.61532], [-8.084329, 41.62502], [-8.096347, 41.624007]]], [[[-8.361744, 41.49152], [-8.361714, 41.48215], [-8.349958, 41.472114], [-8.337992, 41.471148], [-8.325954, 41.47715], [-8.322092, 41.481924], [-8.321715, 41.490929], [-8.325753, 41.496516], [-8.33767, 41.502719], [-8.349661, 41.50188], [-8.361744, 41.49152]]], [[[-8.687273, 41.474489], [-8.678418, 41.465457], [-8.673359, 41.463426], [-8.661382, 41.463992], [-8.65065, 41.474383], [-8.65368, 41.4834], [-8.661255, 41.48827], [-8.673228, 41.489459], [-8.685292, 41.483491], [-8.687273, 41.474489]]]]}}, {"id": "4", "type": "Feature", "properties": {"fill": "#fffebe", "value_min": 0.47, "value_max": 0.53}, "geometry": {"type": "MultiPolygon", "coordinates": [[[[-8.723764, 41.576693], [-8.725451, 41.57781], [-8.726633, 41.576003], [-8.734424, 41.575737], [-8.736564, 41.580228], [-8.738354, 41.579318], [-8.740778, 41.582006], [-8.74467, 41.581535], [-8.750711, 41.58623], [-8.756374, 41.582823], [-8.75635, 41.580347], [-8.762327, 41.578514], [-8.764443, 41.580303], [-8.767441, 41.580286], [-8.769874, 41.583874], [-8.768997, 41.58613], [-8.773228, 41.589482], [-8.775371, 41.593972], [-8.78556, 41.593464], [-8.797327, 41.600599], [-8.804218, 41.600109], [-8.80456, 41.604158], [-8.809434, 41.611332], [-8.828644, 41.609656], [-8.82839, 41.585633], [-8.818497, 41.554794], [-8.8221, 41.547542], [-8.821965, 41.534907], [-8.815926, 41.525624], [-8.81063, 41.5101], [-8.813279, 41.503483], [-8.812636, 41.496944], [-8.804699, 41.482068], [-8.798552, 41.474753], [-8.80154, 41.446836], [-8.806115, 41.43713], [-8.807354, 41.425915], [-8.811035, 41.418186], [-8.809373, 41.389971], [-8.733521, 41.392928], [-8.709584, 41.39604], [-8.661685, 41.405615], [-8.63774, 41.408595], [-8.613815, 41.407906], [-8.589929, 41.40112], [-8.574609, 41.39306], [-8.562557, 41.384007], [-8.546487, 41.365929], [-8.536102, 41.347873], [-8.518835, 41.308179], [-8.507048, 41.286989], [-8.491923, 41.266617], [-8.483396, 41.25754], [-8.468167, 41.24527], [-8.463258, 41.244384], [-8.459989, 41.246644], [-8.454323, 41.246886], [-8.455541, 41.251834], [-8.452276, 41.25522], [-8.449891, 41.255452], [-8.449304, 41.257479], [-8.447812, 41.257258], [-8.449028, 41.261982], [-8.439785, 41.262907], [-8.438023, 41.268989], [-8.434745, 41.269673], [-8.432691, 41.277107], [-8.427032, 41.279372], [-8.429143, 41.284319], [-8.426171, 41.287028], [-8.426488, 41.291079], [-8.425013, 41.294909], [-8.422037, 41.296942], [-8.422647, 41.299867], [-8.407744, 41.304856], [-8.406262, 41.307335], [-8.403277, 41.307342], [-8.401801, 41.311398], [-8.399712, 41.311628], [-8.400316, 41.313202], [-8.396738, 41.314336], [-8.398835, 41.316131], [-8.393775, 41.31997], [-8.393489, 41.323122], [-8.391105, 41.324253], [-8.386325, 41.323588], [-8.380382, 41.331254], [-8.375305, 41.33104], [-8.37201, 41.328346], [-8.361563, 41.329718], [-8.358276, 41.329049], [-8.357673, 41.327249], [-8.350207, 41.327264], [-8.346032, 41.328847], [-8.342462, 41.333131], [-8.333215, 41.336299], [-8.326363, 41.342163], [-8.324568, 41.341041], [-8.323376, 41.341943], [-8.318144, 41.336774], [-8.311195, 41.364762], [-8.308713, 41.400777], [-8.304826, 41.409761], [-8.298036, 41.418727], [-8.287869, 41.427672], [-8.266465, 41.441935], [-8.220801, 41.463267], [-8.207734, 41.472186], [-8.194057, 41.48922], [-8.181775, 41.513209], [-8.172716, 41.525983], [-8.157488, 41.537891], [-8.145392, 41.543798], [-8.121348, 41.550816], [-8.097351, 41.551964], [-8.082187, 41.5492], [-8.079788, 41.551876], [-8.074396, 41.549848], [-8.072897, 41.551197], [-8.076188, 41.557276], [-8.080082, 41.558854], [-8.081576, 41.565157], [-8.078879, 41.56493], [-8.075279, 41.568305], [-8.073182, 41.568079], [-8.069283, 41.570553], [-8.069281, 41.572579], [-8.060883, 41.577351], [-8.085051, 41.573918], [-8.109027, 41.574912], [-8.132979, 41.57771], [-8.168874, 41.584901], [-8.181077, 41.589094], [-8.198571, 41.598224], [-8.20918, 41.607305], [-8.231759, 41.643487], [-8.255434, 41.670664], [-8.263949, 41.688733], [-8.266997, 41.706766], [-8.273754, 41.715816], [-8.299349, 41.722675], [-8.315828, 41.734089], [-8.321488, 41.743129], [-8.322898, 41.752144], [-8.319813, 41.762061], [-8.325233, 41.765098], [-8.328234, 41.763292], [-8.336653, 41.763728], [-8.341756, 41.761468], [-8.344765, 41.762363], [-8.349267, 41.760103], [-8.352557, 41.755145], [-8.349814, 41.744122], [-8.352516, 41.743441], [-8.352203, 41.739616], [-8.357897, 41.735103], [-8.362407, 41.735994], [-8.368703, 41.73193], [-8.374122, 41.734845], [-8.384922, 41.73032], [-8.387032, 41.731891], [-8.393033, 41.729852], [-8.396942, 41.730518], [-8.400531, 41.726683], [-8.402934, 41.726452], [-8.404423, 41.723422], [-8.402938, 41.71656], [-8.40765, 41.711976], [-8.419701, 41.708658], [-8.431492, 41.717153], [-8.436526, 41.714214], [-8.441632, 41.713975], [-8.4446, 41.70654], [-8.453868, 41.697961], [-8.453255, 41.695487], [-8.461659, 41.694563], [-8.470681, 41.688234], [-8.443964, 41.682764], [-8.420002, 41.675089], [-8.414463, 41.671584], [-8.39618, 41.653159], [-8.380546, 41.644385], [-8.369431, 41.635317], [-8.365487, 41.626288], [-8.366145, 41.617285], [-8.370755, 41.608303], [-8.379239, 41.599342], [-8.384714, 41.595932], [-8.396767, 41.590133], [-8.420808, 41.585129], [-8.444796, 41.585871], [-8.456772, 41.588417], [-8.468732, 41.593013], [-8.480108, 41.599842], [-8.504443, 41.617964], [-8.523814, 41.63606], [-8.532244, 41.651798], [-8.532265, 41.65185], [-8.532336, 41.652023], [-8.537951, 41.649302], [-8.537634, 41.646602], [-8.543876, 41.637352], [-8.543855, 41.633976], [-8.536342, 41.631977], [-8.535132, 41.630406], [-8.543431, 41.61462], [-8.554533, 41.615255], [-8.557244, 41.617046], [-8.562639, 41.61635], [-8.568056, 41.619031], [-8.570735, 41.616095], [-8.577321, 41.614269], [-8.581231, 41.615829], [-8.585766, 41.620988], [-8.591462, 41.620515], [-8.596534, 41.616668], [-8.601628, 41.615972], [-8.603996, 41.611686], [-8.609369, 41.608287], [-8.614156, 41.606692], [-8.619881, 41.610269], [-8.621338, 41.604636], [-8.631133, 41.603243], [-8.612716, 41.592672], [-8.588862, 41.570185], [-8.571469, 41.546175], [-8.567447, 41.537153], [-8.565641, 41.519131], [-8.567647, 41.510131], [-8.577351, 41.495891], [-8.589381, 41.488131], [-8.601375, 41.485699], [-8.613346, 41.487066], [-8.637248, 41.496991], [-8.66427, 41.510454], [-8.696076, 41.528557], [-8.716557, 41.546624], [-8.724678, 41.564659], [-8.723764, 41.576693]], [[-8.540614, 41.608379], [-8.52861, 41.608725], [-8.516623, 41.606722], [-8.504657, 41.602223], [-8.486738, 41.590865], [-8.46887, 41.576126], [-8.423882, 41.563545], [-8.409058, 41.558037], [-8.385115, 41.553666], [-8.337141, 41.554655], [-8.313185, 41.552124], [-8.301229, 41.548842], [-8.265443, 41.532526], [-8.241516, 41.528474], [-8.229609, 41.52173], [-8.226289, 41.517349], [-8.223955, 41.508326], [-8.227526, 41.499342], [-8.241956, 41.490769], [-8.253959, 41.488668], [-8.265995, 41.483647], [-8.282434, 41.463668], [-8.292301, 41.454722], [-8.314367, 41.440067], [-8.350435, 41.424369], [-8.368776, 41.419137], [-8.374449, 41.41603], [-8.386429, 41.414548], [-8.398384, 41.415732], [-8.446152, 41.426903], [-8.470003, 41.437305], [-8.481915, 41.444586], [-8.526102, 41.482945], [-8.533944, 41.491985], [-8.538041, 41.501009], [-8.543998, 41.537062], [-8.561633, 41.564153], [-8.566693, 41.582186], [-8.565046, 41.591187], [-8.558923, 41.600171], [-8.552641, 41.604601], [-8.540614, 41.608379]], [[-8.709084, 41.507909], [-8.697096, 41.509081], [-8.673143, 41.50652], [-8.649227, 41.4973], [-8.628477, 41.483321], [-8.62143, 41.474291], [-8.618629, 41.465274], [-8.619925, 41.456271], [-8.625988, 41.447283], [-8.637572, 41.438783], [-8.649568, 41.434], [-8.661551, 41.431385], [-8.685494, 41.430343], [-8.709411, 41.434714], [-8.721359, 41.439762], [-8.733034, 41.447582], [-8.741322, 41.456608], [-8.745231, 41.465624], [-8.746509, 41.474635], [-8.744522, 41.483638], [-8.739277, 41.492633], [-8.727779, 41.501614], [-8.709084, 41.507909]], [[-8.374354, 41.401153], [-8.362639, 41.400094], [-8.350728, 41.394907], [-8.340009, 41.382946], [-8.338921, 41.379565], [-8.337882, 41.373926], [-8.340736, 41.364935], [-8.351119, 41.355549], [-8.363105, 41.352376], [-8.37505, 41.353308], [-8.386951, 41.359049], [-8.393413, 41.365224], [-8.396907, 41.37425], [-8.396289, 41.383255], [-8.39142, 41.392237], [-8.386589, 41.397525], [-8.374354, 41.401153]]], [[[-7.738647, 41.823731], [-7.768551, 41.817328], [-7.780691, 41.812077], [-7.792536, 41.801835], [-7.805237, 41.786921], [-7.817443, 41.777569], [-7.829566, 41.772579], [-7.841646, 41.769882], [-7.877738, 41.769967], [-7.913621, 41.782501], [-7.937747, 41.778943], [-7.949774, 41.779262], [-7.966891, 41.785522], [-7.972088, 41.794576], [-7.971597, 41.803578], [-7.963653, 41.812513], [-7.937053, 41.820939], [-7.924951, 41.830171], [-7.917227, 41.848112], [-7.911809, 41.87669], [-7.915391, 41.879397], [-7.921118, 41.877833], [-7.928044, 41.87807], [-7.935283, 41.874707], [-7.937389, 41.87516], [-7.941618, 41.870891], [-7.951254, 41.871132], [-7.956367, 41.87339], [-7.956362, 41.875191], [-7.960576, 41.875647], [-7.962086, 41.874074], [-7.97202, 41.875439], [-7.975637, 41.874543], [-7.987996, 41.869157], [-7.990123, 41.860157], [-7.995547, 41.858138], [-7.994047, 41.855211], [-7.996162, 41.851837], [-8.003089, 41.850494], [-8.005804, 41.847346], [-8.007928, 41.838796], [-8.012753, 41.833624], [-8.013363, 41.829124], [-8.017873, 41.831379], [-8.02901, 41.829589], [-8.037134, 41.831171], [-8.041351, 41.828023], [-8.041054, 41.825097], [-8.045268, 41.824425], [-8.047679, 41.821276], [-8.057314, 41.815656], [-8.06664, 41.817012], [-8.072961, 41.813414], [-8.078678, 41.813417], [-8.082892, 41.810493], [-8.091013, 41.812521], [-8.093421, 41.811397], [-8.093723, 41.808471], [-8.101845, 41.809824], [-8.104853, 41.81185], [-8.115984, 41.812302], [-8.123807, 41.808702], [-8.138247, 41.808477], [-8.139751, 41.813203], [-8.14276, 41.812978], [-8.144866, 41.815228], [-8.149078, 41.814777], [-8.153291, 41.817703], [-8.158106, 41.818377], [-8.165326, 41.81815], [-8.173744, 41.808019], [-8.177655, 41.808242], [-8.183676, 41.812741], [-8.190291, 41.809587], [-8.197158, 41.814129], [-8.201063, 41.808724], [-8.204973, 41.807372], [-8.205872, 41.804445], [-8.213692, 41.803765], [-8.217598, 41.80016], [-8.217589, 41.793634], [-8.224207, 41.794303], [-8.229917, 41.791598], [-8.240744, 41.791588], [-8.24074, 41.789338], [-8.244347, 41.787984], [-8.245546, 41.785731], [-8.251257, 41.784375], [-8.251845, 41.777172], [-8.257551, 41.773564], [-8.261762, 41.774235], [-8.264253, 41.771757], [-8.253, 41.760718], [-8.249259, 41.751687], [-8.246919, 41.733658], [-8.239165, 41.72867], [-8.215161, 41.72514], [-8.203178, 41.721916], [-8.191224, 41.716412], [-8.177521, 41.706161], [-8.167502, 41.691571], [-8.155578, 41.684529], [-8.143567, 41.68416], [-8.13149, 41.68879], [-8.126712, 41.696779], [-8.11926, 41.704405], [-8.107263, 41.702844], [-8.083332, 41.69535], [-8.072504, 41.687347], [-8.066838, 41.678294], [-8.070683, 41.660311], [-8.069842, 41.651297], [-8.044025, 41.624064], [-8.038282, 41.615009], [-8.035739, 41.605981], [-8.036367, 41.600242], [-8.031467, 41.602938], [-8.02367, 41.603156], [-8.019174, 41.601802], [-8.015872, 41.603824], [-8.013474, 41.603372], [-8.005971, 41.60629], [-8.003562, 41.611239], [-7.998761, 41.612809], [-7.999669, 41.608759], [-7.996976, 41.605829], [-7.996684, 41.602003], [-7.984685, 41.603564], [-7.982292, 41.60086], [-7.975689, 41.603552], [-7.974482, 41.606701], [-7.970882, 41.607147], [-7.969091, 41.603768], [-7.965796, 41.602413], [-7.9541, 41.602846], [-7.952606, 41.600592], [-7.947808, 41.60081], [-7.945413, 41.599456], [-7.942725, 41.595625], [-7.936733, 41.594264], [-7.93791, 41.601694], [-7.937004, 41.603718], [-7.931604, 41.604384], [-7.930073, 41.614735], [-7.925255, 41.620579], [-7.920755, 41.620796], [-7.917748, 41.623041], [-7.915933, 41.627764], [-7.913229, 41.628885], [-7.912613, 41.63361], [-7.906014, 41.633147], [-7.906884, 41.641927], [-7.89801, 41.645511], [-7.90136, 41.64981], [-7.899685, 41.656768], [-7.902319, 41.659925], [-7.899913, 41.66127], [-7.900198, 41.665547], [-7.898396, 41.665769], [-7.896885, 41.668692], [-7.891333, 41.669806], [-7.866472, 41.726537], [-7.854321, 41.733716], [-7.842253, 41.736141], [-7.818204, 41.736073], [-7.794482, 41.729801], [-7.782246, 41.723545], [-7.776204, 41.724652], [-7.773786, 41.727346], [-7.7678, 41.723276], [-7.763888, 41.724389], [-7.761765, 41.727758], [-7.762933, 41.733839], [-7.759307, 41.737203], [-7.759597, 41.739005], [-7.75689, 41.739446], [-7.758687, 41.740577], [-7.757758, 41.745301], [-7.748417, 41.749321], [-7.747786, 41.754496], [-7.743257, 41.757758], [-7.757502, 41.766035], [-7.762637, 41.774497], [-7.76358, 41.783514], [-7.75954, 41.792477], [-7.745008, 41.801326], [-7.732724, 41.802491], [-7.727352, 41.801601], [-7.728761, 41.816776], [-7.732041, 41.821514], [-7.738647, 41.823731]], [[-8.069635, 41.811762], [-8.057556, 41.814445], [-8.045514, 41.814601], [-8.033506, 41.8125], [-8.021525, 41.808712], [-8.009582, 41.802478], [-7.986005, 41.785693], [-7.973838, 41.779431], [-7.961857, 41.776193], [-7.925806, 41.773418], [-7.912505, 41.767007], [-7.907622, 41.757953], [-7.909711, 41.748966], [-7.928796, 41.731132], [-7.936021, 41.722192], [-7.939393, 41.713217], [-7.940709, 41.704222], [-7.939209, 41.690137], [-7.927647, 41.662765], [-7.923639, 41.659028], [-7.921505, 41.650001], [-7.932567, 41.641097], [-7.952124, 41.634734], [-7.964166, 41.632502], [-8.000214, 41.630456], [-8.024164, 41.634531], [-8.036091, 41.63978], [-8.047935, 41.650914], [-8.050894, 41.66015], [-8.047578, 41.678136], [-8.051058, 41.687172], [-8.059336, 41.692663], [-8.0714, 41.705352], [-8.090811, 41.741535], [-8.097393, 41.759601], [-8.098717, 41.768618], [-8.095988, 41.786611], [-8.091322, 41.795581], [-8.081765, 41.805362], [-8.069635, 41.811762]], [[-7.890317, 41.73823], [-7.878446, 41.72936], [-7.876765, 41.721628], [-7.879036, 41.712644], [-7.891, 41.69852], [-7.90306, 41.696005], [-7.915016, 41.699683], [-7.919562, 41.704025], [-7.923408, 41.713068], [-7.921526, 41.722057], [-7.914507, 41.729925], [-7.902362, 41.737046], [-7.890317, 41.73823]]], [[[-8.058484, 41.578209], [-8.058484, 41.578209], [-8.058512, 41.578199], [-8.058484, 41.578209]]], [[[-8.534899, 41.212417], [-8.530875, 41.221743], [-8.534718, 41.230766], [-8.543232, 41.235837], [-8.555151, 41.237889], [-8.567104, 41.234875], [-8.571958, 41.230911], [-8.576742, 41.221921], [-8.573186, 41.2129], [-8.566201, 41.207396], [-8.567699, 41.208471], [-8.565618, 41.20938], [-8.559636, 41.206251], [-8.554271, 41.20627], [-8.549521, 41.209214], [-8.535248, 41.212191], [-8.534935, 41.212394], [-8.534899, 41.212417]]]]}}, {"id": "10", "type": "Feature", "properties": {"fill": "#e14a35", "value_min": 0.87, "value_max": 0.93}, "geometry": {"type": "MultiPolygon", "coordinates": [[[[-8.010438, 41.746833], [-8.022522, 41.743049], [-8.024704, 41.740993], [-8.026377, 41.732], [-8.022753, 41.7278], [-8.010817, 41.722116], [-7.998727, 41.726477], [-7.99437, 41.731725], [-7.996792, 41.740753], [-8.010438, 41.746833]], [[-8.007354, 41.740845], [-8.001647, 41.731788], [-8.01074, 41.727126], [-8.019693, 41.731944], [-8.013967, 41.740901], [-8.01051, 41.742138], [-8.007354, 41.740845]]], [[[-8.205132, 41.376294], [-8.20373, 41.382083], [-8.210294, 41.391136], [-8.219151, 41.394572], [-8.231122, 41.393738], [-8.235701, 41.391308], [-8.242802, 41.382347], [-8.240016, 41.373321], [-8.236986, 41.371092], [-8.232024, 41.369971], [-8.224854, 41.370878], [-8.21738, 41.368182], [-8.211712, 41.376065], [-8.205132, 41.376294]]]]}}, {"id": "3", "type": "Feature", "properties": {"fill": "#eef8a7", "value_min": 0.4, "value_max": 0.47}, "geometry": {"type": "MultiPolygon", "coordinates": [[[[-7.911809, 41.87669], [-7.917227, 41.848112], [-7.924951, 41.830171], [-7.937053, 41.820939], [-7.963653, 41.812513], [-7.971597, 41.803578], [-7.972088, 41.794576], [-7.966891, 41.785522], [-7.949774, 41.779262], [-7.937747, 41.778943], [-7.913621, 41.782501], [-7.877738, 41.769967], [-7.841646, 41.769882], [-7.829566, 41.772579], [-7.817443, 41.777569], [-7.805237, 41.786921], [-7.792536, 41.801835], [-7.780691, 41.812077], [-7.768551, 41.817328], [-7.738647, 41.823731], [-7.74345, 41.825605], [-7.738918, 41.82874], [-7.742196, 41.833928], [-7.74729, 41.837772], [-7.746349, 41.844041], [-7.756032, 41.842084], [-7.768055, 41.843204], [-7.777043, 41.846705], [-7.786084, 41.855808], [-7.787033, 41.864824], [-7.782375, 41.873782], [-7.767294, 41.882858], [-7.755213, 41.884302], [-7.74321, 41.881787], [-7.731436, 41.87323], [-7.73053, 41.870887], [-7.729293, 41.875972], [-7.720533, 41.880218], [-7.720523, 41.881793], [-7.725335, 41.882935], [-7.726208, 41.887665], [-7.737044, 41.888828], [-7.73944, 41.891087], [-7.74246, 41.889747], [-7.742785, 41.885922], [-7.756022, 41.888441], [-7.758719, 41.890926], [-7.756592, 41.89407], [-7.758076, 41.897901], [-7.764097, 41.898595], [-7.779227, 41.886264], [-7.785257, 41.885157], [-7.788886, 41.882467], [-7.794007, 41.882257], [-7.796739, 41.878214], [-7.794349, 41.87438], [-7.797064, 41.873488], [-7.803381, 41.874857], [-7.804914, 41.869459], [-7.813032, 41.871958], [-7.814229, 41.873537], [-7.823863, 41.874013], [-7.825059, 41.875817], [-7.830479, 41.875831], [-7.830789, 41.874031], [-7.832894, 41.874712], [-7.83772, 41.872924], [-7.842528, 41.875187], [-7.841663, 41.866632], [-7.849515, 41.861475], [-7.858542, 41.862622], [-7.859456, 41.860148], [-7.864877, 41.859711], [-7.87033, 41.851611], [-7.864246, 41.852739], [-7.852211, 41.852087], [-7.840235, 41.84819], [-7.828347, 41.839545], [-7.822144, 41.829163], [-7.82107, 41.820145], [-7.822795, 41.811156], [-7.828192, 41.802205], [-7.838708, 41.793305], [-7.853358, 41.787797], [-7.86542, 41.786258], [-7.877449, 41.786566], [-7.889431, 41.789601], [-7.897533, 41.793884], [-7.908423, 41.802995], [-7.910643, 41.812023], [-7.90881, 41.821012], [-7.903661, 41.82997], [-7.888474, 41.84496], [-7.87726, 41.850026], [-7.879956, 41.853217], [-7.888076, 41.855486], [-7.891675, 41.859094], [-7.900698, 41.861588], [-7.904318, 41.859795], [-7.907309, 41.865203], [-7.906095, 41.868126], [-7.910299, 41.871285], [-7.909985, 41.875111], [-7.911809, 41.87669]], [[-7.937357, 41.80254], [-7.927669, 41.79417], [-7.932221, 41.785205], [-7.937672, 41.783472], [-7.949705, 41.78353], [-7.95452, 41.78541], [-7.957716, 41.794446], [-7.949402, 41.802055], [-7.937357, 41.80254]]], [[[-8.319813, 41.762061], [-8.322898, 41.752144], [-8.321488, 41.743129], [-8.315828, 41.734089], [-8.299349, 41.722675], [-8.273754, 41.715816], [-8.266997, 41.706766], [-8.263949, 41.688733], [-8.255434, 41.670664], [-8.231759, 41.643487], [-8.20918, 41.607305], [-8.198571, 41.598224], [-8.181077, 41.589094], [-8.168874, 41.584901], [-8.132979, 41.57771], [-8.109027, 41.574912], [-8.085051, 41.573918], [-8.060883, 41.577351], [-8.058512, 41.578199], [-8.058484, 41.578209], [-8.052181, 41.584498], [-8.052777, 41.587649], [-8.036367, 41.600242], [-8.035739, 41.605981], [-8.038282, 41.615009], [-8.044025, 41.624064], [-8.069842, 41.651297], [-8.070683, 41.660311], [-8.066838, 41.678294], [-8.072504, 41.687347], [-8.083332, 41.69535], [-8.107263, 41.702844], [-8.11926, 41.704405], [-8.126712, 41.696779], [-8.13149, 41.68879], [-8.143567, 41.68416], [-8.155578, 41.684529], [-8.167502, 41.691571], [-8.177521, 41.706161], [-8.191224, 41.716412], [-8.203178, 41.721916], [-8.215161, 41.72514], [-8.239165, 41.72867], [-8.246919, 41.733658], [-8.249259, 41.751687], [-8.253, 41.760718], [-8.264253, 41.771757], [-8.269568, 41.76905], [-8.271366, 41.766346], [-8.280681, 41.764083], [-8.284038, 41.761109], [-8.284931, 41.757507], [-8.287033, 41.756829], [-8.298457, 41.757263], [-8.300866, 41.758835], [-8.305674, 41.758152], [-8.311096, 41.762195], [-8.319813, 41.762061]], [[-8.083541, 41.680629], [-8.081886, 41.678415], [-8.083612, 41.675564], [-8.095646, 41.674154], [-8.098898, 41.67855], [-8.095539, 41.681758], [-8.083541, 41.680629]], [[-8.131992, 41.651376], [-8.120023, 41.648438], [-8.108104, 41.641954], [-8.084153, 41.637443], [-8.072229, 41.631658], [-8.064021, 41.624229], [-8.060195, 41.61519], [-8.061454, 41.606194], [-8.069673, 41.597253], [-8.084797, 41.591862], [-8.096793, 41.592032], [-8.108745, 41.59538], [-8.132546, 41.610095], [-8.14448, 41.615181], [-8.156358, 41.62472], [-8.159393, 41.633973], [-8.155346, 41.64295], [-8.14402, 41.649956], [-8.131992, 41.651376]]], [[[-7.890317, 41.73823], [-7.902362, 41.737046], [-7.914507, 41.729925], [-7.921526, 41.722057], [-7.923408, 41.713068], [-7.919562, 41.704025], [-7.915016, 41.699683], [-7.90306, 41.696005], [-7.891, 41.69852], [-7.879036, 41.712644], [-7.876765, 41.721628], [-7.878446, 41.72936], [-7.890317, 41.73823]], [[-7.890517, 41.726605], [-7.885773, 41.721716], [-7.886607, 41.712717], [-7.890835, 41.708072], [-7.902871, 41.707121], [-7.910076, 41.712942], [-7.908877, 41.721938], [-7.902541, 41.726526], [-7.890517, 41.726605]]], [[[-8.431492, 41.717153], [-8.419701, 41.708658], [-8.40765, 41.711976], [-8.402938, 41.71656], [-8.404423, 41.723422], [-8.417349, 41.725067], [-8.422737, 41.720552], [-8.429643, 41.719859], [-8.431492, 41.717153]]], [[[-8.540614, 41.608379], [-8.552641, 41.604601], [-8.558923, 41.600171], [-8.565046, 41.591187], [-8.566693, 41.582186], [-8.561633, 41.564153], [-8.543998, 41.537062], [-8.538041, 41.501009], [-8.533944, 41.491985], [-8.526102, 41.482945], [-8.481915, 41.444586], [-8.470003, 41.437305], [-8.446152, 41.426903], [-8.398384, 41.415732], [-8.386429, 41.414548], [-8.374449, 41.41603], [-8.368776, 41.419137], [-8.350435, 41.424369], [-8.314367, 41.440067], [-8.292301, 41.454722], [-8.282434, 41.463668], [-8.265995, 41.483647], [-8.253959, 41.488668], [-8.241956, 41.490769], [-8.227526, 41.499342], [-8.223955, 41.508326], [-8.226289, 41.517349], [-8.229609, 41.52173], [-8.241516, 41.528474], [-8.265443, 41.532526], [-8.301229, 41.548842], [-8.313185, 41.552124], [-8.337141, 41.554655], [-8.385115, 41.553666], [-8.409058, 41.558037], [-8.423882, 41.563545], [-8.46887, 41.576126], [-8.486738, 41.590865], [-8.504657, 41.602223], [-8.516623, 41.606722], [-8.52861, 41.608725], [-8.540614, 41.608379]], [[-8.516731, 41.592372], [-8.504766, 41.587934], [-8.497895, 41.581907], [-8.494759, 41.572886], [-8.497973, 41.563892], [-8.504997, 41.557699], [-8.517008, 41.555173], [-8.528982, 41.557512], [-8.53803, 41.56406], [-8.542969, 41.573087], [-8.541464, 41.582089], [-8.529859, 41.591049], [-8.516731, 41.592372]], [[-8.481211, 41.532939], [-8.469265, 41.527815], [-8.45742, 41.518671], [-8.454235, 41.509649], [-8.45889, 41.500664], [-8.469553, 41.492641], [-8.481556, 41.489736], [-8.493519, 41.491758], [-8.505443, 41.499088], [-8.511544, 41.509907], [-8.510576, 41.51891], [-8.503306, 41.527886], [-8.493198, 41.53303], [-8.481211, 41.532939]], [[-8.337505, 41.518917], [-8.325549, 41.516215], [-8.313391, 41.508894], [-8.305837, 41.499842], [-8.30286, 41.490816], [-8.303073, 41.48181], [-8.30685, 41.472826], [-8.316206, 41.463874], [-8.326147, 41.458516], [-8.338148, 41.455772], [-8.350122, 41.455752], [-8.362067, 41.458571], [-8.373964, 41.466524], [-8.379476, 41.47324], [-8.382487, 41.482264], [-8.382795, 41.491273], [-8.380284, 41.500267], [-8.372467, 41.509232], [-8.361506, 41.515785], [-8.349492, 41.518729], [-8.337505, 41.518917]]], [[[-8.709084, 41.507909], [-8.727779, 41.501614], [-8.739277, 41.492633], [-8.744522, 41.483638], [-8.746509, 41.474635], [-8.745231, 41.465624], [-8.741322, 41.456608], [-8.733034, 41.447582], [-8.721359, 41.439762], [-8.709411, 41.434714], [-8.685494, 41.430343], [-8.661551, 41.431385], [-8.649568, 41.434], [-8.637572, 41.438783], [-8.625988, 41.447283], [-8.619925, 41.456271], [-8.618629, 41.465274], [-8.62143, 41.474291], [-8.628477, 41.483321], [-8.649227, 41.4973], [-8.673143, 41.50652], [-8.697096, 41.509081], [-8.709084, 41.507909]], [[-8.685168, 41.497676], [-8.673183, 41.498536], [-8.661213, 41.496328], [-8.652171, 41.492403], [-8.641209, 41.483362], [-8.6376, 41.474343], [-8.639092, 41.46534], [-8.649459, 41.454374], [-8.661456, 41.449765], [-8.673433, 41.44879], [-8.685396, 41.450655], [-8.697809, 41.456502], [-8.706349, 41.465532], [-8.708785, 41.474545], [-8.706874, 41.483548], [-8.698464, 41.492534], [-8.685168, 41.497676]]], [[[-8.374354, 41.401153], [-8.386589, 41.397525], [-8.39142, 41.392237], [-8.396289, 41.383255], [-8.396907, 41.37425], [-8.393413, 41.365224], [-8.386951, 41.359049], [-8.37505, 41.353308], [-8.363105, 41.352376], [-8.351119, 41.355549], [-8.340736, 41.364935], [-8.337882, 41.373926], [-8.338921, 41.379565], [-8.340009, 41.382946], [-8.350728, 41.394907], [-8.362639, 41.400094], [-8.374354, 41.401153]]]]}}, {"id": "2", "type": "Feature", "properties": {"fill": "#ddf190", "value_min": 0.33, "value_max": 0.4}, "geometry": {"type": "MultiPolygon", "coordinates": [[[[-7.73053, 41.870887], [-7.731436, 41.87323], [-7.74321, 41.881787], [-7.755213, 41.884302], [-7.767294, 41.882858], [-7.782375, 41.873782], [-7.787033, 41.864824], [-7.786084, 41.855808], [-7.777043, 41.846705], [-7.768055, 41.843204], [-7.756032, 41.842084], [-7.746349, 41.844041], [-7.750541, 41.847685], [-7.750532, 41.849261], [-7.743309, 41.849012], [-7.746901, 41.8524], [-7.746881, 41.855776], [-7.73843, 41.859348], [-7.734159, 41.868337], [-7.73053, 41.870887]]], [[[-7.87726, 41.850026], [-7.888474, 41.84496], [-7.903661, 41.82997], [-7.90881, 41.821012], [-7.910643, 41.812023], [-7.908423, 41.802995], [-7.897533, 41.793884], [-7.889431, 41.789601], [-7.877449, 41.786566], [-7.86542, 41.786258], [-7.853358, 41.787797], [-7.838708, 41.793305], [-7.828192, 41.802205], [-7.822795, 41.811156], [-7.82107, 41.820145], [-7.822144, 41.829163], [-7.828347, 41.839545], [-7.840235, 41.84819], [-7.852211, 41.852087], [-7.864246, 41.852739], [-7.87033, 41.851611], [-7.873043, 41.850501], [-7.873066, 41.844875], [-7.87726, 41.850026]], [[-7.888766, 41.828057], [-7.876613, 41.834435], [-7.864555, 41.835235], [-7.852581, 41.831353], [-7.842514, 41.820363], [-7.841873, 41.81135], [-7.846892, 41.802394], [-7.853171, 41.798327], [-7.865276, 41.794426], [-7.877306, 41.794774], [-7.88925, 41.800088], [-7.892646, 41.802844], [-7.896895, 41.811892], [-7.894929, 41.82088], [-7.888766, 41.828057]]], [[[-7.937357, 41.80254], [-7.949402, 41.802055], [-7.957716, 41.794446], [-7.95452, 41.78541], [-7.949705, 41.78353], [-7.937672, 41.783472], [-7.932221, 41.785205], [-7.927669, 41.79417], [-7.937357, 41.80254]]], [[[-7.890517, 41.726605], [-7.902541, 41.726526], [-7.908877, 41.721938], [-7.910076, 41.712942], [-7.902871, 41.707121], [-7.890835, 41.708072], [-7.886607, 41.712717], [-7.885773, 41.721716], [-7.890517, 41.726605]]], [[[-8.083541, 41.680629], [-8.095539, 41.681758], [-8.098898, 41.67855], [-8.095646, 41.674154], [-8.083612, 41.675564], [-8.081886, 41.678415], [-8.083541, 41.680629]]], [[[-8.131992, 41.651376], [-8.14402, 41.649956], [-8.155346, 41.64295], [-8.159393, 41.633973], [-8.156358, 41.62472], [-8.14448, 41.615181], [-8.132546, 41.610095], [-8.108745, 41.59538], [-8.096793, 41.592032], [-8.084797, 41.591862], [-8.069673, 41.597253], [-8.061454, 41.606194], [-8.060195, 41.61519], [-8.064021, 41.624229], [-8.072229, 41.631658], [-8.084153, 41.637443], [-8.108104, 41.641954], [-8.120023, 41.648438], [-8.131992, 41.651376]], [[-8.096347, 41.624007], [-8.084329, 41.62502], [-8.076195, 41.61532], [-8.084599, 41.60587], [-8.096582, 41.607187], [-8.102698, 41.61553], [-8.096347, 41.624007]]], [[[-8.516731, 41.592372], [-8.529859, 41.591049], [-8.541464, 41.582089], [-8.542969, 41.573087], [-8.53803, 41.56406], [-8.528982, 41.557512], [-8.517008, 41.555173], [-8.504997, 41.557699], [-8.497973, 41.563892], [-8.494759, 41.572886], [-8.497895, 41.581907], [-8.504766, 41.587934], [-8.516731, 41.592372]]], [[[-8.481211, 41.532939], [-8.493198, 41.53303], [-8.503306, 41.527886], [-8.510576, 41.51891], [-8.511544, 41.509907], [-8.505443, 41.499088], [-8.493519, 41.491758], [-8.481556, 41.489736], [-8.469553, 41.492641], [-8.45889, 41.500664], [-8.454235, 41.509649], [-8.45742, 41.518671], [-8.469265, 41.527815], [-8.481211, 41.532939]]], [[[-8.337505, 41.518917], [-8.349492, 41.518729], [-8.361506, 41.515785], [-8.372467, 41.509232], [-8.380284, 41.500267], [-8.382795, 41.491273], [-8.382487, 41.482264], [-8.379476, 41.47324], [-8.373964, 41.466524], [-8.362067, 41.458571], [-8.350122, 41.455752], [-8.338148, 41.455772], [-8.326147, 41.458516], [-8.316206, 41.463874], [-8.30685, 41.472826], [-8.303073, 41.48181], [-8.30286, 41.490816], [-8.305837, 41.499842], [-8.313391, 41.508894], [-8.325549, 41.516215], [-8.337505, 41.518917]], [[-8.361744, 41.49152], [-8.349661, 41.50188], [-8.33767, 41.502719], [-8.325753, 41.496516], [-8.321715, 41.490929], [-8.322092, 41.481924], [-8.325954, 41.47715], [-8.337992, 41.471148], [-8.349958, 41.472114], [-8.361714, 41.48215], [-8.361744, 41.49152]]], [[[-8.685168, 41.497676], [-8.698464, 41.492534], [-8.706874, 41.483548], [-8.708785, 41.474545], [-8.706349, 41.465532], [-8.697809, 41.456502], [-8.685396, 41.450655], [-8.673433, 41.44879], [-8.661456, 41.449765], [-8.649459, 41.454374], [-8.639092, 41.46534], [-8.6376, 41.474343], [-8.641209, 41.483362], [-8.652171, 41.492403], [-8.661213, 41.496328], [-8.673183, 41.498536], [-8.685168, 41.497676]], [[-8.687273, 41.474489], [-8.685292, 41.483491], [-8.673228, 41.489459], [-8.661255, 41.48827], [-8.65368, 41.4834], [-8.65065, 41.474383], [-8.661382, 41.463992], [-8.673359, 41.463426], [-8.678418, 41.465457], [-8.687273, 41.474489]]]]}}, {"id": "11", "type": "Feature", "properties": {"fill": "#da382b", "value_min": 0.93, "value_max": 1.0}, "geometry": {"type": "Polygon", "coordinates": [[[-8.007354, 41.740845], [-8.01051, 41.742138], [-8.013967, 41.740901], [-8.019693, 41.731944], [-8.01074, 41.727126], [-8.001647, 41.731788], [-8.007354, 41.740845]]]}}, {"id": "0", "type": "Feature", "properties": {"fill": "#98d277", "value_min": 0.2, "value_max": 0.27}, "geometry": {"type": "Polygon", "coordinates": [[[-7.864755, 41.823928], [-7.876798, 41.82382], [-7.881564, 41.82075], [-7.886334, 41.81179], [-7.877184, 41.801722], [-7.862886, 41.802553], [-7.854883, 41.811481], [-7.859054, 41.820529], [-7.864755, 41.823928]]]}}]}