{"type": "FeatureCollection", "features": [{"id": "0", "type": "Feature", "properties": {"fill": "#98d277", "value_min": 0.2, "value_max": -0.27}, "geometry": {"type": "Polygon", "coordinates": [[[-8.538013, 41.212181], [-8.535076, 41.22176], [-8.539613, 41.230786], [-8.543248, 41.233546], [-8.555153, 41.237576], [-8.567096, 41.23614], [-8.575646, 41.230925], [-8.580472, 41.221934], [-8.578103, 41.212918], [-8.567676, 41.205015], [-8.565895, 41.206227], [-8.567697, 41.208246], [-8.566512, 41.209376], [-8.559636, 41.206251], [-8.554271, 41.20627], [-8.549521, 41.209214], [-8.544157, 41.209458], [-8.54238, 41.211265], [-8.538253, 41.211955], [-8.538212, 41.211994], [-8.538013, 41.212181]]]}}, {"id": "1", "type": "Feature", "properties": {"fill": "#bde282", "value_min": 0.27, "value_max": -0.33}, "geometry": {"type": "MultiPolygon", "coordinates": [[[[-7.970327, 41.839594], [-7.96324, 41.830523], [-7.948987, 41.827432], [-7.939211, 41.830304], [-7.93126, 41.839237], [-7.933172, 41.848261], [-7.936542, 41.851797], [-7.948513, 41.85643], [-7.960592, 41.854448], [-7.968077, 41.84858], [-7.970327, 41.839594]]], [[[-8.143246, 41.708363], [-8.131215, 41.70918], [-8.129554, 41.714814], [-8.131108, 41.71715], [-8.143141, 41.716261], [-8.14478, 41.714929], [-8.143246, 41.708363]]], [[[-8.63706, 41.530622], [-8.638388, 41.52839], [-8.633417, 41.519367], [-8.625156, 41.516373], [-8.613115, 41.519301], [-8.610245, 41.528298], [-8.613075, 41.532496], [-8.625033, 41.537591], [-8.63706, 41.530622]]], [[[-8.485614, 41.23869], [-8.493598, 41.248609], [-8.504778, 41.257665], [-8.519151, 41.265207], [-8.531061, 41.269102], [-8.542985, 41.27124], [-8.566869, 41.270545], [-8.590799, 41.262299], [-8.60657, 41.24905], [-8.611912, 41.24006], [-8.614824, 41.222054], [-8.613602, 41.213042], [-8.606805, 41.195004], [-8.601028, 41.185976], [-8.586223, 41.171682], [-8.582094, 41.177803], [-8.578825, 41.178941], [-8.581296, 41.191762], [-8.575958, 41.195609], [-8.576894, 41.201908], [-8.574515, 41.202593], [-8.57423, 41.20462], [-8.567676, 41.205015], [-8.578103, 41.212918], [-8.580472, 41.221934], [-8.575646, 41.230925], [-8.567096, 41.23614], [-8.555153, 41.237576], [-8.543248, 41.233546], [-8.539613, 41.230786], [-8.535076, 41.22176], [-8.538013, 41.212181], [-8.532257, 41.213102], [-8.52713, 41.203215], [-8.523236, 41.200077], [-8.51163, 41.203042], [-8.510456, 41.206197], [-8.505693, 41.207113], [-8.504239, 41.213646], [-8.500076, 41.21546], [-8.50308, 41.219502], [-8.502204, 41.222656], [-8.495642, 41.222227], [-8.495947, 41.223351], [-8.490894, 41.226294], [-8.487935, 41.230354], [-8.490331, 41.232373], [-8.489156, 41.235528], [-8.485614, 41.23869]]], [[[-8.538212, 41.211994], [-8.538212, 41.211994], [-8.538253, 41.211955], [-8.538212, 41.211994]]]]}}, {"id": "2", "type": "Feature", "properties": {"fill": "#ddf190", "value_min": 0.33, "value_max": -0.4}, "geometry": {"type": "MultiPolygon", "coordinates": [[[[-8.46215, 41.693436], [-8.482012, 41.682123], [-8.484371, 41.674238], [-8.49308, 41.674886], [-8.499963, 41.671038], [-8.50927, 41.671233], [-8.51018, 41.672806], [-8.511967, 41.670324], [-8.509856, 41.668755], [-8.522103, 41.658811], [-8.525706, 41.659023], [-8.527769, 41.652714], [-8.534066, 41.652017], [-8.537355, 41.64998], [-8.537634, 41.646602], [-8.543876, 41.637352], [-8.543855, 41.633976], [-8.536342, 41.631977], [-8.535128, 41.62973], [-8.543431, 41.61462], [-8.554533, 41.615255], [-8.557244, 41.617046], [-8.562639, 41.61635], [-8.568056, 41.619031], [-8.570735, 41.616095], [-8.577321, 41.614269], [-8.581231, 41.615829], [-8.585766, 41.620988], [-8.591462, 41.620515], [-8.596534, 41.616668], [-8.601628, 41.615972], [-8.603996, 41.611686], [-8.613256, 41.606696], [-8.619881, 41.610269], [-8.621338, 41.604636], [-8.628833, 41.604378], [-8.636302, 41.600744], [-8.64075, 41.594422], [-8.645536, 41.593051], [-8.646744, 41.594171], [-8.649125, 41.591909], [-8.656622, 41.5921], [-8.660788, 41.588255], [-8.663794, 41.589141], [-8.665265, 41.585758], [-8.66948, 41.587989], [-8.684455, 41.586117], [-8.685608, 41.58071], [-8.697261, 41.576376], [-8.701703, 41.570277], [-8.707704, 41.570923], [-8.712485, 41.569323], [-8.716422, 41.573805], [-8.720316, 41.57356], [-8.725151, 41.577811], [-8.726633, 41.576003], [-8.734424, 41.575737], [-8.736564, 41.580228], [-8.738354, 41.579318], [-8.740778, 41.582006], [-8.74467, 41.581535], [-8.750711, 41.58623], [-8.756374, 41.582823], [-8.75635, 41.580347], [-8.762327, 41.578514], [-8.764443, 41.580303], [-8.767441, 41.580286], [-8.769874, 41.583874], [-8.768997, 41.58613], [-8.773228, 41.589482], [-8.775371, 41.593972], [-8.78556, 41.593464], [-8.797327, 41.600599], [-8.804218, 41.600109], [-8.80456, 41.604158], [-8.809434, 41.611332], [-8.828644, 41.609656], [-8.82839, 41.585633], [-8.818497, 41.554794], [-8.8221, 41.547542], [-8.821965, 41.534907], [-8.815926, 41.525624], [-8.81063, 41.5101], [-8.813279, 41.503483], [-8.812636, 41.496944], [-8.804699, 41.482068], [-8.798552, 41.474753], [-8.80154, 41.446836], [-8.806115, 41.43713], [-8.807354, 41.425915], [-8.811211, 41.415789], [-8.799695, 41.14406], [-8.766297, 41.144805], [-8.774846, 41.150415], [-8.782151, 41.157727], [-8.789653, 41.168459], [-8.792846, 41.177473], [-8.793423, 41.19549], [-8.786225, 41.213492], [-8.778671, 41.222486], [-8.767211, 41.231471], [-8.746072, 41.241139], [-8.734125, 41.24442], [-8.710247, 41.246382], [-8.698317, 41.245276], [-8.686398, 41.242097], [-8.67449, 41.236866], [-8.662602, 41.228014], [-8.65141, 41.213163], [-8.647928, 41.204145], [-8.646447, 41.186312], [-8.641225, 41.196014], [-8.638841, 41.196025], [-8.638231, 41.194227], [-8.634946, 41.193341], [-8.632526, 41.188624], [-8.625658, 41.186628], [-8.621132, 41.178994], [-8.613374, 41.177451], [-8.608583, 41.174095], [-8.609164, 41.172066], [-8.604942, 41.164881], [-8.59422, 41.165149], [-8.589174, 41.167645], [-8.589194, 41.170572], [-8.586223, 41.171682], [-8.601028, 41.185976], [-8.606805, 41.195004], [-8.613602, 41.213042], [-8.614824, 41.222054], [-8.611912, 41.24006], [-8.60657, 41.24905], [-8.590799, 41.262299], [-8.566869, 41.270545], [-8.542985, 41.27124], [-8.531061, 41.269102], [-8.519151, 41.265207], [-8.504778, 41.257665], [-8.493598, 41.248609], [-8.485614, 41.23869], [-8.484113, 41.240496], [-8.476346, 41.237818], [-8.475756, 41.23917], [-8.470986, 41.23941], [-8.471604, 41.243459], [-8.469227, 41.245267], [-8.463258, 41.244384], [-8.459989, 41.246644], [-8.454323, 41.246886], [-8.455541, 41.251834], [-8.452276, 41.25522], [-8.449891, 41.255452], [-8.449304, 41.257479], [-8.447812, 41.257258], [-8.449028, 41.261982], [-8.439785, 41.262907], [-8.438023, 41.268989], [-8.434745, 41.269673], [-8.432691, 41.277107], [-8.427032, 41.279372], [-8.429143, 41.284319], [-8.426171, 41.287028], [-8.426488, 41.291079], [-8.425013, 41.294909], [-8.422037, 41.296942], [-8.422647, 41.299867], [-8.407744, 41.304856], [-8.406262, 41.307335], [-8.403277, 41.307342], [-8.401801, 41.311398], [-8.399712, 41.311628], [-8.400316, 41.313202], [-8.396738, 41.314336], [-8.398835, 41.316131], [-8.393775, 41.31997], [-8.393489, 41.323122], [-8.391105, 41.324253], [-8.386325, 41.323588], [-8.380677, 41.33031], [-8.402739, 41.33825], [-8.416959, 41.347331], [-8.427511, 41.356391], [-8.45884, 41.392573], [-8.474366, 41.419668], [-8.481876, 41.449505], [-8.483326, 41.464746], [-8.482151, 41.473748], [-8.477994, 41.482737], [-8.462383, 41.50068], [-8.459948, 41.509676], [-8.464655, 41.518705], [-8.479119, 41.527779], [-8.489895, 41.536835], [-8.489393, 41.54584], [-8.481011, 41.557985], [-8.468929, 41.568888], [-8.456891, 41.574158], [-8.444877, 41.576376], [-8.408877, 41.577909], [-8.387609, 41.581372], [-8.309379, 41.598943], [-8.288697, 41.607824], [-8.280486, 41.61678], [-8.273035, 41.634748], [-8.269341, 41.67976], [-8.266644, 41.68875], [-8.261565, 41.697724], [-8.253625, 41.70668], [-8.239306, 41.716758], [-8.227235, 41.720906], [-8.215209, 41.721166], [-8.203222, 41.718352], [-8.191274, 41.712489], [-8.167484, 41.69295], [-8.155476, 41.692276], [-8.131319, 41.701483], [-8.106861, 41.731901], [-8.094808, 41.733893], [-8.083602, 41.723464], [-8.080941, 41.705429], [-8.083859, 41.696445], [-8.095424, 41.689997], [-8.107007, 41.678613], [-8.110521, 41.669634], [-8.1078, 41.663995], [-8.103683, 41.660573], [-8.095868, 41.658316], [-8.071851, 41.657992], [-8.05987, 41.656012], [-8.036086, 41.640146], [-8.024147, 41.635659], [-8.012171, 41.63365], [-8.000166, 41.633608], [-7.988126, 41.635765], [-7.97604, 41.640795], [-7.964313, 41.650395], [-7.943509, 41.677227], [-7.922398, 41.686038], [-7.903157, 41.690283], [-7.89725, 41.694806], [-7.891024, 41.697098], [-7.879407, 41.712647], [-7.877923, 41.72164], [-7.885112, 41.730716], [-7.890387, 41.734142], [-7.909735, 41.73996], [-7.914252, 41.745094], [-7.916355, 41.749029], [-7.915042, 41.776037], [-7.909992, 41.784996], [-7.901458, 41.790051], [-7.865302, 41.792935], [-7.853213, 41.795958], [-7.838264, 41.802307], [-7.830087, 41.811231], [-7.828636, 41.820223], [-7.831187, 41.829255], [-7.85395, 41.862386], [-7.858542, 41.862622], [-7.859456, 41.860148], [-7.865481, 41.859262], [-7.87033, 41.851395], [-7.873043, 41.850501], [-7.873367, 41.844875], [-7.879056, 41.85254], [-7.886268, 41.855932], [-7.888076, 41.855486], [-7.891675, 41.859094], [-7.900698, 41.861588], [-7.904318, 41.859795], [-7.907309, 41.865203], [-7.906095, 41.868126], [-7.910299, 41.871285], [-7.909985, 41.875111], [-7.915391, 41.879397], [-7.921118, 41.877833], [-7.928044, 41.87807], [-7.935283, 41.874707], [-7.937389, 41.87516], [-7.941618, 41.870891], [-7.951254, 41.871132], [-7.956367, 41.87339], [-7.956362, 41.875191], [-7.960878, 41.875648], [-7.962086, 41.874074], [-7.973828, 41.875216], [-7.987996, 41.869157], [-7.990123, 41.860157], [-7.995547, 41.858138], [-7.994047, 41.855211], [-7.996162, 41.851837], [-8.003089, 41.850494], [-8.005804, 41.847346], [-8.007928, 41.838796], [-8.010941, 41.836773], [-8.013965, 41.828899], [-8.017873, 41.831379], [-8.02901, 41.829589], [-8.037134, 41.831171], [-8.041351, 41.828023], [-8.041054, 41.825097], [-8.045268, 41.824425], [-8.046775, 41.821951], [-8.056712, 41.81588], [-8.06664, 41.817012], [-8.072961, 41.813414], [-8.078678, 41.813417], [-8.082892, 41.810493], [-8.091013, 41.812521], [-8.093421, 41.811397], [-8.093723, 41.808471], [-8.101845, 41.809824], [-8.104853, 41.81185], [-8.115984, 41.812302], [-8.123807, 41.808702], [-8.138247, 41.808477], [-8.139751, 41.813203], [-8.14276, 41.812978], [-8.144866, 41.815228], [-8.149078, 41.814777], [-8.153291, 41.817703], [-8.158106, 41.818377], [-8.165326, 41.81815], [-8.173744, 41.808019], [-8.177655, 41.808242], [-8.183676, 41.812741], [-8.190291, 41.809587], [-8.197158, 41.814129], [-8.201063, 41.808724], [-8.204973, 41.807372], [-8.205872, 41.804445], [-8.213692, 41.803765], [-8.217598, 41.80016], [-8.217589, 41.793634], [-8.224207, 41.794303], [-8.229917, 41.791598], [-8.240744, 41.791588], [-8.24074, 41.789338], [-8.244347, 41.787984], [-8.245546, 41.785731], [-8.251257, 41.784375], [-8.251845, 41.777172], [-8.257551, 41.773564], [-8.261762, 41.774235], [-8.271366, 41.766346], [-8.280681, 41.764083], [-8.284038, 41.761109], [-8.284931, 41.757507], [-8.305674, 41.758152], [-8.311096, 41.762195], [-8.318308, 41.761283], [-8.325233, 41.765098], [-8.328234, 41.763292], [-8.336653, 41.763728], [-8.341756, 41.761468], [-8.344765, 41.762363], [-8.349267, 41.760103], [-8.352557, 41.755145], [-8.34982, 41.745922], [-8.349814, 41.744122], [-8.352516, 41.743441], [-8.352203, 41.739616], [-8.357897, 41.735103], [-8.361022, 41.735547], [-8.360551, 41.725339], [-8.363667, 41.716349], [-8.373311, 41.707395], [-8.389814, 41.698477], [-8.407836, 41.691773], [-8.431909, 41.687317], [-8.443917, 41.688188], [-8.46215, 41.693436]], [[-7.970327, 41.839594], [-7.968077, 41.84858], [-7.960592, 41.854448], [-7.948513, 41.85643], [-7.936542, 41.851797], [-7.933172, 41.848261], [-7.93126, 41.839237], [-7.939211, 41.830304], [-7.948987, 41.827432], [-7.96324, 41.830523], [-7.970327, 41.839594]], [[-8.143246, 41.708363], [-8.14478, 41.714929], [-8.143141, 41.716261], [-8.131108, 41.71715], [-8.129554, 41.714814], [-8.131215, 41.70918], [-8.143246, 41.708363]], [[-8.63706, 41.530622], [-8.625033, 41.537591], [-8.613075, 41.532496], [-8.610245, 41.528298], [-8.613115, 41.519301], [-8.625156, 41.516373], [-8.633417, 41.519367], [-8.638388, 41.52839], [-8.63706, 41.530622]], [[-8.661261, 41.487154], [-8.655134, 41.483404], [-8.651529, 41.474386], [-8.661383, 41.46376], [-8.673361, 41.462988], [-8.679206, 41.465459], [-8.687217, 41.474489], [-8.684263, 41.483488], [-8.673234, 41.488346], [-8.661261, 41.487154]]], [[[-8.057756, 41.426843], [-8.110911, 41.437337], [-8.134733, 41.446142], [-8.146599, 41.454203], [-8.153823, 41.462794], [-8.157193, 41.471826], [-8.157195, 41.480834], [-8.15391, 41.489817], [-8.143528, 41.498747], [-8.134001, 41.501167], [-8.122015, 41.501504], [-8.07205, 41.493928], [-8.078332, 41.500331], [-8.093, 41.504613], [-8.089398, 41.519242], [-8.090594, 41.522169], [-8.093588, 41.52307], [-8.091487, 41.531173], [-8.097775, 41.536127], [-8.097774, 41.537927], [-8.106759, 41.543106], [-8.10616, 41.543782], [-8.101666, 41.542655], [-8.094175, 41.544904], [-8.087885, 41.542876], [-8.083389, 41.5449], [-8.082787, 41.54892], [-8.097338, 41.552895], [-8.109316, 41.553863], [-8.126906, 41.552666], [-8.157361, 41.547657], [-8.169325, 41.549739], [-8.205073, 41.567905], [-8.228945, 41.577637], [-8.252902, 41.580574], [-8.264925, 41.578284], [-8.277046, 41.566976], [-8.279016, 41.562728], [-8.285616, 41.544754], [-8.287891, 41.526754], [-8.28588, 41.508727], [-8.283044, 41.499702], [-8.277926, 41.487944], [-8.262003, 41.463539], [-8.258718, 41.454511], [-8.259993, 41.445511], [-8.266428, 41.436545], [-8.295777, 41.409706], [-8.303244, 41.400744], [-8.308814, 41.39177], [-8.319052, 41.355801], [-8.327336, 41.343242], [-8.338313, 41.334939], [-8.333215, 41.336299], [-8.326363, 41.342163], [-8.324568, 41.341041], [-8.323376, 41.341943], [-8.320676, 41.338121], [-8.312604, 41.334983], [-8.313794, 41.333405], [-8.31139, 41.328007], [-8.307502, 41.325762], [-8.305116, 41.326891], [-8.303024, 41.325994], [-8.303615, 41.323742], [-8.301216, 41.319694], [-8.296431, 41.316774], [-8.297618, 41.313846], [-8.295817, 41.310022], [-8.281801, 41.316569], [-8.279132, 41.324451], [-8.272266, 41.32536], [-8.265709, 41.331221], [-8.269004, 41.336169], [-8.263339, 41.340902], [-8.262751, 41.345405], [-8.256483, 41.347663], [-8.255889, 41.349689], [-8.249622, 41.353072], [-8.251123, 41.356897], [-8.248141, 41.360052], [-8.248448, 41.364328], [-8.245461, 41.364781], [-8.244272, 41.368384], [-8.241287, 41.370413], [-8.224854, 41.370878], [-8.21738, 41.368182], [-8.214399, 41.373587], [-8.208127, 41.376968], [-8.199163, 41.377423], [-8.194677, 41.374275], [-8.191691, 41.376302], [-8.189299, 41.375403], [-8.184818, 41.376756], [-8.168382, 41.377438], [-8.164499, 41.38059], [-8.152544, 41.375866], [-8.151049, 41.37339], [-8.145073, 41.374742], [-8.139694, 41.377894], [-8.133418, 41.374292], [-8.119672, 41.376768], [-8.119672, 41.378569], [-8.116683, 41.380144], [-8.117578, 41.386447], [-8.113992, 41.386896], [-8.112795, 41.390723], [-8.110105, 41.390947], [-8.108011, 41.393648], [-8.103827, 41.392972], [-8.105321, 41.394998], [-8.10263, 41.396123], [-8.10801, 41.398825], [-8.108606, 41.403102], [-8.104419, 41.406252], [-8.104119, 41.408728], [-8.101727, 41.409403], [-8.102025, 41.411204], [-8.092756, 41.411201], [-8.09126, 41.414352], [-8.079893, 41.41975], [-8.077503, 41.416597], [-8.070923, 41.41862], [-8.066739, 41.416142], [-8.063748, 41.41659], [-8.061654, 41.417489], [-8.059852, 41.424916], [-8.057756, 41.426843]]], [[[-8.338883, 41.334544], [-8.338883, 41.334544], [-8.341101, 41.333584], [-8.338883, 41.334544]]], [[[-8.341269, 41.333523], [-8.341269, 41.333523], [-8.341732, 41.333357], [-8.341269, 41.333523]]], [[[-8.341866, 41.333309], [-8.341866, 41.333309], [-8.342363, 41.333131], [-8.341866, 41.333309]]], [[[-8.342462, 41.333095], [-8.358289, 41.329049], [-8.357673, 41.327249], [-8.350207, 41.327264], [-8.346032, 41.328847], [-8.342462, 41.333095]]], [[[-8.365142, 41.328513], [-8.365142, 41.328513], [-8.373207, 41.328995], [-8.365142, 41.328513]]], [[[-8.65439, 41.165172], [-8.65439, 41.165172], [-8.654593, 41.164891], [-8.65439, 41.165172]]], [[[-8.654685, 41.164764], [-8.657849, 41.160374], [-8.654961, 41.161963], [-8.654685, 41.164764]]], [[[-7.728171, 41.814966], [-7.744542, 41.813705], [-7.759601, 41.810491], [-7.77726, 41.801674], [-7.782888, 41.792727], [-7.783483, 41.783726], [-7.776025, 41.765633], [-7.76793, 41.75654], [-7.75425, 41.746865], [-7.747812, 41.749995], [-7.747786, 41.754496], [-7.743866, 41.756509], [-7.740214, 41.763924], [-7.726937, 41.771755], [-7.7254, 41.777152], [-7.727191, 41.779184], [-7.724177, 41.780299], [-7.725372, 41.781653], [-7.722296, 41.792446], [-7.728879, 41.797871], [-7.72705, 41.801691], [-7.728171, 41.814966]]], [[[-8.168086, 41.646222], [-8.171518, 41.643068], [-8.173334, 41.634074], [-8.166942, 41.625021], [-8.156422, 41.619854], [-8.144441, 41.61817], [-8.132408, 41.620388], [-8.118007, 41.633663], [-8.1168, 41.642661], [-8.120001, 41.650093], [-8.131929, 41.656095], [-8.143932, 41.656638], [-8.155974, 41.654227], [-8.161512, 41.652003], [-8.168086, 41.646222]]]]}}, {"id": "3", "type": "Feature", "properties": {"fill": "#eef8a7", "value_min": 0.4, "value_max": -0.47}, "geometry": {"type": "MultiPolygon", "coordinates": [[[[-7.85395, 41.862386], [-7.831187, 41.829255], [-7.828636, 41.820223], [-7.830087, 41.811231], [-7.838264, 41.802307], [-7.853213, 41.795958], [-7.865302, 41.792935], [-7.901458, 41.790051], [-7.909992, 41.784996], [-7.915042, 41.776037], [-7.916355, 41.749029], [-7.914252, 41.745094], [-7.909735, 41.73996], [-7.890387, 41.734142], [-7.885112, 41.730716], [-7.877923, 41.72164], [-7.879407, 41.712647], [-7.891024, 41.697098], [-7.89725, 41.694806], [-7.903157, 41.690283], [-7.922398, 41.686038], [-7.943509, 41.677227], [-7.964313, 41.650395], [-7.97604, 41.640795], [-7.988126, 41.635765], [-8.000166, 41.633608], [-8.012171, 41.63365], [-8.024147, 41.635659], [-8.036086, 41.640146], [-8.05987, 41.656012], [-8.071851, 41.657992], [-8.095868, 41.658316], [-8.103683, 41.660573], [-8.1078, 41.663995], [-8.110521, 41.669634], [-8.107007, 41.678613], [-8.095424, 41.689997], [-8.083859, 41.696445], [-8.080941, 41.705429], [-8.083602, 41.723464], [-8.094808, 41.733893], [-8.106861, 41.731901], [-8.131319, 41.701483], [-8.155476, 41.692276], [-8.167484, 41.69295], [-8.191274, 41.712489], [-8.203222, 41.718352], [-8.215209, 41.721166], [-8.227235, 41.720906], [-8.239306, 41.716758], [-8.253625, 41.70668], [-8.261565, 41.697724], [-8.266644, 41.68875], [-8.269341, 41.67976], [-8.273035, 41.634748], [-8.280486, 41.61678], [-8.288697, 41.607824], [-8.309379, 41.598943], [-8.387609, 41.581372], [-8.408877, 41.577909], [-8.444877, 41.576376], [-8.456891, 41.574158], [-8.468929, 41.568888], [-8.481011, 41.557985], [-8.489393, 41.54584], [-8.489895, 41.536835], [-8.479119, 41.527779], [-8.464655, 41.518705], [-8.459948, 41.509676], [-8.462383, 41.50068], [-8.477994, 41.482737], [-8.482151, 41.473748], [-8.483326, 41.464746], [-8.481876, 41.449505], [-8.474366, 41.419668], [-8.45884, 41.392573], [-8.427511, 41.356391], [-8.416959, 41.347331], [-8.402739, 41.33825], [-8.380677, 41.33031], [-8.375305, 41.33104], [-8.373207, 41.328995], [-8.365142, 41.328513], [-8.362758, 41.329715], [-8.358289, 41.329049], [-8.342462, 41.333095], [-8.342363, 41.333131], [-8.341866, 41.333309], [-8.341732, 41.333357], [-8.341269, 41.333523], [-8.341101, 41.333584], [-8.338883, 41.334544], [-8.338313, 41.334939], [-8.327336, 41.343242], [-8.319052, 41.355801], [-8.308814, 41.39177], [-8.303244, 41.400744], [-8.295777, 41.409706], [-8.266428, 41.436545], [-8.259993, 41.445511], [-8.258718, 41.454511], [-8.262003, 41.463539], [-8.277926, 41.487944], [-8.283044, 41.499702], [-8.28588, 41.508727], [-8.287891, 41.526754], [-8.285616, 41.544754], [-8.279016, 41.562728], [-8.277046, 41.566976], [-8.264925, 41.578284], [-8.252902, 41.580574], [-8.228945, 41.577637], [-8.205073, 41.567905], [-8.169325, 41.549739], [-8.157361, 41.547657], [-8.126906, 41.552666], [-8.109316, 41.553863], [-8.097338, 41.552895], [-8.082787, 41.54892], [-8.079788, 41.551876], [-8.074396, 41.549848], [-8.072897, 41.551197], [-8.076188, 41.557276], [-8.080082, 41.558854], [-8.081576, 41.565157], [-8.078879, 41.56493], [-8.075279, 41.568305], [-8.073182, 41.568079], [-8.069283, 41.570553], [-8.068081, 41.573478], [-8.056684, 41.579549], [-8.052181, 41.584498], [-8.052777, 41.587649], [-8.048277, 41.590122], [-8.047974, 41.592373], [-8.031467, 41.602938], [-8.02367, 41.603156], [-8.019174, 41.601802], [-8.015872, 41.603824], [-8.013474, 41.603372], [-8.005971, 41.60629], [-8.003562, 41.611239], [-7.998761, 41.612809], [-7.999669, 41.608759], [-7.996976, 41.605829], [-7.996684, 41.602003], [-7.984685, 41.603564], [-7.982292, 41.60086], [-7.975689, 41.603552], [-7.974482, 41.606701], [-7.970882, 41.607147], [-7.969091, 41.603768], [-7.965796, 41.602413], [-7.9541, 41.602846], [-7.952606, 41.600592], [-7.947808, 41.60081], [-7.945413, 41.599456], [-7.942725, 41.595625], [-7.936132, 41.594488], [-7.93791, 41.601694], [-7.937004, 41.603718], [-7.931604, 41.604384], [-7.930979, 41.612711], [-7.925556, 41.620354], [-7.920755, 41.620796], [-7.917748, 41.623041], [-7.915933, 41.627764], [-7.913229, 41.628885], [-7.912613, 41.63361], [-7.906014, 41.633147], [-7.906884, 41.641927], [-7.897869, 41.645511], [-7.89696, 41.647985], [-7.892759, 41.647976], [-7.892145, 41.651576], [-7.902319, 41.659925], [-7.899913, 41.66127], [-7.900198, 41.665547], [-7.898396, 41.665769], [-7.896885, 41.668692], [-7.883969, 41.67069], [-7.879755, 41.673607], [-7.877044, 41.676077], [-7.876723, 41.681253], [-7.873401, 41.686198], [-7.868896, 41.686413], [-7.868008, 41.68326], [-7.864099, 41.684755], [-7.867172, 41.686673], [-7.871839, 41.694559], [-7.872698, 41.703575], [-7.869998, 41.712555], [-7.860461, 41.730475], [-7.887714, 41.748755], [-7.891946, 41.757803], [-7.889963, 41.766791], [-7.881018, 41.775711], [-7.865522, 41.780461], [-7.853486, 41.780639], [-7.841496, 41.778214], [-7.834595, 41.775249], [-7.824573, 41.76614], [-7.820894, 41.757096], [-7.820622, 41.739079], [-7.810467, 41.717776], [-7.804499, 41.714158], [-7.79939, 41.714593], [-7.79788, 41.716164], [-7.796383, 41.71526], [-7.790966, 41.717044], [-7.789449, 41.719966], [-7.78464, 41.720402], [-7.78252, 41.723546], [-7.776204, 41.724652], [-7.773786, 41.727346], [-7.770798, 41.72441], [-7.765698, 41.723044], [-7.761765, 41.727758], [-7.762933, 41.733839], [-7.759307, 41.737203], [-7.759597, 41.739005], [-7.75689, 41.739446], [-7.758687, 41.740577], [-7.757758, 41.745301], [-7.75425, 41.746865], [-7.76793, 41.75654], [-7.776025, 41.765633], [-7.783483, 41.783726], [-7.782888, 41.792727], [-7.77726, 41.801674], [-7.759601, 41.810491], [-7.744542, 41.813705], [-7.728171, 41.814966], [-7.732041, 41.821514], [-7.743152, 41.825154], [-7.742839, 41.827178], [-7.738919, 41.828515], [-7.742796, 41.834344], [-7.756214, 41.832706], [-7.768239, 41.833621], [-7.78034, 41.837733], [-7.791857, 41.846862], [-7.79732, 41.855926], [-7.799062, 41.864951], [-7.797812, 41.87394], [-7.803381, 41.874857], [-7.805215, 41.86946], [-7.814229, 41.873537], [-7.823863, 41.874013], [-7.825059, 41.875817], [-7.830479, 41.875831], [-7.830789, 41.874031], [-7.832894, 41.874712], [-7.83772, 41.872924], [-7.842528, 41.875187], [-7.841663, 41.866632], [-7.849515, 41.861475], [-7.85395, 41.862386]], [[-8.107162, 41.710114], [-8.100834, 41.705586], [-8.099893, 41.696572], [-8.107446, 41.689631], [-8.11954, 41.683894], [-8.128777, 41.687787], [-8.131191, 41.696813], [-8.119193, 41.709368], [-8.107162, 41.710114]], [[-8.168086, 41.646222], [-8.161512, 41.652003], [-8.155974, 41.654227], [-8.143932, 41.656638], [-8.131929, 41.656095], [-8.120001, 41.650093], [-8.1168, 41.642661], [-8.118007, 41.633663], [-8.132408, 41.620388], [-8.144441, 41.61817], [-8.156422, 41.619854], [-8.166942, 41.625021], [-8.173334, 41.634074], [-8.171518, 41.643068], [-8.168086, 41.646222]], [[-8.084147, 41.637838], [-8.072179, 41.635122], [-8.056457, 41.624167], [-8.05156, 41.61512], [-8.051306, 41.60611], [-8.055894, 41.597141], [-8.060786, 41.592916], [-8.072865, 41.587285], [-8.084888, 41.585478], [-8.096866, 41.586817], [-8.108796, 41.591666], [-8.115267, 41.597613], [-8.118365, 41.606644], [-8.116471, 41.615637], [-8.108309, 41.627096], [-8.096179, 41.636005], [-8.084147, 41.637838]], [[-8.349511, 41.516823], [-8.337524, 41.517094], [-8.325571, 41.514058], [-8.313679, 41.505355], [-8.305507, 41.490832], [-8.304718, 41.48182], [-8.307239, 41.472828], [-8.314112, 41.464317], [-8.326159, 41.457353], [-8.338154, 41.455164], [-8.350121, 41.455821], [-8.362054, 41.459931], [-8.373914, 41.471772], [-8.377943, 41.482239], [-8.378071, 41.491248], [-8.373623, 41.501975], [-8.361533, 41.512968], [-8.349511, 41.516823]]], [[[-8.07205, 41.493928], [-8.122015, 41.501504], [-8.134001, 41.501167], [-8.143528, 41.498747], [-8.15391, 41.489817], [-8.157195, 41.480834], [-8.157193, 41.471826], [-8.153823, 41.462794], [-8.146599, 41.454203], [-8.134733, 41.446142], [-8.110911, 41.437337], [-8.057756, 41.426843], [-8.055959, 41.429415], [-8.05745, 41.432793], [-8.056549, 41.436394], [-8.057743, 41.438645], [-8.061033, 41.438872], [-8.063424, 41.4409], [-8.064916, 41.444052], [-8.068505, 41.444729], [-8.069999, 41.447206], [-8.068497, 41.453282], [-8.070289, 41.45711], [-8.068788, 41.462286], [-8.073872, 41.46499], [-8.074164, 41.473543], [-8.066074, 41.483218], [-8.066069, 41.48817], [-8.072054, 41.490199], [-8.07205, 41.493928]]], [[[-7.79625, 41.877087], [-7.79625, 41.877087], [-7.795244, 41.87911], [-7.79625, 41.877087]]], [[[-7.795228, 41.879143], [-7.795228, 41.879143], [-7.793681, 41.882256], [-7.795228, 41.879143]]], [[[-8.46215, 41.693436], [-8.443917, 41.688188], [-8.431909, 41.687317], [-8.407836, 41.691773], [-8.389814, 41.698477], [-8.373311, 41.707395], [-8.363667, 41.716349], [-8.360551, 41.725339], [-8.361022, 41.735547], [-8.362407, 41.735994], [-8.368703, 41.73193], [-8.374122, 41.734845], [-8.384922, 41.73032], [-8.387032, 41.731891], [-8.393033, 41.729852], [-8.396942, 41.730518], [-8.400531, 41.726683], [-8.402934, 41.726452], [-8.404721, 41.722847], [-8.417349, 41.725067], [-8.422737, 41.720552], [-8.429643, 41.719859], [-8.430533, 41.717381], [-8.435927, 41.714441], [-8.441333, 41.714201], [-8.4446, 41.70654], [-8.453868, 41.697961], [-8.453255, 41.695487], [-8.458061, 41.695698], [-8.46215, 41.693436]]], [[[-8.661261, 41.487154], [-8.673234, 41.488346], [-8.684263, 41.483488], [-8.687217, 41.474489], [-8.679206, 41.465459], [-8.673361, 41.462988], [-8.661383, 41.46376], [-8.651529, 41.474386], [-8.655134, 41.483404], [-8.661261, 41.487154]]], [[[-8.646447, 41.186312], [-8.647928, 41.204145], [-8.65141, 41.213163], [-8.662602, 41.228014], [-8.67449, 41.236866], [-8.686398, 41.242097], [-8.698317, 41.245276], [-8.710247, 41.246382], [-8.734125, 41.24442], [-8.746072, 41.241139], [-8.767211, 41.231471], [-8.778671, 41.222486], [-8.786225, 41.213492], [-8.793423, 41.19549], [-8.792846, 41.177473], [-8.789653, 41.168459], [-8.782151, 41.157727], [-8.774846, 41.150415], [-8.766297, 41.144805], [-8.67527, 41.147484], [-8.676193, 41.146567], [-8.674793, 41.146932], [-8.674204, 41.147693], [-8.674849, 41.153767], [-8.672489, 41.15648], [-8.66117, 41.156307], [-8.662078, 41.158104], [-8.660313, 41.160813], [-8.657849, 41.160374], [-8.654685, 41.164764], [-8.654593, 41.164891], [-8.65439, 41.165172], [-8.653231, 41.169174], [-8.655366, 41.175467], [-8.647955, 41.180228], [-8.646447, 41.186312]]]]}}, {"id": "5", "type": "Feature", "properties": {"fill": "#fecb90", "value_min": 0.53, "value_max": -0.6}, "geometry": {"type": "MultiPolygon", "coordinates": [[[[-7.877733, 41.757665], [-7.86609, 41.748206], [-7.854027, 41.75027], [-7.847565, 41.757367], [-7.851767, 41.766416], [-7.865714, 41.769589], [-7.872369, 41.76662], [-7.877733, 41.757665]]], [[[-7.856748, 41.703417], [-7.854891, 41.701605], [-7.848392, 41.703334], [-7.854698, 41.712476], [-7.856748, 41.703417]]], [[[-8.119429, 41.692021], [-8.110169, 41.696652], [-8.119285, 41.702618], [-8.124217, 41.69676], [-8.119429, 41.692021]]], [[[-8.103548, 41.615537], [-8.09975, 41.6065], [-8.096626, 41.604014], [-8.084648, 41.602414], [-8.07652, 41.606316], [-8.071326, 41.615281], [-8.078157, 41.624343], [-8.084301, 41.626992], [-8.096328, 41.625344], [-8.103548, 41.615537]]], [[[-8.354444, 41.48211], [-8.3499, 41.477953], [-8.337939, 41.476327], [-8.329076, 41.481965], [-8.328589, 41.490969], [-8.337726, 41.497312], [-8.349721, 41.495825], [-8.354793, 41.491119], [-8.354444, 41.48211]]]]}}, {"id": "4", "type": "Feature", "properties": {"fill": "#fffebe", "value_min": 0.47, "value_max": -0.53}, "geometry": {"type": "MultiPolygon", "coordinates": [[[[-7.793681, 41.882256], [-7.795228, 41.879143], [-7.795244, 41.87911], [-7.79625, 41.877087], [-7.794349, 41.87438], [-7.797812, 41.87394], [-7.799062, 41.864951], [-7.79732, 41.855926], [-7.791857, 41.846862], [-7.78034, 41.837733], [-7.768239, 41.833621], [-7.756214, 41.832706], [-7.742796, 41.834344], [-7.74729, 41.837772], [-7.746349, 41.84407], [-7.750246, 41.846784], [-7.750532, 41.849261], [-7.743309, 41.849012], [-7.746901, 41.8524], [-7.746881, 41.855776], [-7.73843, 41.859348], [-7.734159, 41.868337], [-7.730228, 41.871024], [-7.729293, 41.875972], [-7.720533, 41.880218], [-7.720523, 41.881793], [-7.725335, 41.882935], [-7.726208, 41.887665], [-7.737044, 41.888828], [-7.73944, 41.891087], [-7.74246, 41.889747], [-7.742785, 41.885922], [-7.756022, 41.888441], [-7.758719, 41.890926], [-7.756592, 41.89407], [-7.758076, 41.897901], [-7.764097, 41.898595], [-7.779227, 41.886264], [-7.785257, 41.885157], [-7.788886, 41.882467], [-7.793681, 41.882256]]], [[[-7.810467, 41.717776], [-7.820622, 41.739079], [-7.820894, 41.757096], [-7.824573, 41.76614], [-7.834595, 41.775249], [-7.841496, 41.778214], [-7.853486, 41.780639], [-7.865522, 41.780461], [-7.881018, 41.775711], [-7.889963, 41.766791], [-7.891946, 41.757803], [-7.887714, 41.748755], [-7.860461, 41.730475], [-7.869998, 41.712555], [-7.872698, 41.703575], [-7.871839, 41.694559], [-7.867172, 41.686673], [-7.864099, 41.684755], [-7.858987, 41.68639], [-7.857773, 41.689538], [-7.854776, 41.68818], [-7.847538, 41.695365], [-7.837309, 41.699391], [-7.835792, 41.702763], [-7.839682, 41.705924], [-7.838465, 41.709522], [-7.832453, 41.710407], [-7.825252, 41.708813], [-7.818621, 41.713522], [-7.815291, 41.718689], [-7.810467, 41.717776]], [[-7.877733, 41.757665], [-7.872369, 41.76662], [-7.865714, 41.769589], [-7.851767, 41.766416], [-7.847565, 41.757367], [-7.854027, 41.75027], [-7.86609, 41.748206], [-7.877733, 41.757665]], [[-7.856748, 41.703417], [-7.854698, 41.712476], [-7.848392, 41.703334], [-7.854891, 41.701605], [-7.856748, 41.703417]]], [[[-8.107162, 41.710114], [-8.119193, 41.709368], [-8.131191, 41.696813], [-8.128777, 41.687787], [-8.11954, 41.683894], [-8.107446, 41.689631], [-8.099893, 41.696572], [-8.100834, 41.705586], [-8.107162, 41.710114]], [[-8.119429, 41.692021], [-8.124217, 41.69676], [-8.119285, 41.702618], [-8.110169, 41.696652], [-8.119429, 41.692021]]], [[[-8.084147, 41.637838], [-8.096179, 41.636005], [-8.108309, 41.627096], [-8.116471, 41.615637], [-8.118365, 41.606644], [-8.115267, 41.597613], [-8.108796, 41.591666], [-8.096866, 41.586817], [-8.084888, 41.585478], [-8.072865, 41.587285], [-8.060786, 41.592916], [-8.055894, 41.597141], [-8.051306, 41.60611], [-8.05156, 41.61512], [-8.056457, 41.624167], [-8.072179, 41.635122], [-8.084147, 41.637838]], [[-8.103548, 41.615537], [-8.096328, 41.625344], [-8.084301, 41.626992], [-8.078157, 41.624343], [-8.071326, 41.615281], [-8.07652, 41.606316], [-8.084648, 41.602414], [-8.096626, 41.604014], [-8.09975, 41.6065], [-8.103548, 41.615537]]], [[[-8.349511, 41.516823], [-8.361533, 41.512968], [-8.373623, 41.501975], [-8.378071, 41.491248], [-8.377943, 41.482239], [-8.373914, 41.471772], [-8.362054, 41.459931], [-8.350121, 41.455821], [-8.338154, 41.455164], [-8.326159, 41.457353], [-8.314112, 41.464317], [-8.307239, 41.472828], [-8.304718, 41.48182], [-8.305507, 41.490832], [-8.313679, 41.505355], [-8.325571, 41.514058], [-8.337524, 41.517094], [-8.349511, 41.516823]], [[-8.354444, 41.48211], [-8.354793, 41.491119], [-8.349721, 41.495825], [-8.337726, 41.497312], [-8.328589, 41.490969], [-8.329076, 41.481965], [-8.337939, 41.476327], [-8.3499, 41.477953], [-8.354444, 41.48211]]]]}}]}