{"type": "FeatureCollection", "features": [{"id": "2", "type": "Feature", "properties": {"fill": "#98d277", "value_min": 0.2, "value_max": 0.27}, "geometry": {"type": "Polygon", "coordinates": [[[-8.588389, 41.46517], [-8.591777, 41.456175], [-8.591218, 41.447165], [-8.586615, 41.438141], [-8.577776, 41.430429], [-8.565844, 41.425026], [-8.553889, 41.423197], [-8.541914, 41.424284], [-8.529911, 41.429114], [-8.519925, 41.437882], [-8.515583, 41.446872], [-8.515394, 41.455878], [-8.519259, 41.464902], [-8.52958, 41.474977], [-8.541517, 41.480608], [-8.553483, 41.48241], [-8.565469, 41.481179], [-8.580271, 41.474148], [-8.588389, 41.46517]], [[-8.553544, 41.47353], [-8.541581, 41.471512], [-8.531653, 41.464953], [-8.527172, 41.455927], [-8.529142, 41.446928], [-8.540434, 41.437966], [-8.553803, 41.435692], [-8.56575, 41.439064], [-8.574609, 41.447105], [-8.576775, 41.45612], [-8.572646, 41.465113], [-8.565541, 41.47033], [-8.553544, 41.47353]]]}}, {"id": "1", "type": "Feature", "properties": {"fill": "#74c16c", "value_min": 0.13, "value_max": 0.2}, "geometry": {"type": "Polygon", "coordinates": [[[-8.553544, 41.47353], [-8.565541, 41.47033], [-8.572646, 41.465113], [-8.576775, 41.45612], [-8.574609, 41.447105], [-8.56575, 41.439064], [-8.553803, 41.435692], [-8.540434, 41.437966], [-8.529142, 41.446928], [-8.527172, 41.455927], [-8.531653, 41.464953], [-8.541581, 41.471512], [-8.553544, 41.47353]], [[-8.541673, 41.458447], [-8.540161, 41.45598], [-8.541713, 41.452868], [-8.553723, 41.447439], [-8.561508, 41.456063], [-8.553612, 41.463507], [-8.541673, 41.458447]]]}}, {"id": "0", "type": "Feature", "properties": {"fill": "#50b061", "value_min": 0.07, "value_max": 0.13}, "geometry": {"type": "Polygon", "coordinates": [[[-8.541673, 41.458447], [-8.553612, 41.463507], [-8.561508, 41.456063], [-8.553723, 41.447439], [-8.541713, 41.452868], [-8.540161, 41.45598], [-8.541673, 41.458447]]]}}, {"id": "4", "type": "Feature", "properties": {"fill": "#ddf190", "value_min": 0.33, "value_max": 0.4}, "geometry": {"type": "MultiPolygon", "coordinates": [[[[-7.731449, 41.819965], [-7.756551, 41.815263], [-7.767437, 41.810575], [-7.778234, 41.801684], [-7.783224, 41.79273], [-7.785086, 41.783743], [-7.780939, 41.765686], [-7.769837, 41.750114], [-7.758682, 41.741409], [-7.757758, 41.745301], [-7.747812, 41.749995], [-7.747786, 41.754496], [-7.743866, 41.756509], [-7.740214, 41.763924], [-7.728449, 41.77041], [-7.72663, 41.772859], [-7.733359, 41.770253], [-7.745361, 41.771752], [-7.749161, 41.774351], [-7.754471, 41.783415], [-7.749738, 41.792371], [-7.744901, 41.795324], [-7.732843, 41.796418], [-7.722299, 41.791945], [-7.728879, 41.797871], [-7.72705, 41.801691], [-7.72788, 41.813397], [-7.731449, 41.819965]]], [[[-8.332996, 41.762834], [-8.336298, 41.752223], [-8.333522, 41.725185], [-8.335415, 41.722832], [-8.350218, 41.716274], [-8.359544, 41.714356], [-8.371612, 41.709531], [-8.395214, 41.698506], [-8.419863, 41.690633], [-8.443918, 41.688037], [-8.46884, 41.689574], [-8.482012, 41.682123], [-8.484371, 41.674238], [-8.49308, 41.674886], [-8.499963, 41.671038], [-8.50927, 41.671233], [-8.51018, 41.672806], [-8.511967, 41.670324], [-8.509856, 41.668755], [-8.512252, 41.667847], [-8.514629, 41.663788], [-8.522103, 41.658811], [-8.525706, 41.659023], [-8.527769, 41.652714], [-8.534066, 41.652017], [-8.537355, 41.64998], [-8.539599, 41.644345], [-8.535528, 41.636108], [-8.526859, 41.627066], [-8.50128, 41.608943], [-8.480686, 41.59854], [-8.456739, 41.592268], [-8.432753, 41.591057], [-8.408735, 41.593452], [-8.372649, 41.602746], [-8.348556, 41.612003], [-8.336484, 41.618794], [-8.324378, 41.628637], [-8.318631, 41.635027], [-8.310302, 41.652992], [-8.309055, 41.670999], [-8.31904, 41.707086], [-8.311404, 41.716048], [-8.287363, 41.719348], [-8.275292, 41.723713], [-8.263182, 41.731342], [-8.254344, 41.742713], [-8.252264, 41.751706], [-8.253719, 41.760723], [-8.262259, 41.77311], [-8.268367, 41.769951], [-8.271366, 41.766346], [-8.280681, 41.764083], [-8.284038, 41.761109], [-8.284931, 41.757507], [-8.287033, 41.756829], [-8.298457, 41.757263], [-8.300866, 41.758835], [-8.305674, 41.758152], [-8.311096, 41.762195], [-8.318308, 41.761283], [-8.325233, 41.765098], [-8.332996, 41.762834]], [[-8.38392, 41.679425], [-8.371925, 41.67736], [-8.364786, 41.67132], [-8.364375, 41.662311], [-8.372145, 41.654729], [-8.384177, 41.652459], [-8.396135, 41.657976], [-8.399736, 41.662501], [-8.398566, 41.671502], [-8.38392, 41.679425]], [[-8.442016, 41.626685], [-8.44446, 41.625037], [-8.447214, 41.62671], [-8.444427, 41.628907], [-8.442016, 41.626685]]], [[[-7.982678, 41.758643], [-7.983724, 41.749645], [-7.975509, 41.740565], [-7.962514, 41.735379], [-7.950502, 41.734632], [-7.93843, 41.737514], [-7.926282, 41.744843], [-7.921813, 41.749081], [-7.918136, 41.758053], [-7.921538, 41.767092], [-7.925865, 41.769877], [-7.937838, 41.773405], [-7.949862, 41.773884], [-7.961916, 41.772538], [-7.974597, 41.767578], [-7.982678, 41.758643]], [[-7.938084, 41.758458], [-7.950145, 41.756539], [-7.951982, 41.758367], [-7.950079, 41.760563], [-7.938084, 41.758458]]], [[[-8.024913, 41.731988], [-8.010808, 41.722686], [-7.998741, 41.725555], [-7.991242, 41.731697], [-7.990444, 41.740697], [-7.998428, 41.745741], [-8.010422, 41.74787], [-8.022527, 41.742736], [-8.024913, 41.731988]]], [[[-8.035559, 41.675499], [-8.044782, 41.669106], [-8.049606, 41.660139], [-8.047867, 41.651117], [-8.038948, 41.642036], [-8.024141, 41.636047], [-8.012132, 41.636173], [-8.000053, 41.640913], [-7.991108, 41.650633], [-7.989842, 41.659629], [-7.993463, 41.668668], [-7.999544, 41.673783], [-8.011482, 41.678737], [-8.023492, 41.678981], [-8.035559, 41.675499]]], [[[-8.149859, 41.633903], [-8.14432, 41.627335], [-8.132343, 41.625213], [-8.123029, 41.633701], [-8.127638, 41.642743], [-8.132075, 41.645202], [-8.144688, 41.642872], [-8.149859, 41.633903]]], [[[-8.793707, 41.597694], [-8.828408, 41.585762], [-8.818497, 41.554794], [-8.8221, 41.547542], [-8.821717, 41.533832], [-8.815926, 41.525624], [-8.81063, 41.5101], [-8.813279, 41.503483], [-8.812976, 41.498005], [-8.804699, 41.482068], [-8.798552, 41.474753], [-8.80154, 41.446836], [-8.806115, 41.43713], [-8.807354, 41.425915], [-8.811166, 41.417099], [-8.808492, 41.367666], [-8.769482, 41.371345], [-8.697742, 41.369985], [-8.685777, 41.371587], [-8.649843, 41.382817], [-8.637878, 41.3838], [-8.625928, 41.381998], [-8.610097, 41.37517], [-8.599897, 41.366128], [-8.59024, 41.351626], [-8.578348, 41.341904], [-8.566413, 41.339382], [-8.554459, 41.339739], [-8.542491, 41.342007], [-8.518509, 41.35242], [-8.50649, 41.361042], [-8.494445, 41.372602], [-8.482367, 41.387697], [-8.470175, 41.410641], [-8.466832, 41.428641], [-8.468035, 41.437654], [-8.474911, 41.455701], [-8.488862, 41.473778], [-8.524674, 41.500954], [-8.553183, 41.526091], [-8.565118, 41.533691], [-8.577074, 41.538529], [-8.589059, 41.539005], [-8.604435, 41.519271], [-8.613184, 41.514212], [-8.625183, 41.511614], [-8.637149, 41.514817], [-8.644744, 41.519403], [-8.650769, 41.528428], [-8.651708, 41.537439], [-8.641275, 41.564429], [-8.645113, 41.573448], [-8.648794, 41.577407], [-8.66409, 41.588721], [-8.665265, 41.585758], [-8.66948, 41.587989], [-8.684455, 41.586117], [-8.685608, 41.58071], [-8.697261, 41.576376], [-8.701703, 41.570277], [-8.707704, 41.570923], [-8.712485, 41.569323], [-8.716422, 41.573805], [-8.720316, 41.57356], [-8.725151, 41.577811], [-8.726633, 41.576003], [-8.734424, 41.575737], [-8.736564, 41.580228], [-8.738354, 41.579318], [-8.740778, 41.582006], [-8.74467, 41.581535], [-8.750711, 41.58623], [-8.75993, 41.578527], [-8.767441, 41.580286], [-8.769874, 41.583874], [-8.768997, 41.58613], [-8.773228, 41.589482], [-8.774165, 41.593303], [-8.78556, 41.593464], [-8.793707, 41.597694]], [[-8.553398, 41.494693], [-8.529496, 41.48663], [-8.512094, 41.473879], [-8.500389, 41.455814], [-8.498891, 41.4468], [-8.499899, 41.437797], [-8.503691, 41.428806], [-8.51077, 41.419829], [-8.518057, 41.41374], [-8.530066, 41.407643], [-8.542052, 41.40459], [-8.554021, 41.403885], [-8.565976, 41.405081], [-8.57792, 41.408267], [-8.600877, 41.420176], [-8.610605, 41.429217], [-8.615474, 41.438241], [-8.617145, 41.447254], [-8.61211, 41.465253], [-8.606261, 41.47424], [-8.595929, 41.483212], [-8.577376, 41.492134], [-8.565377, 41.494908], [-8.553398, 41.494693]]], [[[-8.086985, 41.543985], [-8.097408, 41.547908], [-8.109393, 41.548264], [-8.122444, 41.543625], [-8.130281, 41.534677], [-8.130408, 41.525671], [-8.122179, 41.516601], [-8.109881, 41.51267], [-8.097904, 41.512181], [-8.090599, 41.514099], [-8.089398, 41.519468], [-8.090594, 41.522169], [-8.093588, 41.52307], [-8.091786, 41.531848], [-8.097775, 41.536127], [-8.097774, 41.537927], [-8.106759, 41.543557], [-8.101666, 41.542655], [-8.094175, 41.544904], [-8.087885, 41.542876], [-8.086985, 41.543985]]], [[[-8.59912, 41.164904], [-8.615025, 41.202622], [-8.626737, 41.240353], [-8.630404, 41.249129], [-8.638556, 41.26114], [-8.650464, 41.266676], [-8.662401, 41.267111], [-8.71019, 41.259399], [-8.746003, 41.259141], [-8.781791, 41.266027], [-8.804807, 41.27418], [-8.799695, 41.14406], [-8.67527, 41.147484], [-8.676193, 41.146567], [-8.674793, 41.146932], [-8.674204, 41.147693], [-8.674849, 41.153767], [-8.672489, 41.15648], [-8.66117, 41.156307], [-8.662078, 41.158104], [-8.660313, 41.160813], [-8.657033, 41.160378], [-8.654961, 41.161963], [-8.653222, 41.168049], [-8.654744, 41.172183], [-8.662934, 41.163321], [-8.674886, 41.156713], [-8.686821, 41.153396], [-8.698743, 41.15253], [-8.710655, 41.153828], [-8.722557, 41.157631], [-8.734446, 41.164948], [-8.744534, 41.177376], [-8.74728, 41.18639], [-8.747029, 41.195397], [-8.743852, 41.204398], [-8.734242, 41.215449], [-8.724064, 41.222368], [-8.710331, 41.227437], [-8.698389, 41.229591], [-8.686457, 41.22966], [-8.674537, 41.227345], [-8.662635, 41.221553], [-8.654088, 41.213171], [-8.650779, 41.207509], [-8.647274, 41.195135], [-8.649991, 41.179993], [-8.647955, 41.180228], [-8.647696, 41.185181], [-8.641225, 41.196014], [-8.638841, 41.196025], [-8.638231, 41.194227], [-8.634946, 41.193341], [-8.632526, 41.188624], [-8.625658, 41.186628], [-8.621132, 41.178994], [-8.613374, 41.177451], [-8.608583, 41.174095], [-8.609164, 41.172066], [-8.604942, 41.164881], [-8.59912, 41.164904]]], [[[-8.650038, 41.179859], [-8.650038, 41.179859], [-8.650069, 41.179768], [-8.650038, 41.179859]]]]}}, {"id": "3", "type": "Feature", "properties": {"fill": "#bde282", "value_min": 0.27, "value_max": 0.33}, "geometry": {"type": "MultiPolygon", "coordinates": [[[[-7.722299, 41.791945], [-7.732843, 41.796418], [-7.744901, 41.795324], [-7.749738, 41.792371], [-7.754471, 41.783415], [-7.749161, 41.774351], [-7.745361, 41.771752], [-7.733359, 41.770253], [-7.72663, 41.772859], [-7.7254, 41.777152], [-7.727191, 41.779184], [-7.724177, 41.780299], [-7.725372, 41.781653], [-7.722299, 41.791945]]], [[[-7.938084, 41.758458], [-7.950079, 41.760563], [-7.951982, 41.758367], [-7.950145, 41.756539], [-7.938084, 41.758458]]], [[[-8.38392, 41.679425], [-8.398566, 41.671502], [-8.399736, 41.662501], [-8.396135, 41.657976], [-8.384177, 41.652459], [-8.372145, 41.654729], [-8.364375, 41.662311], [-8.364786, 41.67132], [-8.371925, 41.67736], [-8.38392, 41.679425]]], [[[-8.442016, 41.626685], [-8.444427, 41.628907], [-8.447214, 41.62671], [-8.44446, 41.625037], [-8.442016, 41.626685]]], [[[-8.553398, 41.494693], [-8.565377, 41.494908], [-8.577376, 41.492134], [-8.595929, 41.483212], [-8.606261, 41.47424], [-8.61211, 41.465253], [-8.617145, 41.447254], [-8.615474, 41.438241], [-8.610605, 41.429217], [-8.600877, 41.420176], [-8.57792, 41.408267], [-8.565976, 41.405081], [-8.554021, 41.403885], [-8.542052, 41.40459], [-8.530066, 41.407643], [-8.518057, 41.41374], [-8.51077, 41.419829], [-8.503691, 41.428806], [-8.499899, 41.437797], [-8.498891, 41.4468], [-8.500389, 41.455814], [-8.512094, 41.473879], [-8.529496, 41.48663], [-8.553398, 41.494693]], [[-8.588389, 41.46517], [-8.580271, 41.474148], [-8.565469, 41.481179], [-8.553483, 41.48241], [-8.541517, 41.480608], [-8.52958, 41.474977], [-8.519259, 41.464902], [-8.515394, 41.455878], [-8.515583, 41.446872], [-8.519925, 41.437882], [-8.529911, 41.429114], [-8.541914, 41.424284], [-8.553889, 41.423197], [-8.565844, 41.425026], [-8.577776, 41.430429], [-8.586615, 41.438141], [-8.591218, 41.447165], [-8.591777, 41.456175], [-8.588389, 41.46517]]], [[[-8.649991, 41.179993], [-8.647274, 41.195135], [-8.650779, 41.207509], [-8.654088, 41.213171], [-8.662635, 41.221553], [-8.674537, 41.227345], [-8.686457, 41.22966], [-8.698389, 41.229591], [-8.710331, 41.227437], [-8.724064, 41.222368], [-8.734242, 41.215449], [-8.743852, 41.204398], [-8.747029, 41.195397], [-8.74728, 41.18639], [-8.744534, 41.177376], [-8.734446, 41.164948], [-8.722557, 41.157631], [-8.710655, 41.153828], [-8.698743, 41.15253], [-8.686821, 41.153396], [-8.674886, 41.156713], [-8.662934, 41.163321], [-8.654744, 41.172183], [-8.655366, 41.175467], [-8.650069, 41.179768], [-8.650038, 41.179859], [-8.649991, 41.179993]]]]}}, {"id": "5", "type": "Feature", "properties": {"fill": "#eef8a7", "value_min": 0.4, "value_max": 0.47}, "geometry": {"type": "MultiPolygon", "coordinates": [[[[-8.793707, 41.597694], [-8.797327, 41.600599], [-8.804218, 41.600109], [-8.80456, 41.604158], [-8.809434, 41.611332], [-8.828644, 41.609656], [-8.828408, 41.585762], [-8.793707, 41.597694]]], [[[-8.66409, 41.588721], [-8.648794, 41.577407], [-8.645113, 41.573448], [-8.641275, 41.564429], [-8.651708, 41.537439], [-8.650769, 41.528428], [-8.644744, 41.519403], [-8.637149, 41.514817], [-8.625183, 41.511614], [-8.613184, 41.514212], [-8.604435, 41.519271], [-8.589059, 41.539005], [-8.577074, 41.538529], [-8.565118, 41.533691], [-8.553183, 41.526091], [-8.524674, 41.500954], [-8.488862, 41.473778], [-8.474911, 41.455701], [-8.468035, 41.437654], [-8.466832, 41.428641], [-8.470175, 41.410641], [-8.482367, 41.387697], [-8.494445, 41.372602], [-8.50649, 41.361042], [-8.518509, 41.35242], [-8.542491, 41.342007], [-8.554459, 41.339739], [-8.566413, 41.339382], [-8.578348, 41.341904], [-8.59024, 41.351626], [-8.599897, 41.366128], [-8.610097, 41.37517], [-8.625928, 41.381998], [-8.637878, 41.3838], [-8.649843, 41.382817], [-8.685777, 41.371587], [-8.697742, 41.369985], [-8.769482, 41.371345], [-8.808492, 41.367666], [-8.804807, 41.27418], [-8.781791, 41.266027], [-8.746003, 41.259141], [-8.71019, 41.259399], [-8.662401, 41.267111], [-8.650464, 41.266676], [-8.638556, 41.26114], [-8.630404, 41.249129], [-8.626737, 41.240353], [-8.615025, 41.202622], [-8.59912, 41.164904], [-8.59422, 41.165149], [-8.589766, 41.167193], [-8.589194, 41.170572], [-8.583263, 41.174422], [-8.582094, 41.177803], [-8.578825, 41.178941], [-8.581296, 41.191762], [-8.575958, 41.195609], [-8.576894, 41.201908], [-8.574515, 41.202593], [-8.57423, 41.20462], [-8.567971, 41.204644], [-8.565895, 41.206227], [-8.567697, 41.208246], [-8.566512, 41.209376], [-8.559636, 41.206251], [-8.554271, 41.20627], [-8.549521, 41.209214], [-8.544157, 41.209458], [-8.54238, 41.211265], [-8.532257, 41.213102], [-8.52713, 41.203215], [-8.523236, 41.200077], [-8.51163, 41.203042], [-8.510456, 41.206197], [-8.506583, 41.206435], [-8.504239, 41.213646], [-8.500076, 41.21546], [-8.50308, 41.219502], [-8.502204, 41.222656], [-8.495642, 41.222227], [-8.495947, 41.223351], [-8.490894, 41.226294], [-8.487935, 41.230354], [-8.490331, 41.232373], [-8.489156, 41.235528], [-8.486181, 41.236888], [-8.484411, 41.240495], [-8.476346, 41.237818], [-8.475756, 41.23917], [-8.470986, 41.23941], [-8.471604, 41.243459], [-8.469227, 41.245267], [-8.463258, 41.244384], [-8.459989, 41.246644], [-8.454323, 41.246886], [-8.455541, 41.251834], [-8.452276, 41.25522], [-8.449891, 41.255452], [-8.449304, 41.257479], [-8.447812, 41.257258], [-8.449028, 41.261982], [-8.439785, 41.262907], [-8.438023, 41.268989], [-8.434745, 41.269673], [-8.432691, 41.277107], [-8.427032, 41.279372], [-8.429143, 41.284319], [-8.426171, 41.287028], [-8.426488, 41.291079], [-8.425013, 41.294909], [-8.422037, 41.296942], [-8.422647, 41.299867], [-8.407744, 41.304856], [-8.406262, 41.307335], [-8.403277, 41.307342], [-8.401801, 41.311398], [-8.399712, 41.311628], [-8.400316, 41.313202], [-8.396738, 41.314336], [-8.398835, 41.316131], [-8.393775, 41.31997], [-8.393489, 41.323122], [-8.391105, 41.324253], [-8.386325, 41.323588], [-8.383055, 41.327283], [-8.39912, 41.335766], [-8.41001, 41.347295], [-8.414734, 41.356327], [-8.416596, 41.374352], [-8.414056, 41.383347], [-8.409007, 41.392328], [-8.398497, 41.403501], [-8.386462, 41.411085], [-8.374449, 41.416033], [-8.362463, 41.418146], [-8.350495, 41.418317], [-8.338548, 41.416442], [-8.326636, 41.411228], [-8.314771, 41.401672], [-8.307753, 41.391764], [-8.304445, 41.382736], [-8.303182, 41.364713], [-8.308961, 41.346733], [-8.317769, 41.336775], [-8.314699, 41.33678], [-8.312604, 41.334983], [-8.313794, 41.333405], [-8.310792, 41.327557], [-8.308701, 41.327561], [-8.307502, 41.325762], [-8.305116, 41.326891], [-8.303024, 41.325994], [-8.303615, 41.323742], [-8.301216, 41.319694], [-8.296431, 41.316774], [-8.297618, 41.313846], [-8.295817, 41.310022], [-8.281801, 41.316569], [-8.279132, 41.324451], [-8.272266, 41.32536], [-8.265709, 41.331221], [-8.269004, 41.336169], [-8.263339, 41.340902], [-8.262751, 41.345405], [-8.256483, 41.347663], [-8.255889, 41.349689], [-8.249622, 41.353072], [-8.251123, 41.356897], [-8.248141, 41.360052], [-8.248448, 41.364328], [-8.245461, 41.364781], [-8.244272, 41.368384], [-8.241287, 41.370413], [-8.224854, 41.370878], [-8.21738, 41.368182], [-8.214399, 41.373587], [-8.208127, 41.376968], [-8.199163, 41.377423], [-8.194677, 41.374275], [-8.191691, 41.376302], [-8.189299, 41.375403], [-8.184818, 41.376756], [-8.168382, 41.377438], [-8.164499, 41.38059], [-8.152544, 41.375866], [-8.151049, 41.37339], [-8.145073, 41.374742], [-8.139694, 41.377894], [-8.133418, 41.374292], [-8.125051, 41.375193], [-8.119672, 41.376768], [-8.119672, 41.378569], [-8.116683, 41.380144], [-8.117877, 41.385771], [-8.113992, 41.386896], [-8.112795, 41.390723], [-8.110105, 41.390947], [-8.108011, 41.393648], [-8.103827, 41.392972], [-8.105321, 41.394998], [-8.10263, 41.396123], [-8.10801, 41.398825], [-8.108606, 41.403102], [-8.104419, 41.406252], [-8.104119, 41.408728], [-8.101727, 41.409403], [-8.102025, 41.411204], [-8.092756, 41.411201], [-8.09126, 41.414352], [-8.079893, 41.41975], [-8.077503, 41.416597], [-8.070923, 41.41862], [-8.066739, 41.416142], [-8.061654, 41.417489], [-8.059852, 41.424916], [-8.055959, 41.429415], [-8.05745, 41.432793], [-8.056549, 41.436394], [-8.069999, 41.447206], [-8.068788, 41.462286], [-8.073872, 41.46499], [-8.074468, 41.468141], [-8.073564, 41.474668], [-8.066374, 41.482318], [-8.066069, 41.48817], [-8.072054, 41.490199], [-8.07175, 41.494925], [-8.078333, 41.49898], [-8.078332, 41.500331], [-8.093, 41.504613], [-8.090599, 41.514099], [-8.097904, 41.512181], [-8.109881, 41.51267], [-8.122179, 41.516601], [-8.130408, 41.525671], [-8.130281, 41.534677], [-8.122444, 41.543625], [-8.109393, 41.548264], [-8.097408, 41.547908], [-8.086985, 41.543985], [-8.083389, 41.5449], [-8.080687, 41.551651], [-8.074396, 41.549848], [-8.072897, 41.551197], [-8.076188, 41.557276], [-8.080082, 41.558854], [-8.081576, 41.565157], [-8.078879, 41.56493], [-8.075279, 41.568305], [-8.073182, 41.568079], [-8.069283, 41.570553], [-8.068081, 41.573478], [-8.056684, 41.579549], [-8.052181, 41.584498], [-8.052777, 41.587649], [-8.048277, 41.590122], [-8.047974, 41.592373], [-8.031467, 41.602938], [-8.02367, 41.603156], [-8.019174, 41.601802], [-8.015872, 41.603824], [-8.013474, 41.603372], [-8.005971, 41.60629], [-8.003562, 41.611239], [-7.998761, 41.612809], [-7.999669, 41.608759], [-7.996976, 41.605829], [-7.996684, 41.602003], [-7.984685, 41.603564], [-7.982292, 41.60086], [-7.975689, 41.603552], [-7.974482, 41.606701], [-7.970882, 41.607147], [-7.969091, 41.603768], [-7.965796, 41.602413], [-7.9541, 41.602846], [-7.952606, 41.600592], [-7.947808, 41.60081], [-7.945413, 41.599456], [-7.942725, 41.595625], [-7.936132, 41.594488], [-7.93791, 41.601694], [-7.937004, 41.603718], [-7.931604, 41.604384], [-7.930979, 41.612711], [-7.925556, 41.620354], [-7.920755, 41.620796], [-7.917748, 41.623041], [-7.915933, 41.627764], [-7.913229, 41.628885], [-7.912613, 41.63361], [-7.906014, 41.633147], [-7.906884, 41.641927], [-7.897869, 41.645511], [-7.89696, 41.647985], [-7.892759, 41.647976], [-7.892145, 41.651576], [-7.902319, 41.659925], [-7.899913, 41.66127], [-7.900198, 41.665547], [-7.898396, 41.665769], [-7.897186, 41.668467], [-7.892682, 41.668683], [-7.892377, 41.670033], [-7.888171, 41.670925], [-7.883969, 41.67069], [-7.880358, 41.673159], [-7.877044, 41.676077], [-7.876723, 41.681253], [-7.873401, 41.686198], [-7.868896, 41.686413], [-7.868008, 41.68326], [-7.864403, 41.683701], [-7.864096, 41.685276], [-7.858987, 41.68639], [-7.857773, 41.689538], [-7.854776, 41.68818], [-7.847538, 41.695365], [-7.837912, 41.698942], [-7.835792, 41.702763], [-7.839682, 41.705924], [-7.838465, 41.709522], [-7.832453, 41.710407], [-7.825252, 41.708813], [-7.818621, 41.713522], [-7.815291, 41.718689], [-7.808986, 41.717996], [-7.808396, 41.715744], [-7.804499, 41.714158], [-7.79939, 41.714593], [-7.79788, 41.716164], [-7.796383, 41.71526], [-7.790966, 41.717044], [-7.789449, 41.719966], [-7.78464, 41.720402], [-7.78252, 41.723546], [-7.776204, 41.724652], [-7.773786, 41.727346], [-7.770798, 41.72441], [-7.765698, 41.723044], [-7.761765, 41.727758], [-7.762933, 41.733839], [-7.759307, 41.737203], [-7.759597, 41.739005], [-7.75689, 41.739446], [-7.758682, 41.741409], [-7.769837, 41.750114], [-7.780939, 41.765686], [-7.785086, 41.783743], [-7.783224, 41.79273], [-7.778234, 41.801684], [-7.767437, 41.810575], [-7.756551, 41.815263], [-7.731449, 41.819965], [-7.73594, 41.823554], [-7.743152, 41.825154], [-7.742839, 41.827178], [-7.738918, 41.82874], [-7.742196, 41.833928], [-7.74729, 41.837772], [-7.746349, 41.84407], [-7.749645, 41.846654], [-7.75597, 41.845289], [-7.767991, 41.846576], [-7.780309, 41.855746], [-7.782202, 41.864773], [-7.776953, 41.873724], [-7.767358, 41.879526], [-7.755276, 41.881075], [-7.743289, 41.877757], [-7.737795, 41.8733], [-7.734301, 41.866312], [-7.734159, 41.868337], [-7.730228, 41.871024], [-7.729293, 41.875972], [-7.722351, 41.878424], [-7.720523, 41.881793], [-7.725335, 41.882935], [-7.726208, 41.887665], [-7.737044, 41.888828], [-7.737935, 41.890857], [-7.74246, 41.889747], [-7.742785, 41.885922], [-7.756022, 41.888441], [-7.758719, 41.890926], [-7.756592, 41.89407], [-7.758076, 41.897901], [-7.763193, 41.898593], [-7.779227, 41.886264], [-7.785257, 41.885157], [-7.788886, 41.882467], [-7.794007, 41.882257], [-7.796739, 41.878214], [-7.794349, 41.87438], [-7.797064, 41.873488], [-7.803381, 41.874857], [-7.804914, 41.869459], [-7.813032, 41.871958], [-7.814229, 41.873537], [-7.823863, 41.874013], [-7.825059, 41.875817], [-7.830479, 41.875831], [-7.830789, 41.874031], [-7.832894, 41.874712], [-7.83772, 41.872924], [-7.842528, 41.875187], [-7.841663, 41.866632], [-7.849515, 41.861475], [-7.858542, 41.862622], [-7.859456, 41.860148], [-7.864877, 41.859711], [-7.87033, 41.851395], [-7.873043, 41.850501], [-7.873066, 41.844875], [-7.879056, 41.85254], [-7.886268, 41.855932], [-7.888076, 41.855486], [-7.891675, 41.859094], [-7.900698, 41.861588], [-7.904318, 41.859795], [-7.907309, 41.865203], [-7.906095, 41.868126], [-7.910299, 41.871285], [-7.909985, 41.875111], [-7.915391, 41.879397], [-7.921118, 41.877833], [-7.928044, 41.87807], [-7.935283, 41.874707], [-7.937389, 41.87516], [-7.941618, 41.870891], [-7.951254, 41.871132], [-7.956367, 41.87339], [-7.956362, 41.875191], [-7.960878, 41.875648], [-7.962086, 41.874074], [-7.973828, 41.875216], [-7.987996, 41.869157], [-7.990123, 41.860157], [-7.995547, 41.858138], [-7.994047, 41.855211], [-7.996162, 41.851837], [-8.003089, 41.850494], [-8.005804, 41.847346], [-8.007928, 41.838796], [-8.010941, 41.836773], [-8.013965, 41.828899], [-8.017873, 41.831379], [-8.02901, 41.829589], [-8.037134, 41.831171], [-8.041351, 41.828023], [-8.041054, 41.825097], [-8.045268, 41.824425], [-8.046775, 41.821951], [-8.056712, 41.81588], [-8.06664, 41.817012], [-8.072961, 41.813414], [-8.078678, 41.813417], [-8.082892, 41.810493], [-8.091013, 41.812521], [-8.093421, 41.811397], [-8.093723, 41.808471], [-8.101845, 41.809824], [-8.104853, 41.81185], [-8.115984, 41.812302], [-8.123807, 41.808702], [-8.138247, 41.808477], [-8.139751, 41.813203], [-8.14276, 41.812978], [-8.144866, 41.815228], [-8.149078, 41.814777], [-8.153291, 41.817703], [-8.158106, 41.818377], [-8.165326, 41.81815], [-8.173744, 41.808019], [-8.177655, 41.808242], [-8.183676, 41.812741], [-8.190291, 41.809587], [-8.197158, 41.814129], [-8.201063, 41.808724], [-8.204973, 41.807372], [-8.205872, 41.804445], [-8.213692, 41.803765], [-8.217598, 41.80016], [-8.217589, 41.793634], [-8.224207, 41.794303], [-8.229917, 41.791598], [-8.240744, 41.791588], [-8.24074, 41.789338], [-8.244347, 41.787984], [-8.245546, 41.785731], [-8.251257, 41.784375], [-8.251845, 41.777172], [-8.257551, 41.773564], [-8.261762, 41.774235], [-8.262259, 41.77311], [-8.253719, 41.760723], [-8.252264, 41.751706], [-8.254344, 41.742713], [-8.263182, 41.731342], [-8.275292, 41.723713], [-8.287363, 41.719348], [-8.311404, 41.716048], [-8.31904, 41.707086], [-8.309055, 41.670999], [-8.310302, 41.652992], [-8.318631, 41.635027], [-8.324378, 41.628637], [-8.336484, 41.618794], [-8.348556, 41.612003], [-8.372649, 41.602746], [-8.408735, 41.593452], [-8.432753, 41.591057], [-8.456739, 41.592268], [-8.480686, 41.59854], [-8.50128, 41.608943], [-8.526859, 41.627066], [-8.535528, 41.636108], [-8.539599, 41.644345], [-8.543876, 41.637352], [-8.543855, 41.633976], [-8.536342, 41.631977], [-8.535128, 41.62973], [-8.543431, 41.61462], [-8.554533, 41.615255], [-8.557244, 41.617046], [-8.562639, 41.61635], [-8.568056, 41.619031], [-8.570735, 41.616095], [-8.577321, 41.614269], [-8.581231, 41.615829], [-8.585766, 41.620988], [-8.591462, 41.620515], [-8.596534, 41.616668], [-8.601628, 41.615972], [-8.603996, 41.611686], [-8.613256, 41.606696], [-8.619881, 41.610269], [-8.621338, 41.604636], [-8.628833, 41.604378], [-8.636302, 41.600744], [-8.639873, 41.597352], [-8.640152, 41.59465], [-8.645536, 41.593051], [-8.646744, 41.594171], [-8.649125, 41.591909], [-8.656622, 41.5921], [-8.660788, 41.588255], [-8.66409, 41.588721]], [[-7.94852, 41.855955], [-7.93653, 41.852512], [-7.931102, 41.848242], [-7.928419, 41.83921], [-7.935557, 41.83027], [-7.948999, 41.826697], [-7.960992, 41.829771], [-7.968381, 41.839576], [-7.965784, 41.84856], [-7.960615, 41.853028], [-7.94852, 41.855955]], [[-7.86444, 41.841751], [-7.852471, 41.837517], [-7.842664, 41.829372], [-7.837937, 41.820317], [-7.837445, 41.811305], [-7.841069, 41.80193], [-7.853337, 41.789021], [-7.86543, 41.785701], [-7.877426, 41.78791], [-7.889345, 41.794592], [-7.899144, 41.802907], [-7.904562, 41.811965], [-7.905308, 41.820979], [-7.900499, 41.82994], [-7.888582, 41.838695], [-7.876478, 41.842139], [-7.86444, 41.841751]], [[-7.937398, 41.80005], [-7.932019, 41.79421], [-7.936582, 41.785246], [-7.951069, 41.785379], [-7.954624, 41.794418], [-7.949434, 41.800101], [-7.937398, 41.80005]], [[-7.854837, 41.775453], [-7.844593, 41.766344], [-7.843562, 41.757326], [-7.851443, 41.748399], [-7.866151, 41.744756], [-7.878084, 41.750143], [-7.881845, 41.757705], [-7.879895, 41.766693], [-7.877731, 41.770396], [-7.868484, 41.775588], [-7.865524, 41.780338], [-7.854837, 41.775453]], [[-7.982678, 41.758643], [-7.974597, 41.767578], [-7.961916, 41.772538], [-7.949862, 41.773884], [-7.937838, 41.773405], [-7.925865, 41.769877], [-7.921538, 41.767092], [-7.918136, 41.758053], [-7.921813, 41.749081], [-7.926282, 41.744843], [-7.93843, 41.737514], [-7.950502, 41.734632], [-7.962514, 41.735379], [-7.975509, 41.740565], [-7.983724, 41.749645], [-7.982678, 41.758643]], [[-8.024913, 41.731988], [-8.022527, 41.742736], [-8.010422, 41.74787], [-7.998428, 41.745741], [-7.990444, 41.740697], [-7.991242, 41.731697], [-7.998741, 41.725555], [-8.010808, 41.722686], [-8.024913, 41.731988]], [[-7.890377, 41.734718], [-7.883203, 41.730698], [-7.878532, 41.724403], [-7.879848, 41.712651], [-7.890961, 41.700737], [-7.903005, 41.699246], [-7.914909, 41.70605], [-7.918796, 41.713025], [-7.91679, 41.722013], [-7.902433, 41.732857], [-7.890377, 41.734718]], [[-8.047128, 41.705588], [-8.047141, 41.704702], [-8.059421, 41.705255], [-8.059148, 41.705577], [-8.047128, 41.705588]], [[-8.035559, 41.675499], [-8.023492, 41.678981], [-8.011482, 41.678737], [-7.999544, 41.673783], [-7.993463, 41.668668], [-7.989842, 41.659629], [-7.991108, 41.650633], [-8.000053, 41.640913], [-8.012132, 41.636173], [-8.024141, 41.636047], [-8.038948, 41.642036], [-8.047867, 41.651117], [-8.049606, 41.660139], [-8.044782, 41.669106], [-8.035559, 41.675499]], [[-8.149859, 41.633903], [-8.144688, 41.642872], [-8.132075, 41.645202], [-8.127638, 41.642743], [-8.123029, 41.633701], [-8.132343, 41.625213], [-8.14432, 41.627335], [-8.149859, 41.633903]], [[-8.079846, 41.624357], [-8.072623, 41.615291], [-8.078594, 41.606332], [-8.084634, 41.603432], [-8.09661, 41.605184], [-8.102247, 41.615527], [-8.09634, 41.62448], [-8.08431, 41.626358], [-8.079846, 41.624357]], [[-8.445058, 41.55527], [-8.434084, 41.545581], [-8.434915, 41.536578], [-8.445291, 41.528018], [-8.45732, 41.522857], [-8.460373, 41.509678], [-8.469485, 41.500968], [-8.481486, 41.498433], [-8.493438, 41.502237], [-8.499679, 41.509856], [-8.498544, 41.518858], [-8.493265, 41.524416], [-8.481244, 41.528855], [-8.472562, 41.536757], [-8.471571, 41.545759], [-8.460615, 41.554716], [-8.457042, 41.556091], [-8.445058, 41.55527]], [[-8.337588, 41.510786], [-8.325635, 41.507873], [-8.313881, 41.49989], [-8.308277, 41.490849], [-8.307815, 41.481839], [-8.314047, 41.470527], [-8.326109, 41.462134], [-8.338113, 41.459279], [-8.350075, 41.460468], [-8.361992, 41.466246], [-8.369182, 41.473184], [-8.373085, 41.482213], [-8.372821, 41.491219], [-8.367955, 41.5002], [-8.36161, 41.505184], [-8.352121, 41.509119], [-8.337588, 41.510786]], [[-8.110195, 41.489707], [-8.102907, 41.480423], [-8.110453, 41.470842], [-8.122427, 41.471028], [-8.129841, 41.48063], [-8.12299, 41.489585], [-8.110195, 41.489707]], [[-8.55523, 41.226298], [-8.55039, 41.221821], [-8.555305, 41.215213], [-8.5672, 41.220271], [-8.567853, 41.221888], [-8.55523, 41.226298]]], [[[-7.743307, 41.849322], [-7.743307, 41.849322], [-7.743691, 41.849013], [-7.743307, 41.849322]]], [[[-7.743912, 41.84886], [-7.743912, 41.84886], [-7.744095, 41.848789], [-7.743912, 41.84886]]], [[[-8.46884, 41.689574], [-8.443918, 41.688037], [-8.419863, 41.690633], [-8.395214, 41.698506], [-8.371612, 41.709531], [-8.359544, 41.714356], [-8.350218, 41.716274], [-8.335415, 41.722832], [-8.333522, 41.725185], [-8.336298, 41.752223], [-8.332996, 41.762834], [-8.336653, 41.763728], [-8.338452, 41.762149], [-8.344765, 41.762363], [-8.349267, 41.760103], [-8.352557, 41.755145], [-8.349814, 41.744122], [-8.352516, 41.743441], [-8.352203, 41.739616], [-8.357897, 41.735103], [-8.362407, 41.735994], [-8.368703, 41.73193], [-8.374122, 41.734845], [-8.384922, 41.73032], [-8.387032, 41.731891], [-8.393033, 41.729852], [-8.396942, 41.730518], [-8.400531, 41.726683], [-8.402934, 41.726452], [-8.404721, 41.722847], [-8.417349, 41.725067], [-8.422737, 41.720552], [-8.429643, 41.719859], [-8.430533, 41.717381], [-8.435927, 41.714441], [-8.441333, 41.714201], [-8.4446, 41.70654], [-8.453868, 41.697961], [-8.453255, 41.695487], [-8.461659, 41.694563], [-8.46884, 41.689574]]]]}}, {"id": "6", "type": "Feature", "properties": {"fill": "#fffebe", "value_min": 0.47, "value_max": 0.53}, "geometry": {"type": "MultiPolygon", "coordinates": [[[[-7.734301, 41.866312], [-7.737795, 41.8733], [-7.743289, 41.877757], [-7.755276, 41.881075], [-7.767358, 41.879526], [-7.776953, 41.873724], [-7.782202, 41.864773], [-7.780309, 41.855746], [-7.767991, 41.846576], [-7.75597, 41.845289], [-7.749645, 41.846654], [-7.750532, 41.849261], [-7.744095, 41.848789], [-7.743912, 41.84886], [-7.743691, 41.849013], [-7.743307, 41.849322], [-7.746901, 41.8524], [-7.746881, 41.855776], [-7.739943, 41.858003], [-7.734301, 41.866312]]], [[[-7.94852, 41.855955], [-7.960615, 41.853028], [-7.965784, 41.84856], [-7.968381, 41.839576], [-7.960992, 41.829771], [-7.948999, 41.826697], [-7.935557, 41.83027], [-7.928419, 41.83921], [-7.931102, 41.848242], [-7.93653, 41.852512], [-7.94852, 41.855955]]], [[[-7.86444, 41.841751], [-7.876478, 41.842139], [-7.888582, 41.838695], [-7.900499, 41.82994], [-7.905308, 41.820979], [-7.904562, 41.811965], [-7.899144, 41.802907], [-7.889345, 41.794592], [-7.877426, 41.78791], [-7.86543, 41.785701], [-7.853337, 41.789021], [-7.841069, 41.80193], [-7.837445, 41.811305], [-7.837937, 41.820317], [-7.842664, 41.829372], [-7.852471, 41.837517], [-7.86444, 41.841751]]], [[[-7.937398, 41.80005], [-7.949434, 41.800101], [-7.954624, 41.794418], [-7.951069, 41.785379], [-7.936582, 41.785246], [-7.932019, 41.79421], [-7.937398, 41.80005]]], [[[-7.854837, 41.775453], [-7.865524, 41.780338], [-7.868484, 41.775588], [-7.877731, 41.770396], [-7.879895, 41.766693], [-7.881845, 41.757705], [-7.878084, 41.750143], [-7.866151, 41.744756], [-7.851443, 41.748399], [-7.843562, 41.757326], [-7.844593, 41.766344], [-7.854837, 41.775453]]], [[[-7.890377, 41.734718], [-7.902433, 41.732857], [-7.91679, 41.722013], [-7.918796, 41.713025], [-7.914909, 41.70605], [-7.903005, 41.699246], [-7.890961, 41.700737], [-7.879848, 41.712651], [-7.878532, 41.724403], [-7.883203, 41.730698], [-7.890377, 41.734718]]], [[[-8.047128, 41.705588], [-8.059148, 41.705577], [-8.059421, 41.705255], [-8.047141, 41.704702], [-8.047128, 41.705588]]], [[[-8.079846, 41.624357], [-8.08431, 41.626358], [-8.09634, 41.62448], [-8.102247, 41.615527], [-8.09661, 41.605184], [-8.084634, 41.603432], [-8.078594, 41.606332], [-8.072623, 41.615291], [-8.079846, 41.624357]]], [[[-8.445058, 41.55527], [-8.457042, 41.556091], [-8.460615, 41.554716], [-8.471571, 41.545759], [-8.472562, 41.536757], [-8.481244, 41.528855], [-8.493265, 41.524416], [-8.498544, 41.518858], [-8.499679, 41.509856], [-8.493438, 41.502237], [-8.481486, 41.498433], [-8.469485, 41.500968], [-8.460373, 41.509678], [-8.45732, 41.522857], [-8.445291, 41.528018], [-8.434915, 41.536578], [-8.434084, 41.545581], [-8.445058, 41.55527]]], [[[-8.337588, 41.510786], [-8.352121, 41.509119], [-8.36161, 41.505184], [-8.367955, 41.5002], [-8.372821, 41.491219], [-8.373085, 41.482213], [-8.369182, 41.473184], [-8.361992, 41.466246], [-8.350075, 41.460468], [-8.338113, 41.459279], [-8.326109, 41.462134], [-8.314047, 41.470527], [-8.307815, 41.481839], [-8.308277, 41.490849], [-8.313881, 41.49989], [-8.325635, 41.507873], [-8.337588, 41.510786]]], [[[-8.110195, 41.489707], [-8.12299, 41.489585], [-8.129841, 41.48063], [-8.122427, 41.471028], [-8.110453, 41.470842], [-8.102907, 41.480423], [-8.110195, 41.489707]]], [[[-8.317769, 41.336775], [-8.308961, 41.346733], [-8.303182, 41.364713], [-8.304445, 41.382736], [-8.307753, 41.391764], [-8.314771, 41.401672], [-8.326636, 41.411228], [-8.338548, 41.416442], [-8.350495, 41.418317], [-8.362463, 41.418146], [-8.374449, 41.416033], [-8.386462, 41.411085], [-8.398497, 41.403501], [-8.409007, 41.392328], [-8.414056, 41.383347], [-8.416596, 41.374352], [-8.414734, 41.356327], [-8.41001, 41.347295], [-8.39912, 41.335766], [-8.383055, 41.327283], [-8.380382, 41.331254], [-8.377097, 41.331261], [-8.37201, 41.328346], [-8.361563, 41.329718], [-8.358276, 41.329049], [-8.357673, 41.327249], [-8.350207, 41.327264], [-8.346032, 41.328847], [-8.342462, 41.333131], [-8.333215, 41.336299], [-8.326363, 41.342163], [-8.324568, 41.341041], [-8.323376, 41.341943], [-8.317769, 41.336775]]], [[[-8.55523, 41.226298], [-8.567853, 41.221888], [-8.5672, 41.220271], [-8.555305, 41.215213], [-8.55039, 41.221821], [-8.55523, 41.226298]]]]}}]}