{"type": "FeatureCollection", "features": [{"id": "4", "type": "Feature", "properties": {"fill": "#f77f52", "value_min": 0.67, "value_max": 0.73}, "geometry": {"type": "MultiPolygon", "coordinates": [[[[-7.742551, 41.825096], [-7.77817, 41.819697], [-7.792656, 41.81602], [-7.804633, 41.810969], [-7.818473, 41.802105], [-7.839679, 41.793314], [-7.877442, 41.786975], [-7.889551, 41.78266], [-7.896717, 41.775863], [-7.900411, 41.766891], [-7.904157, 41.739907], [-7.920514, 41.722048], [-7.922935, 41.713063], [-7.918859, 41.704018], [-7.915, 41.700643], [-7.903045, 41.696871], [-7.89098, 41.699645], [-7.879813, 41.712651], [-7.875684, 41.721618], [-7.866445, 41.728074], [-7.854797, 41.730418], [-7.830306, 41.731824], [-7.818299, 41.730892], [-7.806332, 41.727828], [-7.789754, 41.718971], [-7.78464, 41.720402], [-7.78252, 41.723546], [-7.776204, 41.724652], [-7.773786, 41.727346], [-7.7678, 41.723276], [-7.763888, 41.724389], [-7.761765, 41.727758], [-7.762933, 41.733839], [-7.759307, 41.737203], [-7.759597, 41.739005], [-7.75689, 41.739446], [-7.758673, 41.743053], [-7.756108, 41.745746], [-7.773841, 41.756603], [-7.781246, 41.765689], [-7.785232, 41.774738], [-7.785146, 41.783744], [-7.78134, 41.79271], [-7.77424, 41.801642], [-7.768785, 41.805153], [-7.756637, 41.810838], [-7.744541, 41.813738], [-7.728171, 41.814951], [-7.732041, 41.821514], [-7.742551, 41.825096]], [[-7.853533, 41.777977], [-7.841569, 41.774162], [-7.831946, 41.766216], [-7.830993, 41.757199], [-7.837093, 41.748254], [-7.854186, 41.741302], [-7.866225, 41.74057], [-7.878194, 41.743822], [-7.884198, 41.748721], [-7.887934, 41.757764], [-7.885712, 41.76675], [-7.877666, 41.774124], [-7.873617, 41.775639], [-7.865564, 41.778083], [-7.853533, 41.777977]]], [[[-8.53637, 41.628376], [-8.492668, 41.600746], [-8.471682, 41.581789], [-8.468866, 41.576612], [-8.456951, 41.567038], [-8.444991, 41.56306], [-8.433536, 41.554586], [-8.431433, 41.545568], [-8.437302, 41.536589], [-8.44525, 41.532845], [-8.457242, 41.532245], [-8.468386, 41.536737], [-8.481102, 41.546599], [-8.493099, 41.54571], [-8.541151, 41.53249], [-8.553183, 41.526023], [-8.570516, 41.510142], [-8.606396, 41.483248], [-8.627416, 41.456296], [-8.637531, 41.446194], [-8.649541, 41.439106], [-8.661533, 41.434798], [-8.685492, 41.430688], [-8.721401, 41.429882], [-8.757297, 41.432402], [-8.80556, 41.438529], [-8.807354, 41.425915], [-8.811211, 41.415789], [-8.799695, 41.14406], [-8.732703, 41.145544], [-8.741608, 41.150345], [-8.752485, 41.159377], [-8.758878, 41.168399], [-8.762479, 41.177414], [-8.76349, 41.186424], [-8.762049, 41.195429], [-8.757819, 41.204428], [-8.750868, 41.213421], [-8.739016, 41.222403], [-8.722252, 41.229853], [-8.710305, 41.233182], [-8.686429, 41.235506], [-8.674503, 41.234135], [-8.662591, 41.230055], [-8.650706, 41.221383], [-8.644573, 41.213142], [-8.638678, 41.195801], [-8.638536, 41.195183], [-8.6385, 41.194451], [-8.634946, 41.193341], [-8.632526, 41.188624], [-8.625658, 41.186628], [-8.621132, 41.178994], [-8.613374, 41.177451], [-8.608583, 41.174095], [-8.609164, 41.172066], [-8.605845, 41.166228], [-8.602852, 41.164214], [-8.59422, 41.165149], [-8.589766, 41.167193], [-8.589194, 41.170572], [-8.585925, 41.17171], [-8.581629, 41.17803], [-8.596221, 41.194967], [-8.604841, 41.213013], [-8.60665, 41.231035], [-8.604702, 41.240036], [-8.599796, 41.249027], [-8.590323, 41.258001], [-8.578848, 41.264275], [-8.566883, 41.268339], [-8.542974, 41.272813], [-8.507128, 41.276384], [-8.495164, 41.279445], [-8.485251, 41.284603], [-8.476412, 41.293571], [-8.471095, 41.302655], [-8.451166, 41.365514], [-8.440064, 41.383476], [-8.431853, 41.392443], [-8.421019, 41.401397], [-8.398397, 41.414343], [-8.33834, 41.436981], [-8.326309, 41.442807], [-8.309898, 41.454829], [-8.302122, 41.465734], [-8.299615, 41.472782], [-8.300393, 41.490801], [-8.313518, 41.520642], [-8.33717, 41.551775], [-8.360943, 41.572942], [-8.372813, 41.585841], [-8.390513, 41.617416], [-8.397676, 41.626461], [-8.40558, 41.63551], [-8.435572, 41.662682], [-8.441752, 41.67172], [-8.439722, 41.680717], [-8.396806, 41.698514], [-8.380281, 41.707433], [-8.370604, 41.716388], [-8.364534, 41.725361], [-8.362618, 41.735769], [-8.368703, 41.73193], [-8.374122, 41.734845], [-8.384922, 41.73032], [-8.387032, 41.731891], [-8.394989, 41.730297], [-8.392493, 41.725512], [-8.393088, 41.716508], [-8.401119, 41.707544], [-8.407722, 41.704149], [-8.419766, 41.701424], [-8.431774, 41.702612], [-8.443635, 41.708793], [-8.453868, 41.697961], [-8.453255, 41.695487], [-8.461659, 41.694563], [-8.482012, 41.682123], [-8.484371, 41.674238], [-8.49308, 41.674886], [-8.499963, 41.671038], [-8.50927, 41.671233], [-8.51018, 41.672806], [-8.511967, 41.670324], [-8.509856, 41.668755], [-8.522103, 41.658811], [-8.525706, 41.659023], [-8.527769, 41.652714], [-8.534066, 41.652017], [-8.537355, 41.64998], [-8.537634, 41.646602], [-8.543876, 41.637352], [-8.543855, 41.633976], [-8.535739, 41.631529], [-8.53637, 41.628376]], [[-8.456239, 41.651824], [-8.444239, 41.650749], [-8.432272, 41.645968], [-8.420028, 41.635583], [-8.415328, 41.626552], [-8.415359, 41.617545], [-8.420593, 41.609204], [-8.432656, 41.6022], [-8.444668, 41.600814], [-8.456652, 41.602637], [-8.468605, 41.608479], [-8.478433, 41.617849], [-8.482411, 41.626874], [-8.480368, 41.638148], [-8.475394, 41.644857], [-8.468271, 41.649163], [-8.456239, 41.651824]], [[-8.421454, 41.512689], [-8.409475, 41.512186], [-8.397526, 41.508473], [-8.386228, 41.500299], [-8.379632, 41.491256], [-8.377701, 41.482238], [-8.378669, 41.473236], [-8.383156, 41.464253], [-8.391614, 41.45529], [-8.410082, 41.445345], [-8.422083, 41.442006], [-8.446035, 41.440733], [-8.469952, 41.443621], [-8.481945, 41.440883], [-8.505822, 41.419807], [-8.518068, 41.412223], [-8.54206, 41.40349], [-8.566017, 41.399019], [-8.57423, 41.393058], [-8.569751, 41.366019], [-8.574423, 41.348021], [-8.580764, 41.339036], [-8.59037, 41.330861], [-8.602358, 41.324645], [-8.614325, 41.321589], [-8.626278, 41.3209], [-8.638218, 41.32243], [-8.650146, 41.32627], [-8.670757, 41.339329], [-8.679462, 41.348361], [-8.684311, 41.357382], [-8.685741, 41.366394], [-8.683827, 41.375396], [-8.677514, 41.384386], [-8.661741, 41.394787], [-8.637778, 41.401716], [-8.601871, 41.404682], [-8.590839, 41.411134], [-8.596596, 41.429169], [-8.59824, 41.44719], [-8.592331, 41.465184], [-8.584957, 41.474165], [-8.577454, 41.480068], [-8.565435, 41.486232], [-8.553435, 41.489331], [-8.541452, 41.489905], [-8.529484, 41.488286], [-8.493651, 41.474797], [-8.481649, 41.47798], [-8.468099, 41.491699], [-8.456763, 41.500653], [-8.445469, 41.507089], [-8.421454, 41.512689]], [[-8.745711, 41.334152], [-8.721817, 41.332473], [-8.709881, 41.329097], [-8.697955, 41.323852], [-8.682126, 41.312338], [-8.674955, 41.30331], [-8.671267, 41.294292], [-8.671616, 41.285285], [-8.677228, 41.276293], [-8.686264, 41.270151], [-8.698225, 41.265309], [-8.710175, 41.26277], [-8.734053, 41.262095], [-8.745984, 41.263883], [-8.758825, 41.267485], [-8.769828, 41.27313], [-8.775601, 41.276527], [-8.784325, 41.285551], [-8.788954, 41.294568], [-8.789889, 41.303577], [-8.78736, 41.31258], [-8.780022, 41.321574], [-8.769634, 41.328139], [-8.757669, 41.332334], [-8.745711, 41.334152]]], [[[-8.043214, 41.741149], [-8.041611, 41.732128], [-8.032547, 41.723046], [-8.022921, 41.716708], [-8.010946, 41.71368], [-7.998911, 41.714659], [-7.986954, 41.722653], [-7.984558, 41.731638], [-7.987838, 41.740674], [-7.998337, 41.751586], [-8.010288, 41.756581], [-8.022311, 41.756992], [-8.034407, 41.752498], [-8.037784, 41.75011], [-8.043214, 41.741149]]], [[[-8.043451, 41.595745], [-8.045017, 41.606058], [-8.048996, 41.615098], [-8.054818, 41.624154], [-8.071595, 41.642304], [-8.074452, 41.651335], [-8.061942, 41.678254], [-8.063434, 41.687274], [-8.077486, 41.705401], [-8.083013, 41.717807], [-8.094944, 41.724202], [-8.106983, 41.723086], [-8.119121, 41.714611], [-8.131321, 41.701308], [-8.141093, 41.696887], [-8.14672, 41.687922], [-8.150033, 41.660925], [-8.163686, 41.643011], [-8.167867, 41.634035], [-8.168458, 41.617311], [-8.161215, 41.597958], [-8.145597, 41.570821], [-8.144475, 41.561805], [-8.149068, 41.534818], [-8.147384, 41.525798], [-8.142374, 41.516753], [-8.133877, 41.510468], [-8.121955, 41.505981], [-8.098045, 41.502041], [-8.083257, 41.501683], [-8.093, 41.504613], [-8.089398, 41.519242], [-8.090594, 41.522169], [-8.093588, 41.52307], [-8.091786, 41.531848], [-8.097775, 41.536127], [-8.097774, 41.537927], [-8.106759, 41.543557], [-8.101666, 41.542655], [-8.094175, 41.544904], [-8.087885, 41.542876], [-8.083389, 41.5449], [-8.080687, 41.551651], [-8.074097, 41.549848], [-8.073494, 41.553449], [-8.075891, 41.554575], [-8.076188, 41.557276], [-8.079783, 41.558403], [-8.081576, 41.565157], [-8.078879, 41.56493], [-8.075279, 41.568305], [-8.073182, 41.568079], [-8.069283, 41.570553], [-8.068081, 41.573478], [-8.056684, 41.579549], [-8.052181, 41.584498], [-8.052777, 41.587649], [-8.048277, 41.590122], [-8.047974, 41.592373], [-8.043451, 41.595745]], [[-8.107175, 41.709174], [-8.10056, 41.705584], [-8.095347, 41.695494], [-8.082732, 41.687429], [-8.077559, 41.678381], [-8.083698, 41.669561], [-8.095732, 41.668035], [-8.11023, 41.678638], [-8.119574, 41.681425], [-8.127642, 41.687779], [-8.130246, 41.696806], [-8.119203, 41.708576], [-8.107175, 41.709174]], [[-8.084351, 41.623464], [-8.07793, 41.615334], [-8.084581, 41.607204], [-8.096553, 41.60922], [-8.100611, 41.615514], [-8.096384, 41.62137], [-8.084351, 41.623464]]]]}}, {"id": "5", "type": "Feature", "properties": {"fill": "#ef6d48", "value_min": 0.73, "value_max": 0.8}, "geometry": {"type": "MultiPolygon", "coordinates": [[[[-7.728171, 41.814951], [-7.744541, 41.813738], [-7.756637, 41.810838], [-7.768785, 41.805153], [-7.77424, 41.801642], [-7.78134, 41.79271], [-7.785146, 41.783744], [-7.785232, 41.774738], [-7.781246, 41.765689], [-7.773841, 41.756603], [-7.756108, 41.745746], [-7.748417, 41.749321], [-7.747786, 41.754496], [-7.743866, 41.756509], [-7.741428, 41.761976], [-7.745541, 41.762499], [-7.757442, 41.769151], [-7.762053, 41.774491], [-7.764417, 41.783523], [-7.761161, 41.792494], [-7.747862, 41.801357], [-7.732706, 41.803403], [-7.727047, 41.802245], [-7.728171, 41.814951]]], [[[-7.853533, 41.777977], [-7.865564, 41.778083], [-7.873617, 41.775639], [-7.877666, 41.774124], [-7.885712, 41.76675], [-7.887934, 41.757764], [-7.884198, 41.748721], [-7.878194, 41.743822], [-7.866225, 41.74057], [-7.854186, 41.741302], [-7.837093, 41.748254], [-7.830993, 41.757199], [-7.831946, 41.766216], [-7.841569, 41.774162], [-7.853533, 41.777977]], [[-7.854527, 41.766443], [-7.8499, 41.75739], [-7.853973, 41.753303], [-7.86606, 41.74996], [-7.875778, 41.757646], [-7.870081, 41.766597], [-7.865731, 41.768594], [-7.854527, 41.766443]]], [[[-8.443635, 41.708793], [-8.431774, 41.702612], [-8.419766, 41.701424], [-8.407722, 41.704149], [-8.401119, 41.707544], [-8.393088, 41.716508], [-8.392493, 41.725512], [-8.394989, 41.730297], [-8.396942, 41.730518], [-8.400531, 41.726683], [-8.402934, 41.726452], [-8.404721, 41.722847], [-8.417349, 41.725067], [-8.422737, 41.720552], [-8.429643, 41.719859], [-8.430533, 41.717381], [-8.435927, 41.714441], [-8.441632, 41.713975], [-8.443635, 41.708793]]], [[[-8.107175, 41.709174], [-8.119203, 41.708576], [-8.130246, 41.696806], [-8.127642, 41.687779], [-8.119574, 41.681425], [-8.11023, 41.678638], [-8.095732, 41.668035], [-8.083698, 41.669561], [-8.077559, 41.678381], [-8.082732, 41.687429], [-8.095347, 41.695494], [-8.10056, 41.705584], [-8.107175, 41.709174]], [[-8.111544, 41.696663], [-8.119418, 41.692883], [-8.12275, 41.696749], [-8.119309, 41.700873], [-8.111544, 41.696663]]], [[[-8.456239, 41.651824], [-8.468271, 41.649163], [-8.475394, 41.644857], [-8.480368, 41.638148], [-8.482411, 41.626874], [-8.478433, 41.617849], [-8.468605, 41.608479], [-8.456652, 41.602637], [-8.444668, 41.600814], [-8.432656, 41.6022], [-8.420593, 41.609204], [-8.415359, 41.617545], [-8.415328, 41.626552], [-8.420028, 41.635583], [-8.432272, 41.645968], [-8.444239, 41.650749], [-8.456239, 41.651824]], [[-8.439122, 41.635678], [-8.432416, 41.629564], [-8.430952, 41.626631], [-8.432472, 41.623154], [-8.438938, 41.617663], [-8.444539, 41.615815], [-8.45201, 41.617726], [-8.456503, 41.620442], [-8.460329, 41.626773], [-8.456388, 41.634176], [-8.444351, 41.637696], [-8.439122, 41.635678]]], [[[-8.084351, 41.623464], [-8.096384, 41.62137], [-8.100611, 41.615514], [-8.096553, 41.60922], [-8.084581, 41.607204], [-8.07793, 41.615334], [-8.084351, 41.623464]]], [[[-8.421454, 41.512689], [-8.445469, 41.507089], [-8.456763, 41.500653], [-8.468099, 41.491699], [-8.481649, 41.47798], [-8.493651, 41.474797], [-8.529484, 41.488286], [-8.541452, 41.489905], [-8.553435, 41.489331], [-8.565435, 41.486232], [-8.577454, 41.480068], [-8.584957, 41.474165], [-8.592331, 41.465184], [-8.59824, 41.44719], [-8.596596, 41.429169], [-8.590839, 41.411134], [-8.601871, 41.404682], [-8.637778, 41.401716], [-8.661741, 41.394787], [-8.677514, 41.384386], [-8.683827, 41.375396], [-8.685741, 41.366394], [-8.684311, 41.357382], [-8.679462, 41.348361], [-8.670757, 41.339329], [-8.650146, 41.32627], [-8.638218, 41.32243], [-8.626278, 41.3209], [-8.614325, 41.321589], [-8.602358, 41.324645], [-8.59037, 41.330861], [-8.580764, 41.339036], [-8.574423, 41.348021], [-8.569751, 41.366019], [-8.57423, 41.393058], [-8.566017, 41.399019], [-8.54206, 41.40349], [-8.518068, 41.412223], [-8.505822, 41.419807], [-8.481945, 41.440883], [-8.469952, 41.443621], [-8.446035, 41.440733], [-8.422083, 41.442006], [-8.410082, 41.445345], [-8.391614, 41.45529], [-8.383156, 41.464253], [-8.378669, 41.473236], [-8.377701, 41.482238], [-8.379632, 41.491256], [-8.386228, 41.500299], [-8.397526, 41.508473], [-8.409475, 41.512186], [-8.421454, 41.512689]], [[-8.421593, 41.497159], [-8.408369, 41.491407], [-8.403768, 41.482376], [-8.40629, 41.473382], [-8.409861, 41.469698], [-8.421885, 41.464238], [-8.433854, 41.464886], [-8.44607, 41.47358], [-8.447564, 41.482595], [-8.441136, 41.491571], [-8.433584, 41.495883], [-8.421593, 41.497159]], [[-8.553551, 41.472519], [-8.541583, 41.47125], [-8.530948, 41.46495], [-8.526286, 41.455924], [-8.529794, 41.445382], [-8.541822, 41.437382], [-8.553799, 41.436224], [-8.565741, 41.440453], [-8.572156, 41.447096], [-8.574148, 41.456111], [-8.569633, 41.465101], [-8.565555, 41.46833], [-8.553551, 41.472519]], [[-8.626002, 41.369172], [-8.621953, 41.366202], [-8.621037, 41.357191], [-8.626094, 41.352973], [-8.638052, 41.352431], [-8.644361, 41.357266], [-8.643387, 41.366271], [-8.637955, 41.369815], [-8.626002, 41.369172]]], [[[-8.638678, 41.195801], [-8.644573, 41.213142], [-8.650706, 41.221383], [-8.662591, 41.230055], [-8.674503, 41.234135], [-8.686429, 41.235506], [-8.710305, 41.233182], [-8.722252, 41.229853], [-8.739016, 41.222403], [-8.750868, 41.213421], [-8.757819, 41.204428], [-8.762049, 41.195429], [-8.76349, 41.186424], [-8.762479, 41.177414], [-8.758878, 41.168399], [-8.752485, 41.159377], [-8.741608, 41.150345], [-8.732703, 41.145544], [-8.674793, 41.146932], [-8.674849, 41.153767], [-8.672489, 41.15648], [-8.66117, 41.156307], [-8.662078, 41.158104], [-8.660313, 41.160813], [-8.657033, 41.160378], [-8.654961, 41.161963], [-8.653231, 41.169174], [-8.655366, 41.175467], [-8.647955, 41.180228], [-8.647696, 41.185181], [-8.643562, 41.189926], [-8.643581, 41.192402], [-8.640929, 41.196241], [-8.638678, 41.195801]]], [[[-8.6385, 41.194451], [-8.6385, 41.194451], [-8.638536, 41.195183], [-8.6385, 41.194451]]]]}}, {"id": "3", "type": "Feature", "properties": {"fill": "#fc9863", "value_min": 0.6, "value_max": 0.67}, "geometry": {"type": "MultiPolygon", "coordinates": [[[[-8.53637, 41.628376], [-8.543431, 41.61462], [-8.554533, 41.615255], [-8.557244, 41.617046], [-8.562639, 41.61635], [-8.568056, 41.619031], [-8.570735, 41.616095], [-8.577321, 41.614269], [-8.581231, 41.615829], [-8.585766, 41.620988], [-8.591462, 41.620515], [-8.596534, 41.616668], [-8.601628, 41.615972], [-8.603996, 41.611686], [-8.613256, 41.606696], [-8.619881, 41.610269], [-8.621338, 41.604636], [-8.628833, 41.604378], [-8.636302, 41.600744], [-8.64075, 41.594422], [-8.645536, 41.593051], [-8.646744, 41.594171], [-8.649125, 41.591909], [-8.656622, 41.5921], [-8.660788, 41.588255], [-8.663794, 41.589141], [-8.665265, 41.585758], [-8.66948, 41.587989], [-8.684455, 41.586117], [-8.685608, 41.58071], [-8.697261, 41.576376], [-8.701703, 41.570277], [-8.707704, 41.570923], [-8.711586, 41.569327], [-8.716422, 41.573805], [-8.720316, 41.57356], [-8.725151, 41.577811], [-8.726633, 41.576003], [-8.734424, 41.575737], [-8.736564, 41.580228], [-8.738354, 41.579318], [-8.740778, 41.582006], [-8.74467, 41.581535], [-8.750711, 41.58623], [-8.756374, 41.582823], [-8.75635, 41.580347], [-8.762327, 41.578514], [-8.764443, 41.580303], [-8.767441, 41.580286], [-8.769874, 41.583874], [-8.768997, 41.58613], [-8.773228, 41.589482], [-8.775371, 41.593972], [-8.78556, 41.593464], [-8.797327, 41.600599], [-8.804218, 41.600109], [-8.80456, 41.604158], [-8.809434, 41.611332], [-8.828644, 41.609656], [-8.82839, 41.585633], [-8.818497, 41.554794], [-8.8221, 41.547542], [-8.821965, 41.534907], [-8.815926, 41.525624], [-8.81063, 41.5101], [-8.813279, 41.503483], [-8.812636, 41.496944], [-8.804699, 41.482068], [-8.798552, 41.474753], [-8.80154, 41.446836], [-8.80556, 41.438529], [-8.757297, 41.432402], [-8.721401, 41.429882], [-8.685492, 41.430688], [-8.661533, 41.434798], [-8.649541, 41.439106], [-8.637531, 41.446194], [-8.627416, 41.456296], [-8.606396, 41.483248], [-8.570516, 41.510142], [-8.553183, 41.526023], [-8.541151, 41.53249], [-8.493099, 41.54571], [-8.481102, 41.546599], [-8.468386, 41.536737], [-8.457242, 41.532245], [-8.44525, 41.532845], [-8.437302, 41.536589], [-8.431433, 41.545568], [-8.433536, 41.554586], [-8.444991, 41.56306], [-8.456951, 41.567038], [-8.468866, 41.576612], [-8.471682, 41.581789], [-8.492668, 41.600746], [-8.53637, 41.628376]], [[-8.515083, 41.58198], [-8.510257, 41.572953], [-8.516908, 41.568587], [-8.528787, 41.57303], [-8.52046, 41.582003], [-8.515083, 41.58198]], [[-8.636943, 41.551653], [-8.624947, 41.552439], [-8.612973, 41.54968], [-8.601036, 41.540999], [-8.595982, 41.528249], [-8.598519, 41.519251], [-8.607984, 41.510276], [-8.613226, 41.507243], [-8.625225, 41.504332], [-8.637204, 41.504909], [-8.64916, 41.509726], [-8.658786, 41.519445], [-8.660735, 41.528458], [-8.658424, 41.537459], [-8.649609, 41.54644], [-8.636943, 41.551653]]], [[[-8.362618, 41.735769], [-8.364534, 41.725361], [-8.370604, 41.716388], [-8.380281, 41.707433], [-8.396806, 41.698514], [-8.439722, 41.680717], [-8.441752, 41.67172], [-8.435572, 41.662682], [-8.40558, 41.63551], [-8.397676, 41.626461], [-8.390513, 41.617416], [-8.372813, 41.585841], [-8.360943, 41.572942], [-8.33717, 41.551775], [-8.313518, 41.520642], [-8.300393, 41.490801], [-8.299615, 41.472782], [-8.302122, 41.465734], [-8.309898, 41.454829], [-8.326309, 41.442807], [-8.33834, 41.436981], [-8.398397, 41.414343], [-8.421019, 41.401397], [-8.431853, 41.392443], [-8.440064, 41.383476], [-8.451166, 41.365514], [-8.471095, 41.302655], [-8.476412, 41.293571], [-8.485251, 41.284603], [-8.495164, 41.279445], [-8.507128, 41.276384], [-8.542974, 41.272813], [-8.566883, 41.268339], [-8.578848, 41.264275], [-8.590323, 41.258001], [-8.599796, 41.249027], [-8.604702, 41.240036], [-8.60665, 41.231035], [-8.604841, 41.213013], [-8.596221, 41.194967], [-8.581629, 41.17803], [-8.578825, 41.178941], [-8.581296, 41.191762], [-8.575958, 41.195609], [-8.576894, 41.201908], [-8.574515, 41.202593], [-8.57423, 41.20462], [-8.567971, 41.204644], [-8.565895, 41.206227], [-8.567697, 41.208246], [-8.566512, 41.209376], [-8.559636, 41.206251], [-8.554271, 41.20627], [-8.549521, 41.209214], [-8.544157, 41.209458], [-8.54238, 41.211265], [-8.532257, 41.213102], [-8.52713, 41.203215], [-8.523236, 41.200077], [-8.51163, 41.203042], [-8.510456, 41.206197], [-8.505693, 41.207113], [-8.504239, 41.213646], [-8.500076, 41.21546], [-8.50308, 41.219502], [-8.502204, 41.222656], [-8.495642, 41.222227], [-8.495947, 41.223351], [-8.490894, 41.226294], [-8.487935, 41.230354], [-8.490331, 41.232373], [-8.489156, 41.235528], [-8.486181, 41.236888], [-8.484411, 41.240495], [-8.476346, 41.237818], [-8.475756, 41.23917], [-8.470986, 41.23941], [-8.471604, 41.243459], [-8.469227, 41.245267], [-8.463258, 41.244384], [-8.459989, 41.246644], [-8.454323, 41.246886], [-8.455541, 41.251834], [-8.452276, 41.25522], [-8.449891, 41.255452], [-8.449304, 41.257479], [-8.447812, 41.257258], [-8.449028, 41.261982], [-8.439785, 41.262907], [-8.438023, 41.268989], [-8.434745, 41.269673], [-8.432691, 41.277107], [-8.427032, 41.279372], [-8.429143, 41.284319], [-8.426171, 41.287028], [-8.426488, 41.291079], [-8.425013, 41.294909], [-8.422037, 41.296942], [-8.422647, 41.299867], [-8.407744, 41.304856], [-8.406262, 41.307335], [-8.402979, 41.307568], [-8.401801, 41.311398], [-8.399712, 41.311628], [-8.400316, 41.313202], [-8.396738, 41.314336], [-8.398835, 41.316131], [-8.393775, 41.31997], [-8.393489, 41.323122], [-8.391105, 41.324253], [-8.386325, 41.323588], [-8.380382, 41.331254], [-8.375305, 41.33104], [-8.37201, 41.328346], [-8.361563, 41.329718], [-8.358276, 41.329049], [-8.357673, 41.327249], [-8.350207, 41.327264], [-8.346032, 41.328847], [-8.342462, 41.333131], [-8.333215, 41.336299], [-8.326363, 41.342163], [-8.324568, 41.341041], [-8.323674, 41.341901], [-8.327321, 41.344735], [-8.363154, 41.34731], [-8.375068, 41.35144], [-8.381231, 41.356152], [-8.388121, 41.365196], [-8.388969, 41.374208], [-8.384495, 41.383192], [-8.374696, 41.390319], [-8.362702, 41.393644], [-8.343729, 41.391974], [-8.326894, 41.38622], [-8.314905, 41.388899], [-8.28397, 41.418641], [-8.266587, 41.431087], [-8.242509, 41.443281], [-8.230499, 41.446589], [-8.218513, 41.447761], [-8.206563, 41.446035], [-8.194628, 41.443093], [-8.170813, 41.433103], [-8.147066, 41.41852], [-8.134746, 41.408608], [-8.125698, 41.399532], [-8.116613, 41.386447], [-8.113992, 41.386896], [-8.112795, 41.390723], [-8.110105, 41.390947], [-8.108011, 41.393648], [-8.103827, 41.392972], [-8.105321, 41.394998], [-8.10263, 41.396123], [-8.10801, 41.398825], [-8.108606, 41.403102], [-8.104419, 41.406252], [-8.104119, 41.408728], [-8.101727, 41.409403], [-8.102025, 41.411204], [-8.092756, 41.411201], [-8.09126, 41.414352], [-8.079893, 41.41975], [-8.077503, 41.416597], [-8.070923, 41.41862], [-8.066739, 41.416142], [-8.061953, 41.417264], [-8.059852, 41.424916], [-8.055959, 41.429415], [-8.057743, 41.438645], [-8.061033, 41.438872], [-8.064916, 41.444052], [-8.067908, 41.444279], [-8.069999, 41.447206], [-8.068788, 41.462286], [-8.073872, 41.46499], [-8.074468, 41.468141], [-8.073564, 41.474668], [-8.066374, 41.482318], [-8.066069, 41.48817], [-8.072054, 41.490199], [-8.072348, 41.495601], [-8.078333, 41.49898], [-8.078332, 41.500331], [-8.083257, 41.501683], [-8.098045, 41.502041], [-8.121955, 41.505981], [-8.133877, 41.510468], [-8.142374, 41.516753], [-8.147384, 41.525798], [-8.149068, 41.534818], [-8.144475, 41.561805], [-8.145597, 41.570821], [-8.161215, 41.597958], [-8.168458, 41.617311], [-8.167867, 41.634035], [-8.163686, 41.643011], [-8.150033, 41.660925], [-8.14672, 41.687922], [-8.141093, 41.696887], [-8.131321, 41.701308], [-8.119121, 41.714611], [-8.106983, 41.723086], [-8.094944, 41.724202], [-8.083013, 41.717807], [-8.077486, 41.705401], [-8.063434, 41.687274], [-8.061942, 41.678254], [-8.074452, 41.651335], [-8.071595, 41.642304], [-8.054818, 41.624154], [-8.048996, 41.615098], [-8.045017, 41.606058], [-8.043451, 41.595745], [-8.031467, 41.602938], [-8.02367, 41.603156], [-8.019174, 41.601802], [-8.015872, 41.603824], [-8.010473, 41.604494], [-8.005671, 41.606515], [-8.003262, 41.611464], [-7.998761, 41.612809], [-7.999669, 41.608759], [-7.996976, 41.605829], [-7.996684, 41.602003], [-7.984685, 41.603564], [-7.982292, 41.60086], [-7.975689, 41.603552], [-7.974482, 41.606701], [-7.970882, 41.607147], [-7.969091, 41.603768], [-7.965796, 41.602413], [-7.9541, 41.602846], [-7.952606, 41.600592], [-7.947808, 41.60081], [-7.945413, 41.599456], [-7.942725, 41.595625], [-7.936132, 41.594488], [-7.93791, 41.601694], [-7.937004, 41.603718], [-7.931604, 41.604384], [-7.930979, 41.612711], [-7.925556, 41.620354], [-7.920755, 41.620796], [-7.917748, 41.623041], [-7.915933, 41.627764], [-7.913229, 41.628885], [-7.912613, 41.63361], [-7.906014, 41.633147], [-7.906884, 41.641927], [-7.897869, 41.645511], [-7.89696, 41.647985], [-7.892759, 41.647976], [-7.892145, 41.651576], [-7.902319, 41.659925], [-7.899913, 41.66127], [-7.900198, 41.665547], [-7.898396, 41.665769], [-7.896885, 41.668692], [-7.883969, 41.67069], [-7.879755, 41.673607], [-7.877044, 41.676077], [-7.876723, 41.681253], [-7.873401, 41.686198], [-7.868896, 41.686413], [-7.868008, 41.68326], [-7.864403, 41.683701], [-7.864096, 41.685276], [-7.858987, 41.68639], [-7.857773, 41.689538], [-7.854776, 41.68818], [-7.852364, 41.690353], [-7.855093, 41.690212], [-7.86168, 41.694459], [-7.866934, 41.700241], [-7.867989, 41.703528], [-7.864493, 41.712501], [-7.854597, 41.718161], [-7.842597, 41.716953], [-7.834353, 41.712199], [-7.833685, 41.710185], [-7.825252, 41.708813], [-7.818621, 41.713522], [-7.815291, 41.718689], [-7.808986, 41.717996], [-7.808396, 41.715744], [-7.803298, 41.714154], [-7.790966, 41.717044], [-7.789754, 41.718971], [-7.806332, 41.727828], [-7.818299, 41.730892], [-7.830306, 41.731824], [-7.854797, 41.730418], [-7.866445, 41.728074], [-7.875684, 41.721618], [-7.879813, 41.712651], [-7.89098, 41.699645], [-7.903045, 41.696871], [-7.915, 41.700643], [-7.918859, 41.704018], [-7.922935, 41.713063], [-7.920514, 41.722048], [-7.904157, 41.739907], [-7.900411, 41.766891], [-7.896717, 41.775863], [-7.889551, 41.78266], [-7.877442, 41.786975], [-7.839679, 41.793314], [-7.818473, 41.802105], [-7.804633, 41.810969], [-7.792656, 41.81602], [-7.77817, 41.819697], [-7.742551, 41.825096], [-7.742839, 41.827178], [-7.738918, 41.82874], [-7.745569, 41.83664], [-7.756164, 41.83526], [-7.7682, 41.835683], [-7.780188, 41.838552], [-7.792113, 41.844884], [-7.802652, 41.855982], [-7.806346, 41.869914], [-7.814229, 41.873537], [-7.823863, 41.874013], [-7.825059, 41.875817], [-7.830479, 41.875831], [-7.830789, 41.874031], [-7.832894, 41.874712], [-7.83772, 41.872924], [-7.842528, 41.875187], [-7.841663, 41.866632], [-7.849515, 41.861475], [-7.858542, 41.862622], [-7.859456, 41.860148], [-7.864877, 41.859711], [-7.87033, 41.851395], [-7.873043, 41.850501], [-7.873367, 41.844875], [-7.879056, 41.85254], [-7.886268, 41.855932], [-7.888076, 41.855486], [-7.891675, 41.859094], [-7.900698, 41.861588], [-7.904318, 41.859795], [-7.907309, 41.865203], [-7.906095, 41.868126], [-7.910299, 41.871285], [-7.909985, 41.875111], [-7.915391, 41.879397], [-7.921118, 41.877833], [-7.928044, 41.87807], [-7.935283, 41.874707], [-7.937389, 41.87516], [-7.941618, 41.870891], [-7.951254, 41.871132], [-7.956367, 41.87339], [-7.956362, 41.875191], [-7.960878, 41.875648], [-7.962086, 41.874074], [-7.973828, 41.875216], [-7.987996, 41.869157], [-7.990123, 41.860157], [-7.995547, 41.858138], [-7.994047, 41.855211], [-7.996162, 41.851837], [-8.003089, 41.850494], [-8.005804, 41.847346], [-8.007928, 41.838796], [-8.010941, 41.836773], [-8.013965, 41.828899], [-8.017873, 41.831379], [-8.02901, 41.829589], [-8.037134, 41.831171], [-8.041351, 41.828023], [-8.041054, 41.825097], [-8.045268, 41.824425], [-8.046775, 41.821951], [-8.056712, 41.81588], [-8.06664, 41.817012], [-8.072961, 41.813414], [-8.078678, 41.813417], [-8.082892, 41.810493], [-8.091013, 41.812521], [-8.093421, 41.811397], [-8.093723, 41.808471], [-8.101845, 41.809824], [-8.104853, 41.81185], [-8.115984, 41.812302], [-8.123807, 41.808702], [-8.138247, 41.808477], [-8.139751, 41.813203], [-8.14276, 41.812978], [-8.144866, 41.815228], [-8.149078, 41.814777], [-8.153291, 41.817703], [-8.158106, 41.818377], [-8.165326, 41.81815], [-8.173744, 41.808019], [-8.177655, 41.808242], [-8.183676, 41.812741], [-8.190291, 41.809587], [-8.197158, 41.814129], [-8.201063, 41.808724], [-8.204973, 41.807372], [-8.205872, 41.804445], [-8.213692, 41.803765], [-8.217598, 41.80016], [-8.217589, 41.793634], [-8.224207, 41.794303], [-8.229917, 41.791598], [-8.240744, 41.791588], [-8.24074, 41.789338], [-8.244347, 41.787984], [-8.245546, 41.785731], [-8.251257, 41.784375], [-8.251845, 41.777172], [-8.257551, 41.773564], [-8.261762, 41.774235], [-8.271366, 41.766346], [-8.280681, 41.764083], [-8.284038, 41.761109], [-8.284931, 41.757507], [-8.305674, 41.758152], [-8.311096, 41.762195], [-8.318308, 41.761283], [-8.325233, 41.765098], [-8.328234, 41.763292], [-8.336653, 41.763728], [-8.341756, 41.761468], [-8.344765, 41.762363], [-8.349267, 41.760103], [-8.352557, 41.755145], [-8.34982, 41.745922], [-8.349814, 41.744122], [-8.352516, 41.743441], [-8.352203, 41.739616], [-8.357897, 41.735103], [-8.362618, 41.735769]], [[-7.864866, 41.817671], [-7.861935, 41.811551], [-7.865026, 41.808604], [-7.877079, 41.80774], [-7.881658, 41.811744], [-7.876882, 41.819053], [-7.864866, 41.817671]], [[-8.168036, 41.796162], [-8.154158, 41.792795], [-8.142214, 41.785927], [-8.133903, 41.777896], [-8.128388, 41.768847], [-8.125901, 41.759821], [-8.126336, 41.750818], [-8.129979, 41.741839], [-8.142075, 41.723916], [-8.131101, 41.71769], [-8.129908, 41.714817], [-8.131191, 41.710952], [-8.143265, 41.706919], [-8.155198, 41.713532], [-8.163246, 41.706058], [-8.1674, 41.699536], [-8.170539, 41.688096], [-8.179752, 41.673231], [-8.191887, 41.663472], [-8.203968, 41.657846], [-8.216015, 41.654882], [-8.228034, 41.654117], [-8.24003, 41.655256], [-8.252, 41.658678], [-8.27166, 41.670768], [-8.277264, 41.67981], [-8.27853, 41.688825], [-8.270466, 41.706788], [-8.24407, 41.733639], [-8.237873, 41.742605], [-8.226586, 41.76955], [-8.214428, 41.785301], [-8.202301, 41.79272], [-8.190223, 41.796099], [-8.178172, 41.797263], [-8.168036, 41.796162]], [[-7.949777, 41.779104], [-7.937753, 41.778563], [-7.92577, 41.775556], [-7.918583, 41.767064], [-7.917685, 41.758049], [-7.921485, 41.749077], [-7.926294, 41.744114], [-7.938433, 41.737307], [-7.95048, 41.735943], [-7.962429, 41.740667], [-7.971872, 41.749539], [-7.97682, 41.75859], [-7.977477, 41.767603], [-7.973935, 41.773329], [-7.969545, 41.776539], [-7.961808, 41.779235], [-7.949777, 41.779104]], [[-8.043214, 41.741149], [-8.037784, 41.75011], [-8.034407, 41.752498], [-8.022311, 41.756992], [-8.010288, 41.756581], [-7.998337, 41.751586], [-7.987838, 41.740674], [-7.984558, 41.731638], [-7.986954, 41.722653], [-7.998911, 41.714659], [-8.010946, 41.71368], [-8.022921, 41.716708], [-8.032547, 41.723046], [-8.041611, 41.732128], [-8.043214, 41.741149]], [[-8.383777, 41.694438], [-8.359711, 41.697524], [-8.347708, 41.696052], [-8.330471, 41.68914], [-8.319985, 41.680071], [-8.31568, 41.671038], [-8.316185, 41.662034], [-8.320714, 41.653054], [-8.329152, 41.644096], [-8.34652, 41.635189], [-8.360358, 41.632261], [-8.37236, 41.632581], [-8.384336, 41.635735], [-8.396292, 41.641086], [-8.408214, 41.650485], [-8.417686, 41.662593], [-8.418765, 41.671606], [-8.413332, 41.680585], [-8.397418, 41.68951], [-8.383777, 41.694438]], [[-8.011345, 41.687671], [-7.999364, 41.685418], [-7.983741, 41.677589], [-7.975891, 41.668513], [-7.971858, 41.65947], [-7.971761, 41.650462], [-7.975791, 41.641491], [-7.98472, 41.632563], [-8.000278, 41.626319], [-8.012295, 41.625513], [-8.024274, 41.627232], [-8.036203, 41.632325], [-8.048079, 41.641078], [-8.054825, 41.651175], [-8.055251, 41.660185], [-8.047583, 41.674773], [-8.035426, 41.684393], [-8.023368, 41.687233], [-8.011345, 41.687671]], [[-8.241411, 41.537469], [-8.229448, 41.535294], [-8.21753, 41.529501], [-8.207002, 41.517217], [-8.204378, 41.508192], [-8.204969, 41.499189], [-8.208651, 41.490207], [-8.218127, 41.479883], [-8.230168, 41.474548], [-8.242145, 41.474539], [-8.254078, 41.47831], [-8.265962, 41.486613], [-8.274773, 41.49965], [-8.276817, 41.50867], [-8.275453, 41.517669], [-8.265465, 41.530592], [-8.253416, 41.535972], [-8.241411, 41.537469]]], [[[-8.292539, 41.312253], [-8.296428, 41.315661], [-8.297618, 41.313846], [-8.296116, 41.310022], [-8.292539, 41.312253]]], [[[-8.300006, 41.318795], [-8.300006, 41.318795], [-8.300019, 41.318807], [-8.300006, 41.318795]]], [[[-8.300775, 41.319469], [-8.300775, 41.319469], [-8.300917, 41.319593], [-8.300775, 41.319469]]], [[[-8.301025, 41.319694], [-8.301025, 41.319694], [-8.301216, 41.319901], [-8.301025, 41.319694]]], [[[-8.301441, 41.320143], [-8.301441, 41.320143], [-8.301516, 41.320224], [-8.301441, 41.320143]]], [[[-8.306929, 41.325763], [-8.306929, 41.325763], [-8.308701, 41.32751], [-8.306929, 41.325763]]], [[[-8.308753, 41.32756], [-8.313495, 41.333062], [-8.31139, 41.328007], [-8.308753, 41.32756]]], [[[-8.313776, 41.333405], [-8.313776, 41.333405], [-8.313794, 41.333427], [-8.313776, 41.333405]]], [[[-8.316269, 41.336102], [-8.322477, 41.34097], [-8.320676, 41.338121], [-8.316269, 41.336102]]], [[[-8.745711, 41.334152], [-8.757669, 41.332334], [-8.769634, 41.328139], [-8.780022, 41.321574], [-8.78736, 41.31258], [-8.789889, 41.303577], [-8.788954, 41.294568], [-8.784325, 41.285551], [-8.775601, 41.276527], [-8.769828, 41.27313], [-8.758825, 41.267485], [-8.745984, 41.263883], [-8.734053, 41.262095], [-8.710175, 41.26277], [-8.698225, 41.265309], [-8.686264, 41.270151], [-8.677228, 41.276293], [-8.671616, 41.285285], [-8.671267, 41.294292], [-8.674955, 41.30331], [-8.682126, 41.312338], [-8.697955, 41.323852], [-8.709881, 41.329097], [-8.721817, 41.332473], [-8.745711, 41.334152]]]]}}, {"id": "0", "type": "Feature", "properties": {"fill": "#eef8a7", "value_min": 0.4, "value_max": 0.47}, "geometry": {"type": "MultiPolygon", "coordinates": [[[[-8.215596, 41.689347], [-8.203583, 41.68909], [-8.199184, 41.697307], [-8.203419, 41.702394], [-8.215439, 41.702252], [-8.220093, 41.697451], [-8.215596, 41.689347]]], [[[-8.39167, 41.662458], [-8.384125, 41.657943], [-8.37209, 41.660411], [-8.3698, 41.662341], [-8.369942, 41.671348], [-8.371968, 41.67298], [-8.383957, 41.675488], [-8.391396, 41.671464], [-8.39167, 41.662458]]], [[[-8.023894, 41.652393], [-8.014609, 41.659844], [-8.023679, 41.666657], [-8.033893, 41.660008], [-8.023894, 41.652393]]], [[[-8.193122, 41.375626], [-8.192494, 41.382005], [-8.196738, 41.391042], [-8.207136, 41.398936], [-8.219058, 41.40227], [-8.231029, 41.401662], [-8.243054, 41.396355], [-8.248622, 41.391393], [-8.252785, 41.382412], [-8.251841, 41.373399], [-8.245789, 41.364781], [-8.244272, 41.368384], [-8.239197, 41.371315], [-8.232024, 41.369971], [-8.224854, 41.370878], [-8.21738, 41.368182], [-8.211712, 41.376065], [-8.200358, 41.377648], [-8.194976, 41.374275], [-8.193122, 41.375626]]]]}}, {"id": "6", "type": "Feature", "properties": {"fill": "#e85c3f", "value_min": 0.8, "value_max": 0.87}, "geometry": {"type": "MultiPolygon", "coordinates": [[[[-7.727047, 41.802245], [-7.732706, 41.803403], [-7.747862, 41.801357], [-7.761161, 41.792494], [-7.764417, 41.783523], [-7.762053, 41.774491], [-7.757442, 41.769151], [-7.745541, 41.762499], [-7.741428, 41.761976], [-7.734779, 41.767731], [-7.726937, 41.771755], [-7.7254, 41.777152], [-7.727191, 41.779184], [-7.724177, 41.780299], [-7.725372, 41.781653], [-7.722296, 41.792446], [-7.728879, 41.797871], [-7.727047, 41.802245]]], [[[-7.854527, 41.766443], [-7.865731, 41.768594], [-7.870081, 41.766597], [-7.875778, 41.757646], [-7.86606, 41.74996], [-7.853973, 41.753303], [-7.8499, 41.75739], [-7.854527, 41.766443]]], [[[-8.111544, 41.696663], [-8.119309, 41.700873], [-8.12275, 41.696749], [-8.119418, 41.692883], [-8.111544, 41.696663]]], [[[-8.439122, 41.635678], [-8.444351, 41.637696], [-8.456388, 41.634176], [-8.460329, 41.626773], [-8.456503, 41.620442], [-8.45201, 41.617726], [-8.444539, 41.615815], [-8.438938, 41.617663], [-8.432472, 41.623154], [-8.430952, 41.626631], [-8.432416, 41.629564], [-8.439122, 41.635678]]], [[[-8.421593, 41.497159], [-8.433584, 41.495883], [-8.441136, 41.491571], [-8.447564, 41.482595], [-8.44607, 41.47358], [-8.433854, 41.464886], [-8.421885, 41.464238], [-8.409861, 41.469698], [-8.40629, 41.473382], [-8.403768, 41.482376], [-8.408369, 41.491407], [-8.421593, 41.497159]]], [[[-8.553551, 41.472519], [-8.565555, 41.46833], [-8.569633, 41.465101], [-8.574148, 41.456111], [-8.572156, 41.447096], [-8.565741, 41.440453], [-8.553799, 41.436224], [-8.541822, 41.437382], [-8.529794, 41.445382], [-8.526286, 41.455924], [-8.530948, 41.46495], [-8.541583, 41.47125], [-8.553551, 41.472519]]], [[[-8.626002, 41.369172], [-8.637955, 41.369815], [-8.643387, 41.366271], [-8.644361, 41.357266], [-8.638052, 41.352431], [-8.626094, 41.352973], [-8.621037, 41.357191], [-8.621953, 41.366202], [-8.626002, 41.369172]]]]}}, {"id": "2", "type": "Feature", "properties": {"fill": "#fecb90", "value_min": 0.53, "value_max": 0.6}, "geometry": {"type": "MultiPolygon", "coordinates": [[[[-7.806346, 41.869914], [-7.802652, 41.855982], [-7.792113, 41.844884], [-7.780188, 41.838552], [-7.7682, 41.835683], [-7.756164, 41.83526], [-7.745569, 41.83664], [-7.74729, 41.837772], [-7.746349, 41.84407], [-7.750246, 41.846784], [-7.750532, 41.849261], [-7.743309, 41.849012], [-7.746901, 41.8524], [-7.746881, 41.855776], [-7.73843, 41.859348], [-7.734159, 41.868337], [-7.730228, 41.871024], [-7.729293, 41.875972], [-7.720533, 41.880218], [-7.720523, 41.881793], [-7.725335, 41.882935], [-7.726208, 41.887665], [-7.737044, 41.888828], [-7.73944, 41.891087], [-7.74246, 41.889747], [-7.742785, 41.885922], [-7.756022, 41.888441], [-7.758719, 41.890926], [-7.756592, 41.89407], [-7.758076, 41.897901], [-7.764097, 41.898595], [-7.779227, 41.886264], [-7.785257, 41.885157], [-7.788886, 41.882467], [-7.794007, 41.882257], [-7.796739, 41.878214], [-7.794349, 41.87438], [-7.797064, 41.873488], [-7.803381, 41.874857], [-7.804612, 41.869684], [-7.806346, 41.869914]], [[-7.747941, 41.864405], [-7.749536, 41.855415], [-7.75582, 41.853053], [-7.764956, 41.855582], [-7.766711, 41.864608], [-7.755519, 41.868539], [-7.747941, 41.864405]]], [[[-7.864866, 41.817671], [-7.876882, 41.819053], [-7.881658, 41.811744], [-7.877079, 41.80774], [-7.865026, 41.808604], [-7.861935, 41.811551], [-7.864866, 41.817671]]], [[[-8.168036, 41.796162], [-8.178172, 41.797263], [-8.190223, 41.796099], [-8.202301, 41.79272], [-8.214428, 41.785301], [-8.226586, 41.76955], [-8.237873, 41.742605], [-8.24407, 41.733639], [-8.270466, 41.706788], [-8.27853, 41.688825], [-8.277264, 41.67981], [-8.27166, 41.670768], [-8.252, 41.658678], [-8.24003, 41.655256], [-8.228034, 41.654117], [-8.216015, 41.654882], [-8.203968, 41.657846], [-8.191887, 41.663472], [-8.179752, 41.673231], [-8.170539, 41.688096], [-8.1674, 41.699536], [-8.163246, 41.706058], [-8.155198, 41.713532], [-8.143265, 41.706919], [-8.131191, 41.710952], [-8.129908, 41.714817], [-8.131101, 41.71769], [-8.142075, 41.723916], [-8.129979, 41.741839], [-8.126336, 41.750818], [-8.125901, 41.759821], [-8.128388, 41.768847], [-8.133903, 41.777896], [-8.142214, 41.785927], [-8.154158, 41.792795], [-8.168036, 41.796162]], [[-8.166584, 41.762629], [-8.154633, 41.756663], [-8.150295, 41.750998], [-8.149598, 41.741985], [-8.157057, 41.733033], [-8.167035, 41.727806], [-8.179072, 41.726705], [-8.191047, 41.730565], [-8.193781, 41.733297], [-8.197535, 41.74233], [-8.195038, 41.75132], [-8.190729, 41.755903], [-8.178617, 41.762382], [-8.166584, 41.762629]], [[-8.203201, 41.720007], [-8.191271, 41.712728], [-8.187011, 41.706228], [-8.184619, 41.697204], [-8.187067, 41.688215], [-8.191644, 41.682896], [-8.203743, 41.676097], [-8.21577, 41.675055], [-8.229364, 41.679499], [-8.238247, 41.688565], [-8.239682, 41.697582], [-8.236153, 41.706565], [-8.227313, 41.714354], [-8.21523, 41.719497], [-8.203201, 41.720007]]], [[[-7.949777, 41.779104], [-7.961808, 41.779235], [-7.969545, 41.776539], [-7.973935, 41.773329], [-7.977477, 41.767603], [-7.97682, 41.75859], [-7.971872, 41.749539], [-7.962429, 41.740667], [-7.95048, 41.735943], [-7.938433, 41.737307], [-7.926294, 41.744114], [-7.921485, 41.749077], [-7.917685, 41.758049], [-7.918583, 41.767064], [-7.92577, 41.775556], [-7.937753, 41.778563], [-7.949777, 41.779104]], [[-7.937931, 41.767758], [-7.932178, 41.758184], [-7.938199, 41.75148], [-7.950246, 41.75031], [-7.958666, 41.758427], [-7.953085, 41.767384], [-7.949948, 41.76864], [-7.937931, 41.767758]]], [[[-7.833685, 41.710185], [-7.834353, 41.712199], [-7.842597, 41.716953], [-7.854597, 41.718161], [-7.864493, 41.712501], [-7.867989, 41.703528], [-7.866934, 41.700241], [-7.86168, 41.694459], [-7.855093, 41.690212], [-7.852364, 41.690353], [-7.847538, 41.695365], [-7.837309, 41.699391], [-7.835792, 41.702763], [-7.839679, 41.706599], [-7.838465, 41.709522], [-7.833685, 41.710185]]], [[[-8.383777, 41.694438], [-8.397418, 41.68951], [-8.413332, 41.680585], [-8.418765, 41.671606], [-8.417686, 41.662593], [-8.408214, 41.650485], [-8.396292, 41.641086], [-8.384336, 41.635735], [-8.37236, 41.632581], [-8.360358, 41.632261], [-8.34652, 41.635189], [-8.329152, 41.644096], [-8.320714, 41.653054], [-8.316185, 41.662034], [-8.31568, 41.671038], [-8.319985, 41.680071], [-8.330471, 41.68914], [-8.347708, 41.696052], [-8.359711, 41.697524], [-8.383777, 41.694438]], [[-8.383863, 41.685427], [-8.371846, 41.68555], [-8.359873, 41.681191], [-8.351277, 41.671245], [-8.351065, 41.662236], [-8.357193, 41.653264], [-8.372222, 41.646801], [-8.384228, 41.64708], [-8.396192, 41.651889], [-8.405405, 41.66253], [-8.405533, 41.671538], [-8.397493, 41.680503], [-8.383863, 41.685427]]], [[[-8.011345, 41.687671], [-8.023368, 41.687233], [-8.035426, 41.684393], [-8.047583, 41.674773], [-8.055251, 41.660185], [-8.054825, 41.651175], [-8.048079, 41.641078], [-8.036203, 41.632325], [-8.024274, 41.627232], [-8.012295, 41.625513], [-8.000278, 41.626319], [-7.98472, 41.632563], [-7.975791, 41.641491], [-7.971761, 41.650462], [-7.971858, 41.65947], [-7.975891, 41.668513], [-7.983741, 41.677589], [-7.999364, 41.685418], [-8.011345, 41.687671]], [[-8.023538, 41.675931], [-8.011554, 41.673994], [-8.003137, 41.668752], [-7.998747, 41.659707], [-8.001349, 41.650723], [-8.012025, 41.643226], [-8.024053, 41.641862], [-8.036005, 41.645604], [-8.041781, 41.651067], [-8.044474, 41.660096], [-8.039776, 41.669064], [-8.035604, 41.672476], [-8.023538, 41.675931]]], [[[-8.515083, 41.58198], [-8.52046, 41.582003], [-8.528787, 41.57303], [-8.516908, 41.568587], [-8.510257, 41.572953], [-8.515083, 41.58198]]], [[[-8.636943, 41.551653], [-8.649609, 41.54644], [-8.658424, 41.537459], [-8.660735, 41.528458], [-8.658786, 41.519445], [-8.64916, 41.509726], [-8.637204, 41.504909], [-8.625225, 41.504332], [-8.613226, 41.507243], [-8.607984, 41.510276], [-8.598519, 41.519251], [-8.595982, 41.528249], [-8.601036, 41.540999], [-8.612973, 41.54968], [-8.624947, 41.552439], [-8.636943, 41.551653]]], [[[-8.241411, 41.537469], [-8.253416, 41.535972], [-8.265465, 41.530592], [-8.275453, 41.517669], [-8.276817, 41.50867], [-8.274773, 41.49965], [-8.265962, 41.486613], [-8.254078, 41.47831], [-8.242145, 41.474539], [-8.230168, 41.474548], [-8.218127, 41.479883], [-8.208651, 41.490207], [-8.204969, 41.499189], [-8.204378, 41.508192], [-8.207002, 41.517217], [-8.21753, 41.529501], [-8.229448, 41.535294], [-8.241411, 41.537469]]], [[[-8.116613, 41.386447], [-8.125698, 41.399532], [-8.134746, 41.408608], [-8.147066, 41.41852], [-8.170813, 41.433103], [-8.194628, 41.443093], [-8.206563, 41.446035], [-8.218513, 41.447761], [-8.230499, 41.446589], [-8.242509, 41.443281], [-8.266587, 41.431087], [-8.28397, 41.418641], [-8.314905, 41.388899], [-8.326894, 41.38622], [-8.343729, 41.391974], [-8.362702, 41.393644], [-8.374696, 41.390319], [-8.384495, 41.383192], [-8.388969, 41.374208], [-8.388121, 41.365196], [-8.381231, 41.356152], [-8.375068, 41.35144], [-8.363154, 41.34731], [-8.327321, 41.344735], [-8.323674, 41.341901], [-8.322477, 41.34097], [-8.316269, 41.336102], [-8.313802, 41.336331], [-8.313794, 41.333427], [-8.313776, 41.333405], [-8.313495, 41.333062], [-8.308753, 41.32756], [-8.308701, 41.32751], [-8.306929, 41.325763], [-8.305116, 41.326891], [-8.303024, 41.325994], [-8.301516, 41.320224], [-8.301441, 41.320143], [-8.301216, 41.319901], [-8.301025, 41.319694], [-8.300917, 41.319593], [-8.300775, 41.319469], [-8.300019, 41.318807], [-8.300006, 41.318795], [-8.29733, 41.317899], [-8.296428, 41.315661], [-8.292539, 41.312253], [-8.289255, 41.312508], [-8.284488, 41.316341], [-8.281801, 41.316569], [-8.281808, 41.319721], [-8.278828, 41.321976], [-8.278238, 41.325128], [-8.273161, 41.325134], [-8.269582, 41.326939], [-8.265709, 41.331221], [-8.269004, 41.336169], [-8.263339, 41.340902], [-8.262751, 41.345405], [-8.25887, 41.346571], [-8.267385, 41.355483], [-8.272443, 41.364523], [-8.274542, 41.373544], [-8.274165, 41.382549], [-8.271119, 41.391537], [-8.264723, 41.400504], [-8.254876, 41.408602], [-8.242843, 41.414523], [-8.230845, 41.417282], [-8.218872, 41.41782], [-8.206924, 41.416382], [-8.195005, 41.412563], [-8.176328, 41.399905], [-8.169648, 41.39085], [-8.1657, 41.379239], [-8.1642, 41.38059], [-8.158223, 41.378791], [-8.157026, 41.376991], [-8.152544, 41.375866], [-8.151049, 41.37339], [-8.145073, 41.374742], [-8.139694, 41.377894], [-8.133418, 41.374292], [-8.12804, 41.374743], [-8.119074, 41.377218], [-8.119672, 41.378569], [-8.116683, 41.380144], [-8.117877, 41.385771], [-8.116613, 41.386447]]]]}}, {"id": "1", "type": "Feature", "properties": {"fill": "#fffebe", "value_min": 0.47, "value_max": 0.53}, "geometry": {"type": "MultiPolygon", "coordinates": [[[[-7.747941, 41.864405], [-7.755519, 41.868539], [-7.766711, 41.864608], [-7.764956, 41.855582], [-7.75582, 41.853053], [-7.749536, 41.855415], [-7.747941, 41.864405]]], [[[-7.937931, 41.767758], [-7.949948, 41.76864], [-7.953085, 41.767384], [-7.958666, 41.758427], [-7.950246, 41.75031], [-7.938199, 41.75148], [-7.932178, 41.758184], [-7.937931, 41.767758]]], [[[-8.166584, 41.762629], [-8.178617, 41.762382], [-8.190729, 41.755903], [-8.195038, 41.75132], [-8.197535, 41.74233], [-8.193781, 41.733297], [-8.191047, 41.730565], [-8.179072, 41.726705], [-8.167035, 41.727806], [-8.157057, 41.733033], [-8.149598, 41.741985], [-8.150295, 41.750998], [-8.154633, 41.756663], [-8.166584, 41.762629]]], [[[-8.203201, 41.720007], [-8.21523, 41.719497], [-8.227313, 41.714354], [-8.236153, 41.706565], [-8.239682, 41.697582], [-8.238247, 41.688565], [-8.229364, 41.679499], [-8.21577, 41.675055], [-8.203743, 41.676097], [-8.191644, 41.682896], [-8.187067, 41.688215], [-8.184619, 41.697204], [-8.187011, 41.706228], [-8.191271, 41.712728], [-8.203201, 41.720007]], [[-8.215596, 41.689347], [-8.220093, 41.697451], [-8.215439, 41.702252], [-8.203419, 41.702394], [-8.199184, 41.697307], [-8.203583, 41.68909], [-8.215596, 41.689347]]], [[[-8.383863, 41.685427], [-8.397493, 41.680503], [-8.405533, 41.671538], [-8.405405, 41.66253], [-8.396192, 41.651889], [-8.384228, 41.64708], [-8.372222, 41.646801], [-8.357193, 41.653264], [-8.351065, 41.662236], [-8.351277, 41.671245], [-8.359873, 41.681191], [-8.371846, 41.68555], [-8.383863, 41.685427]], [[-8.39167, 41.662458], [-8.391396, 41.671464], [-8.383957, 41.675488], [-8.371968, 41.67298], [-8.369942, 41.671348], [-8.3698, 41.662341], [-8.37209, 41.660411], [-8.384125, 41.657943], [-8.39167, 41.662458]]], [[[-8.023538, 41.675931], [-8.035604, 41.672476], [-8.039776, 41.669064], [-8.044474, 41.660096], [-8.041781, 41.651067], [-8.036005, 41.645604], [-8.024053, 41.641862], [-8.012025, 41.643226], [-8.001349, 41.650723], [-7.998747, 41.659707], [-8.003137, 41.668752], [-8.011554, 41.673994], [-8.023538, 41.675931]], [[-8.023894, 41.652393], [-8.033893, 41.660008], [-8.023679, 41.666657], [-8.014609, 41.659844], [-8.023894, 41.652393]]], [[[-8.1657, 41.379239], [-8.169648, 41.39085], [-8.176328, 41.399905], [-8.195005, 41.412563], [-8.206924, 41.416382], [-8.218872, 41.41782], [-8.230845, 41.417282], [-8.242843, 41.414523], [-8.254876, 41.408602], [-8.264723, 41.400504], [-8.271119, 41.391537], [-8.274165, 41.382549], [-8.274542, 41.373544], [-8.272443, 41.364523], [-8.267385, 41.355483], [-8.25887, 41.346571], [-8.249622, 41.353072], [-8.251123, 41.356897], [-8.248141, 41.360052], [-8.248448, 41.364328], [-8.245789, 41.364781], [-8.251841, 41.373399], [-8.252785, 41.382412], [-8.248622, 41.391393], [-8.243054, 41.396355], [-8.231029, 41.401662], [-8.219058, 41.40227], [-8.207136, 41.398936], [-8.196738, 41.391042], [-8.192494, 41.382005], [-8.193122, 41.375626], [-8.175853, 41.376309], [-8.173463, 41.377661], [-8.168382, 41.377438], [-8.1657, 41.379239]]]]}}]}