{"type": "FeatureCollection", "features": [{"id": "2", "type": "Feature", "properties": {"fill": "#74c16c", "value_min": 0.13, "value_max": -0.2}, "geometry": {"type": "MultiPolygon", "coordinates": [[[[-8.361588, 41.507414], [-8.369201, 41.500207], [-8.373148, 41.491221], [-8.373264, 41.482214], [-8.369774, 41.473188], [-8.362003, 41.465071], [-8.350085, 41.459395], [-8.338124, 41.458114], [-8.32613, 41.460174], [-8.318528, 41.463888], [-8.308258, 41.472834], [-8.304667, 41.48182], [-8.305019, 41.490829], [-8.309311, 41.499863], [-8.31369, 41.504318], [-8.325597, 41.51157], [-8.337556, 41.513975], [-8.349551, 41.51283], [-8.361588, 41.507414]], [[-8.337636, 41.506089], [-8.322454, 41.499941], [-8.316072, 41.490896], [-8.316048, 41.481888], [-8.326023, 41.470473], [-8.338035, 41.466911], [-8.349997, 41.468231], [-8.35831, 41.473124], [-8.365047, 41.482169], [-8.365066, 41.491176], [-8.358301, 41.500146], [-8.34963, 41.504968], [-8.337636, 41.506089]]], [[[-8.642721, 41.192631], [-8.644482, 41.204134], [-8.650728, 41.21722], [-8.662595, 41.229384], [-8.674495, 41.23588], [-8.686413, 41.238974], [-8.710279, 41.239254], [-8.722222, 41.236996], [-8.736925, 41.231406], [-8.750934, 41.222429], [-8.759109, 41.213439], [-8.764274, 41.204442], [-8.766774, 41.186431], [-8.764703, 41.177419], [-8.76003, 41.168401], [-8.752301, 41.159377], [-8.739308, 41.15034], [-8.727839, 41.14565], [-8.67527, 41.147484], [-8.676216, 41.146621], [-8.675685, 41.146784], [-8.675682, 41.146785], [-8.674794, 41.147092], [-8.674849, 41.153767], [-8.672489, 41.15648], [-8.66117, 41.156307], [-8.662078, 41.158104], [-8.660313, 41.160813], [-8.657033, 41.160378], [-8.654961, 41.161963], [-8.653231, 41.169174], [-8.655366, 41.175467], [-8.647955, 41.180228], [-8.647696, 41.185181], [-8.642721, 41.192631]], [[-8.698395, 41.228348], [-8.686466, 41.227888], [-8.674551, 41.224576], [-8.66266, 41.216684], [-8.654523, 41.204165], [-8.652787, 41.195151], [-8.654159, 41.186148], [-8.662888, 41.172213], [-8.674849, 41.164221], [-8.686787, 41.160605], [-8.69871, 41.159758], [-8.710622, 41.161381], [-8.726271, 41.168326], [-8.735878, 41.177356], [-8.740414, 41.186374], [-8.741414, 41.195385], [-8.73917, 41.204387], [-8.732989, 41.213381], [-8.72063, 41.22236], [-8.710336, 41.226332], [-8.698395, 41.228348]]]]}}, {"id": "1", "type": "Feature", "properties": {"fill": "#50b061", "value_min": 0.07, "value_max": -0.13}, "geometry": {"type": "MultiPolygon", "coordinates": [[[[-8.337636, 41.506089], [-8.34963, 41.504968], [-8.358301, 41.500146], [-8.365066, 41.491176], [-8.365047, 41.482169], [-8.35831, 41.473124], [-8.349997, 41.468231], [-8.338035, 41.466911], [-8.326023, 41.470473], [-8.316048, 41.481888], [-8.316072, 41.490896], [-8.322454, 41.499941], [-8.337636, 41.506089]], [[-8.337712, 41.498621], [-8.32618, 41.490955], [-8.326606, 41.48195], [-8.337953, 41.474999], [-8.349912, 41.476775], [-8.355598, 41.482116], [-8.355867, 41.491125], [-8.34971, 41.496936], [-8.337712, 41.498621]]], [[[-8.698395, 41.228348], [-8.710336, 41.226332], [-8.72063, 41.22236], [-8.732989, 41.213381], [-8.73917, 41.204387], [-8.741414, 41.195385], [-8.740414, 41.186374], [-8.735878, 41.177356], [-8.726271, 41.168326], [-8.710622, 41.161381], [-8.69871, 41.159758], [-8.686787, 41.160605], [-8.674849, 41.164221], [-8.662888, 41.172213], [-8.654159, 41.186148], [-8.652787, 41.195151], [-8.654523, 41.204165], [-8.66266, 41.216684], [-8.674551, 41.224576], [-8.686466, 41.227888], [-8.698395, 41.228348]], [[-8.686516, 41.217318], [-8.674514, 41.213231], [-8.666667, 41.2042], [-8.66471, 41.195187], [-8.668441, 41.18619], [-8.674772, 41.179909], [-8.686717, 41.175287], [-8.698639, 41.17528], [-8.710541, 41.179834], [-8.717529, 41.186321], [-8.720847, 41.195337], [-8.718668, 41.204339], [-8.709713, 41.213325], [-8.698447, 41.21717], [-8.686516, 41.217318]]]]}}, {"id": "0", "type": "Feature", "properties": {"fill": "#2ba055", "value_min": 0.0, "value_max": -0.07}, "geometry": {"type": "MultiPolygon", "coordinates": [[[[-8.337712, 41.498621], [-8.34971, 41.496936], [-8.355867, 41.491125], [-8.355598, 41.482116], [-8.349912, 41.476775], [-8.337953, 41.474999], [-8.326606, 41.48195], [-8.32618, 41.490955], [-8.337712, 41.498621]]], [[[-8.686516, 41.217318], [-8.698447, 41.21717], [-8.709713, 41.213325], [-8.718668, 41.204339], [-8.720847, 41.195337], [-8.717529, 41.186321], [-8.710541, 41.179834], [-8.698639, 41.17528], [-8.686717, 41.175287], [-8.674772, 41.179909], [-8.668441, 41.18619], [-8.66471, 41.195187], [-8.666667, 41.2042], [-8.674514, 41.213231], [-8.686516, 41.217318]]]]}}, {"id": "10", "type": "Feature", "properties": {"fill": "#f77f52", "value_min": 0.67, "value_max": -0.73}, "geometry": {"type": "MultiPolygon", "coordinates": [[[[-8.516888, 41.571214], [-8.514236, 41.572969], [-8.516839, 41.577789], [-8.521512, 41.573], [-8.516888, 41.571214]]], [[[-8.565018, 41.208824], [-8.555359, 41.207161], [-8.542365, 41.212781], [-8.539452, 41.221778], [-8.545116, 41.230808], [-8.555175, 41.234363], [-8.567118, 41.232775], [-8.569971, 41.230904], [-8.575542, 41.221916], [-8.571971, 41.212895], [-8.566809, 41.209132], [-8.565018, 41.208824]]]]}}, {"id": "3", "type": "Feature", "properties": {"fill": "#98d277", "value_min": 0.2, "value_max": -0.27}, "geometry": {"type": "MultiPolygon", "coordinates": [[[[-8.010712, 41.728964], [-8.005762, 41.731824], [-8.010556, 41.739152], [-8.016455, 41.731916], [-8.010712, 41.728964]]], [[[-8.147367, 41.705941], [-8.143312, 41.703397], [-8.131283, 41.704143], [-8.126096, 41.714788], [-8.131067, 41.720199], [-8.143106, 41.718905], [-8.147873, 41.714952], [-8.147367, 41.705941]]], [[[-8.361482, 41.51816], [-8.37355, 41.509585], [-8.38048, 41.500268], [-8.383243, 41.482268], [-8.381505, 41.473251], [-8.376957, 41.464219], [-8.362137, 41.451466], [-8.350204, 41.447463], [-8.338244, 41.446312], [-8.326264, 41.44722], [-8.314255, 41.450713], [-8.302204, 41.458087], [-8.296163, 41.463753], [-8.291128, 41.47273], [-8.289369, 41.481726], [-8.293188, 41.499765], [-8.301641, 41.510498], [-8.313539, 41.518655], [-8.32548, 41.522818], [-8.337454, 41.523978], [-8.349452, 41.522671], [-8.361482, 41.51816]], [[-8.361588, 41.507414], [-8.349551, 41.51283], [-8.337556, 41.513975], [-8.325597, 41.51157], [-8.31369, 41.504318], [-8.309311, 41.499863], [-8.305019, 41.490829], [-8.304667, 41.48182], [-8.308258, 41.472834], [-8.318528, 41.463888], [-8.32613, 41.460174], [-8.338124, 41.458114], [-8.350085, 41.459395], [-8.362003, 41.465071], [-8.369774, 41.473188], [-8.373264, 41.482214], [-8.373148, 41.491221], [-8.369201, 41.500207], [-8.361588, 41.507414]]], [[[-8.632403, 41.188625], [-8.638227, 41.213122], [-8.650639, 41.233857], [-8.662515, 41.244983], [-8.674413, 41.25232], [-8.690063, 41.258313], [-8.707775, 41.267367], [-8.702415, 41.276361], [-8.698158, 41.27986], [-8.693464, 41.294353], [-8.696613, 41.303369], [-8.709958, 41.311837], [-8.723359, 41.312444], [-8.733866, 41.308223], [-8.739959, 41.303475], [-8.744085, 41.294477], [-8.743062, 41.285467], [-8.734383, 41.267431], [-8.769921, 41.246593], [-8.781887, 41.237293], [-8.795247, 41.222517], [-8.802275, 41.209784], [-8.800285, 41.159103], [-8.789341, 41.144292], [-8.727839, 41.14565], [-8.739308, 41.15034], [-8.752301, 41.159377], [-8.76003, 41.168401], [-8.764703, 41.177419], [-8.766774, 41.186431], [-8.764274, 41.204442], [-8.759109, 41.213439], [-8.750934, 41.222429], [-8.736925, 41.231406], [-8.722222, 41.236996], [-8.710279, 41.239254], [-8.686413, 41.238974], [-8.674495, 41.23588], [-8.662595, 41.229384], [-8.650728, 41.21722], [-8.644482, 41.204134], [-8.642721, 41.192631], [-8.641225, 41.196014], [-8.638841, 41.196025], [-8.638231, 41.194227], [-8.634946, 41.193341], [-8.632403, 41.188625]]], [[[-8.674794, 41.147092], [-8.674794, 41.147092], [-8.675682, 41.146785], [-8.674794, 41.147092]]], [[[-8.675685, 41.146784], [-8.675685, 41.146784], [-8.676216, 41.146621], [-8.675685, 41.146784]]]]}}, {"id": "4", "type": "Feature", "properties": {"fill": "#bde282", "value_min": 0.27, "value_max": -0.33}, "geometry": {"type": "MultiPolygon", "coordinates": [[[[-7.967239, 41.839566], [-7.96095, 41.832333], [-7.948956, 41.829328], [-7.936791, 41.836754], [-7.93501, 41.839272], [-7.937895, 41.848305], [-7.94856, 41.853568], [-7.960643, 41.851286], [-7.964221, 41.848546], [-7.967239, 41.839566]]], [[[-8.022431, 41.749065], [-8.03251, 41.741059], [-8.033437, 41.73206], [-8.026699, 41.722996], [-8.022863, 41.720534], [-8.010885, 41.717661], [-7.998812, 41.721021], [-7.99126, 41.731697], [-7.993748, 41.740726], [-7.99843, 41.74558], [-8.010383, 41.750428], [-8.022431, 41.749065]], [[-8.010712, 41.728964], [-8.016455, 41.731916], [-8.010556, 41.739152], [-8.005762, 41.731824], [-8.010712, 41.728964]]], [[[-8.155157, 41.716673], [-8.155943, 41.706004], [-8.143381, 41.698215], [-8.131324, 41.701095], [-8.120359, 41.714744], [-8.123942, 41.723779], [-8.130962, 41.727988], [-8.143003, 41.726621], [-8.155157, 41.716673]], [[-8.147367, 41.705941], [-8.147873, 41.714952], [-8.143106, 41.718905], [-8.131067, 41.720199], [-8.126096, 41.714788], [-8.131283, 41.704143], [-8.143312, 41.703397], [-8.147367, 41.705941]]], [[[-8.361327, 41.533998], [-8.373377, 41.527532], [-8.384574, 41.518305], [-8.391992, 41.509337], [-8.3961, 41.500351], [-8.398561, 41.473342], [-8.39548, 41.455311], [-8.39029, 41.446276], [-8.381406, 41.437221], [-8.374298, 41.431821], [-8.362383, 41.42636], [-8.350448, 41.423021], [-8.338492, 41.421899], [-8.314527, 41.424849], [-8.290483, 41.434903], [-8.278426, 41.442839], [-8.248261, 41.472458], [-8.223605, 41.490309], [-8.217138, 41.499272], [-8.215768, 41.50827], [-8.217721, 41.513646], [-8.219288, 41.517301], [-8.229557, 41.526098], [-8.241498, 41.52998], [-8.277454, 41.530349], [-8.313326, 41.538803], [-8.325301, 41.540002], [-8.337293, 41.539715], [-8.361327, 41.533998]], [[-8.361482, 41.51816], [-8.349452, 41.522671], [-8.337454, 41.523978], [-8.32548, 41.522818], [-8.313539, 41.518655], [-8.301641, 41.510498], [-8.293188, 41.499765], [-8.289369, 41.481726], [-8.291128, 41.47273], [-8.296163, 41.463753], [-8.302204, 41.458087], [-8.314255, 41.450713], [-8.326264, 41.44722], [-8.338244, 41.446312], [-8.350204, 41.447463], [-8.362137, 41.451466], [-8.376957, 41.464219], [-8.381505, 41.473251], [-8.383243, 41.482268], [-8.38048, 41.500268], [-8.37355, 41.509585], [-8.361482, 41.51816]]], [[[-8.092622, 41.526446], [-8.097583, 41.535281], [-8.109558, 41.536202], [-8.113012, 41.534545], [-8.117575, 41.525573], [-8.109795, 41.518929], [-8.097798, 41.519829], [-8.092389, 41.52514], [-8.092389, 41.525918], [-8.092523, 41.526221], [-8.092622, 41.526446]]], [[[-8.620048, 41.178774], [-8.628834, 41.213093], [-8.649785, 41.267205], [-8.655921, 41.294247], [-8.666564, 41.312294], [-8.676318, 41.321329], [-8.697906, 41.334448], [-8.709839, 41.338499], [-8.733729, 41.341764], [-8.754683, 41.339539], [-8.769608, 41.335523], [-8.793547, 41.32398], [-8.806417, 41.315044], [-8.802275, 41.209784], [-8.795247, 41.222517], [-8.781887, 41.237293], [-8.769921, 41.246593], [-8.734383, 41.267431], [-8.743062, 41.285467], [-8.744085, 41.294477], [-8.739959, 41.303475], [-8.733866, 41.308223], [-8.723359, 41.312444], [-8.709958, 41.311837], [-8.696613, 41.303369], [-8.693464, 41.294353], [-8.698158, 41.27986], [-8.702415, 41.276361], [-8.707775, 41.267367], [-8.690063, 41.258313], [-8.674413, 41.25232], [-8.662515, 41.244983], [-8.650639, 41.233857], [-8.638227, 41.213122], [-8.632403, 41.188625], [-8.625658, 41.186628], [-8.62263, 41.180113], [-8.620048, 41.178774]]], [[[-8.789341, 41.144292], [-8.800285, 41.159103], [-8.799695, 41.14406], [-8.789341, 41.144292]]]]}}, {"id": "5", "type": "Feature", "properties": {"fill": "#ddf190", "value_min": 0.33, "value_max": -0.4}, "geometry": {"type": "MultiPolygon", "coordinates": [[[[-7.973039, 41.875215], [-7.975939, 41.873871], [-7.97643, 41.873644], [-7.976844, 41.873452], [-7.976915, 41.873419], [-7.97805, 41.872894], [-7.978853, 41.872522], [-7.978954, 41.872475], [-7.979337, 41.872297], [-7.979557, 41.872196], [-7.979822, 41.872073], [-7.983175, 41.87052], [-7.983213, 41.870502], [-7.983476, 41.87038], [-7.983697, 41.870277], [-7.988302, 41.866959], [-7.990123, 41.860157], [-7.99514, 41.858138], [-7.995312, 41.857913], [-7.994047, 41.855211], [-7.997072, 41.851163], [-7.996342, 41.839824], [-7.991016, 41.830771], [-7.975776, 41.821629], [-7.961179, 41.818193], [-7.949137, 41.818259], [-7.937042, 41.821581], [-7.924851, 41.83017], [-7.919515, 41.839127], [-7.91814, 41.848121], [-7.920264, 41.857148], [-7.924295, 41.863773], [-7.938329, 41.873811], [-7.941618, 41.870891], [-7.951254, 41.871132], [-7.956367, 41.87339], [-7.956362, 41.875191], [-7.960878, 41.875648], [-7.962086, 41.874074], [-7.973039, 41.875215]], [[-7.967239, 41.839566], [-7.964221, 41.848546], [-7.960643, 41.851286], [-7.94856, 41.853568], [-7.937895, 41.848305], [-7.93501, 41.839272], [-7.936791, 41.836754], [-7.948956, 41.829328], [-7.96095, 41.832333], [-7.967239, 41.839566]]], [[[-8.058408, 41.756221], [-8.065099, 41.750336], [-8.069608, 41.741366], [-8.071559, 41.732374], [-8.07376, 41.714378], [-8.073052, 41.705366], [-8.066912, 41.696309], [-8.059346, 41.691988], [-8.047331, 41.691837], [-8.023156, 41.701195], [-7.999053, 41.705454], [-7.986926, 41.712348], [-7.979981, 41.722591], [-7.978995, 41.731589], [-7.981915, 41.740622], [-7.986379, 41.747117], [-7.998232, 41.758327], [-8.010163, 41.764715], [-8.022158, 41.767028], [-8.034191, 41.766898], [-8.046267, 41.763816], [-8.058408, 41.756221]], [[-8.022431, 41.749065], [-8.010383, 41.750428], [-7.99843, 41.74558], [-7.993748, 41.740726], [-7.99126, 41.731697], [-7.998812, 41.721021], [-8.010885, 41.717661], [-8.022863, 41.720534], [-8.026699, 41.722996], [-8.033437, 41.73206], [-8.03251, 41.741059], [-8.022431, 41.749065]]], [[[-8.142828, 41.739807], [-8.164285, 41.724079], [-8.168107, 41.7151], [-8.166869, 41.706084], [-8.161598, 41.697039], [-8.15549, 41.691223], [-8.143495, 41.68962], [-8.135598, 41.696846], [-8.131365, 41.698045], [-8.119169, 41.711124], [-8.109879, 41.714664], [-8.107015, 41.720785], [-8.101107, 41.723602], [-8.099225, 41.732595], [-8.106738, 41.74074], [-8.118699, 41.745499], [-8.130733, 41.74494], [-8.142828, 41.739807]], [[-8.155157, 41.716673], [-8.143003, 41.726621], [-8.130962, 41.727988], [-8.123942, 41.723779], [-8.120359, 41.714744], [-8.131324, 41.701095], [-8.143381, 41.698215], [-8.155943, 41.706004], [-8.155157, 41.716673]]], [[[-8.076564, 41.550974], [-8.097283, 41.556854], [-8.109263, 41.557722], [-8.121264, 41.557041], [-8.157355, 41.548166], [-8.169358, 41.547128], [-8.181318, 41.549524], [-8.217125, 41.563136], [-8.241033, 41.569759], [-8.27696, 41.574735], [-8.300944, 41.57527], [-8.324956, 41.573226], [-8.348995, 41.568314], [-8.373069, 41.559383], [-8.396313, 41.545389], [-8.406602, 41.536435], [-8.424444, 41.509504], [-8.445258, 41.491591], [-8.450655, 41.48261], [-8.452701, 41.473612], [-8.44563, 41.428541], [-8.446927, 41.410532], [-8.453578, 41.374533], [-8.452329, 41.356512], [-8.444068, 41.338457], [-8.436726, 41.329414], [-8.423185, 41.317311], [-8.40714, 41.306658], [-8.403277, 41.307342], [-8.401801, 41.311398], [-8.399712, 41.311628], [-8.400316, 41.313202], [-8.396738, 41.314336], [-8.398835, 41.316131], [-8.393775, 41.31997], [-8.393489, 41.323122], [-8.391105, 41.324253], [-8.386325, 41.323588], [-8.380382, 41.331254], [-8.375305, 41.33104], [-8.37201, 41.328346], [-8.361563, 41.329718], [-8.358276, 41.329049], [-8.357673, 41.327249], [-8.350207, 41.327264], [-8.346032, 41.328847], [-8.342462, 41.333131], [-8.333215, 41.336299], [-8.326363, 41.342163], [-8.324568, 41.341041], [-8.323376, 41.341943], [-8.316788, 41.335876], [-8.313802, 41.336331], [-8.310792, 41.327557], [-8.308701, 41.327561], [-8.307502, 41.325762], [-8.305116, 41.326891], [-8.303024, 41.325994], [-8.303615, 41.323742], [-8.301216, 41.319694], [-8.296431, 41.316774], [-8.297618, 41.313846], [-8.295817, 41.310022], [-8.281801, 41.316569], [-8.281808, 41.319721], [-8.278828, 41.321976], [-8.278238, 41.325128], [-8.273161, 41.325134], [-8.269582, 41.326939], [-8.265709, 41.331221], [-8.269004, 41.336169], [-8.263339, 41.340902], [-8.262751, 41.345405], [-8.258394, 41.347661], [-8.264024, 41.36447], [-8.264938, 41.373483], [-8.263631, 41.382482], [-8.259454, 41.391463], [-8.250927, 41.400415], [-8.242946, 41.40565], [-8.230924, 41.410572], [-8.218927, 41.41322], [-8.177726, 41.41793], [-8.170966, 41.421107], [-8.164846, 41.426845], [-8.161271, 41.435827], [-8.162152, 41.471863], [-8.160576, 41.480858], [-8.156442, 41.489836], [-8.146025, 41.497939], [-8.134008, 41.500651], [-8.110057, 41.499829], [-8.086164, 41.494881], [-8.07205, 41.494597], [-8.078332, 41.500331], [-8.093, 41.504613], [-8.089398, 41.519242], [-8.090594, 41.522169], [-8.093289, 41.522395], [-8.092389, 41.52514], [-8.097798, 41.519829], [-8.109795, 41.518929], [-8.117575, 41.525573], [-8.113012, 41.534545], [-8.109558, 41.536202], [-8.097583, 41.535281], [-8.092622, 41.526446], [-8.092385, 41.532749], [-8.106759, 41.543557], [-8.101666, 41.542655], [-8.094175, 41.544904], [-8.087885, 41.542876], [-8.083389, 41.5449], [-8.081886, 41.550977], [-8.076564, 41.550974]], [[-8.361327, 41.533998], [-8.337293, 41.539715], [-8.325301, 41.540002], [-8.313326, 41.538803], [-8.277454, 41.530349], [-8.241498, 41.52998], [-8.229557, 41.526098], [-8.219288, 41.517301], [-8.217721, 41.513646], [-8.215768, 41.50827], [-8.217138, 41.499272], [-8.223605, 41.490309], [-8.248261, 41.472458], [-8.278426, 41.442839], [-8.290483, 41.434903], [-8.314527, 41.424849], [-8.338492, 41.421899], [-8.350448, 41.423021], [-8.362383, 41.42636], [-8.374298, 41.431821], [-8.381406, 41.437221], [-8.39029, 41.446276], [-8.39548, 41.455311], [-8.398561, 41.473342], [-8.3961, 41.500351], [-8.391992, 41.509337], [-8.384574, 41.518305], [-8.373377, 41.527532], [-8.361327, 41.533998]]], [[[-8.074097, 41.549848], [-8.074097, 41.549848], [-8.074396, 41.549985], [-8.074097, 41.549848]]], [[[-8.07459, 41.550073], [-8.07459, 41.550073], [-8.074696, 41.550121], [-8.07459, 41.550073]]], [[[-8.075577, 41.550524], [-8.075577, 41.550524], [-8.075894, 41.550668], [-8.075577, 41.550524]]], [[[-8.076071, 41.550749], [-8.076071, 41.550749], [-8.076193, 41.550805], [-8.076071, 41.550749]]], [[[-8.092523, 41.526221], [-8.092523, 41.526221], [-8.092389, 41.525918], [-8.092523, 41.526221]]], [[[-8.457057, 41.554307], [-8.465336, 41.545731], [-8.460729, 41.536702], [-8.457222, 41.534623], [-8.445241, 41.533791], [-8.436935, 41.536588], [-8.433764, 41.545579], [-8.444924, 41.554641], [-8.457057, 41.554307]]], [[[-8.806417, 41.315044], [-8.793547, 41.32398], [-8.769608, 41.335523], [-8.754683, 41.339539], [-8.733729, 41.341764], [-8.709839, 41.338499], [-8.697906, 41.334448], [-8.676318, 41.321329], [-8.666564, 41.312294], [-8.655921, 41.294247], [-8.649785, 41.267205], [-8.628834, 41.213093], [-8.620048, 41.178774], [-8.612177, 41.176781], [-8.608583, 41.174095], [-8.609164, 41.172066], [-8.604942, 41.164881], [-8.599917, 41.164451], [-8.615048, 41.198589], [-8.623418, 41.231091], [-8.622737, 41.258112], [-8.605881, 41.303094], [-8.603929, 41.321103], [-8.606179, 41.330119], [-8.623373, 41.366207], [-8.626009, 41.367909], [-8.637956, 41.369781], [-8.649912, 41.369985], [-8.697675, 41.384411], [-8.733524, 41.392119], [-8.769392, 41.396943], [-8.809738, 41.399229], [-8.806417, 41.315044]]]]}}, {"id": "9", "type": "Feature", "properties": {"fill": "#fc9863", "value_min": 0.6, "value_max": -0.67}, "geometry": {"type": "MultiPolygon", "coordinates": [[[[-7.883171, 41.811759], [-7.877151, 41.803656], [-7.865118, 41.803405], [-7.857655, 41.811508], [-7.864803, 41.821235], [-7.876846, 41.821081], [-7.883171, 41.811759]]], [[[-7.745181, 41.780945], [-7.733189, 41.778889], [-7.729153, 41.783138], [-7.733001, 41.788441], [-7.745079, 41.786173], [-7.746729, 41.783331], [-7.745181, 41.780945]]], [[[-7.907384, 41.712917], [-7.902837, 41.709159], [-7.890815, 41.709259], [-7.887297, 41.712724], [-7.887229, 41.72173], [-7.890552, 41.724559], [-7.902574, 41.724619], [-7.906488, 41.721915], [-7.907384, 41.712917]]], [[[-8.216167, 41.688417], [-8.203314, 41.688328], [-8.1991, 41.697306], [-8.20342, 41.702291], [-8.215435, 41.702582], [-8.220957, 41.697456], [-8.216167, 41.688417]]], [[[-8.540763, 41.587352], [-8.544879, 41.582102], [-8.545776, 41.573098], [-8.540142, 41.564069], [-8.528979, 41.558011], [-8.516992, 41.557221], [-8.504966, 41.561689], [-8.496341, 41.572892], [-8.496828, 41.581902], [-8.504743, 41.590969], [-8.516709, 41.595213], [-8.528714, 41.594437], [-8.540763, 41.587352]], [[-8.516888, 41.571214], [-8.521512, 41.573], [-8.516839, 41.577789], [-8.514236, 41.572969], [-8.516888, 41.571214]]], [[[-8.493344, 41.514297], [-8.495309, 41.509837], [-8.493394, 41.507798], [-8.481442, 41.504057], [-8.47433, 41.509743], [-8.481316, 41.519729], [-8.487512, 41.518809], [-8.493344, 41.514297]]], [[[-8.525125, 41.201646], [-8.517269, 41.212679], [-8.516295, 41.221683], [-8.519219, 41.230703], [-8.53125, 41.24262], [-8.54315, 41.247549], [-8.555076, 41.249005], [-8.567022, 41.24738], [-8.578991, 41.241962], [-8.588494, 41.230971], [-8.590934, 41.221972], [-8.589107, 41.212958], [-8.583155, 41.203928], [-8.576873, 41.198746], [-8.576894, 41.201908], [-8.574515, 41.202593], [-8.57423, 41.20462], [-8.568566, 41.204416], [-8.565895, 41.206227], [-8.566809, 41.209132], [-8.571971, 41.212895], [-8.575542, 41.221916], [-8.569971, 41.230904], [-8.567118, 41.232775], [-8.555175, 41.234363], [-8.545116, 41.230808], [-8.539452, 41.221778], [-8.542365, 41.212781], [-8.555359, 41.207161], [-8.565018, 41.208824], [-8.559636, 41.206251], [-8.554271, 41.20627], [-8.549521, 41.209214], [-8.544157, 41.209458], [-8.54238, 41.211265], [-8.532257, 41.213102], [-8.525125, 41.201646]]]]}}, {"id": "8", "type": "Feature", "properties": {"fill": "#fecb90", "value_min": 0.53, "value_max": -0.6}, "geometry": {"type": "MultiPolygon", "coordinates": [[[[-7.876564, 41.837247], [-7.888722, 41.830634], [-7.896982, 41.820899], [-7.899734, 41.811919], [-7.898127, 41.802897], [-7.889378, 41.792676], [-7.87742, 41.788207], [-7.86539, 41.787969], [-7.853323, 41.789805], [-7.842839, 41.793346], [-7.831228, 41.802236], [-7.828932, 41.811219], [-7.83079, 41.820245], [-7.837771, 41.829322], [-7.852471, 41.837557], [-7.864485, 41.839195], [-7.876564, 41.837247]], [[-7.883171, 41.811759], [-7.876846, 41.821081], [-7.864803, 41.821235], [-7.857655, 41.811508], [-7.865118, 41.803405], [-7.877151, 41.803656], [-7.883171, 41.811759]]], [[[-7.728179, 41.81361], [-7.74456, 41.812767], [-7.756651, 41.81013], [-7.774882, 41.801648], [-7.782308, 41.792721], [-7.784938, 41.783742], [-7.783296, 41.774718], [-7.778785, 41.765663], [-7.769725, 41.755968], [-7.75406, 41.747089], [-7.747812, 41.749995], [-7.747786, 41.754496], [-7.743866, 41.756509], [-7.740214, 41.763924], [-7.726937, 41.771755], [-7.7254, 41.777152], [-7.727191, 41.779184], [-7.724177, 41.780299], [-7.725372, 41.781653], [-7.722296, 41.792446], [-7.728879, 41.797871], [-7.72705, 41.801691], [-7.728179, 41.81361]], [[-7.745181, 41.780945], [-7.746729, 41.783331], [-7.745079, 41.786173], [-7.733001, 41.788441], [-7.729153, 41.783138], [-7.733189, 41.778889], [-7.745181, 41.780945]]], [[[-7.96202, 41.766068], [-7.964585, 41.758481], [-7.962217, 41.753819], [-7.950362, 41.743193], [-7.938378, 41.740629], [-7.926243, 41.740115], [-7.929189, 41.713122], [-7.925497, 41.70408], [-7.915106, 41.694305], [-7.903163, 41.689979], [-7.89113, 41.690946], [-7.878944, 41.700689], [-7.873031, 41.712585], [-7.87043, 41.721566], [-7.87358, 41.730604], [-7.890294, 41.739541], [-7.902267, 41.742599], [-7.914278, 41.743494], [-7.917948, 41.749044], [-7.917755, 41.758049], [-7.925897, 41.767965], [-7.937862, 41.771968], [-7.94989, 41.772144], [-7.96202, 41.766068]], [[-7.907384, 41.712917], [-7.906488, 41.721915], [-7.902574, 41.724619], [-7.890552, 41.724559], [-7.887229, 41.72173], [-7.887297, 41.712724], [-7.890815, 41.709259], [-7.902837, 41.709159], [-7.907384, 41.712917]]], [[[-8.22733, 41.712917], [-8.23654, 41.706568], [-8.240979, 41.69759], [-8.239646, 41.688574], [-8.231975, 41.679516], [-8.22776, 41.67698], [-8.215786, 41.673745], [-8.203758, 41.674913], [-8.191649, 41.682543], [-8.187838, 41.68822], [-8.186926, 41.697221], [-8.191357, 41.705877], [-8.203278, 41.713842], [-8.215278, 41.715538], [-8.22733, 41.712917]], [[-8.216167, 41.688417], [-8.220957, 41.697456], [-8.215435, 41.702582], [-8.20342, 41.702291], [-8.1991, 41.697306], [-8.203314, 41.688328], [-8.216167, 41.688417]]], [[[-8.119416, 41.692962], [-8.111977, 41.696666], [-8.119319, 41.700129], [-8.122249, 41.696745], [-8.119416, 41.692962]]], [[[-8.108439, 41.617623], [-8.109737, 41.615585], [-8.108067, 41.606565], [-8.096706, 41.598261], [-8.084726, 41.596931], [-8.072675, 41.600562], [-8.065625, 41.606228], [-8.062853, 41.615212], [-8.066975, 41.624253], [-8.072282, 41.627972], [-8.084233, 41.631777], [-8.096261, 41.630178], [-8.104128, 41.624548], [-8.108439, 41.617623]]], [[[-8.564667, 41.600193], [-8.570721, 41.591209], [-8.572749, 41.582209], [-8.571812, 41.573198], [-8.564939, 41.56033], [-8.553029, 41.548361], [-8.541087, 41.5416], [-8.529121, 41.538381], [-8.517135, 41.538018], [-8.505089, 41.54557], [-8.493009, 41.55722], [-8.482497, 41.572831], [-8.480737, 41.58183], [-8.482487, 41.590845], [-8.489069, 41.599882], [-8.504597, 41.610076], [-8.516569, 41.614009], [-8.528564, 41.615034], [-8.540576, 41.613651], [-8.55261, 41.609171], [-8.564667, 41.600193]], [[-8.540763, 41.587352], [-8.528714, 41.594437], [-8.516709, 41.595213], [-8.504743, 41.590969], [-8.496828, 41.581902], [-8.496341, 41.572892], [-8.504966, 41.561689], [-8.516992, 41.557221], [-8.528979, 41.558011], [-8.540142, 41.564069], [-8.545776, 41.573098], [-8.544879, 41.582102], [-8.540763, 41.587352]]], [[[-8.517258, 41.521557], [-8.518219, 41.509935], [-8.513686, 41.500908], [-8.505475, 41.494982], [-8.493523, 41.491317], [-8.481537, 41.492121], [-8.469512, 41.497632], [-8.466297, 41.500698], [-8.461446, 41.509683], [-8.464478, 41.518704], [-8.481245, 41.528706], [-8.493207, 41.53186], [-8.505189, 41.532473], [-8.513321, 41.527929], [-8.517258, 41.521557]], [[-8.493344, 41.514297], [-8.487512, 41.518809], [-8.481316, 41.519729], [-8.47433, 41.509743], [-8.481442, 41.504057], [-8.493394, 41.507798], [-8.495309, 41.509837], [-8.493344, 41.514297]]], [[[-8.491983, 41.22629], [-8.498335, 41.239622], [-8.507143, 41.248667], [-8.519216, 41.256307], [-8.53112, 41.260807], [-8.543043, 41.262969], [-8.55498, 41.263092], [-8.566931, 41.261125], [-8.578898, 41.256554], [-8.590887, 41.248089], [-8.597136, 41.24001], [-8.600866, 41.231015], [-8.601826, 41.22201], [-8.596467, 41.203976], [-8.591212, 41.195982], [-8.579765, 41.185826], [-8.581296, 41.191762], [-8.575958, 41.195609], [-8.576873, 41.198746], [-8.583155, 41.203928], [-8.589107, 41.212958], [-8.590934, 41.221972], [-8.588494, 41.230971], [-8.578991, 41.241962], [-8.567022, 41.24738], [-8.555076, 41.249005], [-8.54315, 41.247549], [-8.53125, 41.24262], [-8.519219, 41.230703], [-8.516295, 41.221683], [-8.517269, 41.212679], [-8.525125, 41.201646], [-8.523236, 41.200077], [-8.518471, 41.200543], [-8.51163, 41.203042], [-8.510456, 41.206197], [-8.506583, 41.206435], [-8.504239, 41.213646], [-8.500076, 41.21546], [-8.50308, 41.219502], [-8.502204, 41.222656], [-8.495642, 41.222227], [-8.491983, 41.22629]]]]}}, {"id": "6", "type": "Feature", "properties": {"fill": "#eef8a7", "value_min": 0.4, "value_max": -0.47}, "geometry": {"type": "MultiPolygon", "coordinates": [[[[-8.681337, 41.586357], [-8.684455, 41.586117], [-8.686203, 41.580257], [-8.698452, 41.57547], [-8.701703, 41.570277], [-8.707704, 41.570923], [-8.712485, 41.569323], [-8.716422, 41.573805], [-8.720316, 41.57356], [-8.725151, 41.577811], [-8.726633, 41.576003], [-8.734424, 41.575737], [-8.736564, 41.580228], [-8.738354, 41.579318], [-8.740778, 41.582006], [-8.74467, 41.581535], [-8.750711, 41.58623], [-8.75993, 41.578527], [-8.767441, 41.580286], [-8.769874, 41.583874], [-8.768997, 41.58613], [-8.773228, 41.589482], [-8.774165, 41.593303], [-8.78556, 41.593464], [-8.797327, 41.600599], [-8.804218, 41.600109], [-8.80456, 41.604158], [-8.809434, 41.611332], [-8.828644, 41.609656], [-8.82839, 41.585633], [-8.818497, 41.554794], [-8.8221, 41.547542], [-8.821965, 41.534907], [-8.815926, 41.525624], [-8.81063, 41.5101], [-8.813279, 41.503483], [-8.812636, 41.496944], [-8.804699, 41.482068], [-8.798552, 41.474753], [-8.80154, 41.446836], [-8.806115, 41.43713], [-8.807354, 41.425915], [-8.811035, 41.418186], [-8.809738, 41.399229], [-8.769392, 41.396943], [-8.733524, 41.392119], [-8.697675, 41.384411], [-8.649912, 41.369985], [-8.637956, 41.369781], [-8.626009, 41.367909], [-8.623373, 41.366207], [-8.606179, 41.330119], [-8.603929, 41.321103], [-8.605881, 41.303094], [-8.622737, 41.258112], [-8.623418, 41.231091], [-8.615048, 41.198589], [-8.599917, 41.164451], [-8.589766, 41.167193], [-8.589194, 41.170572], [-8.585339, 41.173145], [-8.59132, 41.17854], [-8.603142, 41.195206], [-8.610174, 41.213031], [-8.612121, 41.231053], [-8.610687, 41.240056], [-8.602773, 41.256241], [-8.590762, 41.268173], [-8.578776, 41.275445], [-8.566802, 41.280548], [-8.554842, 41.283377], [-8.530951, 41.284525], [-8.519019, 41.283088], [-8.507101, 41.280036], [-8.48331, 41.268409], [-8.469478, 41.257508], [-8.459954, 41.246645], [-8.454323, 41.246886], [-8.455541, 41.251834], [-8.452276, 41.25522], [-8.449891, 41.255452], [-8.449304, 41.257479], [-8.447812, 41.257258], [-8.449028, 41.261982], [-8.439785, 41.262907], [-8.438023, 41.268989], [-8.434745, 41.269673], [-8.432691, 41.277107], [-8.427032, 41.279372], [-8.429143, 41.284319], [-8.426171, 41.287028], [-8.426488, 41.291079], [-8.425013, 41.294909], [-8.422037, 41.296942], [-8.422647, 41.299867], [-8.407744, 41.304856], [-8.40714, 41.306658], [-8.423185, 41.317311], [-8.436726, 41.329414], [-8.444068, 41.338457], [-8.452329, 41.356512], [-8.453578, 41.374533], [-8.446927, 41.410532], [-8.44563, 41.428541], [-8.452701, 41.473612], [-8.450655, 41.48261], [-8.445258, 41.491591], [-8.424444, 41.509504], [-8.406602, 41.536435], [-8.396313, 41.545389], [-8.373069, 41.559383], [-8.348995, 41.568314], [-8.324956, 41.573226], [-8.300944, 41.57527], [-8.27696, 41.574735], [-8.241033, 41.569759], [-8.217125, 41.563136], [-8.181318, 41.549524], [-8.169358, 41.547128], [-8.157355, 41.548166], [-8.121264, 41.557041], [-8.109263, 41.557722], [-8.097283, 41.556854], [-8.076564, 41.550974], [-8.076193, 41.550805], [-8.076071, 41.550749], [-8.075894, 41.550668], [-8.075577, 41.550524], [-8.074696, 41.550121], [-8.07459, 41.550073], [-8.074396, 41.549985], [-8.074097, 41.549848], [-8.073494, 41.553449], [-8.075891, 41.554575], [-8.076188, 41.557276], [-8.079783, 41.558403], [-8.082176, 41.564032], [-8.069883, 41.570103], [-8.069281, 41.572579], [-8.062384, 41.575501], [-8.060583, 41.577863], [-8.07301, 41.577119], [-8.096979, 41.578731], [-8.120879, 41.585445], [-8.127612, 41.5887], [-8.137628, 41.597783], [-8.140284, 41.60681], [-8.134178, 41.615772], [-8.120301, 41.628031], [-8.108075, 41.644023], [-8.096006, 41.648428], [-8.070077, 41.651299], [-8.059873, 41.65576], [-8.047788, 41.669131], [-8.03555, 41.676059], [-8.023493, 41.678964], [-8.01148, 41.678827], [-7.975565, 41.670765], [-7.965505, 41.677427], [-7.959865, 41.69539], [-7.959229, 41.722405], [-7.962871, 41.731445], [-7.979797, 41.758617], [-7.982689, 41.767649], [-7.982242, 41.776652], [-7.973724, 41.786531], [-7.961668, 41.787917], [-7.958389, 41.785445], [-7.9497, 41.783824], [-7.933986, 41.785222], [-7.928941, 41.794181], [-7.927154, 41.803172], [-7.889938, 41.85729], [-7.898893, 41.86136], [-7.902203, 41.861591], [-7.904318, 41.859795], [-7.907309, 41.865203], [-7.906095, 41.868126], [-7.910299, 41.871285], [-7.909985, 41.875111], [-7.915391, 41.879397], [-7.921118, 41.877833], [-7.928044, 41.87807], [-7.938329, 41.873811], [-7.924295, 41.863773], [-7.920264, 41.857148], [-7.91814, 41.848121], [-7.919515, 41.839127], [-7.924851, 41.83017], [-7.937042, 41.821581], [-7.949137, 41.818259], [-7.961179, 41.818193], [-7.975776, 41.821629], [-7.991016, 41.830771], [-7.996342, 41.839824], [-7.997072, 41.851163], [-8.003089, 41.850494], [-8.005804, 41.847346], [-8.007928, 41.838796], [-8.012753, 41.833624], [-8.013363, 41.829124], [-8.017873, 41.831379], [-8.02901, 41.829589], [-8.037134, 41.831171], [-8.041351, 41.828023], [-8.041054, 41.825097], [-8.045268, 41.824425], [-8.046775, 41.821951], [-8.056712, 41.81588], [-8.06664, 41.817012], [-8.072961, 41.813414], [-8.078678, 41.813417], [-8.082892, 41.810493], [-8.091013, 41.812521], [-8.093421, 41.811397], [-8.093723, 41.808471], [-8.101845, 41.809824], [-8.104853, 41.81185], [-8.115984, 41.812302], [-8.123807, 41.808702], [-8.138247, 41.808477], [-8.139751, 41.813203], [-8.14276, 41.812978], [-8.144866, 41.815228], [-8.149078, 41.814777], [-8.153291, 41.817703], [-8.158106, 41.818377], [-8.165326, 41.81815], [-8.173744, 41.808019], [-8.177655, 41.808242], [-8.183676, 41.812741], [-8.190291, 41.809587], [-8.197158, 41.814129], [-8.201063, 41.808724], [-8.204973, 41.807372], [-8.205872, 41.804445], [-8.213692, 41.803765], [-8.217598, 41.80016], [-8.217589, 41.793634], [-8.224207, 41.794303], [-8.229917, 41.791598], [-8.240744, 41.791588], [-8.24074, 41.789338], [-8.244347, 41.787984], [-8.245546, 41.785731], [-8.251257, 41.784375], [-8.251845, 41.777172], [-8.257551, 41.773564], [-8.261762, 41.774235], [-8.268367, 41.76961], [-8.262779, 41.766575], [-8.246266, 41.751667], [-8.203064, 41.731145], [-8.191149, 41.72242], [-8.179372, 41.706174], [-8.173461, 41.688118], [-8.174791, 41.670113], [-8.1799, 41.661568], [-8.19048, 41.65221], [-8.204114, 41.645963], [-8.228152, 41.644185], [-8.252117, 41.648595], [-8.281659, 41.661823], [-8.306634, 41.679991], [-8.314234, 41.689044], [-8.317838, 41.698072], [-8.318904, 41.716093], [-8.324716, 41.743148], [-8.323621, 41.752149], [-8.318609, 41.761594], [-8.325233, 41.765098], [-8.328234, 41.763292], [-8.336653, 41.763728], [-8.341756, 41.761468], [-8.344765, 41.762363], [-8.349267, 41.760103], [-8.352557, 41.755145], [-8.349814, 41.744122], [-8.352516, 41.743441], [-8.352203, 41.739616], [-8.357897, 41.735103], [-8.362407, 41.735994], [-8.368703, 41.73193], [-8.374122, 41.734845], [-8.384922, 41.73032], [-8.387032, 41.731891], [-8.393033, 41.729852], [-8.396942, 41.730518], [-8.400531, 41.726683], [-8.402934, 41.726452], [-8.404721, 41.722847], [-8.417349, 41.725067], [-8.422737, 41.720552], [-8.429643, 41.719859], [-8.430533, 41.717381], [-8.435927, 41.714441], [-8.441333, 41.714201], [-8.4446, 41.70654], [-8.453868, 41.697961], [-8.453255, 41.695487], [-8.461659, 41.694563], [-8.469097, 41.689364], [-8.443954, 41.683948], [-8.431943, 41.683436], [-8.419912, 41.685181], [-8.383754, 41.696774], [-8.371718, 41.698656], [-8.359701, 41.698558], [-8.34771, 41.695926], [-8.336363, 41.689174], [-8.331008, 41.680136], [-8.33255, 41.671137], [-8.336948, 41.662156], [-8.348181, 41.649213], [-8.360273, 41.64079], [-8.384398, 41.629217], [-8.406153, 41.608491], [-8.418194, 41.599545], [-8.456875, 41.576071], [-8.468953, 41.566053], [-8.478484, 41.554798], [-8.481712, 41.545805], [-8.477484, 41.536779], [-8.450179, 41.518637], [-8.448391, 41.509621], [-8.457551, 41.495201], [-8.469631, 41.483018], [-8.49197, 41.464785], [-8.508238, 41.437833], [-8.51795, 41.428165], [-8.529967, 41.421471], [-8.541956, 41.418245], [-8.553927, 41.417578], [-8.565882, 41.419269], [-8.577824, 41.423072], [-8.589223, 41.429143], [-8.599946, 41.438188], [-8.606283, 41.447218], [-8.609281, 41.456235], [-8.610558, 41.483262], [-8.613304, 41.494062], [-8.617887, 41.501302], [-8.641253, 41.519392], [-8.649059, 41.528468], [-8.672502, 41.564522], [-8.681337, 41.586357]], [[-8.058408, 41.756221], [-8.046267, 41.763816], [-8.034191, 41.766898], [-8.022158, 41.767028], [-8.010163, 41.764715], [-7.998232, 41.758327], [-7.986379, 41.747117], [-7.981915, 41.740622], [-7.978995, 41.731589], [-7.979981, 41.722591], [-7.986926, 41.712348], [-7.999053, 41.705454], [-8.023156, 41.701195], [-8.047331, 41.691837], [-8.059346, 41.691988], [-8.066912, 41.696309], [-8.073052, 41.705366], [-8.07376, 41.714378], [-8.071559, 41.732374], [-8.069608, 41.741366], [-8.065099, 41.750336], [-8.058408, 41.756221]], [[-8.142828, 41.739807], [-8.130733, 41.74494], [-8.118699, 41.745499], [-8.106738, 41.74074], [-8.099225, 41.732595], [-8.101107, 41.723602], [-8.107015, 41.720785], [-8.109879, 41.714664], [-8.119169, 41.711124], [-8.131365, 41.698045], [-8.135598, 41.696846], [-8.143495, 41.68962], [-8.15549, 41.691223], [-8.161598, 41.697039], [-8.166869, 41.706084], [-8.168107, 41.7151], [-8.164285, 41.724079], [-8.142828, 41.739807]], [[-8.107197, 41.707598], [-8.102685, 41.705601], [-8.09858, 41.696562], [-8.107471, 41.687758], [-8.119555, 41.682791], [-8.125579, 41.687763], [-8.127971, 41.696788], [-8.119231, 41.706518], [-8.107197, 41.707598]], [[-8.457057, 41.554307], [-8.444924, 41.554641], [-8.433764, 41.545579], [-8.436935, 41.536588], [-8.445241, 41.533791], [-8.457222, 41.534623], [-8.460729, 41.536702], [-8.465336, 41.545731], [-8.457057, 41.554307]]], [[[-7.931589, 41.609317], [-7.95247, 41.613341], [-7.964486, 41.612466], [-7.990677, 41.602896], [-7.984685, 41.603564], [-7.982292, 41.60086], [-7.975689, 41.603552], [-7.974482, 41.606701], [-7.970882, 41.607147], [-7.969091, 41.603768], [-7.965796, 41.602413], [-7.9541, 41.602846], [-7.952606, 41.600592], [-7.947808, 41.60081], [-7.945413, 41.599456], [-7.942725, 41.595625], [-7.936733, 41.594264], [-7.93791, 41.601694], [-7.937004, 41.603718], [-7.931604, 41.604384], [-7.931589, 41.609317]]], [[[-7.822309, 41.874009], [-7.801885, 41.846967], [-7.790512, 41.837841], [-7.780293, 41.833069], [-7.768298, 41.830563], [-7.756262, 41.830233], [-7.741198, 41.832124], [-7.74729, 41.837772], [-7.746349, 41.84407], [-7.750246, 41.846784], [-7.750532, 41.849261], [-7.743309, 41.849012], [-7.746901, 41.8524], [-7.746881, 41.855776], [-7.73843, 41.859348], [-7.734159, 41.868337], [-7.730228, 41.871024], [-7.729293, 41.875972], [-7.720533, 41.880218], [-7.720523, 41.881793], [-7.725335, 41.882935], [-7.726208, 41.887665], [-7.737044, 41.888828], [-7.73944, 41.891087], [-7.74246, 41.889747], [-7.742785, 41.885922], [-7.756022, 41.888441], [-7.758719, 41.890926], [-7.756592, 41.89407], [-7.758076, 41.897901], [-7.764097, 41.898595], [-7.779227, 41.886264], [-7.785257, 41.885157], [-7.788886, 41.882467], [-7.794007, 41.882257], [-7.796739, 41.878214], [-7.794349, 41.87438], [-7.797064, 41.873488], [-7.803381, 41.874857], [-7.804914, 41.869459], [-7.813032, 41.871958], [-7.814229, 41.873537], [-7.818448, 41.872873], [-7.822309, 41.874009]]], [[[-7.995312, 41.857913], [-7.995312, 41.857913], [-7.99514, 41.858138], [-7.995312, 41.857913]]], [[[-7.988302, 41.866959], [-7.983697, 41.870277], [-7.987996, 41.869157], [-7.988302, 41.866959]]], [[[-7.983476, 41.87038], [-7.983476, 41.87038], [-7.983213, 41.870502], [-7.983476, 41.87038]]], [[[-7.983175, 41.87052], [-7.983175, 41.87052], [-7.979822, 41.872073], [-7.983175, 41.87052]]], [[[-7.979557, 41.872196], [-7.979557, 41.872196], [-7.979337, 41.872297], [-7.979557, 41.872196]]], [[[-7.978954, 41.872475], [-7.978954, 41.872475], [-7.978853, 41.872522], [-7.978954, 41.872475]]], [[[-7.97805, 41.872894], [-7.97805, 41.872894], [-7.976915, 41.873419], [-7.97805, 41.872894]]], [[[-7.976844, 41.873452], [-7.976844, 41.873452], [-7.97643, 41.873644], [-7.976844, 41.873452]]], [[[-7.975939, 41.873871], [-7.975939, 41.873871], [-7.973039, 41.875215], [-7.975939, 41.873871]]], [[[-8.07205, 41.494597], [-8.086164, 41.494881], [-8.110057, 41.499829], [-8.134008, 41.500651], [-8.146025, 41.497939], [-8.156442, 41.489836], [-8.160576, 41.480858], [-8.162152, 41.471863], [-8.161271, 41.435827], [-8.164846, 41.426845], [-8.170966, 41.421107], [-8.177726, 41.41793], [-8.218927, 41.41322], [-8.230924, 41.410572], [-8.242946, 41.40565], [-8.250927, 41.400415], [-8.259454, 41.391463], [-8.263631, 41.382482], [-8.264938, 41.373483], [-8.264024, 41.36447], [-8.258394, 41.347661], [-8.256483, 41.347663], [-8.255889, 41.349689], [-8.249622, 41.353072], [-8.251123, 41.356897], [-8.248141, 41.360052], [-8.248448, 41.364328], [-8.245461, 41.364781], [-8.244272, 41.368384], [-8.239197, 41.371315], [-8.232024, 41.369971], [-8.224854, 41.370878], [-8.21738, 41.368182], [-8.214399, 41.373587], [-8.208127, 41.376968], [-8.199163, 41.377423], [-8.194677, 41.374275], [-8.191691, 41.376302], [-8.189299, 41.375403], [-8.184818, 41.376756], [-8.168382, 41.377438], [-8.164499, 41.38059], [-8.152544, 41.375866], [-8.151049, 41.37339], [-8.145073, 41.374742], [-8.139694, 41.377894], [-8.133418, 41.374292], [-8.119672, 41.376768], [-8.119672, 41.378569], [-8.116683, 41.380144], [-8.117578, 41.386447], [-8.113992, 41.386896], [-8.112795, 41.390723], [-8.110105, 41.390947], [-8.108011, 41.393648], [-8.103827, 41.392972], [-8.105321, 41.394998], [-8.10263, 41.396123], [-8.10801, 41.398825], [-8.108606, 41.403102], [-8.104419, 41.406252], [-8.104119, 41.408728], [-8.101727, 41.409403], [-8.102025, 41.411204], [-8.092756, 41.411201], [-8.09126, 41.414352], [-8.079893, 41.41975], [-8.077503, 41.416597], [-8.070923, 41.41862], [-8.066739, 41.416142], [-8.061654, 41.417489], [-8.059852, 41.424916], [-8.055959, 41.429415], [-8.05745, 41.432793], [-8.056549, 41.436394], [-8.069999, 41.447206], [-8.068788, 41.462286], [-8.073872, 41.46499], [-8.074164, 41.473543], [-8.066374, 41.482318], [-8.066069, 41.48817], [-8.072054, 41.490199], [-8.07205, 41.494597]]]]}}, {"id": "7", "type": "Feature", "properties": {"fill": "#fffebe", "value_min": 0.47, "value_max": -0.53}, "geometry": {"type": "MultiPolygon", "coordinates": [[[[-7.741198, 41.832124], [-7.756262, 41.830233], [-7.768298, 41.830563], [-7.780293, 41.833069], [-7.790512, 41.837841], [-7.801885, 41.846967], [-7.822309, 41.874009], [-7.825059, 41.875817], [-7.830479, 41.875831], [-7.830789, 41.874031], [-7.832894, 41.874712], [-7.838021, 41.872924], [-7.842528, 41.875187], [-7.841663, 41.866632], [-7.849515, 41.861475], [-7.858542, 41.862622], [-7.859456, 41.860148], [-7.864877, 41.859711], [-7.87033, 41.851395], [-7.873043, 41.850501], [-7.873066, 41.844875], [-7.879956, 41.853217], [-7.888076, 41.855486], [-7.889938, 41.85729], [-7.927154, 41.803172], [-7.928941, 41.794181], [-7.933986, 41.785222], [-7.9497, 41.783824], [-7.958389, 41.785445], [-7.961668, 41.787917], [-7.973724, 41.786531], [-7.982242, 41.776652], [-7.982689, 41.767649], [-7.979797, 41.758617], [-7.962871, 41.731445], [-7.959229, 41.722405], [-7.959865, 41.69539], [-7.965505, 41.677427], [-7.975565, 41.670765], [-8.01148, 41.678827], [-8.023493, 41.678964], [-8.03555, 41.676059], [-8.047788, 41.669131], [-8.059873, 41.65576], [-8.070077, 41.651299], [-8.096006, 41.648428], [-8.108075, 41.644023], [-8.120301, 41.628031], [-8.134178, 41.615772], [-8.140284, 41.60681], [-8.137628, 41.597783], [-8.127612, 41.5887], [-8.120879, 41.585445], [-8.096979, 41.578731], [-8.07301, 41.577119], [-8.060583, 41.577863], [-8.055484, 41.580673], [-8.052181, 41.584498], [-8.052777, 41.587649], [-8.048277, 41.590122], [-8.047974, 41.592373], [-8.031467, 41.602938], [-8.02367, 41.603156], [-8.019174, 41.601802], [-8.015872, 41.603824], [-8.013474, 41.603372], [-8.005971, 41.60629], [-8.003562, 41.611239], [-7.999061, 41.612809], [-7.999669, 41.608759], [-7.996976, 41.605829], [-7.996983, 41.602228], [-7.990677, 41.602896], [-7.964486, 41.612466], [-7.95247, 41.613341], [-7.931589, 41.609317], [-7.930073, 41.614735], [-7.925556, 41.620354], [-7.920755, 41.620796], [-7.917748, 41.623041], [-7.915933, 41.627764], [-7.913229, 41.628885], [-7.912613, 41.63361], [-7.906014, 41.633147], [-7.906884, 41.641927], [-7.897869, 41.645511], [-7.89696, 41.647985], [-7.892759, 41.647976], [-7.892145, 41.651576], [-7.902319, 41.659925], [-7.899913, 41.66127], [-7.900198, 41.665547], [-7.898396, 41.665769], [-7.897186, 41.668467], [-7.892682, 41.668683], [-7.892377, 41.670033], [-7.888171, 41.670925], [-7.883969, 41.67069], [-7.880358, 41.673159], [-7.877044, 41.676077], [-7.876723, 41.681253], [-7.873401, 41.686198], [-7.868896, 41.686413], [-7.868008, 41.68326], [-7.864403, 41.683701], [-7.864096, 41.685276], [-7.858987, 41.68639], [-7.857773, 41.689538], [-7.854776, 41.68818], [-7.847538, 41.695365], [-7.837912, 41.698942], [-7.835792, 41.702763], [-7.839682, 41.705924], [-7.838465, 41.709522], [-7.832453, 41.710407], [-7.825252, 41.708813], [-7.818621, 41.713522], [-7.815291, 41.718689], [-7.808986, 41.717996], [-7.808396, 41.715744], [-7.804499, 41.714158], [-7.79939, 41.714593], [-7.79788, 41.716164], [-7.796383, 41.71526], [-7.790966, 41.717044], [-7.789449, 41.719966], [-7.78464, 41.720402], [-7.78252, 41.723546], [-7.776204, 41.724652], [-7.773786, 41.727346], [-7.770798, 41.72441], [-7.765698, 41.723044], [-7.761765, 41.727758], [-7.762933, 41.733839], [-7.759307, 41.737203], [-7.759597, 41.739005], [-7.75689, 41.739446], [-7.758687, 41.740577], [-7.757758, 41.745301], [-7.75406, 41.747089], [-7.769725, 41.755968], [-7.778785, 41.765663], [-7.783296, 41.774718], [-7.784938, 41.783742], [-7.782308, 41.792721], [-7.774882, 41.801648], [-7.756651, 41.81013], [-7.74456, 41.812767], [-7.728179, 41.81361], [-7.732041, 41.821514], [-7.743152, 41.825154], [-7.742839, 41.827178], [-7.738919, 41.828515], [-7.741198, 41.832124]], [[-7.876564, 41.837247], [-7.864485, 41.839195], [-7.852471, 41.837557], [-7.837771, 41.829322], [-7.83079, 41.820245], [-7.828932, 41.811219], [-7.831228, 41.802236], [-7.842839, 41.793346], [-7.853323, 41.789805], [-7.86539, 41.787969], [-7.87742, 41.788207], [-7.889378, 41.792676], [-7.898127, 41.802897], [-7.899734, 41.811919], [-7.896982, 41.820899], [-7.888722, 41.830634], [-7.876564, 41.837247]], [[-7.96202, 41.766068], [-7.94989, 41.772144], [-7.937862, 41.771968], [-7.925897, 41.767965], [-7.917755, 41.758049], [-7.917948, 41.749044], [-7.914278, 41.743494], [-7.902267, 41.742599], [-7.890294, 41.739541], [-7.87358, 41.730604], [-7.87043, 41.721566], [-7.873031, 41.712585], [-7.878944, 41.700689], [-7.89113, 41.690946], [-7.903163, 41.689979], [-7.915106, 41.694305], [-7.925497, 41.70408], [-7.929189, 41.713122], [-7.926243, 41.740115], [-7.938378, 41.740629], [-7.950362, 41.743193], [-7.962217, 41.753819], [-7.964585, 41.758481], [-7.96202, 41.766068]], [[-8.108439, 41.617623], [-8.104128, 41.624548], [-8.096261, 41.630178], [-8.084233, 41.631777], [-8.072282, 41.627972], [-8.066975, 41.624253], [-8.062853, 41.615212], [-8.065625, 41.606228], [-8.072675, 41.600562], [-8.084726, 41.596931], [-8.096706, 41.598261], [-8.108067, 41.606565], [-8.109737, 41.615585], [-8.108439, 41.617623]]], [[[-8.318609, 41.761594], [-8.323621, 41.752149], [-8.324716, 41.743148], [-8.318904, 41.716093], [-8.317838, 41.698072], [-8.314234, 41.689044], [-8.306634, 41.679991], [-8.281659, 41.661823], [-8.252117, 41.648595], [-8.228152, 41.644185], [-8.204114, 41.645963], [-8.19048, 41.65221], [-8.1799, 41.661568], [-8.174791, 41.670113], [-8.173461, 41.688118], [-8.179372, 41.706174], [-8.191149, 41.72242], [-8.203064, 41.731145], [-8.246266, 41.751667], [-8.262779, 41.766575], [-8.268367, 41.76961], [-8.271366, 41.766346], [-8.280681, 41.764083], [-8.284038, 41.761109], [-8.284931, 41.757507], [-8.287033, 41.756829], [-8.298457, 41.757263], [-8.300866, 41.758835], [-8.305674, 41.758152], [-8.311096, 41.762195], [-8.318609, 41.761594]], [[-8.22733, 41.712917], [-8.215278, 41.715538], [-8.203278, 41.713842], [-8.191357, 41.705877], [-8.186926, 41.697221], [-8.187838, 41.68822], [-8.191649, 41.682543], [-8.203758, 41.674913], [-8.215786, 41.673745], [-8.22776, 41.67698], [-8.231975, 41.679516], [-8.239646, 41.688574], [-8.240979, 41.69759], [-8.23654, 41.706568], [-8.22733, 41.712917]]], [[[-8.107197, 41.707598], [-8.119231, 41.706518], [-8.127971, 41.696788], [-8.125579, 41.687763], [-8.119555, 41.682791], [-8.107471, 41.687758], [-8.09858, 41.696562], [-8.102685, 41.705601], [-8.107197, 41.707598]], [[-8.119416, 41.692962], [-8.122249, 41.696745], [-8.119319, 41.700129], [-8.111977, 41.696666], [-8.119416, 41.692962]]], [[[-8.681337, 41.586357], [-8.672502, 41.564522], [-8.649059, 41.528468], [-8.641253, 41.519392], [-8.617887, 41.501302], [-8.613304, 41.494062], [-8.610558, 41.483262], [-8.609281, 41.456235], [-8.606283, 41.447218], [-8.599946, 41.438188], [-8.589223, 41.429143], [-8.577824, 41.423072], [-8.565882, 41.419269], [-8.553927, 41.417578], [-8.541956, 41.418245], [-8.529967, 41.421471], [-8.51795, 41.428165], [-8.508238, 41.437833], [-8.49197, 41.464785], [-8.469631, 41.483018], [-8.457551, 41.495201], [-8.448391, 41.509621], [-8.450179, 41.518637], [-8.477484, 41.536779], [-8.481712, 41.545805], [-8.478484, 41.554798], [-8.468953, 41.566053], [-8.456875, 41.576071], [-8.418194, 41.599545], [-8.406153, 41.608491], [-8.384398, 41.629217], [-8.360273, 41.64079], [-8.348181, 41.649213], [-8.336948, 41.662156], [-8.33255, 41.671137], [-8.331008, 41.680136], [-8.336363, 41.689174], [-8.34771, 41.695926], [-8.359701, 41.698558], [-8.371718, 41.698656], [-8.383754, 41.696774], [-8.419912, 41.685181], [-8.431943, 41.683436], [-8.443954, 41.683948], [-8.469097, 41.689364], [-8.482012, 41.682123], [-8.484371, 41.674238], [-8.49308, 41.674886], [-8.499963, 41.671038], [-8.50927, 41.671233], [-8.51018, 41.672806], [-8.511967, 41.670324], [-8.509856, 41.668755], [-8.522103, 41.658811], [-8.525706, 41.659023], [-8.527769, 41.652714], [-8.534066, 41.652017], [-8.537355, 41.64998], [-8.537634, 41.646602], [-8.543876, 41.637352], [-8.543855, 41.633976], [-8.536342, 41.631977], [-8.535128, 41.62973], [-8.543431, 41.61462], [-8.554533, 41.615255], [-8.557244, 41.617046], [-8.562639, 41.61635], [-8.568056, 41.619031], [-8.570735, 41.616095], [-8.577321, 41.614269], [-8.581231, 41.615829], [-8.585766, 41.620988], [-8.591462, 41.620515], [-8.596534, 41.616668], [-8.601628, 41.615972], [-8.603996, 41.611686], [-8.613256, 41.606696], [-8.619881, 41.610269], [-8.621338, 41.604636], [-8.628833, 41.604378], [-8.636302, 41.600744], [-8.64075, 41.594422], [-8.645536, 41.593051], [-8.646744, 41.594171], [-8.649125, 41.591909], [-8.656622, 41.5921], [-8.660788, 41.588255], [-8.663794, 41.589141], [-8.665265, 41.585758], [-8.66948, 41.587989], [-8.681337, 41.586357]], [[-8.564667, 41.600193], [-8.55261, 41.609171], [-8.540576, 41.613651], [-8.528564, 41.615034], [-8.516569, 41.614009], [-8.504597, 41.610076], [-8.489069, 41.599882], [-8.482487, 41.590845], [-8.480737, 41.58183], [-8.482497, 41.572831], [-8.493009, 41.55722], [-8.505089, 41.54557], [-8.517135, 41.538018], [-8.529121, 41.538381], [-8.541087, 41.5416], [-8.553029, 41.548361], [-8.564939, 41.56033], [-8.571812, 41.573198], [-8.572749, 41.582209], [-8.570721, 41.591209], [-8.564667, 41.600193]], [[-8.517258, 41.521557], [-8.513321, 41.527929], [-8.505189, 41.532473], [-8.493207, 41.53186], [-8.481245, 41.528706], [-8.464478, 41.518704], [-8.461446, 41.509683], [-8.466297, 41.500698], [-8.469512, 41.497632], [-8.481537, 41.492121], [-8.493523, 41.491317], [-8.505475, 41.494982], [-8.513686, 41.500908], [-8.518219, 41.509935], [-8.517258, 41.521557]]], [[[-8.459954, 41.246645], [-8.469478, 41.257508], [-8.48331, 41.268409], [-8.507101, 41.280036], [-8.519019, 41.283088], [-8.530951, 41.284525], [-8.554842, 41.283377], [-8.566802, 41.280548], [-8.578776, 41.275445], [-8.590762, 41.268173], [-8.602773, 41.256241], [-8.610687, 41.240056], [-8.612121, 41.231053], [-8.610174, 41.213031], [-8.603142, 41.195206], [-8.59132, 41.17854], [-8.585339, 41.173145], [-8.582094, 41.177803], [-8.578825, 41.178941], [-8.580327, 41.180736], [-8.579765, 41.185826], [-8.591212, 41.195982], [-8.596467, 41.203976], [-8.601826, 41.22201], [-8.600866, 41.231015], [-8.597136, 41.24001], [-8.590887, 41.248089], [-8.578898, 41.256554], [-8.566931, 41.261125], [-8.55498, 41.263092], [-8.543043, 41.262969], [-8.53112, 41.260807], [-8.519216, 41.256307], [-8.507143, 41.248667], [-8.498335, 41.239622], [-8.491983, 41.22629], [-8.487935, 41.230354], [-8.490331, 41.232373], [-8.489156, 41.235528], [-8.486181, 41.236888], [-8.484411, 41.240495], [-8.476346, 41.237818], [-8.475756, 41.23917], [-8.470986, 41.23941], [-8.471604, 41.243459], [-8.469227, 41.245267], [-8.463258, 41.244384], [-8.459954, 41.246645]]]]}}]}