{"type": "FeatureCollection", "features": [{"id": "7", "type": "Feature", "properties": {"fill": "#fffebe", "value_min": 0.47, "value_max": -0.53}, "geometry": {"type": "MultiPolygon", "coordinates": [[[[-7.865317, 41.792094], [-7.901464, 41.789727], [-7.911084, 41.785007], [-7.920812, 41.776092], [-7.938278, 41.746713], [-7.946145, 41.740299], [-7.949636, 41.731324], [-7.949833, 41.722319], [-7.943674, 41.704249], [-7.936432, 41.695175], [-7.927234, 41.687618], [-7.91531, 41.682157], [-7.903313, 41.681131], [-7.891207, 41.686469], [-7.874907, 41.712603], [-7.866547, 41.722233], [-7.854456, 41.726135], [-7.842418, 41.726923], [-7.806413, 41.723468], [-7.794386, 41.723679], [-7.780461, 41.729653], [-7.775647, 41.738609], [-7.775938, 41.747619], [-7.778851, 41.756657], [-7.787661, 41.774764], [-7.794126, 41.783839], [-7.805121, 41.793127], [-7.81707, 41.79786], [-7.829092, 41.798657], [-7.865317, 41.792094]], [[-7.865395, 41.787674], [-7.841306, 41.788798], [-7.829307, 41.786814], [-7.817383, 41.780816], [-7.810896, 41.775007], [-7.806094, 41.76595], [-7.804411, 41.756926], [-7.806702, 41.747943], [-7.818167, 41.738097], [-7.83026, 41.734369], [-7.866434, 41.728648], [-7.877884, 41.721639], [-7.882659, 41.712679], [-7.890912, 41.703596], [-7.902974, 41.701103], [-7.9149, 41.706559], [-7.92014, 41.713037], [-7.920707, 41.722049], [-7.912587, 41.739987], [-7.907824, 41.766962], [-7.901171, 41.775906], [-7.889541, 41.783246], [-7.865395, 41.787674]]], [[[-8.46312, 41.693208], [-8.455919, 41.689914], [-8.443926, 41.687123], [-8.431912, 41.686897], [-8.407831, 41.692283], [-8.393101, 41.698494], [-8.380316, 41.707433], [-8.37504, 41.716412], [-8.374493, 41.725416], [-8.377124, 41.733981], [-8.384922, 41.73032], [-8.387032, 41.731891], [-8.393033, 41.729852], [-8.396942, 41.730518], [-8.399635, 41.727833], [-8.397146, 41.725537], [-8.39605, 41.716524], [-8.403439, 41.707556], [-8.407712, 41.705216], [-8.419752, 41.702924], [-8.431749, 41.705441], [-8.435945, 41.70772], [-8.440551, 41.714203], [-8.4446, 41.70654], [-8.453868, 41.697961], [-8.453255, 41.695487], [-8.458061, 41.695698], [-8.46312, 41.693208]]], [[[-8.219309, 41.688438], [-8.215637, 41.685972], [-8.203623, 41.685851], [-8.200148, 41.688306], [-8.196538, 41.697288], [-8.203398, 41.704063], [-8.215417, 41.704105], [-8.222648, 41.697468], [-8.219309, 41.688438]]], [[[-8.119371, 41.696309], [-8.118636, 41.696717], [-8.119346, 41.698108], [-8.120466, 41.696731], [-8.119371, 41.696309]]], [[[-8.161553, 41.633989], [-8.159082, 41.624964], [-8.156393, 41.622068], [-8.144475, 41.615557], [-8.132475, 41.615401], [-8.120396, 41.62102], [-8.117053, 41.624648], [-8.113896, 41.633631], [-8.118853, 41.642676], [-8.132024, 41.649051], [-8.144034, 41.648955], [-8.15612, 41.642998], [-8.161553, 41.633989]]], [[[-8.073612, 41.550748], [-8.085286, 41.557243], [-8.097239, 41.559997], [-8.109227, 41.560332], [-8.121248, 41.558208], [-8.131431, 41.5527], [-8.139798, 41.543756], [-8.141864, 41.534764], [-8.139057, 41.525736], [-8.128781, 41.516651], [-8.109904, 41.510988], [-8.0912, 41.511086], [-8.090295, 41.520803], [-8.097852, 41.51593], [-8.109836, 41.515977], [-8.123601, 41.525619], [-8.121545, 41.536313], [-8.109463, 41.543144], [-8.10646, 41.543022], [-8.103763, 41.542913], [-8.101666, 41.542828], [-8.094475, 41.544904], [-8.087885, 41.542876], [-8.083389, 41.5449], [-8.080687, 41.551651], [-8.074396, 41.549848], [-8.073612, 41.550748]]], [[[-8.296848, 41.313397], [-8.292249, 41.328616], [-8.290022, 41.346618], [-8.290801, 41.400668], [-8.286709, 41.418658], [-8.276209, 41.445615], [-8.275705, 41.463626], [-8.281027, 41.481674], [-8.301441, 41.529109], [-8.313302, 41.541055], [-8.325235, 41.546377], [-8.337201, 41.548719], [-8.349196, 41.548277], [-8.361218, 41.545031], [-8.373261, 41.539546], [-8.388474, 41.527333], [-8.409554, 41.503553], [-8.421622, 41.493835], [-8.433652, 41.488184], [-8.437615, 41.482547], [-8.432892, 41.455501], [-8.433689, 41.446498], [-8.443123, 41.419521], [-8.470502, 41.375874], [-8.482589, 41.359648], [-8.494626, 41.349151], [-8.506625, 41.343138], [-8.53057, 41.33757], [-8.594554, 41.330078], [-8.614283, 41.328743], [-8.626229, 41.329476], [-8.638165, 41.33202], [-8.65477, 41.339282], [-8.66724, 41.348327], [-8.685789, 41.369057], [-8.697697, 41.379589], [-8.721566, 41.391353], [-8.757421, 41.399175], [-8.781342, 41.400653], [-8.809758, 41.399717], [-8.799695, 41.14406], [-8.674793, 41.146932], [-8.674849, 41.153767], [-8.672489, 41.15648], [-8.66117, 41.156307], [-8.662078, 41.158104], [-8.660313, 41.160813], [-8.657033, 41.160378], [-8.654961, 41.161963], [-8.653231, 41.169174], [-8.655366, 41.175467], [-8.647955, 41.180228], [-8.647696, 41.185181], [-8.640929, 41.196241], [-8.634946, 41.193341], [-8.632526, 41.188624], [-8.625658, 41.186628], [-8.621132, 41.178994], [-8.613374, 41.177451], [-8.608583, 41.174095], [-8.609164, 41.172066], [-8.604942, 41.164881], [-8.59422, 41.165149], [-8.589766, 41.167193], [-8.589194, 41.170572], [-8.585925, 41.17171], [-8.583269, 41.175373], [-8.591323, 41.17809], [-8.604984, 41.18599], [-8.613981, 41.195028], [-8.619696, 41.204055], [-8.621945, 41.21307], [-8.621431, 41.222076], [-8.617837, 41.231072], [-8.610997, 41.240057], [-8.598879, 41.249024], [-8.578896, 41.256766], [-8.566947, 41.258711], [-8.555009, 41.258853], [-8.543084, 41.257113], [-8.531175, 41.253221], [-8.522815, 41.248733], [-8.512087, 41.239681], [-8.506152, 41.230648], [-8.503267, 41.221627], [-8.503085, 41.213649], [-8.500076, 41.21546], [-8.50308, 41.219502], [-8.502204, 41.222656], [-8.495642, 41.222227], [-8.495947, 41.223351], [-8.490894, 41.226294], [-8.487935, 41.230354], [-8.490331, 41.232373], [-8.489156, 41.235528], [-8.486181, 41.236888], [-8.484411, 41.240495], [-8.476346, 41.237818], [-8.475756, 41.23917], [-8.470986, 41.23941], [-8.471604, 41.243459], [-8.469227, 41.245267], [-8.463258, 41.244384], [-8.459989, 41.246644], [-8.454323, 41.246886], [-8.455541, 41.251834], [-8.452276, 41.25522], [-8.449891, 41.255452], [-8.449304, 41.257479], [-8.447812, 41.257258], [-8.449028, 41.261982], [-8.439785, 41.262907], [-8.438023, 41.268989], [-8.434745, 41.269673], [-8.432691, 41.277107], [-8.427032, 41.279372], [-8.429143, 41.284319], [-8.426171, 41.287028], [-8.426488, 41.291079], [-8.425013, 41.294909], [-8.422037, 41.296942], [-8.422647, 41.299867], [-8.407744, 41.304856], [-8.406262, 41.307335], [-8.403277, 41.307342], [-8.401801, 41.311398], [-8.399712, 41.311628], [-8.400316, 41.313202], [-8.396738, 41.314336], [-8.398835, 41.316131], [-8.393775, 41.31997], [-8.393489, 41.323122], [-8.391105, 41.324253], [-8.386325, 41.323588], [-8.380382, 41.331254], [-8.375305, 41.33104], [-8.37201, 41.328346], [-8.361563, 41.329718], [-8.358276, 41.329049], [-8.357673, 41.327249], [-8.350207, 41.327264], [-8.346032, 41.328847], [-8.342462, 41.333131], [-8.333215, 41.336299], [-8.326363, 41.342163], [-8.324568, 41.341041], [-8.323376, 41.341943], [-8.320676, 41.338121], [-8.312604, 41.334983], [-8.313794, 41.333405], [-8.31139, 41.328007], [-8.307502, 41.325762], [-8.305116, 41.326891], [-8.303024, 41.325994], [-8.303615, 41.323742], [-8.301216, 41.319694], [-8.296431, 41.316774], [-8.296848, 41.313397]], [[-8.349433, 41.524608], [-8.337444, 41.524969], [-8.325484, 41.522402], [-8.313572, 41.5155], [-8.30144, 41.499815], [-8.296095, 41.481768], [-8.296605, 41.472763], [-8.299869, 41.463776], [-8.30677, 41.45481], [-8.314279, 41.448491], [-8.326311, 41.442651], [-8.338309, 41.439977], [-8.350278, 41.440128], [-8.362214, 41.443577], [-8.374109, 41.451458], [-8.382895, 41.464251], [-8.385364, 41.473272], [-8.386081, 41.491291], [-8.383879, 41.500286], [-8.378212, 41.509263], [-8.361453, 41.521192], [-8.349433, 41.524608]], [[-8.374611, 41.39921], [-8.362631, 41.400989], [-8.350683, 41.399467], [-8.338782, 41.393306], [-8.330558, 41.382891], [-8.328305, 41.37387], [-8.32988, 41.364872], [-8.339193, 41.35274], [-8.351207, 41.34671], [-8.363179, 41.344808], [-8.377045, 41.347122], [-8.387018, 41.351868], [-8.39203, 41.356209], [-8.397575, 41.365246], [-8.398578, 41.374259], [-8.395721, 41.383252], [-8.38663, 41.393231], [-8.374611, 41.39921]], [[-8.721823, 41.330878], [-8.709881, 41.329125], [-8.697949, 41.325099], [-8.679039, 41.312329], [-8.671718, 41.303301], [-8.667545, 41.294281], [-8.666158, 41.285269], [-8.667265, 41.276265], [-8.671276, 41.267269], [-8.679213, 41.258283], [-8.686347, 41.252728], [-8.698306, 41.247666], [-8.710254, 41.244837], [-8.72219, 41.244446], [-8.734119, 41.245997], [-8.757953, 41.255621], [-8.770999, 41.26751], [-8.776406, 41.276529], [-8.77882, 41.285541], [-8.778713, 41.294549], [-8.776041, 41.303551], [-8.770032, 41.312547], [-8.759608, 41.321534], [-8.745736, 41.327912], [-8.733775, 41.330505], [-8.721823, 41.330878]], [[-8.686568, 41.206567], [-8.682136, 41.204244], [-8.679317, 41.195228], [-8.686646, 41.190098], [-8.698559, 41.192611], [-8.700977, 41.195287], [-8.699095, 41.20429], [-8.686568, 41.206567]]], [[[-8.697208, 41.485015], [-8.702355, 41.474529], [-8.700036, 41.465515], [-8.689794, 41.456481], [-8.685378, 41.454371], [-8.673414, 41.452477], [-8.66143, 41.45464], [-8.649417, 41.462115], [-8.643916, 41.474363], [-8.646631, 41.483379], [-8.659144, 41.492424], [-8.6732, 41.495036], [-8.68519, 41.493157], [-8.697208, 41.485015]]]]}}, {"id": "6", "type": "Feature", "properties": {"fill": "#eef8a7", "value_min": 0.4, "value_max": -0.47}, "geometry": {"type": "MultiPolygon", "coordinates": [[[[-7.865395, 41.787674], [-7.889541, 41.783246], [-7.901171, 41.775906], [-7.907824, 41.766962], [-7.912587, 41.739987], [-7.920707, 41.722049], [-7.92014, 41.713037], [-7.9149, 41.706559], [-7.902974, 41.701103], [-7.890912, 41.703596], [-7.882659, 41.712679], [-7.877884, 41.721639], [-7.866434, 41.728648], [-7.83026, 41.734369], [-7.818167, 41.738097], [-7.806702, 41.747943], [-7.804411, 41.756926], [-7.806094, 41.76595], [-7.810896, 41.775007], [-7.817383, 41.780816], [-7.829307, 41.786814], [-7.841306, 41.788798], [-7.865395, 41.787674]], [[-7.877537, 41.781522], [-7.85343, 41.783784], [-7.841426, 41.782118], [-7.829492, 41.776673], [-7.820418, 41.766098], [-7.819317, 41.75708], [-7.823001, 41.748111], [-7.836926, 41.739246], [-7.854297, 41.735039], [-7.878365, 41.734002], [-7.890306, 41.738814], [-7.898758, 41.748862], [-7.900026, 41.757881], [-7.897908, 41.766867], [-7.8898, 41.775796], [-7.877537, 41.781522]]], [[[-8.440551, 41.714203], [-8.435945, 41.70772], [-8.431749, 41.705441], [-8.419752, 41.702924], [-8.407712, 41.705216], [-8.403439, 41.707556], [-8.39605, 41.716524], [-8.397146, 41.725537], [-8.399635, 41.727833], [-8.402934, 41.726452], [-8.404721, 41.722847], [-8.417349, 41.725067], [-8.422737, 41.720552], [-8.429643, 41.719859], [-8.430533, 41.717381], [-8.435927, 41.714441], [-8.440551, 41.714203]]], [[[-8.10646, 41.543022], [-8.109463, 41.543144], [-8.121545, 41.536313], [-8.123601, 41.525619], [-8.109836, 41.515977], [-8.097852, 41.51593], [-8.090295, 41.520803], [-8.093588, 41.52307], [-8.09209, 41.524645], [-8.092385, 41.532749], [-8.10646, 41.543022]]], [[[-8.101666, 41.542828], [-8.101666, 41.542828], [-8.103763, 41.542913], [-8.101666, 41.542828]]], [[[-8.349433, 41.524608], [-8.361453, 41.521192], [-8.378212, 41.509263], [-8.383879, 41.500286], [-8.386081, 41.491291], [-8.385364, 41.473272], [-8.382895, 41.464251], [-8.374109, 41.451458], [-8.362214, 41.443577], [-8.350278, 41.440128], [-8.338309, 41.439977], [-8.326311, 41.442651], [-8.314279, 41.448491], [-8.30677, 41.45481], [-8.299869, 41.463776], [-8.296605, 41.472763], [-8.296095, 41.481768], [-8.30144, 41.499815], [-8.313572, 41.5155], [-8.325484, 41.522402], [-8.337444, 41.524969], [-8.349433, 41.524608]], [[-8.337564, 41.513179], [-8.325616, 41.509685], [-8.313734, 41.500165], [-8.30896, 41.490853], [-8.308266, 41.481841], [-8.311521, 41.472854], [-8.320979, 41.463902], [-8.326123, 41.460802], [-8.338126, 41.457963], [-8.350091, 41.458807], [-8.362011, 41.464251], [-8.370538, 41.473192], [-8.373779, 41.482217], [-8.37358, 41.491223], [-8.369604, 41.500209], [-8.361587, 41.507543], [-8.349554, 41.512559], [-8.337564, 41.513179]]], [[[-8.374611, 41.39921], [-8.38663, 41.393231], [-8.395721, 41.383252], [-8.398578, 41.374259], [-8.397575, 41.365246], [-8.39203, 41.356209], [-8.387018, 41.351868], [-8.377045, 41.347122], [-8.363179, 41.344808], [-8.351207, 41.34671], [-8.339193, 41.35274], [-8.32988, 41.364872], [-8.328305, 41.37387], [-8.330558, 41.382891], [-8.338782, 41.393306], [-8.350683, 41.399467], [-8.362631, 41.400989], [-8.374611, 41.39921]]], [[[-8.721823, 41.330878], [-8.733775, 41.330505], [-8.745736, 41.327912], [-8.759608, 41.321534], [-8.770032, 41.312547], [-8.776041, 41.303551], [-8.778713, 41.294549], [-8.77882, 41.285541], [-8.776406, 41.276529], [-8.770999, 41.26751], [-8.757953, 41.255621], [-8.734119, 41.245997], [-8.72219, 41.244446], [-8.710254, 41.244837], [-8.698306, 41.247666], [-8.686347, 41.252728], [-8.679213, 41.258283], [-8.671276, 41.267269], [-8.667265, 41.276265], [-8.666158, 41.285269], [-8.667545, 41.294281], [-8.671718, 41.303301], [-8.679039, 41.312329], [-8.697949, 41.325099], [-8.709881, 41.329125], [-8.721823, 41.330878]]], [[[-8.503085, 41.213649], [-8.503267, 41.221627], [-8.506152, 41.230648], [-8.512087, 41.239681], [-8.522815, 41.248733], [-8.531175, 41.253221], [-8.543084, 41.257113], [-8.555009, 41.258853], [-8.566947, 41.258711], [-8.578896, 41.256766], [-8.598879, 41.249024], [-8.610997, 41.240057], [-8.617837, 41.231072], [-8.621431, 41.222076], [-8.621945, 41.21307], [-8.619696, 41.204055], [-8.613981, 41.195028], [-8.604984, 41.18599], [-8.591323, 41.17809], [-8.583269, 41.175373], [-8.582094, 41.177803], [-8.578825, 41.178941], [-8.581296, 41.191762], [-8.575958, 41.195609], [-8.576894, 41.201908], [-8.574515, 41.202593], [-8.57423, 41.20462], [-8.567971, 41.204644], [-8.565895, 41.206227], [-8.567697, 41.208246], [-8.566512, 41.209376], [-8.559636, 41.206251], [-8.554271, 41.20627], [-8.549521, 41.209214], [-8.544157, 41.209458], [-8.54238, 41.211265], [-8.532257, 41.213102], [-8.52653, 41.202542], [-8.523236, 41.200077], [-8.520554, 41.200086], [-8.51163, 41.203042], [-8.510456, 41.206197], [-8.505693, 41.207113], [-8.505713, 41.210715], [-8.503085, 41.213649]]], [[[-8.686568, 41.206567], [-8.699095, 41.20429], [-8.700977, 41.195287], [-8.698559, 41.192611], [-8.686646, 41.190098], [-8.679317, 41.195228], [-8.682136, 41.204244], [-8.686568, 41.206567]]]]}}, {"id": "8", "type": "Feature", "properties": {"fill": "#fecb90", "value_min": 0.53, "value_max": -0.6}, "geometry": {"type": "MultiPolygon", "coordinates": [[[[-8.46312, 41.693208], [-8.482012, 41.682123], [-8.484371, 41.674238], [-8.49308, 41.674886], [-8.499963, 41.671038], [-8.50927, 41.671233], [-8.51018, 41.672806], [-8.511967, 41.670324], [-8.509856, 41.668755], [-8.522103, 41.658811], [-8.525706, 41.659023], [-8.527769, 41.652714], [-8.534066, 41.652017], [-8.537355, 41.64998], [-8.537634, 41.646602], [-8.543876, 41.637352], [-8.543855, 41.633976], [-8.536342, 41.631977], [-8.535128, 41.62973], [-8.543431, 41.61462], [-8.554533, 41.615255], [-8.557244, 41.617046], [-8.562639, 41.61635], [-8.568056, 41.619031], [-8.570735, 41.616095], [-8.577321, 41.614269], [-8.581231, 41.615829], [-8.585766, 41.620988], [-8.591462, 41.620515], [-8.596534, 41.616668], [-8.601628, 41.615972], [-8.603996, 41.611686], [-8.613256, 41.606696], [-8.619881, 41.610269], [-8.621338, 41.604636], [-8.628833, 41.604378], [-8.636302, 41.600744], [-8.64075, 41.594422], [-8.645536, 41.593051], [-8.646744, 41.594171], [-8.649125, 41.591909], [-8.656622, 41.5921], [-8.660788, 41.588255], [-8.663794, 41.589141], [-8.665265, 41.585758], [-8.66948, 41.587989], [-8.684455, 41.586117], [-8.685608, 41.58071], [-8.697261, 41.576376], [-8.701703, 41.570277], [-8.707704, 41.570923], [-8.712485, 41.569323], [-8.716422, 41.573805], [-8.720316, 41.57356], [-8.725151, 41.577811], [-8.726633, 41.576003], [-8.734424, 41.575737], [-8.736564, 41.580228], [-8.738354, 41.579318], [-8.740778, 41.582006], [-8.74467, 41.581535], [-8.750711, 41.58623], [-8.756374, 41.582823], [-8.75635, 41.580347], [-8.762327, 41.578514], [-8.764443, 41.580303], [-8.767441, 41.580286], [-8.769874, 41.583874], [-8.768997, 41.58613], [-8.773228, 41.589482], [-8.775371, 41.593972], [-8.78556, 41.593464], [-8.797327, 41.600599], [-8.804218, 41.600109], [-8.80456, 41.604158], [-8.809434, 41.611332], [-8.828644, 41.609656], [-8.82839, 41.585633], [-8.818497, 41.554794], [-8.8221, 41.547542], [-8.821965, 41.534907], [-8.815926, 41.525624], [-8.81063, 41.5101], [-8.813279, 41.503483], [-8.812636, 41.496944], [-8.804699, 41.482068], [-8.798552, 41.474753], [-8.80154, 41.446836], [-8.806115, 41.43713], [-8.807354, 41.425915], [-8.811035, 41.418186], [-8.809758, 41.399717], [-8.781342, 41.400653], [-8.757421, 41.399175], [-8.721566, 41.391353], [-8.697697, 41.379589], [-8.685789, 41.369057], [-8.66724, 41.348327], [-8.65477, 41.339282], [-8.638165, 41.33202], [-8.626229, 41.329476], [-8.614283, 41.328743], [-8.594554, 41.330078], [-8.53057, 41.33757], [-8.506625, 41.343138], [-8.494626, 41.349151], [-8.482589, 41.359648], [-8.470502, 41.375874], [-8.443123, 41.419521], [-8.433689, 41.446498], [-8.432892, 41.455501], [-8.437615, 41.482547], [-8.433652, 41.488184], [-8.421622, 41.493835], [-8.409554, 41.503553], [-8.388474, 41.527333], [-8.373261, 41.539546], [-8.361218, 41.545031], [-8.349196, 41.548277], [-8.337201, 41.548719], [-8.325235, 41.546377], [-8.313302, 41.541055], [-8.301441, 41.529109], [-8.281027, 41.481674], [-8.275705, 41.463626], [-8.276209, 41.445615], [-8.286709, 41.418658], [-8.290801, 41.400668], [-8.290022, 41.346618], [-8.292249, 41.328616], [-8.296848, 41.313397], [-8.296116, 41.310022], [-8.292241, 41.312504], [-8.289255, 41.312508], [-8.284488, 41.316341], [-8.281801, 41.316569], [-8.281808, 41.319721], [-8.278828, 41.321976], [-8.278238, 41.325128], [-8.273161, 41.325134], [-8.269582, 41.326939], [-8.265709, 41.331221], [-8.269004, 41.336169], [-8.263339, 41.340902], [-8.262751, 41.345405], [-8.256483, 41.347663], [-8.255889, 41.349689], [-8.249622, 41.353072], [-8.251123, 41.356897], [-8.248141, 41.360052], [-8.248448, 41.364328], [-8.245461, 41.364781], [-8.244272, 41.368384], [-8.239197, 41.371315], [-8.232024, 41.369971], [-8.22575, 41.370787], [-8.233271, 41.373276], [-8.236483, 41.382305], [-8.231161, 41.390418], [-8.219172, 41.392782], [-8.213576, 41.391159], [-8.205247, 41.382094], [-8.20791, 41.376968], [-8.199163, 41.377423], [-8.194677, 41.374275], [-8.191691, 41.376302], [-8.189299, 41.375403], [-8.184818, 41.376756], [-8.168382, 41.377438], [-8.1642, 41.38059], [-8.152544, 41.375866], [-8.151049, 41.37339], [-8.145073, 41.374742], [-8.139694, 41.377894], [-8.133418, 41.374292], [-8.123914, 41.376318], [-8.1475, 41.385312], [-8.159379, 41.391681], [-8.181918, 41.408953], [-8.194859, 41.424374], [-8.214474, 41.454217], [-8.223321, 41.463284], [-8.254074, 41.478644], [-8.265943, 41.488252], [-8.273269, 41.49964], [-8.276045, 41.508665], [-8.275917, 41.517672], [-8.272817, 41.52666], [-8.265394, 41.536822], [-8.253319, 41.544382], [-8.241284, 41.548251], [-8.229288, 41.548741], [-8.217325, 41.546527], [-8.205393, 41.541783], [-8.181615, 41.52594], [-8.160106, 41.516884], [-8.118445, 41.507565], [-8.092701, 41.504485], [-8.0912, 41.511086], [-8.109904, 41.510988], [-8.128781, 41.516651], [-8.139057, 41.525736], [-8.141864, 41.534764], [-8.139798, 41.543756], [-8.131431, 41.5527], [-8.121248, 41.558208], [-8.109227, 41.560332], [-8.097239, 41.559997], [-8.085286, 41.557243], [-8.073612, 41.550748], [-8.076188, 41.557276], [-8.080082, 41.558854], [-8.081576, 41.565157], [-8.078879, 41.56493], [-8.075279, 41.568305], [-8.073182, 41.568079], [-8.069283, 41.570553], [-8.068081, 41.573478], [-8.056684, 41.579549], [-8.052181, 41.584498], [-8.052777, 41.587649], [-8.048277, 41.590122], [-8.047974, 41.592373], [-8.037169, 41.600242], [-8.03447, 41.600563], [-8.048511, 41.61172], [-8.060409, 41.624199], [-8.075651, 41.63333], [-8.096118, 41.640392], [-8.1307, 41.660781], [-8.143045, 41.669881], [-8.142925, 41.678887], [-8.119501, 41.686785], [-8.104703, 41.696609], [-8.101666, 41.705593], [-8.103383, 41.714613], [-8.106988, 41.722667], [-8.118896, 41.731077], [-8.130921, 41.730988], [-8.143, 41.726913], [-8.155117, 41.719701], [-8.167201, 41.714916], [-8.179213, 41.715638], [-8.203152, 41.724005], [-8.215147, 41.726296], [-8.227194, 41.724291], [-8.24338, 41.71562], [-8.275663, 41.690672], [-8.28774, 41.685157], [-8.299784, 41.682542], [-8.323826, 41.68149], [-8.325523, 41.680103], [-8.330042, 41.662116], [-8.336277, 41.653145], [-8.34824, 41.643349], [-8.360295, 41.638559], [-8.372315, 41.637202], [-8.384308, 41.63869], [-8.396265, 41.643989], [-8.407515, 41.653534], [-8.412086, 41.662565], [-8.410033, 41.671561], [-8.400265, 41.680518], [-8.383849, 41.686874], [-8.371815, 41.688697], [-8.335783, 41.687051], [-8.33267, 41.689152], [-8.333488, 41.698164], [-8.351719, 41.743893], [-8.352203, 41.739616], [-8.357897, 41.735103], [-8.362407, 41.735994], [-8.368703, 41.73193], [-8.371416, 41.7344], [-8.377124, 41.733981], [-8.374493, 41.725416], [-8.37504, 41.716412], [-8.380316, 41.707433], [-8.393101, 41.698494], [-8.407831, 41.692283], [-8.431912, 41.686897], [-8.443926, 41.687123], [-8.455919, 41.689914], [-8.46312, 41.693208]], [[-8.219309, 41.688438], [-8.222648, 41.697468], [-8.215417, 41.704105], [-8.203398, 41.704063], [-8.196538, 41.697288], [-8.200148, 41.688306], [-8.203623, 41.685851], [-8.215637, 41.685972], [-8.219309, 41.688438]], [[-8.119371, 41.696309], [-8.120466, 41.696731], [-8.119346, 41.698108], [-8.118636, 41.696717], [-8.119371, 41.696309]], [[-8.161553, 41.633989], [-8.15612, 41.642998], [-8.144034, 41.648955], [-8.132024, 41.649051], [-8.118853, 41.642676], [-8.113896, 41.633631], [-8.117053, 41.624648], [-8.120396, 41.62102], [-8.132475, 41.615401], [-8.144475, 41.615557], [-8.156393, 41.622068], [-8.159082, 41.624964], [-8.161553, 41.633989]], [[-8.444898, 41.573931], [-8.432929, 41.571001], [-8.421009, 41.562657], [-8.416246, 41.554499], [-8.415652, 41.545489], [-8.419038, 41.536499], [-8.426987, 41.527531], [-8.433347, 41.523124], [-8.457391, 41.514383], [-8.481464, 41.501191], [-8.493434, 41.502759], [-8.502037, 41.509866], [-8.502488, 41.518875], [-8.498332, 41.536872], [-8.487986, 41.554841], [-8.468916, 41.570528], [-8.456894, 41.573851], [-8.444898, 41.573931]], [[-8.636845, 41.569098], [-8.62485, 41.569329], [-8.612869, 41.567063], [-8.600905, 41.562165], [-8.588966, 41.553811], [-8.581304, 41.546211], [-8.57166, 41.528161], [-8.571033, 41.519151], [-8.573604, 41.510153], [-8.577294, 41.504755], [-8.580867, 41.501173], [-8.589324, 41.497082], [-8.601313, 41.495746], [-8.61329, 41.496472], [-8.637211, 41.503724], [-8.649922, 41.510411], [-8.66121, 41.519452], [-8.668303, 41.52848], [-8.670824, 41.537495], [-8.669872, 41.5465], [-8.664648, 41.555492], [-8.648856, 41.566071], [-8.636845, 41.569098]], [[-8.697208, 41.485015], [-8.68519, 41.493157], [-8.6732, 41.495036], [-8.659144, 41.492424], [-8.646631, 41.483379], [-8.643916, 41.474363], [-8.649417, 41.462115], [-8.66143, 41.45464], [-8.673414, 41.452477], [-8.685378, 41.454371], [-8.689794, 41.456481], [-8.700036, 41.465515], [-8.702355, 41.474529], [-8.697208, 41.485015]], [[-8.553429, 41.490222], [-8.541464, 41.488144], [-8.52953, 41.481959], [-8.521202, 41.473918], [-8.517657, 41.467731], [-8.514964, 41.455876], [-8.517819, 41.44588], [-8.523803, 41.437898], [-8.529881, 41.433329], [-8.541882, 41.42877], [-8.553857, 41.427769], [-8.56581, 41.430019], [-8.577738, 41.436298], [-8.586536, 41.447148], [-8.58861, 41.456163], [-8.587671, 41.465167], [-8.584033, 41.474162], [-8.577435, 41.483069], [-8.565411, 41.489852], [-8.553429, 41.490222]]], [[[-7.726183, 41.796136], [-7.73284, 41.796611], [-7.745881, 41.801335], [-7.768756, 41.806624], [-7.816582, 41.824371], [-7.828652, 41.822786], [-7.839116, 41.811322], [-7.850085, 41.802426], [-7.865218, 41.79771], [-7.877264, 41.797189], [-7.896306, 41.802879], [-7.913042, 41.816768], [-7.925082, 41.816779], [-7.949217, 41.813401], [-7.973282, 41.814224], [-7.985278, 41.816998], [-7.99748, 41.821821], [-8.012758, 41.830623], [-8.014266, 41.828899], [-8.017873, 41.831379], [-8.02901, 41.829589], [-8.037134, 41.831171], [-8.041351, 41.828023], [-8.041054, 41.825097], [-8.045268, 41.824425], [-8.047679, 41.821276], [-8.057314, 41.815656], [-8.06664, 41.817012], [-8.072961, 41.813414], [-8.078678, 41.813417], [-8.082892, 41.810493], [-8.089291, 41.812296], [-8.069066, 41.768382], [-8.043084, 41.732141], [-8.02294, 41.715473], [-7.986247, 41.695626], [-7.975331, 41.685569], [-7.962412, 41.668392], [-7.953985, 41.650301], [-7.951042, 41.63226], [-7.954733, 41.61428], [-7.963123, 41.602409], [-7.9541, 41.602846], [-7.952606, 41.600592], [-7.947808, 41.60081], [-7.945413, 41.599456], [-7.942725, 41.595625], [-7.935832, 41.594713], [-7.93791, 41.601694], [-7.937004, 41.603718], [-7.931604, 41.604384], [-7.930979, 41.612711], [-7.925556, 41.620354], [-7.920755, 41.620796], [-7.917748, 41.623041], [-7.915933, 41.627764], [-7.913229, 41.628885], [-7.912613, 41.63361], [-7.906014, 41.633147], [-7.906884, 41.641927], [-7.897869, 41.645511], [-7.89696, 41.647985], [-7.892759, 41.647976], [-7.892145, 41.651576], [-7.902319, 41.659925], [-7.899913, 41.66127], [-7.900198, 41.665547], [-7.898396, 41.665769], [-7.896885, 41.668692], [-7.883969, 41.67069], [-7.879755, 41.673607], [-7.877044, 41.676077], [-7.876723, 41.681253], [-7.873401, 41.686198], [-7.868896, 41.686413], [-7.868008, 41.68326], [-7.864403, 41.683701], [-7.864077, 41.685276], [-7.867161, 41.687301], [-7.87107, 41.694552], [-7.872053, 41.703568], [-7.866674, 41.714993], [-7.854541, 41.72133], [-7.842519, 41.721307], [-7.830583, 41.716577], [-7.822562, 41.711056], [-7.818621, 41.713522], [-7.815291, 41.718689], [-7.808986, 41.717996], [-7.808396, 41.715744], [-7.803298, 41.714154], [-7.790966, 41.717044], [-7.789449, 41.719966], [-7.78464, 41.720402], [-7.78252, 41.723546], [-7.776204, 41.724652], [-7.773786, 41.727346], [-7.7678, 41.723276], [-7.763888, 41.724389], [-7.761765, 41.727758], [-7.762933, 41.733839], [-7.759307, 41.737203], [-7.759597, 41.739005], [-7.75689, 41.739446], [-7.758687, 41.740577], [-7.757758, 41.745301], [-7.748417, 41.749321], [-7.747786, 41.754496], [-7.743866, 41.756509], [-7.740214, 41.763924], [-7.726937, 41.771755], [-7.7254, 41.777152], [-7.727191, 41.779184], [-7.724177, 41.780299], [-7.725372, 41.781653], [-7.722302, 41.791546], [-7.726183, 41.796136]], [[-7.865317, 41.792094], [-7.829092, 41.798657], [-7.81707, 41.79786], [-7.805121, 41.793127], [-7.794126, 41.783839], [-7.787661, 41.774764], [-7.778851, 41.756657], [-7.775938, 41.747619], [-7.775647, 41.738609], [-7.780461, 41.729653], [-7.794386, 41.723679], [-7.806413, 41.723468], [-7.842418, 41.726923], [-7.854456, 41.726135], [-7.866547, 41.722233], [-7.874907, 41.712603], [-7.891207, 41.686469], [-7.903313, 41.681131], [-7.91531, 41.682157], [-7.927234, 41.687618], [-7.936432, 41.695175], [-7.943674, 41.704249], [-7.949833, 41.722319], [-7.949636, 41.731324], [-7.946145, 41.740299], [-7.938278, 41.746713], [-7.920812, 41.776092], [-7.911084, 41.785007], [-7.901464, 41.789727], [-7.865317, 41.792094]]], [[[-8.012897, 41.830699], [-8.012897, 41.830699], [-8.013059, 41.830787], [-8.012897, 41.830699]]], [[[-7.863416, 41.684824], [-7.863416, 41.684824], [-7.863797, 41.685085], [-7.863416, 41.684824]]], [[[-8.215292, 41.371311], [-8.219447, 41.36977], [-8.224255, 41.370546], [-8.21738, 41.368182], [-8.215292, 41.371311]]]]}}, {"id": "12", "type": "Feature", "properties": {"fill": "#e85c3f", "value_min": 0.8, "value_max": -0.87}, "geometry": {"type": "MultiPolygon", "coordinates": [[[[-8.103927, 41.678589], [-8.099162, 41.669545], [-8.095742, 41.667293], [-8.083738, 41.666716], [-8.078542, 41.669382], [-8.072972, 41.678344], [-8.079643, 41.687404], [-8.083417, 41.689355], [-8.095451, 41.688077], [-8.103927, 41.678589]], [[-8.083516, 41.682356], [-8.080038, 41.678401], [-8.083631, 41.674237], [-8.095644, 41.674279], [-8.09857, 41.678547], [-8.095536, 41.682016], [-8.083516, 41.682356]]], [[[-8.134209, 41.485567], [-8.136955, 41.480684], [-8.1336, 41.471651], [-8.122508, 41.465016], [-8.110538, 41.464632], [-8.098202, 41.471379], [-8.095343, 41.480364], [-8.101645, 41.489421], [-8.110153, 41.492803], [-8.122128, 41.493181], [-8.131401, 41.489649], [-8.134209, 41.485567]], [[-8.110311, 41.481217], [-8.110331, 41.479812], [-8.122491, 41.480574], [-8.122294, 41.480856], [-8.110311, 41.481217]]]]}}, {"id": "13", "type": "Feature", "properties": {"fill": "#e14a35", "value_min": 0.87, "value_max": -0.93}, "geometry": {"type": "MultiPolygon", "coordinates": [[[[-8.083516, 41.682356], [-8.095536, 41.682016], [-8.09857, 41.678547], [-8.095644, 41.674279], [-8.083631, 41.674237], [-8.080038, 41.678401], [-8.083516, 41.682356]]], [[[-8.110311, 41.481217], [-8.122294, 41.480856], [-8.122491, 41.480574], [-8.110331, 41.479812], [-8.110311, 41.481217]]]]}}, {"id": "4", "type": "Feature", "properties": {"fill": "#bde282", "value_min": 0.27, "value_max": -0.33}, "geometry": {"type": "MultiPolygon", "coordinates": [[[[-7.889813, 41.767455], [-7.893091, 41.757814], [-7.889496, 41.748773], [-7.878248, 41.740709], [-7.866266, 41.738234], [-7.854223, 41.739219], [-7.842126, 41.743179], [-7.833988, 41.748223], [-7.829555, 41.757185], [-7.830835, 41.766204], [-7.840013, 41.775304], [-7.853502, 41.779713], [-7.865531, 41.779971], [-7.877614, 41.777113], [-7.889813, 41.767455]], [[-7.853575, 41.775642], [-7.838525, 41.766282], [-7.836483, 41.757255], [-7.842723, 41.748311], [-7.854157, 41.742956], [-7.866202, 41.741877], [-7.878167, 41.745392], [-7.882791, 41.748708], [-7.887411, 41.757759], [-7.884901, 41.766742], [-7.877692, 41.772647], [-7.868811, 41.775591], [-7.853575, 41.775642]]], [[[-8.361718, 41.494201], [-8.363633, 41.491169], [-8.363643, 41.482161], [-8.355917, 41.473111], [-8.349983, 41.469671], [-8.338018, 41.468541], [-8.325995, 41.473129], [-8.319423, 41.481908], [-8.319529, 41.490916], [-8.326743, 41.499966], [-8.337655, 41.504268], [-8.349645, 41.503397], [-8.355763, 41.500132], [-8.361718, 41.494201]], [[-8.337752, 41.49472], [-8.332319, 41.490991], [-8.332908, 41.481987], [-8.337914, 41.478776], [-8.349874, 41.480506], [-8.351582, 41.482094], [-8.351937, 41.491103], [-8.349748, 41.493118], [-8.337752, 41.49472]]]]}}, {"id": "9", "type": "Feature", "properties": {"fill": "#fc9863", "value_min": 0.6, "value_max": -0.67}, "geometry": {"type": "MultiPolygon", "coordinates": [[[[-8.013059, 41.830787], [-8.012897, 41.830699], [-8.012758, 41.830623], [-7.99748, 41.821821], [-7.985278, 41.816998], [-7.973282, 41.814224], [-7.949217, 41.813401], [-7.925082, 41.816779], [-7.913042, 41.816768], [-7.896306, 41.802879], [-7.877264, 41.797189], [-7.865218, 41.79771], [-7.850085, 41.802426], [-7.839116, 41.811322], [-7.828652, 41.822786], [-7.816582, 41.824371], [-7.768756, 41.806624], [-7.745881, 41.801335], [-7.73284, 41.796611], [-7.726183, 41.796136], [-7.728879, 41.797871], [-7.727026, 41.805517], [-7.72995, 41.819031], [-7.73594, 41.823554], [-7.74345, 41.825605], [-7.738918, 41.82874], [-7.756317, 41.827375], [-7.768329, 41.82893], [-7.780301, 41.832632], [-7.789605, 41.837831], [-7.800079, 41.846948], [-7.805666, 41.856013], [-7.808534, 41.870595], [-7.814229, 41.873537], [-7.823863, 41.874013], [-7.825059, 41.875817], [-7.830479, 41.875831], [-7.830789, 41.874031], [-7.832894, 41.874712], [-7.83772, 41.872924], [-7.842528, 41.875187], [-7.841663, 41.866632], [-7.849515, 41.861475], [-7.858542, 41.862622], [-7.859456, 41.860148], [-7.864877, 41.859711], [-7.87033, 41.851395], [-7.873043, 41.850501], [-7.873367, 41.844875], [-7.879056, 41.85254], [-7.886268, 41.855932], [-7.888076, 41.855486], [-7.891675, 41.859094], [-7.900698, 41.861588], [-7.904318, 41.859795], [-7.907309, 41.865203], [-7.906095, 41.868126], [-7.910299, 41.871285], [-7.909985, 41.875111], [-7.915391, 41.879397], [-7.921118, 41.877833], [-7.928044, 41.87807], [-7.935283, 41.874707], [-7.937389, 41.87516], [-7.941618, 41.870891], [-7.951254, 41.871132], [-7.956367, 41.87339], [-7.956362, 41.875191], [-7.960878, 41.875648], [-7.962086, 41.874074], [-7.973828, 41.875216], [-7.987996, 41.869157], [-7.990123, 41.860157], [-7.995547, 41.858138], [-7.994047, 41.855211], [-7.996765, 41.851162], [-8.003089, 41.850494], [-8.005804, 41.847346], [-8.007928, 41.838796], [-8.010941, 41.836773], [-8.013059, 41.830787]], [[-7.945794, 41.839371], [-7.948824, 41.837408], [-7.953407, 41.839441], [-7.948732, 41.843027], [-7.945794, 41.839371]], [[-7.864786, 41.822208], [-7.858948, 41.811521], [-7.865068, 41.806201], [-7.877117, 41.805597], [-7.88394, 41.811767], [-7.87955, 41.820731], [-7.876819, 41.822622], [-7.864786, 41.822208]]], [[[-8.351719, 41.743893], [-8.333488, 41.698164], [-8.33267, 41.689152], [-8.335783, 41.687051], [-8.371815, 41.688697], [-8.383849, 41.686874], [-8.400265, 41.680518], [-8.410033, 41.671561], [-8.412086, 41.662565], [-8.407515, 41.653534], [-8.396265, 41.643989], [-8.384308, 41.63869], [-8.372315, 41.637202], [-8.360295, 41.638559], [-8.34824, 41.643349], [-8.336277, 41.653145], [-8.330042, 41.662116], [-8.325523, 41.680103], [-8.323826, 41.68149], [-8.299784, 41.682542], [-8.28774, 41.685157], [-8.275663, 41.690672], [-8.24338, 41.71562], [-8.227194, 41.724291], [-8.215147, 41.726296], [-8.203152, 41.724005], [-8.179213, 41.715638], [-8.167201, 41.714916], [-8.155117, 41.719701], [-8.143, 41.726913], [-8.130921, 41.730988], [-8.118896, 41.731077], [-8.106988, 41.722667], [-8.103383, 41.714613], [-8.101666, 41.705593], [-8.104703, 41.696609], [-8.119501, 41.686785], [-8.142925, 41.678887], [-8.143045, 41.669881], [-8.1307, 41.660781], [-8.096118, 41.640392], [-8.075651, 41.63333], [-8.060409, 41.624199], [-8.048511, 41.61172], [-8.03447, 41.600563], [-8.031467, 41.602938], [-8.02367, 41.603156], [-8.019174, 41.601802], [-8.015872, 41.603824], [-8.013474, 41.603372], [-8.005971, 41.60629], [-8.003562, 41.611239], [-7.99936, 41.61281], [-7.998462, 41.612359], [-7.999669, 41.608759], [-7.996976, 41.605829], [-7.996684, 41.602003], [-7.984685, 41.603564], [-7.982292, 41.60086], [-7.975689, 41.603552], [-7.974482, 41.606701], [-7.971182, 41.607147], [-7.969091, 41.603768], [-7.963123, 41.602409], [-7.954733, 41.61428], [-7.951042, 41.63226], [-7.953985, 41.650301], [-7.962412, 41.668392], [-7.975331, 41.685569], [-7.986247, 41.695626], [-8.02294, 41.715473], [-8.043084, 41.732141], [-8.069066, 41.768382], [-8.089291, 41.812296], [-8.093421, 41.811397], [-8.093723, 41.808471], [-8.101845, 41.809824], [-8.104853, 41.81185], [-8.115984, 41.812302], [-8.123807, 41.808702], [-8.138247, 41.808477], [-8.139751, 41.813203], [-8.14276, 41.812978], [-8.145769, 41.815453], [-8.149078, 41.814777], [-8.153893, 41.817928], [-8.161415, 41.818376], [-8.165326, 41.81815], [-8.173744, 41.808019], [-8.177054, 41.808017], [-8.182773, 41.812516], [-8.190291, 41.809587], [-8.197158, 41.814129], [-8.201063, 41.808724], [-8.204973, 41.807372], [-8.205872, 41.804445], [-8.213692, 41.803765], [-8.217598, 41.80016], [-8.217589, 41.793634], [-8.224207, 41.794303], [-8.229917, 41.791598], [-8.240744, 41.791588], [-8.24074, 41.789338], [-8.244347, 41.787984], [-8.245546, 41.785731], [-8.251257, 41.784375], [-8.251845, 41.777172], [-8.25605, 41.774558], [-8.250501, 41.769709], [-8.245633, 41.76067], [-8.245104, 41.75166], [-8.248474, 41.742675], [-8.255786, 41.733715], [-8.263218, 41.728184], [-8.275303, 41.722722], [-8.287346, 41.720865], [-8.299351, 41.722466], [-8.311313, 41.728147], [-8.318018, 41.734102], [-8.323504, 41.743141], [-8.325486, 41.75216], [-8.322825, 41.764076], [-8.326436, 41.765096], [-8.328234, 41.763292], [-8.336653, 41.763728], [-8.338452, 41.762149], [-8.344765, 41.762363], [-8.349267, 41.760103], [-8.352557, 41.755145], [-8.34982, 41.745922], [-8.349814, 41.744122], [-8.351719, 41.743893]], [[-8.166671, 41.75593], [-8.158992, 41.751062], [-8.156299, 41.742035], [-8.166958, 41.733718], [-8.178956, 41.735798], [-8.185701, 41.742247], [-8.183206, 41.751236], [-8.178717, 41.754617], [-8.166671, 41.75593]], [[-8.059108, 41.708289], [-8.047108, 41.706954], [-8.045402, 41.705139], [-8.045569, 41.696134], [-8.036728, 41.687053], [-8.011496, 41.677788], [-8.000445, 41.668729], [-7.996841, 41.65969], [-7.998921, 41.650702], [-8.012071, 41.640174], [-8.024109, 41.638157], [-8.036084, 41.640279], [-8.059959, 41.649842], [-8.083959, 41.651114], [-8.095938, 41.653273], [-8.110839, 41.660629], [-8.118882, 41.669698], [-8.117982, 41.678698], [-8.095307, 41.698381], [-8.0832, 41.70461], [-8.059108, 41.708289]]], [[[-7.822562, 41.711056], [-7.830583, 41.716577], [-7.842519, 41.721307], [-7.854541, 41.72133], [-7.866674, 41.714993], [-7.872053, 41.703568], [-7.87107, 41.694552], [-7.867161, 41.687301], [-7.864077, 41.685276], [-7.863797, 41.685085], [-7.863416, 41.684824], [-7.858987, 41.68639], [-7.857773, 41.689538], [-7.854776, 41.68818], [-7.84483, 41.696451], [-7.855006, 41.695114], [-7.863545, 41.703484], [-7.859966, 41.712456], [-7.854645, 41.715448], [-7.842656, 41.713674], [-7.839958, 41.712256], [-7.838472, 41.707921], [-7.838465, 41.709522], [-7.832753, 41.710408], [-7.825252, 41.708813], [-7.822562, 41.711056]]], [[[-7.836861, 41.703216], [-7.842534, 41.697153], [-7.837309, 41.699391], [-7.835796, 41.701863], [-7.836861, 41.703216]]], [[[-7.84453, 41.696491], [-7.84453, 41.696491], [-7.844587, 41.696483], [-7.84453, 41.696491]]], [[[-8.444898, 41.573931], [-8.456894, 41.573851], [-8.468916, 41.570528], [-8.487986, 41.554841], [-8.498332, 41.536872], [-8.502488, 41.518875], [-8.502037, 41.509866], [-8.493434, 41.502759], [-8.481464, 41.501191], [-8.457391, 41.514383], [-8.433347, 41.523124], [-8.426987, 41.527531], [-8.419038, 41.536499], [-8.415652, 41.545489], [-8.416246, 41.554499], [-8.421009, 41.562657], [-8.432929, 41.571001], [-8.444898, 41.573931]], [[-8.448798, 41.545652], [-8.457169, 41.540906], [-8.459481, 41.545703], [-8.457113, 41.547655], [-8.448798, 41.545652]]], [[[-8.636845, 41.569098], [-8.648856, 41.566071], [-8.664648, 41.555492], [-8.669872, 41.5465], [-8.670824, 41.537495], [-8.668303, 41.52848], [-8.66121, 41.519452], [-8.649922, 41.510411], [-8.637211, 41.503724], [-8.61329, 41.496472], [-8.601313, 41.495746], [-8.589324, 41.497082], [-8.580867, 41.501173], [-8.577294, 41.504755], [-8.573604, 41.510153], [-8.571033, 41.519151], [-8.57166, 41.528161], [-8.581304, 41.546211], [-8.588966, 41.553811], [-8.600905, 41.562165], [-8.612869, 41.567063], [-8.62485, 41.569329], [-8.636845, 41.569098]]], [[[-8.092701, 41.504485], [-8.118445, 41.507565], [-8.160106, 41.516884], [-8.181615, 41.52594], [-8.205393, 41.541783], [-8.217325, 41.546527], [-8.229288, 41.548741], [-8.241284, 41.548251], [-8.253319, 41.544382], [-8.265394, 41.536822], [-8.272817, 41.52666], [-8.275917, 41.517672], [-8.276045, 41.508665], [-8.273269, 41.49964], [-8.265943, 41.488252], [-8.254074, 41.478644], [-8.223321, 41.463284], [-8.214474, 41.454217], [-8.194859, 41.424374], [-8.181918, 41.408953], [-8.159379, 41.391681], [-8.1475, 41.385312], [-8.123914, 41.376318], [-8.119672, 41.376768], [-8.119672, 41.378569], [-8.116683, 41.380144], [-8.117877, 41.385771], [-8.113992, 41.386896], [-8.112795, 41.390723], [-8.110105, 41.390947], [-8.108011, 41.393648], [-8.103827, 41.392972], [-8.105321, 41.394998], [-8.10263, 41.396123], [-8.10801, 41.398825], [-8.108606, 41.403102], [-8.104419, 41.406252], [-8.104119, 41.408728], [-8.101727, 41.409403], [-8.102025, 41.411204], [-8.092756, 41.411201], [-8.09126, 41.414352], [-8.079893, 41.41975], [-8.077503, 41.416597], [-8.070923, 41.41862], [-8.066739, 41.416142], [-8.061654, 41.417489], [-8.059852, 41.424916], [-8.055959, 41.429415], [-8.05745, 41.432793], [-8.056549, 41.436394], [-8.068803, 41.446279], [-8.074952, 41.440878], [-8.086575, 41.435258], [-8.099016, 41.431943], [-8.110995, 41.431185], [-8.122946, 41.432447], [-8.134869, 41.4359], [-8.146768, 41.441295], [-8.161596, 41.453844], [-8.167288, 41.462892], [-8.169518, 41.471916], [-8.169017, 41.48092], [-8.165143, 41.489899], [-8.153869, 41.498824], [-8.133969, 41.503608], [-8.110023, 41.502307], [-8.090551, 41.498341], [-8.071165, 41.489178], [-8.066073, 41.483541], [-8.066069, 41.48817], [-8.072054, 41.490199], [-8.07175, 41.494925], [-8.078333, 41.49898], [-8.078332, 41.500331], [-8.092701, 41.504485]], [[-8.240713, 41.517445], [-8.230332, 41.508368], [-8.238921, 41.499418], [-8.241865, 41.498516], [-8.253775, 41.504736], [-8.255432, 41.508534], [-8.253691, 41.512041], [-8.240713, 41.517445]]], [[[-8.553429, 41.490222], [-8.565411, 41.489852], [-8.577435, 41.483069], [-8.584033, 41.474162], [-8.587671, 41.465167], [-8.58861, 41.456163], [-8.586536, 41.447148], [-8.577738, 41.436298], [-8.56581, 41.430019], [-8.553857, 41.427769], [-8.541882, 41.42877], [-8.529881, 41.433329], [-8.523803, 41.437898], [-8.517819, 41.44588], [-8.514964, 41.455876], [-8.517657, 41.467731], [-8.521202, 41.473918], [-8.52953, 41.481959], [-8.541464, 41.488144], [-8.553429, 41.490222]]], [[[-8.20791, 41.376968], [-8.205247, 41.382094], [-8.213576, 41.391159], [-8.219172, 41.392782], [-8.231161, 41.390418], [-8.236483, 41.382305], [-8.233271, 41.373276], [-8.22575, 41.370787], [-8.224255, 41.370546], [-8.219447, 41.36977], [-8.215292, 41.371311], [-8.212011, 41.375839], [-8.20791, 41.376968]]]]}}, {"id": "5", "type": "Feature", "properties": {"fill": "#ddf190", "value_min": 0.33, "value_max": -0.4}, "geometry": {"type": "MultiPolygon", "coordinates": [[[[-7.877537, 41.781522], [-7.8898, 41.775796], [-7.897908, 41.766867], [-7.900026, 41.757881], [-7.898758, 41.748862], [-7.890306, 41.738814], [-7.878365, 41.734002], [-7.854297, 41.735039], [-7.836926, 41.739246], [-7.823001, 41.748111], [-7.819317, 41.75708], [-7.820418, 41.766098], [-7.829492, 41.776673], [-7.841426, 41.782118], [-7.85343, 41.783784], [-7.877537, 41.781522]], [[-7.889813, 41.767455], [-7.877614, 41.777113], [-7.865531, 41.779971], [-7.853502, 41.779713], [-7.840013, 41.775304], [-7.830835, 41.766204], [-7.829555, 41.757185], [-7.833988, 41.748223], [-7.842126, 41.743179], [-7.854223, 41.739219], [-7.866266, 41.738234], [-7.878248, 41.740709], [-7.889496, 41.748773], [-7.893091, 41.757814], [-7.889813, 41.767455]]], [[[-8.337564, 41.513179], [-8.349554, 41.512559], [-8.361587, 41.507543], [-8.369604, 41.500209], [-8.37358, 41.491223], [-8.373779, 41.482217], [-8.370538, 41.473192], [-8.362011, 41.464251], [-8.350091, 41.458807], [-8.338126, 41.457963], [-8.326123, 41.460802], [-8.320979, 41.463902], [-8.311521, 41.472854], [-8.308266, 41.481841], [-8.30896, 41.490853], [-8.313734, 41.500165], [-8.325616, 41.509685], [-8.337564, 41.513179]], [[-8.361718, 41.494201], [-8.355763, 41.500132], [-8.349645, 41.503397], [-8.337655, 41.504268], [-8.326743, 41.499966], [-8.319529, 41.490916], [-8.319423, 41.481908], [-8.325995, 41.473129], [-8.338018, 41.468541], [-8.349983, 41.469671], [-8.355917, 41.473111], [-8.363643, 41.482161], [-8.363633, 41.491169], [-8.361718, 41.494201]]]]}}, {"id": "3", "type": "Feature", "properties": {"fill": "#98d277", "value_min": 0.2, "value_max": -0.27}, "geometry": {"type": "MultiPolygon", "coordinates": [[[[-7.853575, 41.775642], [-7.868811, 41.775591], [-7.877692, 41.772647], [-7.884901, 41.766742], [-7.887411, 41.757759], [-7.882791, 41.748708], [-7.878167, 41.745392], [-7.866202, 41.741877], [-7.854157, 41.742956], [-7.842723, 41.748311], [-7.836483, 41.757255], [-7.838525, 41.766282], [-7.853575, 41.775642]], [[-7.865654, 41.773009], [-7.853649, 41.771502], [-7.845607, 41.766354], [-7.843034, 41.757321], [-7.850424, 41.748388], [-7.854091, 41.746671], [-7.866144, 41.745168], [-7.875378, 41.748635], [-7.882752, 41.757714], [-7.879556, 41.76669], [-7.865654, 41.773009]]], [[[-8.337752, 41.49472], [-8.349748, 41.493118], [-8.351937, 41.491103], [-8.351582, 41.482094], [-8.349874, 41.480506], [-8.337914, 41.478776], [-8.332908, 41.481987], [-8.332319, 41.490991], [-8.337752, 41.49472]]]]}}, {"id": "11", "type": "Feature", "properties": {"fill": "#ef6d48", "value_min": 0.73, "value_max": -0.8}, "geometry": {"type": "MultiPolygon", "coordinates": [[[[-7.729272, 41.873947], [-7.743182, 41.883233], [-7.755199, 41.885035], [-7.767293, 41.882876], [-7.780554, 41.873762], [-7.784412, 41.864797], [-7.783157, 41.855777], [-7.774953, 41.846683], [-7.768058, 41.843075], [-7.756053, 41.840981], [-7.746359, 41.842407], [-7.750532, 41.849261], [-7.743309, 41.849012], [-7.746901, 41.8524], [-7.746881, 41.855776], [-7.73843, 41.859348], [-7.734159, 41.868337], [-7.730228, 41.871024], [-7.729272, 41.873947]]], [[[-8.295453, 41.757824], [-8.30139, 41.752016], [-8.299131, 41.742712], [-8.28716, 41.737678], [-8.275104, 41.740419], [-8.27209, 41.742827], [-8.269688, 41.751818], [-8.274897, 41.758835], [-8.283321, 41.761335], [-8.284931, 41.757507], [-8.287033, 41.756829], [-8.295453, 41.757824]]], [[[-8.107566, 41.680897], [-8.110082, 41.678637], [-8.108443, 41.669617], [-8.095825, 41.661363], [-8.083489, 41.660414], [-8.071765, 41.663994], [-8.064909, 41.669271], [-8.062595, 41.67826], [-8.067788, 41.687309], [-8.08334, 41.694789], [-8.095387, 41.692636], [-8.107566, 41.680897]], [[-8.103927, 41.678589], [-8.095451, 41.688077], [-8.083417, 41.689355], [-8.079643, 41.687404], [-8.072972, 41.678344], [-8.078542, 41.669382], [-8.083738, 41.666716], [-8.095742, 41.667293], [-8.099162, 41.669545], [-8.103927, 41.678589]]], [[[-8.134064, 41.496458], [-8.145251, 41.489753], [-8.150149, 41.480782], [-8.149387, 41.471769], [-8.143464, 41.462718], [-8.134601, 41.456079], [-8.122682, 41.452054], [-8.110719, 41.451399], [-8.098708, 41.454227], [-8.086765, 41.462281], [-8.081759, 41.471249], [-8.082233, 41.48026], [-8.088836, 41.48932], [-8.110078, 41.498248], [-8.122049, 41.49901], [-8.134064, 41.496458]], [[-8.134209, 41.485567], [-8.131401, 41.489649], [-8.122128, 41.493181], [-8.110153, 41.492803], [-8.101645, 41.489421], [-8.095343, 41.480364], [-8.098202, 41.471379], [-8.110538, 41.464632], [-8.122508, 41.465016], [-8.1336, 41.471651], [-8.136955, 41.480684], [-8.134209, 41.485567]]]]}}, {"id": "10", "type": "Feature", "properties": {"fill": "#f77f52", "value_min": 0.67, "value_max": -0.73}, "geometry": {"type": "MultiPolygon", "coordinates": [[[[-7.808534, 41.870595], [-7.805666, 41.856013], [-7.800079, 41.846948], [-7.789605, 41.837831], [-7.780301, 41.832632], [-7.768329, 41.82893], [-7.756317, 41.827375], [-7.738918, 41.82874], [-7.742196, 41.833928], [-7.74729, 41.837772], [-7.746359, 41.842407], [-7.756053, 41.840981], [-7.768058, 41.843075], [-7.774953, 41.846683], [-7.783157, 41.855777], [-7.784412, 41.864797], [-7.780554, 41.873762], [-7.767293, 41.882876], [-7.755199, 41.885035], [-7.743182, 41.883233], [-7.729272, 41.873947], [-7.729293, 41.875972], [-7.720533, 41.880218], [-7.720523, 41.881793], [-7.725335, 41.882935], [-7.726208, 41.887665], [-7.737044, 41.888828], [-7.73944, 41.891087], [-7.74246, 41.889747], [-7.742785, 41.885922], [-7.756022, 41.888441], [-7.758719, 41.890926], [-7.756592, 41.89407], [-7.758076, 41.897901], [-7.764097, 41.898595], [-7.779227, 41.886264], [-7.785257, 41.885157], [-7.788886, 41.882467], [-7.794309, 41.882033], [-7.796739, 41.878214], [-7.794954, 41.873932], [-7.803381, 41.874857], [-7.804612, 41.869684], [-7.808534, 41.870595]]], [[[-7.945794, 41.839371], [-7.948732, 41.843027], [-7.953407, 41.839441], [-7.948824, 41.837408], [-7.945794, 41.839371]]], [[[-7.864786, 41.822208], [-7.876819, 41.822622], [-7.87955, 41.820731], [-7.88394, 41.811767], [-7.877117, 41.805597], [-7.865068, 41.806201], [-7.858948, 41.811521], [-7.864786, 41.822208]]], [[[-8.322825, 41.764076], [-8.325486, 41.75216], [-8.323504, 41.743141], [-8.318018, 41.734102], [-8.311313, 41.728147], [-8.299351, 41.722466], [-8.287346, 41.720865], [-8.275303, 41.722722], [-8.263218, 41.728184], [-8.255786, 41.733715], [-8.248474, 41.742675], [-8.245104, 41.75166], [-8.245633, 41.76067], [-8.250501, 41.769709], [-8.25605, 41.774558], [-8.257551, 41.773564], [-8.261762, 41.774235], [-8.271366, 41.766346], [-8.280681, 41.764083], [-8.283321, 41.761335], [-8.274897, 41.758835], [-8.269688, 41.751818], [-8.27209, 41.742827], [-8.275104, 41.740419], [-8.28716, 41.737678], [-8.299131, 41.742712], [-8.30139, 41.752016], [-8.295453, 41.757824], [-8.305674, 41.758152], [-8.311096, 41.762195], [-8.318308, 41.761283], [-8.322825, 41.764076]]], [[[-8.166671, 41.75593], [-8.178717, 41.754617], [-8.183206, 41.751236], [-8.185701, 41.742247], [-8.178956, 41.735798], [-8.166958, 41.733718], [-8.156299, 41.742035], [-8.158992, 41.751062], [-8.166671, 41.75593]]], [[[-7.838472, 41.707921], [-7.839958, 41.712256], [-7.842656, 41.713674], [-7.854645, 41.715448], [-7.859966, 41.712456], [-7.863545, 41.703484], [-7.855006, 41.695114], [-7.84483, 41.696451], [-7.844587, 41.696483], [-7.84453, 41.696491], [-7.842534, 41.697153], [-7.836861, 41.703216], [-7.839682, 41.705924], [-7.838472, 41.707921]]], [[[-8.059108, 41.708289], [-8.0832, 41.70461], [-8.095307, 41.698381], [-8.117982, 41.678698], [-8.118882, 41.669698], [-8.110839, 41.660629], [-8.095938, 41.653273], [-8.083959, 41.651114], [-8.059959, 41.649842], [-8.036084, 41.640279], [-8.024109, 41.638157], [-8.012071, 41.640174], [-7.998921, 41.650702], [-7.996841, 41.65969], [-8.000445, 41.668729], [-8.011496, 41.677788], [-8.036728, 41.687053], [-8.045569, 41.696134], [-8.045402, 41.705139], [-8.047108, 41.706954], [-8.059108, 41.708289]], [[-8.107566, 41.680897], [-8.095387, 41.692636], [-8.08334, 41.694789], [-8.067788, 41.687309], [-8.062595, 41.67826], [-8.064909, 41.669271], [-8.071765, 41.663994], [-8.083489, 41.660414], [-8.095825, 41.661363], [-8.108443, 41.669617], [-8.110082, 41.678637], [-8.107566, 41.680897]]], [[[-8.448798, 41.545652], [-8.457113, 41.547655], [-8.459481, 41.545703], [-8.457169, 41.540906], [-8.448798, 41.545652]]], [[[-8.240713, 41.517445], [-8.253691, 41.512041], [-8.255432, 41.508534], [-8.253775, 41.504736], [-8.241865, 41.498516], [-8.238921, 41.499418], [-8.230332, 41.508368], [-8.240713, 41.517445]]], [[[-8.066073, 41.483541], [-8.071165, 41.489178], [-8.090551, 41.498341], [-8.110023, 41.502307], [-8.133969, 41.503608], [-8.153869, 41.498824], [-8.165143, 41.489899], [-8.169017, 41.48092], [-8.169518, 41.471916], [-8.167288, 41.462892], [-8.161596, 41.453844], [-8.146768, 41.441295], [-8.134869, 41.4359], [-8.122946, 41.432447], [-8.110995, 41.431185], [-8.099016, 41.431943], [-8.086575, 41.435258], [-8.074952, 41.440878], [-8.068803, 41.446279], [-8.070288, 41.458235], [-8.068788, 41.462286], [-8.073872, 41.46499], [-8.074164, 41.473543], [-8.066073, 41.483541]], [[-8.134064, 41.496458], [-8.122049, 41.49901], [-8.110078, 41.498248], [-8.088836, 41.48932], [-8.082233, 41.48026], [-8.081759, 41.471249], [-8.086765, 41.462281], [-8.098708, 41.454227], [-8.110719, 41.451399], [-8.122682, 41.452054], [-8.134601, 41.456079], [-8.143464, 41.462718], [-8.149387, 41.471769], [-8.150149, 41.480782], [-8.145251, 41.489753], [-8.134064, 41.496458]]]]}}, {"id": "1", "type": "Feature", "properties": {"fill": "#50b061", "value_min": 0.07, "value_max": -0.13}, "geometry": {"type": "Polygon", "coordinates": [[[-7.877946, 41.758048], [-7.866086, 41.748458], [-7.854003, 41.75159], [-7.848539, 41.757376], [-7.852257, 41.76642], [-7.865713, 41.769631], [-7.872695, 41.766623], [-7.877946, 41.758048]], [[-7.854234, 41.757433], [-7.866003, 41.753193], [-7.871755, 41.757607], [-7.865781, 41.765753], [-7.854234, 41.757433]]]}}, {"id": "2", "type": "Feature", "properties": {"fill": "#74c16c", "value_min": 0.13, "value_max": -0.2}, "geometry": {"type": "Polygon", "coordinates": [[[-7.865654, 41.773009], [-7.879556, 41.76669], [-7.882752, 41.757714], [-7.875378, 41.748635], [-7.866144, 41.745168], [-7.854091, 41.746671], [-7.850424, 41.748388], [-7.843034, 41.757321], [-7.845607, 41.766354], [-7.853649, 41.771502], [-7.865654, 41.773009]], [[-7.877946, 41.758048], [-7.872695, 41.766623], [-7.865713, 41.769631], [-7.852257, 41.76642], [-7.848539, 41.757376], [-7.854003, 41.75159], [-7.866086, 41.748458], [-7.877946, 41.758048]]]}}, {"id": "0", "type": "Feature", "properties": {"fill": "#2ba055", "value_min": 0.0, "value_max": -0.07}, "geometry": {"type": "Polygon", "coordinates": [[[-7.854234, 41.757433], [-7.865781, 41.765753], [-7.871755, 41.757607], [-7.866003, 41.753193], [-7.854234, 41.757433]]]}}]}