{"type": "FeatureCollection", "features": [{"id": "3", "type": "Feature", "properties": {"fill": "#fc9863", "value_min": 0.6, "value_max": 0.67}, "geometry": {"type": "MultiPolygon", "coordinates": [[[[-7.914373, 41.737873], [-7.924584, 41.731093], [-7.93283, 41.722163], [-7.935625, 41.713182], [-7.934583, 41.704165], [-7.927148, 41.69281], [-7.915263, 41.684948], [-7.903302, 41.681776], [-7.89126, 41.683335], [-7.879068, 41.693523], [-7.867936, 41.721542], [-7.868877, 41.730558], [-7.878302, 41.737585], [-7.890252, 41.741976], [-7.902274, 41.742196], [-7.914373, 41.737873]], [[-7.890412, 41.732695], [-7.878542, 41.723829], [-7.877244, 41.721633], [-7.878415, 41.712638], [-7.890988, 41.699201], [-7.903026, 41.697995], [-7.915225, 41.703984], [-7.92056, 41.713041], [-7.918724, 41.722031], [-7.91457, 41.726161], [-7.902433, 41.732898], [-7.890412, 41.732695]]], [[[-8.73235, 41.576423], [-8.741478, 41.564698], [-8.74684, 41.546695], [-8.74312, 41.528672], [-8.736664, 41.51965], [-8.723499, 41.510611], [-8.709092, 41.506106], [-8.67317, 41.500988], [-8.661207, 41.49754], [-8.648755, 41.492393], [-8.625381, 41.477258], [-8.613412, 41.475889], [-8.601417, 41.478847], [-8.5894, 41.485041], [-8.568168, 41.501126], [-8.562132, 41.51011], [-8.559308, 41.519107], [-8.559259, 41.528114], [-8.56638, 41.546156], [-8.576927, 41.561099], [-8.588837, 41.574131], [-8.60077, 41.584145], [-8.612725, 41.591178], [-8.624692, 41.596593], [-8.636894, 41.599869], [-8.639873, 41.597352], [-8.640152, 41.59465], [-8.645536, 41.593051], [-8.646744, 41.594171], [-8.649125, 41.591909], [-8.656622, 41.5921], [-8.660788, 41.588255], [-8.663794, 41.589141], [-8.665265, 41.585758], [-8.66948, 41.587989], [-8.684455, 41.586117], [-8.685608, 41.58071], [-8.697261, 41.576376], [-8.701703, 41.570277], [-8.707704, 41.570923], [-8.712485, 41.569323], [-8.716422, 41.573805], [-8.720316, 41.57356], [-8.725151, 41.577811], [-8.726633, 41.576003], [-8.73235, 41.576423]], [[-8.636853, 41.567633], [-8.624864, 41.566846], [-8.61289, 41.56361], [-8.600932, 41.557818], [-8.589007, 41.54719], [-8.582623, 41.537209], [-8.580538, 41.528194], [-8.581577, 41.51919], [-8.586481, 41.5102], [-8.601295, 41.498775], [-8.613297, 41.495199], [-8.625277, 41.495363], [-8.637238, 41.498743], [-8.649189, 41.50439], [-8.660104, 41.510442], [-8.671609, 41.519482], [-8.677912, 41.528508], [-8.679553, 41.53752], [-8.677149, 41.54652], [-8.670028, 41.555507], [-8.660872, 41.561674], [-8.653539, 41.564466], [-8.636853, 41.567633]]], [[[-8.351186, 41.482092], [-8.349871, 41.480837], [-8.337912, 41.478998], [-8.333093, 41.481988], [-8.332442, 41.490992], [-8.337754, 41.494546], [-8.349751, 41.492828], [-8.351565, 41.491101], [-8.351186, 41.482092]]], [[[-8.642221, 41.193309], [-8.644078, 41.204133], [-8.650731, 41.21658], [-8.662606, 41.22728], [-8.674511, 41.232492], [-8.686433, 41.234807], [-8.710305, 41.233338], [-8.722252, 41.229971], [-8.737915, 41.2224], [-8.748377, 41.213416], [-8.75451, 41.204421], [-8.757332, 41.195419], [-8.757681, 41.186412], [-8.7556, 41.1774], [-8.746372, 41.163663], [-8.734489, 41.154463], [-8.722593, 41.149195], [-8.707856, 41.146084], [-8.686596, 41.146542], [-8.674223, 41.150058], [-8.674849, 41.153767], [-8.672489, 41.15648], [-8.661609, 41.15653], [-8.661322, 41.156757], [-8.660313, 41.160813], [-8.656771, 41.160604], [-8.656737, 41.160637], [-8.656535, 41.16083], [-8.656146, 41.161204], [-8.656064, 41.161283], [-8.65585, 41.161487], [-8.655828, 41.161509], [-8.654964, 41.162337], [-8.653231, 41.169174], [-8.655366, 41.175467], [-8.647955, 41.180228], [-8.647696, 41.185181], [-8.642221, 41.193309]]]]}}, {"id": "6", "type": "Feature", "properties": {"fill": "#e85c3f", "value_min": 0.8, "value_max": 0.87}, "geometry": {"type": "Polygon", "coordinates": [[[-8.637038, 41.534694], [-8.640988, 41.528398], [-8.637126, 41.518855], [-8.625166, 41.514585], [-8.613165, 41.517403], [-8.610768, 41.519293], [-8.608149, 41.528291], [-8.613057, 41.535524], [-8.625023, 41.539382], [-8.637038, 41.534694]]]}}, {"id": "2", "type": "Feature", "properties": {"fill": "#fecb90", "value_min": 0.53, "value_max": 0.6}, "geometry": {"type": "MultiPolygon", "coordinates": [[[[-8.73235, 41.576423], [-8.734424, 41.575737], [-8.736564, 41.580228], [-8.738354, 41.579318], [-8.740778, 41.582006], [-8.74467, 41.581535], [-8.750711, 41.58623], [-8.75993, 41.578527], [-8.767441, 41.580286], [-8.769874, 41.583874], [-8.768997, 41.58613], [-8.773228, 41.589482], [-8.774165, 41.593303], [-8.78556, 41.593464], [-8.797327, 41.600599], [-8.804218, 41.600109], [-8.80456, 41.604158], [-8.809434, 41.611332], [-8.828644, 41.609656], [-8.82839, 41.585633], [-8.818497, 41.554794], [-8.8221, 41.547542], [-8.821965, 41.534907], [-8.815926, 41.525624], [-8.81063, 41.5101], [-8.813279, 41.503483], [-8.812636, 41.496944], [-8.804699, 41.482068], [-8.798552, 41.474753], [-8.80154, 41.446836], [-8.806115, 41.43713], [-8.807354, 41.425915], [-8.811211, 41.415789], [-8.799695, 41.14406], [-8.707856, 41.146084], [-8.722593, 41.149195], [-8.734489, 41.154463], [-8.746372, 41.163663], [-8.7556, 41.1774], [-8.757681, 41.186412], [-8.757332, 41.195419], [-8.75451, 41.204421], [-8.748377, 41.213416], [-8.737915, 41.2224], [-8.722252, 41.229971], [-8.710305, 41.233338], [-8.686433, 41.234807], [-8.674511, 41.232492], [-8.662606, 41.22728], [-8.650731, 41.21658], [-8.644078, 41.204133], [-8.642221, 41.193309], [-8.641225, 41.196014], [-8.638841, 41.196025], [-8.638231, 41.194227], [-8.634946, 41.193341], [-8.632526, 41.188624], [-8.625658, 41.186628], [-8.621132, 41.178994], [-8.613374, 41.177451], [-8.608583, 41.174095], [-8.609164, 41.172066], [-8.604942, 41.164881], [-8.59422, 41.165149], [-8.589174, 41.167645], [-8.589194, 41.170572], [-8.583263, 41.174422], [-8.582094, 41.177803], [-8.578825, 41.178941], [-8.581296, 41.191762], [-8.575958, 41.195609], [-8.576894, 41.201908], [-8.574515, 41.202593], [-8.57423, 41.20462], [-8.567971, 41.204644], [-8.565895, 41.206227], [-8.567697, 41.208246], [-8.566512, 41.209376], [-8.559636, 41.206251], [-8.554271, 41.20627], [-8.549521, 41.209214], [-8.544157, 41.209458], [-8.54238, 41.211265], [-8.532257, 41.213102], [-8.52653, 41.202542], [-8.523236, 41.200077], [-8.518471, 41.200543], [-8.51163, 41.203042], [-8.510456, 41.206197], [-8.505693, 41.207113], [-8.504239, 41.213646], [-8.500076, 41.21546], [-8.50308, 41.219502], [-8.502204, 41.222656], [-8.495642, 41.222227], [-8.495947, 41.223351], [-8.490894, 41.226294], [-8.487935, 41.230354], [-8.490331, 41.232373], [-8.489156, 41.235528], [-8.486181, 41.236888], [-8.484411, 41.240495], [-8.476346, 41.237818], [-8.475756, 41.23917], [-8.470986, 41.23941], [-8.471604, 41.243459], [-8.469227, 41.245267], [-8.463258, 41.244384], [-8.459989, 41.246644], [-8.454323, 41.246886], [-8.455541, 41.251834], [-8.452276, 41.25522], [-8.449891, 41.255452], [-8.449304, 41.257479], [-8.447812, 41.257258], [-8.449028, 41.261982], [-8.439785, 41.262907], [-8.438023, 41.268989], [-8.434745, 41.269673], [-8.432691, 41.277107], [-8.427032, 41.279372], [-8.429143, 41.284319], [-8.426171, 41.287028], [-8.426488, 41.291079], [-8.425013, 41.294909], [-8.422037, 41.296942], [-8.422647, 41.299867], [-8.407744, 41.304856], [-8.406262, 41.307335], [-8.403277, 41.307342], [-8.401801, 41.311398], [-8.399712, 41.311628], [-8.400316, 41.313202], [-8.396738, 41.314336], [-8.398835, 41.316131], [-8.393775, 41.31997], [-8.393489, 41.323122], [-8.391105, 41.324253], [-8.386325, 41.323588], [-8.380382, 41.331254], [-8.375305, 41.33104], [-8.37201, 41.328346], [-8.361563, 41.329718], [-8.358276, 41.329049], [-8.357673, 41.327249], [-8.350207, 41.327264], [-8.346032, 41.328847], [-8.342462, 41.333131], [-8.333215, 41.336299], [-8.326363, 41.342163], [-8.324568, 41.341041], [-8.323376, 41.341943], [-8.320676, 41.338121], [-8.312604, 41.334983], [-8.313794, 41.333405], [-8.31139, 41.328007], [-8.307502, 41.325762], [-8.305116, 41.326891], [-8.303024, 41.325994], [-8.303615, 41.323742], [-8.301216, 41.319694], [-8.296431, 41.316774], [-8.297618, 41.313846], [-8.295817, 41.310022], [-8.281801, 41.316569], [-8.279132, 41.324451], [-8.272266, 41.32536], [-8.265709, 41.331221], [-8.269004, 41.336169], [-8.263339, 41.340902], [-8.262751, 41.345405], [-8.256483, 41.347663], [-8.255889, 41.349689], [-8.249622, 41.353072], [-8.251123, 41.356897], [-8.248141, 41.360052], [-8.248448, 41.364328], [-8.245461, 41.364781], [-8.244272, 41.368384], [-8.241287, 41.370413], [-8.224854, 41.370878], [-8.21738, 41.368182], [-8.214399, 41.373587], [-8.208127, 41.376968], [-8.199163, 41.377423], [-8.194677, 41.374275], [-8.191691, 41.376302], [-8.189299, 41.375403], [-8.184818, 41.376756], [-8.168382, 41.377438], [-8.164499, 41.38059], [-8.152544, 41.375866], [-8.151049, 41.37339], [-8.145073, 41.374742], [-8.139694, 41.377894], [-8.133418, 41.374292], [-8.119672, 41.376768], [-8.119672, 41.378569], [-8.116683, 41.380144], [-8.117578, 41.386447], [-8.113992, 41.386896], [-8.112795, 41.390723], [-8.110105, 41.390947], [-8.108011, 41.393648], [-8.103827, 41.392972], [-8.105321, 41.394998], [-8.10263, 41.396123], [-8.10801, 41.398825], [-8.108606, 41.403102], [-8.104419, 41.406252], [-8.104119, 41.408728], [-8.101727, 41.409403], [-8.102025, 41.411204], [-8.092756, 41.411201], [-8.09126, 41.414352], [-8.079893, 41.41975], [-8.077503, 41.416597], [-8.070923, 41.41862], [-8.066739, 41.416142], [-8.061953, 41.417264], [-8.059852, 41.424916], [-8.055959, 41.429415], [-8.057743, 41.438251], [-8.086861, 41.445203], [-8.110482, 41.45346], [-8.13445, 41.467427], [-8.146272, 41.479153], [-8.158032, 41.495923], [-8.181444, 41.5395], [-8.193277, 41.552057], [-8.205158, 41.561013], [-8.228981, 41.574594], [-8.264784, 41.590661], [-8.300631, 41.604259], [-8.324565, 41.610691], [-8.348552, 41.612382], [-8.360577, 41.610091], [-8.408754, 41.591386], [-8.432791, 41.586795], [-8.456806, 41.584359], [-8.468842, 41.579517], [-8.483393, 41.563828], [-8.493016, 41.55628], [-8.50505, 41.550804], [-8.517046, 41.55005], [-8.529013, 41.553208], [-8.543494, 41.564082], [-8.548494, 41.573109], [-8.549724, 41.582121], [-8.547576, 41.59112], [-8.540655, 41.602532], [-8.522625, 41.618041], [-8.517199, 41.627025], [-8.507323, 41.671915], [-8.50927, 41.671233], [-8.51018, 41.672806], [-8.511967, 41.670324], [-8.509856, 41.668755], [-8.51702, 41.661979], [-8.522103, 41.658811], [-8.525706, 41.659023], [-8.527769, 41.652714], [-8.534066, 41.652017], [-8.537951, 41.649302], [-8.537634, 41.646602], [-8.543876, 41.637352], [-8.543855, 41.633976], [-8.536342, 41.631977], [-8.535128, 41.62973], [-8.543431, 41.61462], [-8.554533, 41.615255], [-8.557244, 41.617046], [-8.562639, 41.61635], [-8.568056, 41.619031], [-8.570735, 41.616095], [-8.577321, 41.614269], [-8.581231, 41.615829], [-8.585766, 41.620988], [-8.591462, 41.620515], [-8.596534, 41.616668], [-8.601628, 41.615972], [-8.603996, 41.611686], [-8.609369, 41.608287], [-8.614156, 41.606692], [-8.619881, 41.610269], [-8.621338, 41.604636], [-8.628833, 41.604378], [-8.636894, 41.599869], [-8.624692, 41.596593], [-8.612725, 41.591178], [-8.60077, 41.584145], [-8.588837, 41.574131], [-8.576927, 41.561099], [-8.56638, 41.546156], [-8.559259, 41.528114], [-8.559308, 41.519107], [-8.562132, 41.51011], [-8.568168, 41.501126], [-8.5894, 41.485041], [-8.601417, 41.478847], [-8.613412, 41.475889], [-8.625381, 41.477258], [-8.648755, 41.492393], [-8.661207, 41.49754], [-8.67317, 41.500988], [-8.709092, 41.506106], [-8.723499, 41.510611], [-8.736664, 41.51965], [-8.74312, 41.528672], [-8.74684, 41.546695], [-8.741478, 41.564698], [-8.73235, 41.576423]], [[-8.351186, 41.482092], [-8.351565, 41.491101], [-8.349751, 41.492828], [-8.337754, 41.494546], [-8.332442, 41.490992], [-8.333093, 41.481988], [-8.337912, 41.478998], [-8.349871, 41.480837], [-8.351186, 41.482092]], [[-8.541617, 41.466431], [-8.538539, 41.464981], [-8.532134, 41.455948], [-8.535819, 41.446955], [-8.541782, 41.443039], [-8.553761, 41.441891], [-8.563421, 41.447063], [-8.567059, 41.456084], [-8.559084, 41.465061], [-8.553586, 41.467358], [-8.541617, 41.466431]]], [[[-7.775294, 41.726225], [-7.801991, 41.7569], [-7.813656, 41.775035], [-7.817204, 41.784078], [-7.821101, 41.802132], [-7.818192, 41.838129], [-7.816267, 41.84147], [-7.804186, 41.843434], [-7.768174, 41.837004], [-7.756127, 41.83719], [-7.74668, 41.839072], [-7.746349, 41.84407], [-7.750541, 41.847685], [-7.750532, 41.849261], [-7.743309, 41.849012], [-7.746901, 41.8524], [-7.746881, 41.855776], [-7.73843, 41.859348], [-7.734159, 41.868337], [-7.730228, 41.871024], [-7.729293, 41.875972], [-7.720533, 41.880218], [-7.720523, 41.881793], [-7.725335, 41.882935], [-7.726208, 41.887665], [-7.737044, 41.888828], [-7.73944, 41.891087], [-7.74246, 41.889747], [-7.742785, 41.885922], [-7.756022, 41.888441], [-7.758719, 41.890926], [-7.756592, 41.89407], [-7.758076, 41.897901], [-7.764097, 41.898595], [-7.779227, 41.886264], [-7.785257, 41.885157], [-7.788886, 41.882467], [-7.794007, 41.882257], [-7.796739, 41.878214], [-7.794349, 41.87438], [-7.797064, 41.873488], [-7.803381, 41.874857], [-7.804914, 41.869459], [-7.813032, 41.871958], [-7.814229, 41.873537], [-7.818448, 41.872873], [-7.826554, 41.875821], [-7.832783, 41.865298], [-7.84, 41.861151], [-7.870023, 41.853003], [-7.87033, 41.851395], [-7.873043, 41.850501], [-7.873066, 41.844875], [-7.877261, 41.849624], [-7.888528, 41.841851], [-7.898149, 41.829917], [-7.902132, 41.820949], [-7.902634, 41.811947], [-7.896432, 41.793874], [-7.895555, 41.784858], [-7.905037, 41.766936], [-7.921505, 41.749078], [-7.93841, 41.738691], [-7.954088, 41.731365], [-7.962971, 41.722439], [-7.971153, 41.704498], [-7.972165, 41.6955], [-7.968372, 41.677452], [-7.952038, 41.640045], [-7.932805, 41.604052], [-7.930979, 41.612711], [-7.925556, 41.620354], [-7.920755, 41.620796], [-7.917748, 41.623041], [-7.915933, 41.627764], [-7.913229, 41.628885], [-7.912613, 41.63361], [-7.906014, 41.633147], [-7.906884, 41.641927], [-7.897869, 41.645511], [-7.89696, 41.647985], [-7.892759, 41.647976], [-7.892145, 41.651576], [-7.902319, 41.659925], [-7.899913, 41.66127], [-7.900198, 41.665547], [-7.898396, 41.665769], [-7.896885, 41.668692], [-7.883969, 41.67069], [-7.879755, 41.673607], [-7.877044, 41.676077], [-7.876723, 41.681253], [-7.873401, 41.686198], [-7.868896, 41.686413], [-7.868008, 41.68326], [-7.864403, 41.683701], [-7.864096, 41.685276], [-7.858987, 41.68639], [-7.857773, 41.689538], [-7.854776, 41.68818], [-7.848747, 41.693458], [-7.855021, 41.694262], [-7.862186, 41.703471], [-7.859246, 41.712449], [-7.854615, 41.717139], [-7.842578, 41.718006], [-7.831192, 41.712167], [-7.830793, 41.710178], [-7.825252, 41.708813], [-7.818621, 41.713522], [-7.815291, 41.718689], [-7.808986, 41.717996], [-7.808396, 41.715744], [-7.804499, 41.714158], [-7.79939, 41.714593], [-7.79788, 41.716164], [-7.796383, 41.71526], [-7.790966, 41.717044], [-7.789449, 41.719966], [-7.78464, 41.720402], [-7.78252, 41.723546], [-7.776204, 41.724652], [-7.775294, 41.726225]], [[-7.914373, 41.737873], [-7.902274, 41.742196], [-7.890252, 41.741976], [-7.878302, 41.737585], [-7.868877, 41.730558], [-7.867936, 41.721542], [-7.879068, 41.693523], [-7.89126, 41.683335], [-7.903302, 41.681776], [-7.915263, 41.684948], [-7.927148, 41.69281], [-7.934583, 41.704165], [-7.935625, 41.713182], [-7.93283, 41.722163], [-7.924584, 41.731093], [-7.914373, 41.737873]]], [[[-8.654964, 41.162337], [-8.654964, 41.162337], [-8.655828, 41.161509], [-8.654964, 41.162337]]], [[[-8.65585, 41.161487], [-8.65585, 41.161487], [-8.656064, 41.161283], [-8.65585, 41.161487]]], [[[-8.656146, 41.161204], [-8.656146, 41.161204], [-8.656535, 41.16083], [-8.656146, 41.161204]]], [[[-8.656737, 41.160637], [-8.656737, 41.160637], [-8.656771, 41.160604], [-8.656737, 41.160637]]], [[[-8.661322, 41.156757], [-8.661322, 41.156757], [-8.661609, 41.15653], [-8.661322, 41.156757]]], [[[-8.674223, 41.150058], [-8.686596, 41.146542], [-8.674793, 41.146932], [-8.674223, 41.150058]]], [[[-8.392023, 41.66246], [-8.38413, 41.657338], [-8.372099, 41.659454], [-8.369186, 41.662337], [-8.369988, 41.671349], [-8.371969, 41.672913], [-8.383957, 41.675487], [-8.391769, 41.671466], [-8.392023, 41.66246]]]]}}, {"id": "4", "type": "Feature", "properties": {"fill": "#f77f52", "value_min": 0.67, "value_max": 0.73}, "geometry": {"type": "MultiPolygon", "coordinates": [[[[-7.890412, 41.732695], [-7.902433, 41.732898], [-7.91457, 41.726161], [-7.918724, 41.722031], [-7.92056, 41.713041], [-7.915225, 41.703984], [-7.903026, 41.697995], [-7.890988, 41.699201], [-7.878415, 41.712638], [-7.877244, 41.721633], [-7.878542, 41.723829], [-7.890412, 41.732695]], [[-7.890546, 41.724908], [-7.88669, 41.721725], [-7.886765, 41.712719], [-7.890826, 41.708636], [-7.90285, 41.708372], [-7.908229, 41.712925], [-7.906923, 41.721919], [-7.90257, 41.724825], [-7.890546, 41.724908]]], [[[-8.636853, 41.567633], [-8.653539, 41.564466], [-8.660872, 41.561674], [-8.670028, 41.555507], [-8.677149, 41.54652], [-8.679553, 41.53752], [-8.677912, 41.528508], [-8.671609, 41.519482], [-8.660104, 41.510442], [-8.649189, 41.50439], [-8.637238, 41.498743], [-8.625277, 41.495363], [-8.613297, 41.495199], [-8.601295, 41.498775], [-8.586481, 41.5102], [-8.581577, 41.51919], [-8.580538, 41.528194], [-8.582623, 41.537209], [-8.589007, 41.54719], [-8.600932, 41.557818], [-8.61289, 41.56361], [-8.624864, 41.566846], [-8.636853, 41.567633]], [[-8.624952, 41.551634], [-8.612977, 41.549003], [-8.601036, 41.540972], [-8.594632, 41.528244], [-8.596313, 41.519243], [-8.604879, 41.510265], [-8.613231, 41.506269], [-8.62522, 41.505199], [-8.641643, 41.510386], [-8.652996, 41.519428], [-8.656823, 41.528447], [-8.655249, 41.537449], [-8.648971, 41.544668], [-8.636949, 41.550565], [-8.624952, 41.551634]]]]}}, {"id": "5", "type": "Feature", "properties": {"fill": "#ef6d48", "value_min": 0.73, "value_max": 0.8}, "geometry": {"type": "MultiPolygon", "coordinates": [[[[-7.890546, 41.724908], [-7.90257, 41.724825], [-7.906923, 41.721919], [-7.908229, 41.712925], [-7.90285, 41.708372], [-7.890826, 41.708636], [-7.886765, 41.712719], [-7.88669, 41.721725], [-7.890546, 41.724908]]], [[[-8.624952, 41.551634], [-8.636949, 41.550565], [-8.648971, 41.544668], [-8.655249, 41.537449], [-8.656823, 41.528447], [-8.652996, 41.519428], [-8.641643, 41.510386], [-8.62522, 41.505199], [-8.613231, 41.506269], [-8.604879, 41.510265], [-8.596313, 41.519243], [-8.594632, 41.528244], [-8.601036, 41.540972], [-8.612977, 41.549003], [-8.624952, 41.551634]], [[-8.637038, 41.534694], [-8.625023, 41.539382], [-8.613057, 41.535524], [-8.608149, 41.528291], [-8.610768, 41.519293], [-8.613165, 41.517403], [-8.625166, 41.514585], [-8.637126, 41.518855], [-8.640988, 41.528398], [-8.637038, 41.534694]]]]}}, {"id": "1", "type": "Feature", "properties": {"fill": "#fffebe", "value_min": 0.47, "value_max": 0.53}, "geometry": {"type": "MultiPolygon", "coordinates": [[[[-8.507323, 41.671915], [-8.517199, 41.627025], [-8.522625, 41.618041], [-8.540655, 41.602532], [-8.547576, 41.59112], [-8.549724, 41.582121], [-8.548494, 41.573109], [-8.543494, 41.564082], [-8.529013, 41.553208], [-8.517046, 41.55005], [-8.50505, 41.550804], [-8.493016, 41.55628], [-8.483393, 41.563828], [-8.468842, 41.579517], [-8.456806, 41.584359], [-8.432791, 41.586795], [-8.408754, 41.591386], [-8.360577, 41.610091], [-8.348552, 41.612382], [-8.324565, 41.610691], [-8.300631, 41.604259], [-8.264784, 41.590661], [-8.228981, 41.574594], [-8.205158, 41.561013], [-8.193277, 41.552057], [-8.181444, 41.5395], [-8.158032, 41.495923], [-8.146272, 41.479153], [-8.13445, 41.467427], [-8.110482, 41.45346], [-8.086861, 41.445203], [-8.057743, 41.438251], [-8.061033, 41.438872], [-8.064916, 41.444052], [-8.067908, 41.444279], [-8.069999, 41.447206], [-8.068788, 41.462286], [-8.073872, 41.46499], [-8.074468, 41.468141], [-8.073564, 41.474668], [-8.066374, 41.482318], [-8.066069, 41.48817], [-8.072054, 41.490199], [-8.07175, 41.494925], [-8.078333, 41.49898], [-8.078332, 41.500331], [-8.093, 41.504613], [-8.089398, 41.519242], [-8.090594, 41.522169], [-8.093588, 41.52307], [-8.091487, 41.531173], [-8.097775, 41.536127], [-8.097774, 41.537927], [-8.106759, 41.543557], [-8.101666, 41.542655], [-8.094175, 41.544904], [-8.087885, 41.542876], [-8.083389, 41.5449], [-8.080687, 41.551651], [-8.074097, 41.549848], [-8.073494, 41.553449], [-8.075891, 41.554575], [-8.076188, 41.557276], [-8.079783, 41.558403], [-8.081576, 41.565157], [-8.078879, 41.56493], [-8.075279, 41.568305], [-8.073182, 41.568079], [-8.069283, 41.570553], [-8.068081, 41.573478], [-8.056684, 41.579549], [-8.052181, 41.584498], [-8.052777, 41.587649], [-8.048277, 41.590122], [-8.047974, 41.592373], [-8.031467, 41.602938], [-8.02367, 41.603156], [-8.019174, 41.601802], [-8.015872, 41.603824], [-8.013474, 41.603372], [-8.005971, 41.60629], [-8.003562, 41.611239], [-7.998761, 41.612809], [-7.999669, 41.608759], [-7.996976, 41.605829], [-7.996684, 41.602003], [-7.984685, 41.603564], [-7.982292, 41.60086], [-7.975689, 41.603552], [-7.974482, 41.606701], [-7.970882, 41.607147], [-7.969091, 41.603768], [-7.965796, 41.602413], [-7.9541, 41.602846], [-7.952606, 41.600592], [-7.947808, 41.60081], [-7.945413, 41.599456], [-7.942725, 41.595625], [-7.936733, 41.594264], [-7.93791, 41.601694], [-7.937004, 41.603718], [-7.932805, 41.604052], [-7.952038, 41.640045], [-7.968372, 41.677452], [-7.972165, 41.6955], [-7.971153, 41.704498], [-7.962971, 41.722439], [-7.954088, 41.731365], [-7.93841, 41.738691], [-7.921505, 41.749078], [-7.905037, 41.766936], [-7.895555, 41.784858], [-7.896432, 41.793874], [-7.902634, 41.811947], [-7.902132, 41.820949], [-7.898149, 41.829917], [-7.888528, 41.841851], [-7.877261, 41.849624], [-7.879956, 41.853217], [-7.888076, 41.855486], [-7.891675, 41.859094], [-7.900698, 41.861588], [-7.904318, 41.859795], [-7.907309, 41.865203], [-7.906095, 41.868126], [-7.910299, 41.871285], [-7.909985, 41.875111], [-7.915391, 41.879397], [-7.921118, 41.877833], [-7.928044, 41.87807], [-7.935283, 41.874707], [-7.937389, 41.87516], [-7.941618, 41.870891], [-7.951254, 41.871132], [-7.956367, 41.87339], [-7.956362, 41.875191], [-7.960878, 41.875648], [-7.96299, 41.874075], [-7.972322, 41.875439], [-7.987996, 41.869157], [-7.990123, 41.860157], [-7.995547, 41.858138], [-7.994047, 41.855211], [-7.996162, 41.851837], [-8.003089, 41.850494], [-8.005804, 41.847346], [-8.007928, 41.838796], [-8.012753, 41.833624], [-8.013363, 41.829124], [-8.017873, 41.831379], [-8.02901, 41.829589], [-8.037134, 41.831171], [-8.041351, 41.828023], [-8.041054, 41.825097], [-8.045268, 41.824425], [-8.047679, 41.821276], [-8.057314, 41.815656], [-8.06664, 41.817012], [-8.072961, 41.813414], [-8.078678, 41.813417], [-8.082892, 41.810493], [-8.091013, 41.812521], [-8.093421, 41.811397], [-8.093723, 41.808471], [-8.101845, 41.809824], [-8.104853, 41.81185], [-8.115984, 41.812302], [-8.123807, 41.808702], [-8.138247, 41.808477], [-8.139751, 41.813203], [-8.14276, 41.812978], [-8.144866, 41.815228], [-8.149078, 41.814777], [-8.153291, 41.817703], [-8.158106, 41.818377], [-8.165326, 41.81815], [-8.173744, 41.808019], [-8.177655, 41.808242], [-8.183676, 41.812741], [-8.190291, 41.809587], [-8.197158, 41.814129], [-8.201063, 41.808724], [-8.204973, 41.807372], [-8.205872, 41.804445], [-8.213692, 41.803765], [-8.217598, 41.80016], [-8.217589, 41.793634], [-8.224207, 41.794303], [-8.229917, 41.791598], [-8.240744, 41.791588], [-8.24074, 41.789338], [-8.244347, 41.787984], [-8.245546, 41.785731], [-8.251257, 41.784375], [-8.251845, 41.777172], [-8.257551, 41.773564], [-8.261762, 41.774235], [-8.271366, 41.766346], [-8.280681, 41.764083], [-8.284038, 41.761109], [-8.284931, 41.757507], [-8.305674, 41.758152], [-8.311096, 41.762195], [-8.318308, 41.761283], [-8.325233, 41.765098], [-8.328234, 41.763292], [-8.336653, 41.763728], [-8.341756, 41.761468], [-8.344765, 41.762363], [-8.349267, 41.760103], [-8.352557, 41.755145], [-8.349814, 41.744122], [-8.352516, 41.743441], [-8.352203, 41.739616], [-8.357897, 41.735103], [-8.362407, 41.735994], [-8.368703, 41.73193], [-8.374122, 41.734845], [-8.384922, 41.73032], [-8.387032, 41.731891], [-8.393033, 41.729852], [-8.396942, 41.730518], [-8.400531, 41.726683], [-8.402934, 41.726452], [-8.404721, 41.722847], [-8.417349, 41.725067], [-8.422737, 41.720552], [-8.429643, 41.719859], [-8.430533, 41.717381], [-8.435927, 41.714441], [-8.441632, 41.713975], [-8.4446, 41.70654], [-8.453868, 41.697961], [-8.453255, 41.695487], [-8.461659, 41.694563], [-8.467939, 41.689593], [-8.478124, 41.685061], [-8.482012, 41.682123], [-8.484371, 41.674238], [-8.49308, 41.674886], [-8.499963, 41.671038], [-8.507323, 41.671915]], [[-8.392023, 41.66246], [-8.391769, 41.671466], [-8.383957, 41.675487], [-8.371969, 41.672913], [-8.369988, 41.671349], [-8.369186, 41.662337], [-8.372099, 41.659454], [-8.38413, 41.657338], [-8.392023, 41.66246]]], [[[-7.870023, 41.853003], [-7.84, 41.861151], [-7.832783, 41.865298], [-7.826554, 41.875821], [-7.830479, 41.875831], [-7.830789, 41.874031], [-7.832894, 41.874712], [-7.83772, 41.872924], [-7.842528, 41.875187], [-7.841663, 41.866632], [-7.849515, 41.861475], [-7.858542, 41.862622], [-7.859456, 41.860148], [-7.864877, 41.859711], [-7.870023, 41.853003]]], [[[-7.74668, 41.839072], [-7.756127, 41.83719], [-7.768174, 41.837004], [-7.804186, 41.843434], [-7.816267, 41.84147], [-7.818192, 41.838129], [-7.821101, 41.802132], [-7.817204, 41.784078], [-7.813656, 41.775035], [-7.801991, 41.7569], [-7.775294, 41.726225], [-7.773485, 41.727345], [-7.770798, 41.72441], [-7.766599, 41.723047], [-7.763888, 41.724389], [-7.761765, 41.727758], [-7.762933, 41.733839], [-7.759307, 41.737203], [-7.759597, 41.739005], [-7.75689, 41.739446], [-7.758687, 41.740577], [-7.757758, 41.745301], [-7.748417, 41.749321], [-7.747786, 41.754496], [-7.743866, 41.756509], [-7.740214, 41.763924], [-7.726937, 41.771755], [-7.7254, 41.777152], [-7.727191, 41.779184], [-7.724177, 41.780299], [-7.725372, 41.781653], [-7.722296, 41.792446], [-7.728879, 41.797871], [-7.727026, 41.805517], [-7.728761, 41.816776], [-7.732041, 41.821514], [-7.743152, 41.825154], [-7.742839, 41.827178], [-7.738918, 41.82874], [-7.742196, 41.833928], [-7.74729, 41.837772], [-7.74668, 41.839072]], [[-7.732203, 41.783172], [-7.733122, 41.782253], [-7.739179, 41.783249], [-7.73308, 41.784404], [-7.732203, 41.783172]]], [[[-7.830793, 41.710178], [-7.831192, 41.712167], [-7.842578, 41.718006], [-7.854615, 41.717139], [-7.859246, 41.712449], [-7.862186, 41.703471], [-7.855021, 41.694262], [-7.848747, 41.693458], [-7.847538, 41.695365], [-7.840622, 41.697374], [-7.8361, 41.701188], [-7.835792, 41.702763], [-7.839682, 41.705924], [-7.838465, 41.709522], [-7.830793, 41.710178]]], [[[-8.541617, 41.466431], [-8.553586, 41.467358], [-8.559084, 41.465061], [-8.567059, 41.456084], [-8.563421, 41.447063], [-8.553761, 41.441891], [-8.541782, 41.443039], [-8.535819, 41.446955], [-8.532134, 41.455948], [-8.538539, 41.464981], [-8.541617, 41.466431]]]]}}, {"id": "0", "type": "Feature", "properties": {"fill": "#eef8a7", "value_min": 0.4, "value_max": 0.47}, "geometry": {"type": "Polygon", "coordinates": [[[-7.732203, 41.783172], [-7.73308, 41.784404], [-7.739179, 41.783249], [-7.733122, 41.782253], [-7.732203, 41.783172]]]}}]}