{"type": "FeatureCollection", "features": [{"id": "3", "type": "Feature", "properties": {"fill": "#fc9863", "value_min": 0.6, "value_max": 0.67}, "geometry": {"type": "MultiPolygon", "coordinates": [[[[-7.914501, 41.730265], [-7.922706, 41.722068], [-7.924542, 41.713078], [-7.920832, 41.704037], [-7.915032, 41.698723], [-7.903079, 41.694905], [-7.891036, 41.696401], [-7.882849, 41.703674], [-7.87676, 41.712621], [-7.874977, 41.721611], [-7.87847, 41.727962], [-7.890369, 41.735201], [-7.902387, 41.735577], [-7.914501, 41.730265]], [[-7.890538, 41.725363], [-7.886234, 41.72172], [-7.886429, 41.712715], [-7.890833, 41.70821], [-7.90286, 41.707767], [-7.909048, 41.712932], [-7.907741, 41.721927], [-7.902561, 41.725369], [-7.890538, 41.725363]]], [[[-8.768998, 41.58613], [-8.768998, 41.58613], [-8.769284, 41.585903], [-8.768998, 41.58613]]], [[[-8.769295, 41.585894], [-8.782306, 41.573789], [-8.795304, 41.555799], [-8.799707, 41.546799], [-8.804635, 41.528793], [-8.805297, 41.510779], [-8.80158, 41.492758], [-8.793067, 41.475514], [-8.78572, 41.465707], [-8.77649, 41.456682], [-8.763726, 41.447649], [-8.745302, 41.43913], [-8.733346, 41.435647], [-8.697456, 41.43163], [-8.673515, 41.432263], [-8.649564, 41.434841], [-8.625592, 41.440503], [-8.61359, 41.445864], [-8.601568, 41.454105], [-8.560286, 41.492088], [-8.555527, 41.501078], [-8.551517, 41.519077], [-8.55125, 41.528083], [-8.555109, 41.546113], [-8.571456, 41.573197], [-8.588729, 41.591168], [-8.600675, 41.599528], [-8.62107, 41.60884], [-8.621338, 41.604636], [-8.628833, 41.604378], [-8.636302, 41.600744], [-8.64075, 41.594422], [-8.645536, 41.593051], [-8.646744, 41.594171], [-8.649125, 41.591909], [-8.656622, 41.5921], [-8.660788, 41.588255], [-8.663794, 41.589141], [-8.665265, 41.585758], [-8.66948, 41.587989], [-8.684455, 41.586117], [-8.685608, 41.58071], [-8.697261, 41.576376], [-8.701703, 41.570277], [-8.707704, 41.570923], [-8.712485, 41.569323], [-8.716422, 41.573805], [-8.720316, 41.57356], [-8.725151, 41.577811], [-8.726633, 41.576003], [-8.734424, 41.575737], [-8.736564, 41.580228], [-8.738354, 41.579318], [-8.740778, 41.582006], [-8.74467, 41.581535], [-8.750711, 41.58623], [-8.756374, 41.582823], [-8.75635, 41.580347], [-8.762327, 41.578514], [-8.764443, 41.580303], [-8.767441, 41.580286], [-8.769874, 41.583874], [-8.769295, 41.585894]], [[-8.648829, 41.571063], [-8.636829, 41.57196], [-8.62484, 41.571004], [-8.612864, 41.567931], [-8.600905, 41.562174], [-8.5836, 41.54622], [-8.579002, 41.537195], [-8.577335, 41.528182], [-8.578125, 41.519178], [-8.581861, 41.510184], [-8.589294, 41.501953], [-8.601323, 41.494121], [-8.613324, 41.490617], [-8.625303, 41.490753], [-8.637264, 41.494189], [-8.670803, 41.510473], [-8.682349, 41.519513], [-8.687801, 41.528535], [-8.689201, 41.537546], [-8.686738, 41.546547], [-8.680639, 41.555537], [-8.672864, 41.561811], [-8.660839, 41.567948], [-8.648829, 41.571063]]], [[[-8.61648, 41.177888], [-8.626867, 41.217554], [-8.642493, 41.258175], [-8.654035, 41.294241], [-8.666599, 41.312294], [-8.67667, 41.32133], [-8.697901, 41.335646], [-8.709827, 41.341353], [-8.72176, 41.345712], [-8.74565, 41.349917], [-8.757604, 41.349848], [-8.781528, 41.344958], [-8.793644, 41.339615], [-8.807057, 41.331297], [-8.799695, 41.14406], [-8.674793, 41.146932], [-8.674849, 41.153767], [-8.672489, 41.15648], [-8.66117, 41.156307], [-8.662078, 41.158104], [-8.660313, 41.160813], [-8.657033, 41.160378], [-8.654961, 41.161963], [-8.653231, 41.169174], [-8.655366, 41.175467], [-8.647955, 41.180228], [-8.647696, 41.185181], [-8.640929, 41.196241], [-8.634946, 41.193341], [-8.632526, 41.188624], [-8.625658, 41.186628], [-8.62263, 41.180113], [-8.61648, 41.177888]], [[-8.698435, 41.219746], [-8.686505, 41.219768], [-8.674594, 41.215869], [-8.663143, 41.20419], [-8.66157, 41.195178], [-8.664551, 41.186178], [-8.674789, 41.176419], [-8.68673, 41.172479], [-8.698652, 41.172374], [-8.712785, 41.177301], [-8.7221, 41.186332], [-8.724774, 41.195346], [-8.722798, 41.204349], [-8.714826, 41.213338], [-8.698435, 41.219746]]]]}}, {"id": "4", "type": "Feature", "properties": {"fill": "#f77f52", "value_min": 0.67, "value_max": 0.73}, "geometry": {"type": "MultiPolygon", "coordinates": [[[[-7.890538, 41.725363], [-7.902561, 41.725369], [-7.907741, 41.721927], [-7.909048, 41.712932], [-7.90286, 41.707767], [-7.890833, 41.70821], [-7.886429, 41.712715], [-7.886234, 41.72172], [-7.890538, 41.725363]]], [[[-8.648829, 41.571063], [-8.660839, 41.567948], [-8.672864, 41.561811], [-8.680639, 41.555537], [-8.686738, 41.546547], [-8.689201, 41.537546], [-8.687801, 41.528535], [-8.682349, 41.519513], [-8.670803, 41.510473], [-8.637264, 41.494189], [-8.625303, 41.490753], [-8.613324, 41.490617], [-8.601323, 41.494121], [-8.589294, 41.501953], [-8.581861, 41.510184], [-8.578125, 41.519178], [-8.577335, 41.528182], [-8.579002, 41.537195], [-8.5836, 41.54622], [-8.600905, 41.562174], [-8.612864, 41.567931], [-8.62484, 41.571004], [-8.636829, 41.57196], [-8.648829, 41.571063]], [[-8.636938, 41.55254], [-8.624942, 41.553309], [-8.612966, 41.550764], [-8.601021, 41.543288], [-8.595912, 41.537256], [-8.592901, 41.528238], [-8.594397, 41.519236], [-8.60159, 41.510254], [-8.613242, 41.504436], [-8.62523, 41.50342], [-8.637197, 41.506142], [-8.64563, 41.510398], [-8.65621, 41.519437], [-8.659731, 41.528455], [-8.658444, 41.537459], [-8.650872, 41.546443], [-8.636938, 41.55254]]], [[[-8.698435, 41.219746], [-8.714826, 41.213338], [-8.722798, 41.204349], [-8.724774, 41.195346], [-8.7221, 41.186332], [-8.712785, 41.177301], [-8.698652, 41.172374], [-8.68673, 41.172479], [-8.674789, 41.176419], [-8.664551, 41.186178], [-8.66157, 41.195178], [-8.663143, 41.20419], [-8.674594, 41.215869], [-8.686505, 41.219768], [-8.698435, 41.219746]]]]}}, {"id": "6", "type": "Feature", "properties": {"fill": "#e85c3f", "value_min": 0.8, "value_max": 0.87}, "geometry": {"type": "Polygon", "coordinates": [[[-8.63703, 41.536112], [-8.641987, 41.528401], [-8.638874, 41.519384], [-8.62517, 41.513851], [-8.613169, 41.516673], [-8.609922, 41.51929], [-8.607402, 41.528289], [-8.613051, 41.536602], [-8.625019, 41.540005], [-8.63703, 41.536112]]]}}, {"id": "2", "type": "Feature", "properties": {"fill": "#fecb90", "value_min": 0.53, "value_max": 0.6}, "geometry": {"type": "MultiPolygon", "coordinates": [[[[-8.768998, 41.58613], [-8.773228, 41.589482], [-8.775371, 41.593972], [-8.78556, 41.593464], [-8.797327, 41.600599], [-8.804218, 41.600109], [-8.80456, 41.604158], [-8.809434, 41.611332], [-8.828644, 41.609656], [-8.82839, 41.585633], [-8.818497, 41.554794], [-8.8221, 41.547542], [-8.821965, 41.534907], [-8.815926, 41.525624], [-8.81063, 41.5101], [-8.813279, 41.503483], [-8.812636, 41.496944], [-8.804699, 41.482068], [-8.798552, 41.474753], [-8.80154, 41.446836], [-8.806115, 41.43713], [-8.807354, 41.425915], [-8.811166, 41.417099], [-8.807057, 41.331297], [-8.793644, 41.339615], [-8.781528, 41.344958], [-8.757604, 41.349848], [-8.74565, 41.349917], [-8.72176, 41.345712], [-8.709827, 41.341353], [-8.697901, 41.335646], [-8.67667, 41.32133], [-8.666599, 41.312294], [-8.654035, 41.294241], [-8.642493, 41.258175], [-8.626867, 41.217554], [-8.61648, 41.177888], [-8.608583, 41.174095], [-8.609164, 41.172066], [-8.604942, 41.164881], [-8.59422, 41.165149], [-8.589766, 41.167193], [-8.589194, 41.170572], [-8.583263, 41.174422], [-8.582094, 41.177803], [-8.578825, 41.178941], [-8.581296, 41.191762], [-8.575958, 41.195609], [-8.576894, 41.201908], [-8.574515, 41.202593], [-8.57423, 41.20462], [-8.567971, 41.204644], [-8.565895, 41.206227], [-8.567697, 41.208246], [-8.566512, 41.209376], [-8.559636, 41.206251], [-8.554271, 41.20627], [-8.549521, 41.209214], [-8.544157, 41.209458], [-8.54238, 41.211265], [-8.532257, 41.213102], [-8.52713, 41.203215], [-8.523236, 41.200077], [-8.51163, 41.203042], [-8.510456, 41.206197], [-8.505693, 41.207113], [-8.504239, 41.213646], [-8.500076, 41.21546], [-8.50308, 41.219502], [-8.502204, 41.222656], [-8.495642, 41.222227], [-8.495947, 41.223351], [-8.490894, 41.226294], [-8.487935, 41.230354], [-8.490331, 41.232373], [-8.489156, 41.235528], [-8.486181, 41.236888], [-8.484411, 41.240495], [-8.476346, 41.237818], [-8.475756, 41.23917], [-8.470986, 41.23941], [-8.471604, 41.243459], [-8.469227, 41.245267], [-8.463258, 41.244384], [-8.459989, 41.246644], [-8.454323, 41.246886], [-8.455541, 41.251834], [-8.452276, 41.25522], [-8.449891, 41.255452], [-8.449304, 41.257479], [-8.447812, 41.257258], [-8.449028, 41.261982], [-8.439785, 41.262907], [-8.438023, 41.268989], [-8.434745, 41.269673], [-8.432691, 41.277107], [-8.427032, 41.279372], [-8.429143, 41.284319], [-8.426171, 41.287028], [-8.426488, 41.291079], [-8.425013, 41.294909], [-8.422037, 41.296942], [-8.422647, 41.299867], [-8.407744, 41.304856], [-8.406262, 41.307335], [-8.403277, 41.307342], [-8.401801, 41.311398], [-8.399712, 41.311628], [-8.400316, 41.313202], [-8.396738, 41.314336], [-8.398835, 41.316131], [-8.393775, 41.31997], [-8.393489, 41.323122], [-8.391105, 41.324253], [-8.386325, 41.323588], [-8.380382, 41.331254], [-8.375305, 41.33104], [-8.37201, 41.328346], [-8.361563, 41.329718], [-8.358276, 41.329049], [-8.357673, 41.327249], [-8.350207, 41.327264], [-8.346032, 41.328847], [-8.342462, 41.333131], [-8.333215, 41.336299], [-8.326363, 41.342163], [-8.324568, 41.341041], [-8.323376, 41.341943], [-8.320676, 41.338121], [-8.312604, 41.334983], [-8.313794, 41.333405], [-8.31139, 41.328007], [-8.307502, 41.325762], [-8.305116, 41.326891], [-8.303024, 41.325994], [-8.303615, 41.323742], [-8.301216, 41.319694], [-8.296431, 41.316774], [-8.297618, 41.313846], [-8.295817, 41.310022], [-8.281801, 41.316569], [-8.279132, 41.324451], [-8.272266, 41.32536], [-8.265709, 41.331221], [-8.269004, 41.336169], [-8.263339, 41.340902], [-8.262751, 41.345405], [-8.256483, 41.347663], [-8.255889, 41.349689], [-8.249622, 41.353072], [-8.251123, 41.356897], [-8.248141, 41.360052], [-8.248448, 41.364328], [-8.245461, 41.364781], [-8.244272, 41.368384], [-8.241287, 41.370413], [-8.224854, 41.370878], [-8.21738, 41.368182], [-8.214399, 41.373587], [-8.208127, 41.376968], [-8.199163, 41.377423], [-8.194677, 41.374275], [-8.191691, 41.376302], [-8.189299, 41.375403], [-8.184818, 41.376756], [-8.168382, 41.377438], [-8.164499, 41.38059], [-8.152544, 41.375866], [-8.151049, 41.37339], [-8.145073, 41.374742], [-8.139694, 41.377894], [-8.133418, 41.374292], [-8.125051, 41.375193], [-8.119672, 41.376768], [-8.119672, 41.378569], [-8.116683, 41.380144], [-8.117877, 41.385771], [-8.113992, 41.386896], [-8.112795, 41.390723], [-8.110105, 41.390947], [-8.108011, 41.393648], [-8.103827, 41.392972], [-8.105321, 41.394998], [-8.10263, 41.396123], [-8.10801, 41.398825], [-8.108606, 41.403102], [-8.104419, 41.406252], [-8.104119, 41.408728], [-8.101727, 41.409403], [-8.102025, 41.411204], [-8.092756, 41.411201], [-8.09126, 41.414352], [-8.079893, 41.41975], [-8.077503, 41.416597], [-8.070325, 41.41862], [-8.065543, 41.416141], [-8.061654, 41.417489], [-8.060477, 41.42109], [-8.074286, 41.435159], [-8.078856, 41.444204], [-8.079236, 41.471229], [-8.082148, 41.480259], [-8.089979, 41.489329], [-8.110089, 41.49746], [-8.122057, 41.498377], [-8.134073, 41.495798], [-8.145959, 41.489758], [-8.161432, 41.471857], [-8.170393, 41.466127], [-8.182403, 41.463348], [-8.230328, 41.461059], [-8.254229, 41.46512], [-8.266142, 41.470667], [-8.278, 41.481279], [-8.284278, 41.490702], [-8.30137, 41.535789], [-8.306397, 41.544882], [-8.313168, 41.553689], [-8.325053, 41.56394], [-8.348899, 41.577818], [-8.379149, 41.590334], [-8.408679, 41.599651], [-8.444632, 41.605019], [-8.456595, 41.609458], [-8.467417, 41.617798], [-8.472626, 41.62683], [-8.474668, 41.662868], [-8.479564, 41.683256], [-8.482012, 41.682123], [-8.484371, 41.674238], [-8.49308, 41.674886], [-8.499963, 41.671038], [-8.50927, 41.671233], [-8.51018, 41.672806], [-8.511967, 41.670324], [-8.509856, 41.668755], [-8.522103, 41.658811], [-8.525706, 41.659023], [-8.527769, 41.652714], [-8.534066, 41.652017], [-8.537355, 41.64998], [-8.537634, 41.646602], [-8.543876, 41.637352], [-8.543855, 41.633976], [-8.536342, 41.631977], [-8.535128, 41.62973], [-8.543431, 41.61462], [-8.554533, 41.615255], [-8.557244, 41.617046], [-8.562639, 41.61635], [-8.568056, 41.619031], [-8.570735, 41.616095], [-8.577321, 41.614269], [-8.581231, 41.615829], [-8.586066, 41.620987], [-8.591462, 41.620515], [-8.596534, 41.616668], [-8.601628, 41.615972], [-8.603996, 41.611686], [-8.613256, 41.606696], [-8.616863, 41.607806], [-8.61778, 41.610053], [-8.62107, 41.60884], [-8.600675, 41.599528], [-8.588729, 41.591168], [-8.571456, 41.573197], [-8.555109, 41.546113], [-8.55125, 41.528083], [-8.551517, 41.519077], [-8.555527, 41.501078], [-8.560286, 41.492088], [-8.601568, 41.454105], [-8.61359, 41.445864], [-8.625592, 41.440503], [-8.649564, 41.434841], [-8.673515, 41.432263], [-8.697456, 41.43163], [-8.733346, 41.435647], [-8.745302, 41.43913], [-8.763726, 41.447649], [-8.77649, 41.456682], [-8.78572, 41.465707], [-8.793067, 41.475514], [-8.80158, 41.492758], [-8.805297, 41.510779], [-8.804635, 41.528793], [-8.799707, 41.546799], [-8.795304, 41.555799], [-8.782306, 41.573789], [-8.769295, 41.585894], [-8.769284, 41.585903], [-8.768998, 41.58613]], [[-8.445063, 41.554675], [-8.435904, 41.54559], [-8.438938, 41.536597], [-8.445255, 41.532153], [-8.457262, 41.529815], [-8.467178, 41.536732], [-8.467884, 41.545742], [-8.457053, 41.554878], [-8.445063, 41.554675]], [[-8.481258, 41.527075], [-8.469281, 41.525901], [-8.462775, 41.518697], [-8.463013, 41.50969], [-8.469471, 41.502625], [-8.481488, 41.498207], [-8.493444, 41.501411], [-8.499589, 41.509855], [-8.497496, 41.518853], [-8.493275, 41.523094], [-8.481258, 41.527075]], [[-8.555186, 41.232653], [-8.549747, 41.230826], [-8.541683, 41.221787], [-8.546279, 41.212797], [-8.555344, 41.209345], [-8.567259, 41.211458], [-8.57257, 41.221905], [-8.56713, 41.230931], [-8.555186, 41.232653]]], [[[-7.727031, 41.804814], [-7.732659, 41.805795], [-7.744719, 41.804645], [-7.756864, 41.799108], [-7.763369, 41.792518], [-7.766102, 41.783541], [-7.763841, 41.77451], [-7.757487, 41.766843], [-7.743243, 41.760085], [-7.739912, 41.764148], [-7.726937, 41.771755], [-7.7254, 41.777152], [-7.727191, 41.779184], [-7.724177, 41.780299], [-7.725372, 41.781653], [-7.722296, 41.792446], [-7.728879, 41.797871], [-7.727031, 41.804814]]], [[[-7.869922, 41.685965], [-7.870918, 41.703557], [-7.868259, 41.712538], [-7.856712, 41.730437], [-7.864619, 41.739523], [-7.8901, 41.750789], [-7.902112, 41.75171], [-7.914217, 41.747154], [-7.938206, 41.731219], [-7.946379, 41.722288], [-7.949492, 41.713309], [-7.950108, 41.704308], [-7.948587, 41.695287], [-7.944517, 41.686243], [-7.937551, 41.677172], [-7.927555, 41.668292], [-7.915659, 41.661358], [-7.900826, 41.657714], [-7.902319, 41.66015], [-7.899913, 41.66127], [-7.900198, 41.665547], [-7.898396, 41.665769], [-7.897186, 41.668467], [-7.882465, 41.671588], [-7.877044, 41.676077], [-7.876723, 41.681253], [-7.873702, 41.685973], [-7.869922, 41.685965]], [[-7.914501, 41.730265], [-7.902387, 41.735577], [-7.890369, 41.735201], [-7.87847, 41.727962], [-7.874977, 41.721611], [-7.87676, 41.712621], [-7.882849, 41.703674], [-7.891036, 41.696401], [-7.903079, 41.694905], [-7.915032, 41.698723], [-7.920832, 41.704037], [-7.924542, 41.713078], [-7.922706, 41.722068], [-7.914501, 41.730265]]], [[[-8.432897, 41.71715], [-8.432935, 41.717031], [-8.433021, 41.716699], [-8.419695, 41.709301], [-8.407631, 41.714089], [-8.405566, 41.716574], [-8.40712, 41.723066], [-8.417349, 41.725067], [-8.422737, 41.720552], [-8.429643, 41.719859], [-8.430533, 41.717381], [-8.432897, 41.71715]]]]}}, {"id": "5", "type": "Feature", "properties": {"fill": "#ef6d48", "value_min": 0.73, "value_max": 0.8}, "geometry": {"type": "Polygon", "coordinates": [[[-8.636938, 41.55254], [-8.650872, 41.546443], [-8.658444, 41.537459], [-8.659731, 41.528455], [-8.65621, 41.519437], [-8.64563, 41.510398], [-8.637197, 41.506142], [-8.62523, 41.50342], [-8.613242, 41.504436], [-8.60159, 41.510254], [-8.594397, 41.519236], [-8.592901, 41.528238], [-8.595912, 41.537256], [-8.601021, 41.543288], [-8.612966, 41.550764], [-8.624942, 41.553309], [-8.636938, 41.55254]], [[-8.63703, 41.536112], [-8.625019, 41.540005], [-8.613051, 41.536602], [-8.607402, 41.528289], [-8.609922, 41.51929], [-8.613169, 41.516673], [-8.62517, 41.513851], [-8.638874, 41.519384], [-8.641987, 41.528401], [-8.63703, 41.536112]]]}}, {"id": "1", "type": "Feature", "properties": {"fill": "#fffebe", "value_min": 0.47, "value_max": 0.53}, "geometry": {"type": "MultiPolygon", "coordinates": [[[[-8.479564, 41.683256], [-8.474668, 41.662868], [-8.472626, 41.62683], [-8.467417, 41.617798], [-8.456595, 41.609458], [-8.444632, 41.605019], [-8.408679, 41.599651], [-8.379149, 41.590334], [-8.348899, 41.577818], [-8.325053, 41.56394], [-8.313168, 41.553689], [-8.306397, 41.544882], [-8.30137, 41.535789], [-8.284278, 41.490702], [-8.278, 41.481279], [-8.266142, 41.470667], [-8.254229, 41.46512], [-8.230328, 41.461059], [-8.182403, 41.463348], [-8.170393, 41.466127], [-8.161432, 41.471857], [-8.145959, 41.489758], [-8.134073, 41.495798], [-8.122057, 41.498377], [-8.110089, 41.49746], [-8.089979, 41.489329], [-8.082148, 41.480259], [-8.079236, 41.471229], [-8.078856, 41.444204], [-8.074286, 41.435159], [-8.060477, 41.42109], [-8.059852, 41.424916], [-8.055959, 41.429415], [-8.05745, 41.432793], [-8.056549, 41.436394], [-8.069999, 41.447206], [-8.068788, 41.462286], [-8.073872, 41.46499], [-8.074468, 41.468141], [-8.073564, 41.474668], [-8.066374, 41.482318], [-8.066069, 41.48817], [-8.072054, 41.490199], [-8.07175, 41.494925], [-8.078333, 41.49898], [-8.078332, 41.500331], [-8.093, 41.504613], [-8.089398, 41.519242], [-8.090594, 41.522169], [-8.093588, 41.52307], [-8.091487, 41.531173], [-8.097775, 41.536127], [-8.097774, 41.537927], [-8.106759, 41.543557], [-8.101666, 41.542655], [-8.094175, 41.544904], [-8.087885, 41.542876], [-8.083389, 41.5449], [-8.080687, 41.551651], [-8.074097, 41.549848], [-8.073494, 41.553449], [-8.075891, 41.554575], [-8.076188, 41.557276], [-8.079783, 41.558403], [-8.081576, 41.565157], [-8.078879, 41.56493], [-8.075279, 41.568305], [-8.073182, 41.568079], [-8.069283, 41.570553], [-8.068081, 41.573478], [-8.056684, 41.579549], [-8.052181, 41.584498], [-8.052777, 41.587649], [-8.037169, 41.600242], [-8.031467, 41.602938], [-8.02367, 41.603156], [-8.019174, 41.601802], [-8.015872, 41.603824], [-8.013474, 41.603372], [-8.005971, 41.60629], [-8.003562, 41.611239], [-7.99936, 41.61281], [-7.998462, 41.612359], [-7.999669, 41.608759], [-7.996976, 41.605829], [-7.996684, 41.602003], [-7.984685, 41.603564], [-7.982292, 41.60086], [-7.975689, 41.603552], [-7.974482, 41.606701], [-7.970882, 41.607147], [-7.969091, 41.603768], [-7.965796, 41.602413], [-7.9541, 41.602846], [-7.952606, 41.600592], [-7.947808, 41.60081], [-7.945413, 41.599456], [-7.942725, 41.595625], [-7.936132, 41.594488], [-7.93791, 41.601694], [-7.937004, 41.603718], [-7.931604, 41.604384], [-7.930979, 41.612711], [-7.925556, 41.620354], [-7.920755, 41.620796], [-7.917748, 41.623041], [-7.915933, 41.627764], [-7.913229, 41.628885], [-7.912613, 41.63361], [-7.906014, 41.633147], [-7.906884, 41.641927], [-7.897869, 41.645511], [-7.89696, 41.647985], [-7.892759, 41.647976], [-7.892145, 41.651576], [-7.900826, 41.657714], [-7.915659, 41.661358], [-7.927555, 41.668292], [-7.937551, 41.677172], [-7.944517, 41.686243], [-7.948587, 41.695287], [-7.950108, 41.704308], [-7.949492, 41.713309], [-7.946379, 41.722288], [-7.938206, 41.731219], [-7.914217, 41.747154], [-7.902112, 41.75171], [-7.8901, 41.750789], [-7.864619, 41.739523], [-7.856712, 41.730437], [-7.868259, 41.712538], [-7.870918, 41.703557], [-7.869922, 41.685965], [-7.867999, 41.68551], [-7.867408, 41.683258], [-7.864403, 41.683701], [-7.864096, 41.685276], [-7.860493, 41.685268], [-7.857773, 41.689538], [-7.854776, 41.68818], [-7.847538, 41.695365], [-7.837309, 41.699391], [-7.835792, 41.702763], [-7.839682, 41.705924], [-7.838465, 41.709522], [-7.832453, 41.710407], [-7.825252, 41.708813], [-7.818621, 41.713522], [-7.815291, 41.718689], [-7.808986, 41.717996], [-7.808396, 41.715744], [-7.803298, 41.714154], [-7.790966, 41.717044], [-7.789449, 41.719966], [-7.78464, 41.720402], [-7.78252, 41.723546], [-7.776204, 41.724652], [-7.773786, 41.727346], [-7.770798, 41.72441], [-7.765698, 41.723044], [-7.761765, 41.727758], [-7.762933, 41.733839], [-7.759307, 41.737203], [-7.759597, 41.739005], [-7.75689, 41.739446], [-7.758687, 41.740577], [-7.757758, 41.745301], [-7.748417, 41.749321], [-7.747786, 41.754496], [-7.743866, 41.756509], [-7.743243, 41.760085], [-7.757487, 41.766843], [-7.763841, 41.77451], [-7.766102, 41.783541], [-7.763369, 41.792518], [-7.756864, 41.799108], [-7.744719, 41.804645], [-7.732659, 41.805795], [-7.727031, 41.804814], [-7.72995, 41.819031], [-7.73594, 41.823554], [-7.74345, 41.825605], [-7.738918, 41.82874], [-7.742196, 41.833928], [-7.74729, 41.837772], [-7.746349, 41.84407], [-7.750246, 41.846784], [-7.750532, 41.849261], [-7.743309, 41.849012], [-7.746901, 41.8524], [-7.746881, 41.855776], [-7.73843, 41.859348], [-7.734159, 41.868337], [-7.730228, 41.871024], [-7.729293, 41.875972], [-7.722351, 41.878424], [-7.720523, 41.881793], [-7.725335, 41.882935], [-7.726208, 41.887665], [-7.737044, 41.888828], [-7.737935, 41.890857], [-7.74246, 41.889747], [-7.742785, 41.885922], [-7.756022, 41.888441], [-7.758719, 41.890926], [-7.756592, 41.89407], [-7.758376, 41.898127], [-7.764097, 41.898595], [-7.779227, 41.886264], [-7.785257, 41.885157], [-7.788886, 41.882467], [-7.794007, 41.882257], [-7.796739, 41.878214], [-7.794349, 41.87438], [-7.797064, 41.873488], [-7.803381, 41.874857], [-7.804914, 41.869459], [-7.813032, 41.871958], [-7.814229, 41.873537], [-7.823863, 41.874013], [-7.825059, 41.875817], [-7.830479, 41.875831], [-7.830789, 41.874031], [-7.832894, 41.874712], [-7.83772, 41.872924], [-7.842528, 41.875187], [-7.841663, 41.866632], [-7.849515, 41.861475], [-7.858542, 41.862622], [-7.859456, 41.860148], [-7.864877, 41.859711], [-7.87033, 41.851395], [-7.873043, 41.850501], [-7.873066, 41.844875], [-7.879056, 41.85254], [-7.886268, 41.855932], [-7.888076, 41.855486], [-7.891675, 41.859094], [-7.900698, 41.861588], [-7.904318, 41.859795], [-7.907309, 41.865203], [-7.906095, 41.868126], [-7.910299, 41.871285], [-7.909985, 41.875111], [-7.915391, 41.879397], [-7.921118, 41.877833], [-7.928044, 41.87807], [-7.935283, 41.874707], [-7.937389, 41.87516], [-7.941618, 41.870891], [-7.951254, 41.871132], [-7.956367, 41.87339], [-7.956362, 41.875191], [-7.960878, 41.875648], [-7.96299, 41.874075], [-7.972322, 41.875439], [-7.987996, 41.869157], [-7.990123, 41.860157], [-7.995547, 41.858138], [-7.994047, 41.855211], [-7.996162, 41.851837], [-8.003089, 41.850494], [-8.005804, 41.847346], [-8.007928, 41.838796], [-8.010941, 41.836773], [-8.013965, 41.828899], [-8.017873, 41.831379], [-8.02901, 41.829589], [-8.037134, 41.831171], [-8.041351, 41.828023], [-8.041054, 41.825097], [-8.045268, 41.824425], [-8.046775, 41.821951], [-8.056712, 41.81588], [-8.06664, 41.817012], [-8.072961, 41.813414], [-8.078678, 41.813417], [-8.082892, 41.810493], [-8.091013, 41.812521], [-8.093421, 41.811397], [-8.093723, 41.808471], [-8.101845, 41.809824], [-8.104853, 41.81185], [-8.115984, 41.812302], [-8.123807, 41.808702], [-8.138247, 41.808477], [-8.139751, 41.813203], [-8.14276, 41.812978], [-8.144866, 41.815228], [-8.149078, 41.814777], [-8.153291, 41.817703], [-8.158106, 41.818377], [-8.165326, 41.81815], [-8.173744, 41.808019], [-8.177655, 41.808242], [-8.183676, 41.812741], [-8.190291, 41.809587], [-8.197158, 41.814129], [-8.201063, 41.808724], [-8.204973, 41.807372], [-8.205872, 41.804445], [-8.213692, 41.803765], [-8.217598, 41.80016], [-8.217589, 41.793634], [-8.224207, 41.794303], [-8.229917, 41.791598], [-8.240744, 41.791588], [-8.24074, 41.789338], [-8.244347, 41.787984], [-8.245546, 41.785731], [-8.251257, 41.784375], [-8.251845, 41.777172], [-8.257551, 41.773564], [-8.261762, 41.774235], [-8.271366, 41.766346], [-8.280681, 41.764083], [-8.284038, 41.761109], [-8.284931, 41.757507], [-8.305674, 41.758152], [-8.311096, 41.762195], [-8.318308, 41.761283], [-8.325233, 41.765098], [-8.328234, 41.763292], [-8.336653, 41.763728], [-8.341756, 41.761468], [-8.344765, 41.762363], [-8.349267, 41.760103], [-8.352557, 41.755145], [-8.349814, 41.744122], [-8.352516, 41.743441], [-8.352203, 41.739616], [-8.357897, 41.735103], [-8.362407, 41.735994], [-8.368703, 41.73193], [-8.374122, 41.734845], [-8.384922, 41.73032], [-8.387032, 41.731891], [-8.393033, 41.729852], [-8.396942, 41.730518], [-8.400531, 41.726683], [-8.402934, 41.726452], [-8.404721, 41.722847], [-8.40712, 41.723066], [-8.405566, 41.716574], [-8.407631, 41.714089], [-8.419695, 41.709301], [-8.433021, 41.716699], [-8.436526, 41.714214], [-8.441632, 41.713975], [-8.4446, 41.70654], [-8.453868, 41.697961], [-8.453255, 41.695487], [-8.461659, 41.694563], [-8.479564, 41.683256]], [[-8.00425, 41.740818], [-7.999404, 41.731769], [-8.010771, 41.725153], [-8.0237, 41.731978], [-8.019095, 41.740945], [-8.010486, 41.743681], [-8.00425, 41.740818]], [[-8.083405, 41.690155], [-8.078768, 41.687397], [-8.073343, 41.678347], [-8.079989, 41.669393], [-8.083727, 41.667516], [-8.095736, 41.667736], [-8.098961, 41.669543], [-8.10502, 41.678598], [-8.09543, 41.689569], [-8.083405, 41.690155]]], [[[-8.432935, 41.717031], [-8.432935, 41.717031], [-8.432897, 41.71715], [-8.432935, 41.717031]]], [[[-8.445063, 41.554675], [-8.457053, 41.554878], [-8.467884, 41.545742], [-8.467178, 41.536732], [-8.457262, 41.529815], [-8.445255, 41.532153], [-8.438938, 41.536597], [-8.435904, 41.54559], [-8.445063, 41.554675]]], [[[-8.481258, 41.527075], [-8.493275, 41.523094], [-8.497496, 41.518853], [-8.499589, 41.509855], [-8.493444, 41.501411], [-8.481488, 41.498207], [-8.469471, 41.502625], [-8.463013, 41.50969], [-8.462775, 41.518697], [-8.469281, 41.525901], [-8.481258, 41.527075]]], [[[-8.555186, 41.232653], [-8.56713, 41.230931], [-8.57257, 41.221905], [-8.567259, 41.211458], [-8.555344, 41.209345], [-8.546279, 41.212797], [-8.541683, 41.221787], [-8.549747, 41.230826], [-8.555186, 41.232653]]]]}}, {"id": "0", "type": "Feature", "properties": {"fill": "#eef8a7", "value_min": 0.4, "value_max": 0.47}, "geometry": {"type": "MultiPolygon", "coordinates": [[[[-8.00425, 41.740818], [-8.010486, 41.743681], [-8.019095, 41.740945], [-8.0237, 41.731978], [-8.010771, 41.725153], [-7.999404, 41.731769], [-8.00425, 41.740818]]], [[[-8.083405, 41.690155], [-8.09543, 41.689569], [-8.10502, 41.678598], [-8.098961, 41.669543], [-8.095736, 41.667736], [-8.083727, 41.667516], [-8.079989, 41.669393], [-8.073343, 41.678347], [-8.078768, 41.687397], [-8.083405, 41.690155]]]]}}]}