{"type": "FeatureCollection", "features": [{"id": "0", "type": "Feature", "properties": {"fill": "#bde282", "value_min": 0.27, "value_max": 0.33}, "geometry": {"type": "Polygon", "coordinates": [[[-8.719211, 41.204341], [-8.721674, 41.195339], [-8.718882, 41.186324], [-8.710549, 41.177963], [-8.698647, 41.17351], [-8.686727, 41.173144], [-8.674788, 41.176639], [-8.664133, 41.186177], [-8.661175, 41.195176], [-8.663038, 41.20419], [-8.674598, 41.214934], [-8.686512, 41.218187], [-8.698444, 41.217641], [-8.710536, 41.213327], [-8.719211, 41.204341]]]}}, {"id": "1", "type": "Feature", "properties": {"fill": "#ddf190", "value_min": 0.33, "value_max": 0.4}, "geometry": {"type": "MultiPolygon", "coordinates": [[[[-8.166856, 41.741647], [-8.166837, 41.743089], [-8.168807, 41.742126], [-8.166856, 41.741647]]], [[[-8.633687, 41.190195], [-8.636028, 41.204108], [-8.640713, 41.21313], [-8.650693, 41.223679], [-8.664532, 41.231218], [-8.674503, 41.234247], [-8.698363, 41.235376], [-8.71775, 41.231361], [-8.734207, 41.224157], [-8.747589, 41.213414], [-8.75383, 41.20442], [-8.756826, 41.195418], [-8.755628, 41.1774], [-8.751167, 41.168382], [-8.743263, 41.159357], [-8.734496, 41.152795], [-8.718343, 41.145857], [-8.674793, 41.146932], [-8.674849, 41.153767], [-8.672489, 41.15648], [-8.66117, 41.156307], [-8.662078, 41.158104], [-8.660313, 41.160813], [-8.657033, 41.160378], [-8.654961, 41.161963], [-8.653231, 41.169174], [-8.655366, 41.175467], [-8.647955, 41.180228], [-8.647696, 41.185181], [-8.640929, 41.196241], [-8.634946, 41.193341], [-8.633687, 41.190195]], [[-8.719211, 41.204341], [-8.710536, 41.213327], [-8.698444, 41.217641], [-8.686512, 41.218187], [-8.674598, 41.214934], [-8.663038, 41.20419], [-8.661175, 41.195176], [-8.664133, 41.186177], [-8.674788, 41.176639], [-8.686727, 41.173144], [-8.698647, 41.17351], [-8.710549, 41.177963], [-8.718882, 41.186324], [-8.721674, 41.195339], [-8.719211, 41.204341]]]]}}, {"id": "2", "type": "Feature", "properties": {"fill": "#eef8a7", "value_min": 0.4, "value_max": 0.47}, "geometry": {"type": "MultiPolygon", "coordinates": [[[[-7.959968, 41.794467], [-7.956599, 41.785429], [-7.949717, 41.782777], [-7.937681, 41.782892], [-7.931838, 41.785202], [-7.928609, 41.794178], [-7.937352, 41.802865], [-7.949378, 41.803521], [-7.959968, 41.794467]]], [[[-8.190781, 41.751739], [-8.192701, 41.742296], [-8.185559, 41.733239], [-8.179025, 41.730366], [-8.167, 41.730507], [-8.161748, 41.733068], [-8.151621, 41.742], [-8.15172, 41.751008], [-8.154652, 41.755161], [-8.166599, 41.761464], [-8.17864, 41.760629], [-8.190781, 41.751739]], [[-8.166856, 41.741647], [-8.168807, 41.742126], [-8.166837, 41.743089], [-8.166856, 41.741647]]], [[[-8.01935, 41.731941], [-8.010733, 41.727583], [-8.003468, 41.731804], [-8.010519, 41.741543], [-8.01935, 41.731941]]], [[[-8.439834, 41.71443], [-8.434912, 41.707715], [-8.431744, 41.705983], [-8.419749, 41.703291], [-8.40771, 41.705492], [-8.40387, 41.707558], [-8.396349, 41.716526], [-8.397408, 41.725538], [-8.399645, 41.727586], [-8.402934, 41.726452], [-8.404721, 41.722847], [-8.417349, 41.725067], [-8.422737, 41.720552], [-8.429643, 41.719859], [-8.430533, 41.717381], [-8.435927, 41.714441], [-8.439834, 41.71443]]], [[[-7.857366, 41.703423], [-7.854909, 41.700614], [-7.844049, 41.70329], [-7.85041, 41.712361], [-7.85536, 41.71241], [-7.857366, 41.703423]]], [[[-8.119389, 41.695004], [-8.115907, 41.696696], [-8.119335, 41.698903], [-8.121154, 41.696736], [-8.119389, 41.695004]]], [[[-8.490141, 41.509814], [-8.481429, 41.505676], [-8.474705, 41.509744], [-8.481323, 41.518877], [-8.490141, 41.509814]]], [[[-8.253749, 41.507027], [-8.24184, 41.500639], [-8.234712, 41.508398], [-8.241673, 41.514985], [-8.253716, 41.509821], [-8.253749, 41.507027]]], [[[-8.445614, 41.490153], [-8.449011, 41.482602], [-8.44559, 41.473578], [-8.433842, 41.466264], [-8.421872, 41.465702], [-8.408115, 41.473391], [-8.405102, 41.482383], [-8.408692, 41.491409], [-8.42158, 41.498522], [-8.433564, 41.498186], [-8.445614, 41.490153]]], [[[-8.52959, 41.207934], [-8.527502, 41.212721], [-8.527241, 41.221728], [-8.53097, 41.230751], [-8.5432, 41.240419], [-8.555111, 41.243737], [-8.567043, 41.244169], [-8.590939, 41.239766], [-8.602877, 41.239164], [-8.65053, 41.254312], [-8.674389, 41.257115], [-8.722152, 41.253566], [-8.757986, 41.246505], [-8.781891, 41.23613], [-8.793851, 41.227639], [-8.802639, 41.219043], [-8.799695, 41.14406], [-8.718343, 41.145857], [-8.734496, 41.152795], [-8.743263, 41.159357], [-8.751167, 41.168382], [-8.755628, 41.1774], [-8.756826, 41.195418], [-8.75383, 41.20442], [-8.747589, 41.213414], [-8.734207, 41.224157], [-8.71775, 41.231361], [-8.698363, 41.235376], [-8.674503, 41.234247], [-8.664532, 41.231218], [-8.650693, 41.223679], [-8.640713, 41.21313], [-8.636028, 41.204108], [-8.633687, 41.190195], [-8.632526, 41.188624], [-8.625658, 41.186628], [-8.621132, 41.178994], [-8.613374, 41.177451], [-8.608583, 41.174095], [-8.609164, 41.172066], [-8.604942, 41.164881], [-8.59422, 41.165149], [-8.589174, 41.167645], [-8.589194, 41.170572], [-8.583263, 41.174422], [-8.582094, 41.177803], [-8.578825, 41.178941], [-8.581296, 41.191762], [-8.575958, 41.195609], [-8.577183, 41.200557], [-8.57423, 41.20462], [-8.567971, 41.204644], [-8.565895, 41.206227], [-8.567697, 41.208246], [-8.566512, 41.209376], [-8.559636, 41.206251], [-8.554271, 41.20627], [-8.549521, 41.209214], [-8.544157, 41.209458], [-8.54238, 41.211265], [-8.533747, 41.213097], [-8.529858, 41.210859], [-8.52959, 41.207934]]]]}}, {"id": "5", "type": "Feature", "properties": {"fill": "#fc9863", "value_min": 0.6, "value_max": 0.67}, "geometry": {"type": "MultiPolygon", "coordinates": [[[[-8.344033, 41.762364], [-8.343458, 41.752264], [-8.337379, 41.734215], [-8.331823, 41.725176], [-8.323461, 41.716243], [-8.311517, 41.709028], [-8.299521, 41.706843], [-8.287494, 41.707451], [-8.275438, 41.710689], [-8.26334, 41.717524], [-8.251196, 41.728092], [-8.242132, 41.742633], [-8.24047, 41.760636], [-8.24244, 41.769656], [-8.250523, 41.784376], [-8.252156, 41.782798], [-8.251845, 41.777172], [-8.257551, 41.773564], [-8.261762, 41.774235], [-8.271367, 41.766848], [-8.262855, 41.759961], [-8.259854, 41.751756], [-8.261712, 41.742761], [-8.275206, 41.731327], [-8.287256, 41.729054], [-8.299255, 41.731323], [-8.304097, 41.734018], [-8.312722, 41.743077], [-8.314433, 41.752094], [-8.310233, 41.761521], [-8.318308, 41.761283], [-8.325233, 41.765098], [-8.328234, 41.763292], [-8.336653, 41.763728], [-8.341756, 41.761468], [-8.344033, 41.762364]]], [[[-7.890089, 41.670028], [-7.883589, 41.67666], [-7.87923, 41.684206], [-7.867346, 41.721536], [-7.867041, 41.73054], [-7.878273, 41.739267], [-7.890195, 41.745294], [-7.91416, 41.750543], [-7.926076, 41.757204], [-7.936298, 41.767229], [-7.952864, 41.767382], [-7.961052, 41.758449], [-7.956643, 41.749402], [-7.947259, 41.74031], [-7.952197, 41.704327], [-7.947146, 41.686267], [-7.939434, 41.676427], [-7.927555, 41.668304], [-7.915611, 41.664235], [-7.903602, 41.664119], [-7.900199, 41.665439], [-7.899921, 41.665547], [-7.898395, 41.666139], [-7.898189, 41.666219], [-7.898094, 41.666255], [-7.896885, 41.668692], [-7.890309, 41.669804], [-7.890277, 41.669837], [-7.890089, 41.670028]], [[-7.902333, 41.738773], [-7.890331, 41.737382], [-7.878415, 41.731099], [-7.873255, 41.721594], [-7.875456, 41.712609], [-7.880431, 41.70365], [-7.891105, 41.692378], [-7.903177, 41.689151], [-7.915155, 41.691385], [-7.921095, 41.695032], [-7.929717, 41.70412], [-7.932373, 41.713152], [-7.930432, 41.72214], [-7.923134, 41.731079], [-7.914399, 41.736337], [-7.902333, 41.738773]]], [[[-8.155121, 41.719426], [-8.160977, 41.715048], [-8.16397, 41.706063], [-8.160687, 41.697032], [-8.155503, 41.6902], [-8.143495, 41.689598], [-8.138375, 41.696867], [-8.131351, 41.699096], [-8.119143, 41.712997], [-8.114337, 41.714698], [-8.114174, 41.723704], [-8.11894, 41.727855], [-8.130925, 41.730686], [-8.142991, 41.727566], [-8.155121, 41.719426]], [[-8.131054, 41.721106], [-8.124713, 41.714778], [-8.128732, 41.705801], [-8.131294, 41.703336], [-8.143335, 41.701637], [-8.14983, 41.705959], [-8.149084, 41.714961], [-8.143099, 41.719443], [-8.131054, 41.721106]]], [[[-8.095344, 41.69568], [-8.119607, 41.678994], [-8.131663, 41.675876], [-8.143665, 41.676754], [-8.155711, 41.674327], [-8.186086, 41.652179], [-8.194058, 41.643228], [-8.199326, 41.634258], [-8.200985, 41.625262], [-8.199536, 41.616245], [-8.194467, 41.607203], [-8.185452, 41.598132], [-8.168828, 41.588449], [-8.156885, 41.584316], [-8.144888, 41.584304], [-8.132781, 41.592575], [-8.108304, 41.627402], [-8.096123, 41.64007], [-8.06639, 41.651269], [-8.058269, 41.66021], [-8.055269, 41.669193], [-8.058459, 41.678226], [-8.066287, 41.687297], [-8.083298, 41.697713], [-8.095344, 41.69568]], [[-8.083408, 41.689941], [-8.079144, 41.6874], [-8.072091, 41.678337], [-8.075014, 41.669353], [-8.083787, 41.663264], [-8.095808, 41.662576], [-8.105943, 41.669598], [-8.106401, 41.678609], [-8.095436, 41.689176], [-8.083408, 41.689941]], [[-8.131947, 41.654758], [-8.11999, 41.650892], [-8.113025, 41.642632], [-8.113649, 41.633629], [-8.120357, 41.623915], [-8.132456, 41.61679], [-8.14447, 41.615976], [-8.156408, 41.620895], [-8.160806, 41.624976], [-8.163804, 41.634005], [-8.160583, 41.642989], [-8.156066, 41.647128], [-8.143973, 41.653516], [-8.131947, 41.654758]]], [[[-8.395948, 41.677994], [-8.403513, 41.671528], [-8.405576, 41.662531], [-8.40032, 41.653497], [-8.396208, 41.650116], [-8.384241, 41.645761], [-8.372231, 41.645892], [-8.356943, 41.653262], [-8.351488, 41.662239], [-8.35234, 41.671251], [-8.362463, 41.680314], [-8.371871, 41.68298], [-8.383888, 41.682717], [-8.395948, 41.677994]]], [[[-8.564747, 41.617732], [-8.570735, 41.6161], [-8.570755, 41.616095], [-8.571334, 41.615937], [-8.571592, 41.615866], [-8.576423, 41.614549], [-8.57661, 41.614496], [-8.576723, 41.614459], [-8.577301, 41.614269], [-8.600629, 41.606993], [-8.630324, 41.603328], [-8.6366, 41.600518], [-8.639873, 41.597352], [-8.640152, 41.59465], [-8.645536, 41.593051], [-8.646744, 41.594171], [-8.649125, 41.591909], [-8.656622, 41.5921], [-8.660788, 41.588255], [-8.663794, 41.589141], [-8.665265, 41.585758], [-8.66948, 41.587989], [-8.684455, 41.586117], [-8.685608, 41.58071], [-8.697261, 41.576376], [-8.701703, 41.570277], [-8.707704, 41.570923], [-8.712485, 41.569323], [-8.716422, 41.573805], [-8.720316, 41.57356], [-8.725151, 41.577811], [-8.726633, 41.576003], [-8.731335, 41.576429], [-8.747324, 41.564711], [-8.764061, 41.546731], [-8.774234, 41.528737], [-8.778955, 41.510731], [-8.778665, 41.492716], [-8.773018, 41.47469], [-8.760722, 41.45665], [-8.751214, 41.447622], [-8.738175, 41.438586], [-8.721399, 41.43047], [-8.709448, 41.426363], [-8.685535, 41.421794], [-8.661604, 41.421178], [-8.613705, 41.426553], [-8.601737, 41.426523], [-8.565873, 41.420612], [-8.553905, 41.420789], [-8.541921, 41.423292], [-8.529903, 41.430337], [-8.523691, 41.437898], [-8.520268, 41.446891], [-8.520593, 41.4559], [-8.524805, 41.464925], [-8.529615, 41.470125], [-8.541532, 41.478456], [-8.553148, 41.483053], [-8.568356, 41.492119], [-8.570858, 41.501136], [-8.565138, 41.530614], [-8.561489, 41.53713], [-8.553071, 41.542364], [-8.517056, 41.548624], [-8.50503, 41.553307], [-8.491176, 41.563862], [-8.484724, 41.572841], [-8.482167, 41.581837], [-8.483136, 41.590848], [-8.488669, 41.59988], [-8.50458, 41.612266], [-8.516547, 41.617026], [-8.540471, 41.620731], [-8.543431, 41.61462], [-8.554533, 41.615255], [-8.557244, 41.617046], [-8.562639, 41.61635], [-8.564747, 41.617732]], [[-8.516755, 41.589072], [-8.504803, 41.583085], [-8.502728, 41.57292], [-8.504903, 41.570055], [-8.51695, 41.562958], [-8.52893, 41.564645], [-8.537443, 41.573065], [-8.535775, 41.582066], [-8.528765, 41.587348], [-8.516755, 41.589072]], [[-8.661306, 41.474415], [-8.661327, 41.474397], [-8.663234, 41.474421], [-8.661327, 41.474572], [-8.661306, 41.474415]]], [[[-8.081687, 41.564031], [-8.10911, 41.568884], [-8.13309, 41.569434], [-8.145173, 41.562691], [-8.151525, 41.55285], [-8.154147, 41.543863], [-8.154265, 41.534856], [-8.151484, 41.525828], [-8.143289, 41.51676], [-8.121919, 41.508638], [-8.093, 41.504798], [-8.090901, 41.510014], [-8.090295, 41.520913], [-8.097854, 41.515764], [-8.109838, 41.515796], [-8.123185, 41.525616], [-8.121563, 41.534927], [-8.10948, 41.541894], [-8.103464, 41.541611], [-8.106759, 41.543557], [-8.101666, 41.542655], [-8.094175, 41.544904], [-8.087885, 41.542876], [-8.083689, 41.544675], [-8.080687, 41.551651], [-8.074097, 41.549848], [-8.073494, 41.553449], [-8.075891, 41.554575], [-8.076188, 41.557276], [-8.079783, 41.558403], [-8.081687, 41.564031]]], [[[-8.109618, 41.391623], [-8.13242, 41.40859], [-8.164512, 41.426843], [-8.182762, 41.434712], [-8.206631, 41.440411], [-8.242539, 41.440687], [-8.302464, 41.433801], [-8.350374, 41.4305], [-8.38635, 41.423013], [-8.418212, 41.41039], [-8.433507, 41.401459], [-8.444998, 41.392508], [-8.453245, 41.383539], [-8.457839, 41.374554], [-8.460583, 41.356551], [-8.455316, 41.338511], [-8.442838, 41.320436], [-8.421044, 41.300771], [-8.407744, 41.304856], [-8.406262, 41.307335], [-8.403277, 41.307342], [-8.401801, 41.311398], [-8.399712, 41.311628], [-8.400316, 41.313202], [-8.396738, 41.314336], [-8.398835, 41.316131], [-8.393775, 41.31997], [-8.393489, 41.323122], [-8.391105, 41.324253], [-8.386325, 41.323588], [-8.380382, 41.331152], [-8.394428, 41.338207], [-8.404635, 41.347268], [-8.410119, 41.356304], [-8.412496, 41.365323], [-8.411874, 41.374328], [-8.408337, 41.383317], [-8.400951, 41.392287], [-8.387122, 41.401221], [-8.374549, 41.405638], [-8.362568, 41.407399], [-8.350605, 41.407225], [-8.338662, 41.405202], [-8.325509, 41.400877], [-8.302928, 41.390453], [-8.290964, 41.39065], [-8.254834, 41.412258], [-8.242825, 41.416085], [-8.218871, 41.417945], [-8.206925, 41.416242], [-8.195007, 41.412363], [-8.183127, 41.405625], [-8.175881, 41.399902], [-8.168505, 41.390842], [-8.163961, 41.380365], [-8.152544, 41.375866], [-8.151049, 41.37339], [-8.145073, 41.374742], [-8.139694, 41.377894], [-8.133418, 41.374292], [-8.125051, 41.375193], [-8.119074, 41.377218], [-8.119672, 41.378569], [-8.116683, 41.380144], [-8.117578, 41.386447], [-8.114589, 41.386446], [-8.112795, 41.390723], [-8.109618, 41.391623]]], [[[-8.267206, 41.332892], [-8.291511, 41.340276], [-8.303485, 41.338185], [-8.312603, 41.334763], [-8.312618, 41.334757], [-8.312902, 41.334655], [-8.31139, 41.328007], [-8.307502, 41.325762], [-8.305116, 41.326891], [-8.303024, 41.325994], [-8.303615, 41.323742], [-8.301216, 41.319694], [-8.296431, 41.316774], [-8.297618, 41.313846], [-8.296116, 41.310022], [-8.281801, 41.316569], [-8.279132, 41.324451], [-8.269582, 41.326939], [-8.265709, 41.331221], [-8.267206, 41.332892]]], [[[-8.37093, 41.328348], [-8.37093, 41.328348], [-8.37231, 41.328647], [-8.37093, 41.328348]]], [[[-8.372989, 41.328794], [-8.372989, 41.328794], [-8.373206, 41.328841], [-8.372989, 41.328794]]], [[[-8.380052, 41.33103], [-8.380052, 41.33103], [-8.380083, 41.331041], [-8.380052, 41.33103]]]]}}, {"id": "3", "type": "Feature", "properties": {"fill": "#fffebe", "value_min": 0.47, "value_max": 0.53}, "geometry": {"type": "MultiPolygon", "coordinates": [[[[-8.042154, 41.824873], [-8.032308, 41.795099], [-8.032092, 41.78609], [-8.054179, 41.759253], [-8.064642, 41.732318], [-8.074417, 41.714383], [-8.073395, 41.705368], [-8.064955, 41.696293], [-8.05934, 41.69237], [-8.047366, 41.689459], [-8.035322, 41.69131], [-7.999046, 41.705956], [-7.986897, 41.714204], [-7.98096, 41.7226], [-7.978822, 41.731588], [-7.980504, 41.740609], [-7.995021, 41.767758], [-7.985941, 41.774969], [-7.973894, 41.775873], [-7.937813, 41.774937], [-7.901676, 41.777314], [-7.898619, 41.775881], [-7.889847, 41.765478], [-7.887008, 41.757756], [-7.877215, 41.748653], [-7.866166, 41.743919], [-7.842175, 41.740494], [-7.830132, 41.74141], [-7.818787, 41.748067], [-7.793503, 41.770878], [-7.75749, 41.783448], [-7.744989, 41.790828], [-7.732921, 41.792468], [-7.723225, 41.788321], [-7.722591, 41.793347], [-7.728879, 41.797871], [-7.727026, 41.805517], [-7.728761, 41.816776], [-7.732041, 41.821514], [-7.743152, 41.825154], [-7.742839, 41.827178], [-7.738918, 41.82874], [-7.742196, 41.833928], [-7.74729, 41.837772], [-7.746349, 41.84407], [-7.750246, 41.846784], [-7.750532, 41.849261], [-7.743309, 41.849012], [-7.746901, 41.8524], [-7.746881, 41.855776], [-7.73843, 41.859348], [-7.734159, 41.868337], [-7.730228, 41.871024], [-7.729293, 41.875972], [-7.722351, 41.878424], [-7.720523, 41.881793], [-7.725335, 41.882935], [-7.726208, 41.887665], [-7.737044, 41.888828], [-7.737935, 41.890857], [-7.74246, 41.889747], [-7.742785, 41.885922], [-7.756022, 41.888441], [-7.758719, 41.890926], [-7.756592, 41.89407], [-7.758376, 41.898127], [-7.764097, 41.898595], [-7.779227, 41.886264], [-7.785257, 41.885157], [-7.788886, 41.882467], [-7.794007, 41.882257], [-7.796739, 41.878214], [-7.794349, 41.87438], [-7.797064, 41.873488], [-7.803381, 41.874857], [-7.804914, 41.869459], [-7.813032, 41.871958], [-7.814229, 41.873537], [-7.823863, 41.874013], [-7.825059, 41.875817], [-7.830479, 41.875831], [-7.830789, 41.874031], [-7.832894, 41.874712], [-7.83772, 41.872924], [-7.842528, 41.875187], [-7.841663, 41.866632], [-7.849515, 41.861475], [-7.858542, 41.862622], [-7.859456, 41.860148], [-7.864877, 41.859711], [-7.87033, 41.851395], [-7.873043, 41.850501], [-7.873066, 41.844875], [-7.879056, 41.85254], [-7.886268, 41.855932], [-7.888076, 41.855486], [-7.891675, 41.859094], [-7.900698, 41.861588], [-7.904318, 41.859795], [-7.907309, 41.865203], [-7.906095, 41.868126], [-7.910299, 41.871285], [-7.909985, 41.875111], [-7.915391, 41.879397], [-7.921118, 41.877833], [-7.928044, 41.87807], [-7.935283, 41.874707], [-7.937389, 41.87516], [-7.941618, 41.870891], [-7.951254, 41.871132], [-7.956367, 41.87339], [-7.956362, 41.875191], [-7.960878, 41.875648], [-7.962086, 41.874074], [-7.973828, 41.875216], [-7.987996, 41.869157], [-7.990123, 41.860157], [-7.995547, 41.858138], [-7.994047, 41.855211], [-7.996162, 41.851837], [-8.003089, 41.850494], [-8.005804, 41.847346], [-8.007928, 41.838796], [-8.012753, 41.833624], [-8.013363, 41.829124], [-8.017873, 41.831379], [-8.02901, 41.829589], [-8.037134, 41.831171], [-8.041351, 41.828023], [-8.042154, 41.824873]], [[-7.959968, 41.794467], [-7.949378, 41.803521], [-7.937352, 41.802865], [-7.928609, 41.794178], [-7.931838, 41.785202], [-7.937681, 41.782892], [-7.949717, 41.782777], [-7.956599, 41.785429], [-7.959968, 41.794467]], [[-8.01935, 41.731941], [-8.010519, 41.741543], [-8.003468, 41.731804], [-8.010733, 41.727583], [-8.01935, 41.731941]]], [[[-8.190358, 41.785417], [-8.20251, 41.775924], [-8.207279, 41.769419], [-8.214518, 41.751455], [-8.215421, 41.72444], [-8.233669, 41.706549], [-8.237722, 41.697569], [-8.23652, 41.688554], [-8.227727, 41.679791], [-8.215757, 41.676106], [-8.203728, 41.677313], [-8.191624, 41.684522], [-8.188514, 41.688225], [-8.1861, 41.697215], [-8.187658, 41.706233], [-8.18629, 41.71523], [-8.16711, 41.721973], [-8.147644, 41.732964], [-8.136648, 41.741889], [-8.127661, 41.759835], [-8.128247, 41.768846], [-8.132892, 41.777888], [-8.145003, 41.786986], [-8.154186, 41.790651], [-8.166205, 41.791898], [-8.178262, 41.790215], [-8.190358, 41.785417]], [[-8.190781, 41.751739], [-8.17864, 41.760629], [-8.166599, 41.761464], [-8.154652, 41.755161], [-8.15172, 41.751008], [-8.151621, 41.742], [-8.161748, 41.733068], [-8.167, 41.730507], [-8.179025, 41.730366], [-8.185559, 41.733239], [-8.192701, 41.742296], [-8.190781, 41.751739]]], [[[-8.46448, 41.692979], [-8.455925, 41.689119], [-8.443934, 41.686207], [-8.431922, 41.68576], [-8.407841, 41.691158], [-8.38995, 41.698478], [-8.376827, 41.707414], [-8.371795, 41.716394], [-8.370872, 41.725396], [-8.373188, 41.734622], [-8.376825, 41.734389], [-8.384922, 41.73032], [-8.387032, 41.731891], [-8.393033, 41.729852], [-8.396942, 41.730518], [-8.399645, 41.727586], [-8.397408, 41.725538], [-8.396349, 41.716526], [-8.40387, 41.707558], [-8.40771, 41.705492], [-8.419749, 41.703291], [-8.431744, 41.705983], [-8.434912, 41.707715], [-8.439834, 41.71443], [-8.441632, 41.713975], [-8.4446, 41.70654], [-8.453868, 41.697961], [-8.453255, 41.695487], [-8.458061, 41.695698], [-8.46448, 41.692979]]], [[[-7.807324, 41.715516], [-7.809737, 41.720953], [-7.818348, 41.728255], [-7.825766, 41.730125], [-7.830279, 41.733304], [-7.833225, 41.730201], [-7.842373, 41.729467], [-7.854482, 41.724676], [-7.865813, 41.712514], [-7.86834, 41.703532], [-7.866989, 41.697081], [-7.858678, 41.688576], [-7.857473, 41.689537], [-7.854776, 41.68818], [-7.847538, 41.695365], [-7.837309, 41.699391], [-7.835792, 41.702763], [-7.839682, 41.705924], [-7.838465, 41.709522], [-7.832453, 41.710407], [-7.825252, 41.708813], [-7.818621, 41.713522], [-7.815291, 41.718689], [-7.808986, 41.717996], [-7.807324, 41.715516]], [[-7.857366, 41.703423], [-7.85536, 41.71241], [-7.85041, 41.712361], [-7.844049, 41.70329], [-7.854909, 41.700614], [-7.857366, 41.703423]]], [[[-8.128152, 41.69679], [-8.11948, 41.688279], [-8.103775, 41.696602], [-8.104666, 41.705616], [-8.107202, 41.707213], [-8.119226, 41.706938], [-8.128152, 41.69679]], [[-8.119389, 41.695004], [-8.121154, 41.696736], [-8.119335, 41.698903], [-8.115907, 41.696696], [-8.119389, 41.695004]]], [[[-8.104934, 41.615548], [-8.103448, 41.606529], [-8.096685, 41.599789], [-8.084716, 41.597613], [-8.07267, 41.600901], [-8.066144, 41.606232], [-8.06376, 41.61522], [-8.069398, 41.624272], [-8.084265, 41.62952], [-8.096308, 41.626829], [-8.104934, 41.615548]]], [[[-8.47986, 41.554804], [-8.493126, 41.54217], [-8.514208, 41.527933], [-8.520997, 41.518954], [-8.522706, 41.509953], [-8.520054, 41.500935], [-8.513198, 41.491899], [-8.473284, 41.455693], [-8.457964, 41.445634], [-8.446024, 41.441933], [-8.434063, 41.44086], [-8.422084, 41.441793], [-8.410088, 41.444671], [-8.39807, 41.449751], [-8.389778, 41.45528], [-8.382428, 41.464249], [-8.379744, 41.473242], [-8.380679, 41.518284], [-8.382153, 41.527299], [-8.389349, 41.545352], [-8.396566, 41.554398], [-8.407557, 41.563462], [-8.420946, 41.569743], [-8.432917, 41.572363], [-8.44491, 41.572545], [-8.456924, 41.570261], [-8.468969, 41.563998], [-8.47986, 41.554804]], [[-8.490141, 41.509814], [-8.481323, 41.518877], [-8.474705, 41.509744], [-8.481429, 41.505676], [-8.490141, 41.509814]], [[-8.445614, 41.490153], [-8.433564, 41.498186], [-8.42158, 41.498522], [-8.408692, 41.491409], [-8.405102, 41.482383], [-8.408115, 41.473391], [-8.421872, 41.465702], [-8.433842, 41.466264], [-8.44559, 41.473578], [-8.449011, 41.482602], [-8.445614, 41.490153]]], [[[-8.265321, 41.543298], [-8.280924, 41.535718], [-8.288677, 41.526759], [-8.291728, 41.51777], [-8.288379, 41.499735], [-8.283092, 41.490695], [-8.272589, 41.481621], [-8.266058, 41.478094], [-8.25412, 41.474666], [-8.242154, 41.47378], [-8.230163, 41.474977], [-8.218142, 41.478663], [-8.202136, 41.490162], [-8.197963, 41.49914], [-8.197593, 41.508145], [-8.200016, 41.517169], [-8.20565, 41.526215], [-8.217443, 41.536775], [-8.229364, 41.542403], [-8.241324, 41.544911], [-8.253309, 41.545284], [-8.265321, 41.543298]], [[-8.253749, 41.507027], [-8.253716, 41.509821], [-8.241673, 41.514985], [-8.234712, 41.508398], [-8.24184, 41.500639], [-8.253749, 41.507027]]], [[[-8.134061, 41.496681], [-8.148411, 41.489776], [-8.154146, 41.480811], [-8.153247, 41.471797], [-8.146491, 41.46274], [-8.134616, 41.454939], [-8.122693, 41.45124], [-8.110731, 41.450515], [-8.097925, 41.453362], [-8.084797, 41.462266], [-8.080525, 41.471239], [-8.081666, 41.480255], [-8.089079, 41.489322], [-8.110085, 41.497785], [-8.122052, 41.498768], [-8.134061, 41.496681]]], [[[-8.465461, 41.244828], [-8.477117, 41.257543], [-8.495221, 41.272074], [-8.507106, 41.279391], [-8.530912, 41.289893], [-8.554757, 41.29594], [-8.614443, 41.301653], [-8.638308, 41.30613], [-8.650232, 41.310201], [-8.685981, 41.329163], [-8.709836, 41.339156], [-8.721776, 41.342089], [-8.745673, 41.344104], [-8.769584, 41.342502], [-8.807228, 41.335614], [-8.802639, 41.219043], [-8.793851, 41.227639], [-8.781891, 41.23613], [-8.757986, 41.246505], [-8.722152, 41.253566], [-8.674389, 41.257115], [-8.65053, 41.254312], [-8.602877, 41.239164], [-8.590939, 41.239766], [-8.567043, 41.244169], [-8.555111, 41.243737], [-8.5432, 41.240419], [-8.53097, 41.230751], [-8.527241, 41.221728], [-8.527502, 41.212721], [-8.52959, 41.207934], [-8.523236, 41.200077], [-8.51163, 41.203042], [-8.510456, 41.206197], [-8.505693, 41.207113], [-8.504239, 41.213646], [-8.500076, 41.21546], [-8.50308, 41.219502], [-8.502204, 41.222656], [-8.495642, 41.222227], [-8.495947, 41.223351], [-8.490894, 41.226294], [-8.487935, 41.230354], [-8.490331, 41.232373], [-8.489156, 41.235528], [-8.486181, 41.236888], [-8.484411, 41.240495], [-8.476346, 41.237818], [-8.475756, 41.23917], [-8.470986, 41.23941], [-8.471604, 41.243459], [-8.469227, 41.245267], [-8.465461, 41.244828]]], [[[-8.465281, 41.244603], [-8.465281, 41.244603], [-8.465347, 41.244686], [-8.465281, 41.244603]]]]}}, {"id": "4", "type": "Feature", "properties": {"fill": "#fecb90", "value_min": 0.53, "value_max": 0.6}, "geometry": {"type": "MultiPolygon", "coordinates": [[[[-8.731335, 41.576429], [-8.734424, 41.575737], [-8.736564, 41.580228], [-8.738354, 41.579318], [-8.740778, 41.582006], [-8.74467, 41.581535], [-8.750711, 41.58623], [-8.756374, 41.582823], [-8.75635, 41.580347], [-8.762327, 41.578514], [-8.764443, 41.580303], [-8.767441, 41.580286], [-8.769874, 41.583874], [-8.768997, 41.58613], [-8.773228, 41.589482], [-8.775371, 41.593972], [-8.78556, 41.593464], [-8.797327, 41.600599], [-8.804218, 41.600109], [-8.80456, 41.604158], [-8.809434, 41.611332], [-8.828644, 41.609656], [-8.82839, 41.585633], [-8.818497, 41.554794], [-8.8221, 41.547542], [-8.821965, 41.534907], [-8.815926, 41.525624], [-8.81063, 41.5101], [-8.813279, 41.503483], [-8.812636, 41.496944], [-8.804699, 41.482068], [-8.798552, 41.474753], [-8.80154, 41.446836], [-8.806115, 41.43713], [-8.807354, 41.425915], [-8.811166, 41.417099], [-8.807228, 41.335614], [-8.769584, 41.342502], [-8.745673, 41.344104], [-8.721776, 41.342089], [-8.709836, 41.339156], [-8.685981, 41.329163], [-8.650232, 41.310201], [-8.638308, 41.30613], [-8.614443, 41.301653], [-8.554757, 41.29594], [-8.530912, 41.289893], [-8.507106, 41.279391], [-8.495221, 41.272074], [-8.477117, 41.257543], [-8.465461, 41.244828], [-8.465347, 41.244686], [-8.465281, 41.244603], [-8.461769, 41.244839], [-8.459989, 41.246644], [-8.455512, 41.245982], [-8.455541, 41.251834], [-8.452276, 41.25522], [-8.449891, 41.255452], [-8.449304, 41.257479], [-8.447812, 41.257258], [-8.449028, 41.261982], [-8.443657, 41.261771], [-8.438004, 41.264938], [-8.438023, 41.268989], [-8.434745, 41.269673], [-8.432691, 41.277107], [-8.427032, 41.279372], [-8.429143, 41.284319], [-8.426171, 41.287028], [-8.425606, 41.294007], [-8.422037, 41.296942], [-8.422647, 41.299867], [-8.421044, 41.300771], [-8.442838, 41.320436], [-8.455316, 41.338511], [-8.460583, 41.356551], [-8.457839, 41.374554], [-8.453245, 41.383539], [-8.444998, 41.392508], [-8.433507, 41.401459], [-8.418212, 41.41039], [-8.38635, 41.423013], [-8.350374, 41.4305], [-8.302464, 41.433801], [-8.242539, 41.440687], [-8.206631, 41.440411], [-8.182762, 41.434712], [-8.164512, 41.426843], [-8.13242, 41.40859], [-8.109618, 41.391623], [-8.108011, 41.393648], [-8.103827, 41.392972], [-8.105321, 41.394998], [-8.10263, 41.395898], [-8.10801, 41.398825], [-8.108606, 41.403102], [-8.104419, 41.406252], [-8.104119, 41.408728], [-8.101727, 41.409403], [-8.102025, 41.411204], [-8.092756, 41.411201], [-8.09126, 41.414352], [-8.079893, 41.41975], [-8.077503, 41.416597], [-8.070923, 41.41862], [-8.066739, 41.416142], [-8.061953, 41.417264], [-8.059852, 41.424916], [-8.055959, 41.429415], [-8.057743, 41.438645], [-8.061033, 41.438872], [-8.064916, 41.444052], [-8.067908, 41.444279], [-8.069999, 41.447206], [-8.068788, 41.462286], [-8.073872, 41.46499], [-8.074468, 41.468141], [-8.073564, 41.474668], [-8.066374, 41.482318], [-8.066069, 41.48817], [-8.072054, 41.490199], [-8.07175, 41.494925], [-8.078333, 41.49898], [-8.078332, 41.500331], [-8.093, 41.504798], [-8.121919, 41.508638], [-8.143289, 41.51676], [-8.151484, 41.525828], [-8.154265, 41.534856], [-8.154147, 41.543863], [-8.151525, 41.55285], [-8.145173, 41.562691], [-8.13309, 41.569434], [-8.10911, 41.568884], [-8.081687, 41.564031], [-8.081276, 41.565382], [-8.078879, 41.56493], [-8.077678, 41.566956], [-8.069883, 41.570103], [-8.068081, 41.573478], [-8.056684, 41.579549], [-8.052181, 41.584498], [-8.052777, 41.587649], [-8.037169, 41.600242], [-8.031467, 41.602938], [-8.02367, 41.603156], [-8.019174, 41.601802], [-8.015872, 41.603824], [-8.013474, 41.603372], [-8.005971, 41.60629], [-8.003562, 41.611239], [-7.99936, 41.61281], [-7.998462, 41.612359], [-7.999669, 41.608759], [-7.996976, 41.605829], [-7.996684, 41.602003], [-7.984685, 41.603564], [-7.982292, 41.60086], [-7.975689, 41.603552], [-7.974482, 41.606701], [-7.970882, 41.607147], [-7.969091, 41.603768], [-7.965796, 41.602413], [-7.9541, 41.602846], [-7.952606, 41.600592], [-7.947808, 41.60081], [-7.945413, 41.599456], [-7.942725, 41.595625], [-7.936132, 41.594488], [-7.93791, 41.601694], [-7.937004, 41.603718], [-7.931604, 41.604384], [-7.930979, 41.612711], [-7.925556, 41.620354], [-7.920755, 41.620796], [-7.917748, 41.623041], [-7.915933, 41.627764], [-7.913229, 41.628885], [-7.912613, 41.63361], [-7.906014, 41.633147], [-7.906884, 41.641927], [-7.897869, 41.645511], [-7.89696, 41.647985], [-7.892759, 41.647976], [-7.892145, 41.651576], [-7.902319, 41.659925], [-7.899913, 41.66127], [-7.900199, 41.665439], [-7.903602, 41.664119], [-7.915611, 41.664235], [-7.927555, 41.668304], [-7.939434, 41.676427], [-7.947146, 41.686267], [-7.952197, 41.704327], [-7.947259, 41.74031], [-7.956643, 41.749402], [-7.961052, 41.758449], [-7.952864, 41.767382], [-7.936298, 41.767229], [-7.926076, 41.757204], [-7.91416, 41.750543], [-7.890195, 41.745294], [-7.878273, 41.739267], [-7.867041, 41.73054], [-7.867346, 41.721536], [-7.87923, 41.684206], [-7.883589, 41.67666], [-7.890089, 41.670028], [-7.883969, 41.67069], [-7.877044, 41.676077], [-7.876723, 41.681253], [-7.873401, 41.686198], [-7.868896, 41.686413], [-7.868008, 41.68326], [-7.864403, 41.683701], [-7.864096, 41.685276], [-7.858987, 41.68639], [-7.858678, 41.688576], [-7.866989, 41.697081], [-7.86834, 41.703532], [-7.865813, 41.712514], [-7.854482, 41.724676], [-7.842373, 41.729467], [-7.833225, 41.730201], [-7.830279, 41.733304], [-7.825766, 41.730125], [-7.818348, 41.728255], [-7.809737, 41.720953], [-7.807324, 41.715516], [-7.803298, 41.714154], [-7.790966, 41.717044], [-7.789449, 41.719966], [-7.78464, 41.720402], [-7.78252, 41.723546], [-7.776204, 41.724652], [-7.773786, 41.727346], [-7.7678, 41.723276], [-7.763888, 41.724389], [-7.761765, 41.727758], [-7.762933, 41.733839], [-7.759307, 41.737203], [-7.759597, 41.739005], [-7.75689, 41.739446], [-7.758687, 41.740577], [-7.757758, 41.745301], [-7.748417, 41.749321], [-7.747786, 41.754496], [-7.743866, 41.756509], [-7.740214, 41.763924], [-7.726937, 41.771755], [-7.7254, 41.777152], [-7.727191, 41.779184], [-7.724177, 41.780299], [-7.725372, 41.781653], [-7.723225, 41.788321], [-7.732921, 41.792468], [-7.744989, 41.790828], [-7.75749, 41.783448], [-7.793503, 41.770878], [-7.818787, 41.748067], [-7.830132, 41.74141], [-7.842175, 41.740494], [-7.866166, 41.743919], [-7.877215, 41.748653], [-7.887008, 41.757756], [-7.889847, 41.765478], [-7.898619, 41.775881], [-7.901676, 41.777314], [-7.937813, 41.774937], [-7.973894, 41.775873], [-7.985941, 41.774969], [-7.995021, 41.767758], [-7.980504, 41.740609], [-7.978822, 41.731588], [-7.98096, 41.7226], [-7.986897, 41.714204], [-7.999046, 41.705956], [-8.035322, 41.69131], [-8.047366, 41.689459], [-8.05934, 41.69237], [-8.064955, 41.696293], [-8.073395, 41.705368], [-8.074417, 41.714383], [-8.064642, 41.732318], [-8.054179, 41.759253], [-8.032092, 41.78609], [-8.032308, 41.795099], [-8.042154, 41.824873], [-8.045268, 41.824425], [-8.047679, 41.821276], [-8.057314, 41.815656], [-8.06664, 41.817012], [-8.072961, 41.813414], [-8.078678, 41.813417], [-8.082892, 41.810493], [-8.091013, 41.812521], [-8.093421, 41.811397], [-8.093723, 41.808471], [-8.101845, 41.809824], [-8.104853, 41.81185], [-8.115984, 41.812302], [-8.123807, 41.808702], [-8.138247, 41.808477], [-8.139751, 41.813203], [-8.14276, 41.812978], [-8.144866, 41.815228], [-8.149078, 41.814777], [-8.153291, 41.817703], [-8.158106, 41.818377], [-8.165326, 41.81815], [-8.173744, 41.808019], [-8.177655, 41.808242], [-8.183676, 41.812741], [-8.190291, 41.809587], [-8.197158, 41.814129], [-8.201063, 41.808724], [-8.204973, 41.807372], [-8.205872, 41.804445], [-8.213692, 41.803765], [-8.217598, 41.80016], [-8.217589, 41.793634], [-8.224207, 41.794303], [-8.229917, 41.791598], [-8.240744, 41.791588], [-8.24074, 41.789338], [-8.244347, 41.787984], [-8.245546, 41.785731], [-8.249154, 41.785727], [-8.250523, 41.784376], [-8.24244, 41.769656], [-8.24047, 41.760636], [-8.242132, 41.742633], [-8.251196, 41.728092], [-8.26334, 41.717524], [-8.275438, 41.710689], [-8.287494, 41.707451], [-8.299521, 41.706843], [-8.311517, 41.709028], [-8.323461, 41.716243], [-8.331823, 41.725176], [-8.337379, 41.734215], [-8.343458, 41.752264], [-8.344033, 41.762364], [-8.349267, 41.760103], [-8.352557, 41.755145], [-8.34982, 41.745922], [-8.349814, 41.744122], [-8.352516, 41.743441], [-8.352203, 41.739616], [-8.357897, 41.735103], [-8.362407, 41.735994], [-8.368703, 41.73193], [-8.373188, 41.734622], [-8.370872, 41.725396], [-8.371795, 41.716394], [-8.376827, 41.707414], [-8.38995, 41.698478], [-8.407841, 41.691158], [-8.431922, 41.68576], [-8.443934, 41.686207], [-8.455925, 41.689119], [-8.46448, 41.692979], [-8.467939, 41.689593], [-8.475731, 41.686644], [-8.482012, 41.682123], [-8.484371, 41.674238], [-8.49308, 41.674886], [-8.499963, 41.671038], [-8.50927, 41.671233], [-8.51018, 41.672806], [-8.511967, 41.670324], [-8.509856, 41.668755], [-8.522103, 41.658811], [-8.525706, 41.659023], [-8.527769, 41.652714], [-8.534066, 41.652017], [-8.537355, 41.64998], [-8.537634, 41.646602], [-8.543876, 41.637352], [-8.543855, 41.633976], [-8.536342, 41.631977], [-8.535132, 41.630406], [-8.540471, 41.620731], [-8.516547, 41.617026], [-8.50458, 41.612266], [-8.488669, 41.59988], [-8.483136, 41.590848], [-8.482167, 41.581837], [-8.484724, 41.572841], [-8.491176, 41.563862], [-8.50503, 41.553307], [-8.517056, 41.548624], [-8.553071, 41.542364], [-8.561489, 41.53713], [-8.565138, 41.530614], [-8.570858, 41.501136], [-8.568356, 41.492119], [-8.553148, 41.483053], [-8.541532, 41.478456], [-8.529615, 41.470125], [-8.524805, 41.464925], [-8.520593, 41.4559], [-8.520268, 41.446891], [-8.523691, 41.437898], [-8.529903, 41.430337], [-8.541921, 41.423292], [-8.553905, 41.420789], [-8.565873, 41.420612], [-8.601737, 41.426523], [-8.613705, 41.426553], [-8.661604, 41.421178], [-8.685535, 41.421794], [-8.709448, 41.426363], [-8.721399, 41.43047], [-8.738175, 41.438586], [-8.751214, 41.447622], [-8.760722, 41.45665], [-8.773018, 41.47469], [-8.778665, 41.492716], [-8.778955, 41.510731], [-8.774234, 41.528737], [-8.764061, 41.546731], [-8.747324, 41.564711], [-8.731335, 41.576429]], [[-8.190358, 41.785417], [-8.178262, 41.790215], [-8.166205, 41.791898], [-8.154186, 41.790651], [-8.145003, 41.786986], [-8.132892, 41.777888], [-8.128247, 41.768846], [-8.127661, 41.759835], [-8.136648, 41.741889], [-8.147644, 41.732964], [-8.16711, 41.721973], [-8.18629, 41.71523], [-8.187658, 41.706233], [-8.1861, 41.697215], [-8.188514, 41.688225], [-8.191624, 41.684522], [-8.203728, 41.677313], [-8.215757, 41.676106], [-8.227727, 41.679791], [-8.23652, 41.688554], [-8.237722, 41.697569], [-8.233669, 41.706549], [-8.215421, 41.72444], [-8.214518, 41.751455], [-8.207279, 41.769419], [-8.20251, 41.775924], [-8.190358, 41.785417]], [[-8.155121, 41.719426], [-8.142991, 41.727566], [-8.130925, 41.730686], [-8.11894, 41.727855], [-8.114174, 41.723704], [-8.114337, 41.714698], [-8.119143, 41.712997], [-8.131351, 41.699096], [-8.138375, 41.696867], [-8.143495, 41.689598], [-8.155503, 41.6902], [-8.160687, 41.697032], [-8.16397, 41.706063], [-8.160977, 41.715048], [-8.155121, 41.719426]], [[-8.128152, 41.69679], [-8.119226, 41.706938], [-8.107202, 41.707213], [-8.104666, 41.705616], [-8.103775, 41.696602], [-8.11948, 41.688279], [-8.128152, 41.69679]], [[-8.095344, 41.69568], [-8.083298, 41.697713], [-8.066287, 41.687297], [-8.058459, 41.678226], [-8.055269, 41.669193], [-8.058269, 41.66021], [-8.06639, 41.651269], [-8.096123, 41.64007], [-8.108304, 41.627402], [-8.132781, 41.592575], [-8.144888, 41.584304], [-8.156885, 41.584316], [-8.168828, 41.588449], [-8.185452, 41.598132], [-8.194467, 41.607203], [-8.199536, 41.616245], [-8.200985, 41.625262], [-8.199326, 41.634258], [-8.194058, 41.643228], [-8.186086, 41.652179], [-8.155711, 41.674327], [-8.143665, 41.676754], [-8.131663, 41.675876], [-8.119607, 41.678994], [-8.095344, 41.69568]], [[-8.395948, 41.677994], [-8.383888, 41.682717], [-8.371871, 41.68298], [-8.362463, 41.680314], [-8.35234, 41.671251], [-8.351488, 41.662239], [-8.356943, 41.653262], [-8.372231, 41.645892], [-8.384241, 41.645761], [-8.396208, 41.650116], [-8.40032, 41.653497], [-8.405576, 41.662531], [-8.403513, 41.671528], [-8.395948, 41.677994]], [[-8.104934, 41.615548], [-8.096308, 41.626829], [-8.084265, 41.62952], [-8.069398, 41.624272], [-8.06376, 41.61522], [-8.066144, 41.606232], [-8.07267, 41.600901], [-8.084716, 41.597613], [-8.096685, 41.599789], [-8.103448, 41.606529], [-8.104934, 41.615548]], [[-8.47986, 41.554804], [-8.468969, 41.563998], [-8.456924, 41.570261], [-8.44491, 41.572545], [-8.432917, 41.572363], [-8.420946, 41.569743], [-8.407557, 41.563462], [-8.396566, 41.554398], [-8.389349, 41.545352], [-8.382153, 41.527299], [-8.380679, 41.518284], [-8.379744, 41.473242], [-8.382428, 41.464249], [-8.389778, 41.45528], [-8.39807, 41.449751], [-8.410088, 41.444671], [-8.422084, 41.441793], [-8.434063, 41.44086], [-8.446024, 41.441933], [-8.457964, 41.445634], [-8.473284, 41.455693], [-8.513198, 41.491899], [-8.520054, 41.500935], [-8.522706, 41.509953], [-8.520997, 41.518954], [-8.514208, 41.527933], [-8.493126, 41.54217], [-8.47986, 41.554804]], [[-8.265321, 41.543298], [-8.253309, 41.545284], [-8.241324, 41.544911], [-8.229364, 41.542403], [-8.217443, 41.536775], [-8.20565, 41.526215], [-8.200016, 41.517169], [-8.197593, 41.508145], [-8.197963, 41.49914], [-8.202136, 41.490162], [-8.218142, 41.478663], [-8.230163, 41.474977], [-8.242154, 41.47378], [-8.25412, 41.474666], [-8.266058, 41.478094], [-8.272589, 41.481621], [-8.283092, 41.490695], [-8.288379, 41.499735], [-8.291728, 41.51777], [-8.288677, 41.526759], [-8.280924, 41.535718], [-8.265321, 41.543298]], [[-8.134061, 41.496681], [-8.122052, 41.498768], [-8.110085, 41.497785], [-8.089079, 41.489322], [-8.081666, 41.480255], [-8.080525, 41.471239], [-8.084797, 41.462266], [-8.097925, 41.453362], [-8.110731, 41.450515], [-8.122693, 41.45124], [-8.134616, 41.454939], [-8.146491, 41.46274], [-8.153247, 41.471797], [-8.154146, 41.480811], [-8.148411, 41.489776], [-8.134061, 41.496681]]], [[[-7.890277, 41.669837], [-7.890277, 41.669837], [-7.890309, 41.669804], [-7.890277, 41.669837]]], [[[-7.898094, 41.666255], [-7.898094, 41.666255], [-7.898189, 41.666219], [-7.898094, 41.666255]]], [[[-7.898395, 41.666139], [-7.898395, 41.666139], [-7.899921, 41.665547], [-7.898395, 41.666139]]], [[[-8.630324, 41.603328], [-8.600629, 41.606993], [-8.577301, 41.614269], [-8.581231, 41.615829], [-8.585766, 41.620988], [-8.591462, 41.620515], [-8.596534, 41.616668], [-8.601628, 41.615972], [-8.603996, 41.611686], [-8.609369, 41.608287], [-8.614156, 41.606692], [-8.619881, 41.610269], [-8.621338, 41.604636], [-8.630324, 41.603328]]], [[[-8.576723, 41.614459], [-8.576723, 41.614459], [-8.57661, 41.614496], [-8.576723, 41.614459]]], [[[-8.576423, 41.614549], [-8.576423, 41.614549], [-8.571592, 41.615866], [-8.576423, 41.614549]]], [[[-8.571334, 41.615937], [-8.571334, 41.615937], [-8.570755, 41.616095], [-8.571334, 41.615937]]], [[[-8.570735, 41.6161], [-8.564747, 41.617732], [-8.568056, 41.619031], [-8.570735, 41.6161]]]]}}, {"id": "7", "type": "Feature", "properties": {"fill": "#ef6d48", "value_min": 0.73, "value_max": 0.8}, "geometry": {"type": "MultiPolygon", "coordinates": [[[[-7.914567, 41.726363], [-7.919002, 41.722033], [-7.920533, 41.713041], [-7.914934, 41.704551], [-7.903009, 41.699032], [-7.890959, 41.700885], [-7.880305, 41.712656], [-7.879208, 41.721652], [-7.890432, 41.731523], [-7.902441, 41.732432], [-7.914567, 41.726363]], [[-7.890526, 41.726056], [-7.88556, 41.721714], [-7.88587, 41.71271], [-7.890846, 41.707455], [-7.90288, 41.706608], [-7.910792, 41.712949], [-7.909496, 41.721944], [-7.902543, 41.726387], [-7.890526, 41.726056]]], [[[-8.095627, 41.675495], [-8.083606, 41.676022], [-8.081879, 41.678415], [-8.083545, 41.680327], [-8.095556, 41.680602], [-8.097564, 41.67854], [-8.095627, 41.675495]]], [[[-8.144188, 41.637274], [-8.146069, 41.633875], [-8.144263, 41.631585], [-8.132311, 41.6276], [-8.125299, 41.633719], [-8.1321, 41.643333], [-8.144188, 41.637274]]], [[[-8.194484, 41.3745], [-8.193887, 41.382015], [-8.198548, 41.391055], [-8.207153, 41.39753], [-8.21907, 41.401329], [-8.231037, 41.400967], [-8.243058, 41.395994], [-8.24888, 41.391394], [-8.253597, 41.382418], [-8.253037, 41.373406], [-8.246954, 41.364609], [-8.244864, 41.365457], [-8.244272, 41.368384], [-8.239197, 41.371315], [-8.232024, 41.369971], [-8.224854, 41.370878], [-8.21738, 41.368182], [-8.211712, 41.376065], [-8.200358, 41.377648], [-8.194484, 41.3745]]], [[[-8.386808, 41.374277], [-8.384717, 41.365178], [-8.375022, 41.356292], [-8.363096, 41.353291], [-8.348576, 41.355972], [-8.337592, 41.364917], [-8.33558, 41.373913], [-8.339919, 41.382945], [-8.35078, 41.389653], [-8.362723, 41.391579], [-8.374714, 41.388413], [-8.382166, 41.38318], [-8.386808, 41.374277]]]]}}, {"id": "6", "type": "Feature", "properties": {"fill": "#f77f52", "value_min": 0.67, "value_max": 0.73}, "geometry": {"type": "MultiPolygon", "coordinates": [[[[-8.310233, 41.761521], [-8.314433, 41.752094], [-8.312722, 41.743077], [-8.304097, 41.734018], [-8.299255, 41.731323], [-8.287256, 41.729054], [-8.275206, 41.731327], [-8.261712, 41.742761], [-8.259854, 41.751756], [-8.262855, 41.759961], [-8.271367, 41.766848], [-8.277073, 41.764088], [-8.280681, 41.764083], [-8.284038, 41.761109], [-8.284931, 41.757507], [-8.287033, 41.756829], [-8.298457, 41.757263], [-8.300866, 41.758835], [-8.305674, 41.758152], [-8.310233, 41.761521]]], [[[-7.902333, 41.738773], [-7.914399, 41.736337], [-7.923134, 41.731079], [-7.930432, 41.72214], [-7.932373, 41.713152], [-7.929717, 41.70412], [-7.921095, 41.695032], [-7.915155, 41.691385], [-7.903177, 41.689151], [-7.891105, 41.692378], [-7.880431, 41.70365], [-7.875456, 41.712609], [-7.873255, 41.721594], [-7.878415, 41.731099], [-7.890331, 41.737382], [-7.902333, 41.738773]], [[-7.914567, 41.726363], [-7.902441, 41.732432], [-7.890432, 41.731523], [-7.879208, 41.721652], [-7.880305, 41.712656], [-7.890959, 41.700885], [-7.903009, 41.699032], [-7.914934, 41.704551], [-7.920533, 41.713041], [-7.919002, 41.722033], [-7.914567, 41.726363]]], [[[-8.131054, 41.721106], [-8.143099, 41.719443], [-8.149084, 41.714961], [-8.14983, 41.705959], [-8.143335, 41.701637], [-8.131294, 41.703336], [-8.128732, 41.705801], [-8.124713, 41.714778], [-8.131054, 41.721106]]], [[[-8.083408, 41.689941], [-8.095436, 41.689176], [-8.106401, 41.678609], [-8.105943, 41.669598], [-8.095808, 41.662576], [-8.083787, 41.663264], [-8.075014, 41.669353], [-8.072091, 41.678337], [-8.079144, 41.6874], [-8.083408, 41.689941]], [[-8.095627, 41.675495], [-8.097564, 41.67854], [-8.095556, 41.680602], [-8.083545, 41.680327], [-8.081879, 41.678415], [-8.083606, 41.676022], [-8.095627, 41.675495]]], [[[-8.131947, 41.654758], [-8.143973, 41.653516], [-8.156066, 41.647128], [-8.160583, 41.642989], [-8.163804, 41.634005], [-8.160806, 41.624976], [-8.156408, 41.620895], [-8.14447, 41.615976], [-8.132456, 41.61679], [-8.120357, 41.623915], [-8.113649, 41.633629], [-8.113025, 41.642632], [-8.11999, 41.650892], [-8.131947, 41.654758]], [[-8.144188, 41.637274], [-8.1321, 41.643333], [-8.125299, 41.633719], [-8.132311, 41.6276], [-8.144263, 41.631585], [-8.146069, 41.633875], [-8.144188, 41.637274]]], [[[-8.516755, 41.589072], [-8.528765, 41.587348], [-8.535775, 41.582066], [-8.537443, 41.573065], [-8.52893, 41.564645], [-8.51695, 41.562958], [-8.504903, 41.570055], [-8.502728, 41.57292], [-8.504803, 41.583085], [-8.516755, 41.589072]]], [[[-8.103464, 41.541611], [-8.10948, 41.541894], [-8.121563, 41.534927], [-8.123185, 41.525616], [-8.109838, 41.515796], [-8.097854, 41.515764], [-8.090295, 41.520913], [-8.093588, 41.52307], [-8.091786, 41.531848], [-8.103464, 41.541611]]], [[[-8.661306, 41.474415], [-8.661327, 41.474572], [-8.663234, 41.474421], [-8.661327, 41.474397], [-8.661306, 41.474415]]], [[[-8.163961, 41.380365], [-8.168505, 41.390842], [-8.175881, 41.399902], [-8.183127, 41.405625], [-8.195007, 41.412363], [-8.206925, 41.416242], [-8.218871, 41.417945], [-8.242825, 41.416085], [-8.254834, 41.412258], [-8.290964, 41.39065], [-8.302928, 41.390453], [-8.325509, 41.400877], [-8.338662, 41.405202], [-8.350605, 41.407225], [-8.362568, 41.407399], [-8.374549, 41.405638], [-8.387122, 41.401221], [-8.400951, 41.392287], [-8.408337, 41.383317], [-8.411874, 41.374328], [-8.412496, 41.365323], [-8.410119, 41.356304], [-8.404635, 41.347268], [-8.394428, 41.338207], [-8.380382, 41.331152], [-8.380083, 41.331041], [-8.380052, 41.33103], [-8.375305, 41.33104], [-8.373206, 41.328841], [-8.372989, 41.328794], [-8.37231, 41.328647], [-8.37093, 41.328348], [-8.361563, 41.329718], [-8.358276, 41.329049], [-8.357673, 41.327249], [-8.350207, 41.327264], [-8.346032, 41.328847], [-8.342462, 41.333131], [-8.333215, 41.336299], [-8.326363, 41.342163], [-8.324568, 41.341041], [-8.323376, 41.341943], [-8.320676, 41.338121], [-8.316788, 41.335876], [-8.314699, 41.33678], [-8.312603, 41.334763], [-8.303485, 41.338185], [-8.291511, 41.340276], [-8.267206, 41.332892], [-8.269004, 41.336169], [-8.263339, 41.340902], [-8.262751, 41.345405], [-8.256483, 41.347663], [-8.255889, 41.349689], [-8.249622, 41.353072], [-8.251123, 41.356897], [-8.248141, 41.360052], [-8.248448, 41.364328], [-8.246954, 41.364609], [-8.253037, 41.373406], [-8.253597, 41.382418], [-8.24888, 41.391394], [-8.243058, 41.395994], [-8.231037, 41.400967], [-8.21907, 41.401329], [-8.207153, 41.39753], [-8.198548, 41.391055], [-8.193887, 41.382015], [-8.194484, 41.3745], [-8.191691, 41.376302], [-8.189299, 41.375403], [-8.184818, 41.376756], [-8.168382, 41.377438], [-8.163961, 41.380365]], [[-8.386808, 41.374277], [-8.382166, 41.38318], [-8.374714, 41.388413], [-8.362723, 41.391579], [-8.35078, 41.389653], [-8.339919, 41.382945], [-8.33558, 41.373913], [-8.337592, 41.364917], [-8.348576, 41.355972], [-8.363096, 41.353291], [-8.375022, 41.356292], [-8.384717, 41.365178], [-8.386808, 41.374277]]], [[[-8.312902, 41.334655], [-8.312902, 41.334655], [-8.312618, 41.334757], [-8.312902, 41.334655]]]]}}, {"id": "8", "type": "Feature", "properties": {"fill": "#e85c3f", "value_min": 0.8, "value_max": 0.87}, "geometry": {"type": "Polygon", "coordinates": [[[-7.890526, 41.726056], [-7.902543, 41.726387], [-7.909496, 41.721944], [-7.910792, 41.712949], [-7.90288, 41.706608], [-7.890846, 41.707455], [-7.88587, 41.71271], [-7.88556, 41.721714], [-7.890526, 41.726056]]]}}]}