{"type": "FeatureCollection", "features": [{"id": "1", "type": "Feature", "properties": {"fill": "#74c16c", "value_min": 0.13, "value_max": -0.2}, "geometry": {"type": "MultiPolygon", "coordinates": [[[[-7.727881, 41.8131], [-7.74458, 41.811749], [-7.756693, 41.807959], [-7.76702, 41.801564], [-7.773968, 41.792632], [-7.776226, 41.783649], [-7.775163, 41.774631], [-7.770891, 41.765579], [-7.757768, 41.752256], [-7.750187, 41.748652], [-7.747812, 41.749995], [-7.747786, 41.754496], [-7.743866, 41.756509], [-7.743242, 41.760333], [-7.738104, 41.764772], [-7.745474, 41.765906], [-7.757345, 41.774173], [-7.76035, 41.783479], [-7.757193, 41.792452], [-7.74481, 41.79998], [-7.732747, 41.801335], [-7.728264, 41.800011], [-7.727881, 41.8131]]], [[[-8.567074, 41.618585], [-8.576618, 41.600238], [-8.578676, 41.582231], [-8.57318, 41.564196], [-8.567215, 41.555166], [-8.553079, 41.541182], [-8.541144, 41.533564], [-8.529189, 41.529036], [-8.517216, 41.527151], [-8.493244, 41.527082], [-8.481276, 41.524749], [-8.467212, 41.518717], [-8.457414, 41.511589], [-8.445439, 41.510692], [-8.433432, 41.513363], [-8.421396, 41.519237], [-8.411124, 41.527451], [-8.404035, 41.536422], [-8.397566, 41.554403], [-8.397965, 41.572419], [-8.409075, 41.608506], [-8.406378, 41.617499], [-8.392298, 41.626433], [-8.372351, 41.633487], [-8.353935, 41.644238], [-8.344878, 41.653194], [-8.336344, 41.671159], [-8.331561, 41.698153], [-8.331352, 41.716166], [-8.338583, 41.743229], [-8.347509, 41.760332], [-8.349267, 41.760103], [-8.352557, 41.755145], [-8.349814, 41.744122], [-8.352516, 41.743441], [-8.352203, 41.739616], [-8.357897, 41.735103], [-8.362407, 41.735994], [-8.368703, 41.73193], [-8.374122, 41.734845], [-8.384922, 41.73032], [-8.387032, 41.731891], [-8.394726, 41.730298], [-8.391484, 41.725507], [-8.390759, 41.716496], [-8.396431, 41.707519], [-8.407749, 41.701162], [-8.419786, 41.699138], [-8.431785, 41.701302], [-8.443153, 41.709019], [-8.453868, 41.697961], [-8.453255, 41.695487], [-8.461659, 41.694563], [-8.482012, 41.682123], [-8.484371, 41.674238], [-8.49308, 41.674886], [-8.499963, 41.671038], [-8.50927, 41.671233], [-8.51018, 41.672806], [-8.511967, 41.670324], [-8.509856, 41.668755], [-8.522103, 41.658811], [-8.525706, 41.659023], [-8.527769, 41.652714], [-8.534066, 41.652017], [-8.537355, 41.64998], [-8.537634, 41.646602], [-8.543876, 41.637352], [-8.543855, 41.633976], [-8.536342, 41.631977], [-8.535128, 41.62973], [-8.543431, 41.61462], [-8.554533, 41.615255], [-8.557244, 41.617046], [-8.562639, 41.61635], [-8.567074, 41.618585]], [[-8.445025, 41.559102], [-8.437581, 41.554605], [-8.432267, 41.545572], [-8.435603, 41.536581], [-8.445266, 41.530914], [-8.457255, 41.530713], [-8.469124, 41.536741], [-8.473576, 41.545769], [-8.468423, 41.554752], [-8.457009, 41.560068], [-8.445025, 41.559102]]], [[[-7.960525, 41.785465], [-7.949818, 41.776561], [-7.937767, 41.777725], [-7.931045, 41.785194], [-7.931702, 41.794207], [-7.937422, 41.798595], [-7.949444, 41.799487], [-7.958953, 41.794457], [-7.960525, 41.785465]]], [[[-7.955762, 41.758401], [-7.950197, 41.753356], [-7.938145, 41.754811], [-7.935472, 41.758215], [-7.937965, 41.765714], [-7.942689, 41.767288], [-7.949855, 41.774345], [-7.955762, 41.758401]]], [[[-8.202756, 41.756055], [-8.205849, 41.751395], [-8.205765, 41.742387], [-8.19947, 41.733337], [-8.191065, 41.729115], [-8.179067, 41.72713], [-8.167021, 41.728887], [-8.159018, 41.733048], [-8.14941, 41.741984], [-8.148043, 41.750981], [-8.152758, 41.760023], [-8.166513, 41.768107], [-8.178532, 41.769065], [-8.190596, 41.766492], [-8.200045, 41.760362], [-8.202756, 41.756055]]], [[[-7.914747, 41.715643], [-7.914809, 41.711975], [-7.902953, 41.702314], [-7.890917, 41.703298], [-7.881702, 41.71267], [-7.88312, 41.72169], [-7.890517, 41.726588], [-7.902522, 41.727626], [-7.913333, 41.72198], [-7.914747, 41.715643]]], [[[-8.227427, 41.704887], [-8.232037, 41.697531], [-8.228478, 41.6885], [-8.215683, 41.682201], [-8.203652, 41.683462], [-8.197754, 41.68829], [-8.194466, 41.697274], [-8.203332, 41.709431], [-8.21533, 41.711224], [-8.227427, 41.704887]]], [[[-8.108332, 41.625417], [-8.115189, 41.615627], [-8.116457, 41.60663], [-8.112063, 41.597589], [-8.108758, 41.594491], [-8.096835, 41.58906], [-8.084855, 41.587802], [-8.07283, 41.589681], [-8.0599, 41.597174], [-8.053844, 41.606131], [-8.05342, 41.615135], [-8.058431, 41.624183], [-8.072206, 41.633273], [-8.084174, 41.63591], [-8.09621, 41.633844], [-8.108332, 41.625417]]], [[[-8.571087, 41.456099], [-8.56571, 41.445008], [-8.553773, 41.440088], [-8.541793, 41.441466], [-8.533483, 41.446946], [-8.529419, 41.455936], [-8.533271, 41.46496], [-8.541586, 41.470822], [-8.553553, 41.47219], [-8.565563, 41.467118], [-8.571087, 41.456099]]], [[[-8.495527, 41.223353], [-8.497106, 41.230608], [-8.50207, 41.239638], [-8.511429, 41.248686], [-8.519236, 41.253513], [-8.53114, 41.258043], [-8.543062, 41.260228], [-8.555, 41.260093], [-8.566954, 41.257552], [-8.578924, 41.25247], [-8.583476, 41.248969], [-8.590925, 41.24205], [-8.596564, 41.231], [-8.597774, 41.221996], [-8.596283, 41.212983], [-8.591173, 41.202251], [-8.580953, 41.191988], [-8.575958, 41.195609], [-8.576894, 41.201908], [-8.574515, 41.202593], [-8.57423, 41.20462], [-8.567971, 41.204644], [-8.565895, 41.206227], [-8.567697, 41.208246], [-8.566512, 41.209376], [-8.559636, 41.206251], [-8.554271, 41.20627], [-8.549521, 41.209214], [-8.544157, 41.209458], [-8.54238, 41.211265], [-8.532257, 41.213102], [-8.52713, 41.203215], [-8.523236, 41.200077], [-8.51163, 41.203042], [-8.510456, 41.206197], [-8.505693, 41.207113], [-8.504239, 41.213646], [-8.500076, 41.21546], [-8.50308, 41.219502], [-8.502204, 41.222656], [-8.496833, 41.221998], [-8.495527, 41.223353]]]]}}, {"id": "5", "type": "Feature", "properties": {"fill": "#eef8a7", "value_min": 0.4, "value_max": -0.47}, "geometry": {"type": "MultiPolygon", "coordinates": [[[[-7.760493, 41.855534], [-7.755796, 41.854269], [-7.752738, 41.85545], [-7.751686, 41.864445], [-7.755557, 41.866579], [-7.761555, 41.864552], [-7.760493, 41.855534]]], [[[-7.948846, 41.836043], [-7.943254, 41.839348], [-7.948685, 41.8459], [-7.956618, 41.83947], [-7.948846, 41.836043]]], [[[-7.888973, 41.816093], [-7.889077, 41.810083], [-7.883949, 41.80276], [-7.877248, 41.79811], [-7.865233, 41.796879], [-7.853926, 41.802464], [-7.848952, 41.811421], [-7.852753, 41.821732], [-7.864677, 41.828356], [-7.876725, 41.827999], [-7.887233, 41.820805], [-7.888973, 41.816093]]], [[[-7.881266, 41.7577], [-7.878026, 41.753438], [-7.86612, 41.746548], [-7.854074, 41.747621], [-7.843187, 41.757323], [-7.844227, 41.76634], [-7.853601, 41.774191], [-7.865614, 41.775262], [-7.877755, 41.769021], [-7.881266, 41.7577]], [[-7.864306, 41.757533], [-7.865935, 41.757009], [-7.866676, 41.757557], [-7.865904, 41.758781], [-7.864306, 41.757533]]], [[[-8.144626, 41.705921], [-8.131278, 41.704486], [-8.129763, 41.705809], [-8.127503, 41.714799], [-8.131098, 41.717862], [-8.144325, 41.714925], [-8.144626, 41.705921]]], [[[-8.353453, 41.482104], [-8.349892, 41.478714], [-8.337934, 41.476856], [-8.3295, 41.481967], [-8.328944, 41.490971], [-8.337731, 41.496758], [-8.34973, 41.494974], [-8.353767, 41.491114], [-8.353453, 41.482104]]], [[[-8.710426, 41.205823], [-8.713762, 41.195319], [-8.708627, 41.186298], [-8.698611, 41.181242], [-8.68669, 41.180814], [-8.67458, 41.186207], [-8.670189, 41.195203], [-8.671883, 41.204215], [-8.674635, 41.207454], [-8.686534, 41.213687], [-8.698464, 41.213337], [-8.710426, 41.205823]]]]}}, {"id": "4", "type": "Feature", "properties": {"fill": "#ddf190", "value_min": 0.33, "value_max": -0.4}, "geometry": {"type": "MultiPolygon", "coordinates": [[[[-7.823252, 41.874011], [-7.827835, 41.867556], [-7.835703, 41.865328], [-7.84408, 41.864965], [-7.849515, 41.861475], [-7.858542, 41.862622], [-7.859456, 41.860148], [-7.864877, 41.859711], [-7.87033, 41.851395], [-7.873043, 41.850501], [-7.873367, 41.844875], [-7.879056, 41.85254], [-7.886268, 41.855932], [-7.888076, 41.855486], [-7.891675, 41.859094], [-7.900698, 41.861588], [-7.904318, 41.859795], [-7.907309, 41.865203], [-7.906095, 41.868126], [-7.910595, 41.872853], [-7.928369, 41.877846], [-7.935283, 41.874707], [-7.937389, 41.87516], [-7.941618, 41.870891], [-7.951254, 41.871132], [-7.956367, 41.87339], [-7.956362, 41.875191], [-7.960878, 41.875648], [-7.962086, 41.874074], [-7.964683, 41.874978], [-7.965096, 41.874803], [-7.965214, 41.874754], [-7.972363, 41.871732], [-7.978715, 41.866689], [-7.985686, 41.857744], [-7.98825, 41.84876], [-7.986518, 41.839738], [-7.979959, 41.830673], [-7.961108, 41.822542], [-7.949084, 41.821504], [-7.924944, 41.824996], [-7.912946, 41.822436], [-7.890374, 41.784809], [-7.89295, 41.757813], [-7.887264, 41.748751], [-7.878209, 41.742945], [-7.86625, 41.739114], [-7.854235, 41.738529], [-7.842165, 41.741031], [-7.829086, 41.748173], [-7.822869, 41.757116], [-7.821649, 41.766111], [-7.824306, 41.784151], [-7.823758, 41.793153], [-7.815772, 41.829097], [-7.80888, 41.838033], [-7.804259, 41.839511], [-7.768233, 41.833929], [-7.744836, 41.835963], [-7.74729, 41.837772], [-7.746349, 41.84407], [-7.750246, 41.846784], [-7.750532, 41.849261], [-7.743309, 41.849012], [-7.746901, 41.8524], [-7.746881, 41.855776], [-7.73843, 41.859348], [-7.734159, 41.868337], [-7.730228, 41.871024], [-7.729293, 41.875972], [-7.720533, 41.880218], [-7.720523, 41.881793], [-7.725335, 41.882935], [-7.726208, 41.887665], [-7.737044, 41.888828], [-7.73944, 41.891087], [-7.74246, 41.889747], [-7.742785, 41.885922], [-7.756022, 41.888441], [-7.758719, 41.890926], [-7.756592, 41.89407], [-7.758076, 41.897901], [-7.764097, 41.898595], [-7.779227, 41.886264], [-7.785257, 41.885157], [-7.788886, 41.882467], [-7.794007, 41.882257], [-7.796739, 41.878214], [-7.794349, 41.87438], [-7.797064, 41.873488], [-7.803381, 41.874857], [-7.804914, 41.869459], [-7.813032, 41.871958], [-7.814229, 41.873537], [-7.823252, 41.874011]], [[-7.760493, 41.855534], [-7.761555, 41.864552], [-7.755557, 41.866579], [-7.751686, 41.864445], [-7.752738, 41.85545], [-7.755796, 41.854269], [-7.760493, 41.855534]], [[-7.948846, 41.836043], [-7.956618, 41.83947], [-7.948685, 41.8459], [-7.943254, 41.839348], [-7.948846, 41.836043]], [[-7.888973, 41.816093], [-7.887233, 41.820805], [-7.876725, 41.827999], [-7.864677, 41.828356], [-7.852753, 41.821732], [-7.848952, 41.811421], [-7.853926, 41.802464], [-7.865233, 41.796879], [-7.877248, 41.79811], [-7.883949, 41.80276], [-7.889077, 41.810083], [-7.888973, 41.816093]], [[-7.881266, 41.7577], [-7.877755, 41.769021], [-7.865614, 41.775262], [-7.853601, 41.774191], [-7.844227, 41.76634], [-7.843187, 41.757323], [-7.854074, 41.747621], [-7.86612, 41.746548], [-7.878026, 41.753438], [-7.881266, 41.7577]]], [[[-8.154906, 41.715004], [-8.156506, 41.706008], [-8.143414, 41.695673], [-8.131355, 41.698774], [-8.116295, 41.714713], [-8.122211, 41.723766], [-8.130977, 41.726879], [-8.143034, 41.724303], [-8.154906, 41.715004]], [[-8.144626, 41.705921], [-8.144325, 41.714925], [-8.131098, 41.717862], [-8.127503, 41.714799], [-8.129763, 41.705809], [-8.131278, 41.704486], [-8.144626, 41.705921]]], [[[-8.36161, 41.505182], [-8.366722, 41.500193], [-8.37112, 41.49121], [-8.371232, 41.482203], [-8.367307, 41.473174], [-8.36198, 41.467414], [-8.350066, 41.461312], [-8.338107, 41.459811], [-8.321937, 41.463908], [-8.310151, 41.472845], [-8.306058, 41.481828], [-8.306334, 41.490837], [-8.310935, 41.499872], [-8.325611, 41.510182], [-8.33757, 41.5126], [-8.349568, 41.511147], [-8.36161, 41.505182]], [[-8.353453, 41.482104], [-8.353767, 41.491114], [-8.34973, 41.494974], [-8.337731, 41.496758], [-8.328944, 41.490971], [-8.3295, 41.481967], [-8.337934, 41.476856], [-8.349892, 41.478714], [-8.353453, 41.482104]]], [[[-8.640929, 41.196241], [-8.646001, 41.213147], [-8.651533, 41.222171], [-8.662573, 41.233553], [-8.674468, 41.241194], [-8.692246, 41.249311], [-8.699308, 41.258337], [-8.686234, 41.276244], [-8.682454, 41.285316], [-8.681865, 41.294322], [-8.686097, 41.304864], [-8.697993, 41.315658], [-8.709919, 41.320501], [-8.727304, 41.321462], [-8.733816, 41.320583], [-8.745783, 41.315697], [-8.750826, 41.312507], [-8.758618, 41.303516], [-8.76196, 41.294515], [-8.761873, 41.285507], [-8.757882, 41.274878], [-8.744635, 41.258447], [-8.742605, 41.249435], [-8.766072, 41.222461], [-8.774119, 41.204461], [-8.77539, 41.195456], [-8.772257, 41.177434], [-8.767637, 41.168417], [-8.758314, 41.15762], [-8.748797, 41.150361], [-8.738918, 41.145408], [-8.674793, 41.146932], [-8.674849, 41.153767], [-8.672489, 41.15648], [-8.66117, 41.156307], [-8.662078, 41.158104], [-8.660313, 41.160813], [-8.657033, 41.160378], [-8.654961, 41.161963], [-8.653231, 41.169174], [-8.655366, 41.175467], [-8.647955, 41.180228], [-8.647696, 41.185181], [-8.640929, 41.196241]], [[-8.710426, 41.205823], [-8.698464, 41.213337], [-8.686534, 41.213687], [-8.674635, 41.207454], [-8.671883, 41.204215], [-8.670189, 41.195203], [-8.67458, 41.186207], [-8.68669, 41.180814], [-8.698611, 41.181242], [-8.708627, 41.186298], [-8.713762, 41.195319], [-8.710426, 41.205823]]]]}}, {"id": "2", "type": "Feature", "properties": {"fill": "#98d277", "value_min": 0.2, "value_max": -0.27}, "geometry": {"type": "MultiPolygon", "coordinates": [[[[-8.567074, 41.618585], [-8.577321, 41.614269], [-8.581231, 41.615829], [-8.585766, 41.620988], [-8.591462, 41.620515], [-8.596534, 41.616668], [-8.601628, 41.615972], [-8.603996, 41.611686], [-8.613256, 41.606696], [-8.619881, 41.610269], [-8.621338, 41.604636], [-8.628833, 41.604378], [-8.636302, 41.600744], [-8.64075, 41.594422], [-8.645536, 41.593051], [-8.646744, 41.594171], [-8.649125, 41.591909], [-8.656622, 41.5921], [-8.660788, 41.588255], [-8.663794, 41.589141], [-8.665265, 41.585758], [-8.66948, 41.587989], [-8.684455, 41.586117], [-8.685608, 41.58071], [-8.697261, 41.576376], [-8.701703, 41.570277], [-8.707704, 41.570923], [-8.711586, 41.569327], [-8.716422, 41.573805], [-8.720316, 41.57356], [-8.725151, 41.577811], [-8.726633, 41.576003], [-8.734424, 41.575737], [-8.736564, 41.580228], [-8.738354, 41.579318], [-8.740778, 41.582006], [-8.74467, 41.581535], [-8.750711, 41.58623], [-8.756374, 41.582823], [-8.75635, 41.580347], [-8.762327, 41.578514], [-8.764443, 41.580303], [-8.767441, 41.580286], [-8.769874, 41.583874], [-8.768997, 41.58613], [-8.773228, 41.589482], [-8.775371, 41.593972], [-8.78556, 41.593464], [-8.797327, 41.600599], [-8.804218, 41.600109], [-8.80456, 41.604158], [-8.809434, 41.611332], [-8.828644, 41.609656], [-8.82839, 41.585633], [-8.818497, 41.554794], [-8.8221, 41.547542], [-8.821965, 41.534907], [-8.815926, 41.525624], [-8.81063, 41.5101], [-8.813279, 41.503483], [-8.812636, 41.496944], [-8.804699, 41.482068], [-8.798552, 41.474753], [-8.80154, 41.446836], [-8.806115, 41.43713], [-8.807354, 41.425915], [-8.811166, 41.417099], [-8.808585, 41.370029], [-8.781435, 41.372692], [-8.757523, 41.371594], [-8.745573, 41.369577], [-8.721691, 41.362089], [-8.685926, 41.340626], [-8.647496, 41.312237], [-8.638273, 41.303201], [-8.631486, 41.294171], [-8.628253, 41.285153], [-8.628008, 41.249121], [-8.625964, 41.231099], [-8.609052, 41.174318], [-8.608753, 41.173419], [-8.608004, 41.171171], [-8.607965, 41.171054], [-8.607854, 41.170721], [-8.604942, 41.164881], [-8.602852, 41.164214], [-8.59422, 41.165149], [-8.589174, 41.167645], [-8.589194, 41.170572], [-8.583263, 41.174422], [-8.582094, 41.177803], [-8.578825, 41.178941], [-8.580327, 41.180736], [-8.580953, 41.191988], [-8.591173, 41.202251], [-8.596283, 41.212983], [-8.597774, 41.221996], [-8.596564, 41.231], [-8.590925, 41.24205], [-8.583476, 41.248969], [-8.578924, 41.25247], [-8.566954, 41.257552], [-8.555, 41.260093], [-8.543062, 41.260228], [-8.53114, 41.258043], [-8.519236, 41.253513], [-8.511429, 41.248686], [-8.50207, 41.239638], [-8.497106, 41.230608], [-8.495527, 41.223353], [-8.487935, 41.230354], [-8.490333, 41.232598], [-8.484411, 41.240495], [-8.476346, 41.237818], [-8.475756, 41.23917], [-8.470986, 41.23941], [-8.471604, 41.243459], [-8.469227, 41.245267], [-8.463258, 41.244384], [-8.459989, 41.246644], [-8.454323, 41.246886], [-8.455541, 41.251834], [-8.452276, 41.25522], [-8.449891, 41.255452], [-8.449304, 41.257479], [-8.447812, 41.257258], [-8.449028, 41.261982], [-8.439785, 41.262907], [-8.438023, 41.268989], [-8.434745, 41.269673], [-8.432691, 41.277107], [-8.427032, 41.279372], [-8.429143, 41.284319], [-8.426171, 41.287028], [-8.426488, 41.291079], [-8.425013, 41.294909], [-8.422037, 41.296942], [-8.422647, 41.299867], [-8.407744, 41.304856], [-8.406262, 41.307335], [-8.403277, 41.307342], [-8.401801, 41.311398], [-8.399712, 41.311628], [-8.400316, 41.313202], [-8.396738, 41.314336], [-8.398835, 41.316131], [-8.393775, 41.31997], [-8.393489, 41.323122], [-8.391105, 41.324253], [-8.386325, 41.323588], [-8.380382, 41.331254], [-8.375305, 41.33104], [-8.37201, 41.328346], [-8.361563, 41.329718], [-8.358276, 41.329049], [-8.357673, 41.327249], [-8.350207, 41.327264], [-8.346032, 41.328847], [-8.342462, 41.333131], [-8.333215, 41.336299], [-8.326363, 41.342163], [-8.324568, 41.341041], [-8.323376, 41.341943], [-8.320676, 41.338121], [-8.312604, 41.334983], [-8.313794, 41.333405], [-8.31139, 41.328007], [-8.307502, 41.325762], [-8.305116, 41.326891], [-8.303024, 41.325994], [-8.303615, 41.323742], [-8.301216, 41.319694], [-8.296431, 41.316774], [-8.297618, 41.313846], [-8.295817, 41.310022], [-8.281801, 41.316569], [-8.279132, 41.324451], [-8.272266, 41.32536], [-8.265709, 41.331221], [-8.269004, 41.336169], [-8.263339, 41.340902], [-8.262751, 41.345405], [-8.256483, 41.347663], [-8.255889, 41.349689], [-8.249622, 41.353072], [-8.251123, 41.356897], [-8.248141, 41.360052], [-8.248448, 41.364328], [-8.245461, 41.364781], [-8.244272, 41.368384], [-8.241287, 41.370413], [-8.224854, 41.370878], [-8.21738, 41.368182], [-8.214399, 41.373587], [-8.208127, 41.376968], [-8.199163, 41.377423], [-8.194677, 41.374275], [-8.191691, 41.376302], [-8.189299, 41.375403], [-8.184818, 41.376756], [-8.168382, 41.377438], [-8.164499, 41.38059], [-8.152544, 41.375866], [-8.151049, 41.37339], [-8.145073, 41.374742], [-8.139694, 41.377894], [-8.133418, 41.374292], [-8.125051, 41.375193], [-8.119672, 41.376768], [-8.119672, 41.378569], [-8.116683, 41.380144], [-8.117877, 41.385771], [-8.113992, 41.386896], [-8.112795, 41.390723], [-8.110105, 41.390947], [-8.108011, 41.393648], [-8.103827, 41.392972], [-8.105321, 41.394998], [-8.10263, 41.396123], [-8.10801, 41.398825], [-8.108606, 41.403102], [-8.104419, 41.406252], [-8.104119, 41.408728], [-8.101727, 41.409403], [-8.102025, 41.411204], [-8.092756, 41.411201], [-8.09126, 41.414352], [-8.079893, 41.41975], [-8.077503, 41.416597], [-8.070923, 41.41862], [-8.066739, 41.416142], [-8.061953, 41.417264], [-8.059852, 41.424916], [-8.055959, 41.429415], [-8.05745, 41.432793], [-8.056549, 41.436394], [-8.069999, 41.447206], [-8.068788, 41.462286], [-8.073872, 41.46499], [-8.074468, 41.468141], [-8.073564, 41.474668], [-8.066374, 41.482318], [-8.066069, 41.48817], [-8.072054, 41.490199], [-8.07175, 41.494925], [-8.078333, 41.49898], [-8.078332, 41.500331], [-8.093, 41.504613], [-8.089398, 41.519242], [-8.090594, 41.522169], [-8.093588, 41.52307], [-8.091487, 41.531173], [-8.097775, 41.536127], [-8.097774, 41.537927], [-8.106759, 41.543557], [-8.101666, 41.542655], [-8.094175, 41.544904], [-8.087885, 41.542876], [-8.083389, 41.5449], [-8.080687, 41.551651], [-8.074097, 41.549848], [-8.073494, 41.553449], [-8.075891, 41.554575], [-8.076188, 41.557276], [-8.079783, 41.558403], [-8.081576, 41.565157], [-8.078879, 41.56493], [-8.075279, 41.568305], [-8.073182, 41.568079], [-8.069283, 41.570553], [-8.068081, 41.573478], [-8.056684, 41.579549], [-8.052181, 41.584498], [-8.052777, 41.587649], [-8.037169, 41.600242], [-8.031467, 41.602938], [-8.02367, 41.603156], [-8.019174, 41.601802], [-8.015872, 41.603824], [-8.013474, 41.603372], [-8.005971, 41.60629], [-8.003562, 41.611239], [-7.99936, 41.61281], [-7.998462, 41.612359], [-7.999669, 41.608759], [-7.996976, 41.605829], [-7.996684, 41.602003], [-7.984685, 41.603564], [-7.982292, 41.60086], [-7.975689, 41.603552], [-7.974482, 41.606701], [-7.970882, 41.607147], [-7.969091, 41.603768], [-7.965796, 41.602413], [-7.9541, 41.602846], [-7.952606, 41.600592], [-7.947808, 41.60081], [-7.945413, 41.599456], [-7.942725, 41.595625], [-7.936132, 41.594488], [-7.93791, 41.601694], [-7.937004, 41.603718], [-7.931604, 41.604384], [-7.930979, 41.612711], [-7.925556, 41.620354], [-7.920755, 41.620796], [-7.917748, 41.623041], [-7.915933, 41.627764], [-7.913229, 41.628885], [-7.912613, 41.63361], [-7.906014, 41.633147], [-7.906884, 41.641927], [-7.897869, 41.645511], [-7.89696, 41.647985], [-7.892759, 41.647976], [-7.892145, 41.651576], [-7.902319, 41.659925], [-7.899913, 41.66127], [-7.900198, 41.665547], [-7.898396, 41.665769], [-7.897186, 41.668467], [-7.892682, 41.668683], [-7.892377, 41.670033], [-7.888171, 41.670925], [-7.883969, 41.67069], [-7.880358, 41.673159], [-7.877044, 41.676077], [-7.876723, 41.681253], [-7.873401, 41.686198], [-7.868896, 41.686413], [-7.868008, 41.68326], [-7.864403, 41.683701], [-7.864096, 41.685276], [-7.858987, 41.68639], [-7.857773, 41.689538], [-7.854776, 41.68818], [-7.847538, 41.695365], [-7.837912, 41.698942], [-7.835792, 41.702763], [-7.839682, 41.705924], [-7.838465, 41.709522], [-7.832453, 41.710407], [-7.825252, 41.708813], [-7.818621, 41.713522], [-7.815291, 41.718689], [-7.808986, 41.717996], [-7.808396, 41.715744], [-7.804499, 41.714158], [-7.79939, 41.714593], [-7.79788, 41.716164], [-7.796383, 41.71526], [-7.790966, 41.717044], [-7.789449, 41.719966], [-7.78464, 41.720402], [-7.78252, 41.723546], [-7.776204, 41.724652], [-7.773786, 41.727346], [-7.770798, 41.72441], [-7.765698, 41.723044], [-7.761765, 41.727758], [-7.762933, 41.733839], [-7.759307, 41.737203], [-7.759597, 41.739005], [-7.75689, 41.739446], [-7.758687, 41.740577], [-7.757758, 41.745301], [-7.750187, 41.748652], [-7.757768, 41.752256], [-7.770891, 41.765579], [-7.775163, 41.774631], [-7.776226, 41.783649], [-7.773968, 41.792632], [-7.76702, 41.801564], [-7.756693, 41.807959], [-7.74458, 41.811749], [-7.727881, 41.8131], [-7.732041, 41.821514], [-7.739247, 41.824121], [-7.768548, 41.81749], [-7.781723, 41.810728], [-7.789802, 41.801807], [-7.795232, 41.78385], [-7.790857, 41.73877], [-7.794301, 41.728248], [-7.806455, 41.7212], [-7.818475, 41.721307], [-7.866441, 41.728299], [-7.893556, 41.739805], [-7.902221, 41.74531], [-7.906684, 41.748938], [-7.909601, 41.757972], [-7.911016, 41.785006], [-7.913751, 41.794039], [-7.920127, 41.803106], [-7.925241, 41.807266], [-7.937216, 41.811086], [-7.949248, 41.811516], [-7.997486, 41.80625], [-8.02155, 41.807062], [-8.033543, 41.810025], [-8.050839, 41.819703], [-8.057314, 41.815656], [-8.06664, 41.817012], [-8.072961, 41.813414], [-8.078678, 41.813417], [-8.082892, 41.810493], [-8.091013, 41.812521], [-8.093421, 41.811397], [-8.093723, 41.808471], [-8.101845, 41.809824], [-8.104853, 41.81185], [-8.115984, 41.812302], [-8.123807, 41.808702], [-8.138247, 41.808477], [-8.139751, 41.813203], [-8.14276, 41.812978], [-8.144866, 41.815228], [-8.149078, 41.814777], [-8.153291, 41.817703], [-8.158106, 41.818377], [-8.165326, 41.81815], [-8.173744, 41.808019], [-8.177655, 41.808242], [-8.183676, 41.812741], [-8.190291, 41.809587], [-8.197158, 41.814129], [-8.201063, 41.808724], [-8.204973, 41.807372], [-8.205872, 41.804445], [-8.213692, 41.803765], [-8.217598, 41.80016], [-8.217589, 41.793634], [-8.224207, 41.794303], [-8.229917, 41.791598], [-8.240744, 41.791588], [-8.24074, 41.789338], [-8.244347, 41.787984], [-8.245546, 41.785731], [-8.251257, 41.784375], [-8.251845, 41.777172], [-8.257551, 41.773564], [-8.261762, 41.774235], [-8.271366, 41.766346], [-8.280681, 41.764083], [-8.284038, 41.761109], [-8.284931, 41.757507], [-8.305674, 41.758152], [-8.311096, 41.762195], [-8.318308, 41.761283], [-8.325233, 41.765098], [-8.328234, 41.763292], [-8.336653, 41.763728], [-8.341756, 41.761468], [-8.344765, 41.762363], [-8.347509, 41.760332], [-8.338583, 41.743229], [-8.331352, 41.716166], [-8.331561, 41.698153], [-8.336344, 41.671159], [-8.344878, 41.653194], [-8.353935, 41.644238], [-8.372351, 41.633487], [-8.392298, 41.626433], [-8.406378, 41.617499], [-8.409075, 41.608506], [-8.397965, 41.572419], [-8.397566, 41.554403], [-8.404035, 41.536422], [-8.411124, 41.527451], [-8.421396, 41.519237], [-8.433432, 41.513363], [-8.445439, 41.510692], [-8.457414, 41.511589], [-8.467212, 41.518717], [-8.481276, 41.524749], [-8.493244, 41.527082], [-8.517216, 41.527151], [-8.529189, 41.529036], [-8.541144, 41.533564], [-8.553079, 41.541182], [-8.567215, 41.555166], [-8.57318, 41.564196], [-8.578676, 41.582231], [-8.576618, 41.600238], [-8.567074, 41.618585]], [[-7.960525, 41.785465], [-7.958953, 41.794457], [-7.949444, 41.799487], [-7.937422, 41.798595], [-7.931702, 41.794207], [-7.931045, 41.785194], [-7.937767, 41.777725], [-7.949818, 41.776561], [-7.960525, 41.785465]], [[-7.955762, 41.758401], [-7.949855, 41.774345], [-7.942689, 41.767288], [-7.937965, 41.765714], [-7.935472, 41.758215], [-7.938145, 41.754811], [-7.950197, 41.753356], [-7.955762, 41.758401]], [[-8.202756, 41.756055], [-8.200045, 41.760362], [-8.190596, 41.766492], [-8.178532, 41.769065], [-8.166513, 41.768107], [-8.152758, 41.760023], [-8.148043, 41.750981], [-8.14941, 41.741984], [-8.159018, 41.733048], [-8.167021, 41.728887], [-8.179067, 41.72713], [-8.191065, 41.729115], [-8.19947, 41.733337], [-8.205765, 41.742387], [-8.205849, 41.751395], [-8.202756, 41.756055]], [[-8.106627, 41.74876], [-8.094604, 41.748465], [-8.078518, 41.741437], [-8.064421, 41.72331], [-8.058964, 41.718191], [-8.047007, 41.713787], [-8.042245, 41.705113], [-8.047224, 41.69908], [-8.05928, 41.696489], [-8.07129, 41.697068], [-8.080654, 41.687413], [-8.081271, 41.67841], [-8.083601, 41.676371], [-8.095636, 41.674839], [-8.107637, 41.675746], [-8.131735, 41.670563], [-8.143743, 41.670914], [-8.155706, 41.674672], [-8.167224, 41.688072], [-8.170685, 41.697105], [-8.172438, 41.706124], [-8.169409, 41.715109], [-8.158644, 41.724038], [-8.130791, 41.74069], [-8.118689, 41.746242], [-8.106627, 41.74876]], [[-7.914747, 41.715643], [-7.913333, 41.72198], [-7.902522, 41.727626], [-7.890517, 41.726588], [-7.88312, 41.72169], [-7.881702, 41.71267], [-7.890917, 41.703298], [-7.902953, 41.702314], [-7.914809, 41.711975], [-7.914747, 41.715643]], [[-8.227427, 41.704887], [-8.21533, 41.711224], [-8.203332, 41.709431], [-8.194466, 41.697274], [-8.197754, 41.68829], [-8.203652, 41.683462], [-8.215683, 41.682201], [-8.228478, 41.6885], [-8.232037, 41.697531], [-8.227427, 41.704887]], [[-8.108332, 41.625417], [-8.09621, 41.633844], [-8.084174, 41.63591], [-8.072206, 41.633273], [-8.058431, 41.624183], [-8.05342, 41.615135], [-8.053844, 41.606131], [-8.0599, 41.597174], [-8.07283, 41.589681], [-8.084855, 41.587802], [-8.096835, 41.58906], [-8.108758, 41.594491], [-8.112063, 41.597589], [-8.116457, 41.60663], [-8.115189, 41.615627], [-8.108332, 41.625417]], [[-8.325315, 41.538697], [-8.301358, 41.536891], [-8.277439, 41.531747], [-8.241496, 41.530183], [-8.229558, 41.526006], [-8.220087, 41.517307], [-8.216863, 41.508278], [-8.218631, 41.499282], [-8.225539, 41.490322], [-8.249091, 41.472463], [-8.266565, 41.454561], [-8.278154, 41.445627], [-8.29044, 41.438895], [-8.302457, 41.434507], [-8.314453, 41.431959], [-8.338396, 41.431428], [-8.362286, 41.436232], [-8.374203, 41.441661], [-8.379984, 41.446221], [-8.386642, 41.455264], [-8.389893, 41.464289], [-8.391286, 41.491318], [-8.389257, 41.500315], [-8.38429, 41.509296], [-8.37344, 41.520962], [-8.361375, 41.52903], [-8.349336, 41.534263], [-8.325315, 41.538697]], [[-8.661228, 41.493447], [-8.647058, 41.48338], [-8.645181, 41.474367], [-8.649399, 41.465515], [-8.66141, 41.458498], [-8.67339, 41.457241], [-8.685348, 41.460489], [-8.692433, 41.465495], [-8.696877, 41.474515], [-8.695065, 41.483517], [-8.684105, 41.492495], [-8.673201, 41.494869], [-8.661228, 41.493447]], [[-8.571087, 41.456099], [-8.565563, 41.467118], [-8.553553, 41.47219], [-8.541586, 41.470822], [-8.533271, 41.46496], [-8.529419, 41.455936], [-8.533483, 41.446946], [-8.541793, 41.441466], [-8.553773, 41.440088], [-8.56571, 41.445008], [-8.571087, 41.456099]]], [[[-8.119451, 41.690426], [-8.107378, 41.694488], [-8.105462, 41.696615], [-8.119321, 41.699943], [-8.122167, 41.696744], [-8.119451, 41.690426]]]]}}, {"id": "3", "type": "Feature", "properties": {"fill": "#bde282", "value_min": 0.27, "value_max": -0.33}, "geometry": {"type": "MultiPolygon", "coordinates": [[[[-8.050839, 41.819703], [-8.033543, 41.810025], [-8.02155, 41.807062], [-7.997486, 41.80625], [-7.949248, 41.811516], [-7.937216, 41.811086], [-7.925241, 41.807266], [-7.920127, 41.803106], [-7.913751, 41.794039], [-7.911016, 41.785006], [-7.909601, 41.757972], [-7.906684, 41.748938], [-7.902221, 41.74531], [-7.893556, 41.739805], [-7.866441, 41.728299], [-7.818475, 41.721307], [-7.806455, 41.7212], [-7.794301, 41.728248], [-7.790857, 41.73877], [-7.795232, 41.78385], [-7.789802, 41.801807], [-7.781723, 41.810728], [-7.768548, 41.81749], [-7.739247, 41.824121], [-7.74345, 41.825605], [-7.738918, 41.82874], [-7.744836, 41.835963], [-7.768233, 41.833929], [-7.804259, 41.839511], [-7.80888, 41.838033], [-7.815772, 41.829097], [-7.823758, 41.793153], [-7.824306, 41.784151], [-7.821649, 41.766111], [-7.822869, 41.757116], [-7.829086, 41.748173], [-7.842165, 41.741031], [-7.854235, 41.738529], [-7.86625, 41.739114], [-7.878209, 41.742945], [-7.887264, 41.748751], [-7.89295, 41.757813], [-7.890374, 41.784809], [-7.912946, 41.822436], [-7.924944, 41.824996], [-7.949084, 41.821504], [-7.961108, 41.822542], [-7.979959, 41.830673], [-7.986518, 41.839738], [-7.98825, 41.84876], [-7.985686, 41.857744], [-7.978715, 41.866689], [-7.972363, 41.871732], [-7.965214, 41.874754], [-7.973828, 41.875216], [-7.987996, 41.869157], [-7.990123, 41.860157], [-7.995547, 41.858138], [-7.994047, 41.855211], [-7.996162, 41.851837], [-8.003089, 41.850494], [-8.005804, 41.847346], [-8.007928, 41.838796], [-8.012753, 41.833624], [-8.013363, 41.829124], [-8.017873, 41.831379], [-8.02901, 41.829589], [-8.037134, 41.831171], [-8.041351, 41.828023], [-8.041054, 41.825097], [-8.045268, 41.824425], [-8.050839, 41.819703]]], [[[-7.965096, 41.874803], [-7.965096, 41.874803], [-7.964683, 41.874978], [-7.965096, 41.874803]]], [[[-7.928369, 41.877846], [-7.910595, 41.872853], [-7.910285, 41.875562], [-7.915391, 41.879397], [-7.928369, 41.877846]]], [[[-7.84408, 41.864965], [-7.835703, 41.865328], [-7.827835, 41.867556], [-7.823252, 41.874011], [-7.825059, 41.875817], [-7.830479, 41.875831], [-7.830789, 41.874031], [-7.832894, 41.874712], [-7.838021, 41.872924], [-7.842528, 41.875187], [-7.841663, 41.866632], [-7.84408, 41.864965]]], [[[-8.106627, 41.74876], [-8.118689, 41.746242], [-8.130791, 41.74069], [-8.158644, 41.724038], [-8.169409, 41.715109], [-8.172438, 41.706124], [-8.170685, 41.697105], [-8.167224, 41.688072], [-8.155706, 41.674672], [-8.143743, 41.670914], [-8.131735, 41.670563], [-8.107637, 41.675746], [-8.095636, 41.674839], [-8.083601, 41.676371], [-8.081271, 41.67841], [-8.080654, 41.687413], [-8.07129, 41.697068], [-8.05928, 41.696489], [-8.047224, 41.69908], [-8.042245, 41.705113], [-8.047007, 41.713787], [-8.058964, 41.718191], [-8.064421, 41.72331], [-8.078518, 41.741437], [-8.094604, 41.748465], [-8.106627, 41.74876]], [[-8.154906, 41.715004], [-8.143034, 41.724303], [-8.130977, 41.726879], [-8.122211, 41.723766], [-8.116295, 41.714713], [-8.131355, 41.698774], [-8.143414, 41.695673], [-8.156506, 41.706008], [-8.154906, 41.715004]], [[-8.119451, 41.690426], [-8.122167, 41.696744], [-8.119321, 41.699943], [-8.105462, 41.696615], [-8.107378, 41.694488], [-8.119451, 41.690426]]], [[[-8.325315, 41.538697], [-8.349336, 41.534263], [-8.361375, 41.52903], [-8.37344, 41.520962], [-8.38429, 41.509296], [-8.389257, 41.500315], [-8.391286, 41.491318], [-8.389893, 41.464289], [-8.386642, 41.455264], [-8.379984, 41.446221], [-8.374203, 41.441661], [-8.362286, 41.436232], [-8.338396, 41.431428], [-8.314453, 41.431959], [-8.302457, 41.434507], [-8.29044, 41.438895], [-8.278154, 41.445627], [-8.266565, 41.454561], [-8.249091, 41.472463], [-8.225539, 41.490322], [-8.218631, 41.499282], [-8.216863, 41.508278], [-8.220087, 41.517307], [-8.229558, 41.526006], [-8.241496, 41.530183], [-8.277439, 41.531747], [-8.301358, 41.536891], [-8.325315, 41.538697]], [[-8.36161, 41.505182], [-8.349568, 41.511147], [-8.33757, 41.5126], [-8.325611, 41.510182], [-8.310935, 41.499872], [-8.306334, 41.490837], [-8.306058, 41.481828], [-8.310151, 41.472845], [-8.321937, 41.463908], [-8.338107, 41.459811], [-8.350066, 41.461312], [-8.36198, 41.467414], [-8.367307, 41.473174], [-8.371232, 41.482203], [-8.37112, 41.49121], [-8.366722, 41.500193], [-8.36161, 41.505182]]], [[[-8.661228, 41.493447], [-8.673201, 41.494869], [-8.684105, 41.492495], [-8.695065, 41.483517], [-8.696877, 41.474515], [-8.692433, 41.465495], [-8.685348, 41.460489], [-8.67339, 41.457241], [-8.66141, 41.458498], [-8.649399, 41.465515], [-8.645181, 41.474367], [-8.647058, 41.48338], [-8.661228, 41.493447]]], [[[-8.607854, 41.170721], [-8.607854, 41.170721], [-8.607965, 41.171054], [-8.607854, 41.170721]]], [[[-8.608004, 41.171171], [-8.608004, 41.171171], [-8.608753, 41.173419], [-8.608004, 41.171171]]], [[[-8.609052, 41.174318], [-8.625964, 41.231099], [-8.628008, 41.249121], [-8.628253, 41.285153], [-8.631486, 41.294171], [-8.638273, 41.303201], [-8.647496, 41.312237], [-8.685926, 41.340626], [-8.721691, 41.362089], [-8.745573, 41.369577], [-8.757523, 41.371594], [-8.781435, 41.372692], [-8.808585, 41.370029], [-8.799695, 41.14406], [-8.738918, 41.145408], [-8.748797, 41.150361], [-8.758314, 41.15762], [-8.767637, 41.168417], [-8.772257, 41.177434], [-8.77539, 41.195456], [-8.774119, 41.204461], [-8.766072, 41.222461], [-8.742605, 41.249435], [-8.744635, 41.258447], [-8.757882, 41.274878], [-8.761873, 41.285507], [-8.76196, 41.294515], [-8.758618, 41.303516], [-8.750826, 41.312507], [-8.745783, 41.315697], [-8.733816, 41.320583], [-8.727304, 41.321462], [-8.709919, 41.320501], [-8.697993, 41.315658], [-8.686097, 41.304864], [-8.681865, 41.294322], [-8.682454, 41.285316], [-8.686234, 41.276244], [-8.699308, 41.258337], [-8.692246, 41.249311], [-8.674468, 41.241194], [-8.662573, 41.233553], [-8.651533, 41.222171], [-8.646001, 41.213147], [-8.640929, 41.196241], [-8.634946, 41.193341], [-8.632526, 41.188624], [-8.625658, 41.186628], [-8.621132, 41.178994], [-8.613374, 41.177451], [-8.609052, 41.174318]]]]}}, {"id": "0", "type": "Feature", "properties": {"fill": "#50b061", "value_min": 0.07, "value_max": -0.13}, "geometry": {"type": "MultiPolygon", "coordinates": [[[[-7.728264, 41.800011], [-7.732747, 41.801335], [-7.74481, 41.79998], [-7.757193, 41.792452], [-7.76035, 41.783479], [-7.757345, 41.774173], [-7.745474, 41.765906], [-7.738104, 41.764772], [-7.726937, 41.771755], [-7.7254, 41.777152], [-7.727191, 41.779184], [-7.724177, 41.780299], [-7.725372, 41.781653], [-7.722296, 41.792446], [-7.728581, 41.79742], [-7.728264, 41.800011]]], [[[-8.443153, 41.709019], [-8.431785, 41.701302], [-8.419786, 41.699138], [-8.407749, 41.701162], [-8.396431, 41.707519], [-8.390759, 41.716496], [-8.391484, 41.725507], [-8.394726, 41.730298], [-8.396942, 41.730518], [-8.400531, 41.726683], [-8.402934, 41.726452], [-8.404721, 41.722847], [-8.417349, 41.725067], [-8.422737, 41.720552], [-8.429643, 41.719859], [-8.430533, 41.717381], [-8.435927, 41.714441], [-8.441632, 41.713975], [-8.443153, 41.709019]]], [[[-8.445025, 41.559102], [-8.457009, 41.560068], [-8.468423, 41.554752], [-8.473576, 41.545769], [-8.469124, 41.536741], [-8.457255, 41.530713], [-8.445266, 41.530914], [-8.435603, 41.536581], [-8.432267, 41.545572], [-8.437581, 41.554605], [-8.445025, 41.559102]]]]}}, {"id": "6", "type": "Feature", "properties": {"fill": "#fffebe", "value_min": 0.47, "value_max": -0.53}, "geometry": {"type": "Polygon", "coordinates": [[[-7.864306, 41.757533], [-7.865904, 41.758781], [-7.866676, 41.757557], [-7.865935, 41.757009], [-7.864306, 41.757533]]]}}]}