{"type": "FeatureCollection", "features": [{"id": "4", "type": "Feature", "properties": {"fill": "#bde282", "value_min": 0.27, "value_max": -0.33}, "geometry": {"type": "MultiPolygon", "coordinates": [[[[-7.728171, 41.814935], [-7.74454, 41.813791], [-7.7626, 41.810523], [-7.792944, 41.800707], [-7.805026, 41.798232], [-7.817052, 41.798851], [-7.829023, 41.802407], [-7.840878, 41.812519], [-7.847313, 41.820412], [-7.852717, 41.823764], [-7.864689, 41.827654], [-7.876759, 41.826056], [-7.884124, 41.820775], [-7.889228, 41.811818], [-7.880718, 41.793722], [-7.88461, 41.784753], [-7.901791, 41.770532], [-7.913876, 41.767363], [-7.937876, 41.771104], [-7.949902, 41.77141], [-7.986115, 41.763918], [-8.010143, 41.766037], [-8.022196, 41.764511], [-8.034326, 41.757913], [-8.040243, 41.750131], [-8.04153, 41.741135], [-8.037838, 41.732097], [-8.029106, 41.723017], [-8.011017, 41.709083], [-8.002481, 41.704775], [-7.999941, 41.695746], [-8.013213, 41.686853], [-8.047566, 41.675935], [-8.059606, 41.674148], [-8.074559, 41.687364], [-8.088267, 41.69648], [-8.096916, 41.705556], [-8.107159, 41.710367], [-8.119204, 41.708512], [-8.130256, 41.696806], [-8.130329, 41.687799], [-8.113779, 41.669659], [-8.084895, 41.651418], [-8.085111, 41.642413], [-8.096213, 41.633578], [-8.110991, 41.615595], [-8.11332, 41.606605], [-8.112348, 41.588584], [-8.115409, 41.5796], [-8.145199, 41.560726], [-8.154063, 41.552869], [-8.16001, 41.543906], [-8.163161, 41.534921], [-8.166743, 41.507925], [-8.174878, 41.471955], [-8.182557, 41.451085], [-8.194643, 41.441823], [-8.206658, 41.438224], [-8.290576, 41.426343], [-8.300637, 41.418743], [-8.293486, 41.346639], [-8.287431, 41.328587], [-8.281807, 41.319243], [-8.278828, 41.321976], [-8.278238, 41.325128], [-8.272266, 41.32536], [-8.265709, 41.331221], [-8.269004, 41.336169], [-8.263339, 41.340902], [-8.262751, 41.345405], [-8.256483, 41.347663], [-8.255889, 41.349689], [-8.249622, 41.353072], [-8.251123, 41.356897], [-8.248141, 41.360052], [-8.248446, 41.363161], [-8.255351, 41.373421], [-8.255146, 41.384976], [-8.252404, 41.391417], [-8.243013, 41.399873], [-8.230999, 41.404235], [-8.219026, 41.404986], [-8.201423, 41.400082], [-8.190326, 41.390997], [-8.18649, 41.381963], [-8.18689, 41.375629], [-8.184818, 41.376756], [-8.168382, 41.377438], [-8.164499, 41.38059], [-8.152544, 41.375866], [-8.151049, 41.37339], [-8.145073, 41.374742], [-8.139694, 41.377894], [-8.133418, 41.374292], [-8.119672, 41.376768], [-8.119672, 41.378569], [-8.116683, 41.380144], [-8.117578, 41.386447], [-8.113992, 41.386896], [-8.112795, 41.390723], [-8.110105, 41.390947], [-8.108011, 41.393648], [-8.103827, 41.392972], [-8.105321, 41.394998], [-8.10263, 41.396123], [-8.10801, 41.398825], [-8.108606, 41.403102], [-8.104419, 41.406252], [-8.104119, 41.408728], [-8.101727, 41.409403], [-8.102025, 41.411204], [-8.092756, 41.411201], [-8.09126, 41.414352], [-8.079893, 41.41975], [-8.077503, 41.416597], [-8.070923, 41.41862], [-8.066739, 41.416142], [-8.061654, 41.417489], [-8.059852, 41.424916], [-8.055959, 41.429415], [-8.05745, 41.432793], [-8.056549, 41.436394], [-8.069999, 41.447206], [-8.068788, 41.462286], [-8.073872, 41.46499], [-8.074468, 41.468141], [-8.073564, 41.474668], [-8.066374, 41.482318], [-8.066069, 41.48817], [-8.072054, 41.490199], [-8.07175, 41.494925], [-8.079977, 41.500557], [-8.082968, 41.480266], [-8.087435, 41.471294], [-8.098588, 41.462854], [-8.110603, 41.459872], [-8.12256, 41.461125], [-8.134444, 41.46789], [-8.137557, 41.471681], [-8.140531, 41.48071], [-8.138652, 41.489704], [-8.129275, 41.507648], [-8.133812, 41.525697], [-8.130977, 41.534682], [-8.121444, 41.543772], [-8.109397, 41.547988], [-8.097403, 41.548226], [-8.084887, 41.544436], [-8.083389, 41.5449], [-8.081886, 41.550977], [-8.079489, 41.551876], [-8.074097, 41.549848], [-8.072897, 41.551197], [-8.076188, 41.557276], [-8.080082, 41.558854], [-8.081576, 41.565157], [-8.078879, 41.56493], [-8.075279, 41.568305], [-8.073182, 41.568079], [-8.069283, 41.570553], [-8.068081, 41.573478], [-8.056684, 41.579549], [-8.052181, 41.584498], [-8.052777, 41.587649], [-8.048277, 41.590122], [-8.047974, 41.592373], [-8.031467, 41.602938], [-8.02367, 41.603156], [-8.019174, 41.601802], [-8.015872, 41.603824], [-8.013474, 41.603372], [-8.005971, 41.60629], [-8.003562, 41.611239], [-7.998761, 41.612809], [-7.999669, 41.608759], [-7.996976, 41.605829], [-7.996684, 41.602003], [-7.984685, 41.603564], [-7.982292, 41.60086], [-7.975689, 41.603552], [-7.974482, 41.606701], [-7.970882, 41.607147], [-7.969091, 41.603768], [-7.965796, 41.602413], [-7.9541, 41.602846], [-7.952606, 41.600592], [-7.947808, 41.60081], [-7.945413, 41.599456], [-7.942725, 41.595625], [-7.936132, 41.594488], [-7.93791, 41.601694], [-7.937004, 41.603718], [-7.931604, 41.604384], [-7.930979, 41.612711], [-7.925556, 41.620354], [-7.920755, 41.620796], [-7.917748, 41.623041], [-7.915933, 41.627764], [-7.913229, 41.628885], [-7.912613, 41.63361], [-7.906014, 41.633147], [-7.906884, 41.641927], [-7.897869, 41.645511], [-7.89696, 41.647985], [-7.892759, 41.647976], [-7.892145, 41.651576], [-7.902319, 41.659925], [-7.899913, 41.66127], [-7.900198, 41.665547], [-7.898396, 41.665769], [-7.896885, 41.668692], [-7.883969, 41.67069], [-7.879755, 41.673607], [-7.877044, 41.676077], [-7.876723, 41.681253], [-7.873401, 41.686198], [-7.868896, 41.686413], [-7.867408, 41.683258], [-7.864403, 41.683701], [-7.864096, 41.685276], [-7.860493, 41.685268], [-7.858984, 41.687126], [-7.867127, 41.689243], [-7.879, 41.697472], [-7.902925, 41.703978], [-7.911709, 41.712958], [-7.910468, 41.721953], [-7.902519, 41.727826], [-7.890473, 41.729169], [-7.878517, 41.725244], [-7.866497, 41.725108], [-7.854441, 41.726964], [-7.84245, 41.725144], [-7.830568, 41.717377], [-7.826354, 41.712118], [-7.825958, 41.708815], [-7.818621, 41.713522], [-7.815291, 41.718689], [-7.808986, 41.717996], [-7.808396, 41.715744], [-7.803298, 41.714154], [-7.790966, 41.717044], [-7.789449, 41.719966], [-7.78464, 41.720402], [-7.78252, 41.723546], [-7.776204, 41.724652], [-7.773786, 41.727346], [-7.770798, 41.72441], [-7.765698, 41.723044], [-7.761765, 41.727758], [-7.762933, 41.733839], [-7.759307, 41.737203], [-7.759597, 41.739005], [-7.75689, 41.739446], [-7.758687, 41.740577], [-7.757758, 41.745301], [-7.748417, 41.749321], [-7.747786, 41.754496], [-7.742952, 41.758483], [-7.75864, 41.765447], [-7.765355, 41.774526], [-7.766232, 41.783542], [-7.761724, 41.792501], [-7.745901, 41.801336], [-7.732726, 41.802387], [-7.727353, 41.80141], [-7.728171, 41.814935]], [[-7.942793, 41.767289], [-7.937949, 41.766673], [-7.928998, 41.758155], [-7.933067, 41.749186], [-7.938297, 41.745575], [-7.950328, 41.745297], [-7.956493, 41.749401], [-7.960663, 41.758445], [-7.950956, 41.767364], [-7.942793, 41.767289]], [[-7.858425, 41.766482], [-7.853784, 41.763897], [-7.849778, 41.757389], [-7.854012, 41.751079], [-7.866098, 41.74776], [-7.875638, 41.757645], [-7.868314, 41.76658], [-7.865747, 41.767695], [-7.858425, 41.766482]], [[-8.010401, 41.749206], [-7.998418, 41.746398], [-7.9908, 41.7407], [-7.988958, 41.731677], [-7.998793, 41.722228], [-8.010834, 41.720996], [-8.022757, 41.727562], [-8.026632, 41.732003], [-8.026191, 41.741006], [-8.022489, 41.745219], [-8.010401, 41.749206]], [[-8.107305, 41.699787], [-8.104472, 41.696608], [-8.107405, 41.692596], [-8.119464, 41.689491], [-8.12495, 41.696765], [-8.119273, 41.703494], [-8.107305, 41.699787]], [[-8.083518, 41.682226], [-8.080325, 41.678403], [-8.083641, 41.673569], [-8.095657, 41.673329], [-8.10049, 41.678562], [-8.095503, 41.684369], [-8.083518, 41.682226]], [[-8.023561, 41.674445], [-8.011569, 41.67301], [-8.003036, 41.668751], [-7.997283, 41.659694], [-7.99902, 41.650702], [-8.009547, 41.641787], [-8.0241, 41.638751], [-8.036051, 41.642469], [-8.044943, 41.651093], [-8.046154, 41.66011], [-8.039686, 41.669063], [-8.023561, 41.674445]], [[-8.077391, 41.624337], [-8.069892, 41.615269], [-8.075391, 41.606307], [-8.084648, 41.602447], [-8.096606, 41.605451], [-8.10082, 41.615515], [-8.096363, 41.622876], [-8.084306, 41.626588], [-8.077391, 41.624337]]], [[[-8.465327, 41.692076], [-8.432033, 41.673179], [-8.412133, 41.653558], [-8.396293, 41.641069], [-8.372376, 41.630929], [-8.360381, 41.629844], [-8.348356, 41.631848], [-8.336286, 41.638137], [-8.329836, 41.6441], [-8.324311, 41.653075], [-8.319924, 41.671063], [-8.318917, 41.698079], [-8.31313, 41.707051], [-8.275319, 41.72127], [-8.263207, 41.729158], [-8.252433, 41.742701], [-8.250067, 41.751692], [-8.250769, 41.760704], [-8.257551, 41.77374], [-8.261762, 41.774235], [-8.271366, 41.766346], [-8.277074, 41.764651], [-8.270993, 41.760834], [-8.265794, 41.751794], [-8.268162, 41.742802], [-8.275149, 41.736471], [-8.287212, 41.733026], [-8.299211, 41.73535], [-8.309073, 41.743055], [-8.310865, 41.752073], [-8.306852, 41.758826], [-8.311096, 41.762195], [-8.318308, 41.761283], [-8.325233, 41.765098], [-8.328234, 41.763292], [-8.336653, 41.763728], [-8.341756, 41.761468], [-8.344765, 41.762363], [-8.349267, 41.760103], [-8.352557, 41.755145], [-8.349814, 41.744122], [-8.352516, 41.743441], [-8.352203, 41.739616], [-8.357897, 41.735103], [-8.362407, 41.735994], [-8.368703, 41.73193], [-8.374122, 41.734845], [-8.384922, 41.73032], [-8.387032, 41.731891], [-8.388701, 41.731212], [-8.384687, 41.725471], [-8.382904, 41.716454], [-8.382903, 41.69844], [-8.371761, 41.694299], [-8.35982, 41.686551], [-8.354223, 41.680268], [-8.350526, 41.67124], [-8.35144, 41.662238], [-8.360162, 41.652007], [-8.372215, 41.647517], [-8.384221, 41.647837], [-8.396185, 41.652577], [-8.405915, 41.662533], [-8.408975, 41.671556], [-8.407135, 41.689561], [-8.431807, 41.698826], [-8.444005, 41.707707], [-8.453868, 41.697961], [-8.453255, 41.695487], [-8.458061, 41.695698], [-8.465327, 41.692076]]], [[[-8.468978, 41.562932], [-8.493122, 41.542681], [-8.517937, 41.527948], [-8.527329, 41.51898], [-8.541385, 41.499421], [-8.577474, 41.477066], [-8.587585, 41.465167], [-8.592921, 41.447171], [-8.587246, 41.411121], [-8.589891, 41.407219], [-8.601881, 41.402952], [-8.625817, 41.401351], [-8.649768, 41.396798], [-8.661757, 41.391765], [-8.673765, 41.382366], [-8.678508, 41.375382], [-8.680174, 41.366379], [-8.678095, 41.357365], [-8.672409, 41.348341], [-8.662977, 41.339307], [-8.650118, 41.33153], [-8.638192, 41.327069], [-8.626254, 41.325004], [-8.614304, 41.325132], [-8.602341, 41.327457], [-8.590362, 41.332215], [-8.579304, 41.339031], [-8.569791, 41.348004], [-8.563892, 41.356989], [-8.554183, 41.38018], [-8.54907, 41.383955], [-8.542181, 41.386216], [-8.458365, 41.397421], [-8.374402, 41.420931], [-8.35044, 41.423799], [-8.314519, 41.425653], [-8.304319, 41.427773], [-8.30249, 41.431414], [-8.300304, 41.454771], [-8.301103, 41.481798], [-8.307216, 41.49985], [-8.313619, 41.511024], [-8.325467, 41.524028], [-8.349278, 41.540131], [-8.380824, 41.554314], [-8.406574, 41.563457], [-8.432944, 41.569263], [-8.444933, 41.569876], [-8.456941, 41.568242], [-8.468978, 41.562932]], [[-8.445059, 41.555075], [-8.432851, 41.545575], [-8.431891, 41.536563], [-8.439633, 41.518586], [-8.433416, 41.515197], [-8.409517, 41.507627], [-8.397055, 41.500356], [-8.387923, 41.4913], [-8.385706, 41.482281], [-8.387636, 41.473284], [-8.395017, 41.464316], [-8.409986, 41.455919], [-8.421984, 41.453152], [-8.433954, 41.453364], [-8.4459, 41.456619], [-8.458813, 41.464633], [-8.469671, 41.478107], [-8.475541, 41.482726], [-8.493535, 41.489794], [-8.505421, 41.502071], [-8.507196, 41.509888], [-8.503498, 41.51888], [-8.493248, 41.526592], [-8.481227, 41.530921], [-8.472846, 41.536758], [-8.470284, 41.545753], [-8.45854, 41.554706], [-8.445059, 41.555075]], [[-8.337684, 41.501353], [-8.325792, 41.492772], [-8.324482, 41.481938], [-8.32593, 41.479449], [-8.337992, 41.471152], [-8.349971, 41.470848], [-8.356845, 41.473116], [-8.368712, 41.482189], [-8.36769, 41.491191], [-8.355019, 41.500128], [-8.349662, 41.501785], [-8.337684, 41.501353]], [[-8.55355, 41.47265], [-8.541574, 41.472567], [-8.529636, 41.467296], [-8.526384, 41.464931], [-8.52238, 41.455907], [-8.524982, 41.446911], [-8.529816, 41.4423], [-8.541829, 41.436373], [-8.5538, 41.436073], [-8.565736, 41.44124], [-8.570729, 41.447091], [-8.572647, 41.456105], [-8.568303, 41.465096], [-8.55355, 41.47265]], [[-8.625949, 41.378379], [-8.614024, 41.372695], [-8.608776, 41.366158], [-8.608458, 41.357149], [-8.615761, 41.348166], [-8.626144, 41.344309], [-8.638095, 41.344646], [-8.650015, 41.350841], [-8.654619, 41.357297], [-8.654632, 41.366305], [-8.646062, 41.375286], [-8.637908, 41.378417], [-8.625949, 41.378379]]], [[[-8.642893, 41.192631], [-8.645133, 41.204136], [-8.650741, 41.214833], [-8.662615, 41.225456], [-8.674523, 41.230121], [-8.686447, 41.231798], [-8.698381, 41.231442], [-8.710322, 41.229333], [-8.730231, 41.222383], [-8.744243, 41.213407], [-8.753076, 41.204418], [-8.760833, 41.186419], [-8.760985, 41.177411], [-8.758553, 41.168398], [-8.753488, 41.159379], [-8.746416, 41.152016], [-8.736458, 41.145462], [-8.674793, 41.146932], [-8.674849, 41.153767], [-8.672489, 41.15648], [-8.66117, 41.156307], [-8.662078, 41.158104], [-8.660313, 41.160813], [-8.657033, 41.160378], [-8.654961, 41.161963], [-8.653231, 41.169174], [-8.655366, 41.175467], [-8.647955, 41.180228], [-8.647696, 41.185181], [-8.642893, 41.192631]], [[-8.686523, 41.215869], [-8.674614, 41.211866], [-8.667323, 41.204202], [-8.665047, 41.195188], [-8.668556, 41.18619], [-8.674772, 41.179886], [-8.686717, 41.175253], [-8.698638, 41.175377], [-8.710538, 41.180452], [-8.71627, 41.186317], [-8.719043, 41.195332], [-8.716184, 41.204333], [-8.710409, 41.209816], [-8.698455, 41.215367], [-8.686523, 41.215869]]]]}}, {"id": "5", "type": "Feature", "properties": {"fill": "#ddf190", "value_min": 0.33, "value_max": -0.4}, "geometry": {"type": "MultiPolygon", "coordinates": [[[[-7.727353, 41.80141], [-7.732726, 41.802387], [-7.745901, 41.801336], [-7.761724, 41.792501], [-7.766232, 41.783542], [-7.765355, 41.774526], [-7.75864, 41.765447], [-7.742952, 41.758483], [-7.740214, 41.763924], [-7.726937, 41.771755], [-7.7254, 41.777152], [-7.727191, 41.779184], [-7.724177, 41.780299], [-7.725372, 41.781653], [-7.722296, 41.792446], [-7.728879, 41.797871], [-7.727353, 41.80141]]], [[[-7.942793, 41.767289], [-7.950956, 41.767364], [-7.960663, 41.758445], [-7.956493, 41.749401], [-7.950328, 41.745297], [-7.938297, 41.745575], [-7.933067, 41.749186], [-7.928998, 41.758155], [-7.937949, 41.766673], [-7.942793, 41.767289]]], [[[-7.858425, 41.766482], [-7.865747, 41.767695], [-7.868314, 41.76658], [-7.875638, 41.757645], [-7.866098, 41.74776], [-7.854012, 41.751079], [-7.849778, 41.757389], [-7.853784, 41.763897], [-7.858425, 41.766482]]], [[[-8.306852, 41.758826], [-8.310865, 41.752073], [-8.309073, 41.743055], [-8.299211, 41.73535], [-8.287212, 41.733026], [-8.275149, 41.736471], [-8.268162, 41.742802], [-8.265794, 41.751794], [-8.270993, 41.760834], [-8.277074, 41.764651], [-8.280681, 41.764083], [-8.284038, 41.761109], [-8.284931, 41.757507], [-8.287033, 41.756829], [-8.306852, 41.758826]]], [[[-8.444005, 41.707707], [-8.431807, 41.698826], [-8.407135, 41.689561], [-8.408975, 41.671556], [-8.405915, 41.662533], [-8.396185, 41.652577], [-8.384221, 41.647837], [-8.372215, 41.647517], [-8.360162, 41.652007], [-8.35144, 41.662238], [-8.350526, 41.67124], [-8.354223, 41.680268], [-8.35982, 41.686551], [-8.371761, 41.694299], [-8.382903, 41.69844], [-8.382904, 41.716454], [-8.384687, 41.725471], [-8.388701, 41.731212], [-8.393033, 41.729852], [-8.396942, 41.730518], [-8.400531, 41.726683], [-8.402934, 41.726452], [-8.404721, 41.722847], [-8.417349, 41.725067], [-8.422737, 41.720552], [-8.429643, 41.719859], [-8.430533, 41.717381], [-8.435927, 41.714441], [-8.441632, 41.713975], [-8.444005, 41.707707]], [[-8.379591, 41.671401], [-8.380079, 41.662396], [-8.384091, 41.661511], [-8.385743, 41.662427], [-8.385979, 41.671435], [-8.383984, 41.672677], [-8.379591, 41.671401]]], [[[-8.010401, 41.749206], [-8.022489, 41.745219], [-8.026191, 41.741006], [-8.026632, 41.732003], [-8.022757, 41.727562], [-8.010834, 41.720996], [-7.998793, 41.722228], [-7.988958, 41.731677], [-7.9908, 41.7407], [-7.998418, 41.746398], [-8.010401, 41.749206]]], [[[-7.825958, 41.708815], [-7.826354, 41.712118], [-7.830568, 41.717377], [-7.84245, 41.725144], [-7.854441, 41.726964], [-7.866497, 41.725108], [-7.878517, 41.725244], [-7.890473, 41.729169], [-7.902519, 41.727826], [-7.910468, 41.721953], [-7.911709, 41.712958], [-7.902925, 41.703978], [-7.879, 41.697472], [-7.867127, 41.689243], [-7.858984, 41.687126], [-7.857773, 41.689538], [-7.855076, 41.688181], [-7.852668, 41.689526], [-7.847538, 41.695365], [-7.837309, 41.699391], [-7.835792, 41.702763], [-7.839682, 41.705924], [-7.838465, 41.709522], [-7.832453, 41.710407], [-7.825958, 41.708815]]], [[[-8.107305, 41.699787], [-8.119273, 41.703494], [-8.12495, 41.696765], [-8.119464, 41.689491], [-8.107405, 41.692596], [-8.104472, 41.696608], [-8.107305, 41.699787]], [[-8.11862, 41.696717], [-8.11937, 41.696363], [-8.119644, 41.696725], [-8.119361, 41.69706], [-8.11862, 41.696717]]], [[[-8.083518, 41.682226], [-8.095503, 41.684369], [-8.10049, 41.678562], [-8.095657, 41.673329], [-8.083641, 41.673569], [-8.080325, 41.678403], [-8.083518, 41.682226]]], [[[-8.023561, 41.674445], [-8.039686, 41.669063], [-8.046154, 41.66011], [-8.044943, 41.651093], [-8.036051, 41.642469], [-8.0241, 41.638751], [-8.009547, 41.641787], [-7.99902, 41.650702], [-7.997283, 41.659694], [-8.003036, 41.668751], [-8.011569, 41.67301], [-8.023561, 41.674445]], [[-8.021738, 41.659905], [-8.023807, 41.658142], [-8.026095, 41.659942], [-8.023759, 41.661312], [-8.021738, 41.659905]]], [[[-8.077391, 41.624337], [-8.084306, 41.626588], [-8.096363, 41.622876], [-8.10082, 41.615515], [-8.096606, 41.605451], [-8.084648, 41.602447], [-8.075391, 41.606307], [-8.069892, 41.615269], [-8.077391, 41.624337]]], [[[-8.445059, 41.555075], [-8.45854, 41.554706], [-8.470284, 41.545753], [-8.472846, 41.536758], [-8.481227, 41.530921], [-8.493248, 41.526592], [-8.503498, 41.51888], [-8.507196, 41.509888], [-8.505421, 41.502071], [-8.493535, 41.489794], [-8.475541, 41.482726], [-8.469671, 41.478107], [-8.458813, 41.464633], [-8.4459, 41.456619], [-8.433954, 41.453364], [-8.421984, 41.453152], [-8.409986, 41.455919], [-8.395017, 41.464316], [-8.387636, 41.473284], [-8.385706, 41.482281], [-8.387923, 41.4913], [-8.397055, 41.500356], [-8.409517, 41.507627], [-8.433416, 41.515197], [-8.439633, 41.518586], [-8.431891, 41.536563], [-8.432851, 41.545575], [-8.445059, 41.555075]]], [[[-8.084887, 41.544436], [-8.097403, 41.548226], [-8.109397, 41.547988], [-8.121444, 41.543772], [-8.130977, 41.534682], [-8.133812, 41.525697], [-8.129275, 41.507648], [-8.138652, 41.489704], [-8.140531, 41.48071], [-8.137557, 41.471681], [-8.134444, 41.46789], [-8.12256, 41.461125], [-8.110603, 41.459872], [-8.098588, 41.462854], [-8.087435, 41.471294], [-8.082968, 41.480266], [-8.079977, 41.500557], [-8.093, 41.504613], [-8.089398, 41.519242], [-8.090594, 41.522169], [-8.093588, 41.52307], [-8.091487, 41.531173], [-8.097775, 41.536127], [-8.097774, 41.537927], [-8.106759, 41.543106], [-8.10616, 41.543782], [-8.101666, 41.542655], [-8.094175, 41.544904], [-8.087885, 41.542876], [-8.084887, 41.544436]]], [[[-8.337684, 41.501353], [-8.349662, 41.501785], [-8.355019, 41.500128], [-8.36769, 41.491191], [-8.368712, 41.482189], [-8.356845, 41.473116], [-8.349971, 41.470848], [-8.337992, 41.471152], [-8.32593, 41.479449], [-8.324482, 41.481938], [-8.325792, 41.492772], [-8.337684, 41.501353]]], [[[-8.55355, 41.47265], [-8.568303, 41.465096], [-8.572647, 41.456105], [-8.570729, 41.447091], [-8.565736, 41.44124], [-8.5538, 41.436073], [-8.541829, 41.436373], [-8.529816, 41.4423], [-8.524982, 41.446911], [-8.52238, 41.455907], [-8.526384, 41.464931], [-8.529636, 41.467296], [-8.541574, 41.472567], [-8.55355, 41.47265]]], [[[-8.18689, 41.375629], [-8.18649, 41.381963], [-8.190326, 41.390997], [-8.201423, 41.400082], [-8.219026, 41.404986], [-8.230999, 41.404235], [-8.243013, 41.399873], [-8.252404, 41.391417], [-8.255146, 41.384976], [-8.255351, 41.373421], [-8.248446, 41.363161], [-8.244864, 41.365457], [-8.244272, 41.368384], [-8.239197, 41.371315], [-8.232024, 41.369971], [-8.224854, 41.370878], [-8.21738, 41.368182], [-8.214399, 41.373587], [-8.208127, 41.376968], [-8.199163, 41.377423], [-8.194976, 41.374275], [-8.191691, 41.376302], [-8.18689, 41.375629]]], [[[-8.625949, 41.378379], [-8.637908, 41.378417], [-8.646062, 41.375286], [-8.654632, 41.366305], [-8.654619, 41.357297], [-8.650015, 41.350841], [-8.638095, 41.344646], [-8.626144, 41.344309], [-8.615761, 41.348166], [-8.608458, 41.357149], [-8.608776, 41.366158], [-8.614024, 41.372695], [-8.625949, 41.378379]]], [[[-8.686523, 41.215869], [-8.698455, 41.215367], [-8.710409, 41.209816], [-8.716184, 41.204333], [-8.719043, 41.195332], [-8.71627, 41.186317], [-8.710538, 41.180452], [-8.698638, 41.175377], [-8.686717, 41.175253], [-8.674772, 41.179886], [-8.668556, 41.18619], [-8.665047, 41.195188], [-8.667323, 41.204202], [-8.674614, 41.211866], [-8.686523, 41.215869]]]]}}, {"id": "2", "type": "Feature", "properties": {"fill": "#74c16c", "value_min": 0.13, "value_max": -0.2}, "geometry": {"type": "MultiPolygon", "coordinates": [[[[-8.224772, 41.793628], [-8.235966, 41.742592], [-8.24114, 41.73362], [-8.265965, 41.70676], [-8.272069, 41.697791], [-8.27575, 41.679801], [-8.271862, 41.661762], [-8.264147, 41.646773], [-8.252304, 41.632418], [-8.228512, 41.614048], [-8.215299, 41.607347], [-8.192678, 41.600145], [-8.168715, 41.597301], [-8.15671, 41.597729], [-8.144687, 41.599554], [-8.132622, 41.604447], [-8.120481, 41.614741], [-8.106668, 41.633575], [-8.104397, 41.642565], [-8.110231, 41.651617], [-8.119885, 41.658612], [-8.141144, 41.669866], [-8.146466, 41.678913], [-8.144228, 41.687904], [-8.138007, 41.696864], [-8.131347, 41.699382], [-8.119146, 41.712776], [-8.112993, 41.714688], [-8.107001, 41.721769], [-8.097454, 41.723574], [-8.094927, 41.725417], [-8.083108, 41.711121], [-8.081668, 41.705435], [-8.075203, 41.696376], [-8.059432, 41.686052], [-8.047435, 41.684829], [-8.035361, 41.688745], [-8.025037, 41.695961], [-8.023429, 41.704955], [-8.028594, 41.714005], [-8.04679, 41.728504], [-8.079072, 41.741442], [-8.082575, 41.748538], [-8.085626, 41.768515], [-8.085674, 41.795536], [-8.081699, 41.809957], [-8.076981, 41.813641], [-8.082892, 41.810493], [-8.091013, 41.812521], [-8.093421, 41.811397], [-8.093723, 41.808471], [-8.101845, 41.809824], [-8.104853, 41.81185], [-8.115984, 41.812302], [-8.123807, 41.808702], [-8.138247, 41.808477], [-8.139751, 41.813203], [-8.14276, 41.812978], [-8.145769, 41.815453], [-8.149078, 41.814777], [-8.153893, 41.817928], [-8.161415, 41.818376], [-8.165326, 41.81815], [-8.173744, 41.808019], [-8.177054, 41.808017], [-8.182773, 41.812516], [-8.190291, 41.809587], [-8.197158, 41.814129], [-8.201063, 41.808724], [-8.204973, 41.807372], [-8.205872, 41.804445], [-8.213692, 41.803765], [-8.217598, 41.80016], [-8.217589, 41.793634], [-8.224772, 41.793628]], [[-8.166369, 41.779288], [-8.154367, 41.776868], [-8.142419, 41.77056], [-8.132897, 41.759874], [-8.129672, 41.750843], [-8.12834, 41.732819], [-8.122571, 41.714761], [-8.131303, 41.702641], [-8.143368, 41.699168], [-8.155382, 41.699508], [-8.167458, 41.695028], [-8.179718, 41.675924], [-8.191846, 41.666761], [-8.203898, 41.663577], [-8.215908, 41.663668], [-8.227882, 41.666806], [-8.239801, 41.674687], [-8.244068, 41.679597], [-8.247944, 41.688629], [-8.24783, 41.697635], [-8.244031, 41.706618], [-8.217908, 41.733464], [-8.211535, 41.751434], [-8.202634, 41.765861], [-8.190489, 41.77497], [-8.17841, 41.778607], [-8.166369, 41.779288]], [[-8.046918, 41.719811], [-8.038473, 41.714088], [-8.032766, 41.705033], [-8.037476, 41.696066], [-8.047339, 41.691334], [-8.059342, 41.692245], [-8.065589, 41.696298], [-8.072132, 41.705358], [-8.07028, 41.71435], [-8.058919, 41.721285], [-8.046918, 41.719811]], [[-8.131964, 41.653502], [-8.12003, 41.647904], [-8.115053, 41.642647], [-8.114153, 41.633633], [-8.119806, 41.62467], [-8.132458, 41.616663], [-8.144479, 41.615261], [-8.156438, 41.618631], [-8.165105, 41.625007], [-8.168529, 41.634039], [-8.166909, 41.643035], [-8.154955, 41.651955], [-8.143959, 41.654556], [-8.131964, 41.653502]]], [[[-8.067242, 41.816159], [-8.057547, 41.815086], [-8.033586, 41.807167], [-8.009675, 41.796449], [-7.990649, 41.785733], [-7.973846, 41.778878], [-7.94984, 41.775238], [-7.925755, 41.776456], [-7.910446, 41.785001], [-7.906531, 41.79397], [-7.907324, 41.811991], [-7.905043, 41.820976], [-7.888463, 41.845573], [-7.880125, 41.853218], [-7.888076, 41.855486], [-7.891675, 41.859094], [-7.898893, 41.86136], [-7.902203, 41.861591], [-7.904318, 41.859795], [-7.907309, 41.865203], [-7.906095, 41.868126], [-7.910299, 41.871285], [-7.909985, 41.875111], [-7.91479, 41.879171], [-7.931111, 41.876725], [-7.924142, 41.87289], [-7.917567, 41.866129], [-7.912963, 41.857079], [-7.911841, 41.848061], [-7.913504, 41.83907], [-7.926594, 41.812173], [-7.92013, 41.794099], [-7.923891, 41.785127], [-7.93774, 41.77933], [-7.949774, 41.77929], [-7.96685, 41.785522], [-7.972324, 41.794578], [-7.974234, 41.803602], [-7.979201, 41.812653], [-7.995871, 41.830813], [-7.999777, 41.839854], [-8.000038, 41.850716], [-8.003089, 41.850494], [-8.005804, 41.847346], [-8.007928, 41.838796], [-8.012753, 41.833624], [-8.013363, 41.829124], [-8.017873, 41.831379], [-8.02901, 41.829589], [-8.037134, 41.831171], [-8.041351, 41.828023], [-8.041054, 41.825097], [-8.045268, 41.824425], [-8.046775, 41.821951], [-8.056712, 41.81588], [-8.064534, 41.81701], [-8.067242, 41.816159]]], [[[-7.847703, 41.862738], [-7.840029, 41.859581], [-7.804405, 41.83163], [-7.792469, 41.825955], [-7.780483, 41.823059], [-7.768457, 41.822237], [-7.741058, 41.824471], [-7.743152, 41.825154], [-7.743143, 41.826729], [-7.738918, 41.82874], [-7.742497, 41.833954], [-7.756222, 41.832286], [-7.768249, 41.833083], [-7.782787, 41.837759], [-7.795388, 41.846899], [-7.801666, 41.855971], [-7.804727, 41.869684], [-7.810328, 41.870825], [-7.814229, 41.873537], [-7.823863, 41.874013], [-7.825059, 41.875817], [-7.830479, 41.875831], [-7.830789, 41.874031], [-7.832894, 41.874712], [-7.83772, 41.872924], [-7.842528, 41.875187], [-7.841663, 41.866632], [-7.847703, 41.862738]]], [[[-8.511967, 41.670414], [-8.509856, 41.668755], [-8.522103, 41.658811], [-8.525706, 41.659023], [-8.527769, 41.652714], [-8.534066, 41.652017], [-8.537951, 41.649302], [-8.537634, 41.646602], [-8.543876, 41.637352], [-8.543855, 41.633976], [-8.536342, 41.631977], [-8.535128, 41.62973], [-8.543431, 41.61462], [-8.554533, 41.615255], [-8.557244, 41.617046], [-8.562639, 41.61635], [-8.568056, 41.619031], [-8.570735, 41.616095], [-8.577321, 41.614269], [-8.581231, 41.615829], [-8.585766, 41.620988], [-8.591462, 41.620515], [-8.596534, 41.616668], [-8.601628, 41.615972], [-8.603996, 41.611686], [-8.613256, 41.606696], [-8.619881, 41.610269], [-8.621338, 41.604636], [-8.628833, 41.604378], [-8.636302, 41.600744], [-8.64075, 41.594422], [-8.645536, 41.593051], [-8.646744, 41.594171], [-8.649125, 41.591909], [-8.656622, 41.5921], [-8.660788, 41.588255], [-8.663794, 41.589141], [-8.665265, 41.585758], [-8.66948, 41.587989], [-8.684455, 41.586117], [-8.685608, 41.58071], [-8.697261, 41.576376], [-8.701703, 41.570277], [-8.707704, 41.570923], [-8.712485, 41.569323], [-8.716422, 41.573805], [-8.720316, 41.57356], [-8.725151, 41.577811], [-8.726633, 41.576003], [-8.734424, 41.575737], [-8.736564, 41.580228], [-8.738354, 41.579318], [-8.740778, 41.582006], [-8.74467, 41.581535], [-8.750711, 41.58623], [-8.756374, 41.582823], [-8.75635, 41.580347], [-8.762327, 41.578514], [-8.764443, 41.580303], [-8.767441, 41.580286], [-8.769874, 41.583874], [-8.768997, 41.58613], [-8.773228, 41.589482], [-8.775371, 41.593972], [-8.78556, 41.593464], [-8.797327, 41.600599], [-8.804218, 41.600109], [-8.80456, 41.604158], [-8.809434, 41.611332], [-8.828644, 41.609656], [-8.82839, 41.585633], [-8.818497, 41.554794], [-8.8221, 41.547542], [-8.821965, 41.534907], [-8.815926, 41.525624], [-8.81063, 41.5101], [-8.813279, 41.503483], [-8.812636, 41.496944], [-8.804699, 41.482068], [-8.798552, 41.474753], [-8.80154, 41.446836], [-8.806115, 41.43713], [-8.807354, 41.425915], [-8.811202, 41.416419], [-8.802976, 41.227632], [-8.698318, 41.24509], [-8.674439, 41.247051], [-8.662507, 41.246437], [-8.650592, 41.24278], [-8.63872, 41.231451], [-8.629843, 41.213096], [-8.619106, 41.178553], [-8.613374, 41.177451], [-8.608583, 41.174095], [-8.609164, 41.172066], [-8.605845, 41.166228], [-8.602852, 41.164214], [-8.59422, 41.165149], [-8.589766, 41.167193], [-8.589194, 41.170572], [-8.584154, 41.174022], [-8.591315, 41.179369], [-8.60315, 41.193968], [-8.608236, 41.204016], [-8.613324, 41.222049], [-8.612341, 41.240062], [-8.608191, 41.249056], [-8.598903, 41.258031], [-8.590796, 41.26268], [-8.566878, 41.269189], [-8.543, 41.269179], [-8.519168, 41.262786], [-8.509322, 41.257684], [-8.497298, 41.248625], [-8.487537, 41.236208], [-8.484411, 41.240495], [-8.476644, 41.237817], [-8.475756, 41.23917], [-8.471283, 41.239184], [-8.471604, 41.243459], [-8.469227, 41.245267], [-8.463258, 41.244384], [-8.459989, 41.246644], [-8.455512, 41.245982], [-8.455541, 41.251834], [-8.452276, 41.25522], [-8.449891, 41.255452], [-8.449304, 41.257479], [-8.447812, 41.257258], [-8.449028, 41.261982], [-8.442462, 41.26245], [-8.458473, 41.275472], [-8.471252, 41.283261], [-8.483148, 41.289053], [-8.506974, 41.296844], [-8.518902, 41.299128], [-8.542779, 41.300727], [-8.602533, 41.295899], [-8.614472, 41.296616], [-8.626399, 41.29972], [-8.650215, 41.31332], [-8.697349, 41.34841], [-8.715941, 41.366472], [-8.72067, 41.375492], [-8.721493, 41.384501], [-8.717337, 41.393499], [-8.705234, 41.402476], [-8.682454, 41.411423], [-8.649637, 41.421278], [-8.637642, 41.426217], [-8.625628, 41.434245], [-8.615452, 41.447249], [-8.600076, 41.474219], [-8.592463, 41.4832], [-8.572563, 41.501142], [-8.550164, 41.528079], [-8.535419, 41.537028], [-8.505073, 41.547704], [-8.493024, 41.555321], [-8.468856, 41.577889], [-8.456816, 41.583139], [-8.416292, 41.590528], [-8.399747, 41.599451], [-8.394139, 41.608428], [-8.39408, 41.617435], [-8.398126, 41.626464], [-8.41457, 41.644563], [-8.43217, 41.6576], [-8.456119, 41.666165], [-8.480119, 41.669134], [-8.511967, 41.670414]], [[-8.468259, 41.650542], [-8.456234, 41.652435], [-8.444233, 41.651516], [-8.432259, 41.647398], [-8.420333, 41.6382], [-8.413142, 41.626541], [-8.413433, 41.617536], [-8.419791, 41.608561], [-8.432659, 41.601776], [-8.444677, 41.599718], [-8.480673, 41.600121], [-8.488235, 41.572857], [-8.495335, 41.563881], [-8.505003, 41.556911], [-8.517027, 41.552561], [-8.529027, 41.551361], [-8.54101, 41.552476], [-8.564946, 41.559299], [-8.576024, 41.555199], [-8.578453, 41.528186], [-8.581311, 41.519189], [-8.589258, 41.50759], [-8.614477, 41.483275], [-8.625457, 41.463994], [-8.637508, 41.450296], [-8.64952, 41.442957], [-8.661511, 41.439013], [-8.685464, 41.436443], [-8.703157, 41.438501], [-8.72134, 41.444136], [-8.740644, 41.456607], [-8.748155, 41.465631], [-8.752887, 41.474649], [-8.755203, 41.483661], [-8.754603, 41.501675], [-8.751851, 41.510676], [-8.741368, 41.528668], [-8.724579, 41.546644], [-8.713602, 41.555624], [-8.700002, 41.564597], [-8.684807, 41.572193], [-8.660778, 41.579676], [-8.648773, 41.581373], [-8.62478, 41.581383], [-8.588836, 41.574185], [-8.576777, 41.584018], [-8.573317, 41.591218], [-8.564268, 41.600192], [-8.552619, 41.60778], [-8.540584, 41.612576], [-8.528563, 41.61511], [-8.502816, 41.617957], [-8.490893, 41.635919], [-8.481066, 41.644882], [-8.468259, 41.650542]], [[-8.733736, 41.340262], [-8.709853, 41.335393], [-8.697926, 41.330105], [-8.683793, 41.32135], [-8.673484, 41.312314], [-8.666325, 41.303285], [-8.662666, 41.294267], [-8.662079, 41.285258], [-8.66547, 41.27626], [-8.676159, 41.267282], [-8.698253, 41.259206], [-8.7102, 41.257035], [-8.734078, 41.255933], [-8.757938, 41.259655], [-8.776431, 41.267521], [-8.78733, 41.276549], [-8.793076, 41.285568], [-8.795921, 41.29458], [-8.795874, 41.303588], [-8.792976, 41.312591], [-8.787216, 41.321588], [-8.769613, 41.334231], [-8.757647, 41.338349], [-8.745688, 41.340228], [-8.733736, 41.340262]]], [[[-8.26512, 41.561019], [-8.277243, 41.553709], [-8.2862, 41.544758], [-8.291382, 41.535783], [-8.29426, 41.517786], [-8.289854, 41.499744], [-8.278025, 41.478957], [-8.266155, 41.469464], [-8.254229, 41.465127], [-8.242269, 41.463904], [-8.230283, 41.464855], [-8.218265, 41.468464], [-8.206195, 41.476168], [-8.195513, 41.490115], [-8.190505, 41.508095], [-8.193577, 41.527853], [-8.205317, 41.547996], [-8.217183, 41.558286], [-8.229114, 41.563431], [-8.241079, 41.565798], [-8.253085, 41.564717], [-8.26512, 41.561019]], [[-8.241406, 41.537881], [-8.229449, 41.535212], [-8.217543, 41.528442], [-8.209417, 41.517234], [-8.207798, 41.508215], [-8.209709, 41.499221], [-8.218024, 41.488505], [-8.230079, 41.48209], [-8.24208, 41.480123], [-8.254038, 41.481829], [-8.26595, 41.487628], [-8.275661, 41.499656], [-8.278008, 41.508678], [-8.276897, 41.517678], [-8.271487, 41.526651], [-8.26545, 41.531901], [-8.253406, 41.5368], [-8.241406, 41.537881]]]]}}, {"id": "3", "type": "Feature", "properties": {"fill": "#98d277", "value_min": 0.2, "value_max": -0.27}, "geometry": {"type": "MultiPolygon", "coordinates": [[[[-8.511967, 41.670414], [-8.480119, 41.669134], [-8.456119, 41.666165], [-8.43217, 41.6576], [-8.41457, 41.644563], [-8.398126, 41.626464], [-8.39408, 41.617435], [-8.394139, 41.608428], [-8.399747, 41.599451], [-8.416292, 41.590528], [-8.456816, 41.583139], [-8.468856, 41.577889], [-8.493024, 41.555321], [-8.505073, 41.547704], [-8.535419, 41.537028], [-8.550164, 41.528079], [-8.572563, 41.501142], [-8.592463, 41.4832], [-8.600076, 41.474219], [-8.615452, 41.447249], [-8.625628, 41.434245], [-8.637642, 41.426217], [-8.649637, 41.421278], [-8.682454, 41.411423], [-8.705234, 41.402476], [-8.717337, 41.393499], [-8.721493, 41.384501], [-8.72067, 41.375492], [-8.715941, 41.366472], [-8.697349, 41.34841], [-8.650215, 41.31332], [-8.626399, 41.29972], [-8.614472, 41.296616], [-8.602533, 41.295899], [-8.542779, 41.300727], [-8.518902, 41.299128], [-8.506974, 41.296844], [-8.483148, 41.289053], [-8.471252, 41.283261], [-8.458473, 41.275472], [-8.442462, 41.26245], [-8.438004, 41.264938], [-8.438023, 41.268989], [-8.434745, 41.269673], [-8.432691, 41.277107], [-8.427032, 41.279372], [-8.429143, 41.284319], [-8.426171, 41.287028], [-8.426488, 41.291079], [-8.425013, 41.294909], [-8.422037, 41.296942], [-8.422647, 41.299867], [-8.407744, 41.304856], [-8.406262, 41.307335], [-8.403277, 41.307342], [-8.401801, 41.311398], [-8.399712, 41.311628], [-8.400316, 41.313202], [-8.396738, 41.314336], [-8.398835, 41.316131], [-8.393775, 41.31997], [-8.393489, 41.323122], [-8.391105, 41.324253], [-8.386325, 41.323588], [-8.380382, 41.331254], [-8.375305, 41.33104], [-8.37201, 41.328346], [-8.361563, 41.329718], [-8.358276, 41.329049], [-8.357673, 41.327249], [-8.350207, 41.327264], [-8.346032, 41.328847], [-8.342462, 41.333131], [-8.333215, 41.336299], [-8.326363, 41.342163], [-8.324568, 41.341041], [-8.323376, 41.341943], [-8.320676, 41.338121], [-8.312604, 41.334983], [-8.313794, 41.333405], [-8.31139, 41.328007], [-8.307502, 41.325762], [-8.305116, 41.326891], [-8.303024, 41.325994], [-8.303615, 41.323742], [-8.301216, 41.319694], [-8.296431, 41.316774], [-8.297618, 41.313846], [-8.296116, 41.310022], [-8.281801, 41.316569], [-8.281807, 41.319243], [-8.287431, 41.328587], [-8.293486, 41.346639], [-8.300637, 41.418743], [-8.290576, 41.426343], [-8.206658, 41.438224], [-8.194643, 41.441823], [-8.182557, 41.451085], [-8.174878, 41.471955], [-8.166743, 41.507925], [-8.163161, 41.534921], [-8.16001, 41.543906], [-8.154063, 41.552869], [-8.145199, 41.560726], [-8.115409, 41.5796], [-8.112348, 41.588584], [-8.11332, 41.606605], [-8.110991, 41.615595], [-8.096213, 41.633578], [-8.085111, 41.642413], [-8.084895, 41.651418], [-8.113779, 41.669659], [-8.130329, 41.687799], [-8.130256, 41.696806], [-8.119204, 41.708512], [-8.107159, 41.710367], [-8.096916, 41.705556], [-8.088267, 41.69648], [-8.074559, 41.687364], [-8.059606, 41.674148], [-8.047566, 41.675935], [-8.013213, 41.686853], [-7.999941, 41.695746], [-8.002481, 41.704775], [-8.011017, 41.709083], [-8.029106, 41.723017], [-8.037838, 41.732097], [-8.04153, 41.741135], [-8.040243, 41.750131], [-8.034326, 41.757913], [-8.022196, 41.764511], [-8.010143, 41.766037], [-7.986115, 41.763918], [-7.949902, 41.77141], [-7.937876, 41.771104], [-7.913876, 41.767363], [-7.901791, 41.770532], [-7.88461, 41.784753], [-7.880718, 41.793722], [-7.889228, 41.811818], [-7.884124, 41.820775], [-7.876759, 41.826056], [-7.864689, 41.827654], [-7.852717, 41.823764], [-7.847313, 41.820412], [-7.840878, 41.812519], [-7.829023, 41.802407], [-7.817052, 41.798851], [-7.805026, 41.798232], [-7.792944, 41.800707], [-7.7626, 41.810523], [-7.74454, 41.813791], [-7.728171, 41.814935], [-7.732041, 41.821514], [-7.741058, 41.824471], [-7.768457, 41.822237], [-7.780483, 41.823059], [-7.792469, 41.825955], [-7.804405, 41.83163], [-7.840029, 41.859581], [-7.847703, 41.862738], [-7.849515, 41.861475], [-7.858542, 41.862622], [-7.859456, 41.860148], [-7.864877, 41.859711], [-7.87033, 41.851395], [-7.873043, 41.850501], [-7.873066, 41.844875], [-7.880125, 41.853218], [-7.888463, 41.845573], [-7.905043, 41.820976], [-7.907324, 41.811991], [-7.906531, 41.79397], [-7.910446, 41.785001], [-7.925755, 41.776456], [-7.94984, 41.775238], [-7.973846, 41.778878], [-7.990649, 41.785733], [-8.009675, 41.796449], [-8.033586, 41.807167], [-8.057547, 41.815086], [-8.067242, 41.816159], [-8.06995, 41.816113], [-8.072962, 41.813414], [-8.076981, 41.813641], [-8.081699, 41.809957], [-8.085674, 41.795536], [-8.085626, 41.768515], [-8.082575, 41.748538], [-8.079072, 41.741442], [-8.04679, 41.728504], [-8.028594, 41.714005], [-8.023429, 41.704955], [-8.025037, 41.695961], [-8.035361, 41.688745], [-8.047435, 41.684829], [-8.059432, 41.686052], [-8.075203, 41.696376], [-8.081668, 41.705435], [-8.083108, 41.711121], [-8.094927, 41.725417], [-8.097454, 41.723574], [-8.107001, 41.721769], [-8.112993, 41.714688], [-8.119146, 41.712776], [-8.131347, 41.699382], [-8.138007, 41.696864], [-8.144228, 41.687904], [-8.146466, 41.678913], [-8.141144, 41.669866], [-8.119885, 41.658612], [-8.110231, 41.651617], [-8.104397, 41.642565], [-8.106668, 41.633575], [-8.120481, 41.614741], [-8.132622, 41.604447], [-8.144687, 41.599554], [-8.15671, 41.597729], [-8.168715, 41.597301], [-8.192678, 41.600145], [-8.215299, 41.607347], [-8.228512, 41.614048], [-8.252304, 41.632418], [-8.264147, 41.646773], [-8.271862, 41.661762], [-8.27575, 41.679801], [-8.272069, 41.697791], [-8.265965, 41.70676], [-8.24114, 41.73362], [-8.235966, 41.742592], [-8.224772, 41.793628], [-8.229917, 41.791598], [-8.240744, 41.791588], [-8.24074, 41.789338], [-8.244347, 41.787984], [-8.245546, 41.785731], [-8.251257, 41.784375], [-8.251845, 41.777172], [-8.257551, 41.77374], [-8.250769, 41.760704], [-8.250067, 41.751692], [-8.252433, 41.742701], [-8.263207, 41.729158], [-8.275319, 41.72127], [-8.31313, 41.707051], [-8.318917, 41.698079], [-8.319924, 41.671063], [-8.324311, 41.653075], [-8.329836, 41.6441], [-8.336286, 41.638137], [-8.348356, 41.631848], [-8.360381, 41.629844], [-8.372376, 41.630929], [-8.396293, 41.641069], [-8.412133, 41.653558], [-8.432033, 41.673179], [-8.465327, 41.692076], [-8.482012, 41.682123], [-8.484371, 41.674238], [-8.49308, 41.674886], [-8.499963, 41.671038], [-8.50927, 41.671233], [-8.51018, 41.672806], [-8.511967, 41.670414]], [[-8.468978, 41.562932], [-8.456941, 41.568242], [-8.444933, 41.569876], [-8.432944, 41.569263], [-8.406574, 41.563457], [-8.380824, 41.554314], [-8.349278, 41.540131], [-8.325467, 41.524028], [-8.313619, 41.511024], [-8.307216, 41.49985], [-8.301103, 41.481798], [-8.300304, 41.454771], [-8.30249, 41.431414], [-8.304319, 41.427773], [-8.314519, 41.425653], [-8.35044, 41.423799], [-8.374402, 41.420931], [-8.458365, 41.397421], [-8.542181, 41.386216], [-8.54907, 41.383955], [-8.554183, 41.38018], [-8.563892, 41.356989], [-8.569791, 41.348004], [-8.579304, 41.339031], [-8.590362, 41.332215], [-8.602341, 41.327457], [-8.614304, 41.325132], [-8.626254, 41.325004], [-8.638192, 41.327069], [-8.650118, 41.33153], [-8.662977, 41.339307], [-8.672409, 41.348341], [-8.678095, 41.357365], [-8.680174, 41.366379], [-8.678508, 41.375382], [-8.673765, 41.382366], [-8.661757, 41.391765], [-8.649768, 41.396798], [-8.625817, 41.401351], [-8.601881, 41.402952], [-8.589891, 41.407219], [-8.587246, 41.411121], [-8.592921, 41.447171], [-8.587585, 41.465167], [-8.577474, 41.477066], [-8.541385, 41.499421], [-8.527329, 41.51898], [-8.517937, 41.527948], [-8.493122, 41.542681], [-8.468978, 41.562932]], [[-8.26512, 41.561019], [-8.253085, 41.564717], [-8.241079, 41.565798], [-8.229114, 41.563431], [-8.217183, 41.558286], [-8.205317, 41.547996], [-8.193577, 41.527853], [-8.190505, 41.508095], [-8.195513, 41.490115], [-8.206195, 41.476168], [-8.218265, 41.468464], [-8.230283, 41.464855], [-8.242269, 41.463904], [-8.254229, 41.465127], [-8.266155, 41.469464], [-8.278025, 41.478957], [-8.289854, 41.499744], [-8.29426, 41.517786], [-8.291382, 41.535783], [-8.2862, 41.544758], [-8.277243, 41.553709], [-8.26512, 41.561019]]], [[[-8.619106, 41.178553], [-8.629843, 41.213096], [-8.63872, 41.231451], [-8.650592, 41.24278], [-8.662507, 41.246437], [-8.674439, 41.247051], [-8.698318, 41.24509], [-8.802976, 41.227632], [-8.799695, 41.14406], [-8.736458, 41.145462], [-8.746416, 41.152016], [-8.753488, 41.159379], [-8.758553, 41.168398], [-8.760985, 41.177411], [-8.760833, 41.186419], [-8.753076, 41.204418], [-8.744243, 41.213407], [-8.730231, 41.222383], [-8.710322, 41.229333], [-8.698381, 41.231442], [-8.686447, 41.231798], [-8.674523, 41.230121], [-8.662615, 41.225456], [-8.650741, 41.214833], [-8.645133, 41.204136], [-8.642893, 41.192631], [-8.641225, 41.196014], [-8.638841, 41.196025], [-8.638231, 41.194227], [-8.634946, 41.193341], [-8.632526, 41.188624], [-8.625658, 41.186628], [-8.62263, 41.180113], [-8.619106, 41.178553]]]]}}, {"id": "1", "type": "Feature", "properties": {"fill": "#50b061", "value_min": 0.07, "value_max": -0.13}, "geometry": {"type": "MultiPolygon", "coordinates": [[[[-7.804727, 41.869684], [-7.801666, 41.855971], [-7.795388, 41.846899], [-7.782787, 41.837759], [-7.768249, 41.833083], [-7.756222, 41.832286], [-7.742497, 41.833954], [-7.74729, 41.837772], [-7.746352, 41.843588], [-7.756034, 41.841959], [-7.768045, 41.843746], [-7.774162, 41.846674], [-7.78301, 41.855775], [-7.784515, 41.864798], [-7.78086, 41.873766], [-7.767288, 41.883177], [-7.755196, 41.885211], [-7.743183, 41.883179], [-7.72961, 41.87347], [-7.729293, 41.875972], [-7.720533, 41.880218], [-7.720523, 41.881793], [-7.725335, 41.882935], [-7.726208, 41.887665], [-7.737044, 41.888828], [-7.73944, 41.891087], [-7.74246, 41.889747], [-7.742785, 41.885922], [-7.756022, 41.888441], [-7.758719, 41.890926], [-7.756592, 41.89407], [-7.758076, 41.897901], [-7.764097, 41.898595], [-7.779227, 41.886264], [-7.785257, 41.885157], [-7.788886, 41.882467], [-7.794007, 41.882257], [-7.796739, 41.878214], [-7.794349, 41.87438], [-7.797064, 41.873488], [-7.803381, 41.874857], [-7.804727, 41.869684]]], [[[-8.000038, 41.850716], [-7.999777, 41.839854], [-7.995871, 41.830813], [-7.979201, 41.812653], [-7.974234, 41.803602], [-7.972324, 41.794578], [-7.96685, 41.785522], [-7.949774, 41.77929], [-7.93774, 41.77933], [-7.923891, 41.785127], [-7.92013, 41.794099], [-7.926594, 41.812173], [-7.913504, 41.83907], [-7.911841, 41.848061], [-7.912963, 41.857079], [-7.917567, 41.866129], [-7.924142, 41.87289], [-7.931111, 41.876725], [-7.935283, 41.874707], [-7.937389, 41.87516], [-7.941618, 41.870891], [-7.951254, 41.871132], [-7.956367, 41.87339], [-7.956362, 41.875191], [-7.960576, 41.875647], [-7.962086, 41.874074], [-7.97202, 41.875439], [-7.975637, 41.874543], [-7.987996, 41.869157], [-7.990123, 41.860157], [-7.995547, 41.858138], [-7.994044, 41.856786], [-7.994652, 41.853861], [-7.996765, 41.851162], [-8.000038, 41.850716]], [[-7.948452, 41.860109], [-7.936474, 41.855921], [-7.929636, 41.848229], [-7.928445, 41.839211], [-7.936944, 41.827507], [-7.949052, 41.823456], [-7.961067, 41.825082], [-7.9699, 41.830583], [-7.975281, 41.839638], [-7.97368, 41.848631], [-7.963056, 41.857542], [-7.948452, 41.860109]], [[-7.937384, 41.800927], [-7.931281, 41.794203], [-7.933918, 41.785221], [-7.93767, 41.783606], [-7.949706, 41.783437], [-7.954685, 41.785412], [-7.957872, 41.794448], [-7.949402, 41.802042], [-7.937384, 41.800927]]], [[[-8.166369, 41.779288], [-8.17841, 41.778607], [-8.190489, 41.77497], [-8.202634, 41.765861], [-8.211535, 41.751434], [-8.217908, 41.733464], [-8.244031, 41.706618], [-8.24783, 41.697635], [-8.247944, 41.688629], [-8.244068, 41.679597], [-8.239801, 41.674687], [-8.227882, 41.666806], [-8.215908, 41.663668], [-8.203898, 41.663577], [-8.191846, 41.666761], [-8.179718, 41.675924], [-8.167458, 41.695028], [-8.155382, 41.699508], [-8.143368, 41.699168], [-8.131303, 41.702641], [-8.122571, 41.714761], [-8.12834, 41.732819], [-8.129672, 41.750843], [-8.132897, 41.759874], [-8.142419, 41.77056], [-8.154367, 41.776868], [-8.166369, 41.779288]], [[-8.166007, 41.76012], [-8.154656, 41.75489], [-8.15112, 41.751004], [-8.149198, 41.741982], [-8.154944, 41.732944], [-8.167045, 41.727001], [-8.179063, 41.727419], [-8.188732, 41.733261], [-8.190964, 41.737165], [-8.193075, 41.742299], [-8.190308, 41.751286], [-8.178655, 41.759427], [-8.166007, 41.76012]], [[-8.131095, 41.71807], [-8.128956, 41.71481], [-8.131252, 41.706426], [-8.144473, 41.705919], [-8.14739, 41.714948], [-8.143115, 41.718244], [-8.131095, 41.71807]], [[-8.20329, 41.712807], [-8.191365, 41.705179], [-8.187963, 41.697228], [-8.191159, 41.688243], [-8.203689, 41.68046], [-8.215705, 41.680398], [-8.228508, 41.6885], [-8.230625, 41.697521], [-8.225024, 41.706491], [-8.21532, 41.71209], [-8.20329, 41.712807]]], [[[-8.046918, 41.719811], [-8.058919, 41.721285], [-8.07028, 41.71435], [-8.072132, 41.705358], [-8.065589, 41.696298], [-8.059342, 41.692245], [-8.047339, 41.691334], [-8.037476, 41.696066], [-8.032766, 41.705033], [-8.038473, 41.714088], [-8.046918, 41.719811]], [[-8.047026, 41.712517], [-8.041221, 41.705104], [-8.047241, 41.697931], [-8.059244, 41.69898], [-8.064354, 41.705295], [-8.059041, 41.712877], [-8.047026, 41.712517]]], [[[-8.131964, 41.653502], [-8.143959, 41.654556], [-8.154955, 41.651955], [-8.166909, 41.643035], [-8.168529, 41.634039], [-8.165105, 41.625007], [-8.156438, 41.618631], [-8.144479, 41.615261], [-8.132458, 41.616663], [-8.119806, 41.62467], [-8.114153, 41.633633], [-8.115053, 41.642647], [-8.12003, 41.647904], [-8.131964, 41.653502]], [[-8.132068, 41.645771], [-8.126496, 41.642735], [-8.121643, 41.633691], [-8.132357, 41.624182], [-8.14434, 41.625812], [-8.151279, 41.633913], [-8.146479, 41.642885], [-8.132068, 41.645771]]], [[[-8.468259, 41.650542], [-8.481066, 41.644882], [-8.490893, 41.635919], [-8.502816, 41.617957], [-8.528563, 41.61511], [-8.540584, 41.612576], [-8.552619, 41.60778], [-8.564268, 41.600192], [-8.573317, 41.591218], [-8.576777, 41.584018], [-8.588836, 41.574185], [-8.62478, 41.581383], [-8.648773, 41.581373], [-8.660778, 41.579676], [-8.684807, 41.572193], [-8.700002, 41.564597], [-8.713602, 41.555624], [-8.724579, 41.546644], [-8.741368, 41.528668], [-8.751851, 41.510676], [-8.754603, 41.501675], [-8.755203, 41.483661], [-8.752887, 41.474649], [-8.748155, 41.465631], [-8.740644, 41.456607], [-8.72134, 41.444136], [-8.703157, 41.438501], [-8.685464, 41.436443], [-8.661511, 41.439013], [-8.64952, 41.442957], [-8.637508, 41.450296], [-8.625457, 41.463994], [-8.614477, 41.483275], [-8.589258, 41.50759], [-8.581311, 41.519189], [-8.578453, 41.528186], [-8.576024, 41.555199], [-8.564946, 41.559299], [-8.54101, 41.552476], [-8.529027, 41.551361], [-8.517027, 41.552561], [-8.505003, 41.556911], [-8.495335, 41.563881], [-8.488235, 41.572857], [-8.480673, 41.600121], [-8.444677, 41.599718], [-8.432659, 41.601776], [-8.419791, 41.608561], [-8.413433, 41.617536], [-8.413142, 41.626541], [-8.420333, 41.6382], [-8.432259, 41.647398], [-8.444233, 41.651516], [-8.456234, 41.652435], [-8.468259, 41.650542]], [[-8.444315, 41.641958], [-8.430047, 41.635634], [-8.425565, 41.626604], [-8.428932, 41.617614], [-8.432547, 41.61463], [-8.44458, 41.611009], [-8.456566, 41.612965], [-8.464384, 41.617784], [-8.468492, 41.626811], [-8.464577, 41.6358], [-8.456333, 41.640626], [-8.444315, 41.641958]], [[-8.516723, 41.593367], [-8.504763, 41.588322], [-8.499938, 41.581915], [-8.499856, 41.572908], [-8.509075, 41.56394], [-8.516964, 41.561056], [-8.52895, 41.561991], [-8.533881, 41.564043], [-8.542126, 41.573084], [-8.541444, 41.582088], [-8.52873, 41.592176], [-8.516723, 41.593367]], [[-8.624955, 41.551084], [-8.612982, 41.548144], [-8.601048, 41.538904], [-8.597133, 41.528253], [-8.599229, 41.519253], [-8.613229, 41.506587], [-8.630928, 41.501344], [-8.63726, 41.494851], [-8.638672, 41.474346], [-8.644243, 41.465356], [-8.649424, 41.460853], [-8.661426, 41.455499], [-8.673404, 41.454395], [-8.685367, 41.456611], [-8.699696, 41.465514], [-8.705044, 41.474536], [-8.705614, 41.483545], [-8.701943, 41.492543], [-8.697148, 41.497991], [-8.685126, 41.50628], [-8.67312, 41.510965], [-8.665907, 41.519466], [-8.658777, 41.53746], [-8.648966, 41.545714], [-8.63695, 41.550322], [-8.624955, 41.551084]]], [[[-8.241406, 41.537881], [-8.253406, 41.5368], [-8.26545, 41.531901], [-8.271487, 41.526651], [-8.276897, 41.517678], [-8.278008, 41.508678], [-8.275661, 41.499656], [-8.26595, 41.487628], [-8.254038, 41.481829], [-8.24208, 41.480123], [-8.230079, 41.48209], [-8.218024, 41.488505], [-8.209709, 41.499221], [-8.207798, 41.508215], [-8.209417, 41.517234], [-8.217543, 41.528442], [-8.229449, 41.535212], [-8.241406, 41.537881]], [[-8.241561, 41.524611], [-8.229624, 41.520433], [-8.226121, 41.517348], [-8.222411, 41.508315], [-8.22579, 41.499331], [-8.229917, 41.49578], [-8.241943, 41.491808], [-8.253898, 41.494017], [-8.261183, 41.499563], [-8.264967, 41.508595], [-8.26091, 41.517576], [-8.253567, 41.52282], [-8.241561, 41.524611]]], [[[-8.733736, 41.340262], [-8.745688, 41.340228], [-8.757647, 41.338349], [-8.769613, 41.334231], [-8.787216, 41.321588], [-8.792976, 41.312591], [-8.795874, 41.303588], [-8.795921, 41.29458], [-8.793076, 41.285568], [-8.78733, 41.276549], [-8.776431, 41.267521], [-8.757938, 41.259655], [-8.734078, 41.255933], [-8.7102, 41.257035], [-8.698253, 41.259206], [-8.676159, 41.267282], [-8.66547, 41.27626], [-8.662079, 41.285258], [-8.662666, 41.294267], [-8.666325, 41.303285], [-8.673484, 41.312314], [-8.683793, 41.32135], [-8.697926, 41.330105], [-8.709853, 41.335393], [-8.733736, 41.340262]], [[-8.73382, 41.319548], [-8.721864, 41.32128], [-8.709923, 41.319736], [-8.697997, 41.314742], [-8.686508, 41.303342], [-8.684116, 41.294328], [-8.68663, 41.285327], [-8.698179, 41.275239], [-8.710136, 41.2715], [-8.722079, 41.270819], [-8.734009, 41.272993], [-8.742166, 41.276457], [-8.752319, 41.285487], [-8.755589, 41.294502], [-8.754284, 41.303507], [-8.747613, 41.3125], [-8.73382, 41.319548]]], [[[-8.487537, 41.236208], [-8.497298, 41.248625], [-8.509322, 41.257684], [-8.519168, 41.262786], [-8.543, 41.269179], [-8.566878, 41.269189], [-8.590796, 41.26268], [-8.598903, 41.258031], [-8.608191, 41.249056], [-8.612341, 41.240062], [-8.613324, 41.222049], [-8.608236, 41.204016], [-8.60315, 41.193968], [-8.591315, 41.179369], [-8.584154, 41.174022], [-8.582094, 41.177803], [-8.578825, 41.178941], [-8.581296, 41.191762], [-8.576254, 41.19529], [-8.586938, 41.203942], [-8.591123, 41.210232], [-8.593898, 41.221983], [-8.591928, 41.230983], [-8.584858, 41.239966], [-8.578977, 41.244208], [-8.567013, 41.248625], [-8.555071, 41.249636], [-8.543149, 41.247757], [-8.527362, 41.239744], [-8.519579, 41.230704], [-8.516545, 41.221684], [-8.517217, 41.212679], [-8.524733, 41.201204], [-8.523236, 41.200077], [-8.518471, 41.200543], [-8.51163, 41.203042], [-8.510456, 41.206197], [-8.505693, 41.207113], [-8.504239, 41.213646], [-8.500076, 41.21546], [-8.50308, 41.219502], [-8.502204, 41.222656], [-8.495642, 41.222227], [-8.495947, 41.223351], [-8.490894, 41.226294], [-8.487935, 41.230354], [-8.490333, 41.232598], [-8.487537, 41.236208]]]]}}, {"id": "0", "type": "Feature", "properties": {"fill": "#2ba055", "value_min": 0.0, "value_max": -0.07}, "geometry": {"type": "MultiPolygon", "coordinates": [[[[-7.72961, 41.87347], [-7.743183, 41.883179], [-7.755196, 41.885211], [-7.767288, 41.883177], [-7.78086, 41.873766], [-7.784515, 41.864798], [-7.78301, 41.855775], [-7.774162, 41.846674], [-7.768045, 41.843746], [-7.756034, 41.841959], [-7.746352, 41.843588], [-7.750246, 41.846784], [-7.750532, 41.849261], [-7.743309, 41.849012], [-7.746901, 41.8524], [-7.746881, 41.855776], [-7.73843, 41.859348], [-7.734159, 41.868337], [-7.730228, 41.871024], [-7.72961, 41.87347]]], [[[-7.948452, 41.860109], [-7.963056, 41.857542], [-7.97368, 41.848631], [-7.975281, 41.839638], [-7.9699, 41.830583], [-7.961067, 41.825082], [-7.949052, 41.823456], [-7.936944, 41.827507], [-7.928445, 41.839211], [-7.929636, 41.848229], [-7.936474, 41.855921], [-7.948452, 41.860109]]], [[[-7.937384, 41.800927], [-7.949402, 41.802042], [-7.957872, 41.794448], [-7.954685, 41.785412], [-7.949706, 41.783437], [-7.93767, 41.783606], [-7.933918, 41.785221], [-7.931281, 41.794203], [-7.937384, 41.800927]]], [[[-8.166007, 41.76012], [-8.178655, 41.759427], [-8.190308, 41.751286], [-8.193075, 41.742299], [-8.190964, 41.737165], [-8.188732, 41.733261], [-8.179063, 41.727419], [-8.167045, 41.727001], [-8.154944, 41.732944], [-8.149198, 41.741982], [-8.15112, 41.751004], [-8.154656, 41.75489], [-8.166007, 41.76012]]], [[[-8.131095, 41.71807], [-8.143115, 41.718244], [-8.14739, 41.714948], [-8.144473, 41.705919], [-8.131252, 41.706426], [-8.128956, 41.71481], [-8.131095, 41.71807]]], [[[-8.20329, 41.712807], [-8.21532, 41.71209], [-8.225024, 41.706491], [-8.230625, 41.697521], [-8.228508, 41.6885], [-8.215705, 41.680398], [-8.203689, 41.68046], [-8.191159, 41.688243], [-8.187963, 41.697228], [-8.191365, 41.705179], [-8.20329, 41.712807]]], [[[-8.047026, 41.712517], [-8.059041, 41.712877], [-8.064354, 41.705295], [-8.059244, 41.69898], [-8.047241, 41.697931], [-8.041221, 41.705104], [-8.047026, 41.712517]]], [[[-8.132068, 41.645771], [-8.146479, 41.642885], [-8.151279, 41.633913], [-8.14434, 41.625812], [-8.132357, 41.624182], [-8.121643, 41.633691], [-8.126496, 41.642735], [-8.132068, 41.645771]]], [[[-8.444315, 41.641958], [-8.456333, 41.640626], [-8.464577, 41.6358], [-8.468492, 41.626811], [-8.464384, 41.617784], [-8.456566, 41.612965], [-8.44458, 41.611009], [-8.432547, 41.61463], [-8.428932, 41.617614], [-8.425565, 41.626604], [-8.430047, 41.635634], [-8.444315, 41.641958]]], [[[-8.516723, 41.593367], [-8.52873, 41.592176], [-8.541444, 41.582088], [-8.542126, 41.573084], [-8.533881, 41.564043], [-8.52895, 41.561991], [-8.516964, 41.561056], [-8.509075, 41.56394], [-8.499856, 41.572908], [-8.499938, 41.581915], [-8.504763, 41.588322], [-8.516723, 41.593367]]], [[[-8.624955, 41.551084], [-8.63695, 41.550322], [-8.648966, 41.545714], [-8.658777, 41.53746], [-8.665907, 41.519466], [-8.67312, 41.510965], [-8.685126, 41.50628], [-8.697148, 41.497991], [-8.701943, 41.492543], [-8.705614, 41.483545], [-8.705044, 41.474536], [-8.699696, 41.465514], [-8.685367, 41.456611], [-8.673404, 41.454395], [-8.661426, 41.455499], [-8.649424, 41.460853], [-8.644243, 41.465356], [-8.638672, 41.474346], [-8.63726, 41.494851], [-8.630928, 41.501344], [-8.613229, 41.506587], [-8.599229, 41.519253], [-8.597133, 41.528253], [-8.601048, 41.538904], [-8.612982, 41.548144], [-8.624955, 41.551084]]], [[[-8.241561, 41.524611], [-8.253567, 41.52282], [-8.26091, 41.517576], [-8.264967, 41.508595], [-8.261183, 41.499563], [-8.253898, 41.494017], [-8.241943, 41.491808], [-8.229917, 41.49578], [-8.22579, 41.499331], [-8.222411, 41.508315], [-8.226121, 41.517348], [-8.229624, 41.520433], [-8.241561, 41.524611]]], [[[-8.73382, 41.319548], [-8.747613, 41.3125], [-8.754284, 41.303507], [-8.755589, 41.294502], [-8.752319, 41.285487], [-8.742166, 41.276457], [-8.734009, 41.272993], [-8.722079, 41.270819], [-8.710136, 41.2715], [-8.698179, 41.275239], [-8.68663, 41.285327], [-8.684116, 41.294328], [-8.686508, 41.303342], [-8.697997, 41.314742], [-8.709923, 41.319736], [-8.721864, 41.32128], [-8.73382, 41.319548]]], [[[-8.524733, 41.201204], [-8.517217, 41.212679], [-8.516545, 41.221684], [-8.519579, 41.230704], [-8.527362, 41.239744], [-8.543149, 41.247757], [-8.555071, 41.249636], [-8.567013, 41.248625], [-8.578977, 41.244208], [-8.584858, 41.239966], [-8.591928, 41.230983], [-8.593898, 41.221983], [-8.591123, 41.210232], [-8.586938, 41.203942], [-8.576254, 41.19529], [-8.576894, 41.201908], [-8.574515, 41.202593], [-8.57423, 41.20462], [-8.567971, 41.204644], [-8.565895, 41.206227], [-8.567697, 41.208246], [-8.566512, 41.209376], [-8.559636, 41.206251], [-8.554271, 41.20627], [-8.549521, 41.209214], [-8.544157, 41.209458], [-8.54238, 41.211265], [-8.532257, 41.213102], [-8.524733, 41.201204]]]]}}, {"id": "6", "type": "Feature", "properties": {"fill": "#eef8a7", "value_min": 0.4, "value_max": -0.47}, "geometry": {"type": "MultiPolygon", "coordinates": [[[[-8.11862, 41.696717], [-8.119361, 41.69706], [-8.119644, 41.696725], [-8.11937, 41.696363], [-8.11862, 41.696717]]], [[[-8.379591, 41.671401], [-8.383984, 41.672677], [-8.385979, 41.671435], [-8.385743, 41.662427], [-8.384091, 41.661511], [-8.380079, 41.662396], [-8.379591, 41.671401]]], [[[-8.021738, 41.659905], [-8.023759, 41.661312], [-8.026095, 41.659942], [-8.023807, 41.658142], [-8.021738, 41.659905]]]]}}]}