{"type": "FeatureCollection", "features": [{"id": "1", "type": "Feature", "properties": {"fill": "#eef8a7", "value_min": 0.4, "value_max": 0.47}, "geometry": {"type": "MultiPolygon", "coordinates": [[[[-7.914394, 41.712983], [-7.902953, 41.70231], [-7.89093, 41.702578], [-7.880163, 41.712655], [-7.879862, 41.721659], [-7.890471, 41.729277], [-7.902505, 41.728627], [-7.912277, 41.72197], [-7.914394, 41.712983]]], [[[-8.215513, 41.696169], [-8.203509, 41.695061], [-8.202341, 41.697329], [-8.203467, 41.698528], [-8.21549, 41.698081], [-8.215513, 41.696169]]], [[[-8.106049, 41.678606], [-8.102615, 41.669572], [-8.095773, 41.665086], [-8.083782, 41.663597], [-8.068921, 41.669304], [-8.064064, 41.678272], [-8.069906, 41.687326], [-8.083365, 41.693001], [-8.095422, 41.69013], [-8.106049, 41.678606]], [[-8.083478, 41.685047], [-8.077279, 41.678378], [-8.083667, 41.671701], [-8.09567, 41.672414], [-8.09981, 41.678557], [-8.095513, 41.683618], [-8.083478, 41.685047]]], [[[-8.035667, 41.668237], [-8.040309, 41.660062], [-8.03589, 41.653316], [-8.023954, 41.648434], [-8.015303, 41.650843], [-8.008124, 41.659788], [-8.014606, 41.668851], [-8.023597, 41.67207], [-8.035667, 41.668237]]], [[[-8.456448, 41.626992], [-8.444509, 41.619269], [-8.434435, 41.626648], [-8.444368, 41.635743], [-8.456448, 41.626992]]], [[[-8.122298, 41.480571], [-8.110327, 41.480052], [-8.110004, 41.480478], [-8.110316, 41.480895], [-8.122298, 41.480571]]], [[[-8.710407, 41.210244], [-8.715961, 41.204333], [-8.718169, 41.19533], [-8.714794, 41.186314], [-8.710531, 41.182015], [-8.698634, 41.176258], [-8.686715, 41.175621], [-8.674775, 41.17936], [-8.666797, 41.186185], [-8.662933, 41.195182], [-8.665179, 41.204196], [-8.674392, 41.21323], [-8.68652, 41.216602], [-8.698452, 41.215962], [-8.710407, 41.210244]]]]}}, {"id": "2", "type": "Feature", "properties": {"fill": "#fffebe", "value_min": 0.47, "value_max": 0.53}, "geometry": {"type": "MultiPolygon", "coordinates": [[[[-7.877042, 41.809899], [-7.865011, 41.809463], [-7.86302, 41.811561], [-7.864933, 41.81387], [-7.876973, 41.813827], [-7.877042, 41.809899]]], [[[-7.811251, 41.717778], [-7.820958, 41.739083], [-7.826718, 41.757156], [-7.832037, 41.766217], [-7.846067, 41.775365], [-7.85354, 41.777619], [-7.865585, 41.776878], [-7.877723, 41.770832], [-7.881747, 41.766711], [-7.892583, 41.748803], [-7.914368, 41.738152], [-7.93621, 41.722194], [-7.944057, 41.713259], [-7.951093, 41.698275], [-7.963245, 41.689958], [-7.975177, 41.695252], [-7.987584, 41.704644], [-7.991726, 41.713688], [-7.990223, 41.731688], [-7.994869, 41.740736], [-7.998459, 41.743705], [-8.010411, 41.748548], [-8.022451, 41.74774], [-8.046697, 41.734788], [-8.058781, 41.730734], [-8.070909, 41.723481], [-8.083439, 41.705449], [-8.114454, 41.678671], [-8.11333, 41.669655], [-8.095871, 41.658061], [-8.066192, 41.651268], [-8.036184, 41.633572], [-8.024241, 41.629417], [-8.012258, 41.627936], [-8.000241, 41.628731], [-7.988187, 41.631874], [-7.970222, 41.641441], [-7.961318, 41.650368], [-7.951634, 41.664949], [-7.939576, 41.667757], [-7.901722, 41.659221], [-7.902017, 41.660599], [-7.899913, 41.66127], [-7.900198, 41.665547], [-7.898396, 41.665769], [-7.896885, 41.668692], [-7.883969, 41.67069], [-7.877044, 41.676077], [-7.876723, 41.681253], [-7.873401, 41.686198], [-7.868896, 41.686413], [-7.868008, 41.68326], [-7.864403, 41.683701], [-7.864096, 41.685276], [-7.858987, 41.68639], [-7.857773, 41.689538], [-7.854776, 41.68818], [-7.847538, 41.695365], [-7.837309, 41.699391], [-7.835792, 41.702763], [-7.839682, 41.705924], [-7.838465, 41.709522], [-7.832453, 41.710407], [-7.825252, 41.708813], [-7.818621, 41.713522], [-7.815291, 41.718689], [-7.811251, 41.717778]], [[-7.914394, 41.712983], [-7.912277, 41.72197], [-7.902505, 41.728627], [-7.890471, 41.729277], [-7.879862, 41.721659], [-7.880163, 41.712655], [-7.89093, 41.702578], [-7.902953, 41.70231], [-7.914394, 41.712983]], [[-8.106049, 41.678606], [-8.095422, 41.69013], [-8.083365, 41.693001], [-8.069906, 41.687326], [-8.064064, 41.678272], [-8.068921, 41.669304], [-8.083782, 41.663597], [-8.095773, 41.665086], [-8.102615, 41.669572], [-8.106049, 41.678606]], [[-8.035667, 41.668237], [-8.023597, 41.67207], [-8.014606, 41.668851], [-8.008124, 41.659788], [-8.015303, 41.650843], [-8.023954, 41.648434], [-8.03589, 41.653316], [-8.040309, 41.660062], [-8.035667, 41.668237]]], [[[-8.304709, 41.758379], [-8.304772, 41.758288], [-8.304865, 41.758153], [-8.30907, 41.752062], [-8.307761, 41.743047], [-8.299213, 41.73514], [-8.295616, 41.733966], [-8.287223, 41.731998], [-8.278785, 41.733862], [-8.275168, 41.73478], [-8.267129, 41.742795], [-8.265881, 41.751794], [-8.272052, 41.76084], [-8.279138, 41.764085], [-8.284038, 41.761109], [-8.284931, 41.757507], [-8.287033, 41.756829], [-8.304709, 41.758379]]], [[[-8.227302, 41.715329], [-8.243323, 41.706613], [-8.247349, 41.697632], [-8.245606, 41.688614], [-8.236833, 41.679549], [-8.227781, 41.675217], [-8.215792, 41.673198], [-8.203761, 41.674634], [-8.191673, 41.680597], [-8.18432, 41.688195], [-8.182594, 41.69719], [-8.187792, 41.706234], [-8.20327, 41.714415], [-8.215266, 41.71654], [-8.227302, 41.715329]], [[-8.215513, 41.696169], [-8.21549, 41.698081], [-8.203467, 41.698528], [-8.202341, 41.697329], [-8.203509, 41.695061], [-8.215513, 41.696169]]], [[[-8.149786, 41.705959], [-8.143323, 41.702576], [-8.13128, 41.704325], [-8.125698, 41.714785], [-8.131058, 41.720828], [-8.143103, 41.719116], [-8.149044, 41.71496], [-8.149786, 41.705959]]], [[[-8.407999, 41.673985], [-8.420043, 41.670501], [-8.456074, 41.671502], [-8.468099, 41.67007], [-8.485932, 41.662919], [-8.496062, 41.653956], [-8.500645, 41.644969], [-8.501476, 41.635966], [-8.499221, 41.626949], [-8.492943, 41.617914], [-8.483641, 41.608865], [-8.46867, 41.600533], [-8.456701, 41.59685], [-8.444714, 41.595467], [-8.43271, 41.596019], [-8.420687, 41.598704], [-8.408637, 41.604223], [-8.402203, 41.608471], [-8.394399, 41.617437], [-8.384303, 41.639164], [-8.365123, 41.653308], [-8.358798, 41.66228], [-8.359118, 41.671289], [-8.367868, 41.680344], [-8.371877, 41.682341], [-8.383879, 41.683671], [-8.39592, 41.680913], [-8.407999, 41.673985]], [[-8.456448, 41.626992], [-8.444368, 41.635743], [-8.434435, 41.626648], [-8.444509, 41.619269], [-8.456448, 41.626992]]], [[[-8.670283, 41.546501], [-8.673834, 41.537504], [-8.673483, 41.528495], [-8.669562, 41.519477], [-8.659625, 41.51044], [-8.637233, 41.499658], [-8.625263, 41.497748], [-8.613272, 41.499359], [-8.601259, 41.504549], [-8.593782, 41.510226], [-8.587326, 41.519211], [-8.58517, 41.528211], [-8.589046, 41.541116], [-8.600954, 41.554294], [-8.612907, 41.560721], [-8.624884, 41.563438], [-8.636875, 41.56372], [-8.64888, 41.561534], [-8.661168, 41.555482], [-8.670283, 41.546501]]], [[[-8.145502, 41.480747], [-8.145459, 41.47174], [-8.140001, 41.462692], [-8.134576, 41.45799], [-8.12266, 41.453681], [-8.110694, 41.453233], [-8.098674, 41.45664], [-8.091512, 41.462319], [-8.086697, 41.471288], [-8.087513, 41.480302], [-8.094482, 41.489364], [-8.110119, 41.495288], [-8.122089, 41.49602], [-8.134114, 41.492709], [-8.139897, 41.489713], [-8.145502, 41.480747]], [[-8.122298, 41.480571], [-8.110316, 41.480895], [-8.110004, 41.480478], [-8.110327, 41.480052], [-8.122298, 41.480571]]], [[[-8.421739, 41.480672], [-8.421712, 41.483769], [-8.428583, 41.482502], [-8.421739, 41.480672]]], [[[-8.195984, 41.37585], [-8.195228, 41.382024], [-8.200079, 41.391065], [-8.20717, 41.3961], [-8.219087, 41.39985], [-8.231062, 41.398843], [-8.24439, 41.391365], [-8.248676, 41.382386], [-8.24747, 41.37337], [-8.244033, 41.368384], [-8.238301, 41.371316], [-8.232024, 41.369971], [-8.224854, 41.370878], [-8.21738, 41.368182], [-8.211712, 41.376065], [-8.200358, 41.377648], [-8.195984, 41.37585]]], [[[-8.480879, 41.23893], [-8.489629, 41.248591], [-8.501533, 41.257651], [-8.519143, 41.266305], [-8.531055, 41.26993], [-8.54298, 41.272029], [-8.566855, 41.272594], [-8.626593, 41.265571], [-8.638526, 41.266692], [-8.650448, 41.269834], [-8.662351, 41.276761], [-8.680044, 41.303324], [-8.689183, 41.312357], [-8.697982, 41.318101], [-8.709907, 41.323187], [-8.721846, 41.325588], [-8.733794, 41.325936], [-8.74575, 41.324314], [-8.757713, 41.320577], [-8.772566, 41.312552], [-8.790771, 41.294571], [-8.80484, 41.275016], [-8.799695, 41.14406], [-8.674793, 41.146932], [-8.674849, 41.153767], [-8.672489, 41.15648], [-8.66117, 41.156307], [-8.662078, 41.158104], [-8.660313, 41.160813], [-8.657033, 41.160378], [-8.654961, 41.161963], [-8.653231, 41.169174], [-8.655366, 41.175467], [-8.647955, 41.180228], [-8.647696, 41.185181], [-8.640929, 41.196241], [-8.634946, 41.193341], [-8.632526, 41.188624], [-8.625658, 41.186628], [-8.621132, 41.178994], [-8.613374, 41.177451], [-8.608583, 41.174095], [-8.609164, 41.172066], [-8.604942, 41.164881], [-8.59422, 41.165149], [-8.589174, 41.167645], [-8.589194, 41.170572], [-8.583263, 41.174422], [-8.582094, 41.177803], [-8.578825, 41.178941], [-8.581296, 41.191762], [-8.575958, 41.195609], [-8.577183, 41.200557], [-8.57423, 41.20462], [-8.567971, 41.204644], [-8.565895, 41.206227], [-8.567697, 41.208246], [-8.566512, 41.209376], [-8.559636, 41.206251], [-8.554271, 41.20627], [-8.549521, 41.209214], [-8.544157, 41.209458], [-8.54238, 41.211265], [-8.532257, 41.213102], [-8.52713, 41.203215], [-8.523236, 41.200077], [-8.51163, 41.203042], [-8.510456, 41.206197], [-8.505693, 41.207113], [-8.504239, 41.213646], [-8.500076, 41.21546], [-8.50308, 41.219502], [-8.502204, 41.222656], [-8.496833, 41.221998], [-8.493861, 41.223583], [-8.487935, 41.230354], [-8.490331, 41.232373], [-8.489156, 41.235528], [-8.486181, 41.236888], [-8.484411, 41.240495], [-8.480879, 41.23893]], [[-8.710407, 41.210244], [-8.698452, 41.215962], [-8.68652, 41.216602], [-8.674392, 41.21323], [-8.665179, 41.204196], [-8.662933, 41.195182], [-8.666797, 41.186185], [-8.674775, 41.17936], [-8.686715, 41.175621], [-8.698634, 41.176258], [-8.710531, 41.182015], [-8.714794, 41.186314], [-8.718169, 41.19533], [-8.715961, 41.204333], [-8.710407, 41.210244]]]]}}, {"id": "3", "type": "Feature", "properties": {"fill": "#fecb90", "value_min": 0.53, "value_max": 0.6}, "geometry": {"type": "MultiPolygon", "coordinates": [[[[-8.304865, 41.758153], [-8.30778, 41.758824], [-8.307785, 41.760625], [-8.311096, 41.762195], [-8.318308, 41.761283], [-8.325233, 41.765098], [-8.328234, 41.763292], [-8.336653, 41.763728], [-8.341756, 41.761468], [-8.344765, 41.762363], [-8.349267, 41.760103], [-8.352557, 41.755145], [-8.349814, 41.744122], [-8.352516, 41.743441], [-8.352203, 41.739616], [-8.357897, 41.735103], [-8.362407, 41.735994], [-8.368703, 41.73193], [-8.374122, 41.734845], [-8.384922, 41.73032], [-8.387032, 41.731891], [-8.393033, 41.729852], [-8.396942, 41.730518], [-8.400531, 41.726683], [-8.402934, 41.726452], [-8.404721, 41.722847], [-8.417349, 41.725067], [-8.422737, 41.720552], [-8.429643, 41.719859], [-8.430533, 41.717381], [-8.435927, 41.714441], [-8.441632, 41.713975], [-8.4446, 41.70654], [-8.453868, 41.697961], [-8.453255, 41.695487], [-8.461659, 41.694563], [-8.467939, 41.689593], [-8.478124, 41.685061], [-8.482012, 41.682123], [-8.484371, 41.674238], [-8.49308, 41.674886], [-8.499963, 41.671038], [-8.50927, 41.671233], [-8.51018, 41.672806], [-8.511967, 41.670324], [-8.509856, 41.668755], [-8.512252, 41.667847], [-8.514629, 41.663788], [-8.522103, 41.658811], [-8.525706, 41.659023], [-8.527769, 41.652714], [-8.534066, 41.652017], [-8.537951, 41.649302], [-8.537634, 41.646602], [-8.543876, 41.637352], [-8.543855, 41.633976], [-8.536342, 41.631977], [-8.535128, 41.62973], [-8.543431, 41.61462], [-8.554533, 41.615255], [-8.557244, 41.617046], [-8.562639, 41.61635], [-8.568056, 41.619031], [-8.570735, 41.616095], [-8.577321, 41.614269], [-8.581231, 41.615829], [-8.585766, 41.620988], [-8.591462, 41.620515], [-8.596534, 41.616668], [-8.601628, 41.615972], [-8.603996, 41.611686], [-8.613256, 41.606696], [-8.619881, 41.610269], [-8.621338, 41.604636], [-8.628833, 41.604378], [-8.636302, 41.600744], [-8.64075, 41.594422], [-8.645536, 41.593051], [-8.646744, 41.594171], [-8.649125, 41.591909], [-8.656622, 41.5921], [-8.660788, 41.588255], [-8.663794, 41.589141], [-8.665265, 41.585758], [-8.66948, 41.587989], [-8.684455, 41.586117], [-8.685608, 41.58071], [-8.697261, 41.576376], [-8.701703, 41.570277], [-8.707704, 41.570923], [-8.711586, 41.569327], [-8.716422, 41.573805], [-8.720316, 41.57356], [-8.725151, 41.577811], [-8.726633, 41.576003], [-8.734424, 41.575737], [-8.736564, 41.580228], [-8.738354, 41.579318], [-8.740778, 41.582006], [-8.74467, 41.581535], [-8.750711, 41.58623], [-8.756374, 41.582823], [-8.75635, 41.580347], [-8.762327, 41.578514], [-8.764443, 41.580303], [-8.767441, 41.580286], [-8.769874, 41.583874], [-8.768997, 41.58613], [-8.773228, 41.589482], [-8.775371, 41.593972], [-8.78556, 41.593464], [-8.797327, 41.600599], [-8.804218, 41.600109], [-8.80456, 41.604158], [-8.809434, 41.611332], [-8.828644, 41.609656], [-8.82839, 41.585633], [-8.818497, 41.554794], [-8.8221, 41.547542], [-8.821965, 41.534907], [-8.815926, 41.525624], [-8.81063, 41.5101], [-8.813279, 41.503483], [-8.812636, 41.496944], [-8.804699, 41.482068], [-8.798552, 41.474753], [-8.80154, 41.446836], [-8.806115, 41.43713], [-8.807354, 41.425915], [-8.811202, 41.416419], [-8.80484, 41.275016], [-8.790771, 41.294571], [-8.772566, 41.312552], [-8.757713, 41.320577], [-8.74575, 41.324314], [-8.733794, 41.325936], [-8.721846, 41.325588], [-8.709907, 41.323187], [-8.697982, 41.318101], [-8.689183, 41.312357], [-8.680044, 41.303324], [-8.662351, 41.276761], [-8.650448, 41.269834], [-8.638526, 41.266692], [-8.626593, 41.265571], [-8.566855, 41.272594], [-8.54298, 41.272029], [-8.531055, 41.26993], [-8.519143, 41.266305], [-8.501533, 41.257651], [-8.489629, 41.248591], [-8.480879, 41.23893], [-8.476346, 41.237818], [-8.475756, 41.23917], [-8.471283, 41.239184], [-8.471604, 41.243459], [-8.469227, 41.245267], [-8.463258, 41.244384], [-8.459989, 41.246644], [-8.454323, 41.246886], [-8.455541, 41.251834], [-8.452276, 41.25522], [-8.449891, 41.255452], [-8.449304, 41.257479], [-8.447812, 41.257258], [-8.449028, 41.261982], [-8.439785, 41.262907], [-8.438023, 41.268989], [-8.434745, 41.269673], [-8.432691, 41.277107], [-8.427032, 41.279372], [-8.429143, 41.284319], [-8.426171, 41.287028], [-8.426488, 41.291079], [-8.425013, 41.294909], [-8.422037, 41.296942], [-8.422647, 41.299867], [-8.407744, 41.304856], [-8.406262, 41.307335], [-8.403277, 41.307342], [-8.401801, 41.311398], [-8.399712, 41.311628], [-8.400316, 41.313202], [-8.396738, 41.314336], [-8.398834, 41.315906], [-8.397943, 41.31693], [-8.420386, 41.329333], [-8.430741, 41.338392], [-8.437803, 41.347435], [-8.442305, 41.356464], [-8.444056, 41.36548], [-8.44342, 41.374485], [-8.440229, 41.383477], [-8.42491, 41.401416], [-8.410389, 41.411359], [-8.376854, 41.428189], [-8.365459, 41.437134], [-8.364391, 41.446136], [-8.373931, 41.470012], [-8.377053, 41.491242], [-8.373572, 41.507234], [-8.36632, 41.518205], [-8.349363, 41.531599], [-8.325235, 41.546366], [-8.280183, 41.58075], [-8.264723, 41.596043], [-8.248734, 41.616577], [-8.231446, 41.634477], [-8.219219, 41.643402], [-8.167747, 41.672581], [-8.155675, 41.677074], [-8.143638, 41.678809], [-8.131651, 41.676794], [-8.128995, 41.669775], [-8.07134, 41.633295], [-8.061435, 41.624208], [-8.040823, 41.597094], [-8.031467, 41.602938], [-8.02367, 41.603156], [-8.019174, 41.601802], [-8.015872, 41.603824], [-8.013474, 41.603372], [-8.005971, 41.60629], [-8.003562, 41.611239], [-7.998761, 41.612809], [-7.999669, 41.608759], [-7.996976, 41.605829], [-7.996684, 41.602003], [-7.984685, 41.603564], [-7.982292, 41.60086], [-7.975689, 41.603552], [-7.974482, 41.606701], [-7.970882, 41.607147], [-7.969091, 41.603768], [-7.965796, 41.602413], [-7.9541, 41.602846], [-7.952606, 41.600592], [-7.947808, 41.60081], [-7.945413, 41.599456], [-7.942725, 41.595625], [-7.936132, 41.594488], [-7.93791, 41.601694], [-7.937004, 41.603718], [-7.931604, 41.604384], [-7.930979, 41.612711], [-7.925556, 41.620354], [-7.920755, 41.620796], [-7.917748, 41.623041], [-7.915933, 41.627764], [-7.913229, 41.628885], [-7.912613, 41.63361], [-7.906014, 41.633147], [-7.906884, 41.641927], [-7.897869, 41.645511], [-7.89696, 41.647985], [-7.892759, 41.647976], [-7.892145, 41.651576], [-7.901722, 41.659221], [-7.939576, 41.667757], [-7.951634, 41.664949], [-7.961318, 41.650368], [-7.970222, 41.641441], [-7.988187, 41.631874], [-8.000241, 41.628731], [-8.012258, 41.627936], [-8.024241, 41.629417], [-8.036184, 41.633572], [-8.066192, 41.651268], [-8.095871, 41.658061], [-8.11333, 41.669655], [-8.114454, 41.678671], [-8.083439, 41.705449], [-8.070909, 41.723481], [-8.058781, 41.730734], [-8.046697, 41.734788], [-8.022451, 41.74774], [-8.010411, 41.748548], [-7.998459, 41.743705], [-7.994869, 41.740736], [-7.990223, 41.731688], [-7.991726, 41.713688], [-7.987584, 41.704644], [-7.975177, 41.695252], [-7.963245, 41.689958], [-7.951093, 41.698275], [-7.944057, 41.713259], [-7.93621, 41.722194], [-7.914368, 41.738152], [-7.892583, 41.748803], [-7.881747, 41.766711], [-7.877723, 41.770832], [-7.865585, 41.776878], [-7.85354, 41.777619], [-7.846067, 41.775365], [-7.832037, 41.766217], [-7.826718, 41.757156], [-7.820958, 41.739083], [-7.811251, 41.717778], [-7.808986, 41.717996], [-7.808396, 41.715744], [-7.804499, 41.714158], [-7.79939, 41.714593], [-7.79788, 41.716164], [-7.796383, 41.71526], [-7.790966, 41.717044], [-7.789449, 41.719966], [-7.78464, 41.720402], [-7.78252, 41.723546], [-7.776204, 41.724652], [-7.773786, 41.727346], [-7.770798, 41.72441], [-7.765698, 41.723044], [-7.761765, 41.727758], [-7.762933, 41.733839], [-7.759307, 41.737203], [-7.759597, 41.739005], [-7.75689, 41.739446], [-7.758687, 41.740577], [-7.757758, 41.745301], [-7.748417, 41.749321], [-7.747786, 41.754496], [-7.743866, 41.756509], [-7.740214, 41.763924], [-7.726937, 41.771755], [-7.7254, 41.777152], [-7.727191, 41.779184], [-7.724177, 41.780299], [-7.725372, 41.781653], [-7.722296, 41.792446], [-7.728879, 41.797871], [-7.72705, 41.801691], [-7.728171, 41.814974], [-7.732041, 41.821514], [-7.74345, 41.825605], [-7.738918, 41.82874], [-7.742196, 41.833928], [-7.74729, 41.837772], [-7.746349, 41.84407], [-7.750246, 41.846784], [-7.750532, 41.849261], [-7.743309, 41.849012], [-7.746901, 41.8524], [-7.746881, 41.855776], [-7.73843, 41.859348], [-7.734159, 41.868337], [-7.730228, 41.871024], [-7.729293, 41.875972], [-7.722351, 41.878424], [-7.720523, 41.881793], [-7.725335, 41.882935], [-7.726208, 41.887665], [-7.737044, 41.888828], [-7.737935, 41.890857], [-7.74246, 41.889747], [-7.742785, 41.885922], [-7.756022, 41.888441], [-7.758719, 41.890926], [-7.756592, 41.89407], [-7.758076, 41.897901], [-7.764097, 41.898595], [-7.779227, 41.886264], [-7.785257, 41.885157], [-7.788886, 41.882467], [-7.794007, 41.882257], [-7.796739, 41.878214], [-7.794349, 41.87438], [-7.797064, 41.873488], [-7.803381, 41.874857], [-7.804914, 41.869459], [-7.813032, 41.871958], [-7.814229, 41.873537], [-7.823863, 41.874013], [-7.825059, 41.875817], [-7.830479, 41.875831], [-7.830789, 41.874031], [-7.832894, 41.874712], [-7.83772, 41.872924], [-7.842528, 41.875187], [-7.841663, 41.866632], [-7.849515, 41.861475], [-7.858542, 41.862622], [-7.859456, 41.860148], [-7.864877, 41.859711], [-7.87033, 41.851395], [-7.873043, 41.850501], [-7.873066, 41.844875], [-7.879056, 41.85254], [-7.886268, 41.855932], [-7.888076, 41.855486], [-7.891675, 41.859094], [-7.900698, 41.861588], [-7.904581, 41.860471], [-7.903768, 41.847985], [-7.906054, 41.820986], [-7.897277, 41.793882], [-7.897193, 41.784874], [-7.901746, 41.775911], [-7.913978, 41.761329], [-7.926163, 41.751989], [-7.93829, 41.745971], [-7.95034, 41.744586], [-7.962318, 41.7476], [-8.005889, 41.776859], [-8.016621, 41.785959], [-8.031677, 41.8041], [-8.041054, 41.82511], [-8.045268, 41.824425], [-8.047679, 41.821276], [-8.057314, 41.815656], [-8.06664, 41.817012], [-8.072961, 41.813414], [-8.078678, 41.813417], [-8.082892, 41.810493], [-8.091013, 41.812521], [-8.093421, 41.811397], [-8.093723, 41.808471], [-8.101845, 41.809824], [-8.104853, 41.81185], [-8.115984, 41.812302], [-8.123807, 41.808702], [-8.138247, 41.808477], [-8.139751, 41.813203], [-8.14276, 41.812978], [-8.144866, 41.815228], [-8.149078, 41.814777], [-8.153291, 41.817703], [-8.158106, 41.818377], [-8.165326, 41.81815], [-8.173744, 41.808019], [-8.177655, 41.808242], [-8.183676, 41.812741], [-8.190291, 41.809587], [-8.197158, 41.814129], [-8.201063, 41.808724], [-8.204973, 41.807372], [-8.205872, 41.804445], [-8.213692, 41.803765], [-8.217598, 41.80016], [-8.217589, 41.793634], [-8.224207, 41.794303], [-8.229917, 41.791598], [-8.240744, 41.791588], [-8.24074, 41.789338], [-8.244347, 41.787984], [-8.245546, 41.785731], [-8.251257, 41.784375], [-8.251845, 41.777172], [-8.257551, 41.773564], [-8.261762, 41.774235], [-8.271366, 41.766346], [-8.279138, 41.764085], [-8.272052, 41.76084], [-8.265881, 41.751794], [-8.267129, 41.742795], [-8.275168, 41.73478], [-8.278785, 41.733862], [-8.287223, 41.731998], [-8.295616, 41.733966], [-8.299213, 41.73514], [-8.307761, 41.743047], [-8.30907, 41.752062], [-8.304865, 41.758153]], [[-7.877042, 41.809899], [-7.876973, 41.813827], [-7.864933, 41.81387], [-7.86302, 41.811561], [-7.865011, 41.809463], [-7.877042, 41.809899]], [[-8.178102, 41.802786], [-8.166054, 41.803585], [-8.154036, 41.802084], [-8.142062, 41.797321], [-8.129285, 41.786868], [-8.123385, 41.777816], [-8.120582, 41.768788], [-8.121757, 41.750783], [-8.127376, 41.741819], [-8.138957, 41.732899], [-8.167158, 41.718218], [-8.17918, 41.718254], [-8.194714, 41.724297], [-8.209877, 41.733409], [-8.216921, 41.742464], [-8.219762, 41.75149], [-8.217603, 41.769489], [-8.213592, 41.778469], [-8.206809, 41.787429], [-8.20231, 41.792057], [-8.190184, 41.79922], [-8.178102, 41.802786]], [[-8.227302, 41.715329], [-8.215266, 41.71654], [-8.20327, 41.714415], [-8.187792, 41.706234], [-8.182594, 41.69719], [-8.18432, 41.688195], [-8.191673, 41.680597], [-8.203761, 41.674634], [-8.215792, 41.673198], [-8.227781, 41.675217], [-8.236833, 41.679549], [-8.245606, 41.688614], [-8.247349, 41.697632], [-8.243323, 41.706613], [-8.227302, 41.715329]], [[-8.149786, 41.705959], [-8.149044, 41.71496], [-8.143103, 41.719116], [-8.131058, 41.720828], [-8.125698, 41.714785], [-8.13128, 41.704325], [-8.143323, 41.702576], [-8.149786, 41.705959]], [[-8.107113, 41.713704], [-8.099259, 41.705574], [-8.101043, 41.696581], [-8.119555, 41.682834], [-8.131609, 41.679921], [-8.139626, 41.687869], [-8.136692, 41.696854], [-8.131354, 41.698874], [-8.119156, 41.712045], [-8.107113, 41.713704]], [[-8.407999, 41.673985], [-8.39592, 41.680913], [-8.383879, 41.683671], [-8.371877, 41.682341], [-8.367868, 41.680344], [-8.359118, 41.671289], [-8.358798, 41.66228], [-8.365123, 41.653308], [-8.384303, 41.639164], [-8.394399, 41.617437], [-8.402203, 41.608471], [-8.408637, 41.604223], [-8.420687, 41.598704], [-8.43271, 41.596019], [-8.444714, 41.595467], [-8.456701, 41.59685], [-8.46867, 41.600533], [-8.483641, 41.608865], [-8.492943, 41.617914], [-8.499221, 41.626949], [-8.501476, 41.635966], [-8.500645, 41.644969], [-8.496062, 41.653956], [-8.485932, 41.662919], [-8.468099, 41.67007], [-8.456074, 41.671502], [-8.420043, 41.670501], [-8.407999, 41.673985]], [[-8.670283, 41.546501], [-8.661168, 41.555482], [-8.64888, 41.561534], [-8.636875, 41.56372], [-8.624884, 41.563438], [-8.612907, 41.560721], [-8.600954, 41.554294], [-8.589046, 41.541116], [-8.58517, 41.528211], [-8.587326, 41.519211], [-8.593782, 41.510226], [-8.601259, 41.504549], [-8.613272, 41.499359], [-8.625263, 41.497748], [-8.637233, 41.499658], [-8.659625, 41.51044], [-8.669562, 41.519477], [-8.673483, 41.528495], [-8.673834, 41.537504], [-8.670283, 41.546501]], [[-8.456984, 41.563109], [-8.444992, 41.562945], [-8.433038, 41.558553], [-8.426959, 41.554553], [-8.422382, 41.545523], [-8.424488, 41.536526], [-8.433287, 41.530005], [-8.445306, 41.526252], [-8.45728, 41.527631], [-8.469217, 41.533696], [-8.473836, 41.536762], [-8.47784, 41.545788], [-8.473912, 41.554777], [-8.469013, 41.55873], [-8.456984, 41.563109]], [[-8.421739, 41.480672], [-8.428583, 41.482502], [-8.421712, 41.483769], [-8.421739, 41.480672]], [[-8.545092, 41.474014], [-8.541567, 41.473615], [-8.527281, 41.464935], [-8.522456, 41.455908], [-8.522534, 41.446901], [-8.529872, 41.434604], [-8.541895, 41.426934], [-8.553888, 41.423261], [-8.565853, 41.423611], [-8.577721, 41.438868], [-8.580151, 41.447125], [-8.579444, 41.45613], [-8.574102, 41.465118], [-8.565535, 41.471308], [-8.553535, 41.47483], [-8.545092, 41.474014]], [[-8.649661, 41.416767], [-8.625714, 41.419358], [-8.601779, 41.419655], [-8.577853, 41.418617], [-8.565904, 41.415904], [-8.545428, 41.392948], [-8.536769, 41.374898], [-8.535793, 41.365887], [-8.537302, 41.356885], [-8.548414, 41.338914], [-8.55897, 41.329947], [-8.574661, 41.320999], [-8.590468, 41.315136], [-8.602432, 41.312421], [-8.626331, 41.31152], [-8.638267, 41.313615], [-8.650192, 41.317626], [-8.672236, 41.330326], [-8.694398, 41.348402], [-8.701892, 41.357429], [-8.706609, 41.366449], [-8.708326, 41.375461], [-8.707116, 41.384466], [-8.702063, 41.39346], [-8.685612, 41.405782], [-8.673623, 41.41072], [-8.649661, 41.416767]]], [[[-7.911018, 41.876013], [-7.911018, 41.876013], [-7.910886, 41.875819], [-7.911018, 41.876013]]], [[[-7.910865, 41.875788], [-7.910865, 41.875788], [-7.909988, 41.874297], [-7.910865, 41.875788]]], [[[-7.907338, 41.869029], [-7.907338, 41.869029], [-7.907296, 41.868945], [-7.907338, 41.869029]]], [[[-7.907225, 41.868804], [-7.907225, 41.868804], [-7.906205, 41.866776], [-7.907225, 41.868804]]], [[[-7.904631, 41.860696], [-7.904631, 41.860696], [-7.904616, 41.860627], [-7.904631, 41.860696]]], [[[-8.041097, 41.825322], [-8.041097, 41.825322], [-8.041353, 41.826585], [-8.041097, 41.825322]]], [[[-8.304772, 41.758288], [-8.304772, 41.758288], [-8.304709, 41.758379], [-8.304772, 41.758288]]], [[[-8.071753, 41.492004], [-8.091436, 41.498348], [-8.121995, 41.502996], [-8.145964, 41.502603], [-8.157979, 41.500028], [-8.175083, 41.489971], [-8.194334, 41.466847], [-8.206417, 41.457992], [-8.23046, 41.449829], [-8.278461, 41.439666], [-8.290481, 41.435083], [-8.30203, 41.427759], [-8.307039, 41.418782], [-8.302439, 41.382724], [-8.302, 41.364706], [-8.305354, 41.346711], [-8.313193, 41.332154], [-8.310792, 41.327557], [-8.308701, 41.327561], [-8.307502, 41.325762], [-8.305116, 41.326891], [-8.303024, 41.325994], [-8.303615, 41.323742], [-8.301216, 41.319694], [-8.296431, 41.316774], [-8.297618, 41.313846], [-8.296116, 41.310022], [-8.292241, 41.312504], [-8.288361, 41.312959], [-8.284488, 41.316341], [-8.281801, 41.316569], [-8.279132, 41.324451], [-8.272266, 41.32536], [-8.265709, 41.331221], [-8.269004, 41.336169], [-8.263339, 41.340902], [-8.262751, 41.345405], [-8.256483, 41.347663], [-8.255889, 41.349689], [-8.249622, 41.353072], [-8.251123, 41.356897], [-8.248141, 41.360052], [-8.248448, 41.364328], [-8.245461, 41.364781], [-8.244033, 41.368384], [-8.24747, 41.37337], [-8.248676, 41.382386], [-8.24439, 41.391365], [-8.231062, 41.398843], [-8.219087, 41.39985], [-8.20717, 41.3961], [-8.200079, 41.391065], [-8.195228, 41.382024], [-8.195984, 41.37585], [-8.194677, 41.374275], [-8.191691, 41.376302], [-8.189299, 41.375403], [-8.184818, 41.376756], [-8.169578, 41.377212], [-8.164499, 41.38059], [-8.152544, 41.375866], [-8.151049, 41.37339], [-8.145073, 41.374742], [-8.139694, 41.377894], [-8.133418, 41.374292], [-8.119672, 41.376768], [-8.119672, 41.378569], [-8.116683, 41.380144], [-8.117578, 41.386447], [-8.113992, 41.386896], [-8.112795, 41.390723], [-8.110105, 41.390947], [-8.108011, 41.393648], [-8.103827, 41.392972], [-8.105321, 41.394998], [-8.10263, 41.396123], [-8.10801, 41.398825], [-8.108606, 41.403102], [-8.104419, 41.406252], [-8.104119, 41.408728], [-8.101727, 41.409403], [-8.102025, 41.411204], [-8.092756, 41.411201], [-8.09126, 41.414352], [-8.079893, 41.41975], [-8.077503, 41.416597], [-8.070923, 41.41862], [-8.066739, 41.416142], [-8.061654, 41.417489], [-8.059852, 41.424916], [-8.055959, 41.429415], [-8.05745, 41.432793], [-8.056549, 41.436394], [-8.069999, 41.447206], [-8.068788, 41.462286], [-8.073872, 41.46499], [-8.074164, 41.473543], [-8.066374, 41.482318], [-8.066069, 41.48817], [-8.071755, 41.489974], [-8.071753, 41.492004]], [[-8.145502, 41.480747], [-8.139897, 41.489713], [-8.134114, 41.492709], [-8.122089, 41.49602], [-8.110119, 41.495288], [-8.094482, 41.489364], [-8.087513, 41.480302], [-8.086697, 41.471288], [-8.091512, 41.462319], [-8.098674, 41.45664], [-8.110694, 41.453233], [-8.12266, 41.453681], [-8.134576, 41.45799], [-8.140001, 41.462692], [-8.145459, 41.47174], [-8.145502, 41.480747]]]]}}, {"id": "5", "type": "Feature", "properties": {"fill": "#f77f52", "value_min": 0.67, "value_max": 0.73}, "geometry": {"type": "MultiPolygon", "coordinates": [[[[-7.973345, 41.810315], [-7.980326, 41.803656], [-7.982709, 41.79467], [-7.980243, 41.785642], [-7.970624, 41.776549], [-7.961915, 41.772555], [-7.949905, 41.771238], [-7.937874, 41.771207], [-7.925799, 41.773807], [-7.922291, 41.776106], [-7.914521, 41.785039], [-7.913647, 41.794038], [-7.9171, 41.803077], [-7.925171, 41.811433], [-7.937126, 41.816526], [-7.949157, 41.817078], [-7.961223, 41.815476], [-7.973345, 41.810315]], [[-7.937308, 41.805469], [-7.933206, 41.803228], [-7.924592, 41.794141], [-7.926146, 41.785149], [-7.937753, 41.778539], [-7.949789, 41.778381], [-7.963974, 41.785496], [-7.965941, 41.79452], [-7.956795, 41.803445], [-7.949334, 41.806205], [-7.937308, 41.805469]]], [[[-8.190725, 41.7562], [-8.19413, 41.751313], [-8.194581, 41.74231], [-8.187152, 41.73325], [-8.17904, 41.72925], [-8.167024, 41.728655], [-8.157083, 41.733034], [-8.148275, 41.741976], [-8.147996, 41.750981], [-8.154595, 41.759572], [-8.166558, 41.764701], [-8.178597, 41.763958], [-8.190725, 41.7562]], [[-8.163421, 41.742087], [-8.166886, 41.739325], [-8.177819, 41.742191], [-8.166776, 41.747795], [-8.163421, 41.742087]]], [[[-8.119446, 41.690778], [-8.108473, 41.696639], [-8.119246, 41.705444], [-8.126605, 41.696778], [-8.119446, 41.690778]]], [[[-8.155899, 41.659974], [-8.172029, 41.652079], [-8.181036, 41.643136], [-8.186515, 41.634168], [-8.188217, 41.625173], [-8.186959, 41.616157], [-8.180618, 41.604863], [-8.168756, 41.594092], [-8.144876, 41.585231], [-8.13287, 41.58592], [-8.120784, 41.592473], [-8.116705, 41.597624], [-8.098369, 41.63351], [-8.101303, 41.642541], [-8.119915, 41.656349], [-8.131871, 41.660381], [-8.143863, 41.661843], [-8.155899, 41.659974]], [[-8.13195, 41.654534], [-8.120002, 41.649949], [-8.111076, 41.642617], [-8.108891, 41.633593], [-8.112499, 41.624613], [-8.120465, 41.615961], [-8.132558, 41.609212], [-8.144567, 41.608644], [-8.156518, 41.612469], [-8.161281, 41.615972], [-8.16779, 41.625027], [-8.168603, 41.63404], [-8.16495, 41.643021], [-8.156027, 41.650112], [-8.143959, 41.654612], [-8.13195, 41.654534]]], [[[-8.081279, 41.561514], [-8.097139, 41.567217], [-8.109107, 41.569047], [-8.121098, 41.56932], [-8.133127, 41.566684], [-8.145246, 41.557125], [-8.153242, 41.543856], [-8.154116, 41.534855], [-8.151047, 41.525825], [-8.141569, 41.516747], [-8.113054, 41.507524], [-8.0927, 41.505987], [-8.090598, 41.514841], [-8.097897, 41.512693], [-8.109875, 41.513062], [-8.121159, 41.516593], [-8.129889, 41.525667], [-8.129821, 41.534674], [-8.121441, 41.543968], [-8.109394, 41.548153], [-8.097412, 41.547612], [-8.087819, 41.543551], [-8.083389, 41.5449], [-8.080687, 41.551651], [-8.074396, 41.549848], [-8.072897, 41.551197], [-8.076188, 41.557276], [-8.079783, 41.558403], [-8.081279, 41.561514]]], [[[-8.260744, 41.508568], [-8.256557, 41.499534], [-8.253857, 41.497595], [-8.241902, 41.495339], [-8.23113, 41.499366], [-8.226356, 41.508342], [-8.231524, 41.517384], [-8.241601, 41.521172], [-8.253612, 41.518951], [-8.260744, 41.508568]]], [[[-8.649836, 41.384172], [-8.662517, 41.375336], [-8.666902, 41.366341], [-8.66633, 41.357332], [-8.660913, 41.348308], [-8.650071, 41.340314], [-8.638141, 41.336377], [-8.626192, 41.335884], [-8.614224, 41.338745], [-8.6013, 41.348117], [-8.596986, 41.35711], [-8.59742, 41.366119], [-8.602744, 41.375145], [-8.613962, 41.383161], [-8.625901, 41.386796], [-8.63786, 41.387101], [-8.649836, 41.384172]]]]}}, {"id": "4", "type": "Feature", "properties": {"fill": "#fc9863", "value_min": 0.6, "value_max": 0.67}, "geometry": {"type": "MultiPolygon", "coordinates": [[[[-8.041353, 41.826585], [-8.041097, 41.825322], [-8.041054, 41.82511], [-8.031677, 41.8041], [-8.016621, 41.785959], [-8.005889, 41.776859], [-7.962318, 41.7476], [-7.95034, 41.744586], [-7.93829, 41.745971], [-7.926163, 41.751989], [-7.913978, 41.761329], [-7.901746, 41.775911], [-7.897193, 41.784874], [-7.897277, 41.793882], [-7.906054, 41.820986], [-7.903768, 41.847985], [-7.904581, 41.860471], [-7.904616, 41.860627], [-7.904631, 41.860696], [-7.907309, 41.865203], [-7.906205, 41.866776], [-7.907225, 41.868804], [-7.907296, 41.868945], [-7.907338, 41.869029], [-7.910299, 41.871285], [-7.909988, 41.874297], [-7.910865, 41.875788], [-7.910886, 41.875819], [-7.911018, 41.876013], [-7.915391, 41.879397], [-7.921118, 41.877833], [-7.928044, 41.87807], [-7.935283, 41.874707], [-7.937389, 41.87516], [-7.941618, 41.870891], [-7.951254, 41.871132], [-7.956367, 41.87339], [-7.956362, 41.875191], [-7.960576, 41.875647], [-7.962086, 41.874074], [-7.97202, 41.875439], [-7.975637, 41.874543], [-7.987996, 41.869157], [-7.990123, 41.860157], [-7.995547, 41.858138], [-7.994047, 41.855211], [-7.996162, 41.851837], [-8.003089, 41.850494], [-8.005804, 41.847346], [-8.007928, 41.838796], [-8.012753, 41.833624], [-8.013363, 41.829124], [-8.017873, 41.831379], [-8.02901, 41.829589], [-8.037134, 41.831171], [-8.041353, 41.826585]], [[-7.973345, 41.810315], [-7.961223, 41.815476], [-7.949157, 41.817078], [-7.937126, 41.816526], [-7.925171, 41.811433], [-7.9171, 41.803077], [-7.913647, 41.794038], [-7.914521, 41.785039], [-7.922291, 41.776106], [-7.925799, 41.773807], [-7.937874, 41.771207], [-7.949905, 41.771238], [-7.961915, 41.772555], [-7.970624, 41.776549], [-7.980243, 41.785642], [-7.982709, 41.79467], [-7.980326, 41.803656], [-7.973345, 41.810315]]], [[[-8.178102, 41.802786], [-8.190184, 41.79922], [-8.20231, 41.792057], [-8.206809, 41.787429], [-8.213592, 41.778469], [-8.217603, 41.769489], [-8.219762, 41.75149], [-8.216921, 41.742464], [-8.209877, 41.733409], [-8.194714, 41.724297], [-8.17918, 41.718254], [-8.167158, 41.718218], [-8.138957, 41.732899], [-8.127376, 41.741819], [-8.121757, 41.750783], [-8.120582, 41.768788], [-8.123385, 41.777816], [-8.129285, 41.786868], [-8.142062, 41.797321], [-8.154036, 41.802084], [-8.166054, 41.803585], [-8.178102, 41.802786]], [[-8.190725, 41.7562], [-8.178597, 41.763958], [-8.166558, 41.764701], [-8.154595, 41.759572], [-8.147996, 41.750981], [-8.148275, 41.741976], [-8.157083, 41.733034], [-8.167024, 41.728655], [-8.17904, 41.72925], [-8.187152, 41.73325], [-8.194581, 41.74231], [-8.19413, 41.751313], [-8.190725, 41.7562]]], [[[-8.107113, 41.713704], [-8.119156, 41.712045], [-8.131354, 41.698874], [-8.136692, 41.696854], [-8.139626, 41.687869], [-8.131609, 41.679921], [-8.119555, 41.682834], [-8.101043, 41.696581], [-8.099259, 41.705574], [-8.107113, 41.713704]], [[-8.119446, 41.690778], [-8.126605, 41.696778], [-8.119246, 41.705444], [-8.108473, 41.696639], [-8.119446, 41.690778]]], [[[-8.040823, 41.597094], [-8.061435, 41.624208], [-8.07134, 41.633295], [-8.128995, 41.669775], [-8.131651, 41.676794], [-8.143638, 41.678809], [-8.155675, 41.677074], [-8.167747, 41.672581], [-8.219219, 41.643402], [-8.231446, 41.634477], [-8.248734, 41.616577], [-8.264723, 41.596043], [-8.280183, 41.58075], [-8.325235, 41.546366], [-8.349363, 41.531599], [-8.36632, 41.518205], [-8.373572, 41.507234], [-8.377053, 41.491242], [-8.373931, 41.470012], [-8.364391, 41.446136], [-8.365459, 41.437134], [-8.376854, 41.428189], [-8.410389, 41.411359], [-8.42491, 41.401416], [-8.440229, 41.383477], [-8.44342, 41.374485], [-8.444056, 41.36548], [-8.442305, 41.356464], [-8.437803, 41.347435], [-8.430741, 41.338392], [-8.420386, 41.329333], [-8.397943, 41.31693], [-8.393775, 41.31997], [-8.393489, 41.323122], [-8.391105, 41.324253], [-8.386027, 41.323814], [-8.380382, 41.331254], [-8.375305, 41.33104], [-8.37201, 41.328346], [-8.361563, 41.329718], [-8.358276, 41.329049], [-8.357673, 41.327249], [-8.350207, 41.327264], [-8.346032, 41.328847], [-8.342462, 41.333131], [-8.333215, 41.336299], [-8.326363, 41.342163], [-8.324568, 41.341041], [-8.323376, 41.341943], [-8.316788, 41.335876], [-8.313802, 41.336331], [-8.313193, 41.332154], [-8.305354, 41.346711], [-8.302, 41.364706], [-8.302439, 41.382724], [-8.307039, 41.418782], [-8.30203, 41.427759], [-8.290481, 41.435083], [-8.278461, 41.439666], [-8.23046, 41.449829], [-8.206417, 41.457992], [-8.194334, 41.466847], [-8.175083, 41.489971], [-8.157979, 41.500028], [-8.145964, 41.502603], [-8.121995, 41.502996], [-8.091436, 41.498348], [-8.071753, 41.492004], [-8.07175, 41.494925], [-8.078333, 41.49898], [-8.078332, 41.500331], [-8.092402, 41.504163], [-8.0927, 41.505987], [-8.113054, 41.507524], [-8.141569, 41.516747], [-8.151047, 41.525825], [-8.154116, 41.534855], [-8.153242, 41.543856], [-8.145246, 41.557125], [-8.133127, 41.566684], [-8.121098, 41.56932], [-8.109107, 41.569047], [-8.097139, 41.567217], [-8.081279, 41.561514], [-8.081576, 41.565157], [-8.078879, 41.56493], [-8.075279, 41.568305], [-8.073182, 41.568079], [-8.069283, 41.570553], [-8.068081, 41.573478], [-8.056684, 41.579549], [-8.052181, 41.584498], [-8.052777, 41.587649], [-8.040823, 41.597094]], [[-8.155899, 41.659974], [-8.143863, 41.661843], [-8.131871, 41.660381], [-8.119915, 41.656349], [-8.101303, 41.642541], [-8.098369, 41.63351], [-8.116705, 41.597624], [-8.120784, 41.592473], [-8.13287, 41.58592], [-8.144876, 41.585231], [-8.168756, 41.594092], [-8.180618, 41.604863], [-8.186959, 41.616157], [-8.188217, 41.625173], [-8.186515, 41.634168], [-8.181036, 41.643136], [-8.172029, 41.652079], [-8.155899, 41.659974]], [[-8.260744, 41.508568], [-8.253612, 41.518951], [-8.241601, 41.521172], [-8.231524, 41.517384], [-8.226356, 41.508342], [-8.23113, 41.499366], [-8.241902, 41.495339], [-8.253857, 41.497595], [-8.256557, 41.499534], [-8.260744, 41.508568]]], [[[-8.456984, 41.563109], [-8.469013, 41.55873], [-8.473912, 41.554777], [-8.47784, 41.545788], [-8.473836, 41.536762], [-8.469217, 41.533696], [-8.45728, 41.527631], [-8.445306, 41.526252], [-8.433287, 41.530005], [-8.424488, 41.536526], [-8.422382, 41.545523], [-8.426959, 41.554553], [-8.433038, 41.558553], [-8.444992, 41.562945], [-8.456984, 41.563109]]], [[[-8.545092, 41.474014], [-8.553535, 41.47483], [-8.565535, 41.471308], [-8.574102, 41.465118], [-8.579444, 41.45613], [-8.580151, 41.447125], [-8.577721, 41.438868], [-8.565853, 41.423611], [-8.553888, 41.423261], [-8.541895, 41.426934], [-8.529872, 41.434604], [-8.522534, 41.446901], [-8.522456, 41.455908], [-8.527281, 41.464935], [-8.541567, 41.473615], [-8.545092, 41.474014]]], [[[-8.649661, 41.416767], [-8.673623, 41.41072], [-8.685612, 41.405782], [-8.702063, 41.39346], [-8.707116, 41.384466], [-8.708326, 41.375461], [-8.706609, 41.366449], [-8.701892, 41.357429], [-8.694398, 41.348402], [-8.672236, 41.330326], [-8.650192, 41.317626], [-8.638267, 41.313615], [-8.626331, 41.31152], [-8.602432, 41.312421], [-8.590468, 41.315136], [-8.574661, 41.320999], [-8.55897, 41.329947], [-8.548414, 41.338914], [-8.537302, 41.356885], [-8.535793, 41.365887], [-8.536769, 41.374898], [-8.545428, 41.392948], [-8.565904, 41.415904], [-8.577853, 41.418617], [-8.601779, 41.419655], [-8.625714, 41.419358], [-8.649661, 41.416767]], [[-8.649836, 41.384172], [-8.63786, 41.387101], [-8.625901, 41.386796], [-8.613962, 41.383161], [-8.602744, 41.375145], [-8.59742, 41.366119], [-8.596986, 41.35711], [-8.6013, 41.348117], [-8.614224, 41.338745], [-8.626192, 41.335884], [-8.638141, 41.336377], [-8.650071, 41.340314], [-8.660913, 41.348308], [-8.66633, 41.357332], [-8.666902, 41.366341], [-8.662517, 41.375336], [-8.649836, 41.384172]]]]}}, {"id": "9", "type": "Feature", "properties": {"fill": "#da382b", "value_min": 0.93, "value_max": 1.0}, "geometry": {"type": "Polygon", "coordinates": [[[-8.132256, 41.631718], [-8.129987, 41.633754], [-8.13219, 41.636658], [-8.137071, 41.633808], [-8.132256, 41.631718]]]}}, {"id": "8", "type": "Feature", "properties": {"fill": "#e14a35", "value_min": 0.87, "value_max": 0.93}, "geometry": {"type": "Polygon", "coordinates": [[[-8.14412, 41.642391], [-8.149304, 41.633899], [-8.144325, 41.626948], [-8.132358, 41.62412], [-8.121513, 41.63369], [-8.127729, 41.642744], [-8.132081, 41.644787], [-8.14412, 41.642391]], [[-8.132256, 41.631718], [-8.137071, 41.633808], [-8.13219, 41.636658], [-8.129987, 41.633754], [-8.132256, 41.631718]]]}}, {"id": "6", "type": "Feature", "properties": {"fill": "#ef6d48", "value_min": 0.73, "value_max": 0.8}, "geometry": {"type": "MultiPolygon", "coordinates": [[[[-7.937308, 41.805469], [-7.949334, 41.806205], [-7.956795, 41.803445], [-7.965941, 41.79452], [-7.963974, 41.785496], [-7.949789, 41.778381], [-7.937753, 41.778539], [-7.926146, 41.785149], [-7.924592, 41.794141], [-7.933206, 41.803228], [-7.937308, 41.805469]], [[-7.937461, 41.796227], [-7.935223, 41.79424], [-7.936532, 41.785245], [-7.949692, 41.784304], [-7.951794, 41.785385], [-7.953057, 41.794404], [-7.949485, 41.796974], [-7.937461, 41.796227]]], [[[-8.163421, 41.742087], [-8.166776, 41.747795], [-8.177819, 41.742191], [-8.166886, 41.739325], [-8.163421, 41.742087]]], [[[-8.13195, 41.654534], [-8.143959, 41.654612], [-8.156027, 41.650112], [-8.16495, 41.643021], [-8.168603, 41.63404], [-8.16779, 41.625027], [-8.161281, 41.615972], [-8.156518, 41.612469], [-8.144567, 41.608644], [-8.132558, 41.609212], [-8.120465, 41.615961], [-8.112499, 41.624613], [-8.108891, 41.633593], [-8.111076, 41.642617], [-8.120002, 41.649949], [-8.13195, 41.654534]], [[-8.132019, 41.649361], [-8.118386, 41.642673], [-8.115025, 41.63364], [-8.120348, 41.624529], [-8.132441, 41.617926], [-8.144437, 41.618474], [-8.154524, 41.62493], [-8.157994, 41.633963], [-8.153629, 41.642938], [-8.144041, 41.648428], [-8.132019, 41.649361]]], [[[-8.087819, 41.543551], [-8.097412, 41.547612], [-8.109394, 41.548153], [-8.121441, 41.543968], [-8.129821, 41.534674], [-8.129889, 41.525667], [-8.121159, 41.516593], [-8.109875, 41.513062], [-8.097897, 41.512693], [-8.090598, 41.514841], [-8.089398, 41.519468], [-8.090594, 41.522169], [-8.093588, 41.52307], [-8.091786, 41.531848], [-8.097775, 41.536127], [-8.097774, 41.537927], [-8.106759, 41.543557], [-8.101666, 41.542655], [-8.094175, 41.544904], [-8.092079, 41.543328], [-8.087819, 41.543551]], [[-8.097645, 41.530838], [-8.095507, 41.525402], [-8.097746, 41.52354], [-8.109745, 41.522603], [-8.113536, 41.525542], [-8.109592, 41.533771], [-8.097645, 41.530838]]]]}}, {"id": "7", "type": "Feature", "properties": {"fill": "#e85c3f", "value_min": 0.8, "value_max": 0.87}, "geometry": {"type": "MultiPolygon", "coordinates": [[[[-7.937461, 41.796227], [-7.949485, 41.796974], [-7.953057, 41.794404], [-7.951794, 41.785385], [-7.949692, 41.784304], [-7.936532, 41.785245], [-7.935223, 41.79424], [-7.937461, 41.796227]]], [[[-8.132019, 41.649361], [-8.144041, 41.648428], [-8.153629, 41.642938], [-8.157994, 41.633963], [-8.154524, 41.62493], [-8.144437, 41.618474], [-8.132441, 41.617926], [-8.120348, 41.624529], [-8.115025, 41.63364], [-8.118386, 41.642673], [-8.132019, 41.649361]], [[-8.14412, 41.642391], [-8.132081, 41.644787], [-8.127729, 41.642744], [-8.121513, 41.63369], [-8.132358, 41.62412], [-8.144325, 41.626948], [-8.149304, 41.633899], [-8.14412, 41.642391]]], [[[-8.097645, 41.530838], [-8.109592, 41.533771], [-8.113536, 41.525542], [-8.109745, 41.522603], [-8.097746, 41.52354], [-8.095507, 41.525402], [-8.097645, 41.530838]]]]}}, {"id": "0", "type": "Feature", "properties": {"fill": "#ddf190", "value_min": 0.33, "value_max": 0.4}, "geometry": {"type": "Polygon", "coordinates": [[[-8.083478, 41.685047], [-8.095513, 41.683618], [-8.09981, 41.678557], [-8.09567, 41.672414], [-8.083667, 41.671701], [-8.077279, 41.678378], [-8.083478, 41.685047]]]}}]}