{"type": "FeatureCollection", "features": [{"id": "4", "type": "Feature", "properties": {"fill": "#eef8a7", "value_min": 0.4, "value_max": -0.47}, "geometry": {"type": "Polygon", "coordinates": [[[-8.350492, 41.482088], [-8.337908, 41.479433], [-8.333548, 41.481991], [-8.332821, 41.490994], [-8.337758, 41.494123], [-8.349757, 41.492196], [-8.350492, 41.482088]]]}}, {"id": "3", "type": "Feature", "properties": {"fill": "#ddf190", "value_min": 0.33, "value_max": -0.4}, "geometry": {"type": "MultiPolygon", "coordinates": [[[[-7.793767, 41.882256], [-7.794921, 41.880299], [-7.795224, 41.879785], [-7.795225, 41.879783], [-7.795753, 41.878886], [-7.795832, 41.878752], [-7.795886, 41.878661], [-7.796548, 41.877538], [-7.794349, 41.87438], [-7.798662, 41.873943], [-7.799969, 41.86496], [-7.797583, 41.855929], [-7.789531, 41.846837], [-7.780127, 41.841808], [-7.768148, 41.838348], [-7.756115, 41.837778], [-7.746677, 41.83952], [-7.746349, 41.84407], [-7.750541, 41.847685], [-7.750532, 41.849261], [-7.743309, 41.849012], [-7.746901, 41.8524], [-7.746881, 41.855776], [-7.73843, 41.859348], [-7.734159, 41.868337], [-7.730228, 41.871024], [-7.729293, 41.875972], [-7.722351, 41.878424], [-7.720523, 41.881793], [-7.725335, 41.882935], [-7.726208, 41.887665], [-7.737044, 41.888828], [-7.737935, 41.890857], [-7.74246, 41.889747], [-7.742785, 41.885922], [-7.756022, 41.888441], [-7.758719, 41.890926], [-7.756592, 41.89407], [-7.758076, 41.897901], [-7.762542, 41.89814], [-7.764401, 41.897988], [-7.779227, 41.886264], [-7.785257, 41.885157], [-7.788886, 41.882467], [-7.793767, 41.882256]]], [[[-7.888843, 41.823649], [-7.892638, 41.811851], [-7.88918, 41.804139], [-7.877314, 41.794282], [-7.873763, 41.793654], [-7.869396, 41.784604], [-7.877541, 41.781264], [-7.881763, 41.775718], [-7.887593, 41.766768], [-7.888244, 41.757767], [-7.882517, 41.748705], [-7.878158, 41.745871], [-7.866201, 41.741924], [-7.854167, 41.742359], [-7.840065, 41.748284], [-7.833524, 41.757225], [-7.83354, 41.766232], [-7.838662, 41.775291], [-7.841484, 41.778924], [-7.851242, 41.784424], [-7.857632, 41.793494], [-7.853224, 41.795354], [-7.848095, 41.802406], [-7.844932, 41.811381], [-7.846936, 41.820408], [-7.852663, 41.826771], [-7.864614, 41.831929], [-7.876669, 41.831237], [-7.888843, 41.823649]]], [[[-8.066373, 41.482978], [-8.070681, 41.489175], [-8.08624, 41.498307], [-8.110002, 41.503832], [-8.133942, 41.505646], [-8.169957, 41.500304], [-8.181875, 41.505321], [-8.197753, 41.52616], [-8.209115, 41.535246], [-8.217405, 41.539924], [-8.229344, 41.544101], [-8.241306, 41.546408], [-8.265296, 41.54553], [-8.30136, 41.536694], [-8.337372, 41.531942], [-8.361437, 41.52281], [-8.375904, 41.509251], [-8.380413, 41.500268], [-8.382054, 41.491269], [-8.378358, 41.464227], [-8.364368, 41.437128], [-8.363019, 41.428113], [-8.373082, 41.419161], [-8.386449, 41.412443], [-8.40316, 41.401306], [-8.412363, 41.392345], [-8.418578, 41.383369], [-8.42191, 41.374379], [-8.422147, 41.356365], [-8.418757, 41.34734], [-8.411057, 41.337397], [-8.399188, 41.328375], [-8.39025, 41.324254], [-8.386325, 41.323588], [-8.380382, 41.331254], [-8.375305, 41.33104], [-8.37201, 41.328346], [-8.361563, 41.329718], [-8.358276, 41.329049], [-8.357673, 41.327249], [-8.350207, 41.327264], [-8.346032, 41.328847], [-8.342462, 41.333131], [-8.333215, 41.336299], [-8.326363, 41.342163], [-8.324568, 41.341041], [-8.323376, 41.341943], [-8.317685, 41.336586], [-8.309954, 41.346739], [-8.304451, 41.364721], [-8.304688, 41.382738], [-8.31151, 41.409801], [-8.310732, 41.418804], [-8.300789, 41.427752], [-8.278463, 41.439468], [-8.25442, 41.448439], [-8.194402, 41.461313], [-8.18246, 41.458768], [-8.160158, 41.444826], [-8.146806, 41.438385], [-8.122949, 41.432245], [-8.110986, 41.431849], [-8.098994, 41.433514], [-8.08697, 41.437451], [-8.076032, 41.444181], [-8.069599, 41.450807], [-8.068497, 41.453282], [-8.070288, 41.458235], [-8.068788, 41.462286], [-8.073872, 41.46499], [-8.074164, 41.473543], [-8.066373, 41.482978]], [[-8.350492, 41.482088], [-8.349757, 41.492196], [-8.337758, 41.494123], [-8.332821, 41.490994], [-8.333548, 41.481991], [-8.337908, 41.479433], [-8.350492, 41.482088]]], [[[-8.617029, 41.178111], [-8.633434, 41.240131], [-8.634459, 41.25815], [-8.631929, 41.26715], [-8.62616, 41.276139], [-8.616638, 41.285115], [-8.573981, 41.311988], [-8.564547, 41.320961], [-8.5584, 41.329945], [-8.555462, 41.338942], [-8.556446, 41.356961], [-8.560232, 41.365983], [-8.576096, 41.384058], [-8.589389, 41.393113], [-8.601903, 41.399298], [-8.625791, 41.406011], [-8.649714, 41.40688], [-8.673662, 41.402905], [-8.700928, 41.393457], [-8.718359, 41.384494], [-8.77922, 41.348596], [-8.806937, 41.328236], [-8.799695, 41.14406], [-8.674793, 41.146932], [-8.674849, 41.153767], [-8.672489, 41.15648], [-8.66117, 41.156307], [-8.662078, 41.158104], [-8.660313, 41.160813], [-8.657033, 41.160378], [-8.654961, 41.161963], [-8.653231, 41.169174], [-8.655366, 41.175467], [-8.647955, 41.180228], [-8.647696, 41.185181], [-8.640929, 41.196241], [-8.634946, 41.193341], [-8.632526, 41.188624], [-8.625658, 41.186628], [-8.62263, 41.180113], [-8.617029, 41.178111]]]]}}, {"id": "2", "type": "Feature", "properties": {"fill": "#bde282", "value_min": 0.27, "value_max": -0.33}, "geometry": {"type": "MultiPolygon", "coordinates": [[[[-8.448443, 41.703603], [-8.453868, 41.697961], [-8.453255, 41.695487], [-8.461659, 41.694563], [-8.482012, 41.682123], [-8.484371, 41.674238], [-8.49308, 41.674886], [-8.499963, 41.671038], [-8.50927, 41.671233], [-8.51018, 41.672806], [-8.511967, 41.670324], [-8.509856, 41.668755], [-8.522103, 41.658811], [-8.525706, 41.659023], [-8.527769, 41.652714], [-8.534066, 41.652017], [-8.537355, 41.64998], [-8.537634, 41.646602], [-8.543876, 41.637352], [-8.543855, 41.633976], [-8.536342, 41.631977], [-8.535128, 41.62973], [-8.543431, 41.61462], [-8.554533, 41.615255], [-8.557244, 41.617046], [-8.562639, 41.61635], [-8.568056, 41.619031], [-8.570735, 41.616095], [-8.577321, 41.614269], [-8.581231, 41.615829], [-8.585766, 41.620988], [-8.591462, 41.620515], [-8.596534, 41.616668], [-8.601628, 41.615972], [-8.603996, 41.611686], [-8.613256, 41.606696], [-8.619881, 41.610269], [-8.621338, 41.604636], [-8.628833, 41.604378], [-8.636302, 41.600744], [-8.64075, 41.594422], [-8.645536, 41.593051], [-8.646744, 41.594171], [-8.649125, 41.591909], [-8.656622, 41.5921], [-8.660788, 41.588255], [-8.663794, 41.589141], [-8.665265, 41.585758], [-8.66948, 41.587989], [-8.684455, 41.586117], [-8.685608, 41.58071], [-8.697261, 41.576376], [-8.701703, 41.570277], [-8.707704, 41.570923], [-8.712485, 41.569323], [-8.716422, 41.573805], [-8.720316, 41.57356], [-8.725151, 41.577811], [-8.726633, 41.576003], [-8.734424, 41.575737], [-8.736564, 41.580228], [-8.738354, 41.579318], [-8.740778, 41.582006], [-8.74467, 41.581535], [-8.750711, 41.58623], [-8.756374, 41.582823], [-8.75635, 41.580347], [-8.762327, 41.578514], [-8.764443, 41.580303], [-8.767441, 41.580286], [-8.769874, 41.583874], [-8.768997, 41.58613], [-8.773228, 41.589482], [-8.775371, 41.593972], [-8.78556, 41.593464], [-8.797327, 41.600599], [-8.804218, 41.600109], [-8.80456, 41.604158], [-8.809434, 41.611332], [-8.828644, 41.609656], [-8.82839, 41.585633], [-8.818497, 41.554794], [-8.8221, 41.547542], [-8.821965, 41.534907], [-8.815926, 41.525624], [-8.81063, 41.5101], [-8.813279, 41.503483], [-8.812636, 41.496944], [-8.804699, 41.482068], [-8.798552, 41.474753], [-8.80154, 41.446836], [-8.806115, 41.43713], [-8.807354, 41.425915], [-8.811193, 41.416638], [-8.806937, 41.328236], [-8.77922, 41.348596], [-8.718359, 41.384494], [-8.700928, 41.393457], [-8.673662, 41.402905], [-8.649714, 41.40688], [-8.625791, 41.406011], [-8.601903, 41.399298], [-8.589389, 41.393113], [-8.576096, 41.384058], [-8.560232, 41.365983], [-8.556446, 41.356961], [-8.555462, 41.338942], [-8.5584, 41.329945], [-8.564547, 41.320961], [-8.573981, 41.311988], [-8.616638, 41.285115], [-8.62616, 41.276139], [-8.631929, 41.26715], [-8.634459, 41.25815], [-8.633434, 41.240131], [-8.617029, 41.178111], [-8.613374, 41.177451], [-8.608583, 41.174095], [-8.609164, 41.172066], [-8.604942, 41.164881], [-8.59422, 41.165149], [-8.589766, 41.167193], [-8.589194, 41.170572], [-8.583263, 41.174422], [-8.582094, 41.177803], [-8.578825, 41.178941], [-8.581296, 41.191762], [-8.575958, 41.195609], [-8.576894, 41.201908], [-8.574515, 41.202593], [-8.57423, 41.20462], [-8.567971, 41.204644], [-8.565895, 41.206227], [-8.567697, 41.208246], [-8.566512, 41.209376], [-8.559636, 41.206251], [-8.554271, 41.20627], [-8.549521, 41.209214], [-8.544157, 41.209458], [-8.54238, 41.211265], [-8.532257, 41.213102], [-8.52713, 41.203215], [-8.523236, 41.200077], [-8.51163, 41.203042], [-8.510456, 41.206197], [-8.505693, 41.207113], [-8.504239, 41.213646], [-8.500076, 41.21546], [-8.50308, 41.219502], [-8.502204, 41.222656], [-8.495642, 41.222227], [-8.495947, 41.223351], [-8.490894, 41.226294], [-8.487935, 41.230354], [-8.490331, 41.232373], [-8.489156, 41.235528], [-8.486181, 41.236888], [-8.484411, 41.240495], [-8.476346, 41.237818], [-8.475756, 41.23917], [-8.470986, 41.23941], [-8.471604, 41.243459], [-8.469227, 41.245267], [-8.463258, 41.244384], [-8.459989, 41.246644], [-8.454323, 41.246886], [-8.455541, 41.251834], [-8.452276, 41.25522], [-8.449891, 41.255452], [-8.449304, 41.257479], [-8.447812, 41.257258], [-8.449028, 41.261982], [-8.439785, 41.262907], [-8.438023, 41.268989], [-8.434745, 41.269673], [-8.432691, 41.277107], [-8.427032, 41.279372], [-8.429143, 41.284319], [-8.426171, 41.287028], [-8.426488, 41.291079], [-8.425013, 41.294909], [-8.422037, 41.296942], [-8.422647, 41.299867], [-8.407744, 41.304856], [-8.406262, 41.307335], [-8.403277, 41.307342], [-8.401801, 41.311398], [-8.399712, 41.311628], [-8.400316, 41.313202], [-8.396738, 41.314336], [-8.398834, 41.315906], [-8.397054, 41.318612], [-8.393775, 41.31997], [-8.393489, 41.323122], [-8.39025, 41.324254], [-8.399188, 41.328375], [-8.411057, 41.337397], [-8.418757, 41.34734], [-8.422147, 41.356365], [-8.42191, 41.374379], [-8.418578, 41.383369], [-8.412363, 41.392345], [-8.40316, 41.401306], [-8.386449, 41.412443], [-8.373082, 41.419161], [-8.363019, 41.428113], [-8.364368, 41.437128], [-8.378358, 41.464227], [-8.382054, 41.491269], [-8.380413, 41.500268], [-8.375904, 41.509251], [-8.361437, 41.52281], [-8.337372, 41.531942], [-8.30136, 41.536694], [-8.265296, 41.54553], [-8.241306, 41.546408], [-8.229344, 41.544101], [-8.217405, 41.539924], [-8.209115, 41.535246], [-8.197753, 41.52616], [-8.181875, 41.505321], [-8.169957, 41.500304], [-8.133942, 41.505646], [-8.110002, 41.503832], [-8.08624, 41.498307], [-8.070681, 41.489175], [-8.066373, 41.482978], [-8.066069, 41.48817], [-8.072054, 41.490199], [-8.072348, 41.495601], [-8.078333, 41.49898], [-8.078332, 41.500331], [-8.093, 41.504613], [-8.089398, 41.519242], [-8.090594, 41.522169], [-8.093588, 41.52307], [-8.091487, 41.531173], [-8.097775, 41.536127], [-8.097774, 41.537927], [-8.106759, 41.543106], [-8.10616, 41.543782], [-8.101666, 41.542655], [-8.094175, 41.544904], [-8.087885, 41.542876], [-8.083389, 41.5449], [-8.080687, 41.551651], [-8.074097, 41.549848], [-8.073494, 41.553449], [-8.075891, 41.554575], [-8.076188, 41.557276], [-8.079783, 41.558403], [-8.081576, 41.565157], [-8.078879, 41.56493], [-8.075279, 41.568305], [-8.073182, 41.568079], [-8.069283, 41.570553], [-8.068081, 41.573478], [-8.056684, 41.579549], [-8.052181, 41.584498], [-8.052777, 41.587649], [-8.037169, 41.600242], [-8.031467, 41.602938], [-8.02367, 41.603156], [-8.019174, 41.601802], [-8.015872, 41.603824], [-8.013474, 41.603372], [-8.005971, 41.60629], [-8.003562, 41.611239], [-7.99936, 41.61281], [-7.998462, 41.612359], [-7.999669, 41.608759], [-7.996976, 41.605829], [-7.996684, 41.602003], [-7.984685, 41.603564], [-7.982292, 41.60086], [-7.975689, 41.603552], [-7.974482, 41.606701], [-7.970882, 41.607147], [-7.969091, 41.603768], [-7.965796, 41.602413], [-7.9541, 41.602846], [-7.952606, 41.600592], [-7.947808, 41.60081], [-7.945413, 41.599456], [-7.942725, 41.595625], [-7.936132, 41.594488], [-7.93791, 41.601694], [-7.937004, 41.603718], [-7.931604, 41.604384], [-7.930979, 41.612711], [-7.925556, 41.620354], [-7.920755, 41.620796], [-7.917748, 41.623041], [-7.915933, 41.627764], [-7.913229, 41.628885], [-7.912613, 41.63361], [-7.906014, 41.633147], [-7.906884, 41.641927], [-7.897869, 41.645511], [-7.89696, 41.647985], [-7.892759, 41.647976], [-7.892145, 41.651576], [-7.902319, 41.659925], [-7.899913, 41.66127], [-7.900198, 41.665547], [-7.898396, 41.665769], [-7.897186, 41.668467], [-7.892682, 41.668683], [-7.892377, 41.670033], [-7.888171, 41.670925], [-7.883969, 41.67069], [-7.880358, 41.673159], [-7.877044, 41.676077], [-7.876723, 41.681253], [-7.873401, 41.686198], [-7.868896, 41.686413], [-7.868008, 41.68326], [-7.864403, 41.683701], [-7.864096, 41.685276], [-7.858987, 41.68639], [-7.857773, 41.689538], [-7.854776, 41.68818], [-7.847538, 41.695365], [-7.837912, 41.698942], [-7.835792, 41.702763], [-7.839682, 41.705924], [-7.838465, 41.709522], [-7.832453, 41.710407], [-7.825252, 41.708813], [-7.818621, 41.713522], [-7.815291, 41.718689], [-7.808986, 41.717996], [-7.808396, 41.715744], [-7.804499, 41.714158], [-7.79939, 41.714593], [-7.79788, 41.716164], [-7.796383, 41.71526], [-7.790966, 41.717044], [-7.789449, 41.719966], [-7.78464, 41.720402], [-7.78252, 41.723546], [-7.776204, 41.724652], [-7.773786, 41.727346], [-7.770798, 41.72441], [-7.765698, 41.723044], [-7.761765, 41.727758], [-7.763239, 41.732714], [-7.760689, 41.736082], [-7.773455, 41.747592], [-7.78476, 41.765726], [-7.788226, 41.783776], [-7.786551, 41.792766], [-7.781359, 41.801717], [-7.770775, 41.810611], [-7.756534, 41.816178], [-7.731746, 41.820577], [-7.73594, 41.823554], [-7.743152, 41.825154], [-7.742839, 41.827178], [-7.738918, 41.82874], [-7.742196, 41.833928], [-7.74729, 41.837772], [-7.746677, 41.83952], [-7.756115, 41.837778], [-7.768148, 41.838348], [-7.780127, 41.841808], [-7.789531, 41.846837], [-7.797583, 41.855929], [-7.799969, 41.86496], [-7.798662, 41.873943], [-7.803381, 41.874857], [-7.805215, 41.86946], [-7.814229, 41.873537], [-7.823863, 41.874013], [-7.825059, 41.875817], [-7.830479, 41.875831], [-7.830789, 41.874031], [-7.832894, 41.874712], [-7.83772, 41.872924], [-7.842528, 41.875187], [-7.841663, 41.866632], [-7.849515, 41.861475], [-7.858542, 41.862622], [-7.859456, 41.860148], [-7.864877, 41.859711], [-7.87033, 41.851395], [-7.873043, 41.850501], [-7.873367, 41.844875], [-7.879056, 41.85254], [-7.886268, 41.855932], [-7.888076, 41.855486], [-7.891675, 41.859094], [-7.900698, 41.861588], [-7.904318, 41.859795], [-7.907309, 41.865203], [-7.906095, 41.868126], [-7.910299, 41.871285], [-7.909985, 41.875111], [-7.915391, 41.879397], [-7.921118, 41.877833], [-7.928044, 41.87807], [-7.935283, 41.874707], [-7.937389, 41.87516], [-7.941618, 41.870891], [-7.951254, 41.871132], [-7.956367, 41.87339], [-7.956362, 41.875191], [-7.960878, 41.875648], [-7.962086, 41.874074], [-7.973828, 41.875216], [-7.987996, 41.869157], [-7.990123, 41.860157], [-7.995547, 41.858138], [-7.994047, 41.855211], [-7.996162, 41.851837], [-8.003089, 41.850494], [-8.005804, 41.847346], [-8.007928, 41.838796], [-8.010941, 41.836773], [-8.013965, 41.828899], [-8.017873, 41.831379], [-8.02901, 41.829589], [-8.037134, 41.831171], [-8.041351, 41.828023], [-8.041054, 41.825097], [-8.045268, 41.824425], [-8.046775, 41.821951], [-8.056712, 41.81588], [-8.06664, 41.817012], [-8.072961, 41.813414], [-8.078678, 41.813417], [-8.082892, 41.810493], [-8.091013, 41.812521], [-8.093421, 41.811397], [-8.093723, 41.808471], [-8.101845, 41.809824], [-8.104853, 41.81185], [-8.115984, 41.812302], [-8.123807, 41.808702], [-8.138247, 41.808477], [-8.139751, 41.813203], [-8.14276, 41.812978], [-8.144866, 41.815228], [-8.149078, 41.814777], [-8.153291, 41.817703], [-8.158106, 41.818377], [-8.165326, 41.81815], [-8.173744, 41.808019], [-8.177655, 41.808242], [-8.183676, 41.812741], [-8.190291, 41.809587], [-8.197158, 41.814129], [-8.201063, 41.808724], [-8.204973, 41.807372], [-8.205872, 41.804445], [-8.213692, 41.803765], [-8.217598, 41.80016], [-8.217589, 41.793634], [-8.224207, 41.794303], [-8.229917, 41.791598], [-8.240744, 41.791588], [-8.24074, 41.789338], [-8.244347, 41.787984], [-8.245546, 41.785731], [-8.251257, 41.784375], [-8.251845, 41.777172], [-8.257551, 41.773564], [-8.261762, 41.774235], [-8.271366, 41.766346], [-8.280681, 41.764083], [-8.284038, 41.761109], [-8.284931, 41.757507], [-8.305674, 41.758152], [-8.311096, 41.762195], [-8.318308, 41.761283], [-8.325233, 41.765098], [-8.328234, 41.763292], [-8.336653, 41.763728], [-8.341756, 41.761468], [-8.344765, 41.762363], [-8.349267, 41.760103], [-8.352557, 41.755145], [-8.34982, 41.745922], [-8.349814, 41.744122], [-8.352516, 41.743441], [-8.352203, 41.739616], [-8.357897, 41.735103], [-8.362407, 41.735994], [-8.368703, 41.73193], [-8.374122, 41.734845], [-8.382859, 41.731], [-8.38123, 41.725452], [-8.383303, 41.716456], [-8.390105, 41.707486], [-8.407122, 41.698568], [-8.419815, 41.695908], [-8.431829, 41.696394], [-8.443812, 41.700328], [-8.448443, 41.703603]], [[-7.888843, 41.823649], [-7.876669, 41.831237], [-7.864614, 41.831929], [-7.852663, 41.826771], [-7.846936, 41.820408], [-7.844932, 41.811381], [-7.848095, 41.802406], [-7.853224, 41.795354], [-7.857632, 41.793494], [-7.851242, 41.784424], [-7.841484, 41.778924], [-7.838662, 41.775291], [-7.83354, 41.766232], [-7.833524, 41.757225], [-7.840065, 41.748284], [-7.854167, 41.742359], [-7.866201, 41.741924], [-7.878158, 41.745871], [-7.882517, 41.748705], [-7.888244, 41.757767], [-7.887593, 41.766768], [-7.881763, 41.775718], [-7.877541, 41.781264], [-7.869396, 41.784604], [-7.873763, 41.793654], [-7.877314, 41.794282], [-7.88918, 41.804139], [-7.892638, 41.811851], [-7.888843, 41.823649]], [[-8.178138, 41.799943], [-8.166119, 41.798529], [-8.15413, 41.794903], [-8.140299, 41.786951], [-8.131221, 41.777876], [-8.12608, 41.76883], [-8.124244, 41.759809], [-8.125594, 41.750812], [-8.131327, 41.741849], [-8.140818, 41.732913], [-8.171323, 41.715123], [-8.180359, 41.706181], [-8.184659, 41.688198], [-8.191689, 41.67933], [-8.203779, 41.673194], [-8.215804, 41.67227], [-8.227783, 41.675051], [-8.235554, 41.67954], [-8.243709, 41.688601], [-8.246247, 41.697625], [-8.244978, 41.706624], [-8.237209, 41.724586], [-8.229309, 41.769569], [-8.22488, 41.778546], [-8.214375, 41.789629], [-8.202262, 41.795914], [-8.190185, 41.79916], [-8.178138, 41.799943]], [[-7.937874, 41.771238], [-7.93297, 41.767198], [-7.929441, 41.758159], [-7.938257, 41.747978], [-7.950294, 41.747373], [-7.962107, 41.758459], [-7.958726, 41.767435], [-7.949886, 41.772395], [-7.937874, 41.771238]]], [[[-7.764401, 41.897988], [-7.764401, 41.897988], [-7.762542, 41.89814], [-7.764401, 41.897988]]], [[[-7.796548, 41.877538], [-7.796548, 41.877538], [-7.795886, 41.878661], [-7.796548, 41.877538]]], [[[-7.795832, 41.878752], [-7.795832, 41.878752], [-7.795753, 41.878886], [-7.795832, 41.878752]]], [[[-7.795225, 41.879783], [-7.795225, 41.879783], [-7.795224, 41.879785], [-7.795225, 41.879783]]], [[[-7.794921, 41.880299], [-7.794921, 41.880299], [-7.793767, 41.882256], [-7.794921, 41.880299]]], [[[-8.069599, 41.450807], [-8.076032, 41.444181], [-8.08697, 41.437451], [-8.098994, 41.433514], [-8.110986, 41.431849], [-8.122949, 41.432245], [-8.146806, 41.438385], [-8.160158, 41.444826], [-8.18246, 41.458768], [-8.194402, 41.461313], [-8.25442, 41.448439], [-8.278463, 41.439468], [-8.300789, 41.427752], [-8.310732, 41.418804], [-8.31151, 41.409801], [-8.304688, 41.382738], [-8.304451, 41.364721], [-8.309954, 41.346739], [-8.317685, 41.336586], [-8.314699, 41.33678], [-8.312604, 41.334983], [-8.313794, 41.333405], [-8.310792, 41.327557], [-8.308701, 41.327561], [-8.307502, 41.325762], [-8.305116, 41.326891], [-8.303024, 41.325994], [-8.303615, 41.323742], [-8.301216, 41.319694], [-8.296431, 41.316774], [-8.297618, 41.313846], [-8.295817, 41.310022], [-8.281801, 41.316569], [-8.281808, 41.319721], [-8.278828, 41.321976], [-8.278238, 41.325128], [-8.273161, 41.325134], [-8.269582, 41.326939], [-8.265709, 41.331221], [-8.269004, 41.336169], [-8.263339, 41.340902], [-8.262751, 41.345405], [-8.256483, 41.347663], [-8.255889, 41.349689], [-8.249622, 41.353072], [-8.251123, 41.356897], [-8.248141, 41.360052], [-8.248448, 41.364328], [-8.245461, 41.364781], [-8.244272, 41.368384], [-8.239197, 41.371315], [-8.232024, 41.369971], [-8.224854, 41.370878], [-8.21738, 41.368182], [-8.214399, 41.373587], [-8.208127, 41.376968], [-8.199163, 41.377423], [-8.194677, 41.374275], [-8.191691, 41.376302], [-8.189299, 41.375403], [-8.184818, 41.376756], [-8.168382, 41.377438], [-8.164499, 41.38059], [-8.152544, 41.375866], [-8.151049, 41.37339], [-8.145073, 41.374742], [-8.139694, 41.377894], [-8.133418, 41.374292], [-8.119672, 41.376768], [-8.119672, 41.378569], [-8.116683, 41.380144], [-8.117578, 41.386447], [-8.113992, 41.386896], [-8.112795, 41.390723], [-8.110105, 41.390947], [-8.108011, 41.393648], [-8.103827, 41.392972], [-8.105321, 41.394998], [-8.10263, 41.396123], [-8.10801, 41.398825], [-8.108606, 41.403102], [-8.104419, 41.406252], [-8.104119, 41.408728], [-8.101727, 41.409403], [-8.102025, 41.411204], [-8.092756, 41.411201], [-8.09126, 41.414352], [-8.079893, 41.41975], [-8.077503, 41.416597], [-8.070923, 41.41862], [-8.066739, 41.416142], [-8.061654, 41.417489], [-8.059852, 41.424916], [-8.055959, 41.429415], [-8.05745, 41.432793], [-8.056549, 41.436394], [-8.057743, 41.438645], [-8.061033, 41.438872], [-8.063424, 41.4409], [-8.064916, 41.444052], [-8.068505, 41.444729], [-8.069599, 41.450807]]]]}}, {"id": "1", "type": "Feature", "properties": {"fill": "#98d277", "value_min": 0.2, "value_max": -0.27}, "geometry": {"type": "MultiPolygon", "coordinates": [[[[-7.731746, 41.820577], [-7.756534, 41.816178], [-7.770775, 41.810611], [-7.781359, 41.801717], [-7.786551, 41.792766], [-7.788226, 41.783776], [-7.78476, 41.765726], [-7.773455, 41.747592], [-7.760689, 41.736082], [-7.759597, 41.739005], [-7.75689, 41.739446], [-7.758687, 41.740577], [-7.757758, 41.745301], [-7.748417, 41.749321], [-7.747786, 41.754496], [-7.743866, 41.756509], [-7.743242, 41.760333], [-7.738407, 41.764499], [-7.745482, 41.765522], [-7.757359, 41.773483], [-7.76099, 41.783486], [-7.757894, 41.792459], [-7.744799, 41.800565], [-7.732738, 41.801754], [-7.72796, 41.800558], [-7.728171, 41.814974], [-7.731746, 41.820577]]], [[[-8.178138, 41.799943], [-8.190185, 41.79916], [-8.202262, 41.795914], [-8.214375, 41.789629], [-8.22488, 41.778546], [-8.229309, 41.769569], [-8.237209, 41.724586], [-8.244978, 41.706624], [-8.246247, 41.697625], [-8.243709, 41.688601], [-8.235554, 41.67954], [-8.227783, 41.675051], [-8.215804, 41.67227], [-8.203779, 41.673194], [-8.191689, 41.67933], [-8.184659, 41.688198], [-8.180359, 41.706181], [-8.171323, 41.715123], [-8.140818, 41.732913], [-8.131327, 41.741849], [-8.125594, 41.750812], [-8.124244, 41.759809], [-8.12608, 41.76883], [-8.131221, 41.777876], [-8.140299, 41.786951], [-8.15413, 41.794903], [-8.166119, 41.798529], [-8.178138, 41.799943]], [[-8.16665, 41.757594], [-8.156188, 41.751041], [-8.154261, 41.74202], [-8.166981, 41.731972], [-8.178997, 41.732601], [-8.188769, 41.742269], [-8.186274, 41.751258], [-8.178691, 41.756652], [-8.16665, 41.757594]]], [[[-7.937874, 41.771238], [-7.949886, 41.772395], [-7.958726, 41.767435], [-7.962107, 41.758459], [-7.950294, 41.747373], [-7.938257, 41.747978], [-7.929441, 41.758159], [-7.93297, 41.767198], [-7.937874, 41.771238]]], [[[-8.448443, 41.703603], [-8.443812, 41.700328], [-8.431829, 41.696394], [-8.419815, 41.695908], [-8.407122, 41.698568], [-8.390105, 41.707486], [-8.383303, 41.716456], [-8.38123, 41.725452], [-8.382859, 41.731], [-8.385523, 41.730319], [-8.387332, 41.73189], [-8.393033, 41.729852], [-8.396942, 41.730518], [-8.400531, 41.726683], [-8.402934, 41.726452], [-8.404721, 41.722847], [-8.417349, 41.725067], [-8.422737, 41.720552], [-8.429643, 41.719859], [-8.430533, 41.717381], [-8.435927, 41.714441], [-8.441333, 41.714201], [-8.4446, 41.70654], [-8.448443, 41.703603]]]]}}, {"id": "0", "type": "Feature", "properties": {"fill": "#74c16c", "value_min": 0.13, "value_max": -0.2}, "geometry": {"type": "MultiPolygon", "coordinates": [[[[-7.72796, 41.800558], [-7.732738, 41.801754], [-7.744799, 41.800565], [-7.757894, 41.792459], [-7.76099, 41.783486], [-7.757359, 41.773483], [-7.745482, 41.765522], [-7.738407, 41.764499], [-7.726937, 41.771755], [-7.7254, 41.777152], [-7.727191, 41.779184], [-7.724177, 41.780299], [-7.725372, 41.781653], [-7.722296, 41.792446], [-7.728581, 41.79742], [-7.72796, 41.800558]]], [[[-8.16665, 41.757594], [-8.178691, 41.756652], [-8.186274, 41.751258], [-8.188769, 41.742269], [-8.178997, 41.732601], [-8.166981, 41.731972], [-8.154261, 41.74202], [-8.156188, 41.751041], [-8.16665, 41.757594]]]]}}]}