{"type": "FeatureCollection", "features": [{"id": "2", "type": "Feature", "properties": {"fill": "#74c16c", "value_min": 0.13, "value_max": -0.2}, "geometry": {"type": "MultiPolygon", "coordinates": [[[[-7.89054, 41.857741], [-7.908182, 41.830013], [-7.911186, 41.821035], [-7.911273, 41.812029], [-7.900136, 41.784902], [-7.899091, 41.757872], [-7.894964, 41.748825], [-7.881136, 41.739685], [-7.86632, 41.735184], [-7.854297, 41.735072], [-7.830629, 41.739182], [-7.812121, 41.747999], [-7.805431, 41.756936], [-7.799387, 41.783894], [-7.790802, 41.801817], [-7.779357, 41.810703], [-7.768604, 41.814583], [-7.732643, 41.821548], [-7.743152, 41.825154], [-7.742839, 41.827178], [-7.738919, 41.828515], [-7.741604, 41.832323], [-7.756265, 41.830061], [-7.768309, 41.829955], [-7.780324, 41.831435], [-7.79956, 41.837936], [-7.809985, 41.847051], [-7.812838, 41.856087], [-7.811227, 41.871535], [-7.814229, 41.873537], [-7.823863, 41.874013], [-7.825059, 41.875817], [-7.830479, 41.875831], [-7.830789, 41.874031], [-7.832894, 41.874712], [-7.83772, 41.872924], [-7.842528, 41.875187], [-7.841663, 41.866632], [-7.849515, 41.861475], [-7.858542, 41.862622], [-7.859456, 41.860148], [-7.864877, 41.859711], [-7.87033, 41.851395], [-7.873043, 41.850501], [-7.873066, 41.844875], [-7.879956, 41.853217], [-7.888076, 41.855486], [-7.89054, 41.857741]], [[-7.864405, 41.843752], [-7.852361, 41.84367], [-7.835235, 41.838303], [-7.826467, 41.829207], [-7.824086, 41.820176], [-7.824908, 41.811178], [-7.83618, 41.784272], [-7.83143, 41.76621], [-7.832773, 41.757217], [-7.842046, 41.747668], [-7.854155, 41.743075], [-7.866189, 41.742587], [-7.881218, 41.748692], [-7.887293, 41.757758], [-7.886764, 41.76676], [-7.882067, 41.775721], [-7.880126, 41.784709], [-7.896731, 41.802883], [-7.899659, 41.811918], [-7.898437, 41.820913], [-7.888664, 41.83401], [-7.876502, 41.840801], [-7.864405, 41.843752]]], [[[-8.296416, 41.310771], [-8.287588, 41.328587], [-8.285092, 41.346587], [-8.289059, 41.39165], [-8.296928, 41.427728], [-8.296154, 41.436731], [-8.283878, 41.463677], [-8.282349, 41.481683], [-8.288838, 41.499738], [-8.29441, 41.508779], [-8.301588, 41.515466], [-8.313498, 41.522465], [-8.32545, 41.525664], [-8.33743, 41.526322], [-8.349431, 41.524805], [-8.361463, 41.520128], [-8.374456, 41.509243], [-8.379558, 41.500263], [-8.381433, 41.491266], [-8.380259, 41.473244], [-8.375022, 41.446194], [-8.379764, 41.437212], [-8.422361, 41.41059], [-8.432966, 41.401456], [-8.440763, 41.392487], [-8.449822, 41.374516], [-8.452593, 41.356513], [-8.449363, 41.338483], [-8.439912, 41.320422], [-8.432077, 41.311376], [-8.419967, 41.301378], [-8.416982, 41.301232], [-8.407744, 41.304856], [-8.406262, 41.307335], [-8.403277, 41.307342], [-8.401801, 41.311398], [-8.399712, 41.311628], [-8.400316, 41.313202], [-8.396738, 41.314336], [-8.398835, 41.316131], [-8.393775, 41.31997], [-8.393489, 41.323122], [-8.391105, 41.324253], [-8.386325, 41.323588], [-8.383404, 41.326971], [-8.399136, 41.334064], [-8.412817, 41.34731], [-8.417558, 41.356342], [-8.419424, 41.365359], [-8.418875, 41.374363], [-8.415787, 41.383355], [-8.409491, 41.392331], [-8.399294, 41.401286], [-8.386488, 41.408265], [-8.374487, 41.412132], [-8.362503, 41.414013], [-8.350541, 41.413657], [-8.338607, 41.410563], [-8.326704, 41.404654], [-8.314871, 41.392137], [-8.31033, 41.382772], [-8.308611, 41.364746], [-8.315211, 41.34677], [-8.321729, 41.339245], [-8.316788, 41.335876], [-8.313802, 41.336331], [-8.310792, 41.327557], [-8.308701, 41.327561], [-8.307502, 41.325762], [-8.305116, 41.326891], [-8.303024, 41.325994], [-8.303615, 41.323742], [-8.301216, 41.319694], [-8.296431, 41.316774], [-8.296416, 41.310771]], [[-8.336136, 41.509028], [-8.32565, 41.50648], [-8.316286, 41.499904], [-8.310704, 41.490863], [-8.31015, 41.481853], [-8.31446, 41.472871], [-8.326088, 41.464228], [-8.338091, 41.461387], [-8.350045, 41.463454], [-8.361945, 41.470982], [-8.367851, 41.482184], [-8.367768, 41.491191], [-8.361647, 41.501418], [-8.349598, 41.508093], [-8.336136, 41.509028]]], [[[-8.604418, 41.164883], [-8.612366, 41.195023], [-8.626816, 41.226436], [-8.641339, 41.240156], [-8.650582, 41.244552], [-8.662502, 41.24744], [-8.674432, 41.248479], [-8.698307, 41.247474], [-8.722192, 41.244148], [-8.746081, 41.238877], [-8.767638, 41.231472], [-8.784037, 41.222496], [-8.80212, 41.205829], [-8.799695, 41.14406], [-8.67527, 41.147484], [-8.676193, 41.146567], [-8.674793, 41.146932], [-8.674204, 41.147693], [-8.674242, 41.152307], [-8.68684, 41.149407], [-8.69876, 41.148898], [-8.71067, 41.150537], [-8.722571, 41.154371], [-8.73446, 41.161638], [-8.741272, 41.16836], [-8.746321, 41.176801], [-8.748914, 41.186393], [-8.748325, 41.1954], [-8.744827, 41.2044], [-8.737931, 41.213393], [-8.725285, 41.222371], [-8.710328, 41.228048], [-8.698386, 41.230322], [-8.686453, 41.230651], [-8.674529, 41.228859], [-8.662621, 41.224266], [-8.650742, 41.214484], [-8.6446, 41.204134], [-8.642486, 41.192857], [-8.641225, 41.196014], [-8.638841, 41.196025], [-8.638231, 41.194227], [-8.634946, 41.193341], [-8.632526, 41.188624], [-8.625658, 41.186628], [-8.621132, 41.178994], [-8.612177, 41.176781], [-8.608583, 41.174095], [-8.609164, 41.172066], [-8.604418, 41.164883]]], [[[-8.654682, 41.164339], [-8.65892, 41.160594], [-8.656143, 41.160832], [-8.654682, 41.164339]]], [[[-8.660597, 41.159118], [-8.660597, 41.159118], [-8.660746, 41.15901], [-8.660597, 41.159118]]], [[[-8.660893, 41.158904], [-8.660893, 41.158904], [-8.661686, 41.158331], [-8.660893, 41.158904]]], [[[-8.661782, 41.158262], [-8.661782, 41.158262], [-8.661999, 41.158104], [-8.661782, 41.158262]]], [[[-8.662078, 41.158048], [-8.663931, 41.15697], [-8.66117, 41.156307], [-8.662078, 41.158048]]], [[[-8.673945, 41.152441], [-8.673945, 41.152441], [-8.67399, 41.152421], [-8.673945, 41.152441]]]]}}, {"id": "1", "type": "Feature", "properties": {"fill": "#50b061", "value_min": 0.07, "value_max": -0.13}, "geometry": {"type": "MultiPolygon", "coordinates": [[[[-7.941326, 41.871116], [-7.936274, 41.867992], [-7.927471, 41.857215], [-7.923878, 41.848175], [-7.924115, 41.83917], [-7.932616, 41.821236], [-7.931026, 41.812214], [-7.92526, 41.806103], [-7.919209, 41.79409], [-7.915418, 41.74902], [-7.912905, 41.73999], [-7.902402, 41.734716], [-7.88789, 41.730743], [-7.878497, 41.726392], [-7.866504, 41.724664], [-7.842451, 41.725098], [-7.824146, 41.721102], [-7.816502, 41.716795], [-7.81469, 41.718688], [-7.808986, 41.717996], [-7.808396, 41.715744], [-7.804499, 41.714158], [-7.79939, 41.714593], [-7.79788, 41.716164], [-7.796383, 41.71526], [-7.790966, 41.717044], [-7.789449, 41.719966], [-7.78464, 41.720402], [-7.78252, 41.723546], [-7.776204, 41.724652], [-7.773786, 41.727346], [-7.770798, 41.72441], [-7.765698, 41.723044], [-7.761765, 41.727758], [-7.762933, 41.733839], [-7.759307, 41.737203], [-7.759597, 41.739005], [-7.75689, 41.739446], [-7.758687, 41.740577], [-7.757758, 41.745301], [-7.749323, 41.748693], [-7.757739, 41.753758], [-7.767388, 41.765541], [-7.771258, 41.774589], [-7.771765, 41.783602], [-7.768333, 41.792572], [-7.758861, 41.801476], [-7.74468, 41.806644], [-7.727916, 41.807565], [-7.728761, 41.816776], [-7.732643, 41.821548], [-7.768604, 41.814583], [-7.779357, 41.810703], [-7.790802, 41.801817], [-7.799387, 41.783894], [-7.805431, 41.756936], [-7.812121, 41.747999], [-7.830629, 41.739182], [-7.854297, 41.735072], [-7.86632, 41.735184], [-7.881136, 41.739685], [-7.894964, 41.748825], [-7.899091, 41.757872], [-7.900136, 41.784902], [-7.911273, 41.812029], [-7.911186, 41.821035], [-7.908182, 41.830013], [-7.89054, 41.857741], [-7.898893, 41.86136], [-7.902203, 41.861591], [-7.904318, 41.859795], [-7.907309, 41.865203], [-7.906095, 41.868126], [-7.910299, 41.871285], [-7.909985, 41.875111], [-7.915391, 41.879397], [-7.921118, 41.877833], [-7.928044, 41.87807], [-7.935283, 41.874707], [-7.937389, 41.87516], [-7.941326, 41.871116]]], [[[-8.155161, 41.71633], [-8.157246, 41.706014], [-8.155329, 41.703571], [-8.143392, 41.697327], [-8.131335, 41.700246], [-8.125204, 41.705774], [-8.119502, 41.714738], [-8.123879, 41.723778], [-8.130969, 41.727453], [-8.143017, 41.725631], [-8.155161, 41.71633]]], [[[-8.089824, 41.414576], [-8.089184, 41.426271], [-8.077729, 41.462209], [-8.078181, 41.47122], [-8.081661, 41.480255], [-8.090335, 41.489332], [-8.110096, 41.496958], [-8.12206, 41.498193], [-8.146076, 41.494041], [-8.158064, 41.493484], [-8.169952, 41.500653], [-8.186182, 41.526079], [-8.202256, 41.544206], [-8.217232, 41.554261], [-8.241099, 41.5641], [-8.26502, 41.569846], [-8.288977, 41.572725], [-8.324972, 41.57166], [-8.349011, 41.566741], [-8.361048, 41.5623], [-8.3731, 41.556173], [-8.385179, 41.546948], [-8.394343, 41.536371], [-8.403313, 41.518403], [-8.403863, 41.509399], [-8.39759, 41.482344], [-8.398971, 41.473344], [-8.403763, 41.464361], [-8.409973, 41.457376], [-8.422008, 41.450425], [-8.458024, 41.438505], [-8.470039, 41.432885], [-8.500097, 41.410775], [-8.5259, 41.383862], [-8.545117, 41.347909], [-8.557195, 41.329941], [-8.566706, 41.320969], [-8.578533, 41.313346], [-8.602481, 41.304463], [-8.65031, 41.295664], [-8.662278, 41.29095], [-8.686922, 41.27632], [-8.710143, 41.269858], [-8.722086, 41.269136], [-8.73402, 41.270391], [-8.754651, 41.276484], [-8.769799, 41.285523], [-8.806455, 41.316008], [-8.80212, 41.205829], [-8.784037, 41.222496], [-8.767638, 41.231472], [-8.746081, 41.238877], [-8.722192, 41.244148], [-8.698307, 41.247474], [-8.674432, 41.248479], [-8.662502, 41.24744], [-8.650582, 41.244552], [-8.641339, 41.240156], [-8.626816, 41.226436], [-8.612366, 41.195023], [-8.604418, 41.164883], [-8.59422, 41.165149], [-8.589766, 41.167193], [-8.589194, 41.170572], [-8.583263, 41.174422], [-8.582094, 41.177803], [-8.578825, 41.178941], [-8.581296, 41.191762], [-8.575958, 41.195609], [-8.576894, 41.201908], [-8.574515, 41.202593], [-8.57423, 41.20462], [-8.567971, 41.204644], [-8.565895, 41.206227], [-8.567697, 41.208246], [-8.566512, 41.209376], [-8.559636, 41.206251], [-8.554271, 41.20627], [-8.549521, 41.209214], [-8.544157, 41.209458], [-8.54238, 41.211265], [-8.532257, 41.213102], [-8.52713, 41.203215], [-8.523236, 41.200077], [-8.51163, 41.203042], [-8.510456, 41.206197], [-8.506583, 41.206435], [-8.504239, 41.213646], [-8.500076, 41.21546], [-8.50308, 41.219502], [-8.502204, 41.222656], [-8.495642, 41.222227], [-8.495947, 41.223351], [-8.490894, 41.226294], [-8.487935, 41.230354], [-8.490331, 41.232373], [-8.489156, 41.235528], [-8.486181, 41.236888], [-8.484411, 41.240495], [-8.476346, 41.237818], [-8.475756, 41.23917], [-8.470986, 41.23941], [-8.471604, 41.243459], [-8.469227, 41.245267], [-8.463258, 41.244384], [-8.459989, 41.246644], [-8.454323, 41.246886], [-8.455541, 41.251834], [-8.452276, 41.25522], [-8.449891, 41.255452], [-8.449304, 41.257479], [-8.447812, 41.257258], [-8.449028, 41.261982], [-8.439785, 41.262907], [-8.438023, 41.268989], [-8.434745, 41.269673], [-8.432691, 41.277107], [-8.427032, 41.279372], [-8.429143, 41.284319], [-8.426171, 41.287028], [-8.426488, 41.291079], [-8.425013, 41.294909], [-8.422037, 41.296942], [-8.422647, 41.299867], [-8.419967, 41.301378], [-8.432077, 41.311376], [-8.439912, 41.320422], [-8.449363, 41.338483], [-8.452593, 41.356513], [-8.449822, 41.374516], [-8.440763, 41.392487], [-8.432966, 41.401456], [-8.422361, 41.41059], [-8.379764, 41.437212], [-8.375022, 41.446194], [-8.380259, 41.473244], [-8.381433, 41.491266], [-8.379558, 41.500263], [-8.374456, 41.509243], [-8.361463, 41.520128], [-8.349431, 41.524805], [-8.33743, 41.526322], [-8.32545, 41.525664], [-8.313498, 41.522465], [-8.301588, 41.515466], [-8.29441, 41.508779], [-8.288838, 41.499738], [-8.282349, 41.481683], [-8.283878, 41.463677], [-8.296154, 41.436731], [-8.296928, 41.427728], [-8.289059, 41.39165], [-8.285092, 41.346587], [-8.287588, 41.328587], [-8.296416, 41.310771], [-8.293133, 41.310927], [-8.292241, 41.312504], [-8.289255, 41.312508], [-8.284488, 41.316341], [-8.281801, 41.316569], [-8.281808, 41.319721], [-8.278828, 41.321976], [-8.278238, 41.325128], [-8.273161, 41.325134], [-8.269582, 41.326939], [-8.265709, 41.331221], [-8.269004, 41.336169], [-8.263339, 41.340902], [-8.262751, 41.345405], [-8.256483, 41.347663], [-8.255889, 41.349689], [-8.249622, 41.353072], [-8.251123, 41.356897], [-8.248737, 41.359018], [-8.24924, 41.3596], [-8.249434, 41.359825], [-8.257395, 41.373435], [-8.258263, 41.382448], [-8.255044, 41.393852], [-8.242929, 41.407088], [-8.230892, 41.413254], [-8.218891, 41.416275], [-8.194951, 41.416887], [-8.183009, 41.414981], [-8.164759, 41.40883], [-8.150347, 41.399717], [-8.142797, 41.390653], [-8.140388, 41.381628], [-8.141117, 41.377668], [-8.139096, 41.377894], [-8.133418, 41.374292], [-8.119672, 41.376768], [-8.119672, 41.378569], [-8.116683, 41.380144], [-8.117578, 41.386447], [-8.113992, 41.386896], [-8.112795, 41.390723], [-8.110105, 41.390947], [-8.108011, 41.393648], [-8.103827, 41.392972], [-8.105321, 41.394998], [-8.10263, 41.396123], [-8.10801, 41.398825], [-8.108008, 41.404002], [-8.104419, 41.406252], [-8.104119, 41.408728], [-8.101727, 41.409403], [-8.102025, 41.411204], [-8.092756, 41.411201], [-8.092456, 41.413227], [-8.089824, 41.414576]]]]}}, {"id": "3", "type": "Feature", "properties": {"fill": "#98d277", "value_min": 0.2, "value_max": -0.27}, "geometry": {"type": "MultiPolygon", "coordinates": [[[[-7.811227, 41.871535], [-7.812838, 41.856087], [-7.809985, 41.847051], [-7.79956, 41.837936], [-7.780324, 41.831435], [-7.768309, 41.829955], [-7.756265, 41.830061], [-7.741604, 41.832323], [-7.74729, 41.837772], [-7.74577, 41.840242], [-7.74663, 41.844071], [-7.756028, 41.842302], [-7.768042, 41.843881], [-7.774134, 41.846674], [-7.782896, 41.855774], [-7.783867, 41.864791], [-7.779527, 41.873324], [-7.767326, 41.881186], [-7.755236, 41.88311], [-7.743229, 41.880805], [-7.732278, 41.873239], [-7.73091, 41.870576], [-7.729293, 41.875972], [-7.720533, 41.880218], [-7.720523, 41.881793], [-7.725335, 41.882935], [-7.726208, 41.887665], [-7.737044, 41.888828], [-7.73944, 41.891087], [-7.74246, 41.889747], [-7.742785, 41.885922], [-7.756022, 41.888441], [-7.758719, 41.890926], [-7.756592, 41.89407], [-7.758076, 41.897901], [-7.763193, 41.898593], [-7.779227, 41.886264], [-7.785257, 41.885157], [-7.788886, 41.882467], [-7.794309, 41.882033], [-7.796739, 41.878214], [-7.794954, 41.873932], [-7.803381, 41.874857], [-7.804914, 41.869459], [-7.811227, 41.871535]]], [[[-7.864405, 41.843752], [-7.876502, 41.840801], [-7.888664, 41.83401], [-7.898437, 41.820913], [-7.899659, 41.811918], [-7.896731, 41.802883], [-7.880126, 41.784709], [-7.882067, 41.775721], [-7.886764, 41.76676], [-7.887293, 41.757758], [-7.881218, 41.748692], [-7.866189, 41.742587], [-7.854155, 41.743075], [-7.842046, 41.747668], [-7.832773, 41.757217], [-7.83143, 41.76621], [-7.83618, 41.784272], [-7.824908, 41.811178], [-7.824086, 41.820176], [-7.826467, 41.829207], [-7.835235, 41.838303], [-7.852361, 41.84367], [-7.864405, 41.843752]], [[-7.864673, 41.828563], [-7.852729, 41.823108], [-7.849931, 41.820438], [-7.847286, 41.811405], [-7.85311, 41.801727], [-7.865241, 41.796386], [-7.877257, 41.797589], [-7.884781, 41.802768], [-7.890066, 41.811826], [-7.888982, 41.815567], [-7.886599, 41.820799], [-7.876732, 41.827614], [-7.864673, 41.828563]], [[-7.85369, 41.769164], [-7.850525, 41.766403], [-7.848261, 41.757374], [-7.853993, 41.752142], [-7.866071, 41.749308], [-7.87744, 41.757662], [-7.873593, 41.766632], [-7.865682, 41.771417], [-7.85369, 41.769164]]], [[[-8.336136, 41.509028], [-8.349598, 41.508093], [-8.361647, 41.501418], [-8.367768, 41.491191], [-8.367851, 41.482184], [-8.361945, 41.470982], [-8.350045, 41.463454], [-8.338091, 41.461387], [-8.326088, 41.464228], [-8.31446, 41.472871], [-8.31015, 41.481853], [-8.310704, 41.490863], [-8.316286, 41.499904], [-8.32565, 41.50648], [-8.336136, 41.509028]], [[-8.337741, 41.495758], [-8.330424, 41.49098], [-8.330901, 41.481975], [-8.337926, 41.477624], [-8.349884, 41.47958], [-8.352405, 41.482098], [-8.352691, 41.491107], [-8.34974, 41.493961], [-8.337741, 41.495758]]], [[[-8.321729, 41.339245], [-8.315211, 41.34677], [-8.308611, 41.364746], [-8.31033, 41.382772], [-8.314871, 41.392137], [-8.326704, 41.404654], [-8.338607, 41.410563], [-8.350541, 41.413657], [-8.362503, 41.414013], [-8.374487, 41.412132], [-8.386488, 41.408265], [-8.399294, 41.401286], [-8.409491, 41.392331], [-8.415787, 41.383355], [-8.418875, 41.374363], [-8.419424, 41.365359], [-8.417558, 41.356342], [-8.412817, 41.34731], [-8.399136, 41.334064], [-8.383404, 41.326971], [-8.380382, 41.331254], [-8.375305, 41.33104], [-8.37201, 41.328346], [-8.361563, 41.329718], [-8.358276, 41.329049], [-8.357673, 41.327249], [-8.350207, 41.327264], [-8.346032, 41.328847], [-8.342462, 41.333131], [-8.333215, 41.336299], [-8.326363, 41.342163], [-8.324568, 41.341041], [-8.323376, 41.341943], [-8.321729, 41.339245]], [[-8.374619, 41.398326], [-8.362639, 41.400129], [-8.350688, 41.398883], [-8.338777, 41.393858], [-8.328433, 41.382879], [-8.325757, 41.373855], [-8.327119, 41.364341], [-8.332134, 41.355877], [-8.339224, 41.349627], [-8.35123, 41.344372], [-8.363197, 41.342955], [-8.375132, 41.344722], [-8.380772, 41.347142], [-8.387033, 41.350336], [-8.393541, 41.356217], [-8.398537, 41.365251], [-8.399243, 41.374263], [-8.396001, 41.383253], [-8.387469, 41.392216], [-8.374619, 41.398326]]], [[[-8.642486, 41.192857], [-8.6446, 41.204134], [-8.650742, 41.214484], [-8.662621, 41.224266], [-8.674529, 41.228859], [-8.686453, 41.230651], [-8.698386, 41.230322], [-8.710328, 41.228048], [-8.725285, 41.222371], [-8.737931, 41.213393], [-8.744827, 41.2044], [-8.748325, 41.1954], [-8.748914, 41.186393], [-8.746321, 41.176801], [-8.741272, 41.16836], [-8.73446, 41.161638], [-8.722571, 41.154371], [-8.71067, 41.150537], [-8.69876, 41.148898], [-8.68684, 41.149407], [-8.674242, 41.152307], [-8.67399, 41.152421], [-8.673945, 41.152441], [-8.674849, 41.153767], [-8.672489, 41.15648], [-8.663931, 41.15697], [-8.662078, 41.158048], [-8.661999, 41.158104], [-8.661782, 41.158262], [-8.661686, 41.158331], [-8.660893, 41.158904], [-8.660746, 41.15901], [-8.660597, 41.159118], [-8.660313, 41.160813], [-8.65892, 41.160594], [-8.654682, 41.164339], [-8.653231, 41.169174], [-8.655366, 41.175467], [-8.647955, 41.180228], [-8.647696, 41.185181], [-8.642486, 41.192857]], [[-8.686543, 41.211602], [-8.673045, 41.204219], [-8.67107, 41.195205], [-8.676744, 41.186213], [-8.686684, 41.182059], [-8.698604, 41.182928], [-8.704675, 41.186288], [-8.710478, 41.194171], [-8.708007, 41.204313], [-8.698477, 41.210423], [-8.686543, 41.211602]]]]}}, {"id": "4", "type": "Feature", "properties": {"fill": "#bde282", "value_min": 0.27, "value_max": -0.33}, "geometry": {"type": "MultiPolygon", "coordinates": [[[[-7.73091, 41.870576], [-7.732278, 41.873239], [-7.743229, 41.880805], [-7.755236, 41.88311], [-7.767326, 41.881186], [-7.779527, 41.873324], [-7.783867, 41.864791], [-7.782896, 41.855774], [-7.774134, 41.846674], [-7.768042, 41.843881], [-7.756028, 41.842302], [-7.74663, 41.844071], [-7.750541, 41.847685], [-7.750532, 41.849261], [-7.743309, 41.849012], [-7.746901, 41.8524], [-7.746881, 41.855776], [-7.73843, 41.859348], [-7.734159, 41.868337], [-7.73091, 41.870576]]], [[[-7.864673, 41.828563], [-7.876732, 41.827614], [-7.886599, 41.820799], [-7.888982, 41.815567], [-7.890066, 41.811826], [-7.884781, 41.802768], [-7.877257, 41.797589], [-7.865241, 41.796386], [-7.85311, 41.801727], [-7.847286, 41.811405], [-7.849931, 41.820438], [-7.852729, 41.823108], [-7.864673, 41.828563]], [[-7.864962, 41.812238], [-7.864983, 41.811057], [-7.877028, 41.810687], [-7.877769, 41.811706], [-7.876988, 41.812963], [-7.864962, 41.812238]]], [[[-7.85369, 41.769164], [-7.865682, 41.771417], [-7.873593, 41.766632], [-7.87744, 41.757662], [-7.866071, 41.749308], [-7.853993, 41.752142], [-7.848261, 41.757374], [-7.850525, 41.766403], [-7.85369, 41.769164]]], [[[-8.337741, 41.495758], [-8.34974, 41.493961], [-8.352691, 41.491107], [-8.352405, 41.482098], [-8.349884, 41.47958], [-8.337926, 41.477624], [-8.330901, 41.481975], [-8.330424, 41.49098], [-8.337741, 41.495758]]], [[[-8.374619, 41.398326], [-8.387469, 41.392216], [-8.396001, 41.383253], [-8.399243, 41.374263], [-8.398537, 41.365251], [-8.393541, 41.356217], [-8.387033, 41.350336], [-8.380772, 41.347142], [-8.375132, 41.344722], [-8.363197, 41.342955], [-8.35123, 41.344372], [-8.339224, 41.349627], [-8.332134, 41.355877], [-8.327119, 41.364341], [-8.325757, 41.373855], [-8.328433, 41.382879], [-8.338777, 41.393858], [-8.350688, 41.398883], [-8.362639, 41.400129], [-8.374619, 41.398326]], [[-8.362755, 41.388243], [-8.35082, 41.385675], [-8.346955, 41.382985], [-8.342302, 41.373951], [-8.345796, 41.364964], [-8.351067, 41.360781], [-8.363049, 41.358103], [-8.37497, 41.361751], [-8.378858, 41.365147], [-8.381941, 41.374171], [-8.377224, 41.383153], [-8.362755, 41.388243]]], [[[-8.686543, 41.211602], [-8.698477, 41.210423], [-8.708007, 41.204313], [-8.710478, 41.194171], [-8.704675, 41.186288], [-8.698604, 41.182928], [-8.686684, 41.182059], [-8.676744, 41.186213], [-8.67107, 41.195205], [-8.673045, 41.204219], [-8.686543, 41.211602]]]]}}, {"id": "5", "type": "Feature", "properties": {"fill": "#ddf190", "value_min": 0.33, "value_max": -0.4}, "geometry": {"type": "MultiPolygon", "coordinates": [[[[-7.864962, 41.812238], [-7.876988, 41.812963], [-7.877769, 41.811706], [-7.877028, 41.810687], [-7.864983, 41.811057], [-7.864962, 41.812238]]], [[[-8.362755, 41.388243], [-8.377224, 41.383153], [-8.381941, 41.374171], [-8.378858, 41.365147], [-8.37497, 41.361751], [-8.363049, 41.358103], [-8.351067, 41.360781], [-8.345796, 41.364964], [-8.342302, 41.373951], [-8.346955, 41.382985], [-8.35082, 41.385675], [-8.362755, 41.388243]]]]}}, {"id": "0", "type": "Feature", "properties": {"fill": "#2ba055", "value_min": 0.0, "value_max": -0.07}, "geometry": {"type": "MultiPolygon", "coordinates": [[[[-7.941326, 41.871116], [-7.951254, 41.871132], [-7.956367, 41.87339], [-7.956362, 41.875191], [-7.960878, 41.875648], [-7.96299, 41.874075], [-7.972322, 41.875439], [-7.987996, 41.869157], [-7.990123, 41.860157], [-7.995547, 41.858138], [-7.994047, 41.855211], [-7.996162, 41.851837], [-8.003089, 41.850494], [-8.005804, 41.847346], [-8.007928, 41.838796], [-8.012753, 41.833624], [-8.013062, 41.829348], [-8.017873, 41.831379], [-8.02901, 41.829589], [-8.037134, 41.831171], [-8.041351, 41.828023], [-8.041054, 41.825097], [-8.045268, 41.824425], [-8.047679, 41.821276], [-8.057314, 41.815656], [-8.06664, 41.817012], [-8.072961, 41.813414], [-8.078678, 41.813417], [-8.082892, 41.810493], [-8.091013, 41.812521], [-8.093421, 41.811397], [-8.093723, 41.808471], [-8.101845, 41.809824], [-8.104853, 41.81185], [-8.115984, 41.812302], [-8.123807, 41.808702], [-8.138247, 41.808477], [-8.139751, 41.813203], [-8.14276, 41.812978], [-8.144866, 41.815228], [-8.149078, 41.814777], [-8.153291, 41.817703], [-8.158106, 41.818377], [-8.165326, 41.81815], [-8.173744, 41.808019], [-8.177655, 41.808242], [-8.183676, 41.812741], [-8.190291, 41.809587], [-8.197158, 41.814129], [-8.201063, 41.808724], [-8.204973, 41.807372], [-8.205872, 41.804445], [-8.213692, 41.803765], [-8.217598, 41.80016], [-8.217589, 41.793634], [-8.224207, 41.794303], [-8.229917, 41.791598], [-8.240744, 41.791588], [-8.24074, 41.789338], [-8.244347, 41.787984], [-8.245546, 41.785731], [-8.251257, 41.784375], [-8.251845, 41.777172], [-8.257551, 41.773564], [-8.261762, 41.774235], [-8.271366, 41.766346], [-8.280681, 41.764083], [-8.284038, 41.761109], [-8.284931, 41.757507], [-8.305674, 41.758152], [-8.311096, 41.762195], [-8.318308, 41.761283], [-8.325233, 41.765098], [-8.328234, 41.763292], [-8.336653, 41.763728], [-8.341756, 41.761468], [-8.344765, 41.762363], [-8.349267, 41.760103], [-8.352557, 41.755145], [-8.349814, 41.744122], [-8.352516, 41.743441], [-8.352203, 41.739616], [-8.357897, 41.735103], [-8.362407, 41.735994], [-8.368703, 41.73193], [-8.374122, 41.734845], [-8.384922, 41.73032], [-8.387032, 41.731891], [-8.393033, 41.729852], [-8.396942, 41.730518], [-8.400531, 41.726683], [-8.402934, 41.726452], [-8.404721, 41.722847], [-8.417349, 41.725067], [-8.422737, 41.720552], [-8.429643, 41.719859], [-8.430533, 41.717381], [-8.435927, 41.714441], [-8.441632, 41.713975], [-8.4446, 41.70654], [-8.453868, 41.697961], [-8.453255, 41.695487], [-8.461659, 41.694563], [-8.467939, 41.689593], [-8.478124, 41.685061], [-8.482012, 41.682123], [-8.484371, 41.674238], [-8.49308, 41.674886], [-8.499963, 41.671038], [-8.50927, 41.671233], [-8.51018, 41.672806], [-8.511967, 41.670324], [-8.509856, 41.668755], [-8.512252, 41.667847], [-8.514629, 41.663788], [-8.522103, 41.658811], [-8.525706, 41.659023], [-8.527769, 41.652714], [-8.534066, 41.652017], [-8.537951, 41.649302], [-8.537634, 41.646602], [-8.543876, 41.637352], [-8.543855, 41.633976], [-8.536342, 41.631977], [-8.535128, 41.62973], [-8.543431, 41.61462], [-8.554533, 41.615255], [-8.557244, 41.617046], [-8.562639, 41.61635], [-8.568056, 41.619031], [-8.570735, 41.616095], [-8.577321, 41.614269], [-8.581231, 41.615829], [-8.585766, 41.620988], [-8.591462, 41.620515], [-8.596534, 41.616668], [-8.601628, 41.615972], [-8.603996, 41.611686], [-8.613256, 41.606696], [-8.619881, 41.610269], [-8.621338, 41.604636], [-8.628833, 41.604378], [-8.636302, 41.600744], [-8.64075, 41.594422], [-8.645536, 41.593051], [-8.646744, 41.594171], [-8.649125, 41.591909], [-8.656622, 41.5921], [-8.660788, 41.588255], [-8.663794, 41.589141], [-8.665265, 41.585758], [-8.66948, 41.587989], [-8.684455, 41.586117], [-8.685608, 41.58071], [-8.697261, 41.576376], [-8.701703, 41.570277], [-8.707704, 41.570923], [-8.711586, 41.569327], [-8.716422, 41.573805], [-8.720316, 41.57356], [-8.725151, 41.577811], [-8.726633, 41.576003], [-8.734424, 41.575737], [-8.736564, 41.580228], [-8.738354, 41.579318], [-8.740778, 41.582006], [-8.74467, 41.581535], [-8.750711, 41.58623], [-8.756374, 41.582823], [-8.75635, 41.580347], [-8.762327, 41.578514], [-8.764443, 41.580303], [-8.767441, 41.580286], [-8.769874, 41.583874], [-8.768997, 41.58613], [-8.773228, 41.589482], [-8.775371, 41.593972], [-8.78556, 41.593464], [-8.797327, 41.600599], [-8.804218, 41.600109], [-8.80456, 41.604158], [-8.809434, 41.611332], [-8.828644, 41.609656], [-8.82839, 41.585633], [-8.818497, 41.554794], [-8.8221, 41.547542], [-8.821965, 41.534907], [-8.815926, 41.525624], [-8.81063, 41.5101], [-8.813279, 41.503483], [-8.812636, 41.496944], [-8.804699, 41.482068], [-8.798552, 41.474753], [-8.80154, 41.446836], [-8.806115, 41.43713], [-8.807354, 41.425915], [-8.811193, 41.416638], [-8.806455, 41.316008], [-8.769799, 41.285523], [-8.754651, 41.276484], [-8.73402, 41.270391], [-8.722086, 41.269136], [-8.710143, 41.269858], [-8.686922, 41.27632], [-8.662278, 41.29095], [-8.65031, 41.295664], [-8.602481, 41.304463], [-8.578533, 41.313346], [-8.566706, 41.320969], [-8.557195, 41.329941], [-8.545117, 41.347909], [-8.5259, 41.383862], [-8.500097, 41.410775], [-8.470039, 41.432885], [-8.458024, 41.438505], [-8.422008, 41.450425], [-8.409973, 41.457376], [-8.403763, 41.464361], [-8.398971, 41.473344], [-8.39759, 41.482344], [-8.403863, 41.509399], [-8.403313, 41.518403], [-8.394343, 41.536371], [-8.385179, 41.546948], [-8.3731, 41.556173], [-8.361048, 41.5623], [-8.349011, 41.566741], [-8.324972, 41.57166], [-8.288977, 41.572725], [-8.26502, 41.569846], [-8.241099, 41.5641], [-8.217232, 41.554261], [-8.202256, 41.544206], [-8.186182, 41.526079], [-8.169952, 41.500653], [-8.158064, 41.493484], [-8.146076, 41.494041], [-8.12206, 41.498193], [-8.110096, 41.496958], [-8.090335, 41.489332], [-8.081661, 41.480255], [-8.078181, 41.47122], [-8.077729, 41.462209], [-8.089184, 41.426271], [-8.089824, 41.414576], [-8.079893, 41.41975], [-8.077503, 41.416597], [-8.070923, 41.41862], [-8.066739, 41.416142], [-8.061953, 41.417264], [-8.059852, 41.424916], [-8.055959, 41.429415], [-8.05745, 41.432793], [-8.056549, 41.436394], [-8.069999, 41.447206], [-8.068788, 41.462286], [-8.073872, 41.46499], [-8.074468, 41.468141], [-8.073564, 41.474668], [-8.066374, 41.482318], [-8.066069, 41.48817], [-8.072054, 41.490199], [-8.07175, 41.494925], [-8.078333, 41.49898], [-8.078332, 41.500331], [-8.093, 41.504613], [-8.089398, 41.519242], [-8.090594, 41.522169], [-8.093588, 41.52307], [-8.091487, 41.531173], [-8.097775, 41.536127], [-8.097774, 41.537927], [-8.106759, 41.543557], [-8.101666, 41.542655], [-8.094175, 41.544904], [-8.087885, 41.542876], [-8.083389, 41.5449], [-8.080687, 41.551651], [-8.074097, 41.549848], [-8.073494, 41.553449], [-8.075891, 41.554575], [-8.076188, 41.557276], [-8.079783, 41.558403], [-8.081576, 41.565157], [-8.078879, 41.56493], [-8.075279, 41.568305], [-8.073182, 41.568079], [-8.069283, 41.570553], [-8.068081, 41.573478], [-8.056684, 41.579549], [-8.052181, 41.584498], [-8.052777, 41.587649], [-8.037169, 41.600242], [-8.031467, 41.602938], [-8.02367, 41.603156], [-8.019174, 41.601802], [-8.015872, 41.603824], [-8.013474, 41.603372], [-8.005971, 41.60629], [-8.003562, 41.611239], [-7.99936, 41.61281], [-7.998462, 41.612359], [-7.999669, 41.608759], [-7.996976, 41.605829], [-7.996684, 41.602003], [-7.984685, 41.603564], [-7.982292, 41.60086], [-7.975689, 41.603552], [-7.974482, 41.606701], [-7.970882, 41.607147], [-7.969091, 41.603768], [-7.965796, 41.602413], [-7.9541, 41.602846], [-7.952606, 41.600592], [-7.947808, 41.60081], [-7.945413, 41.599456], [-7.942725, 41.595625], [-7.936132, 41.594488], [-7.93791, 41.601694], [-7.937004, 41.603718], [-7.931604, 41.604384], [-7.930979, 41.612711], [-7.925556, 41.620354], [-7.920755, 41.620796], [-7.917748, 41.623041], [-7.915933, 41.627764], [-7.913229, 41.628885], [-7.912613, 41.63361], [-7.906014, 41.633147], [-7.906884, 41.641927], [-7.897869, 41.645511], [-7.89696, 41.647985], [-7.892759, 41.647976], [-7.892145, 41.651576], [-7.902319, 41.659925], [-7.899913, 41.66127], [-7.900198, 41.665547], [-7.898396, 41.665769], [-7.896885, 41.668692], [-7.883969, 41.67069], [-7.879755, 41.673607], [-7.877044, 41.676077], [-7.876723, 41.681253], [-7.873401, 41.686198], [-7.868896, 41.686413], [-7.868008, 41.68326], [-7.864403, 41.683701], [-7.864096, 41.685276], [-7.858987, 41.68639], [-7.857773, 41.689538], [-7.854776, 41.68818], [-7.847538, 41.695365], [-7.837912, 41.698942], [-7.835792, 41.702763], [-7.839682, 41.705924], [-7.838465, 41.709522], [-7.832453, 41.710407], [-7.825252, 41.708813], [-7.816502, 41.716795], [-7.824146, 41.721102], [-7.842451, 41.725098], [-7.866504, 41.724664], [-7.878497, 41.726392], [-7.88789, 41.730743], [-7.902402, 41.734716], [-7.912905, 41.73999], [-7.915418, 41.74902], [-7.919209, 41.79409], [-7.92526, 41.806103], [-7.931026, 41.812214], [-7.932616, 41.821236], [-7.924115, 41.83917], [-7.923878, 41.848175], [-7.927471, 41.857215], [-7.936274, 41.867992], [-7.941326, 41.871116]], [[-8.155161, 41.71633], [-8.143017, 41.725631], [-8.130969, 41.727453], [-8.123879, 41.723778], [-8.119502, 41.714738], [-8.125204, 41.705774], [-8.131335, 41.700246], [-8.143392, 41.697327], [-8.155329, 41.703571], [-8.157246, 41.706014], [-8.155161, 41.71633]]], [[[-7.727916, 41.807565], [-7.74468, 41.806644], [-7.758861, 41.801476], [-7.768333, 41.792572], [-7.771765, 41.783602], [-7.771258, 41.774589], [-7.767388, 41.765541], [-7.757739, 41.753758], [-7.749323, 41.748693], [-7.746897, 41.752242], [-7.747786, 41.754496], [-7.743866, 41.756509], [-7.740214, 41.763924], [-7.726937, 41.771755], [-7.7254, 41.777152], [-7.727191, 41.779184], [-7.724177, 41.780299], [-7.725372, 41.781653], [-7.722296, 41.792446], [-7.728879, 41.797871], [-7.72705, 41.801691], [-7.727916, 41.807565]]], [[[-8.141117, 41.377668], [-8.140388, 41.381628], [-8.142797, 41.390653], [-8.150347, 41.399717], [-8.164759, 41.40883], [-8.183009, 41.414981], [-8.194951, 41.416887], [-8.218891, 41.416275], [-8.230892, 41.413254], [-8.242929, 41.407088], [-8.255044, 41.393852], [-8.258263, 41.382448], [-8.257395, 41.373435], [-8.249434, 41.359825], [-8.248141, 41.360052], [-8.248448, 41.364328], [-8.245461, 41.364781], [-8.244272, 41.368384], [-8.239197, 41.371315], [-8.232024, 41.369971], [-8.224854, 41.370878], [-8.21738, 41.368182], [-8.214399, 41.373587], [-8.208127, 41.376968], [-8.199163, 41.377423], [-8.194677, 41.374275], [-8.191691, 41.376302], [-8.189299, 41.375403], [-8.184818, 41.376756], [-8.168382, 41.377438], [-8.1642, 41.38059], [-8.158223, 41.378791], [-8.150152, 41.37339], [-8.141117, 41.377668]]], [[[-8.24924, 41.3596], [-8.24924, 41.3596], [-8.248737, 41.359018], [-8.24924, 41.3596]]]]}}]}