{"type": "FeatureCollection", "features": [{"id": "1", "type": "Feature", "properties": {"fill": "#fc9863", "value_min": 0.6, "value_max": 0.67}, "geometry": {"type": "MultiPolygon", "coordinates": [[[[-7.888779, 41.827354], [-7.893112, 41.820862], [-7.894229, 41.811866], [-7.88922, 41.801818], [-7.877314, 41.794323], [-7.86531, 41.792522], [-7.853231, 41.794947], [-7.841291, 41.802338], [-7.835831, 41.811289], [-7.836795, 41.820306], [-7.844023, 41.829385], [-7.852527, 41.834404], [-7.864529, 41.836729], [-7.876601, 41.835136], [-7.888779, 41.827354]], [[-7.86486, 41.817988], [-7.860526, 41.811537], [-7.865056, 41.806917], [-7.877089, 41.807167], [-7.880517, 41.811733], [-7.876902, 41.817895], [-7.86486, 41.817988]]], [[[-7.727046, 41.802451], [-7.732697, 41.803859], [-7.744753, 41.802913], [-7.756916, 41.796385], [-7.760562, 41.792488], [-7.762932, 41.783507], [-7.759503, 41.774463], [-7.745863, 41.765308], [-7.738708, 41.764323], [-7.726937, 41.771755], [-7.725406, 41.776252], [-7.727191, 41.779184], [-7.724177, 41.780299], [-7.725372, 41.781653], [-7.722296, 41.792446], [-7.728879, 41.797871], [-7.727046, 41.802451]]], [[[-8.21556, 41.692309], [-8.20355, 41.69177], [-8.200912, 41.697319], [-8.203449, 41.699947], [-8.215468, 41.699866], [-8.218296, 41.697438], [-8.21556, 41.692309]]], [[[-8.095684, 41.671453], [-8.083682, 41.670684], [-8.076642, 41.678373], [-8.08347, 41.685585], [-8.095505, 41.684224], [-8.100407, 41.678562], [-8.095684, 41.671453]]], [[[-8.035792, 41.659846], [-8.023906, 41.6516], [-8.013817, 41.659837], [-8.023663, 41.667664], [-8.035792, 41.659846]]], [[[-8.480384, 41.636166], [-8.484067, 41.626882], [-8.4815, 41.617863], [-8.472151, 41.608813], [-8.468615, 41.607253], [-8.456643, 41.603714], [-8.444647, 41.603193], [-8.432624, 41.605816], [-8.42751, 41.608599], [-8.418395, 41.617561], [-8.416838, 41.62656], [-8.420878, 41.635588], [-8.432279, 41.645129], [-8.444252, 41.649274], [-8.456258, 41.649595], [-8.468295, 41.646235], [-8.480384, 41.636166]]], [[[-8.528675, 41.599788], [-8.540702, 41.595958], [-8.548275, 41.591123], [-8.555424, 41.582143], [-8.557582, 41.573144], [-8.55228, 41.564117], [-8.540975, 41.557442], [-8.529002, 41.554818], [-8.517004, 41.555688], [-8.504973, 41.560795], [-8.495198, 41.572887], [-8.494179, 41.58189], [-8.498409, 41.590916], [-8.504699, 41.596685], [-8.516673, 41.60002], [-8.528675, 41.599788]]], [[[-8.660823, 41.571088], [-8.672858, 41.563071], [-8.679604, 41.555534], [-8.683304, 41.546537], [-8.68353, 41.537531], [-8.680485, 41.528515], [-8.672488, 41.519485], [-8.649188, 41.504603], [-8.625279, 41.494998], [-8.613303, 41.494147], [-8.601308, 41.49655], [-8.591784, 41.501212], [-8.580216, 41.510178], [-8.573763, 41.519161], [-8.570428, 41.528156], [-8.570593, 41.546172], [-8.57411, 41.555192], [-8.582223, 41.564229], [-8.600838, 41.573194], [-8.612812, 41.576568], [-8.6248, 41.577973], [-8.636797, 41.577654], [-8.648805, 41.575441], [-8.660823, 41.571088]], [[-8.624998, 41.543608], [-8.613025, 41.540912], [-8.608133, 41.537298], [-8.603041, 41.528274], [-8.605829, 41.519276], [-8.613186, 41.513846], [-8.625183, 41.511677], [-8.637143, 41.515842], [-8.641872, 41.519394], [-8.645474, 41.528412], [-8.641236, 41.537406], [-8.637004, 41.54063], [-8.624998, 41.543608]]], [[[-8.493308, 41.518831], [-8.497837, 41.509848], [-8.493416, 41.50507], [-8.481458, 41.501947], [-8.472257, 41.509733], [-8.478188, 41.518767], [-8.481312, 41.520315], [-8.493308, 41.518831]]], [[[-8.146229, 41.4824], [-8.147234, 41.471753], [-8.142324, 41.462709], [-8.134603, 41.455974], [-8.12269, 41.451488], [-8.110726, 41.450901], [-8.098707, 41.45425], [-8.08809, 41.462292], [-8.083708, 41.471264], [-8.084819, 41.480281], [-8.091701, 41.489342], [-8.110101, 41.496619], [-8.122071, 41.497402], [-8.134093, 41.49428], [-8.142109, 41.48973], [-8.146229, 41.4824]], [[-8.110184, 41.490491], [-8.107494, 41.489466], [-8.100575, 41.480405], [-8.106148, 41.471441], [-8.110479, 41.468962], [-8.12245, 41.469312], [-8.126056, 41.471594], [-8.131624, 41.480643], [-8.125083, 41.489601], [-8.110184, 41.490491]]], [[[-8.17826, 41.376308], [-8.178581, 41.381907], [-8.182899, 41.390945], [-8.195137, 41.401855], [-8.207041, 41.406725], [-8.218983, 41.408595], [-8.230955, 41.40792], [-8.242959, 41.404534], [-8.251012, 41.400416], [-8.261394, 41.391475], [-8.266237, 41.382499], [-8.267755, 41.373501], [-8.26589, 41.364482], [-8.259799, 41.355435], [-8.2538, 41.350809], [-8.249622, 41.353072], [-8.251123, 41.356897], [-8.248141, 41.360052], [-8.248448, 41.364328], [-8.245461, 41.364781], [-8.244272, 41.368384], [-8.239197, 41.371315], [-8.232024, 41.369971], [-8.224854, 41.370878], [-8.21738, 41.368182], [-8.214399, 41.373587], [-8.208127, 41.376968], [-8.199163, 41.377423], [-8.194976, 41.374275], [-8.191691, 41.376302], [-8.17826, 41.376308]]], [[[-8.38665, 41.391066], [-8.395606, 41.383251], [-8.399852, 41.374266], [-8.400033, 41.365259], [-8.396162, 41.356231], [-8.38706, 41.347363], [-8.375161, 41.341774], [-8.363226, 41.339929], [-8.351266, 41.340812], [-8.336028, 41.346892], [-8.326261, 41.355843], [-8.322219, 41.364827], [-8.32274, 41.373838], [-8.327889, 41.382875], [-8.338797, 41.391856], [-8.350714, 41.396275], [-8.362663, 41.397654], [-8.37464, 41.396133], [-8.38665, 41.391066]]], [[[-8.804386, 41.263461], [-8.793762, 41.255731], [-8.781843, 41.250439], [-8.769919, 41.24725], [-8.746057, 41.245054], [-8.71024, 41.247983], [-8.686347, 41.252621], [-8.668644, 41.258253], [-8.662428, 41.261736], [-8.654543, 41.26722], [-8.649159, 41.276211], [-8.648074, 41.285216], [-8.655347, 41.303253], [-8.673525, 41.321322], [-8.697893, 41.33732], [-8.721757, 41.346499], [-8.745652, 41.349356], [-8.76957, 41.346359], [-8.787307, 41.339603], [-8.800995, 41.33062], [-8.806797, 41.324682], [-8.804386, 41.263461]], [[-8.733821, 41.319281], [-8.721865, 41.321187], [-8.709922, 41.319797], [-8.697996, 41.314936], [-8.6862, 41.303341], [-8.683851, 41.294327], [-8.686203, 41.285326], [-8.698182, 41.274622], [-8.710139, 41.270759], [-8.722082, 41.27004], [-8.734012, 41.272232], [-8.743377, 41.27646], [-8.752655, 41.285488], [-8.755542, 41.294502], [-8.753957, 41.303506], [-8.747046, 41.312499], [-8.733821, 41.319281]]], [[[-8.503548, 41.213648], [-8.503434, 41.221628], [-8.50615, 41.230647], [-8.511996, 41.23968], [-8.522851, 41.248734], [-8.531176, 41.253098], [-8.543086, 41.256798], [-8.555013, 41.258265], [-8.566953, 41.257736], [-8.578907, 41.255131], [-8.591459, 41.248997], [-8.600097, 41.24002], [-8.603636, 41.231024], [-8.604167, 41.222018], [-8.59813, 41.203982], [-8.59122, 41.194746], [-8.579768, 41.186171], [-8.581296, 41.191762], [-8.575958, 41.195609], [-8.576894, 41.201908], [-8.574515, 41.202593], [-8.57423, 41.20462], [-8.567971, 41.204644], [-8.565895, 41.206227], [-8.567697, 41.208246], [-8.566512, 41.209376], [-8.559636, 41.206251], [-8.554271, 41.20627], [-8.549521, 41.209214], [-8.544157, 41.209458], [-8.54238, 41.211265], [-8.532257, 41.213102], [-8.52653, 41.202542], [-8.523236, 41.200077], [-8.520554, 41.200086], [-8.51163, 41.203042], [-8.510456, 41.206197], [-8.506583, 41.206435], [-8.505713, 41.210715], [-8.503819, 41.211846], [-8.503636, 41.212397], [-8.503548, 41.213648]]]]}}, {"id": "2", "type": "Feature", "properties": {"fill": "#f77f52", "value_min": 0.67, "value_max": 0.73}, "geometry": {"type": "MultiPolygon", "coordinates": [[[[-7.899729, 41.861361], [-7.908811, 41.839026], [-7.908998, 41.821014], [-7.901264, 41.801425], [-7.88436, 41.775743], [-7.887752, 41.757763], [-7.885487, 41.739727], [-7.902449, 41.731913], [-7.915144, 41.721997], [-7.917821, 41.713015], [-7.914928, 41.704922], [-7.903061, 41.695975], [-7.89106, 41.694986], [-7.878941, 41.700879], [-7.86652, 41.723799], [-7.854415, 41.728426], [-7.842384, 41.728854], [-7.830389, 41.727267], [-7.81844, 41.723237], [-7.809287, 41.717901], [-7.808987, 41.717699], [-7.80379, 41.714156], [-7.790966, 41.717044], [-7.789449, 41.719966], [-7.78464, 41.720402], [-7.78252, 41.723546], [-7.776204, 41.724652], [-7.773786, 41.727346], [-7.7678, 41.723276], [-7.763888, 41.724389], [-7.761765, 41.727758], [-7.762933, 41.733839], [-7.759307, 41.737203], [-7.759597, 41.739005], [-7.75689, 41.739446], [-7.758687, 41.740577], [-7.757758, 41.745301], [-7.748417, 41.749321], [-7.747786, 41.754496], [-7.743866, 41.756509], [-7.743242, 41.760333], [-7.738708, 41.764323], [-7.745863, 41.765308], [-7.759503, 41.774463], [-7.762932, 41.783507], [-7.760562, 41.792488], [-7.756916, 41.796385], [-7.744753, 41.802913], [-7.732697, 41.803859], [-7.727046, 41.802451], [-7.728761, 41.816776], [-7.732041, 41.821514], [-7.743152, 41.825154], [-7.742839, 41.827178], [-7.738918, 41.82874], [-7.742196, 41.833928], [-7.74729, 41.837772], [-7.746349, 41.84407], [-7.750246, 41.846784], [-7.750532, 41.849261], [-7.743309, 41.849012], [-7.746901, 41.8524], [-7.746881, 41.855776], [-7.73843, 41.859348], [-7.734159, 41.868337], [-7.730228, 41.871024], [-7.729293, 41.875972], [-7.720533, 41.880218], [-7.720523, 41.881793], [-7.725335, 41.882935], [-7.726208, 41.887665], [-7.737044, 41.888828], [-7.73944, 41.891087], [-7.74246, 41.889747], [-7.742785, 41.885922], [-7.756022, 41.888441], [-7.758719, 41.890926], [-7.756592, 41.89407], [-7.758076, 41.897901], [-7.764097, 41.898595], [-7.779227, 41.886264], [-7.785257, 41.885157], [-7.788886, 41.882467], [-7.794007, 41.882257], [-7.796739, 41.878214], [-7.794349, 41.87438], [-7.797064, 41.873488], [-7.803381, 41.874857], [-7.804914, 41.869459], [-7.813032, 41.871958], [-7.814229, 41.873537], [-7.823863, 41.874013], [-7.825059, 41.875817], [-7.830479, 41.875831], [-7.830789, 41.874031], [-7.832894, 41.874712], [-7.83772, 41.872924], [-7.842528, 41.875187], [-7.841663, 41.866632], [-7.849515, 41.861475], [-7.858542, 41.862622], [-7.859456, 41.860148], [-7.864877, 41.859711], [-7.87033, 41.851395], [-7.873043, 41.850501], [-7.873066, 41.844875], [-7.879956, 41.853217], [-7.888076, 41.855486], [-7.891675, 41.859094], [-7.899729, 41.861361]], [[-7.888779, 41.827354], [-7.876601, 41.835136], [-7.864529, 41.836729], [-7.852527, 41.834404], [-7.844023, 41.829385], [-7.836795, 41.820306], [-7.835831, 41.811289], [-7.841291, 41.802338], [-7.853231, 41.794947], [-7.86531, 41.792522], [-7.877314, 41.794323], [-7.88922, 41.801818], [-7.894229, 41.811866], [-7.893112, 41.820862], [-7.888779, 41.827354]]], [[[-8.466056, 41.691174], [-8.482012, 41.682123], [-8.484371, 41.674238], [-8.49308, 41.674886], [-8.499963, 41.671038], [-8.50927, 41.671233], [-8.51018, 41.672806], [-8.511967, 41.670324], [-8.509856, 41.668755], [-8.522103, 41.658811], [-8.525706, 41.659023], [-8.527769, 41.652714], [-8.534066, 41.652017], [-8.537355, 41.64998], [-8.537634, 41.646602], [-8.543876, 41.637352], [-8.543855, 41.633976], [-8.536342, 41.631977], [-8.535128, 41.62973], [-8.543431, 41.61462], [-8.554533, 41.615255], [-8.557244, 41.617046], [-8.562639, 41.61635], [-8.568056, 41.619031], [-8.570735, 41.616095], [-8.577321, 41.614269], [-8.581231, 41.615829], [-8.585766, 41.620988], [-8.591462, 41.620515], [-8.596534, 41.616668], [-8.601628, 41.615972], [-8.603996, 41.611686], [-8.613256, 41.606696], [-8.619881, 41.610269], [-8.621338, 41.604636], [-8.628833, 41.604378], [-8.636302, 41.600744], [-8.64075, 41.594422], [-8.645536, 41.593051], [-8.646744, 41.594171], [-8.649125, 41.591909], [-8.656622, 41.5921], [-8.660788, 41.588255], [-8.663794, 41.589141], [-8.665265, 41.585758], [-8.66948, 41.587989], [-8.684455, 41.586117], [-8.685608, 41.58071], [-8.697261, 41.576376], [-8.701703, 41.570277], [-8.707704, 41.570923], [-8.712485, 41.569323], [-8.716422, 41.573805], [-8.720316, 41.57356], [-8.725151, 41.577811], [-8.726633, 41.576003], [-8.734424, 41.575737], [-8.736564, 41.580228], [-8.738354, 41.579318], [-8.740778, 41.582006], [-8.74467, 41.581535], [-8.750711, 41.58623], [-8.756374, 41.582823], [-8.75635, 41.580347], [-8.762327, 41.578514], [-8.764443, 41.580303], [-8.767441, 41.580286], [-8.769874, 41.583874], [-8.768997, 41.58613], [-8.773228, 41.589482], [-8.775371, 41.593972], [-8.78556, 41.593464], [-8.797327, 41.600599], [-8.804218, 41.600109], [-8.80456, 41.604158], [-8.809434, 41.611332], [-8.828644, 41.609656], [-8.82839, 41.585633], [-8.818497, 41.554794], [-8.8221, 41.547542], [-8.821965, 41.534907], [-8.815926, 41.525624], [-8.81063, 41.5101], [-8.813279, 41.503483], [-8.812636, 41.496944], [-8.804699, 41.482068], [-8.798552, 41.474753], [-8.80154, 41.446836], [-8.806115, 41.43713], [-8.807354, 41.425915], [-8.811193, 41.416638], [-8.806797, 41.324682], [-8.800995, 41.33062], [-8.787307, 41.339603], [-8.76957, 41.346359], [-8.745652, 41.349356], [-8.721757, 41.346499], [-8.697893, 41.33732], [-8.673525, 41.321322], [-8.655347, 41.303253], [-8.648074, 41.285216], [-8.649159, 41.276211], [-8.654543, 41.26722], [-8.662428, 41.261736], [-8.668644, 41.258253], [-8.686347, 41.252621], [-8.71024, 41.247983], [-8.746057, 41.245054], [-8.769919, 41.24725], [-8.781843, 41.250439], [-8.793762, 41.255731], [-8.804386, 41.263461], [-8.799695, 41.14406], [-8.674793, 41.146932], [-8.674849, 41.153767], [-8.672489, 41.15648], [-8.66117, 41.156307], [-8.662078, 41.158104], [-8.660313, 41.160813], [-8.657033, 41.160378], [-8.654961, 41.161963], [-8.653231, 41.169174], [-8.655366, 41.175467], [-8.647955, 41.180228], [-8.647696, 41.185181], [-8.640929, 41.196241], [-8.634946, 41.193341], [-8.632526, 41.188624], [-8.625658, 41.186628], [-8.621132, 41.178994], [-8.613374, 41.177451], [-8.608583, 41.174095], [-8.609164, 41.172066], [-8.605845, 41.166228], [-8.602852, 41.164214], [-8.59422, 41.165149], [-8.589174, 41.167645], [-8.589194, 41.170572], [-8.583263, 41.174422], [-8.582094, 41.177803], [-8.578825, 41.178941], [-8.580327, 41.180736], [-8.579768, 41.186171], [-8.59122, 41.194746], [-8.59813, 41.203982], [-8.604167, 41.222018], [-8.603636, 41.231024], [-8.600097, 41.24002], [-8.591459, 41.248997], [-8.578907, 41.255131], [-8.566953, 41.257736], [-8.555013, 41.258265], [-8.543086, 41.256798], [-8.531176, 41.253098], [-8.522851, 41.248734], [-8.511996, 41.23968], [-8.50615, 41.230647], [-8.503434, 41.221628], [-8.503548, 41.213648], [-8.500076, 41.21546], [-8.50308, 41.219502], [-8.502204, 41.222656], [-8.495642, 41.222227], [-8.495947, 41.223351], [-8.490894, 41.226294], [-8.487935, 41.230354], [-8.490331, 41.232373], [-8.489156, 41.235528], [-8.486181, 41.236888], [-8.484411, 41.240495], [-8.476346, 41.237818], [-8.475756, 41.23917], [-8.470986, 41.23941], [-8.471604, 41.243459], [-8.469227, 41.245267], [-8.463258, 41.244384], [-8.459989, 41.246644], [-8.454323, 41.246886], [-8.455541, 41.251834], [-8.452276, 41.25522], [-8.449891, 41.255452], [-8.449304, 41.257479], [-8.447812, 41.257258], [-8.449028, 41.261982], [-8.439785, 41.262907], [-8.438023, 41.268989], [-8.434745, 41.269673], [-8.432691, 41.277107], [-8.427032, 41.279372], [-8.429143, 41.284319], [-8.426171, 41.287028], [-8.426488, 41.291079], [-8.425013, 41.294909], [-8.422037, 41.296942], [-8.422647, 41.299867], [-8.407744, 41.304856], [-8.406262, 41.307335], [-8.403277, 41.307342], [-8.401801, 41.311398], [-8.399712, 41.311628], [-8.400316, 41.313202], [-8.396738, 41.314336], [-8.398835, 41.316131], [-8.393775, 41.31997], [-8.393489, 41.323122], [-8.391105, 41.324253], [-8.386325, 41.323588], [-8.380382, 41.331254], [-8.375305, 41.33104], [-8.37201, 41.328346], [-8.361563, 41.329718], [-8.358276, 41.329049], [-8.357673, 41.327249], [-8.350207, 41.327264], [-8.346032, 41.328847], [-8.342462, 41.333131], [-8.333215, 41.336299], [-8.326363, 41.342163], [-8.324568, 41.341041], [-8.323376, 41.341943], [-8.320676, 41.338121], [-8.312604, 41.334983], [-8.313794, 41.333405], [-8.31139, 41.328007], [-8.307502, 41.325762], [-8.305116, 41.326891], [-8.303024, 41.325994], [-8.303615, 41.323742], [-8.301216, 41.319694], [-8.296431, 41.316774], [-8.297618, 41.313846], [-8.295817, 41.310022], [-8.281801, 41.316569], [-8.281808, 41.319721], [-8.278828, 41.321976], [-8.278238, 41.325128], [-8.273161, 41.325134], [-8.269582, 41.326939], [-8.265709, 41.331221], [-8.269004, 41.336169], [-8.263339, 41.340902], [-8.262751, 41.345405], [-8.256483, 41.347663], [-8.2538, 41.350809], [-8.259799, 41.355435], [-8.26589, 41.364482], [-8.267755, 41.373501], [-8.266237, 41.382499], [-8.261394, 41.391475], [-8.251012, 41.400416], [-8.242959, 41.404534], [-8.230955, 41.40792], [-8.218983, 41.408595], [-8.207041, 41.406725], [-8.195137, 41.401855], [-8.182899, 41.390945], [-8.178581, 41.381907], [-8.17826, 41.376308], [-8.168382, 41.377438], [-8.164499, 41.38059], [-8.152544, 41.375866], [-8.151049, 41.37339], [-8.145073, 41.374742], [-8.139694, 41.377894], [-8.133418, 41.374292], [-8.119672, 41.376768], [-8.119672, 41.378569], [-8.116683, 41.380144], [-8.117578, 41.386447], [-8.113992, 41.386896], [-8.112795, 41.390723], [-8.110105, 41.390947], [-8.108011, 41.393648], [-8.103827, 41.392972], [-8.105321, 41.394998], [-8.10263, 41.396123], [-8.10801, 41.398825], [-8.108606, 41.403102], [-8.104419, 41.406252], [-8.104119, 41.408728], [-8.101727, 41.409403], [-8.102025, 41.411204], [-8.092756, 41.411201], [-8.09126, 41.414352], [-8.079893, 41.41975], [-8.077503, 41.416597], [-8.070923, 41.41862], [-8.066739, 41.416142], [-8.061654, 41.417489], [-8.059852, 41.424916], [-8.055959, 41.429415], [-8.05745, 41.432793], [-8.056549, 41.436394], [-8.069999, 41.447206], [-8.068788, 41.462286], [-8.073872, 41.46499], [-8.074468, 41.468141], [-8.074164, 41.473543], [-8.067273, 41.480743], [-8.066071, 41.485489], [-8.070688, 41.489175], [-8.098083, 41.499271], [-8.121999, 41.502685], [-8.133983, 41.502546], [-8.145994, 41.500286], [-8.150257, 41.498797], [-8.162435, 41.489879], [-8.167991, 41.480912], [-8.175736, 41.453946], [-8.182655, 41.443254], [-8.194692, 41.437917], [-8.242667, 41.429666], [-8.290693, 41.415628], [-8.302675, 41.414088], [-8.314637, 41.4144], [-8.362442, 41.420244], [-8.410287, 41.422639], [-8.422243, 41.4239], [-8.44004, 41.428514], [-8.449934, 41.437569], [-8.450997, 41.446581], [-8.446961, 41.45557], [-8.435445, 41.464521], [-8.421838, 41.469574], [-8.418286, 41.473443], [-8.414456, 41.482431], [-8.421624, 41.493606], [-8.433537, 41.501371], [-8.437833, 41.50957], [-8.448289, 41.518628], [-8.457324, 41.522456], [-8.479538, 41.536788], [-8.483848, 41.545815], [-8.480278, 41.554806], [-8.471763, 41.563775], [-8.456908, 41.572158], [-8.444891, 41.574802], [-8.420879, 41.577164], [-8.408856, 41.58019], [-8.396804, 41.586185], [-8.383446, 41.599364], [-8.379603, 41.608351], [-8.379936, 41.61736], [-8.385108, 41.626395], [-8.393597, 41.635447], [-8.432056, 41.670579], [-8.443993, 41.679384], [-8.466056, 41.691174]], [[-8.480384, 41.636166], [-8.468295, 41.646235], [-8.456258, 41.649595], [-8.444252, 41.649274], [-8.432279, 41.645129], [-8.420878, 41.635588], [-8.416838, 41.62656], [-8.418395, 41.617561], [-8.42751, 41.608599], [-8.432624, 41.605816], [-8.444647, 41.603193], [-8.456643, 41.603714], [-8.468615, 41.607253], [-8.472151, 41.608813], [-8.4815, 41.617863], [-8.484067, 41.626882], [-8.480384, 41.636166]], [[-8.528675, 41.599788], [-8.516673, 41.60002], [-8.504699, 41.596685], [-8.498409, 41.590916], [-8.494179, 41.58189], [-8.495198, 41.572887], [-8.504973, 41.560795], [-8.517004, 41.555688], [-8.529002, 41.554818], [-8.540975, 41.557442], [-8.55228, 41.564117], [-8.557582, 41.573144], [-8.555424, 41.582143], [-8.548275, 41.591123], [-8.540702, 41.595958], [-8.528675, 41.599788]], [[-8.660823, 41.571088], [-8.648805, 41.575441], [-8.636797, 41.577654], [-8.6248, 41.577973], [-8.612812, 41.576568], [-8.600838, 41.573194], [-8.582223, 41.564229], [-8.57411, 41.555192], [-8.570593, 41.546172], [-8.570428, 41.528156], [-8.573763, 41.519161], [-8.580216, 41.510178], [-8.591784, 41.501212], [-8.601308, 41.49655], [-8.613303, 41.494147], [-8.625279, 41.494998], [-8.649188, 41.504603], [-8.672488, 41.519485], [-8.680485, 41.528515], [-8.68353, 41.537531], [-8.683304, 41.546537], [-8.679604, 41.555534], [-8.672858, 41.563071], [-8.660823, 41.571088]], [[-8.493308, 41.518831], [-8.481312, 41.520315], [-8.478188, 41.518767], [-8.472257, 41.509733], [-8.481458, 41.501947], [-8.493416, 41.50507], [-8.497837, 41.509848], [-8.493308, 41.518831]], [[-8.146229, 41.4824], [-8.142109, 41.48973], [-8.134093, 41.49428], [-8.122071, 41.497402], [-8.110101, 41.496619], [-8.091701, 41.489342], [-8.084819, 41.480281], [-8.083708, 41.471264], [-8.08809, 41.462292], [-8.098707, 41.45425], [-8.110726, 41.450901], [-8.12269, 41.451488], [-8.134603, 41.455974], [-8.142324, 41.462709], [-8.147234, 41.471753], [-8.146229, 41.4824]], [[-8.661262, 41.486994], [-8.655197, 41.483405], [-8.651031, 41.474385], [-8.657064, 41.465395], [-8.66139, 41.462301], [-8.673369, 41.461499], [-8.681609, 41.465466], [-8.685305, 41.469348], [-8.687883, 41.474491], [-8.684433, 41.483489], [-8.673235, 41.488196], [-8.661262, 41.486994]], [[-8.553541, 41.473988], [-8.541571, 41.472951], [-8.526344, 41.464931], [-8.519918, 41.455897], [-8.518428, 41.446883], [-8.521369, 41.437888], [-8.529905, 41.430049], [-8.541908, 41.425054], [-8.553882, 41.424156], [-8.567478, 41.429063], [-8.576904, 41.438106], [-8.580244, 41.447126], [-8.579218, 41.456129], [-8.573125, 41.465114], [-8.565542, 41.470182], [-8.553541, 41.473988]], [[-8.620563, 41.411236], [-8.601841, 41.409505], [-8.589895, 41.406563], [-8.57797, 41.400541], [-8.569279, 41.39304], [-8.563491, 41.38401], [-8.560566, 41.374992], [-8.560343, 41.365983], [-8.56269, 41.356985], [-8.567865, 41.347996], [-8.576521, 41.339021], [-8.592104, 41.33007], [-8.602345, 41.326821], [-8.614305, 41.325108], [-8.626252, 41.325474], [-8.638188, 41.327918], [-8.650112, 41.332602], [-8.661388, 41.339302], [-8.671519, 41.348339], [-8.678237, 41.357366], [-8.681995, 41.366384], [-8.683087, 41.375394], [-8.681409, 41.384397], [-8.676123, 41.39339], [-8.661691, 41.404505], [-8.649703, 41.408917], [-8.637728, 41.410858], [-8.620563, 41.411236]], [[-8.38665, 41.391066], [-8.37464, 41.396133], [-8.362663, 41.397654], [-8.350714, 41.396275], [-8.338797, 41.391856], [-8.327889, 41.382875], [-8.32274, 41.373838], [-8.322219, 41.364827], [-8.326261, 41.355843], [-8.336028, 41.346892], [-8.351266, 41.340812], [-8.363226, 41.339929], [-8.375161, 41.341774], [-8.38706, 41.347363], [-8.396162, 41.356231], [-8.400033, 41.365259], [-8.399852, 41.374266], [-8.395606, 41.383251], [-8.38665, 41.391066]], [[-8.684025, 41.222265], [-8.674572, 41.22022], [-8.661905, 41.213194], [-8.655373, 41.204167], [-8.652898, 41.195152], [-8.653659, 41.186146], [-8.657621, 41.17715], [-8.662898, 41.170362], [-8.674859, 41.162289], [-8.686795, 41.158808], [-8.698717, 41.15811], [-8.710627, 41.160321], [-8.722521, 41.166191], [-8.73232, 41.177348], [-8.735032, 41.186362], [-8.734202, 41.195368], [-8.729921, 41.204366], [-8.720621, 41.213352], [-8.71037, 41.218464], [-8.698424, 41.222085], [-8.684025, 41.222265]]], [[[-8.503636, 41.212397], [-8.503636, 41.212397], [-8.503819, 41.211846], [-8.503636, 41.212397]]], [[[-8.324837, 41.764649], [-8.327457, 41.761178], [-8.32953, 41.752183], [-8.327751, 41.743166], [-8.321786, 41.734124], [-8.309561, 41.725044], [-8.299369, 41.720817], [-8.287364, 41.71926], [-8.275323, 41.720966], [-8.263213, 41.72868], [-8.256234, 41.742725], [-8.255865, 41.75173], [-8.258908, 41.760756], [-8.267151, 41.769953], [-8.271366, 41.766346], [-8.280681, 41.764083], [-8.284038, 41.761109], [-8.284931, 41.757507], [-8.287033, 41.756829], [-8.298457, 41.757263], [-8.300866, 41.758835], [-8.305674, 41.758152], [-8.311096, 41.762195], [-8.318308, 41.761283], [-8.324837, 41.764649]]], [[[-8.239347, 41.713291], [-8.250072, 41.706657], [-8.25439, 41.697678], [-8.253091, 41.688663], [-8.247568, 41.67962], [-8.239809, 41.674025], [-8.231438, 41.670506], [-8.215854, 41.668081], [-8.203816, 41.670227], [-8.191735, 41.675657], [-8.187583, 41.679211], [-8.182066, 41.688179], [-8.182156, 41.697187], [-8.188288, 41.706237], [-8.203273, 41.714222], [-8.215264, 41.716694], [-8.227288, 41.716431], [-8.239347, 41.713291]], [[-8.21556, 41.692309], [-8.218296, 41.697438], [-8.215468, 41.699866], [-8.203449, 41.699947], [-8.200912, 41.697319], [-8.20355, 41.69177], [-8.21556, 41.692309]]], [[[-8.071219, 41.701992], [-8.083264, 41.700096], [-8.08824, 41.69648], [-8.095359, 41.694621], [-8.113419, 41.678663], [-8.112773, 41.669651], [-8.107786, 41.664965], [-8.095873, 41.657962], [-8.067342, 41.651277], [-8.036217, 41.631351], [-8.024272, 41.627309], [-8.012287, 41.626045], [-8.000265, 41.627154], [-7.985777, 41.632572], [-7.975617, 41.641489], [-7.971, 41.650455], [-7.971056, 41.659462], [-7.975756, 41.668511], [-7.984338, 41.677595], [-7.999363, 41.685454], [-8.04269, 41.69611], [-8.044194, 41.705129], [-8.047097, 41.707736], [-8.059108, 41.708281], [-8.071219, 41.701992]], [[-8.095684, 41.671453], [-8.100407, 41.678562], [-8.095505, 41.684224], [-8.08347, 41.685585], [-8.076642, 41.678373], [-8.083682, 41.670684], [-8.095684, 41.671453]], [[-8.035792, 41.659846], [-8.023663, 41.667664], [-8.013817, 41.659837], [-8.023906, 41.6516], [-8.035792, 41.659846]]]]}}, {"id": "3", "type": "Feature", "properties": {"fill": "#ef6d48", "value_min": 0.73, "value_max": 0.8}, "geometry": {"type": "MultiPolygon", "coordinates": [[[[-8.466056, 41.691174], [-8.443993, 41.679384], [-8.432056, 41.670579], [-8.393597, 41.635447], [-8.385108, 41.626395], [-8.379936, 41.61736], [-8.379603, 41.608351], [-8.383446, 41.599364], [-8.396804, 41.586185], [-8.408856, 41.58019], [-8.420879, 41.577164], [-8.444891, 41.574802], [-8.456908, 41.572158], [-8.471763, 41.563775], [-8.480278, 41.554806], [-8.483848, 41.545815], [-8.479538, 41.536788], [-8.457324, 41.522456], [-8.448289, 41.518628], [-8.437833, 41.50957], [-8.433537, 41.501371], [-8.421624, 41.493606], [-8.414456, 41.482431], [-8.418286, 41.473443], [-8.421838, 41.469574], [-8.435445, 41.464521], [-8.446961, 41.45557], [-8.450997, 41.446581], [-8.449934, 41.437569], [-8.44004, 41.428514], [-8.422243, 41.4239], [-8.410287, 41.422639], [-8.362442, 41.420244], [-8.314637, 41.4144], [-8.302675, 41.414088], [-8.290693, 41.415628], [-8.242667, 41.429666], [-8.194692, 41.437917], [-8.182655, 41.443254], [-8.175736, 41.453946], [-8.167991, 41.480912], [-8.162435, 41.489879], [-8.150257, 41.498797], [-8.145994, 41.500286], [-8.133983, 41.502546], [-8.121999, 41.502685], [-8.098083, 41.499271], [-8.070688, 41.489175], [-8.066071, 41.485489], [-8.066069, 41.48817], [-8.072054, 41.490199], [-8.072348, 41.495601], [-8.078333, 41.49898], [-8.078332, 41.500331], [-8.089108, 41.503832], [-8.090849, 41.503937], [-8.091803, 41.503995], [-8.121544, 41.507589], [-8.157776, 41.51569], [-8.169756, 41.516024], [-8.181837, 41.508284], [-8.201505, 41.48115], [-8.218264, 41.468534], [-8.230296, 41.463746], [-8.266314, 41.455362], [-8.302349, 41.444577], [-8.326331, 41.440704], [-8.350257, 41.442182], [-8.362195, 41.445526], [-8.374105, 41.451865], [-8.383772, 41.464256], [-8.387809, 41.482292], [-8.388358, 41.50031], [-8.385523, 41.510598], [-8.381596, 41.518289], [-8.37338, 41.52717], [-8.361311, 41.535618], [-8.337232, 41.545683], [-8.277077, 41.564187], [-8.253033, 41.569226], [-8.204992, 41.574518], [-8.192528, 41.580167], [-8.186449, 41.589132], [-8.188215, 41.616166], [-8.184625, 41.634155], [-8.178729, 41.64312], [-8.169175, 41.652058], [-8.155909, 41.659163], [-8.143876, 41.66086], [-8.131883, 41.659528], [-8.119936, 41.65487], [-8.102787, 41.642552], [-8.09699, 41.6335], [-8.096276, 41.629096], [-8.082279, 41.615369], [-8.0922, 41.597433], [-8.085463, 41.588373], [-8.062384, 41.575562], [-8.052181, 41.584498], [-8.052777, 41.587649], [-8.048277, 41.590122], [-8.047974, 41.592373], [-8.037169, 41.600242], [-8.031467, 41.602938], [-8.02367, 41.603156], [-8.019174, 41.601802], [-8.015872, 41.603824], [-8.013474, 41.603372], [-8.005971, 41.60629], [-8.003562, 41.611239], [-7.99936, 41.61281], [-7.998462, 41.612359], [-7.999669, 41.608759], [-7.996976, 41.605829], [-7.996684, 41.602003], [-7.984685, 41.603564], [-7.982292, 41.60086], [-7.975689, 41.603552], [-7.974482, 41.606701], [-7.970882, 41.607147], [-7.969091, 41.603768], [-7.965796, 41.602413], [-7.9541, 41.602846], [-7.952606, 41.600592], [-7.947808, 41.60081], [-7.945413, 41.599456], [-7.942725, 41.595625], [-7.936132, 41.594488], [-7.93791, 41.601694], [-7.937004, 41.603718], [-7.931604, 41.604384], [-7.930979, 41.612711], [-7.925556, 41.620354], [-7.920755, 41.620796], [-7.917748, 41.623041], [-7.915933, 41.627764], [-7.913229, 41.628885], [-7.912613, 41.63361], [-7.906014, 41.633147], [-7.906884, 41.641927], [-7.897869, 41.645511], [-7.89696, 41.647985], [-7.892759, 41.647976], [-7.892145, 41.651576], [-7.902319, 41.659925], [-7.899913, 41.66127], [-7.900198, 41.665547], [-7.898396, 41.665769], [-7.896885, 41.668692], [-7.883969, 41.67069], [-7.879755, 41.673607], [-7.877044, 41.676077], [-7.876723, 41.681253], [-7.873401, 41.686198], [-7.868896, 41.686413], [-7.868008, 41.68326], [-7.864403, 41.683701], [-7.864096, 41.685276], [-7.858987, 41.68639], [-7.857773, 41.689538], [-7.854776, 41.68818], [-7.847538, 41.695365], [-7.837912, 41.698942], [-7.835792, 41.702763], [-7.839682, 41.705924], [-7.838465, 41.709522], [-7.832453, 41.710407], [-7.825252, 41.708813], [-7.818621, 41.713522], [-7.815291, 41.718689], [-7.809287, 41.717901], [-7.81844, 41.723237], [-7.830389, 41.727267], [-7.842384, 41.728854], [-7.854415, 41.728426], [-7.86652, 41.723799], [-7.878941, 41.700879], [-7.89106, 41.694986], [-7.903061, 41.695975], [-7.914928, 41.704922], [-7.917821, 41.713015], [-7.915144, 41.721997], [-7.902449, 41.731913], [-7.885487, 41.739727], [-7.887752, 41.757763], [-7.88436, 41.775743], [-7.901264, 41.801425], [-7.908998, 41.821014], [-7.908811, 41.839026], [-7.899729, 41.861361], [-7.902203, 41.861591], [-7.904318, 41.859795], [-7.907309, 41.865203], [-7.906095, 41.868126], [-7.910299, 41.871285], [-7.909985, 41.875111], [-7.915391, 41.879397], [-7.921118, 41.877833], [-7.928044, 41.87807], [-7.935283, 41.874707], [-7.937389, 41.87516], [-7.941618, 41.870891], [-7.951254, 41.871132], [-7.956367, 41.87339], [-7.956362, 41.875191], [-7.960878, 41.875648], [-7.962086, 41.874074], [-7.973828, 41.875216], [-7.987996, 41.869157], [-7.990123, 41.860157], [-7.995547, 41.858138], [-7.994047, 41.855211], [-7.996162, 41.851837], [-8.003089, 41.850494], [-8.005804, 41.847346], [-8.007928, 41.838796], [-8.010941, 41.836773], [-8.013965, 41.828899], [-8.017873, 41.831379], [-8.02901, 41.829589], [-8.037134, 41.831171], [-8.041351, 41.828023], [-8.041054, 41.825097], [-8.045268, 41.824425], [-8.046775, 41.821951], [-8.056712, 41.81588], [-8.06664, 41.817012], [-8.072961, 41.813414], [-8.078678, 41.813417], [-8.082892, 41.810493], [-8.091013, 41.812521], [-8.093421, 41.811397], [-8.093723, 41.808471], [-8.101845, 41.809824], [-8.104853, 41.81185], [-8.115984, 41.812302], [-8.123807, 41.808702], [-8.138247, 41.808477], [-8.139751, 41.813203], [-8.14276, 41.812978], [-8.144866, 41.815228], [-8.149078, 41.814777], [-8.153291, 41.817703], [-8.158106, 41.818377], [-8.165326, 41.81815], [-8.173744, 41.808019], [-8.177655, 41.808242], [-8.183676, 41.812741], [-8.190291, 41.809587], [-8.197158, 41.814129], [-8.201063, 41.808724], [-8.204973, 41.807372], [-8.205872, 41.804445], [-8.213692, 41.803765], [-8.217598, 41.80016], [-8.217589, 41.793634], [-8.224207, 41.794303], [-8.229917, 41.791598], [-8.240744, 41.791588], [-8.24074, 41.789338], [-8.244347, 41.787984], [-8.245546, 41.785731], [-8.251257, 41.784375], [-8.251845, 41.777172], [-8.257551, 41.773564], [-8.261762, 41.774235], [-8.267151, 41.769953], [-8.258908, 41.760756], [-8.255865, 41.75173], [-8.256234, 41.742725], [-8.263213, 41.72868], [-8.275323, 41.720966], [-8.287364, 41.71926], [-8.299369, 41.720817], [-8.309561, 41.725044], [-8.321786, 41.734124], [-8.327751, 41.743166], [-8.32953, 41.752183], [-8.327457, 41.761178], [-8.324837, 41.764649], [-8.332141, 41.762835], [-8.336653, 41.763728], [-8.341756, 41.761468], [-8.344765, 41.762363], [-8.349267, 41.760103], [-8.352557, 41.755145], [-8.349814, 41.744122], [-8.352516, 41.743441], [-8.352203, 41.739616], [-8.357897, 41.735103], [-8.362407, 41.735994], [-8.368703, 41.73193], [-8.374122, 41.734845], [-8.384922, 41.73032], [-8.387032, 41.731891], [-8.393033, 41.729852], [-8.396942, 41.730518], [-8.400531, 41.726683], [-8.402934, 41.726452], [-8.404721, 41.722847], [-8.417349, 41.725067], [-8.422737, 41.720552], [-8.429643, 41.719859], [-8.430533, 41.717381], [-8.435927, 41.714441], [-8.441333, 41.714201], [-8.4446, 41.70654], [-8.453868, 41.697961], [-8.453255, 41.695487], [-8.461659, 41.694563], [-8.466056, 41.691174]], [[-7.985268, 41.817641], [-7.937091, 41.818598], [-7.925113, 41.814885], [-7.914132, 41.803049], [-7.90944, 41.793998], [-7.90751, 41.784973], [-7.909238, 41.775982], [-7.91388, 41.767133], [-7.926157, 41.752333], [-7.938308, 41.744869], [-7.950377, 41.742308], [-7.974396, 41.74437], [-7.986431, 41.743822], [-7.991399, 41.731699], [-7.998731, 41.726242], [-8.010804, 41.722951], [-8.025679, 41.731994], [-8.025908, 41.741003], [-8.02247, 41.746454], [-8.015602, 41.749922], [-8.005677, 41.758844], [-8.014171, 41.776931], [-8.016691, 41.785959], [-8.016338, 41.794963], [-8.011976, 41.803932], [-8.001315, 41.812847], [-7.985268, 41.817641]], [[-8.166003, 41.807495], [-8.153976, 41.806659], [-8.141975, 41.803823], [-8.125821, 41.795848], [-8.115695, 41.786764], [-8.110012, 41.777713], [-8.107797, 41.759682], [-8.109837, 41.750691], [-8.114753, 41.741722], [-8.124054, 41.732787], [-8.143031, 41.724523], [-8.155152, 41.717074], [-8.167222, 41.713292], [-8.179213, 41.715618], [-8.191175, 41.720327], [-8.213506, 41.733434], [-8.220322, 41.742487], [-8.222448, 41.751508], [-8.220482, 41.769509], [-8.211026, 41.787458], [-8.202262, 41.795889], [-8.190139, 41.802784], [-8.178059, 41.806128], [-8.166003, 41.807495]], [[-8.239347, 41.713291], [-8.227288, 41.716431], [-8.215264, 41.716694], [-8.203273, 41.714222], [-8.188288, 41.706237], [-8.182156, 41.697187], [-8.182066, 41.688179], [-8.187583, 41.679211], [-8.191735, 41.675657], [-8.203816, 41.670227], [-8.215854, 41.668081], [-8.231438, 41.670506], [-8.239809, 41.674025], [-8.247568, 41.67962], [-8.253091, 41.688663], [-8.25439, 41.697678], [-8.250072, 41.706657], [-8.239347, 41.713291]], [[-8.107222, 41.70578], [-8.106818, 41.696626], [-8.119462, 41.689585], [-8.130652, 41.696809], [-8.119191, 41.709478], [-8.107222, 41.70578]], [[-8.071219, 41.701992], [-8.059108, 41.708281], [-8.047097, 41.707736], [-8.044194, 41.705129], [-8.04269, 41.69611], [-7.999363, 41.685454], [-7.984338, 41.677595], [-7.975756, 41.668511], [-7.971056, 41.659462], [-7.971, 41.650455], [-7.975617, 41.641489], [-7.985777, 41.632572], [-8.000265, 41.627154], [-8.012287, 41.626045], [-8.024272, 41.627309], [-8.036217, 41.631351], [-8.067342, 41.651277], [-8.095873, 41.657962], [-8.107786, 41.664965], [-8.112773, 41.669651], [-8.113419, 41.678663], [-8.095359, 41.694621], [-8.08824, 41.69648], [-8.083264, 41.700096], [-8.071219, 41.701992]], [[-8.382489, 41.671417], [-8.382672, 41.66241], [-8.384085, 41.662122], [-8.384585, 41.671428], [-8.382489, 41.671417]], [[-8.450292, 41.54566], [-8.457154, 41.542759], [-8.458509, 41.545699], [-8.457118, 41.547031], [-8.450292, 41.54566]]], [[[-7.80379, 41.714156], [-7.808987, 41.717699], [-7.808396, 41.715744], [-7.80379, 41.714156]]], [[[-8.661262, 41.486994], [-8.673235, 41.488196], [-8.684433, 41.483489], [-8.687883, 41.474491], [-8.685305, 41.469348], [-8.681609, 41.465466], [-8.673369, 41.461499], [-8.66139, 41.462301], [-8.657064, 41.465395], [-8.651031, 41.474385], [-8.655197, 41.483405], [-8.661262, 41.486994]]], [[[-8.553541, 41.473988], [-8.565542, 41.470182], [-8.573125, 41.465114], [-8.579218, 41.456129], [-8.580244, 41.447126], [-8.576904, 41.438106], [-8.567478, 41.429063], [-8.553882, 41.424156], [-8.541908, 41.425054], [-8.529905, 41.430049], [-8.521369, 41.437888], [-8.518428, 41.446883], [-8.519918, 41.455897], [-8.526344, 41.464931], [-8.541571, 41.472951], [-8.553541, 41.473988]]], [[[-8.620563, 41.411236], [-8.637728, 41.410858], [-8.649703, 41.408917], [-8.661691, 41.404505], [-8.676123, 41.39339], [-8.681409, 41.384397], [-8.683087, 41.375394], [-8.681995, 41.366384], [-8.678237, 41.357366], [-8.671519, 41.348339], [-8.661388, 41.339302], [-8.650112, 41.332602], [-8.638188, 41.327918], [-8.626252, 41.325474], [-8.614305, 41.325108], [-8.602345, 41.326821], [-8.592104, 41.33007], [-8.576521, 41.339021], [-8.567865, 41.347996], [-8.56269, 41.356985], [-8.560343, 41.365983], [-8.560566, 41.374992], [-8.563491, 41.38401], [-8.569279, 41.39304], [-8.57797, 41.400541], [-8.589895, 41.406563], [-8.601841, 41.409505], [-8.620563, 41.411236]]], [[[-8.684025, 41.222265], [-8.698424, 41.222085], [-8.71037, 41.218464], [-8.720621, 41.213352], [-8.729921, 41.204366], [-8.734202, 41.195368], [-8.735032, 41.186362], [-8.73232, 41.177348], [-8.722521, 41.166191], [-8.710627, 41.160321], [-8.698717, 41.15811], [-8.686795, 41.158808], [-8.674859, 41.162289], [-8.662898, 41.170362], [-8.657621, 41.17715], [-8.653659, 41.186146], [-8.652898, 41.195152], [-8.655373, 41.204167], [-8.661905, 41.213194], [-8.674572, 41.22022], [-8.684025, 41.222265]]]]}}, {"id": "0", "type": "Feature", "properties": {"fill": "#fecb90", "value_min": 0.53, "value_max": 0.6}, "geometry": {"type": "MultiPolygon", "coordinates": [[[[-7.86486, 41.817988], [-7.876902, 41.817895], [-7.880517, 41.811733], [-7.877089, 41.807167], [-7.865056, 41.806917], [-7.860526, 41.811537], [-7.86486, 41.817988]]], [[[-8.624998, 41.543608], [-8.637004, 41.54063], [-8.641236, 41.537406], [-8.645474, 41.528412], [-8.641872, 41.519394], [-8.637143, 41.515842], [-8.625183, 41.511677], [-8.613186, 41.513846], [-8.605829, 41.519276], [-8.603041, 41.528274], [-8.608133, 41.537298], [-8.613025, 41.540912], [-8.624998, 41.543608]]], [[[-8.110184, 41.490491], [-8.125083, 41.489601], [-8.131624, 41.480643], [-8.126056, 41.471594], [-8.12245, 41.469312], [-8.110479, 41.468962], [-8.106148, 41.471441], [-8.100575, 41.480405], [-8.107494, 41.489466], [-8.110184, 41.490491]]], [[[-8.733821, 41.319281], [-8.747046, 41.312499], [-8.753957, 41.303506], [-8.755542, 41.294502], [-8.752655, 41.285488], [-8.743377, 41.27646], [-8.734012, 41.272232], [-8.722082, 41.27004], [-8.710139, 41.270759], [-8.698182, 41.274622], [-8.686203, 41.285326], [-8.683851, 41.294327], [-8.6862, 41.303341], [-8.697996, 41.314936], [-8.709922, 41.319797], [-8.721865, 41.321187], [-8.733821, 41.319281]]]]}}, {"id": "4", "type": "Feature", "properties": {"fill": "#e85c3f", "value_min": 0.8, "value_max": 0.87}, "geometry": {"type": "MultiPolygon", "coordinates": [[[[-7.985268, 41.817641], [-8.001315, 41.812847], [-8.011976, 41.803932], [-8.016338, 41.794963], [-8.016691, 41.785959], [-8.014171, 41.776931], [-8.005677, 41.758844], [-8.015602, 41.749922], [-8.02247, 41.746454], [-8.025908, 41.741003], [-8.025679, 41.731994], [-8.010804, 41.722951], [-7.998731, 41.726242], [-7.991399, 41.731699], [-7.986431, 41.743822], [-7.974396, 41.74437], [-7.950377, 41.742308], [-7.938308, 41.744869], [-7.926157, 41.752333], [-7.91388, 41.767133], [-7.909238, 41.775982], [-7.90751, 41.784973], [-7.90944, 41.793998], [-7.914132, 41.803049], [-7.925113, 41.814885], [-7.937091, 41.818598], [-7.985268, 41.817641]], [[-7.949285, 41.809195], [-7.93726, 41.808389], [-7.927305, 41.803173], [-7.920444, 41.794102], [-7.920487, 41.785095], [-7.925718, 41.778697], [-7.937836, 41.773504], [-7.949872, 41.773256], [-7.961861, 41.775918], [-7.973395, 41.785581], [-7.974088, 41.794594], [-7.967307, 41.80354], [-7.949285, 41.809195]]], [[[-8.166003, 41.807495], [-8.178059, 41.806128], [-8.190139, 41.802784], [-8.202262, 41.795889], [-8.211026, 41.787458], [-8.220482, 41.769509], [-8.222448, 41.751508], [-8.220322, 41.742487], [-8.213506, 41.733434], [-8.191175, 41.720327], [-8.179213, 41.715618], [-8.167222, 41.713292], [-8.155152, 41.717074], [-8.143031, 41.724523], [-8.124054, 41.732787], [-8.114753, 41.741722], [-8.109837, 41.750691], [-8.107797, 41.759682], [-8.110012, 41.777713], [-8.115695, 41.786764], [-8.125821, 41.795848], [-8.141975, 41.803823], [-8.153976, 41.806659], [-8.166003, 41.807495]], [[-8.166473, 41.771246], [-8.154486, 41.767807], [-8.144681, 41.759963], [-8.140573, 41.750925], [-8.142309, 41.741931], [-8.149193, 41.732975], [-8.154992, 41.729262], [-8.167071, 41.72502], [-8.179086, 41.725583], [-8.194149, 41.7333], [-8.200332, 41.74235], [-8.200686, 41.751359], [-8.196041, 41.760334], [-8.19061, 41.765387], [-8.178514, 41.770479], [-8.166473, 41.771246]]], [[[-8.107222, 41.70578], [-8.119191, 41.709478], [-8.130652, 41.696809], [-8.119462, 41.689585], [-8.106818, 41.696626], [-8.107222, 41.70578]]], [[[-8.382489, 41.671417], [-8.384585, 41.671428], [-8.384085, 41.662122], [-8.382672, 41.66241], [-8.382489, 41.671417]]], [[[-8.062384, 41.575562], [-8.085463, 41.588373], [-8.0922, 41.597433], [-8.082279, 41.615369], [-8.096276, 41.629096], [-8.09699, 41.6335], [-8.102787, 41.642552], [-8.119936, 41.65487], [-8.131883, 41.659528], [-8.143876, 41.66086], [-8.155909, 41.659163], [-8.169175, 41.652058], [-8.178729, 41.64312], [-8.184625, 41.634155], [-8.188215, 41.616166], [-8.186449, 41.589132], [-8.192528, 41.580167], [-8.204992, 41.574518], [-8.253033, 41.569226], [-8.277077, 41.564187], [-8.337232, 41.545683], [-8.361311, 41.535618], [-8.37338, 41.52717], [-8.381596, 41.518289], [-8.385523, 41.510598], [-8.388358, 41.50031], [-8.387809, 41.482292], [-8.383772, 41.464256], [-8.374105, 41.451865], [-8.362195, 41.445526], [-8.350257, 41.442182], [-8.326331, 41.440704], [-8.302349, 41.444577], [-8.266314, 41.455362], [-8.230296, 41.463746], [-8.218264, 41.468534], [-8.201505, 41.48115], [-8.181837, 41.508284], [-8.169756, 41.516024], [-8.157776, 41.51569], [-8.121544, 41.507589], [-8.091803, 41.503995], [-8.093, 41.505063], [-8.0912, 41.510869], [-8.097937, 41.509787], [-8.10991, 41.51057], [-8.129325, 41.516655], [-8.138764, 41.525734], [-8.140575, 41.534755], [-8.136534, 41.543732], [-8.121307, 41.553835], [-8.10928, 41.5565], [-8.097295, 41.556025], [-8.082187, 41.55032], [-8.079788, 41.551876], [-8.074396, 41.549848], [-8.072897, 41.551197], [-8.076188, 41.557276], [-8.080082, 41.558854], [-8.081576, 41.565157], [-8.078879, 41.56493], [-8.077678, 41.566956], [-8.069283, 41.570553], [-8.069281, 41.572579], [-8.065682, 41.575053], [-8.062384, 41.575562]], [[-8.132067, 41.645796], [-8.125468, 41.642727], [-8.120202, 41.635248], [-8.120243, 41.632303], [-8.132383, 41.622239], [-8.144363, 41.624091], [-8.151407, 41.633914], [-8.146122, 41.642882], [-8.132067, 41.645796]], [[-8.241491, 41.530584], [-8.227896, 41.526367], [-8.218211, 41.517294], [-8.215932, 41.508271], [-8.218926, 41.499284], [-8.229989, 41.489667], [-8.242009, 41.4862], [-8.253984, 41.486517], [-8.266803, 41.490592], [-8.27746, 41.499667], [-8.278903, 41.508683], [-8.274309, 41.517662], [-8.26553, 41.524806], [-8.253487, 41.529817], [-8.241491, 41.530584]], [[-8.34952, 41.515929], [-8.337518, 41.517663], [-8.325541, 41.516945], [-8.313593, 41.513505], [-8.304336, 41.50884], [-8.293625, 41.499767], [-8.29255, 41.490753], [-8.295258, 41.481762], [-8.302206, 41.472797], [-8.313661, 41.463859], [-8.326141, 41.459062], [-8.338129, 41.457701], [-8.350087, 41.459215], [-8.362005, 41.464861], [-8.369916, 41.473188], [-8.373526, 41.482215], [-8.37379, 41.491224], [-8.370738, 41.500215], [-8.361561, 41.510131], [-8.34952, 41.515929]]], [[[-8.090849, 41.503937], [-8.090849, 41.503937], [-8.089108, 41.503832], [-8.090849, 41.503937]]], [[[-8.450292, 41.54566], [-8.457118, 41.547031], [-8.458509, 41.545699], [-8.457154, 41.542759], [-8.450292, 41.54566]]]]}}, {"id": "5", "type": "Feature", "properties": {"fill": "#e14a35", "value_min": 0.87, "value_max": 0.93}, "geometry": {"type": "MultiPolygon", "coordinates": [[[[-7.949285, 41.809195], [-7.967307, 41.80354], [-7.974088, 41.794594], [-7.973395, 41.785581], [-7.961861, 41.775918], [-7.949872, 41.773256], [-7.937836, 41.773504], [-7.925718, 41.778697], [-7.920487, 41.785095], [-7.920444, 41.794102], [-7.927305, 41.803173], [-7.93726, 41.808389], [-7.949285, 41.809195]], [[-7.937404, 41.799672], [-7.931035, 41.794201], [-7.931861, 41.785202], [-7.937704, 41.781526], [-7.949743, 41.781193], [-7.957701, 41.785439], [-7.95872, 41.794455], [-7.949426, 41.800572], [-7.937404, 41.799672]]], [[[-8.166473, 41.771246], [-8.178514, 41.770479], [-8.19061, 41.765387], [-8.196041, 41.760334], [-8.200686, 41.751359], [-8.200332, 41.74235], [-8.194149, 41.7333], [-8.179086, 41.725583], [-8.167071, 41.72502], [-8.154992, 41.729262], [-8.149193, 41.732975], [-8.142309, 41.741931], [-8.140573, 41.750925], [-8.144681, 41.759963], [-8.154486, 41.767807], [-8.166473, 41.771246]], [[-8.166655, 41.757175], [-8.156217, 41.751041], [-8.154019, 41.742018], [-8.166979, 41.732109], [-8.178984, 41.733595], [-8.187058, 41.742257], [-8.18453, 41.751246], [-8.178702, 41.755752], [-8.166655, 41.757175]]], [[[-8.132067, 41.645796], [-8.146122, 41.642882], [-8.151407, 41.633914], [-8.144363, 41.624091], [-8.132383, 41.622239], [-8.120243, 41.632303], [-8.120202, 41.635248], [-8.125468, 41.642727], [-8.132067, 41.645796]]], [[[-8.082187, 41.55032], [-8.097295, 41.556025], [-8.10928, 41.5565], [-8.121307, 41.553835], [-8.136534, 41.543732], [-8.140575, 41.534755], [-8.138764, 41.525734], [-8.129325, 41.516655], [-8.10991, 41.51057], [-8.097937, 41.509787], [-8.0912, 41.510869], [-8.090295, 41.520495], [-8.097856, 41.515666], [-8.109839, 41.515692], [-8.123938, 41.525622], [-8.121547, 41.536143], [-8.109469, 41.542729], [-8.105861, 41.542551], [-8.106459, 41.543782], [-8.101666, 41.542655], [-8.094475, 41.544904], [-8.087885, 41.542876], [-8.083389, 41.5449], [-8.082187, 41.55032]]], [[[-8.241491, 41.530584], [-8.253487, 41.529817], [-8.26553, 41.524806], [-8.274309, 41.517662], [-8.278903, 41.508683], [-8.27746, 41.499667], [-8.266803, 41.490592], [-8.253984, 41.486517], [-8.242009, 41.4862], [-8.229989, 41.489667], [-8.218926, 41.499284], [-8.215932, 41.508271], [-8.218211, 41.517294], [-8.227896, 41.526367], [-8.241491, 41.530584]]], [[[-8.34952, 41.515929], [-8.361561, 41.510131], [-8.370738, 41.500215], [-8.37379, 41.491224], [-8.373526, 41.482215], [-8.369916, 41.473188], [-8.362005, 41.464861], [-8.350087, 41.459215], [-8.338129, 41.457701], [-8.326141, 41.459062], [-8.313661, 41.463859], [-8.302206, 41.472797], [-8.295258, 41.481762], [-8.29255, 41.490753], [-8.293625, 41.499767], [-8.304336, 41.50884], [-8.313593, 41.513505], [-8.325541, 41.516945], [-8.337518, 41.517663], [-8.34952, 41.515929]], [[-8.337659, 41.503884], [-8.32572, 41.499691], [-8.318682, 41.490911], [-8.319208, 41.481907], [-8.325981, 41.474552], [-8.338001, 41.47024], [-8.352144, 41.47309], [-8.361253, 41.482148], [-8.361613, 41.491157], [-8.349655, 41.502395], [-8.337659, 41.503884]]]]}}, {"id": "6", "type": "Feature", "properties": {"fill": "#da382b", "value_min": 0.93, "value_max": 1.0}, "geometry": {"type": "MultiPolygon", "coordinates": [[[[-7.937404, 41.799672], [-7.949426, 41.800572], [-7.95872, 41.794455], [-7.957701, 41.785439], [-7.949743, 41.781193], [-7.937704, 41.781526], [-7.931861, 41.785202], [-7.931035, 41.794201], [-7.937404, 41.799672]]], [[[-8.166655, 41.757175], [-8.178702, 41.755752], [-8.18453, 41.751246], [-8.187058, 41.742257], [-8.178984, 41.733595], [-8.166979, 41.732109], [-8.154019, 41.742018], [-8.156217, 41.751041], [-8.166655, 41.757175]]], [[[-8.105861, 41.542551], [-8.109469, 41.542729], [-8.121547, 41.536143], [-8.123938, 41.525622], [-8.109839, 41.515692], [-8.097856, 41.515666], [-8.090295, 41.520495], [-8.090594, 41.522169], [-8.093588, 41.52307], [-8.09209, 41.524645], [-8.092385, 41.532749], [-8.095978, 41.534325], [-8.098073, 41.538152], [-8.105861, 41.542551]]], [[[-8.337659, 41.503884], [-8.349655, 41.502395], [-8.361613, 41.491157], [-8.361253, 41.482148], [-8.352144, 41.47309], [-8.338001, 41.47024], [-8.325981, 41.474552], [-8.319208, 41.481907], [-8.318682, 41.490911], [-8.32572, 41.499691], [-8.337659, 41.503884]]]]}}]}