{"type": "FeatureCollection", "features": [{"id": "1", "type": "Feature", "properties": {"fill": "#98d277", "value_min": 0.2, "value_max": -0.27}, "geometry": {"type": "MultiPolygon", "coordinates": [[[[-7.874564, 41.846512], [-7.888516, 41.84251], [-7.900739, 41.832144], [-7.907101, 41.820996], [-7.907593, 41.811994], [-7.903641, 41.80295], [-7.885033, 41.784757], [-7.884174, 41.775742], [-7.887232, 41.766765], [-7.887052, 41.757756], [-7.880406, 41.748684], [-7.866179, 41.743195], [-7.854142, 41.743805], [-7.842532, 41.748309], [-7.834135, 41.757231], [-7.832899, 41.766225], [-7.838068, 41.784291], [-7.831137, 41.802235], [-7.829313, 41.811223], [-7.829992, 41.820236], [-7.833866, 41.829283], [-7.842681, 41.838379], [-7.852352, 41.844167], [-7.86435, 41.846831], [-7.872758, 41.846568], [-7.873066, 41.844875], [-7.874564, 41.846512]], [[-7.864907, 41.815362], [-7.86245, 41.811556], [-7.865026, 41.808606], [-7.877069, 41.808332], [-7.879722, 41.811726], [-7.876935, 41.816004], [-7.864907, 41.815362]]], [[[-8.143049, 41.723223], [-8.152884, 41.714989], [-8.154689, 41.705995], [-8.149298, 41.696948], [-8.143479, 41.690837], [-8.131526, 41.686074], [-8.119506, 41.686368], [-8.103787, 41.696602], [-8.101695, 41.705593], [-8.105229, 41.714628], [-8.118976, 41.72519], [-8.130978, 41.726747], [-8.143049, 41.723223]]], [[[-8.156023, 41.650454], [-8.163865, 41.643013], [-8.167487, 41.634032], [-8.166971, 41.625021], [-8.161486, 41.615974], [-8.15653, 41.611528], [-8.144598, 41.606257], [-8.132627, 41.604052], [-8.108642, 41.602906], [-8.096681, 41.600074], [-8.084673, 41.600678], [-8.075305, 41.606306], [-8.071309, 41.615281], [-8.077215, 41.624336], [-8.084278, 41.628617], [-8.096229, 41.63249], [-8.105536, 41.642574], [-8.11996, 41.653061], [-8.131914, 41.657201], [-8.143933, 41.656547], [-8.156023, 41.650454]], [[-8.129726, 41.633752], [-8.132258, 41.631575], [-8.137057, 41.633807], [-8.132188, 41.636782], [-8.129726, 41.633752]]], [[[-8.109712, 41.525001], [-8.103705, 41.525466], [-8.109678, 41.527452], [-8.109712, 41.525001]]], [[[-8.253742, 41.507619], [-8.241829, 41.50161], [-8.235848, 41.508405], [-8.241682, 41.514195], [-8.253723, 41.509268], [-8.253742, 41.507619]]], [[[-8.361665, 41.499543], [-8.368479, 41.491195], [-8.369039, 41.482191], [-8.361927, 41.472879], [-8.350007, 41.467271], [-8.338038, 41.466591], [-8.326024, 41.470327], [-8.322136, 41.472917], [-8.315372, 41.481884], [-8.315068, 41.49089], [-8.321148, 41.499933], [-8.325686, 41.502962], [-8.337632, 41.506537], [-8.349623, 41.505623], [-8.361665, 41.499543]]], [[[-8.444664, 41.482581], [-8.442146, 41.473561], [-8.433837, 41.466931], [-8.421878, 41.465088], [-8.409867, 41.46907], [-8.404222, 41.473371], [-8.401439, 41.482364], [-8.407253, 41.491402], [-8.421599, 41.496434], [-8.433596, 41.494605], [-8.43841, 41.491558], [-8.444664, 41.482581]]], [[[-8.525052, 41.201647], [-8.518795, 41.212685], [-8.518482, 41.221692], [-8.521951, 41.230714], [-8.530421, 41.239757], [-8.543162, 41.245833], [-8.555083, 41.247962], [-8.567023, 41.247101], [-8.58441, 41.239964], [-8.593784, 41.23099], [-8.597926, 41.221997], [-8.598393, 41.21299], [-8.59503, 41.203971], [-8.58074, 41.191989], [-8.575958, 41.195609], [-8.576894, 41.201908], [-8.574515, 41.202593], [-8.57423, 41.20462], [-8.567971, 41.204644], [-8.565895, 41.206227], [-8.567697, 41.208246], [-8.566512, 41.209376], [-8.559636, 41.206251], [-8.554271, 41.20627], [-8.549521, 41.209214], [-8.544157, 41.209458], [-8.54238, 41.211265], [-8.532257, 41.213102], [-8.525052, 41.201647]]], [[[-8.721999, 41.204347], [-8.724999, 41.195347], [-8.722446, 41.183969], [-8.717253, 41.177312], [-8.710574, 41.172269], [-8.698672, 41.167919], [-8.686756, 41.167033], [-8.674825, 41.169222], [-8.66065, 41.177159], [-8.654006, 41.186147], [-8.652409, 41.19515], [-8.655129, 41.204166], [-8.664127, 41.213201], [-8.674584, 41.217837], [-8.686503, 41.219986], [-8.698438, 41.218951], [-8.712966, 41.213333], [-8.721999, 41.204347]]]]}}, {"id": "2", "type": "Feature", "properties": {"fill": "#bde282", "value_min": 0.27, "value_max": -0.33}, "geometry": {"type": "MultiPolygon", "coordinates": [[[[-8.452375, 41.69971], [-8.431869, 41.691831], [-8.419864, 41.690434], [-8.40784, 41.691251], [-8.384224, 41.698447], [-8.359582, 41.710566], [-8.34752, 41.714644], [-8.335494, 41.715147], [-8.311472, 41.713231], [-8.299441, 41.714171], [-8.275318, 41.721439], [-8.257394, 41.733726], [-8.249718, 41.742683], [-8.245233, 41.75166], [-8.242832, 41.769659], [-8.243567, 41.788434], [-8.245546, 41.785731], [-8.251257, 41.784375], [-8.251845, 41.777172], [-8.257551, 41.773564], [-8.261762, 41.774235], [-8.271366, 41.766346], [-8.280681, 41.764083], [-8.284038, 41.761109], [-8.284931, 41.757507], [-8.287033, 41.756829], [-8.298457, 41.757263], [-8.300866, 41.758835], [-8.305674, 41.758152], [-8.311096, 41.762195], [-8.318308, 41.761283], [-8.325233, 41.765098], [-8.328234, 41.763292], [-8.336653, 41.763728], [-8.341756, 41.761468], [-8.344765, 41.762363], [-8.349267, 41.760103], [-8.352557, 41.755145], [-8.349814, 41.744122], [-8.352516, 41.743441], [-8.352203, 41.739616], [-8.357897, 41.735103], [-8.362407, 41.735994], [-8.368703, 41.73193], [-8.374122, 41.734845], [-8.384922, 41.73032], [-8.387032, 41.731891], [-8.393033, 41.729852], [-8.396942, 41.730518], [-8.400531, 41.726683], [-8.402934, 41.726452], [-8.404721, 41.722847], [-8.417349, 41.725067], [-8.422737, 41.720552], [-8.429643, 41.719859], [-8.430533, 41.717381], [-8.435927, 41.714441], [-8.441333, 41.714201], [-8.4446, 41.70654], [-8.452375, 41.69971]]], [[[-8.168935, 41.814451], [-8.153984, 41.805997], [-8.142089, 41.795318], [-8.135901, 41.786918], [-8.13037, 41.771878], [-8.130317, 41.759855], [-8.132824, 41.750867], [-8.138281, 41.741901], [-8.148135, 41.732968], [-8.162151, 41.724064], [-8.170049, 41.715114], [-8.168339, 41.688081], [-8.169459, 41.679082], [-8.174269, 41.670109], [-8.179864, 41.664376], [-8.204102, 41.64694], [-8.228259, 41.635263], [-8.275865, 41.616751], [-8.333837, 41.581073], [-8.369913, 41.563262], [-8.416988, 41.545496], [-8.445249, 41.532852], [-8.457247, 41.531655], [-8.481205, 41.533664], [-8.493217, 41.530517], [-8.507045, 41.518895], [-8.508695, 41.509894], [-8.505519, 41.500873], [-8.490893, 41.482795], [-8.486349, 41.473767], [-8.464494, 41.419623], [-8.460318, 41.401588], [-8.460205, 41.383572], [-8.464756, 41.365578], [-8.469642, 41.356593], [-8.478181, 41.347625], [-8.494705, 41.338922], [-8.51865, 41.333394], [-8.554524, 41.330074], [-8.578421, 41.330594], [-8.590329, 41.337467], [-8.593766, 41.357098], [-8.598299, 41.366122], [-8.60769, 41.375162], [-8.625926, 41.382321], [-8.637884, 41.382712], [-8.649861, 41.37956], [-8.657451, 41.375321], [-8.66467, 41.366334], [-8.665646, 41.35733], [-8.661878, 41.348311], [-8.650087, 41.337388], [-8.616424, 41.321145], [-8.617255, 41.31214], [-8.622927, 41.303151], [-8.648119, 41.276208], [-8.661151, 41.267239], [-8.674369, 41.261118], [-8.698277, 41.254141], [-8.734107, 41.24885], [-8.803657, 41.244929], [-8.799695, 41.14406], [-8.67527, 41.147484], [-8.676193, 41.146567], [-8.674793, 41.146932], [-8.674204, 41.147693], [-8.674849, 41.153767], [-8.672489, 41.15648], [-8.66117, 41.156307], [-8.662078, 41.158104], [-8.660313, 41.160813], [-8.657033, 41.160378], [-8.654961, 41.161963], [-8.653231, 41.169174], [-8.655366, 41.175467], [-8.647955, 41.180228], [-8.647696, 41.185181], [-8.640929, 41.196241], [-8.634946, 41.193341], [-8.632526, 41.188624], [-8.625658, 41.186628], [-8.621132, 41.178994], [-8.613374, 41.177451], [-8.608583, 41.174095], [-8.609164, 41.172066], [-8.605845, 41.166228], [-8.602852, 41.164214], [-8.59422, 41.165149], [-8.589766, 41.167193], [-8.589194, 41.170572], [-8.583263, 41.174422], [-8.582094, 41.177803], [-8.578825, 41.178941], [-8.580327, 41.180736], [-8.58074, 41.191989], [-8.59503, 41.203971], [-8.598393, 41.21299], [-8.597926, 41.221997], [-8.593784, 41.23099], [-8.58441, 41.239964], [-8.567023, 41.247101], [-8.555083, 41.247962], [-8.543162, 41.245833], [-8.530421, 41.239757], [-8.521951, 41.230714], [-8.518482, 41.221692], [-8.518795, 41.212685], [-8.525052, 41.201647], [-8.523236, 41.200077], [-8.518471, 41.200543], [-8.51163, 41.203042], [-8.510456, 41.206197], [-8.505693, 41.207113], [-8.504239, 41.213646], [-8.500076, 41.21546], [-8.50308, 41.219502], [-8.502204, 41.222656], [-8.495642, 41.222227], [-8.495947, 41.223351], [-8.490894, 41.226294], [-8.487935, 41.230354], [-8.490331, 41.232373], [-8.489156, 41.235528], [-8.486181, 41.236888], [-8.484411, 41.240495], [-8.476346, 41.237818], [-8.475756, 41.23917], [-8.470986, 41.23941], [-8.471604, 41.243459], [-8.469227, 41.245267], [-8.463258, 41.244384], [-8.459989, 41.246644], [-8.454323, 41.246886], [-8.455541, 41.251834], [-8.452276, 41.25522], [-8.449891, 41.255452], [-8.449304, 41.257479], [-8.447812, 41.257258], [-8.449028, 41.261982], [-8.439785, 41.262907], [-8.438023, 41.268989], [-8.434745, 41.269673], [-8.432691, 41.277107], [-8.427032, 41.279372], [-8.429143, 41.284319], [-8.426171, 41.287028], [-8.426488, 41.291079], [-8.425013, 41.294909], [-8.422037, 41.296942], [-8.422647, 41.299867], [-8.407744, 41.304856], [-8.406262, 41.307335], [-8.402979, 41.307568], [-8.401801, 41.311398], [-8.399712, 41.311628], [-8.400316, 41.313202], [-8.396738, 41.314336], [-8.398835, 41.316131], [-8.393775, 41.31997], [-8.393489, 41.323122], [-8.391105, 41.324253], [-8.386325, 41.323588], [-8.380382, 41.331254], [-8.375305, 41.33104], [-8.37201, 41.328346], [-8.361563, 41.329718], [-8.358276, 41.329049], [-8.357673, 41.327249], [-8.350207, 41.327264], [-8.346032, 41.328847], [-8.342462, 41.333131], [-8.333215, 41.336299], [-8.326363, 41.342163], [-8.324568, 41.341041], [-8.323376, 41.341943], [-8.320676, 41.338121], [-8.316788, 41.335876], [-8.314699, 41.33678], [-8.31279, 41.334982], [-8.304759, 41.382738], [-8.297892, 41.400711], [-8.289976, 41.40967], [-8.266644, 41.426054], [-8.254611, 41.431795], [-8.218548, 41.444841], [-8.206496, 41.451481], [-8.19436, 41.46472], [-8.180998, 41.490013], [-8.169902, 41.504555], [-8.157832, 41.511326], [-8.14583, 41.512748], [-8.0927, 41.505486], [-8.089398, 41.519242], [-8.090594, 41.522169], [-8.093588, 41.52307], [-8.091487, 41.531173], [-8.097775, 41.536127], [-8.097774, 41.537927], [-8.106759, 41.543557], [-8.101666, 41.542655], [-8.094175, 41.544904], [-8.087885, 41.542876], [-8.083389, 41.5449], [-8.080687, 41.551651], [-8.074097, 41.549848], [-8.073494, 41.553449], [-8.075891, 41.554575], [-8.076188, 41.557276], [-8.079783, 41.558403], [-8.081576, 41.565157], [-8.078879, 41.56493], [-8.075279, 41.568305], [-8.073182, 41.568079], [-8.069283, 41.570553], [-8.068081, 41.573478], [-8.056684, 41.579549], [-8.052181, 41.584498], [-8.052777, 41.587649], [-8.037169, 41.600242], [-8.031467, 41.602938], [-8.02367, 41.603156], [-8.019174, 41.601802], [-8.015872, 41.603824], [-8.013474, 41.603372], [-8.005971, 41.60629], [-8.003562, 41.611239], [-7.998761, 41.612809], [-7.999669, 41.608759], [-7.996976, 41.605829], [-7.996684, 41.602003], [-7.984685, 41.603564], [-7.982292, 41.60086], [-7.975689, 41.603552], [-7.974482, 41.606701], [-7.970882, 41.607147], [-7.969091, 41.603768], [-7.965796, 41.602413], [-7.9541, 41.602846], [-7.952606, 41.600592], [-7.947808, 41.60081], [-7.945413, 41.599456], [-7.942725, 41.595625], [-7.936733, 41.594264], [-7.936125, 41.596964], [-7.938214, 41.600344], [-7.937004, 41.603718], [-7.931604, 41.604384], [-7.930073, 41.614735], [-7.925255, 41.620579], [-7.920755, 41.620914], [-7.94026, 41.626054], [-7.952261, 41.626263], [-7.988348, 41.621572], [-8.000351, 41.621641], [-8.024287, 41.62638], [-8.036208, 41.631929], [-8.048094, 41.640083], [-8.058576, 41.651206], [-8.059889, 41.654642], [-8.071756, 41.664596], [-8.083788, 41.663152], [-8.09577, 41.665294], [-8.101509, 41.669563], [-8.104427, 41.678593], [-8.095446, 41.688399], [-8.083395, 41.690906], [-8.074111, 41.68736], [-8.059579, 41.675994], [-8.056287, 41.678208], [-8.023361, 41.687679], [-8.011322, 41.68915], [-7.987303, 41.688296], [-7.97527, 41.689392], [-7.966789, 41.695452], [-7.963701, 41.704431], [-7.966626, 41.722472], [-7.987484, 41.758685], [-7.988942, 41.767705], [-7.980397, 41.776636], [-7.973853, 41.778476], [-7.924486, 41.776126], [-7.913829, 41.770163], [-7.911325, 41.766995], [-7.905461, 41.748926], [-7.902239, 41.744254], [-7.896773, 41.739836], [-7.878386, 41.73278], [-7.866399, 41.730662], [-7.806283, 41.730469], [-7.794188, 41.734315], [-7.790132, 41.738762], [-7.788166, 41.747749], [-7.791567, 41.783812], [-7.787063, 41.801778], [-7.7807, 41.81158], [-7.768478, 41.821179], [-7.756348, 41.825756], [-7.739513, 41.829788], [-7.74729, 41.837772], [-7.746349, 41.84407], [-7.750246, 41.846784], [-7.750532, 41.849261], [-7.743309, 41.849012], [-7.746901, 41.8524], [-7.746881, 41.855776], [-7.73843, 41.859348], [-7.734159, 41.868337], [-7.730228, 41.871024], [-7.729293, 41.875972], [-7.722351, 41.878424], [-7.720523, 41.881793], [-7.725335, 41.882935], [-7.726208, 41.887665], [-7.737044, 41.888828], [-7.737935, 41.890857], [-7.74246, 41.889747], [-7.742785, 41.885922], [-7.756022, 41.888441], [-7.758719, 41.890926], [-7.756592, 41.89407], [-7.758376, 41.898127], [-7.764097, 41.898595], [-7.779227, 41.886264], [-7.785257, 41.885157], [-7.788886, 41.882467], [-7.794007, 41.882257], [-7.796739, 41.878214], [-7.794349, 41.87438], [-7.797064, 41.873488], [-7.803381, 41.874857], [-7.804914, 41.869459], [-7.813032, 41.871958], [-7.814229, 41.873537], [-7.823863, 41.874013], [-7.825059, 41.875817], [-7.830479, 41.875831], [-7.830789, 41.874031], [-7.832894, 41.874712], [-7.83772, 41.872924], [-7.842528, 41.875187], [-7.841663, 41.866632], [-7.849515, 41.861475], [-7.858542, 41.862622], [-7.859456, 41.860148], [-7.864877, 41.859711], [-7.87033, 41.851395], [-7.873043, 41.850501], [-7.872758, 41.846568], [-7.86435, 41.846831], [-7.852352, 41.844167], [-7.842681, 41.838379], [-7.833866, 41.829283], [-7.829992, 41.820236], [-7.829313, 41.811223], [-7.831137, 41.802235], [-7.838068, 41.784291], [-7.832899, 41.766225], [-7.834135, 41.757231], [-7.842532, 41.748309], [-7.854142, 41.743805], [-7.866179, 41.743195], [-7.880406, 41.748684], [-7.887052, 41.757756], [-7.887232, 41.766765], [-7.884174, 41.775742], [-7.885033, 41.784757], [-7.903641, 41.80295], [-7.907593, 41.811994], [-7.907101, 41.820996], [-7.900739, 41.832144], [-7.888516, 41.84251], [-7.874564, 41.846512], [-7.879956, 41.853217], [-7.888076, 41.855486], [-7.891675, 41.859094], [-7.900698, 41.861588], [-7.904318, 41.859795], [-7.907309, 41.865203], [-7.906095, 41.868126], [-7.910299, 41.871285], [-7.909985, 41.875111], [-7.915391, 41.879397], [-7.921118, 41.877833], [-7.928044, 41.87807], [-7.935283, 41.874707], [-7.937389, 41.87516], [-7.941618, 41.870891], [-7.951254, 41.871132], [-7.956367, 41.87339], [-7.956362, 41.875191], [-7.960878, 41.875648], [-7.96299, 41.874075], [-7.972322, 41.875439], [-7.987996, 41.869157], [-7.990123, 41.860157], [-7.995547, 41.858138], [-7.994047, 41.855211], [-7.996162, 41.851837], [-8.003089, 41.850494], [-8.005804, 41.847346], [-8.007928, 41.838796], [-8.010941, 41.836773], [-8.013965, 41.828899], [-8.017873, 41.831379], [-8.02901, 41.829589], [-8.037134, 41.831171], [-8.041351, 41.828023], [-8.041054, 41.825097], [-8.045268, 41.824425], [-8.046775, 41.821951], [-8.056712, 41.81588], [-8.06664, 41.817012], [-8.072961, 41.813414], [-8.078678, 41.813417], [-8.082892, 41.810493], [-8.091013, 41.812521], [-8.093421, 41.811397], [-8.093723, 41.808471], [-8.101845, 41.809824], [-8.104853, 41.81185], [-8.115984, 41.812302], [-8.123807, 41.808702], [-8.138247, 41.808477], [-8.139751, 41.813203], [-8.14276, 41.812978], [-8.144866, 41.815228], [-8.149078, 41.814777], [-8.153291, 41.817703], [-8.158106, 41.818377], [-8.165326, 41.81815], [-8.168935, 41.814451]], [[-8.143049, 41.723223], [-8.130978, 41.726747], [-8.118976, 41.72519], [-8.105229, 41.714628], [-8.101695, 41.705593], [-8.103787, 41.696602], [-8.119506, 41.686368], [-8.131526, 41.686074], [-8.143479, 41.690837], [-8.149298, 41.696948], [-8.154689, 41.705995], [-8.152884, 41.714989], [-8.143049, 41.723223]], [[-8.156023, 41.650454], [-8.143933, 41.656547], [-8.131914, 41.657201], [-8.11996, 41.653061], [-8.105536, 41.642574], [-8.096229, 41.63249], [-8.084278, 41.628617], [-8.077215, 41.624336], [-8.071309, 41.615281], [-8.075305, 41.606306], [-8.084673, 41.600678], [-8.096681, 41.600074], [-8.108642, 41.602906], [-8.132627, 41.604052], [-8.144598, 41.606257], [-8.15653, 41.611528], [-8.161486, 41.615974], [-8.166971, 41.625021], [-8.167487, 41.634032], [-8.163865, 41.643013], [-8.156023, 41.650454]], [[-8.109712, 41.525001], [-8.109678, 41.527452], [-8.103705, 41.525466], [-8.109712, 41.525001]], [[-8.253742, 41.507619], [-8.253723, 41.509268], [-8.241682, 41.514195], [-8.235848, 41.508405], [-8.241829, 41.50161], [-8.253742, 41.507619]], [[-8.361665, 41.499543], [-8.349623, 41.505623], [-8.337632, 41.506537], [-8.325686, 41.502962], [-8.321148, 41.499933], [-8.315068, 41.49089], [-8.315372, 41.481884], [-8.322136, 41.472917], [-8.326024, 41.470327], [-8.338038, 41.466591], [-8.350007, 41.467271], [-8.361927, 41.472879], [-8.369039, 41.482191], [-8.368479, 41.491195], [-8.361665, 41.499543]], [[-8.444664, 41.482581], [-8.43841, 41.491558], [-8.433596, 41.494605], [-8.421599, 41.496434], [-8.407253, 41.491402], [-8.401439, 41.482364], [-8.404222, 41.473371], [-8.409867, 41.46907], [-8.421878, 41.465088], [-8.433837, 41.466931], [-8.442146, 41.473561], [-8.444664, 41.482581]], [[-8.721999, 41.204347], [-8.712966, 41.213333], [-8.698438, 41.218951], [-8.686503, 41.219986], [-8.674584, 41.217837], [-8.664127, 41.213201], [-8.655129, 41.204166], [-8.652409, 41.19515], [-8.654006, 41.186147], [-8.66065, 41.177159], [-8.674825, 41.169222], [-8.686756, 41.167033], [-8.698672, 41.167919], [-8.710574, 41.172269], [-8.717253, 41.177312], [-8.722446, 41.183969], [-8.724999, 41.195347], [-8.721999, 41.204347]]], [[[-8.313293, 41.332505], [-8.313293, 41.332505], [-8.312836, 41.334757], [-8.313293, 41.332505]]]]}}, {"id": "3", "type": "Feature", "properties": {"fill": "#ddf190", "value_min": 0.33, "value_max": -0.4}, "geometry": {"type": "MultiPolygon", "coordinates": [[[[-8.452375, 41.69971], [-8.453255, 41.695487], [-8.461659, 41.694563], [-8.482012, 41.682123], [-8.484371, 41.674238], [-8.49308, 41.674886], [-8.499963, 41.671038], [-8.50927, 41.671233], [-8.51018, 41.672806], [-8.511967, 41.670324], [-8.509856, 41.668755], [-8.522103, 41.658811], [-8.525706, 41.659023], [-8.527769, 41.652714], [-8.534066, 41.652017], [-8.537355, 41.64998], [-8.537634, 41.646602], [-8.543876, 41.637352], [-8.543855, 41.633976], [-8.536342, 41.631977], [-8.535128, 41.62973], [-8.543431, 41.61462], [-8.554533, 41.615255], [-8.557244, 41.617046], [-8.562639, 41.61635], [-8.568056, 41.619031], [-8.570735, 41.616095], [-8.577321, 41.614269], [-8.581231, 41.615829], [-8.585766, 41.620988], [-8.591462, 41.620515], [-8.596534, 41.616668], [-8.601628, 41.615972], [-8.603996, 41.611686], [-8.613256, 41.606696], [-8.619881, 41.610269], [-8.621338, 41.604636], [-8.628833, 41.604378], [-8.636302, 41.600744], [-8.64075, 41.594422], [-8.645536, 41.593051], [-8.646744, 41.594171], [-8.649125, 41.591909], [-8.656622, 41.5921], [-8.660788, 41.588255], [-8.663794, 41.589141], [-8.665265, 41.585758], [-8.66948, 41.587989], [-8.684455, 41.586117], [-8.685608, 41.58071], [-8.697261, 41.576376], [-8.701703, 41.570277], [-8.707704, 41.570923], [-8.712485, 41.569323], [-8.716422, 41.573805], [-8.720316, 41.57356], [-8.725151, 41.577811], [-8.726633, 41.576003], [-8.734424, 41.575737], [-8.736564, 41.580228], [-8.738354, 41.579318], [-8.740778, 41.582006], [-8.74467, 41.581535], [-8.750711, 41.58623], [-8.756374, 41.582823], [-8.75635, 41.580347], [-8.762327, 41.578514], [-8.764443, 41.580303], [-8.767441, 41.580286], [-8.769874, 41.583874], [-8.768997, 41.58613], [-8.773228, 41.589482], [-8.775371, 41.593972], [-8.78556, 41.593464], [-8.797327, 41.600599], [-8.804218, 41.600109], [-8.80456, 41.604158], [-8.809434, 41.611332], [-8.828644, 41.609656], [-8.82839, 41.585633], [-8.818497, 41.554794], [-8.8221, 41.547542], [-8.821965, 41.534907], [-8.815926, 41.525624], [-8.81063, 41.5101], [-8.813279, 41.503483], [-8.812636, 41.496944], [-8.804699, 41.482068], [-8.798552, 41.474753], [-8.80154, 41.446836], [-8.806115, 41.43713], [-8.807354, 41.425915], [-8.811202, 41.416419], [-8.803657, 41.244929], [-8.734107, 41.24885], [-8.698277, 41.254141], [-8.674369, 41.261118], [-8.661151, 41.267239], [-8.648119, 41.276208], [-8.622927, 41.303151], [-8.617255, 41.31214], [-8.616424, 41.321145], [-8.650087, 41.337388], [-8.661878, 41.348311], [-8.665646, 41.35733], [-8.66467, 41.366334], [-8.657451, 41.375321], [-8.649861, 41.37956], [-8.637884, 41.382712], [-8.625926, 41.382321], [-8.60769, 41.375162], [-8.598299, 41.366122], [-8.593766, 41.357098], [-8.590329, 41.337467], [-8.578421, 41.330594], [-8.554524, 41.330074], [-8.51865, 41.333394], [-8.494705, 41.338922], [-8.478181, 41.347625], [-8.469642, 41.356593], [-8.464756, 41.365578], [-8.460205, 41.383572], [-8.460318, 41.401588], [-8.464494, 41.419623], [-8.486349, 41.473767], [-8.490893, 41.482795], [-8.505519, 41.500873], [-8.508695, 41.509894], [-8.507045, 41.518895], [-8.493217, 41.530517], [-8.481205, 41.533664], [-8.457247, 41.531655], [-8.445249, 41.532852], [-8.416988, 41.545496], [-8.369913, 41.563262], [-8.333837, 41.581073], [-8.275865, 41.616751], [-8.228259, 41.635263], [-8.204102, 41.64694], [-8.179864, 41.664376], [-8.174269, 41.670109], [-8.169459, 41.679082], [-8.168339, 41.688081], [-8.170049, 41.715114], [-8.162151, 41.724064], [-8.148135, 41.732968], [-8.138281, 41.741901], [-8.132824, 41.750867], [-8.130317, 41.759855], [-8.13037, 41.771878], [-8.135901, 41.786918], [-8.142089, 41.795318], [-8.153984, 41.805997], [-8.168935, 41.814451], [-8.173744, 41.808019], [-8.177655, 41.808242], [-8.183676, 41.812741], [-8.190291, 41.809587], [-8.197158, 41.814129], [-8.201063, 41.808724], [-8.204973, 41.807372], [-8.205872, 41.804445], [-8.213692, 41.803765], [-8.217598, 41.80016], [-8.217589, 41.793634], [-8.224207, 41.794303], [-8.229917, 41.791598], [-8.240744, 41.791588], [-8.24074, 41.789338], [-8.243567, 41.788434], [-8.242832, 41.769659], [-8.245233, 41.75166], [-8.249718, 41.742683], [-8.257394, 41.733726], [-8.275318, 41.721439], [-8.299441, 41.714171], [-8.311472, 41.713231], [-8.335494, 41.715147], [-8.34752, 41.714644], [-8.359582, 41.710566], [-8.384224, 41.698447], [-8.40784, 41.691251], [-8.419864, 41.690434], [-8.431869, 41.691831], [-8.452375, 41.69971]], [[-8.166715, 41.752529], [-8.160689, 41.742067], [-8.166922, 41.736554], [-8.178934, 41.737561], [-8.184059, 41.742235], [-8.178873, 41.751205], [-8.166715, 41.752529]], [[-8.21518, 41.723537], [-8.203171, 41.722483], [-8.191243, 41.714895], [-8.184737, 41.706212], [-8.181997, 41.697186], [-8.183077, 41.688186], [-8.191719, 41.676923], [-8.203805, 41.671065], [-8.21584, 41.669244], [-8.227834, 41.670855], [-8.243616, 41.679594], [-8.2491, 41.688637], [-8.249535, 41.697647], [-8.245892, 41.70663], [-8.236587, 41.715575], [-8.227233, 41.721067], [-8.21518, 41.723537]], [[-8.456173, 41.659707], [-8.444169, 41.658918], [-8.432189, 41.655417], [-8.420239, 41.648701], [-8.407394, 41.635519], [-8.403357, 41.626491], [-8.404124, 41.617488], [-8.409998, 41.608511], [-8.420666, 41.601035], [-8.432702, 41.596936], [-8.444712, 41.595638], [-8.456703, 41.596629], [-8.468673, 41.600132], [-8.484345, 41.608868], [-8.492189, 41.61791], [-8.496416, 41.626936], [-8.496129, 41.635942], [-8.491261, 41.644928], [-8.479794, 41.653884], [-8.468196, 41.658172], [-8.456173, 41.659707]], [[-8.648802, 41.575977], [-8.636804, 41.576462], [-8.624816, 41.575108], [-8.61284, 41.571906], [-8.60088, 41.566323], [-8.588945, 41.557065], [-8.580341, 41.546208], [-8.574305, 41.528171], [-8.578794, 41.492158], [-8.577389, 41.49003], [-8.565444, 41.484932], [-8.541529, 41.478902], [-8.533643, 41.473969], [-8.524379, 41.464923], [-8.521078, 41.455902], [-8.522131, 41.446899], [-8.528032, 41.437916], [-8.541874, 41.429898], [-8.553856, 41.427993], [-8.565816, 41.429236], [-8.577756, 41.433511], [-8.585859, 41.438138], [-8.596137, 41.447183], [-8.601562, 41.455101], [-8.613504, 41.460334], [-8.649485, 41.449388], [-8.661468, 41.447419], [-8.67344, 41.447358], [-8.685402, 41.44941], [-8.697352, 41.453999], [-8.712174, 41.465546], [-8.717716, 41.474568], [-8.720814, 41.49259], [-8.715553, 41.5196], [-8.708274, 41.537596], [-8.694723, 41.555576], [-8.682816, 41.564551], [-8.672824, 41.569713], [-8.648802, 41.575977]]], [[[-7.739513, 41.829788], [-7.756348, 41.825756], [-7.768478, 41.821179], [-7.7807, 41.81158], [-7.787063, 41.801778], [-7.791567, 41.783812], [-7.788166, 41.747749], [-7.790132, 41.738762], [-7.794188, 41.734315], [-7.806283, 41.730469], [-7.866399, 41.730662], [-7.878386, 41.73278], [-7.896773, 41.739836], [-7.902239, 41.744254], [-7.905461, 41.748926], [-7.911325, 41.766995], [-7.913829, 41.770163], [-7.924486, 41.776126], [-7.973853, 41.778476], [-7.980397, 41.776636], [-7.988942, 41.767705], [-7.987484, 41.758685], [-7.966626, 41.722472], [-7.963701, 41.704431], [-7.966789, 41.695452], [-7.97527, 41.689392], [-7.987303, 41.688296], [-8.011322, 41.68915], [-8.023361, 41.687679], [-8.056287, 41.678208], [-8.059579, 41.675994], [-8.074111, 41.68736], [-8.083395, 41.690906], [-8.095446, 41.688399], [-8.104427, 41.678593], [-8.101509, 41.669563], [-8.09577, 41.665294], [-8.083788, 41.663152], [-8.071756, 41.664596], [-8.059889, 41.654642], [-8.058576, 41.651206], [-8.048094, 41.640083], [-8.036208, 41.631929], [-8.024287, 41.62638], [-8.000351, 41.621641], [-7.988348, 41.621572], [-7.952261, 41.626263], [-7.94026, 41.626054], [-7.920755, 41.620914], [-7.917748, 41.623041], [-7.915933, 41.627764], [-7.913229, 41.628885], [-7.912613, 41.63361], [-7.906014, 41.633147], [-7.906884, 41.641927], [-7.897869, 41.645511], [-7.89696, 41.647985], [-7.892759, 41.647976], [-7.892145, 41.651576], [-7.902319, 41.659925], [-7.899913, 41.66127], [-7.900198, 41.665547], [-7.898396, 41.665769], [-7.897186, 41.668467], [-7.892682, 41.668683], [-7.892377, 41.670033], [-7.888171, 41.670925], [-7.883969, 41.67069], [-7.880358, 41.673159], [-7.877044, 41.676077], [-7.876723, 41.681253], [-7.873401, 41.686198], [-7.868896, 41.686413], [-7.868008, 41.68326], [-7.864403, 41.683701], [-7.864096, 41.685276], [-7.858987, 41.68639], [-7.857773, 41.689538], [-7.854776, 41.68818], [-7.847538, 41.695365], [-7.837912, 41.698942], [-7.835792, 41.702763], [-7.839682, 41.705924], [-7.838465, 41.709522], [-7.832453, 41.710407], [-7.825252, 41.708813], [-7.818621, 41.713522], [-7.815291, 41.718689], [-7.808986, 41.717996], [-7.808396, 41.715744], [-7.804499, 41.714158], [-7.79939, 41.714593], [-7.79788, 41.716164], [-7.796383, 41.71526], [-7.790966, 41.717044], [-7.789449, 41.719966], [-7.78464, 41.720402], [-7.78252, 41.723546], [-7.776204, 41.724652], [-7.773786, 41.727346], [-7.770798, 41.72441], [-7.765698, 41.723044], [-7.761765, 41.727758], [-7.762933, 41.733839], [-7.759307, 41.737203], [-7.759597, 41.739005], [-7.75689, 41.739446], [-7.758687, 41.740577], [-7.757758, 41.745301], [-7.748417, 41.749321], [-7.747786, 41.754496], [-7.743866, 41.756509], [-7.743242, 41.760333], [-7.739619, 41.762813], [-7.748352, 41.765335], [-7.759639, 41.774465], [-7.762243, 41.783499], [-7.759443, 41.792476], [-7.744764, 41.802319], [-7.732702, 41.803592], [-7.727046, 41.802437], [-7.72995, 41.819031], [-7.73594, 41.823554], [-7.74345, 41.825605], [-7.738919, 41.828515], [-7.739513, 41.829788]], [[-7.9379, 41.769616], [-7.932051, 41.76719], [-7.926773, 41.758134], [-7.931713, 41.749173], [-7.938308, 41.744911], [-7.950339, 41.744613], [-7.958567, 41.74942], [-7.964284, 41.758478], [-7.958578, 41.767433], [-7.949921, 41.770242], [-7.9379, 41.769616]], [[-7.854588, 41.703396], [-7.854991, 41.7034], [-7.854852, 41.703817], [-7.854588, 41.703396]], [[-8.021401, 41.659902], [-8.02381, 41.657986], [-8.026457, 41.659945], [-8.023754, 41.661667], [-8.021401, 41.659902]]], [[[-8.0927, 41.505486], [-8.14583, 41.512748], [-8.157832, 41.511326], [-8.169902, 41.504555], [-8.180998, 41.490013], [-8.19436, 41.46472], [-8.206496, 41.451481], [-8.218548, 41.444841], [-8.254611, 41.431795], [-8.266644, 41.426054], [-8.289976, 41.40967], [-8.297892, 41.400711], [-8.304759, 41.382738], [-8.31279, 41.334982], [-8.312836, 41.334757], [-8.313293, 41.332505], [-8.310792, 41.327557], [-8.308701, 41.327561], [-8.307502, 41.325762], [-8.305116, 41.326891], [-8.303024, 41.325994], [-8.303615, 41.323742], [-8.301216, 41.319694], [-8.296431, 41.316774], [-8.296415, 41.310472], [-8.293133, 41.310927], [-8.292241, 41.312504], [-8.289255, 41.312508], [-8.284488, 41.316341], [-8.281801, 41.316569], [-8.281808, 41.319721], [-8.278828, 41.321976], [-8.278238, 41.325128], [-8.272266, 41.32536], [-8.265709, 41.331221], [-8.269004, 41.336169], [-8.263339, 41.340902], [-8.262751, 41.345405], [-8.256483, 41.347663], [-8.255889, 41.349689], [-8.249622, 41.353072], [-8.251123, 41.356897], [-8.248141, 41.360052], [-8.248448, 41.364328], [-8.245461, 41.364781], [-8.244272, 41.368384], [-8.241287, 41.370413], [-8.224854, 41.370878], [-8.21738, 41.368182], [-8.214399, 41.373587], [-8.208127, 41.376968], [-8.199163, 41.377423], [-8.194677, 41.374275], [-8.191691, 41.376302], [-8.189299, 41.375403], [-8.184818, 41.376756], [-8.168382, 41.377438], [-8.164499, 41.38059], [-8.152544, 41.375866], [-8.151049, 41.37339], [-8.145073, 41.374742], [-8.139694, 41.377894], [-8.133418, 41.374292], [-8.125051, 41.375193], [-8.119672, 41.376768], [-8.119672, 41.378569], [-8.116683, 41.380144], [-8.117877, 41.385771], [-8.113992, 41.386896], [-8.112795, 41.390723], [-8.110105, 41.390947], [-8.108011, 41.393648], [-8.103827, 41.392972], [-8.105321, 41.394998], [-8.10263, 41.396123], [-8.10801, 41.398825], [-8.108606, 41.403102], [-8.104419, 41.406252], [-8.104119, 41.408728], [-8.101727, 41.409403], [-8.102025, 41.411204], [-8.092756, 41.411201], [-8.09126, 41.414352], [-8.079893, 41.41975], [-8.077503, 41.416597], [-8.070923, 41.41862], [-8.066739, 41.416142], [-8.061654, 41.417489], [-8.059852, 41.424916], [-8.055959, 41.429415], [-8.05745, 41.432793], [-8.056549, 41.436394], [-8.069999, 41.447206], [-8.068788, 41.462286], [-8.073872, 41.46499], [-8.074468, 41.468141], [-8.073564, 41.474668], [-8.066374, 41.482318], [-8.066069, 41.48817], [-8.072054, 41.490199], [-8.07175, 41.494925], [-8.078333, 41.49898], [-8.078332, 41.500331], [-8.091803, 41.503937], [-8.0927, 41.505486]], [[-8.122067, 41.497659], [-8.110095, 41.497005], [-8.098174, 41.492748], [-8.091927, 41.489344], [-8.086284, 41.480292], [-8.086487, 41.471286], [-8.092964, 41.46233], [-8.09865, 41.458399], [-8.110669, 41.455047], [-8.122635, 41.455605], [-8.134544, 41.460422], [-8.144164, 41.47173], [-8.145208, 41.480745], [-8.140821, 41.48972], [-8.134096, 41.494061], [-8.122067, 41.497659]], [[-8.219266, 41.384922], [-8.216317, 41.38217], [-8.219362, 41.376864], [-8.231282, 41.380204], [-8.231245, 41.383301], [-8.219266, 41.384922]]]]}}, {"id": "4", "type": "Feature", "properties": {"fill": "#eef8a7", "value_min": 0.4, "value_max": -0.47}, "geometry": {"type": "MultiPolygon", "coordinates": [[[[-7.727046, 41.802437], [-7.732702, 41.803592], [-7.744764, 41.802319], [-7.759443, 41.792476], [-7.762243, 41.783499], [-7.759639, 41.774465], [-7.748352, 41.765335], [-7.739619, 41.762813], [-7.739912, 41.764148], [-7.726937, 41.771755], [-7.725406, 41.776252], [-7.727191, 41.779184], [-7.724177, 41.780299], [-7.725372, 41.781653], [-7.722296, 41.792446], [-7.728879, 41.797871], [-7.727046, 41.802437]]], [[[-7.9379, 41.769616], [-7.949921, 41.770242], [-7.958578, 41.767433], [-7.964284, 41.758478], [-7.958567, 41.74942], [-7.950339, 41.744613], [-7.938308, 41.744911], [-7.931713, 41.749173], [-7.926773, 41.758134], [-7.932051, 41.76719], [-7.9379, 41.769616]]], [[[-8.166715, 41.752529], [-8.178873, 41.751205], [-8.184059, 41.742235], [-8.178934, 41.737561], [-8.166922, 41.736554], [-8.160689, 41.742067], [-8.166715, 41.752529]]], [[[-8.21518, 41.723537], [-8.227233, 41.721067], [-8.236587, 41.715575], [-8.245892, 41.70663], [-8.249535, 41.697647], [-8.2491, 41.688637], [-8.243616, 41.679594], [-8.227834, 41.670855], [-8.21584, 41.669244], [-8.203805, 41.671065], [-8.191719, 41.676923], [-8.183077, 41.688186], [-8.181997, 41.697186], [-8.184737, 41.706212], [-8.191243, 41.714895], [-8.203171, 41.722483], [-8.21518, 41.723537]], [[-8.203341, 41.708676], [-8.192923, 41.697263], [-8.196353, 41.68828], [-8.203656, 41.683201], [-8.215677, 41.682672], [-8.22599, 41.688483], [-8.228932, 41.69751], [-8.221655, 41.706468], [-8.215353, 41.709344], [-8.203341, 41.708676]]], [[[-7.854588, 41.703396], [-7.854852, 41.703817], [-7.854991, 41.7034], [-7.854588, 41.703396]]], [[[-8.021401, 41.659902], [-8.023754, 41.661667], [-8.026457, 41.659945], [-8.02381, 41.657986], [-8.021401, 41.659902]]], [[[-8.456173, 41.659707], [-8.468196, 41.658172], [-8.479794, 41.653884], [-8.491261, 41.644928], [-8.496129, 41.635942], [-8.496416, 41.626936], [-8.492189, 41.61791], [-8.484345, 41.608868], [-8.468673, 41.600132], [-8.456703, 41.596629], [-8.444712, 41.595638], [-8.432702, 41.596936], [-8.420666, 41.601035], [-8.409998, 41.608511], [-8.404124, 41.617488], [-8.403357, 41.626491], [-8.407394, 41.635519], [-8.420239, 41.648701], [-8.432189, 41.655417], [-8.444169, 41.658918], [-8.456173, 41.659707]], [[-8.444342, 41.638814], [-8.435614, 41.635661], [-8.429505, 41.626624], [-8.432492, 41.620836], [-8.436553, 41.617651], [-8.444544, 41.61521], [-8.456517, 41.61877], [-8.461461, 41.626778], [-8.456936, 41.635764], [-8.444342, 41.638814]]], [[[-8.648802, 41.575977], [-8.672824, 41.569713], [-8.682816, 41.564551], [-8.694723, 41.555576], [-8.708274, 41.537596], [-8.715553, 41.5196], [-8.720814, 41.49259], [-8.717716, 41.474568], [-8.712174, 41.465546], [-8.697352, 41.453999], [-8.685402, 41.44941], [-8.67344, 41.447358], [-8.661468, 41.447419], [-8.649485, 41.449388], [-8.613504, 41.460334], [-8.601562, 41.455101], [-8.596137, 41.447183], [-8.585859, 41.438138], [-8.577756, 41.433511], [-8.565816, 41.429236], [-8.553856, 41.427993], [-8.541874, 41.429898], [-8.528032, 41.437916], [-8.522131, 41.446899], [-8.521078, 41.455902], [-8.524379, 41.464923], [-8.533643, 41.473969], [-8.541529, 41.478902], [-8.565444, 41.484932], [-8.577389, 41.49003], [-8.578794, 41.492158], [-8.574305, 41.528171], [-8.580341, 41.546208], [-8.588945, 41.557065], [-8.60088, 41.566323], [-8.61284, 41.571906], [-8.624816, 41.575108], [-8.636804, 41.576462], [-8.648802, 41.575977]], [[-8.616472, 41.528319], [-8.623607, 41.519335], [-8.626376, 41.519344], [-8.631976, 41.52837], [-8.625063, 41.532395], [-8.616472, 41.528319]]], [[[-8.122067, 41.497659], [-8.134096, 41.494061], [-8.140821, 41.48972], [-8.145208, 41.480745], [-8.144164, 41.47173], [-8.134544, 41.460422], [-8.122635, 41.455605], [-8.110669, 41.455047], [-8.09865, 41.458399], [-8.092964, 41.46233], [-8.086487, 41.471286], [-8.086284, 41.480292], [-8.091927, 41.489344], [-8.098174, 41.492748], [-8.110095, 41.497005], [-8.122067, 41.497659]]], [[[-8.219266, 41.384922], [-8.231245, 41.383301], [-8.231282, 41.380204], [-8.219362, 41.376864], [-8.216317, 41.38217], [-8.219266, 41.384922]]]]}}, {"id": "5", "type": "Feature", "properties": {"fill": "#fffebe", "value_min": 0.47, "value_max": -0.53}, "geometry": {"type": "MultiPolygon", "coordinates": [[[[-8.203341, 41.708676], [-8.215353, 41.709344], [-8.221655, 41.706468], [-8.228932, 41.69751], [-8.22599, 41.688483], [-8.215677, 41.682672], [-8.203656, 41.683201], [-8.196353, 41.68828], [-8.192923, 41.697263], [-8.203341, 41.708676]]], [[[-8.444342, 41.638814], [-8.456936, 41.635764], [-8.461461, 41.626778], [-8.456517, 41.61877], [-8.444544, 41.61521], [-8.436553, 41.617651], [-8.432492, 41.620836], [-8.429505, 41.626624], [-8.435614, 41.635661], [-8.444342, 41.638814]]], [[[-8.616472, 41.528319], [-8.625063, 41.532395], [-8.631976, 41.52837], [-8.626376, 41.519344], [-8.623607, 41.519335], [-8.616472, 41.528319]]]]}}, {"id": "0", "type": "Feature", "properties": {"fill": "#74c16c", "value_min": 0.13, "value_max": -0.2}, "geometry": {"type": "MultiPolygon", "coordinates": [[[[-7.864907, 41.815362], [-7.876935, 41.816004], [-7.879722, 41.811726], [-7.877069, 41.808332], [-7.865026, 41.808606], [-7.86245, 41.811556], [-7.864907, 41.815362]]], [[[-8.129726, 41.633752], [-8.132188, 41.636782], [-8.137057, 41.633807], [-8.132258, 41.631575], [-8.129726, 41.633752]]]]}}]}