{"type": "FeatureCollection", "features": [{"id": "0", "type": "Feature", "properties": {"fill": "#98d277", "value_min": 0.2, "value_max": 0.27}, "geometry": {"type": "Polygon", "coordinates": [[[-8.710401, 41.211563], [-8.717463, 41.204336], [-8.719747, 41.195334], [-8.71642, 41.186318], [-8.710537, 41.180736], [-8.698636, 41.175805], [-8.686715, 41.175702], [-8.67477, 41.180321], [-8.668786, 41.186191], [-8.665014, 41.195188], [-8.667022, 41.204201], [-8.67461, 41.212689], [-8.686519, 41.216738], [-8.69845, 41.216447], [-8.710401, 41.211563]]]}}, {"id": "2", "type": "Feature", "properties": {"fill": "#ddf190", "value_min": 0.33, "value_max": 0.4}, "geometry": {"type": "MultiPolygon", "coordinates": [[[[-7.889786, 41.768994], [-7.894823, 41.757831], [-7.892792, 41.748805], [-7.890204, 41.744787], [-7.878311, 41.737114], [-7.8663, 41.736281], [-7.854248, 41.737825], [-7.842155, 41.741595], [-7.831805, 41.748201], [-7.82711, 41.75716], [-7.828406, 41.76618], [-7.835882, 41.775262], [-7.841493, 41.778424], [-7.85347, 41.781548], [-7.865503, 41.781543], [-7.877589, 41.778562], [-7.889786, 41.768994]], [[-7.853678, 41.769838], [-7.848403, 41.766382], [-7.845414, 41.757345], [-7.854063, 41.748224], [-7.866121, 41.746447], [-7.87181, 41.7486], [-7.88073, 41.757695], [-7.876927, 41.766664], [-7.865678, 41.771645], [-7.853678, 41.769838]]], [[[-7.90653, 41.712909], [-7.902821, 41.710068], [-7.890797, 41.710307], [-7.888426, 41.712735], [-7.887364, 41.721731], [-7.890525, 41.726128], [-7.902563, 41.725252], [-7.906235, 41.721913], [-7.90653, 41.712909]]], [[[-8.119404, 41.693862], [-8.114014, 41.696682], [-8.119304, 41.701235], [-8.123082, 41.696751], [-8.119404, 41.693862]]], [[[-8.10836, 41.623353], [-8.113739, 41.615616], [-8.113666, 41.606608], [-8.105829, 41.59754], [-8.096781, 41.592915], [-8.084795, 41.592021], [-8.07068, 41.597261], [-8.062843, 41.606205], [-8.062042, 41.615206], [-8.067015, 41.624253], [-8.07228, 41.628105], [-8.084224, 41.632439], [-8.09624, 41.63167], [-8.10836, 41.623353]], [[-8.082018, 41.624374], [-8.07436, 41.615305], [-8.08069, 41.606349], [-8.084621, 41.604311], [-8.096601, 41.605783], [-8.10238, 41.615528], [-8.09635, 41.623794], [-8.084323, 41.625402], [-8.082018, 41.624374]]], [[[-8.493361, 41.512126], [-8.493388, 41.5086], [-8.481451, 41.502866], [-8.471836, 41.509731], [-8.481317, 41.519603], [-8.4856, 41.518801], [-8.493361, 41.512126]]], [[[-8.457575, 41.49165], [-8.4607, 41.482657], [-8.457746, 41.471845], [-8.453044, 41.464606], [-8.445884, 41.458459], [-8.433955, 41.453279], [-8.421995, 41.451839], [-8.410005, 41.453796], [-8.397979, 41.459595], [-8.391987, 41.4643], [-8.386715, 41.473279], [-8.385834, 41.482282], [-8.388371, 41.491303], [-8.39833, 41.500363], [-8.409538, 41.505323], [-8.421506, 41.506888], [-8.433499, 41.505726], [-8.448153, 41.500613], [-8.457575, 41.49165]], [[-8.421621, 41.493954], [-8.415492, 41.491444], [-8.409721, 41.485132], [-8.408177, 41.482399], [-8.409786, 41.47791], [-8.412358, 41.473413], [-8.421846, 41.468699], [-8.433809, 41.470062], [-8.438609, 41.473544], [-8.442234, 41.482569], [-8.433612, 41.492671], [-8.421621, 41.493954]]], [[[-8.353023, 41.482102], [-8.349879, 41.480013], [-8.33791, 41.479155], [-8.334135, 41.481994], [-8.333674, 41.490999], [-8.337758, 41.494109], [-8.349747, 41.493288], [-8.353133, 41.49111], [-8.353023, 41.482102]]], [[[-8.629817, 41.187961], [-8.636125, 41.213116], [-8.640612, 41.222138], [-8.65063, 41.235533], [-8.662518, 41.244423], [-8.67443, 41.248951], [-8.686353, 41.251469], [-8.698286, 41.252086], [-8.722166, 41.250141], [-8.746054, 41.245866], [-8.761902, 41.240468], [-8.778539, 41.231494], [-8.789294, 41.222506], [-8.802033, 41.203629], [-8.800216, 41.157325], [-8.791433, 41.144245], [-8.67527, 41.147484], [-8.676193, 41.146567], [-8.674793, 41.146932], [-8.674204, 41.147693], [-8.674849, 41.153767], [-8.672489, 41.15648], [-8.66117, 41.156307], [-8.662078, 41.158104], [-8.660313, 41.160813], [-8.657033, 41.160378], [-8.654961, 41.161963], [-8.653222, 41.168049], [-8.654142, 41.171383], [-8.662941, 41.161996], [-8.674894, 41.155281], [-8.686828, 41.151893], [-8.698751, 41.150839], [-8.710664, 41.151795], [-8.722568, 41.155018], [-8.734461, 41.161281], [-8.742683, 41.168364], [-8.748876, 41.177385], [-8.751784, 41.186399], [-8.751852, 41.195408], [-8.749054, 41.204409], [-8.743029, 41.213404], [-8.732083, 41.222387], [-8.722263, 41.227272], [-8.707953, 41.231336], [-8.698375, 41.232685], [-8.686445, 41.232321], [-8.674526, 41.229563], [-8.662626, 41.223394], [-8.652901, 41.213168], [-8.648423, 41.204146], [-8.646681, 41.195133], [-8.6474, 41.185632], [-8.640929, 41.196241], [-8.635246, 41.193565], [-8.633126, 41.189072], [-8.629817, 41.187961]]], [[[-8.647402, 41.185628], [-8.647402, 41.185628], [-8.647548, 41.185182], [-8.647402, 41.185628]]], [[[-8.647693, 41.184739], [-8.647693, 41.184739], [-8.649172, 41.180222], [-8.647693, 41.184739]]]]}}, {"id": "1", "type": "Feature", "properties": {"fill": "#bde282", "value_min": 0.27, "value_max": 0.33}, "geometry": {"type": "MultiPolygon", "coordinates": [[[[-7.853678, 41.769838], [-7.865678, 41.771645], [-7.876927, 41.766664], [-7.88073, 41.757695], [-7.87181, 41.7486], [-7.866121, 41.746447], [-7.854063, 41.748224], [-7.845414, 41.757345], [-7.848403, 41.766382], [-7.853678, 41.769838]]], [[[-8.082018, 41.624374], [-8.084323, 41.625402], [-8.09635, 41.623794], [-8.10238, 41.615528], [-8.096601, 41.605783], [-8.084621, 41.604311], [-8.08069, 41.606349], [-8.07436, 41.615305], [-8.082018, 41.624374]]], [[[-8.421621, 41.493954], [-8.433612, 41.492671], [-8.442234, 41.482569], [-8.438609, 41.473544], [-8.433809, 41.470062], [-8.421846, 41.468699], [-8.412358, 41.473413], [-8.409786, 41.47791], [-8.408177, 41.482399], [-8.409721, 41.485132], [-8.415492, 41.491444], [-8.421621, 41.493954]]], [[[-8.6474, 41.185632], [-8.646681, 41.195133], [-8.648423, 41.204146], [-8.652901, 41.213168], [-8.662626, 41.223394], [-8.674526, 41.229563], [-8.686445, 41.232321], [-8.698375, 41.232685], [-8.707953, 41.231336], [-8.722263, 41.227272], [-8.732083, 41.222387], [-8.743029, 41.213404], [-8.749054, 41.204409], [-8.751852, 41.195408], [-8.751784, 41.186399], [-8.748876, 41.177385], [-8.742683, 41.168364], [-8.734461, 41.161281], [-8.722568, 41.155018], [-8.710664, 41.151795], [-8.698751, 41.150839], [-8.686828, 41.151893], [-8.674894, 41.155281], [-8.662941, 41.161996], [-8.654142, 41.171383], [-8.655366, 41.175467], [-8.649172, 41.180222], [-8.647693, 41.184739], [-8.647548, 41.185182], [-8.647402, 41.185628], [-8.6474, 41.185632]], [[-8.710401, 41.211563], [-8.69845, 41.216447], [-8.686519, 41.216738], [-8.67461, 41.212689], [-8.667022, 41.204201], [-8.665014, 41.195188], [-8.668786, 41.186191], [-8.67477, 41.180321], [-8.686715, 41.175702], [-8.698636, 41.175805], [-8.710537, 41.180736], [-8.71642, 41.186318], [-8.719747, 41.195334], [-8.717463, 41.204336], [-8.710401, 41.211563]]]]}}, {"id": "6", "type": "Feature", "properties": {"fill": "#fc9863", "value_min": 0.6, "value_max": 0.67}, "geometry": {"type": "MultiPolygon", "coordinates": [[[[-8.449387, 41.702864], [-8.436809, 41.671696], [-8.431144, 41.662661], [-8.423448, 41.653615], [-8.408301, 41.64102], [-8.396353, 41.634588], [-8.384381, 41.631035], [-8.372379, 41.630649], [-8.355224, 41.635238], [-8.34135, 41.644167], [-8.334848, 41.653136], [-8.331766, 41.662126], [-8.331764, 41.671133], [-8.334643, 41.680157], [-8.340189, 41.689196], [-8.347699, 41.696966], [-8.375568, 41.716415], [-8.389132, 41.73109], [-8.393033, 41.729852], [-8.396942, 41.730518], [-8.400531, 41.726683], [-8.402934, 41.726452], [-8.404721, 41.722847], [-8.417349, 41.725067], [-8.422737, 41.720552], [-8.429643, 41.719859], [-8.430533, 41.717381], [-8.435927, 41.714441], [-8.441632, 41.713975], [-8.4446, 41.70654], [-8.449387, 41.702864]], [[-8.383838, 41.687948], [-8.371834, 41.686744], [-8.360223, 41.680302], [-8.354331, 41.671262], [-8.354453, 41.662255], [-8.360142, 41.654035], [-8.372213, 41.647722], [-8.384229, 41.64699], [-8.396202, 41.650782], [-8.407646, 41.662542], [-8.408592, 41.671554], [-8.4028, 41.680531], [-8.395882, 41.685033], [-8.383838, 41.687948]]], [[[-8.106377, 41.678608], [-8.104534, 41.669587], [-8.095792, 41.663714], [-8.083796, 41.66264], [-8.064411, 41.669267], [-8.061564, 41.678251], [-8.067066, 41.687303], [-8.083362, 41.693222], [-8.095423, 41.690055], [-8.106377, 41.678608]], [[-8.083511, 41.682685], [-8.079373, 41.678395], [-8.083636, 41.673881], [-8.095645, 41.67424], [-8.098373, 41.678546], [-8.095539, 41.681779], [-8.083511, 41.682685]]], [[[-8.047635, 41.671216], [-8.050943, 41.669157], [-8.050842, 41.660149], [-8.04485, 41.651092], [-8.036017, 41.644753], [-8.02406, 41.641384], [-8.012032, 41.642735], [-8.000348, 41.650714], [-7.997278, 41.659694], [-8.00072, 41.668731], [-8.011509, 41.676945], [-8.023477, 41.679969], [-8.035519, 41.678164], [-8.047635, 41.671216]], [[-8.021236, 41.659901], [-8.023812, 41.657854], [-8.026933, 41.659949], [-8.023749, 41.661993], [-8.021236, 41.659901]]], [[[-8.25993, 41.508563], [-8.253856, 41.497692], [-8.24191, 41.494648], [-8.228701, 41.49935], [-8.224934, 41.508332], [-8.230359, 41.517376], [-8.2416, 41.521263], [-8.253613, 41.518806], [-8.25993, 41.508563]]], [[[-8.066073, 41.483446], [-8.070723, 41.489175], [-8.088596, 41.498325], [-8.110015, 41.502909], [-8.13396, 41.504291], [-8.145967, 41.502362], [-8.155317, 41.498835], [-8.16624, 41.489907], [-8.169932, 41.480926], [-8.170472, 41.471923], [-8.16822, 41.462899], [-8.162454, 41.45385], [-8.14677, 41.441127], [-8.134868, 41.435984], [-8.122942, 41.432762], [-8.110988, 41.431691], [-8.099005, 41.432699], [-8.08699, 41.436052], [-8.074929, 41.442441], [-8.069963, 41.447206], [-8.069759, 41.447431], [-8.069699, 41.447496], [-8.068497, 41.453282], [-8.070288, 41.458235], [-8.068788, 41.462286], [-8.073872, 41.46499], [-8.074164, 41.473543], [-8.066073, 41.483446]], [[-8.117332, 41.498549], [-8.110081, 41.498063], [-8.098157, 41.493953], [-8.089753, 41.489327], [-8.083753, 41.480272], [-8.083742, 41.471265], [-8.089532, 41.462303], [-8.098681, 41.456131], [-8.110694, 41.453223], [-8.12266, 41.453742], [-8.13458, 41.457705], [-8.141358, 41.462702], [-8.147814, 41.471757], [-8.148817, 41.480772], [-8.144194, 41.489745], [-8.13407, 41.49597], [-8.123677, 41.498598], [-8.117332, 41.498549]]], [[[-8.577456, 41.479832], [-8.589506, 41.468252], [-8.594889, 41.456186], [-8.594916, 41.447178], [-8.589711, 41.43572], [-8.577811, 41.425037], [-8.565876, 41.420238], [-8.553924, 41.418088], [-8.541952, 41.418837], [-8.529959, 41.422494], [-8.520702, 41.428878], [-8.513481, 41.437855], [-8.510641, 41.446851], [-8.511073, 41.45586], [-8.514927, 41.464884], [-8.529553, 41.478781], [-8.541493, 41.484022], [-8.553457, 41.486174], [-8.565445, 41.484799], [-8.577456, 41.479832]], [[-8.541558, 41.47479], [-8.527121, 41.464935], [-8.523209, 41.455911], [-8.524476, 41.446909], [-8.529835, 41.439666], [-8.541853, 41.432981], [-8.55383, 41.431794], [-8.56578, 41.434643], [-8.571339, 41.438085], [-8.57932, 41.447122], [-8.580818, 41.456135], [-8.577122, 41.465129], [-8.565517, 41.473988], [-8.553523, 41.47661], [-8.541558, 41.47479]]], [[[-8.530019, 41.210859], [-8.526864, 41.221727], [-8.531327, 41.231903], [-8.543201, 41.240303], [-8.555119, 41.242532], [-8.567064, 41.24095], [-8.579047, 41.233371], [-8.58378, 41.221946], [-8.581823, 41.212931], [-8.573272, 41.204398], [-8.567971, 41.204644], [-8.565895, 41.206227], [-8.567697, 41.208246], [-8.566512, 41.209376], [-8.559636, 41.206251], [-8.554271, 41.20627], [-8.549521, 41.209214], [-8.544157, 41.209458], [-8.537023, 41.212635], [-8.532257, 41.213102], [-8.530019, 41.210859]]]]}}, {"id": "3", "type": "Feature", "properties": {"fill": "#eef8a7", "value_min": 0.4, "value_max": 0.47}, "geometry": {"type": "MultiPolygon", "coordinates": [[[[-7.756895, 41.893719], [-7.767107, 41.892567], [-7.774992, 41.889643], [-7.775033, 41.889627], [-7.775293, 41.889528], [-7.779227, 41.886264], [-7.781995, 41.886047], [-7.782241, 41.88587], [-7.782306, 41.885823], [-7.782544, 41.885652], [-7.782618, 41.885599], [-7.793639, 41.873901], [-7.796308, 41.864922], [-7.795053, 41.855902], [-7.788979, 41.846831], [-7.780136, 41.841305], [-7.768158, 41.83785], [-7.756122, 41.837456], [-7.746678, 41.839327], [-7.746349, 41.84407], [-7.750541, 41.847685], [-7.750532, 41.849261], [-7.743309, 41.849012], [-7.746901, 41.8524], [-7.746881, 41.855776], [-7.73843, 41.859348], [-7.734159, 41.868337], [-7.730228, 41.871024], [-7.729293, 41.875972], [-7.72235, 41.878689], [-7.724665, 41.882162], [-7.734517, 41.888819], [-7.737044, 41.888828], [-7.737338, 41.890028], [-7.739284, 41.890861], [-7.739441, 41.890928], [-7.739741, 41.891057], [-7.74246, 41.889747], [-7.742482, 41.886146], [-7.745495, 41.885931], [-7.750001, 41.887971], [-7.756022, 41.888441], [-7.758719, 41.890926], [-7.756895, 41.893719]]], [[[-7.967731, 41.839571], [-7.960947, 41.832495], [-7.955845, 41.830456], [-7.948955, 41.829422], [-7.94439, 41.830352], [-7.931947, 41.839243], [-7.933065, 41.84826], [-7.936539, 41.851976], [-7.948515, 41.856274], [-7.960607, 41.853502], [-7.965961, 41.848561], [-7.967731, 41.839571]]], [[[-7.853159, 41.798988], [-7.889387, 41.792122], [-7.90158, 41.782921], [-7.913834, 41.769855], [-7.925931, 41.76591], [-7.937916, 41.768662], [-7.949944, 41.768844], [-7.955892, 41.767409], [-7.963664, 41.758473], [-7.959993, 41.749433], [-7.949791, 41.740333], [-7.943237, 41.731266], [-7.939667, 41.713219], [-7.935899, 41.704177], [-7.92868, 41.695103], [-7.915245, 41.686064], [-7.903287, 41.682625], [-7.891242, 41.684383], [-7.889524, 41.685725], [-7.879008, 41.697027], [-7.872534, 41.71258], [-7.865168, 41.721514], [-7.854459, 41.725921], [-7.806347, 41.727038], [-7.798458, 41.729843], [-7.790077, 41.738762], [-7.78857, 41.747753], [-7.789821, 41.756773], [-7.795534, 41.774846], [-7.805084, 41.795143], [-7.816935, 41.805206], [-7.828948, 41.806543], [-7.853159, 41.798988]], [[-7.889786, 41.768994], [-7.877589, 41.778562], [-7.865503, 41.781543], [-7.85347, 41.781548], [-7.841493, 41.778424], [-7.835882, 41.775262], [-7.828406, 41.76618], [-7.82711, 41.75716], [-7.831805, 41.748201], [-7.842155, 41.741595], [-7.854248, 41.737825], [-7.8663, 41.736281], [-7.878311, 41.737114], [-7.890204, 41.744787], [-7.892792, 41.748805], [-7.894823, 41.757831], [-7.889786, 41.768994]], [[-7.90653, 41.712909], [-7.906235, 41.721913], [-7.902563, 41.725252], [-7.890525, 41.726128], [-7.887364, 41.721731], [-7.888426, 41.712735], [-7.890797, 41.710307], [-7.902821, 41.710068], [-7.90653, 41.712909]]], [[[-8.227316, 41.714119], [-8.237719, 41.706576], [-8.241975, 41.697597], [-8.241046, 41.688584], [-8.234846, 41.679536], [-8.227791, 41.674384], [-8.215819, 41.670996], [-8.203801, 41.67145], [-8.188851, 41.67922], [-8.183031, 41.688186], [-8.182809, 41.697191], [-8.187901, 41.706235], [-8.203262, 41.7151], [-8.215262, 41.716827], [-8.227316, 41.714119]]], [[[-8.131373, 41.697458], [-8.132857, 41.696825], [-8.131435, 41.692831], [-8.125792, 41.687765], [-8.119504, 41.686539], [-8.103423, 41.696599], [-8.103399, 41.705606], [-8.10717, 41.709536], [-8.11918, 41.710271], [-8.131373, 41.697458]], [[-8.119404, 41.693862], [-8.123082, 41.696751], [-8.119304, 41.701235], [-8.114014, 41.696682], [-8.119404, 41.693862]]], [[[-8.041304, 41.597094], [-8.041629, 41.60603], [-8.045227, 41.615067], [-8.051906, 41.62413], [-8.063359, 41.633231], [-8.07214, 41.637851], [-8.084107, 41.640673], [-8.096111, 41.640879], [-8.108159, 41.637964], [-8.114489, 41.633636], [-8.139523, 41.606805], [-8.139953, 41.597801], [-8.136009, 41.588764], [-8.11747, 41.570609], [-8.113159, 41.561568], [-8.121283, 41.555659], [-8.130566, 41.543687], [-8.133023, 41.534698], [-8.130737, 41.525673], [-8.119713, 41.516582], [-8.109864, 41.513868], [-8.097887, 41.513409], [-8.090598, 41.515044], [-8.089398, 41.519468], [-8.090594, 41.522169], [-8.093588, 41.52307], [-8.091786, 41.531848], [-8.097775, 41.536127], [-8.097774, 41.537927], [-8.106759, 41.543557], [-8.101666, 41.542655], [-8.094175, 41.544904], [-8.087885, 41.542876], [-8.083389, 41.5449], [-8.081886, 41.550977], [-8.076322, 41.550974], [-8.078363, 41.557953], [-8.081578, 41.56178], [-8.081576, 41.565157], [-8.078879, 41.56493], [-8.075279, 41.568305], [-8.073182, 41.568079], [-8.069283, 41.570553], [-8.068081, 41.573478], [-8.056684, 41.579549], [-8.052181, 41.584498], [-8.052777, 41.587649], [-8.041304, 41.597094]], [[-8.10836, 41.623353], [-8.09624, 41.63167], [-8.084224, 41.632439], [-8.07228, 41.628105], [-8.067015, 41.624253], [-8.062042, 41.615206], [-8.062843, 41.606205], [-8.07068, 41.597261], [-8.084795, 41.592021], [-8.096781, 41.592915], [-8.105829, 41.59754], [-8.113666, 41.606608], [-8.113739, 41.615616], [-8.10836, 41.623353]]], [[[-8.07619, 41.550749], [-8.07619, 41.550749], [-8.076193, 41.550754], [-8.07619, 41.550749]]], [[[-8.649041, 41.531783], [-8.661061, 41.525505], [-8.68504, 41.524026], [-8.709039, 41.518057], [-8.722958, 41.51061], [-8.733012, 41.501627], [-8.739479, 41.492634], [-8.742635, 41.483634], [-8.741724, 41.465617], [-8.737095, 41.456599], [-8.728341, 41.447571], [-8.721345, 41.44307], [-8.709394, 41.438472], [-8.697435, 41.436086], [-8.685466, 41.435999], [-8.673486, 41.438178], [-8.661497, 41.441826], [-8.649488, 41.448874], [-8.637448, 41.461221], [-8.631366, 41.474323], [-8.630107, 41.483327], [-8.632609, 41.50135], [-8.625193, 41.509838], [-8.613174, 41.515936], [-8.609786, 41.519289], [-8.60728, 41.528288], [-8.613045, 41.5376], [-8.625012, 41.541311], [-8.637009, 41.53974], [-8.642651, 41.537411], [-8.649041, 41.531783]]], [[[-8.517246, 41.523072], [-8.519889, 41.518949], [-8.519605, 41.509941], [-8.514552, 41.500912], [-8.484438, 41.473759], [-8.469892, 41.450941], [-8.45804, 41.436568], [-8.446157, 41.42639], [-8.422324, 41.414767], [-8.398426, 41.411186], [-8.386457, 41.411571], [-8.374471, 41.413804], [-8.350425, 41.425317], [-8.326332, 41.440577], [-8.314249, 41.451298], [-8.305923, 41.463813], [-8.302363, 41.481806], [-8.307568, 41.499852], [-8.313639, 41.509102], [-8.325516, 41.51937], [-8.337443, 41.52505], [-8.361367, 41.529847], [-8.385329, 41.531163], [-8.409321, 41.529149], [-8.445342, 41.522017], [-8.457311, 41.523937], [-8.481198, 41.534547], [-8.493176, 41.53575], [-8.505186, 41.532866], [-8.513605, 41.52793], [-8.517246, 41.523072]], [[-8.493361, 41.512126], [-8.4856, 41.518801], [-8.481317, 41.519603], [-8.471836, 41.509731], [-8.481451, 41.502866], [-8.493388, 41.5086], [-8.493361, 41.512126]], [[-8.457575, 41.49165], [-8.448153, 41.500613], [-8.433499, 41.505726], [-8.421506, 41.506888], [-8.409538, 41.505323], [-8.39833, 41.500363], [-8.388371, 41.491303], [-8.385834, 41.482282], [-8.386715, 41.473279], [-8.391987, 41.4643], [-8.397979, 41.459595], [-8.410005, 41.453796], [-8.421995, 41.451839], [-8.433955, 41.453279], [-8.445884, 41.458459], [-8.453044, 41.464606], [-8.457746, 41.471845], [-8.4607, 41.482657], [-8.457575, 41.49165]], [[-8.353023, 41.482102], [-8.353133, 41.49111], [-8.349747, 41.493288], [-8.337758, 41.494109], [-8.333674, 41.490999], [-8.334135, 41.481994], [-8.33791, 41.479155], [-8.349879, 41.480013], [-8.353023, 41.482102]]], [[[-8.384582, 41.374185], [-8.380218, 41.365154], [-8.374974, 41.361312], [-8.363047, 41.358301], [-8.351062, 41.361321], [-8.346546, 41.364968], [-8.342571, 41.373953], [-8.345935, 41.382979], [-8.350798, 41.387865], [-8.36272, 41.391877], [-8.3747, 41.389865], [-8.382031, 41.383179], [-8.384582, 41.374185]]], [[[-8.602252, 41.164216], [-8.615057, 41.19712], [-8.624977, 41.231096], [-8.634096, 41.29418], [-8.643254, 41.330239], [-8.638148, 41.335103], [-8.626163, 41.340987], [-8.617158, 41.348171], [-8.61244, 41.357163], [-8.614299, 41.366177], [-8.625969, 41.374809], [-8.637919, 41.376338], [-8.649895, 41.373134], [-8.673904, 41.354617], [-8.685853, 41.35569], [-8.721684, 41.363561], [-8.745587, 41.366075], [-8.781462, 41.364808], [-8.808187, 41.359938], [-8.802033, 41.203629], [-8.789294, 41.222506], [-8.778539, 41.231494], [-8.761902, 41.240468], [-8.746054, 41.245866], [-8.722166, 41.250141], [-8.698286, 41.252086], [-8.686353, 41.251469], [-8.67443, 41.248951], [-8.662518, 41.244423], [-8.65063, 41.235533], [-8.640612, 41.222138], [-8.636125, 41.213116], [-8.629817, 41.187961], [-8.625658, 41.186628], [-8.621132, 41.178994], [-8.613374, 41.177451], [-8.608583, 41.174095], [-8.609164, 41.172066], [-8.605845, 41.166228], [-8.602252, 41.164216]]], [[[-8.791433, 41.144245], [-8.800216, 41.157325], [-8.799695, 41.14406], [-8.791433, 41.144245]]]]}}, {"id": "5", "type": "Feature", "properties": {"fill": "#fecb90", "value_min": 0.53, "value_max": 0.6}, "geometry": {"type": "MultiPolygon", "coordinates": [[[[-8.53787, 41.646602], [-8.515699, 41.627019], [-8.492586, 41.611271], [-8.480624, 41.606211], [-8.456678, 41.599559], [-8.396729, 41.594238], [-8.360734, 41.594139], [-8.336702, 41.597567], [-8.324667, 41.600985], [-8.312607, 41.606656], [-8.300495, 41.616932], [-8.294409, 41.625874], [-8.291015, 41.63486], [-8.289088, 41.652863], [-8.291198, 41.67089], [-8.300219, 41.697966], [-8.305441, 41.707005], [-8.328005, 41.73416], [-8.333356, 41.743199], [-8.340328, 41.761921], [-8.344765, 41.762363], [-8.349267, 41.760103], [-8.351959, 41.756272], [-8.352545, 41.751769], [-8.349814, 41.744122], [-8.352516, 41.743441], [-8.352203, 41.739616], [-8.357897, 41.735103], [-8.362407, 41.735994], [-8.368703, 41.73193], [-8.374122, 41.734845], [-8.384922, 41.73032], [-8.387032, 41.731891], [-8.389132, 41.73109], [-8.375568, 41.716415], [-8.347699, 41.696966], [-8.340189, 41.689196], [-8.334643, 41.680157], [-8.331764, 41.671133], [-8.331766, 41.662126], [-8.334848, 41.653136], [-8.34135, 41.644167], [-8.355224, 41.635238], [-8.372379, 41.630649], [-8.384381, 41.631035], [-8.396353, 41.634588], [-8.408301, 41.64102], [-8.423448, 41.653615], [-8.431144, 41.662661], [-8.436809, 41.671696], [-8.449387, 41.702864], [-8.453868, 41.697961], [-8.453255, 41.695487], [-8.461659, 41.694563], [-8.482012, 41.682123], [-8.484371, 41.674238], [-8.49308, 41.674886], [-8.499963, 41.671038], [-8.50927, 41.671233], [-8.51018, 41.672806], [-8.511967, 41.670324], [-8.509856, 41.668755], [-8.512252, 41.667847], [-8.514629, 41.663788], [-8.522103, 41.658811], [-8.525706, 41.659023], [-8.527769, 41.652714], [-8.536459, 41.650658], [-8.53787, 41.646602]]], [[[-7.961421, 41.803174], [-7.969379, 41.794551], [-7.966602, 41.78552], [-7.961746, 41.783034], [-7.949777, 41.779113], [-7.937739, 41.779375], [-7.926164, 41.785149], [-7.923507, 41.794131], [-7.930646, 41.803204], [-7.937291, 41.806517], [-7.949319, 41.807123], [-7.961421, 41.803174]]], [[[-7.724612, 41.784351], [-7.730069, 41.792155], [-7.732904, 41.793322], [-7.744961, 41.792229], [-7.749547, 41.783362], [-7.745268, 41.7765], [-7.733286, 41.773944], [-7.725373, 41.781432], [-7.725152, 41.781652], [-7.725071, 41.781733], [-7.724612, 41.784351]]], [[[-8.19059, 41.766986], [-8.196556, 41.760337], [-8.19963, 41.751352], [-8.197972, 41.742333], [-8.190062, 41.733271], [-8.179066, 41.727164], [-8.165543, 41.724088], [-8.155143, 41.71776], [-8.151187, 41.705969], [-8.143323, 41.702542], [-8.131275, 41.704714], [-8.125735, 41.714785], [-8.130999, 41.725217], [-8.13857, 41.732896], [-8.134826, 41.741875], [-8.133921, 41.750875], [-8.137426, 41.759909], [-8.142493, 41.765017], [-8.154432, 41.771977], [-8.166433, 41.774319], [-8.178482, 41.773035], [-8.19059, 41.766986]]], [[[-8.082379, 41.732461], [-8.085499, 41.723479], [-8.087886, 41.705484], [-8.095442, 41.696537], [-8.117516, 41.678694], [-8.122002, 41.669722], [-8.116414, 41.660672], [-8.107909, 41.656075], [-8.095945, 41.652743], [-8.071972, 41.649596], [-8.060032, 41.64487], [-8.036242, 41.629664], [-8.012367, 41.620784], [-8.000384, 41.619476], [-7.98836, 41.620792], [-7.976278, 41.62576], [-7.968382, 41.632417], [-7.963462, 41.64138], [-7.961723, 41.650372], [-7.962694, 41.659387], [-7.970335, 41.67747], [-7.98715, 41.698038], [-7.998985, 41.709869], [-8.034636, 41.737184], [-8.046582, 41.742568], [-8.058581, 41.744415], [-8.07064, 41.742129], [-8.082379, 41.732461]], [[-8.106377, 41.678608], [-8.095423, 41.690055], [-8.083362, 41.693222], [-8.067066, 41.687303], [-8.061564, 41.678251], [-8.064411, 41.669267], [-8.083796, 41.66264], [-8.095792, 41.663714], [-8.104534, 41.669587], [-8.106377, 41.678608]], [[-8.047635, 41.671216], [-8.035519, 41.678164], [-8.023477, 41.679969], [-8.011509, 41.676945], [-8.00072, 41.668731], [-7.997278, 41.659694], [-8.000348, 41.650714], [-8.012032, 41.642735], [-8.02406, 41.641384], [-8.036017, 41.644753], [-8.04485, 41.651092], [-8.050842, 41.660149], [-8.050943, 41.669157], [-8.047635, 41.671216]]], [[[-7.854881, 41.702151], [-7.850876, 41.703358], [-7.854773, 41.70824], [-7.856072, 41.70341], [-7.854881, 41.702151]]], [[[-8.537574, 41.582073], [-8.537543, 41.573066], [-8.528928, 41.564933], [-8.525571, 41.564009], [-8.51695, 41.562955], [-8.513397, 41.563959], [-8.500486, 41.572911], [-8.499566, 41.581914], [-8.50475, 41.589996], [-8.516711, 41.594965], [-8.528734, 41.591706], [-8.537574, 41.582073]]], [[[-8.0927, 41.506242], [-8.109949, 41.507695], [-8.147134, 41.516789], [-8.170055, 41.525964], [-8.20532, 41.547753], [-8.229201, 41.556078], [-8.241177, 41.557444], [-8.25318, 41.556442], [-8.265219, 41.552272], [-8.277317, 41.542708], [-8.281877, 41.535724], [-8.285323, 41.526738], [-8.285708, 41.508726], [-8.279007, 41.490669], [-8.272679, 41.481622], [-8.266107, 41.473744], [-8.231466, 41.445324], [-8.204658, 41.41812], [-8.171355, 41.390508], [-8.148061, 41.37449], [-8.139694, 41.377894], [-8.133418, 41.374292], [-8.119074, 41.377218], [-8.119672, 41.378569], [-8.116683, 41.380144], [-8.117578, 41.386447], [-8.113992, 41.386896], [-8.112795, 41.390723], [-8.110105, 41.390947], [-8.108011, 41.393648], [-8.103827, 41.392972], [-8.105321, 41.394998], [-8.10263, 41.396123], [-8.10801, 41.398825], [-8.108606, 41.403102], [-8.101128, 41.411654], [-8.092756, 41.411201], [-8.09126, 41.414352], [-8.079893, 41.41975], [-8.077503, 41.416597], [-8.070923, 41.41862], [-8.066739, 41.416142], [-8.061654, 41.417489], [-8.059852, 41.424916], [-8.055959, 41.429415], [-8.05745, 41.432793], [-8.056549, 41.436394], [-8.069963, 41.447206], [-8.074929, 41.442441], [-8.08699, 41.436052], [-8.099005, 41.432699], [-8.110988, 41.431691], [-8.122942, 41.432762], [-8.134868, 41.435984], [-8.14677, 41.441127], [-8.162454, 41.45385], [-8.16822, 41.462899], [-8.170472, 41.471923], [-8.169932, 41.480926], [-8.16624, 41.489907], [-8.155317, 41.498835], [-8.145967, 41.502362], [-8.13396, 41.504291], [-8.110015, 41.502909], [-8.088596, 41.498325], [-8.070723, 41.489175], [-8.066073, 41.483446], [-8.066069, 41.48817], [-8.072054, 41.490199], [-8.072348, 41.495601], [-8.078333, 41.49898], [-8.078332, 41.500331], [-8.092402, 41.504163], [-8.0927, 41.506242]], [[-8.25993, 41.508563], [-8.253613, 41.518806], [-8.2416, 41.521263], [-8.230359, 41.517376], [-8.224934, 41.508332], [-8.228701, 41.49935], [-8.24191, 41.494648], [-8.253856, 41.497692], [-8.25993, 41.508563]]], [[[-8.069699, 41.447496], [-8.069699, 41.447496], [-8.069759, 41.447431], [-8.069699, 41.447496]]], [[[-8.565336, 41.501087], [-8.577338, 41.497986], [-8.589363, 41.491034], [-8.598605, 41.483221], [-8.605563, 41.474238], [-8.610179, 41.465246], [-8.615578, 41.447249], [-8.616201, 41.438244], [-8.614116, 41.429229], [-8.608725, 41.420203], [-8.601814, 41.413952], [-8.577972, 41.400182], [-8.566039, 41.395721], [-8.554094, 41.393196], [-8.542139, 41.392236], [-8.530168, 41.39354], [-8.518177, 41.397434], [-8.506152, 41.405773], [-8.496256, 41.419766], [-8.492502, 41.437765], [-8.495695, 41.455794], [-8.499869, 41.464819], [-8.507017, 41.473858], [-8.529461, 41.491529], [-8.541394, 41.498156], [-8.553355, 41.501069], [-8.565336, 41.501087]], [[-8.577456, 41.479832], [-8.565445, 41.484799], [-8.553457, 41.486174], [-8.541493, 41.484022], [-8.529553, 41.478781], [-8.514927, 41.464884], [-8.511073, 41.45586], [-8.510641, 41.446851], [-8.513481, 41.437855], [-8.520702, 41.428878], [-8.529959, 41.422494], [-8.541952, 41.418837], [-8.553924, 41.418088], [-8.565876, 41.420238], [-8.577811, 41.425037], [-8.589711, 41.43572], [-8.594916, 41.447178], [-8.594889, 41.456186], [-8.589506, 41.468252], [-8.577456, 41.479832]]], [[[-8.475753, 41.238504], [-8.48351, 41.248564], [-8.493816, 41.257617], [-8.507212, 41.265271], [-8.519118, 41.269657], [-8.53104, 41.272103], [-8.55492, 41.271926], [-8.566878, 41.269164], [-8.578848, 41.264334], [-8.590837, 41.256092], [-8.597123, 41.249017], [-8.602881, 41.238469], [-8.605074, 41.222021], [-8.599823, 41.203988], [-8.591244, 41.19083], [-8.580328, 41.180936], [-8.581296, 41.191762], [-8.575958, 41.195609], [-8.576894, 41.201908], [-8.573272, 41.204398], [-8.581823, 41.212931], [-8.58378, 41.221946], [-8.579047, 41.233371], [-8.567064, 41.24095], [-8.555119, 41.242532], [-8.543201, 41.240303], [-8.531327, 41.231903], [-8.526864, 41.221727], [-8.530019, 41.210859], [-8.52713, 41.203215], [-8.523236, 41.200077], [-8.51163, 41.203042], [-8.510456, 41.206197], [-8.505693, 41.207113], [-8.504239, 41.213646], [-8.500076, 41.21546], [-8.50308, 41.219502], [-8.502204, 41.222656], [-8.495642, 41.222227], [-8.495947, 41.223351], [-8.490894, 41.226294], [-8.487935, 41.230354], [-8.490331, 41.232373], [-8.489156, 41.235528], [-8.486181, 41.236888], [-8.484411, 41.240495], [-8.478434, 41.238037], [-8.475753, 41.238504]]], [[[-8.580106, 41.180737], [-8.580106, 41.180737], [-8.580028, 41.180666], [-8.580106, 41.180737]]]]}}, {"id": "4", "type": "Feature", "properties": {"fill": "#fffebe", "value_min": 0.47, "value_max": 0.53}, "geometry": {"type": "MultiPolygon", "coordinates": [[[[-8.53787, 41.646602], [-8.543876, 41.637352], [-8.543855, 41.633976], [-8.536342, 41.631977], [-8.535128, 41.62973], [-8.543431, 41.61462], [-8.554533, 41.615255], [-8.557244, 41.617046], [-8.562639, 41.61635], [-8.568056, 41.619031], [-8.570735, 41.616095], [-8.577321, 41.614269], [-8.581231, 41.615829], [-8.585766, 41.620988], [-8.591462, 41.620515], [-8.596534, 41.616668], [-8.601628, 41.615972], [-8.603996, 41.611686], [-8.613256, 41.606696], [-8.619881, 41.610269], [-8.621338, 41.604636], [-8.628833, 41.604378], [-8.636302, 41.600744], [-8.64075, 41.594422], [-8.645536, 41.593051], [-8.646744, 41.594171], [-8.649125, 41.591909], [-8.656622, 41.5921], [-8.660788, 41.588255], [-8.663794, 41.589141], [-8.665265, 41.585758], [-8.66948, 41.587989], [-8.684455, 41.586117], [-8.685608, 41.58071], [-8.697261, 41.576376], [-8.701703, 41.570277], [-8.707704, 41.570923], [-8.712485, 41.569323], [-8.716422, 41.573805], [-8.720316, 41.57356], [-8.725151, 41.577811], [-8.726633, 41.576003], [-8.734424, 41.575737], [-8.736564, 41.580228], [-8.738354, 41.579318], [-8.740778, 41.582006], [-8.74467, 41.581535], [-8.750711, 41.58623], [-8.756374, 41.582823], [-8.75635, 41.580347], [-8.762327, 41.578514], [-8.764443, 41.580303], [-8.767441, 41.580286], [-8.769874, 41.583874], [-8.768997, 41.58613], [-8.773228, 41.589482], [-8.775371, 41.593972], [-8.78556, 41.593464], [-8.797327, 41.600599], [-8.804218, 41.600109], [-8.80456, 41.604158], [-8.809434, 41.611332], [-8.828644, 41.609656], [-8.82839, 41.585633], [-8.818497, 41.554794], [-8.8221, 41.547542], [-8.821965, 41.534907], [-8.815926, 41.525624], [-8.81063, 41.5101], [-8.813279, 41.503483], [-8.812636, 41.496944], [-8.804699, 41.482068], [-8.798552, 41.474753], [-8.80154, 41.446836], [-8.806115, 41.43713], [-8.807354, 41.425915], [-8.811166, 41.417099], [-8.808187, 41.359938], [-8.781462, 41.364808], [-8.745587, 41.366075], [-8.721684, 41.363561], [-8.685853, 41.35569], [-8.673904, 41.354617], [-8.649895, 41.373134], [-8.637919, 41.376338], [-8.625969, 41.374809], [-8.614299, 41.366177], [-8.61244, 41.357163], [-8.617158, 41.348171], [-8.626163, 41.340987], [-8.638148, 41.335103], [-8.643254, 41.330239], [-8.634096, 41.29418], [-8.624977, 41.231096], [-8.615057, 41.19712], [-8.602252, 41.164216], [-8.59422, 41.165149], [-8.589766, 41.167193], [-8.589194, 41.170572], [-8.583263, 41.174422], [-8.582094, 41.177803], [-8.578825, 41.178941], [-8.580028, 41.180666], [-8.580106, 41.180737], [-8.580328, 41.180936], [-8.591244, 41.19083], [-8.599823, 41.203988], [-8.605074, 41.222021], [-8.602881, 41.238469], [-8.597123, 41.249017], [-8.590837, 41.256092], [-8.578848, 41.264334], [-8.566878, 41.269164], [-8.55492, 41.271926], [-8.53104, 41.272103], [-8.519118, 41.269657], [-8.507212, 41.265271], [-8.493816, 41.257617], [-8.48351, 41.248564], [-8.475753, 41.238504], [-8.470986, 41.23941], [-8.471604, 41.243459], [-8.469227, 41.245267], [-8.463258, 41.244384], [-8.459989, 41.246644], [-8.454323, 41.246886], [-8.455541, 41.251834], [-8.452276, 41.25522], [-8.449891, 41.255452], [-8.449304, 41.257479], [-8.447812, 41.257258], [-8.449028, 41.261982], [-8.439785, 41.262907], [-8.438023, 41.268989], [-8.434745, 41.269673], [-8.432691, 41.277107], [-8.427032, 41.279372], [-8.429143, 41.284319], [-8.426171, 41.287028], [-8.426488, 41.291079], [-8.425013, 41.294909], [-8.422037, 41.296942], [-8.422647, 41.299867], [-8.407744, 41.304856], [-8.406262, 41.307335], [-8.403277, 41.307342], [-8.401801, 41.311398], [-8.399712, 41.311628], [-8.400316, 41.313202], [-8.396738, 41.314336], [-8.398835, 41.316131], [-8.393775, 41.31997], [-8.393489, 41.323122], [-8.391105, 41.324253], [-8.386325, 41.323588], [-8.380382, 41.331254], [-8.375305, 41.33104], [-8.37201, 41.328346], [-8.361563, 41.329718], [-8.358276, 41.329049], [-8.357673, 41.327249], [-8.350207, 41.327264], [-8.346032, 41.328847], [-8.342462, 41.333131], [-8.333215, 41.336299], [-8.326363, 41.342163], [-8.324568, 41.341041], [-8.323376, 41.341943], [-8.320676, 41.338121], [-8.312604, 41.334983], [-8.313794, 41.333405], [-8.31139, 41.328007], [-8.307502, 41.325762], [-8.305116, 41.326891], [-8.303024, 41.325994], [-8.303615, 41.323742], [-8.301216, 41.319694], [-8.296431, 41.316774], [-8.297618, 41.313846], [-8.295817, 41.310022], [-8.281801, 41.316569], [-8.279132, 41.324451], [-8.272266, 41.32536], [-8.265709, 41.331221], [-8.269004, 41.336169], [-8.263339, 41.340902], [-8.262751, 41.345405], [-8.256483, 41.347663], [-8.255889, 41.349689], [-8.249622, 41.353072], [-8.251123, 41.356897], [-8.248141, 41.360052], [-8.248448, 41.364328], [-8.245461, 41.364781], [-8.244272, 41.368384], [-8.241287, 41.370413], [-8.224854, 41.370878], [-8.21738, 41.368182], [-8.214399, 41.373587], [-8.208127, 41.376968], [-8.199163, 41.377423], [-8.194677, 41.374275], [-8.191691, 41.376302], [-8.189299, 41.375403], [-8.184818, 41.376756], [-8.168382, 41.377438], [-8.164499, 41.38059], [-8.152544, 41.375866], [-8.151049, 41.37339], [-8.148061, 41.37449], [-8.171355, 41.390508], [-8.204658, 41.41812], [-8.231466, 41.445324], [-8.266107, 41.473744], [-8.272679, 41.481622], [-8.279007, 41.490669], [-8.285708, 41.508726], [-8.285323, 41.526738], [-8.281877, 41.535724], [-8.277317, 41.542708], [-8.265219, 41.552272], [-8.25318, 41.556442], [-8.241177, 41.557444], [-8.229201, 41.556078], [-8.20532, 41.547753], [-8.170055, 41.525964], [-8.147134, 41.516789], [-8.109949, 41.507695], [-8.0927, 41.506242], [-8.090598, 41.515044], [-8.097887, 41.513409], [-8.109864, 41.513868], [-8.119713, 41.516582], [-8.130737, 41.525673], [-8.133023, 41.534698], [-8.130566, 41.543687], [-8.121283, 41.555659], [-8.113159, 41.561568], [-8.11747, 41.570609], [-8.136009, 41.588764], [-8.139953, 41.597801], [-8.139523, 41.606805], [-8.114489, 41.633636], [-8.108159, 41.637964], [-8.096111, 41.640879], [-8.084107, 41.640673], [-8.07214, 41.637851], [-8.063359, 41.633231], [-8.051906, 41.62413], [-8.045227, 41.615067], [-8.041629, 41.60603], [-8.041304, 41.597094], [-8.031467, 41.602938], [-8.02367, 41.603156], [-8.019174, 41.601802], [-8.015872, 41.603824], [-8.013474, 41.603372], [-8.005971, 41.60629], [-8.003562, 41.611239], [-7.998761, 41.612809], [-7.999669, 41.608759], [-7.996976, 41.605829], [-7.996684, 41.602003], [-7.984685, 41.603564], [-7.982292, 41.60086], [-7.975689, 41.603552], [-7.974482, 41.606701], [-7.970882, 41.607147], [-7.969091, 41.603768], [-7.965796, 41.602413], [-7.9541, 41.602846], [-7.952606, 41.600592], [-7.947808, 41.60081], [-7.945413, 41.599456], [-7.942725, 41.595625], [-7.936132, 41.594488], [-7.93791, 41.601694], [-7.937004, 41.603718], [-7.931604, 41.604384], [-7.930979, 41.612711], [-7.925556, 41.620354], [-7.920755, 41.620796], [-7.917748, 41.623041], [-7.915933, 41.627764], [-7.913229, 41.628885], [-7.912613, 41.63361], [-7.906014, 41.633147], [-7.906884, 41.641927], [-7.897869, 41.645511], [-7.89696, 41.647985], [-7.892759, 41.647976], [-7.892145, 41.651576], [-7.902319, 41.659925], [-7.899913, 41.66127], [-7.900198, 41.665547], [-7.898396, 41.665769], [-7.897186, 41.668467], [-7.892682, 41.668683], [-7.892377, 41.670033], [-7.888171, 41.670925], [-7.883969, 41.67069], [-7.880358, 41.673159], [-7.877044, 41.676077], [-7.876723, 41.681253], [-7.873401, 41.686198], [-7.868896, 41.686413], [-7.868008, 41.68326], [-7.864403, 41.683701], [-7.864096, 41.685276], [-7.858987, 41.68639], [-7.857773, 41.689538], [-7.854776, 41.68818], [-7.847538, 41.695365], [-7.837912, 41.698942], [-7.835792, 41.702763], [-7.839682, 41.705924], [-7.838465, 41.709522], [-7.832453, 41.710407], [-7.825252, 41.708813], [-7.818621, 41.713522], [-7.815291, 41.718689], [-7.808986, 41.717996], [-7.808396, 41.715744], [-7.804499, 41.714158], [-7.79939, 41.714593], [-7.79788, 41.716164], [-7.796383, 41.71526], [-7.790966, 41.717044], [-7.789449, 41.719966], [-7.78464, 41.720402], [-7.78252, 41.723546], [-7.776204, 41.724652], [-7.773786, 41.727346], [-7.770798, 41.72441], [-7.765698, 41.723044], [-7.761765, 41.727758], [-7.762933, 41.733839], [-7.759307, 41.737203], [-7.759597, 41.739005], [-7.75689, 41.739446], [-7.758687, 41.740577], [-7.757758, 41.745301], [-7.748417, 41.749321], [-7.747786, 41.754496], [-7.743866, 41.756509], [-7.740214, 41.763924], [-7.726937, 41.771755], [-7.7254, 41.777152], [-7.727191, 41.779184], [-7.724177, 41.780299], [-7.725373, 41.781432], [-7.733286, 41.773944], [-7.745268, 41.7765], [-7.749547, 41.783362], [-7.744961, 41.792229], [-7.732904, 41.793322], [-7.730069, 41.792155], [-7.724612, 41.784351], [-7.722296, 41.792446], [-7.728879, 41.797871], [-7.727026, 41.805517], [-7.728761, 41.816776], [-7.732041, 41.821514], [-7.743152, 41.825154], [-7.742839, 41.827178], [-7.738918, 41.82874], [-7.742196, 41.833928], [-7.74729, 41.837772], [-7.746678, 41.839327], [-7.756122, 41.837456], [-7.768158, 41.83785], [-7.780136, 41.841305], [-7.788979, 41.846831], [-7.795053, 41.855902], [-7.796308, 41.864922], [-7.793639, 41.873901], [-7.782618, 41.885599], [-7.788886, 41.882467], [-7.794007, 41.882257], [-7.796739, 41.878214], [-7.794349, 41.87438], [-7.797064, 41.873488], [-7.803381, 41.874857], [-7.804914, 41.869459], [-7.813032, 41.871958], [-7.814229, 41.873537], [-7.823863, 41.874013], [-7.825059, 41.875817], [-7.830479, 41.875831], [-7.830789, 41.874031], [-7.832894, 41.874712], [-7.83772, 41.872924], [-7.842528, 41.875187], [-7.841663, 41.866632], [-7.849515, 41.861475], [-7.858542, 41.862622], [-7.859456, 41.860148], [-7.864877, 41.859711], [-7.87033, 41.851395], [-7.873043, 41.850501], [-7.873066, 41.844875], [-7.879056, 41.85254], [-7.886268, 41.855932], [-7.888076, 41.855486], [-7.891675, 41.859094], [-7.900698, 41.861588], [-7.904318, 41.859795], [-7.907309, 41.865203], [-7.906095, 41.868126], [-7.910299, 41.871285], [-7.909985, 41.875111], [-7.915391, 41.879397], [-7.921118, 41.877833], [-7.928044, 41.87807], [-7.935283, 41.874707], [-7.937389, 41.87516], [-7.941618, 41.870891], [-7.951254, 41.871132], [-7.956367, 41.87339], [-7.956362, 41.875191], [-7.960878, 41.875648], [-7.962086, 41.874074], [-7.973828, 41.875216], [-7.987996, 41.869157], [-7.990123, 41.860157], [-7.995547, 41.858138], [-7.994047, 41.855211], [-7.996162, 41.851837], [-8.003089, 41.850494], [-8.005804, 41.847346], [-8.007928, 41.838796], [-8.010941, 41.836773], [-8.013965, 41.828899], [-8.017873, 41.831379], [-8.02901, 41.829589], [-8.037134, 41.831171], [-8.041351, 41.828023], [-8.041054, 41.825097], [-8.045268, 41.824425], [-8.046775, 41.821951], [-8.056712, 41.81588], [-8.06664, 41.817012], [-8.072961, 41.813414], [-8.078678, 41.813417], [-8.082892, 41.810493], [-8.091013, 41.812521], [-8.093421, 41.811397], [-8.093723, 41.808471], [-8.101845, 41.809824], [-8.104853, 41.81185], [-8.115984, 41.812302], [-8.123807, 41.808702], [-8.138247, 41.808477], [-8.139751, 41.813203], [-8.14276, 41.812978], [-8.144866, 41.815228], [-8.149078, 41.814777], [-8.153291, 41.817703], [-8.158106, 41.818377], [-8.165326, 41.81815], [-8.173744, 41.808019], [-8.177655, 41.808242], [-8.183676, 41.812741], [-8.190291, 41.809587], [-8.197158, 41.814129], [-8.201063, 41.808724], [-8.204973, 41.807372], [-8.205872, 41.804445], [-8.213692, 41.803765], [-8.217598, 41.80016], [-8.217589, 41.793634], [-8.224207, 41.794303], [-8.229917, 41.791598], [-8.240744, 41.791588], [-8.24074, 41.789338], [-8.244347, 41.787984], [-8.245546, 41.785731], [-8.251257, 41.784375], [-8.251845, 41.777172], [-8.257551, 41.773564], [-8.261762, 41.774235], [-8.271366, 41.766346], [-8.280681, 41.764083], [-8.284038, 41.761109], [-8.284931, 41.757507], [-8.305674, 41.758152], [-8.311096, 41.762195], [-8.318308, 41.761283], [-8.325233, 41.765098], [-8.328234, 41.763292], [-8.336653, 41.763728], [-8.340328, 41.761921], [-8.333356, 41.743199], [-8.328005, 41.73416], [-8.305441, 41.707005], [-8.300219, 41.697966], [-8.291198, 41.67089], [-8.289088, 41.652863], [-8.291015, 41.63486], [-8.294409, 41.625874], [-8.300495, 41.616932], [-8.312607, 41.606656], [-8.324667, 41.600985], [-8.336702, 41.597567], [-8.360734, 41.594139], [-8.396729, 41.594238], [-8.456678, 41.599559], [-8.480624, 41.606211], [-8.492586, 41.611271], [-8.515699, 41.627019], [-8.53787, 41.646602]], [[-7.967731, 41.839571], [-7.965961, 41.848561], [-7.960607, 41.853502], [-7.948515, 41.856274], [-7.936539, 41.851976], [-7.933065, 41.84826], [-7.931947, 41.839243], [-7.94439, 41.830352], [-7.948955, 41.829422], [-7.955845, 41.830456], [-7.960947, 41.832495], [-7.967731, 41.839571]], [[-7.961421, 41.803174], [-7.949319, 41.807123], [-7.937291, 41.806517], [-7.930646, 41.803204], [-7.923507, 41.794131], [-7.926164, 41.785149], [-7.937739, 41.779375], [-7.949777, 41.779113], [-7.961746, 41.783034], [-7.966602, 41.78552], [-7.969379, 41.794551], [-7.961421, 41.803174]], [[-7.853159, 41.798988], [-7.828948, 41.806543], [-7.816935, 41.805206], [-7.805084, 41.795143], [-7.795534, 41.774846], [-7.789821, 41.756773], [-7.78857, 41.747753], [-7.790077, 41.738762], [-7.798458, 41.729843], [-7.806347, 41.727038], [-7.854459, 41.725921], [-7.865168, 41.721514], [-7.872534, 41.71258], [-7.879008, 41.697027], [-7.889524, 41.685725], [-7.891242, 41.684383], [-7.903287, 41.682625], [-7.915245, 41.686064], [-7.92868, 41.695103], [-7.935899, 41.704177], [-7.939667, 41.713219], [-7.943237, 41.731266], [-7.949791, 41.740333], [-7.959993, 41.749433], [-7.963664, 41.758473], [-7.955892, 41.767409], [-7.949944, 41.768844], [-7.937916, 41.768662], [-7.925931, 41.76591], [-7.913834, 41.769855], [-7.90158, 41.782921], [-7.889387, 41.792122], [-7.853159, 41.798988]], [[-8.19059, 41.766986], [-8.178482, 41.773035], [-8.166433, 41.774319], [-8.154432, 41.771977], [-8.142493, 41.765017], [-8.137426, 41.759909], [-8.133921, 41.750875], [-8.134826, 41.741875], [-8.13857, 41.732896], [-8.130999, 41.725217], [-8.125735, 41.714785], [-8.131275, 41.704714], [-8.143323, 41.702542], [-8.151187, 41.705969], [-8.155143, 41.71776], [-8.165543, 41.724088], [-8.179066, 41.727164], [-8.190062, 41.733271], [-8.197972, 41.742333], [-8.19963, 41.751352], [-8.196556, 41.760337], [-8.19059, 41.766986]], [[-8.082379, 41.732461], [-8.07064, 41.742129], [-8.058581, 41.744415], [-8.046582, 41.742568], [-8.034636, 41.737184], [-7.998985, 41.709869], [-7.98715, 41.698038], [-7.970335, 41.67747], [-7.962694, 41.659387], [-7.961723, 41.650372], [-7.963462, 41.64138], [-7.968382, 41.632417], [-7.976278, 41.62576], [-7.98836, 41.620792], [-8.000384, 41.619476], [-8.012367, 41.620784], [-8.036242, 41.629664], [-8.060032, 41.64487], [-8.071972, 41.649596], [-8.095945, 41.652743], [-8.107909, 41.656075], [-8.116414, 41.660672], [-8.122002, 41.669722], [-8.117516, 41.678694], [-8.095442, 41.696537], [-8.087886, 41.705484], [-8.085499, 41.723479], [-8.082379, 41.732461]], [[-8.227316, 41.714119], [-8.215262, 41.716827], [-8.203262, 41.7151], [-8.187901, 41.706235], [-8.182809, 41.697191], [-8.183031, 41.688186], [-8.188851, 41.67922], [-8.203801, 41.67145], [-8.215819, 41.670996], [-8.227791, 41.674384], [-8.234846, 41.679536], [-8.241046, 41.688584], [-8.241975, 41.697597], [-8.237719, 41.706576], [-8.227316, 41.714119]], [[-8.131373, 41.697458], [-8.11918, 41.710271], [-8.10717, 41.709536], [-8.103399, 41.705606], [-8.103423, 41.696599], [-8.119504, 41.686539], [-8.125792, 41.687765], [-8.131435, 41.692831], [-8.132857, 41.696825], [-8.131373, 41.697458]], [[-7.854881, 41.702151], [-7.856072, 41.70341], [-7.854773, 41.70824], [-7.850876, 41.703358], [-7.854881, 41.702151]], [[-8.537574, 41.582073], [-8.528734, 41.591706], [-8.516711, 41.594965], [-8.50475, 41.589996], [-8.499566, 41.581914], [-8.500486, 41.572911], [-8.513397, 41.563959], [-8.51695, 41.562955], [-8.525571, 41.564009], [-8.528928, 41.564933], [-8.537543, 41.573066], [-8.537574, 41.582073]], [[-8.649041, 41.531783], [-8.642651, 41.537411], [-8.637009, 41.53974], [-8.625012, 41.541311], [-8.613045, 41.5376], [-8.60728, 41.528288], [-8.609786, 41.519289], [-8.613174, 41.515936], [-8.625193, 41.509838], [-8.632609, 41.50135], [-8.630107, 41.483327], [-8.631366, 41.474323], [-8.637448, 41.461221], [-8.649488, 41.448874], [-8.661497, 41.441826], [-8.673486, 41.438178], [-8.685466, 41.435999], [-8.697435, 41.436086], [-8.709394, 41.438472], [-8.721345, 41.44307], [-8.728341, 41.447571], [-8.737095, 41.456599], [-8.741724, 41.465617], [-8.742635, 41.483634], [-8.739479, 41.492634], [-8.733012, 41.501627], [-8.722958, 41.51061], [-8.709039, 41.518057], [-8.68504, 41.524026], [-8.661061, 41.525505], [-8.649041, 41.531783]], [[-8.517246, 41.523072], [-8.513605, 41.52793], [-8.505186, 41.532866], [-8.493176, 41.53575], [-8.481198, 41.534547], [-8.457311, 41.523937], [-8.445342, 41.522017], [-8.409321, 41.529149], [-8.385329, 41.531163], [-8.361367, 41.529847], [-8.337443, 41.52505], [-8.325516, 41.51937], [-8.313639, 41.509102], [-8.307568, 41.499852], [-8.302363, 41.481806], [-8.305923, 41.463813], [-8.314249, 41.451298], [-8.326332, 41.440577], [-8.350425, 41.425317], [-8.374471, 41.413804], [-8.386457, 41.411571], [-8.398426, 41.411186], [-8.422324, 41.414767], [-8.446157, 41.42639], [-8.45804, 41.436568], [-8.469892, 41.450941], [-8.484438, 41.473759], [-8.514552, 41.500912], [-8.519605, 41.509941], [-8.519889, 41.518949], [-8.517246, 41.523072]], [[-8.565336, 41.501087], [-8.553355, 41.501069], [-8.541394, 41.498156], [-8.529461, 41.491529], [-8.507017, 41.473858], [-8.499869, 41.464819], [-8.495695, 41.455794], [-8.492502, 41.437765], [-8.496256, 41.419766], [-8.506152, 41.405773], [-8.518177, 41.397434], [-8.530168, 41.39354], [-8.542139, 41.392236], [-8.554094, 41.393196], [-8.566039, 41.395721], [-8.577972, 41.400182], [-8.601814, 41.413952], [-8.608725, 41.420203], [-8.614116, 41.429229], [-8.616201, 41.438244], [-8.615578, 41.447249], [-8.610179, 41.465246], [-8.605563, 41.474238], [-8.598605, 41.483221], [-8.589363, 41.491034], [-8.577338, 41.497986], [-8.565336, 41.501087]], [[-8.384582, 41.374185], [-8.382031, 41.383179], [-8.3747, 41.389865], [-8.36272, 41.391877], [-8.350798, 41.387865], [-8.345935, 41.382979], [-8.342571, 41.373953], [-8.346546, 41.364968], [-8.351062, 41.361321], [-8.363047, 41.358301], [-8.374974, 41.361312], [-8.380218, 41.365154], [-8.384582, 41.374185]]], [[[-7.774992, 41.889643], [-7.767107, 41.892567], [-7.756895, 41.893719], [-7.758376, 41.898127], [-7.764097, 41.898595], [-7.774992, 41.889643]]], [[[-7.739741, 41.891057], [-7.739741, 41.891057], [-7.739441, 41.890928], [-7.739741, 41.891057]]], [[[-7.739284, 41.890861], [-7.739284, 41.890861], [-7.737338, 41.890028], [-7.739284, 41.890861]]], [[[-7.734517, 41.888819], [-7.724665, 41.882162], [-7.72235, 41.878689], [-7.720523, 41.881793], [-7.725335, 41.882935], [-7.726208, 41.887665], [-7.734517, 41.888819]]], [[[-7.782544, 41.885652], [-7.782544, 41.885652], [-7.782306, 41.885823], [-7.782544, 41.885652]]], [[[-7.782241, 41.88587], [-7.782241, 41.88587], [-7.781995, 41.886047], [-7.782241, 41.88587]]], [[[-7.775293, 41.889528], [-7.775293, 41.889528], [-7.775033, 41.889627], [-7.775293, 41.889528]]], [[[-7.725071, 41.781733], [-7.725071, 41.781733], [-7.725152, 41.781652], [-7.725071, 41.781733]]], [[[-8.078363, 41.557953], [-8.076322, 41.550974], [-8.076193, 41.550754], [-8.07619, 41.550749], [-8.074097, 41.549848], [-8.072896, 41.552098], [-8.075891, 41.554575], [-8.076188, 41.557276], [-8.078363, 41.557953]]]]}}, {"id": "8", "type": "Feature", "properties": {"fill": "#ef6d48", "value_min": 0.73, "value_max": 0.8}, "geometry": {"type": "MultiPolygon", "coordinates": [[[[-8.385611, 41.662426], [-8.380877, 41.662401], [-8.380999, 41.671409], [-8.383988, 41.672228], [-8.385465, 41.671433], [-8.385611, 41.662426]]], [[[-8.134271, 41.480887], [-8.129305, 41.471619], [-8.122473, 41.467566], [-8.110503, 41.467222], [-8.102745, 41.471414], [-8.097879, 41.480384], [-8.104413, 41.489442], [-8.110167, 41.491776], [-8.122143, 41.492041], [-8.128355, 41.489626], [-8.134271, 41.480887]]], [[[-8.565608, 41.460403], [-8.567885, 41.456087], [-8.563136, 41.447062], [-8.553753, 41.443056], [-8.541767, 41.445121], [-8.539318, 41.446969], [-8.535252, 41.45596], [-8.541623, 41.465574], [-8.553584, 41.467693], [-8.560903, 41.465068], [-8.565608, 41.460403]]]]}}, {"id": "7", "type": "Feature", "properties": {"fill": "#f77f52", "value_min": 0.67, "value_max": 0.73}, "geometry": {"type": "MultiPolygon", "coordinates": [[[[-8.383838, 41.687948], [-8.395882, 41.685033], [-8.4028, 41.680531], [-8.408592, 41.671554], [-8.407646, 41.662542], [-8.396202, 41.650782], [-8.384229, 41.64699], [-8.372213, 41.647722], [-8.360142, 41.654035], [-8.354453, 41.662255], [-8.354331, 41.671262], [-8.360223, 41.680302], [-8.371834, 41.686744], [-8.383838, 41.687948]], [[-8.385611, 41.662426], [-8.385465, 41.671433], [-8.383988, 41.672228], [-8.380999, 41.671409], [-8.380877, 41.662401], [-8.385611, 41.662426]]], [[[-8.083511, 41.682685], [-8.095539, 41.681779], [-8.098373, 41.678546], [-8.095645, 41.67424], [-8.083636, 41.673881], [-8.079373, 41.678395], [-8.083511, 41.682685]]], [[[-8.021236, 41.659901], [-8.023749, 41.661993], [-8.026933, 41.659949], [-8.023812, 41.657854], [-8.021236, 41.659901]]], [[[-8.117332, 41.498549], [-8.123677, 41.498598], [-8.13407, 41.49597], [-8.144194, 41.489745], [-8.148817, 41.480772], [-8.147814, 41.471757], [-8.141358, 41.462702], [-8.13458, 41.457705], [-8.12266, 41.453742], [-8.110694, 41.453223], [-8.098681, 41.456131], [-8.089532, 41.462303], [-8.083742, 41.471265], [-8.083753, 41.480272], [-8.089753, 41.489327], [-8.098157, 41.493953], [-8.110081, 41.498063], [-8.117332, 41.498549]], [[-8.134271, 41.480887], [-8.128355, 41.489626], [-8.122143, 41.492041], [-8.110167, 41.491776], [-8.104413, 41.489442], [-8.097879, 41.480384], [-8.102745, 41.471414], [-8.110503, 41.467222], [-8.122473, 41.467566], [-8.129305, 41.471619], [-8.134271, 41.480887]]], [[[-8.541558, 41.47479], [-8.553523, 41.47661], [-8.565517, 41.473988], [-8.577122, 41.465129], [-8.580818, 41.456135], [-8.57932, 41.447122], [-8.571339, 41.438085], [-8.56578, 41.434643], [-8.55383, 41.431794], [-8.541853, 41.432981], [-8.529835, 41.439666], [-8.524476, 41.446909], [-8.523209, 41.455911], [-8.527121, 41.464935], [-8.541558, 41.47479]], [[-8.565608, 41.460403], [-8.560903, 41.465068], [-8.553584, 41.467693], [-8.541623, 41.465574], [-8.535252, 41.45596], [-8.539318, 41.446969], [-8.541767, 41.445121], [-8.553753, 41.443056], [-8.563136, 41.447062], [-8.567885, 41.456087], [-8.565608, 41.460403]]]]}}]}