{"type": "FeatureCollection", "features": [{"id": "3", "type": "Feature", "properties": {"fill": "#fecb90", "value_min": 0.53, "value_max": 0.6}, "geometry": {"type": "MultiPolygon", "coordinates": [[[[-8.385503, 41.662426], [-8.380846, 41.662401], [-8.381069, 41.671409], [-8.383989, 41.672152], [-8.385503, 41.662426]]], [[[-8.167144, 41.643037], [-8.171075, 41.634058], [-8.169558, 41.62504], [-8.162237, 41.615979], [-8.156519, 41.612383], [-8.144562, 41.609021], [-8.132552, 41.609654], [-8.120463, 41.616103], [-8.112413, 41.624613], [-8.107981, 41.633585], [-8.108795, 41.642599], [-8.118634, 41.651682], [-8.131927, 41.65624], [-8.14394, 41.656024], [-8.156003, 41.65197], [-8.167144, 41.643037]], [[-8.144016, 41.650247], [-8.131997, 41.65104], [-8.12005, 41.646484], [-8.115646, 41.642652], [-8.113441, 41.633628], [-8.118775, 41.624662], [-8.132455, 41.616906], [-8.144455, 41.617092], [-8.156369, 41.623908], [-8.160782, 41.633983], [-8.156554, 41.642959], [-8.144016, 41.650247]]], [[[-8.680073, 41.474469], [-8.673332, 41.468914], [-8.661354, 41.469388], [-8.656465, 41.474401], [-8.658597, 41.483415], [-8.661271, 41.485172], [-8.673247, 41.485742], [-8.677802, 41.48347], [-8.680073, 41.474469]]], [[[-8.386681, 41.3878], [-8.391276, 41.383228], [-8.394839, 41.374239], [-8.393749, 41.365226], [-8.386982, 41.355759], [-8.375089, 41.349281], [-8.363153, 41.3475], [-8.351182, 41.349273], [-8.339161, 41.355868], [-8.332737, 41.364889], [-8.331252, 41.373888], [-8.334293, 41.382913], [-8.34466, 41.39198], [-8.350729, 41.39482], [-8.362674, 41.396552], [-8.374654, 41.394681], [-8.386681, 41.3878]]], [[[-8.565617, 41.209237], [-8.555356, 41.207637], [-8.543257, 41.212785], [-8.540396, 41.221781], [-8.54691, 41.230815], [-8.555179, 41.233791], [-8.567121, 41.232372], [-8.569487, 41.230902], [-8.575299, 41.221915], [-8.57173, 41.212894], [-8.566508, 41.209376], [-8.565617, 41.209237]]]]}}, {"id": "4", "type": "Feature", "properties": {"fill": "#fc9863", "value_min": 0.6, "value_max": 0.67}, "geometry": {"type": "MultiPolygon", "coordinates": [[[[-8.294166, 41.757719], [-8.301393, 41.752016], [-8.299498, 41.742997], [-8.287157, 41.737961], [-8.275095, 41.741206], [-8.271199, 41.751828], [-8.274917, 41.757034], [-8.284036, 41.760406], [-8.284931, 41.757507], [-8.287033, 41.756829], [-8.294166, 41.757719]]], [[[-8.39585, 41.688403], [-8.408617, 41.680561], [-8.413929, 41.671581], [-8.412639, 41.662567], [-8.405787, 41.653525], [-8.396243, 41.646442], [-8.384277, 41.641944], [-8.372275, 41.64132], [-8.360235, 41.644691], [-8.348877, 41.653217], [-8.344095, 41.662197], [-8.343967, 41.671203], [-8.348441, 41.680236], [-8.359794, 41.689138], [-8.371777, 41.692568], [-8.383799, 41.692062], [-8.39585, 41.688403]], [[-8.385503, 41.662426], [-8.383989, 41.672152], [-8.381069, 41.671409], [-8.380846, 41.662401], [-8.385503, 41.662426]]], [[[-8.15589, 41.660657], [-8.175141, 41.652101], [-8.184193, 41.643159], [-8.188463, 41.634182], [-8.188774, 41.625177], [-8.185171, 41.616144], [-8.176145, 41.607073], [-8.168646, 41.602661], [-8.156696, 41.598777], [-8.144713, 41.597593], [-8.132698, 41.598704], [-8.12063, 41.603779], [-8.1177, 41.606639], [-8.098631, 41.633513], [-8.0983, 41.642517], [-8.105484, 41.65158], [-8.119874, 41.65939], [-8.131847, 41.662201], [-8.143852, 41.662663], [-8.15589, 41.660657]], [[-8.167144, 41.643037], [-8.156003, 41.65197], [-8.14394, 41.656024], [-8.131927, 41.65624], [-8.118634, 41.651682], [-8.108795, 41.642599], [-8.107981, 41.633585], [-8.112413, 41.624613], [-8.120463, 41.616103], [-8.132552, 41.609654], [-8.144562, 41.609021], [-8.156519, 41.612383], [-8.162237, 41.615979], [-8.169558, 41.62504], [-8.171075, 41.634058], [-8.167144, 41.643037]]], [[[-8.50215, 41.509866], [-8.493456, 41.499945], [-8.481489, 41.498111], [-8.469455, 41.504639], [-8.465747, 41.509703], [-8.467918, 41.51872], [-8.481271, 41.525378], [-8.493271, 41.523616], [-8.499725, 41.518863], [-8.50215, 41.509866]]], [[[-8.349679, 41.500064], [-8.359292, 41.491144], [-8.359109, 41.482136], [-8.349946, 41.473319], [-8.337983, 41.472053], [-8.325928, 41.479614], [-8.324476, 41.490945], [-8.33769, 41.500831], [-8.349679, 41.500064]]], [[[-8.70917, 41.4888], [-8.713673, 41.483565], [-8.716019, 41.474563], [-8.7142, 41.465551], [-8.707539, 41.456527], [-8.697372, 41.449692], [-8.691211, 41.447477], [-8.673454, 41.444617], [-8.661474, 41.446307], [-8.649476, 41.451062], [-8.642985, 41.456345], [-8.637433, 41.463835], [-8.635227, 41.474336], [-8.638842, 41.483354], [-8.648455, 41.492392], [-8.661204, 41.498164], [-8.673172, 41.500711], [-8.685154, 41.500549], [-8.697151, 41.497285], [-8.705949, 41.492553], [-8.70917, 41.4888]], [[-8.680073, 41.474469], [-8.677802, 41.48347], [-8.673247, 41.485742], [-8.661271, 41.485172], [-8.658597, 41.483415], [-8.656465, 41.474401], [-8.661354, 41.469388], [-8.673332, 41.468914], [-8.680073, 41.474469]]], [[[-8.318584, 41.337404], [-8.312322, 41.346753], [-8.307386, 41.364739], [-8.309465, 41.382766], [-8.314856, 41.3936], [-8.326691, 41.405822], [-8.338591, 41.412126], [-8.350523, 41.415463], [-8.36248, 41.416349], [-8.374456, 41.415317], [-8.391318, 41.410251], [-8.407986, 41.401331], [-8.417988, 41.392374], [-8.427744, 41.374408], [-8.428215, 41.356395], [-8.422952, 41.343724], [-8.411123, 41.330015], [-8.393777, 41.32054], [-8.391701, 41.324026], [-8.386027, 41.323814], [-8.380382, 41.331254], [-8.375305, 41.33104], [-8.37201, 41.328346], [-8.361563, 41.329718], [-8.358276, 41.329049], [-8.357673, 41.327249], [-8.350207, 41.327264], [-8.346032, 41.328847], [-8.342462, 41.333131], [-8.333215, 41.336299], [-8.326363, 41.342163], [-8.324568, 41.341041], [-8.323376, 41.341943], [-8.318584, 41.337404]], [[-8.386681, 41.3878], [-8.374654, 41.394681], [-8.362674, 41.396552], [-8.350729, 41.39482], [-8.34466, 41.39198], [-8.334293, 41.382913], [-8.331252, 41.373888], [-8.332737, 41.364889], [-8.339161, 41.355868], [-8.351182, 41.349273], [-8.363153, 41.3475], [-8.375089, 41.349281], [-8.386982, 41.355759], [-8.393749, 41.365226], [-8.394839, 41.374239], [-8.391276, 41.383228], [-8.386681, 41.3878]]], [[[-8.486186, 41.237793], [-8.494672, 41.248613], [-8.506647, 41.257673], [-8.519162, 41.26364], [-8.531077, 41.266941], [-8.554941, 41.268848], [-8.56689, 41.267287], [-8.578849, 41.264171], [-8.590823, 41.258385], [-8.601932, 41.249034], [-8.607699, 41.240046], [-8.610629, 41.22204], [-8.609147, 41.213027], [-8.603125, 41.19813], [-8.591294, 41.182774], [-8.582979, 41.17656], [-8.578825, 41.178941], [-8.581296, 41.191762], [-8.575958, 41.195609], [-8.576894, 41.201908], [-8.574515, 41.202593], [-8.57423, 41.20462], [-8.567971, 41.204644], [-8.565895, 41.206227], [-8.567697, 41.208246], [-8.566508, 41.209376], [-8.57173, 41.212894], [-8.575299, 41.221915], [-8.569487, 41.230902], [-8.567121, 41.232372], [-8.555179, 41.233791], [-8.54691, 41.230815], [-8.540396, 41.221781], [-8.543257, 41.212785], [-8.555356, 41.207637], [-8.565617, 41.209237], [-8.559636, 41.206251], [-8.554271, 41.20627], [-8.549521, 41.209214], [-8.544157, 41.209458], [-8.54238, 41.211265], [-8.532257, 41.213102], [-8.52653, 41.202542], [-8.523236, 41.200077], [-8.518471, 41.200543], [-8.51163, 41.203042], [-8.510456, 41.206197], [-8.505693, 41.207113], [-8.504239, 41.213646], [-8.500076, 41.21546], [-8.50308, 41.219502], [-8.502204, 41.222656], [-8.496833, 41.221998], [-8.493861, 41.223583], [-8.487935, 41.230354], [-8.490331, 41.232373], [-8.489156, 41.235528], [-8.485968, 41.237339], [-8.486076, 41.237563], [-8.486186, 41.237793]]]]}}, {"id": "5", "type": "Feature", "properties": {"fill": "#f77f52", "value_min": 0.67, "value_max": 0.73}, "geometry": {"type": "MultiPolygon", "coordinates": [[[[-8.493378, 41.674539], [-8.444172, 41.658519], [-8.422826, 41.644605], [-8.413144, 41.635549], [-8.401986, 41.617477], [-8.400293, 41.608461], [-8.402168, 41.599463], [-8.408742, 41.592729], [-8.420785, 41.587736], [-8.468809, 41.583633], [-8.4743, 41.581801], [-8.480844, 41.578816], [-8.495737, 41.563882], [-8.504996, 41.557792], [-8.529059, 41.546986], [-8.537793, 41.537037], [-8.541217, 41.528044], [-8.542703, 41.510035], [-8.539898, 41.501016], [-8.532625, 41.491979], [-8.517564, 41.480289], [-8.49374, 41.463424], [-8.481812, 41.457525], [-8.469777, 41.465151], [-8.460029, 41.482654], [-8.445543, 41.498479], [-8.433492, 41.506455], [-8.421483, 41.509494], [-8.409501, 41.509342], [-8.397582, 41.502477], [-8.392263, 41.491323], [-8.390816, 41.473301], [-8.393388, 41.464307], [-8.400328, 41.455336], [-8.410049, 41.448952], [-8.422056, 41.445027], [-8.446016, 41.442875], [-8.469945, 41.444426], [-8.50133, 41.410781], [-8.542223, 41.380162], [-8.54728, 41.37494], [-8.564918, 41.347985], [-8.57313, 41.339008], [-8.585434, 41.330046], [-8.602371, 41.322475], [-8.614337, 41.319609], [-8.62629, 41.318776], [-8.63823, 41.320284], [-8.650158, 41.324031], [-8.673983, 41.338668], [-8.68433, 41.348375], [-8.691011, 41.357401], [-8.69418, 41.366417], [-8.693595, 41.375423], [-8.688197, 41.384416], [-8.676602, 41.393392], [-8.661713, 41.400149], [-8.627687, 41.411259], [-8.614911, 41.420224], [-8.608839, 41.438219], [-8.606149, 41.465232], [-8.608182, 41.474247], [-8.61574, 41.48328], [-8.629184, 41.492331], [-8.673103, 41.514449], [-8.720958, 41.533403], [-8.75688, 41.544223], [-8.78084, 41.549621], [-8.818823, 41.554405], [-8.8221, 41.547542], [-8.821717, 41.533832], [-8.815926, 41.525624], [-8.81063, 41.5101], [-8.813279, 41.503483], [-8.812636, 41.496944], [-8.804699, 41.482068], [-8.798552, 41.474753], [-8.798251, 41.469014], [-8.801548, 41.4468], [-8.806115, 41.43713], [-8.807354, 41.425915], [-8.811202, 41.416419], [-8.802788, 41.222849], [-8.777348, 41.231491], [-8.737388, 41.240415], [-8.698316, 41.245503], [-8.674452, 41.244421], [-8.662541, 41.239945], [-8.650657, 41.230502], [-8.639954, 41.213128], [-8.634046, 41.191319], [-8.634036, 41.191242], [-8.633957, 41.190644], [-8.632526, 41.188624], [-8.625658, 41.186628], [-8.621132, 41.178994], [-8.613374, 41.177451], [-8.608583, 41.174095], [-8.609164, 41.172066], [-8.605845, 41.166228], [-8.602852, 41.164214], [-8.59422, 41.165149], [-8.589766, 41.167193], [-8.589194, 41.170572], [-8.585925, 41.17171], [-8.582979, 41.17656], [-8.591294, 41.182774], [-8.603125, 41.19813], [-8.609147, 41.213027], [-8.610629, 41.22204], [-8.607699, 41.240046], [-8.601932, 41.249034], [-8.590823, 41.258385], [-8.578849, 41.264171], [-8.56689, 41.267287], [-8.554941, 41.268848], [-8.531077, 41.266941], [-8.519162, 41.26364], [-8.506647, 41.257673], [-8.494672, 41.248613], [-8.486186, 41.237793], [-8.484411, 41.240495], [-8.476644, 41.237817], [-8.475756, 41.23917], [-8.471283, 41.239184], [-8.471604, 41.243459], [-8.469227, 41.245267], [-8.463258, 41.244384], [-8.459989, 41.246644], [-8.454323, 41.246886], [-8.455541, 41.251834], [-8.452276, 41.25522], [-8.449891, 41.255452], [-8.449304, 41.257479], [-8.447812, 41.257258], [-8.449028, 41.261982], [-8.439785, 41.262907], [-8.438023, 41.268989], [-8.434745, 41.269673], [-8.432691, 41.277107], [-8.427032, 41.279372], [-8.429143, 41.284319], [-8.426171, 41.287028], [-8.426488, 41.291079], [-8.425013, 41.294909], [-8.422037, 41.296942], [-8.422647, 41.299867], [-8.407744, 41.304856], [-8.406262, 41.307335], [-8.403277, 41.307342], [-8.401801, 41.311398], [-8.399712, 41.311628], [-8.400316, 41.313202], [-8.396738, 41.314336], [-8.398834, 41.315906], [-8.397054, 41.318612], [-8.393777, 41.32054], [-8.411123, 41.330015], [-8.422952, 41.343724], [-8.428215, 41.356395], [-8.427744, 41.374408], [-8.417988, 41.392374], [-8.407986, 41.401331], [-8.391318, 41.410251], [-8.374456, 41.415317], [-8.36248, 41.416349], [-8.350523, 41.415463], [-8.338591, 41.412126], [-8.326691, 41.405822], [-8.314856, 41.3936], [-8.309465, 41.382766], [-8.307386, 41.364739], [-8.312322, 41.346753], [-8.318584, 41.337404], [-8.312604, 41.334983], [-8.313794, 41.333405], [-8.310792, 41.327557], [-8.308701, 41.327561], [-8.307502, 41.325762], [-8.305116, 41.326891], [-8.303024, 41.325994], [-8.303615, 41.323742], [-8.301216, 41.319694], [-8.296431, 41.316774], [-8.297618, 41.313846], [-8.295817, 41.310022], [-8.281801, 41.316569], [-8.281808, 41.319721], [-8.278828, 41.321976], [-8.278238, 41.325128], [-8.273161, 41.325134], [-8.269582, 41.326939], [-8.265709, 41.331221], [-8.269004, 41.336169], [-8.265723, 41.33789], [-8.272922, 41.355519], [-8.277477, 41.373562], [-8.279364, 41.418612], [-8.294595, 41.481758], [-8.301729, 41.502398], [-8.327111, 41.545005], [-8.330811, 41.554034], [-8.331506, 41.563045], [-8.328582, 41.572035], [-8.321342, 41.581], [-8.300726, 41.595492], [-8.276612, 41.605916], [-8.264599, 41.60698], [-8.252625, 41.604654], [-8.204868, 41.584618], [-8.180946, 41.578989], [-8.156968, 41.577942], [-8.120918, 41.582533], [-8.099161, 41.588481], [-8.086015, 41.597384], [-8.08781, 41.606406], [-8.096808, 41.615484], [-8.08089, 41.624365], [-8.074762, 41.633323], [-8.077566, 41.642353], [-8.08368, 41.651409], [-8.095814, 41.662123], [-8.10775, 41.667577], [-8.131716, 41.671914], [-8.167755, 41.671951], [-8.179798, 41.66957], [-8.228029, 41.654534], [-8.240061, 41.652642], [-8.252059, 41.653597], [-8.26309, 41.661706], [-8.268059, 41.670745], [-8.27042, 41.679767], [-8.270312, 41.688773], [-8.267279, 41.697761], [-8.237944, 41.733598], [-8.232826, 41.742571], [-8.230436, 41.751562], [-8.231751, 41.769585], [-8.235613, 41.778618], [-8.242899, 41.788885], [-8.245546, 41.785731], [-8.251257, 41.784375], [-8.251845, 41.777172], [-8.256049, 41.774241], [-8.261762, 41.774235], [-8.271366, 41.766346], [-8.280681, 41.764083], [-8.284036, 41.760406], [-8.274917, 41.757034], [-8.271199, 41.751828], [-8.275095, 41.741206], [-8.287157, 41.737961], [-8.299498, 41.742997], [-8.301393, 41.752016], [-8.294166, 41.757719], [-8.305674, 41.758152], [-8.311096, 41.762195], [-8.318308, 41.761283], [-8.325233, 41.765098], [-8.328234, 41.763292], [-8.336653, 41.763728], [-8.341756, 41.761468], [-8.344765, 41.762363], [-8.349267, 41.760103], [-8.352557, 41.755145], [-8.349814, 41.744122], [-8.352516, 41.743441], [-8.352203, 41.739616], [-8.357897, 41.735103], [-8.362407, 41.735994], [-8.368703, 41.73193], [-8.374122, 41.734845], [-8.384922, 41.73032], [-8.387032, 41.731891], [-8.393033, 41.729852], [-8.396942, 41.730518], [-8.400531, 41.726683], [-8.402934, 41.726452], [-8.404721, 41.722847], [-8.417349, 41.725067], [-8.422737, 41.720552], [-8.429643, 41.719859], [-8.430533, 41.717381], [-8.435927, 41.714441], [-8.441632, 41.713975], [-8.4446, 41.70654], [-8.453868, 41.697961], [-8.453255, 41.695487], [-8.461659, 41.694563], [-8.467939, 41.689593], [-8.478124, 41.685061], [-8.482012, 41.682123], [-8.484371, 41.674238], [-8.493378, 41.674539]], [[-8.39585, 41.688403], [-8.383799, 41.692062], [-8.371777, 41.692568], [-8.359794, 41.689138], [-8.348441, 41.680236], [-8.343967, 41.671203], [-8.344095, 41.662197], [-8.348877, 41.653217], [-8.360235, 41.644691], [-8.372275, 41.64132], [-8.384277, 41.641944], [-8.396243, 41.646442], [-8.405787, 41.653525], [-8.412639, 41.662567], [-8.413929, 41.671581], [-8.408617, 41.680561], [-8.39585, 41.688403]], [[-8.15589, 41.660657], [-8.143852, 41.662663], [-8.131847, 41.662201], [-8.119874, 41.65939], [-8.105484, 41.65158], [-8.0983, 41.642517], [-8.098631, 41.633513], [-8.1177, 41.606639], [-8.12063, 41.603779], [-8.132698, 41.598704], [-8.144713, 41.597593], [-8.156696, 41.598777], [-8.168646, 41.602661], [-8.176145, 41.607073], [-8.185171, 41.616144], [-8.188774, 41.625177], [-8.188463, 41.634182], [-8.184193, 41.643159], [-8.175141, 41.652101], [-8.15589, 41.660657]], [[-8.50215, 41.509866], [-8.499725, 41.518863], [-8.493271, 41.523616], [-8.481271, 41.525378], [-8.467918, 41.51872], [-8.465747, 41.509703], [-8.469455, 41.504639], [-8.481489, 41.498111], [-8.493456, 41.499945], [-8.50215, 41.509866]], [[-8.349679, 41.500064], [-8.33769, 41.500831], [-8.324476, 41.490945], [-8.325928, 41.479614], [-8.337983, 41.472053], [-8.349946, 41.473319], [-8.359109, 41.482136], [-8.359292, 41.491144], [-8.349679, 41.500064]], [[-8.70917, 41.4888], [-8.705949, 41.492553], [-8.697151, 41.497285], [-8.685154, 41.500549], [-8.673172, 41.500711], [-8.661204, 41.498164], [-8.648455, 41.492392], [-8.638842, 41.483354], [-8.635227, 41.474336], [-8.637433, 41.463835], [-8.642985, 41.456345], [-8.649476, 41.451062], [-8.661474, 41.446307], [-8.673454, 41.444617], [-8.691211, 41.447477], [-8.697372, 41.449692], [-8.707539, 41.456527], [-8.7142, 41.465551], [-8.716019, 41.474563], [-8.713673, 41.483565], [-8.70917, 41.4888]]], [[[-8.486076, 41.237563], [-8.486076, 41.237563], [-8.485968, 41.237339], [-8.486076, 41.237563]]], [[[-7.888953, 41.81725], [-7.891586, 41.811841], [-7.888522, 41.802804], [-7.877279, 41.796293], [-7.86525, 41.795931], [-7.853128, 41.800716], [-7.845748, 41.811389], [-7.848771, 41.820426], [-7.852718, 41.823685], [-7.864676, 41.828409], [-7.87674, 41.827156], [-7.886686, 41.8208], [-7.888953, 41.81725]]], [[[-7.728496, 41.811007], [-7.744611, 41.810189], [-7.756722, 41.806438], [-7.765099, 41.801544], [-7.772622, 41.792618], [-7.77463, 41.783632], [-7.772472, 41.774602], [-7.765879, 41.765525], [-7.757638, 41.759009], [-7.747484, 41.754612], [-7.743866, 41.756509], [-7.740214, 41.763924], [-7.726937, 41.771755], [-7.725406, 41.776252], [-7.727191, 41.779184], [-7.724177, 41.780299], [-7.725372, 41.781653], [-7.722296, 41.792446], [-7.728879, 41.797871], [-7.72705, 41.801691], [-7.728496, 41.811007]]], [[[-7.961529, 41.796526], [-7.963837, 41.794502], [-7.9635, 41.785492], [-7.949801, 41.777631], [-7.937772, 41.77739], [-7.922067, 41.78511], [-7.920945, 41.794107], [-7.935637, 41.803251], [-7.949379, 41.803478], [-7.961529, 41.796526]]], [[[-8.178877, 41.742021], [-8.166881, 41.739731], [-8.1641, 41.742092], [-8.166775, 41.747857], [-8.178877, 41.742021]]], [[[-8.146229, 41.482388], [-8.148542, 41.471763], [-8.144464, 41.462725], [-8.134625, 41.454259], [-8.122712, 41.44988], [-8.110744, 41.44957], [-8.098718, 41.453493], [-8.088424, 41.462294], [-8.085098, 41.471275], [-8.087005, 41.480298], [-8.094596, 41.489365], [-8.098199, 41.490921], [-8.110123, 41.495014], [-8.122092, 41.495852], [-8.141144, 41.489722], [-8.146229, 41.482388]]]]}}, {"id": "6", "type": "Feature", "properties": {"fill": "#ef6d48", "value_min": 0.73, "value_max": 0.8}, "geometry": {"type": "MultiPolygon", "coordinates": [[[[-8.493378, 41.674539], [-8.499963, 41.671038], [-8.50927, 41.671233], [-8.51018, 41.672806], [-8.511967, 41.670324], [-8.509856, 41.668755], [-8.512252, 41.667847], [-8.514629, 41.663788], [-8.522103, 41.658811], [-8.525706, 41.659023], [-8.527769, 41.652714], [-8.534066, 41.652017], [-8.537951, 41.649302], [-8.537634, 41.646602], [-8.543876, 41.637352], [-8.543855, 41.633976], [-8.536342, 41.631977], [-8.535128, 41.62973], [-8.543431, 41.61462], [-8.554533, 41.615255], [-8.557244, 41.617046], [-8.562639, 41.61635], [-8.568056, 41.619031], [-8.570735, 41.616095], [-8.577321, 41.614269], [-8.581231, 41.615829], [-8.585766, 41.620988], [-8.591462, 41.620515], [-8.596534, 41.616668], [-8.601628, 41.615972], [-8.603996, 41.611686], [-8.613256, 41.606696], [-8.619881, 41.610269], [-8.621338, 41.604636], [-8.628833, 41.604378], [-8.636302, 41.600744], [-8.64075, 41.594422], [-8.645536, 41.593051], [-8.646744, 41.594171], [-8.649125, 41.591909], [-8.656622, 41.5921], [-8.660788, 41.588255], [-8.663794, 41.589141], [-8.665265, 41.585758], [-8.66948, 41.587989], [-8.684455, 41.586117], [-8.685608, 41.58071], [-8.697261, 41.576376], [-8.701703, 41.570277], [-8.707704, 41.570923], [-8.712485, 41.569323], [-8.716422, 41.573805], [-8.720316, 41.57356], [-8.725151, 41.577811], [-8.726633, 41.576003], [-8.734424, 41.575737], [-8.736564, 41.580228], [-8.738354, 41.579318], [-8.740778, 41.582006], [-8.74467, 41.581535], [-8.750711, 41.58623], [-8.756374, 41.582823], [-8.75635, 41.580347], [-8.762327, 41.578514], [-8.764443, 41.580303], [-8.767441, 41.580286], [-8.769874, 41.583874], [-8.768997, 41.58613], [-8.773228, 41.589482], [-8.775371, 41.593972], [-8.78556, 41.593464], [-8.797327, 41.600599], [-8.804218, 41.600109], [-8.80456, 41.604158], [-8.809434, 41.611332], [-8.828644, 41.609656], [-8.82839, 41.585633], [-8.821576, 41.567535], [-8.821665, 41.561358], [-8.818823, 41.554405], [-8.78084, 41.549621], [-8.75688, 41.544223], [-8.720958, 41.533403], [-8.673103, 41.514449], [-8.629184, 41.492331], [-8.61574, 41.48328], [-8.608182, 41.474247], [-8.606149, 41.465232], [-8.608839, 41.438219], [-8.614911, 41.420224], [-8.627687, 41.411259], [-8.661713, 41.400149], [-8.676602, 41.393392], [-8.688197, 41.384416], [-8.693595, 41.375423], [-8.69418, 41.366417], [-8.691011, 41.357401], [-8.68433, 41.348375], [-8.673983, 41.338668], [-8.650158, 41.324031], [-8.63823, 41.320284], [-8.62629, 41.318776], [-8.614337, 41.319609], [-8.602371, 41.322475], [-8.585434, 41.330046], [-8.57313, 41.339008], [-8.564918, 41.347985], [-8.54728, 41.37494], [-8.542223, 41.380162], [-8.50133, 41.410781], [-8.469945, 41.444426], [-8.446016, 41.442875], [-8.422056, 41.445027], [-8.410049, 41.448952], [-8.400328, 41.455336], [-8.393388, 41.464307], [-8.390816, 41.473301], [-8.392263, 41.491323], [-8.397582, 41.502477], [-8.409501, 41.509342], [-8.421483, 41.509494], [-8.433492, 41.506455], [-8.445543, 41.498479], [-8.460029, 41.482654], [-8.469777, 41.465151], [-8.481812, 41.457525], [-8.49374, 41.463424], [-8.517564, 41.480289], [-8.532625, 41.491979], [-8.539898, 41.501016], [-8.542703, 41.510035], [-8.541217, 41.528044], [-8.537793, 41.537037], [-8.529059, 41.546986], [-8.504996, 41.557792], [-8.495737, 41.563882], [-8.480844, 41.578816], [-8.4743, 41.581801], [-8.468809, 41.583633], [-8.420785, 41.587736], [-8.408742, 41.592729], [-8.402168, 41.599463], [-8.400293, 41.608461], [-8.401986, 41.617477], [-8.413144, 41.635549], [-8.422826, 41.644605], [-8.444172, 41.658519], [-8.493378, 41.674539]], [[-8.636877, 41.563437], [-8.624881, 41.563879], [-8.6129, 41.561835], [-8.600942, 41.556195], [-8.589021, 41.54502], [-8.584452, 41.537215], [-8.582706, 41.528202], [-8.584357, 41.5192], [-8.590592, 41.510215], [-8.601266, 41.503512], [-8.613261, 41.501282], [-8.625236, 41.502366], [-8.637196, 41.506302], [-8.657011, 41.51944], [-8.663088, 41.528465], [-8.665199, 41.537479], [-8.660935, 41.54966], [-8.648889, 41.559851], [-8.636877, 41.563437]]], [[[-8.242899, 41.788885], [-8.235613, 41.778618], [-8.231751, 41.769585], [-8.230436, 41.751562], [-8.232826, 41.742571], [-8.237944, 41.733598], [-8.267279, 41.697761], [-8.270312, 41.688773], [-8.27042, 41.679767], [-8.268059, 41.670745], [-8.26309, 41.661706], [-8.252059, 41.653597], [-8.240061, 41.652642], [-8.228029, 41.654534], [-8.179798, 41.66957], [-8.167755, 41.671951], [-8.131716, 41.671914], [-8.10775, 41.667577], [-8.095814, 41.662123], [-8.08368, 41.651409], [-8.077566, 41.642353], [-8.074762, 41.633323], [-8.08089, 41.624365], [-8.096808, 41.615484], [-8.08781, 41.606406], [-8.086015, 41.597384], [-8.099161, 41.588481], [-8.120918, 41.582533], [-8.156968, 41.577942], [-8.180946, 41.578989], [-8.204868, 41.584618], [-8.252625, 41.604654], [-8.264599, 41.60698], [-8.276612, 41.605916], [-8.300726, 41.595492], [-8.321342, 41.581], [-8.328582, 41.572035], [-8.331506, 41.563045], [-8.330811, 41.554034], [-8.327111, 41.545005], [-8.301729, 41.502398], [-8.294595, 41.481758], [-8.279364, 41.418612], [-8.277477, 41.373562], [-8.272922, 41.355519], [-8.265723, 41.33789], [-8.262751, 41.345405], [-8.256483, 41.347663], [-8.255889, 41.349689], [-8.249622, 41.353072], [-8.251123, 41.356897], [-8.248141, 41.360052], [-8.248448, 41.364328], [-8.245461, 41.364781], [-8.244272, 41.368384], [-8.239197, 41.371315], [-8.232024, 41.369971], [-8.224854, 41.370878], [-8.21738, 41.368182], [-8.214399, 41.373587], [-8.208127, 41.376968], [-8.199163, 41.377423], [-8.194677, 41.374275], [-8.191691, 41.376302], [-8.189299, 41.375403], [-8.184818, 41.376756], [-8.168382, 41.377438], [-8.164499, 41.38059], [-8.152544, 41.375866], [-8.151049, 41.37339], [-8.145073, 41.374742], [-8.139694, 41.377894], [-8.133418, 41.374292], [-8.125051, 41.375193], [-8.119672, 41.376768], [-8.119672, 41.378569], [-8.116683, 41.380144], [-8.117877, 41.385771], [-8.113992, 41.386896], [-8.112795, 41.390723], [-8.110105, 41.390947], [-8.108011, 41.393648], [-8.103827, 41.392972], [-8.105321, 41.394998], [-8.10263, 41.396123], [-8.10801, 41.398825], [-8.108606, 41.403102], [-8.104419, 41.406252], [-8.104119, 41.408728], [-8.101727, 41.409403], [-8.102025, 41.411204], [-8.092756, 41.411201], [-8.09126, 41.414352], [-8.079893, 41.41975], [-8.077503, 41.416597], [-8.070923, 41.41862], [-8.066739, 41.416142], [-8.061654, 41.417489], [-8.059852, 41.424916], [-8.055959, 41.429415], [-8.05745, 41.432793], [-8.056549, 41.436394], [-8.069999, 41.447206], [-8.068788, 41.462286], [-8.073872, 41.46499], [-8.074164, 41.473543], [-8.066374, 41.482318], [-8.066069, 41.48817], [-8.072054, 41.490199], [-8.07175, 41.494925], [-8.074443, 41.496691], [-8.074655, 41.496728], [-8.074742, 41.496743], [-8.148689, 41.507793], [-8.168909, 41.516948], [-8.174311, 41.525995], [-8.163333, 41.54393], [-8.145263, 41.555839], [-8.129807, 41.561695], [-8.109153, 41.565742], [-8.081467, 41.565157], [-8.080377, 41.565001], [-8.079883, 41.564931], [-8.056684, 41.579549], [-8.052181, 41.584498], [-8.052777, 41.587649], [-8.037169, 41.600242], [-8.031467, 41.602938], [-8.02367, 41.603156], [-8.019174, 41.601802], [-8.015872, 41.603824], [-8.013474, 41.603372], [-8.005971, 41.60629], [-8.003562, 41.611239], [-7.99936, 41.61281], [-7.998462, 41.612359], [-7.999669, 41.608759], [-7.996976, 41.605829], [-7.996684, 41.602003], [-7.984685, 41.603564], [-7.982292, 41.60086], [-7.975689, 41.603552], [-7.974482, 41.606701], [-7.970882, 41.607147], [-7.969091, 41.603768], [-7.965796, 41.602413], [-7.9541, 41.602846], [-7.952606, 41.600592], [-7.947808, 41.60081], [-7.945413, 41.599456], [-7.942725, 41.595625], [-7.936132, 41.594488], [-7.93791, 41.601694], [-7.937004, 41.603718], [-7.931604, 41.604384], [-7.930979, 41.612711], [-7.925556, 41.620354], [-7.920755, 41.620796], [-7.917748, 41.623041], [-7.915933, 41.627764], [-7.913229, 41.628885], [-7.912613, 41.63361], [-7.906014, 41.633147], [-7.906884, 41.641927], [-7.897869, 41.645511], [-7.89696, 41.647985], [-7.892759, 41.647976], [-7.892145, 41.651576], [-7.901724, 41.658573], [-7.899903, 41.664169], [-7.927922, 41.646191], [-7.956675, 41.632312], [-7.976263, 41.626688], [-7.988294, 41.625004], [-8.012288, 41.625964], [-8.024247, 41.628968], [-8.036168, 41.634626], [-8.048032, 41.644323], [-8.053185, 41.651161], [-8.056149, 41.660193], [-8.057911, 41.678221], [-8.065672, 41.687292], [-8.083247, 41.701285], [-8.095207, 41.705477], [-8.107224, 41.705639], [-8.119288, 41.702389], [-8.131477, 41.689689], [-8.143512, 41.688329], [-8.15549, 41.691254], [-8.164434, 41.697059], [-8.16953, 41.706103], [-8.167654, 41.715097], [-8.158946, 41.72404], [-8.115061, 41.750732], [-8.102501, 41.768648], [-8.083578, 41.810493], [-8.091013, 41.812521], [-8.093421, 41.811397], [-8.093723, 41.808471], [-8.095829, 41.808471], [-8.104853, 41.81185], [-8.117188, 41.812302], [-8.123807, 41.808702], [-8.138247, 41.808477], [-8.139751, 41.813203], [-8.14276, 41.812978], [-8.144866, 41.815228], [-8.149078, 41.814777], [-8.153291, 41.817703], [-8.158106, 41.818377], [-8.165326, 41.81815], [-8.173744, 41.808019], [-8.177655, 41.808242], [-8.183676, 41.812741], [-8.190291, 41.809587], [-8.197158, 41.814129], [-8.201063, 41.808724], [-8.204973, 41.807372], [-8.205872, 41.804445], [-8.213692, 41.803765], [-8.217598, 41.80016], [-8.217589, 41.793634], [-8.224207, 41.794303], [-8.229917, 41.791598], [-8.240744, 41.791588], [-8.24074, 41.789338], [-8.242899, 41.788885]], [[-8.178877, 41.742021], [-8.166775, 41.747857], [-8.1641, 41.742092], [-8.166881, 41.739731], [-8.178877, 41.742021]], [[-8.241367, 41.541166], [-8.229389, 41.540299], [-8.212747, 41.535271], [-8.196788, 41.526154], [-8.189739, 41.517097], [-8.191071, 41.508099], [-8.20159, 41.490158], [-8.218143, 41.478564], [-8.230159, 41.475335], [-8.242137, 41.47521], [-8.254081, 41.478036], [-8.265981, 41.484925], [-8.277099, 41.499665], [-8.279396, 41.508686], [-8.27757, 41.519965], [-8.273877, 41.526666], [-8.265423, 41.534275], [-8.253375, 41.539523], [-8.241367, 41.541166]], [[-8.146229, 41.482388], [-8.141144, 41.489722], [-8.122092, 41.495852], [-8.110123, 41.495014], [-8.098199, 41.490921], [-8.094596, 41.489365], [-8.087005, 41.480298], [-8.085098, 41.471275], [-8.088424, 41.462294], [-8.098718, 41.453493], [-8.110744, 41.44957], [-8.122712, 41.44988], [-8.134625, 41.454259], [-8.144464, 41.462725], [-8.148542, 41.471763], [-8.146229, 41.482388]], [[-8.218244, 41.382183], [-8.219319, 41.380472], [-8.225416, 41.382231], [-8.219287, 41.383165], [-8.218244, 41.382183]]], [[[-7.885774, 41.855481], [-7.904736, 41.82998], [-7.913814, 41.82106], [-7.925104, 41.815452], [-7.961296, 41.810956], [-7.989294, 41.803735], [-7.996913, 41.794795], [-7.995619, 41.785777], [-7.989024, 41.776712], [-7.962296, 41.748924], [-7.950402, 41.740748], [-7.938439, 41.736943], [-7.902281, 41.741793], [-7.890293, 41.739587], [-7.872119, 41.73059], [-7.868785, 41.72155], [-7.879144, 41.689185], [-7.886713, 41.67669], [-7.894183, 41.668715], [-7.888171, 41.670925], [-7.883969, 41.67069], [-7.879755, 41.673607], [-7.877044, 41.676077], [-7.876723, 41.681253], [-7.873401, 41.686198], [-7.868896, 41.686413], [-7.868008, 41.68326], [-7.864403, 41.683701], [-7.864096, 41.685276], [-7.858987, 41.68639], [-7.857773, 41.689538], [-7.854776, 41.68818], [-7.847538, 41.695365], [-7.837912, 41.698942], [-7.835792, 41.702763], [-7.839682, 41.705924], [-7.838465, 41.709522], [-7.832453, 41.710407], [-7.825252, 41.708813], [-7.818621, 41.713522], [-7.815291, 41.718689], [-7.808986, 41.717996], [-7.808396, 41.715744], [-7.804499, 41.714158], [-7.79939, 41.714593], [-7.79788, 41.716164], [-7.796383, 41.71526], [-7.790966, 41.717044], [-7.789449, 41.719966], [-7.78464, 41.720402], [-7.78252, 41.723546], [-7.776204, 41.724652], [-7.773786, 41.727346], [-7.770798, 41.72441], [-7.765698, 41.723044], [-7.761765, 41.727758], [-7.762933, 41.733839], [-7.759307, 41.737203], [-7.759597, 41.739005], [-7.75689, 41.739446], [-7.758687, 41.740577], [-7.757758, 41.745301], [-7.748417, 41.749321], [-7.747484, 41.754612], [-7.757638, 41.759009], [-7.765879, 41.765525], [-7.772472, 41.774602], [-7.77463, 41.783632], [-7.772622, 41.792618], [-7.765099, 41.801544], [-7.756722, 41.806438], [-7.744611, 41.810189], [-7.728496, 41.811007], [-7.728761, 41.816776], [-7.732041, 41.821514], [-7.74345, 41.825605], [-7.738918, 41.82874], [-7.742196, 41.833928], [-7.74729, 41.837772], [-7.746349, 41.84407], [-7.750246, 41.846784], [-7.750532, 41.849261], [-7.743309, 41.849012], [-7.746901, 41.8524], [-7.746881, 41.855776], [-7.73843, 41.859348], [-7.734159, 41.868337], [-7.730228, 41.871024], [-7.729293, 41.875972], [-7.722351, 41.878424], [-7.720523, 41.881793], [-7.725335, 41.882935], [-7.726208, 41.887665], [-7.737044, 41.888828], [-7.737935, 41.890857], [-7.74246, 41.889747], [-7.742785, 41.885922], [-7.756022, 41.888441], [-7.758719, 41.890926], [-7.756592, 41.89407], [-7.758376, 41.898127], [-7.764097, 41.898595], [-7.779227, 41.886264], [-7.785257, 41.885157], [-7.788886, 41.882467], [-7.794007, 41.882257], [-7.796739, 41.878214], [-7.794349, 41.87438], [-7.797064, 41.873488], [-7.803381, 41.874857], [-7.804914, 41.869459], [-7.813032, 41.871958], [-7.814229, 41.873537], [-7.823863, 41.874013], [-7.825059, 41.875817], [-7.830479, 41.875831], [-7.830789, 41.874031], [-7.832894, 41.874712], [-7.83772, 41.872924], [-7.842528, 41.875187], [-7.841663, 41.866632], [-7.849515, 41.861475], [-7.858542, 41.862622], [-7.859456, 41.860148], [-7.864877, 41.859711], [-7.87033, 41.851395], [-7.873043, 41.850501], [-7.873066, 41.844875], [-7.879056, 41.85254], [-7.885774, 41.855481]], [[-7.888953, 41.81725], [-7.886686, 41.8208], [-7.87674, 41.827156], [-7.864676, 41.828409], [-7.852718, 41.823685], [-7.848771, 41.820426], [-7.845748, 41.811389], [-7.853128, 41.800716], [-7.86525, 41.795931], [-7.877279, 41.796293], [-7.888522, 41.802804], [-7.891586, 41.811841], [-7.888953, 41.81725]], [[-7.961529, 41.796526], [-7.949379, 41.803478], [-7.935637, 41.803251], [-7.920945, 41.794107], [-7.922067, 41.78511], [-7.937772, 41.77739], [-7.949801, 41.777631], [-7.9635, 41.785492], [-7.963837, 41.794502], [-7.961529, 41.796526]]], [[[-8.634046, 41.191319], [-8.639954, 41.213128], [-8.650657, 41.230502], [-8.662541, 41.239945], [-8.674452, 41.244421], [-8.698316, 41.245503], [-8.737388, 41.240415], [-8.777348, 41.231491], [-8.802788, 41.222849], [-8.799695, 41.14406], [-8.674793, 41.146932], [-8.674849, 41.153767], [-8.672489, 41.15648], [-8.66117, 41.156307], [-8.662078, 41.158104], [-8.660313, 41.160813], [-8.657033, 41.160378], [-8.654961, 41.161963], [-8.653231, 41.169174], [-8.655366, 41.175467], [-8.647955, 41.180228], [-8.647696, 41.185181], [-8.641225, 41.196014], [-8.638841, 41.196025], [-8.634046, 41.191319]], [[-8.684141, 41.20425], [-8.680875, 41.195233], [-8.686646, 41.190186], [-8.698561, 41.192336], [-8.701118, 41.195287], [-8.698507, 41.203908], [-8.686573, 41.205517], [-8.684141, 41.20425]]], [[[-8.633957, 41.190644], [-8.633957, 41.190644], [-8.634036, 41.191242], [-8.633957, 41.190644]]]]}}, {"id": "7", "type": "Feature", "properties": {"fill": "#e85c3f", "value_min": 0.8, "value_max": 0.87}, "geometry": {"type": "MultiPolygon", "coordinates": [[[[-8.083578, 41.810493], [-8.102501, 41.768648], [-8.115061, 41.750732], [-8.158946, 41.72404], [-8.167654, 41.715097], [-8.16953, 41.706103], [-8.164434, 41.697059], [-8.15549, 41.691254], [-8.143512, 41.688329], [-8.131477, 41.689689], [-8.119288, 41.702389], [-8.107224, 41.705639], [-8.095207, 41.705477], [-8.083247, 41.701285], [-8.065672, 41.687292], [-8.057911, 41.678221], [-8.056149, 41.660193], [-8.053185, 41.651161], [-8.048032, 41.644323], [-8.036168, 41.634626], [-8.024247, 41.628968], [-8.012288, 41.625964], [-7.988294, 41.625004], [-7.976263, 41.626688], [-7.956675, 41.632312], [-7.927922, 41.646191], [-7.899903, 41.664169], [-7.897186, 41.668467], [-7.894183, 41.668715], [-7.886713, 41.67669], [-7.879144, 41.689185], [-7.868785, 41.72155], [-7.872119, 41.73059], [-7.890293, 41.739587], [-7.902281, 41.741793], [-7.938439, 41.736943], [-7.950402, 41.740748], [-7.962296, 41.748924], [-7.989024, 41.776712], [-7.995619, 41.785777], [-7.996913, 41.794795], [-7.989294, 41.803735], [-7.961296, 41.810956], [-7.925104, 41.815452], [-7.913814, 41.82106], [-7.904736, 41.82998], [-7.885774, 41.855481], [-7.898893, 41.86136], [-7.902203, 41.861591], [-7.904318, 41.859795], [-7.907309, 41.865203], [-7.906095, 41.868126], [-7.910299, 41.871285], [-7.909985, 41.875111], [-7.91479, 41.879171], [-7.928044, 41.87807], [-7.935282, 41.874816], [-7.922288, 41.866173], [-7.916462, 41.857112], [-7.914911, 41.84809], [-7.916696, 41.839101], [-7.922849, 41.830152], [-7.937032, 41.82218], [-7.94911, 41.819903], [-7.961149, 41.820027], [-7.973149, 41.822561], [-7.985094, 41.828647], [-7.988311, 41.830747], [-7.994529, 41.839808], [-7.995799, 41.848826], [-7.994389, 41.854761], [-7.996765, 41.851162], [-8.003089, 41.850494], [-8.005804, 41.847346], [-8.007928, 41.838796], [-8.012753, 41.833624], [-8.013363, 41.829124], [-8.017873, 41.831379], [-8.02901, 41.829589], [-8.037134, 41.831171], [-8.041351, 41.828023], [-8.041054, 41.825097], [-8.045268, 41.824425], [-8.046775, 41.821951], [-8.056712, 41.81588], [-8.06664, 41.817012], [-8.072961, 41.813414], [-8.078678, 41.813417], [-8.083578, 41.810493]], [[-8.010218, 41.76117], [-7.99825, 41.75718], [-7.987871, 41.749681], [-7.980273, 41.740607], [-7.977402, 41.731575], [-7.978571, 41.722578], [-7.986923, 41.7125], [-7.999031, 41.706889], [-8.011063, 41.706082], [-8.02305, 41.708229], [-8.034967, 41.715085], [-8.043613, 41.723138], [-8.046962, 41.732173], [-8.047207, 41.741182], [-8.043204, 41.750156], [-8.034334, 41.757358], [-8.022243, 41.761413], [-8.010218, 41.76117]], [[-8.131042, 41.722029], [-8.122782, 41.714763], [-8.12676, 41.705786], [-8.131312, 41.70198], [-8.143338, 41.701427], [-8.149701, 41.705958], [-8.149474, 41.714964], [-8.143089, 41.720151], [-8.131042, 41.722029]], [[-8.01857, 41.659878], [-8.023837, 41.656156], [-8.029063, 41.659967], [-8.023717, 41.664088], [-8.01857, 41.659878]]], [[[-7.994349, 41.854926], [-7.994349, 41.854926], [-7.994282, 41.855211], [-7.994349, 41.854926]]], [[[-7.994045, 41.856205], [-7.993254, 41.85836], [-7.995547, 41.858138], [-7.994045, 41.856205]]], [[[-7.989212, 41.863763], [-7.984457, 41.868922], [-7.973008, 41.875215], [-7.987996, 41.869157], [-7.989212, 41.863763]]], [[[-8.081467, 41.565157], [-8.109153, 41.565742], [-8.129807, 41.561695], [-8.145263, 41.555839], [-8.163333, 41.54393], [-8.174311, 41.525995], [-8.168909, 41.516948], [-8.148689, 41.507793], [-8.074742, 41.496743], [-8.078332, 41.500331], [-8.092402, 41.504163], [-8.0921, 41.508057], [-8.10994, 41.508336], [-8.121881, 41.511405], [-8.132834, 41.516682], [-8.139695, 41.525741], [-8.139161, 41.534744], [-8.132138, 41.543699], [-8.121361, 41.549862], [-8.109333, 41.552631], [-8.097342, 41.552596], [-8.082787, 41.548315], [-8.080687, 41.551651], [-8.074396, 41.549848], [-8.072897, 41.551197], [-8.076188, 41.557276], [-8.080082, 41.558854], [-8.081467, 41.565157]]], [[[-8.074655, 41.496728], [-8.074655, 41.496728], [-8.074443, 41.496691], [-8.074655, 41.496728]]], [[[-8.079883, 41.564931], [-8.079883, 41.564931], [-8.080377, 41.565001], [-8.079883, 41.564931]]], [[[-8.082719, 41.548276], [-8.082719, 41.548276], [-8.082488, 41.548144], [-8.082719, 41.548276]]], [[[-8.636877, 41.563437], [-8.648889, 41.559851], [-8.660935, 41.54966], [-8.665199, 41.537479], [-8.663088, 41.528465], [-8.657011, 41.51944], [-8.637196, 41.506302], [-8.625236, 41.502366], [-8.613261, 41.501282], [-8.601266, 41.503512], [-8.590592, 41.510215], [-8.584357, 41.5192], [-8.582706, 41.528202], [-8.584452, 41.537215], [-8.589021, 41.54502], [-8.600942, 41.556195], [-8.6129, 41.561835], [-8.624881, 41.563879], [-8.636877, 41.563437]], [[-8.62501, 41.541505], [-8.613038, 41.53866], [-8.605423, 41.528282], [-8.608293, 41.519284], [-8.613174, 41.515869], [-8.62517, 41.513817], [-8.638638, 41.519384], [-8.642276, 41.528402], [-8.63702, 41.537826], [-8.62501, 41.541505]]], [[[-8.241367, 41.541166], [-8.253375, 41.539523], [-8.265423, 41.534275], [-8.273877, 41.526666], [-8.27757, 41.519965], [-8.279396, 41.508686], [-8.277099, 41.499665], [-8.265981, 41.484925], [-8.254081, 41.478036], [-8.242137, 41.47521], [-8.230159, 41.475335], [-8.218143, 41.478564], [-8.20159, 41.490158], [-8.191071, 41.508099], [-8.189739, 41.517097], [-8.196788, 41.526154], [-8.212747, 41.535271], [-8.229389, 41.540299], [-8.241367, 41.541166]], [[-8.241654, 41.516651], [-8.232454, 41.508383], [-8.241858, 41.499107], [-8.253767, 41.50545], [-8.255193, 41.508532], [-8.253701, 41.511181], [-8.241654, 41.516651]]], [[[-8.218244, 41.382183], [-8.219287, 41.383165], [-8.225416, 41.382231], [-8.219319, 41.380472], [-8.218244, 41.382183]]], [[[-8.684141, 41.20425], [-8.686573, 41.205517], [-8.698507, 41.203908], [-8.701118, 41.195287], [-8.698561, 41.192336], [-8.686646, 41.190186], [-8.680875, 41.195233], [-8.684141, 41.20425]]]]}}, {"id": "2", "type": "Feature", "properties": {"fill": "#fffebe", "value_min": 0.47, "value_max": 0.53}, "geometry": {"type": "Polygon", "coordinates": [[[-8.144016, 41.650247], [-8.156554, 41.642959], [-8.160782, 41.633983], [-8.156369, 41.623908], [-8.144455, 41.617092], [-8.132455, 41.616906], [-8.118775, 41.624662], [-8.113441, 41.633628], [-8.115646, 41.642652], [-8.12005, 41.646484], [-8.131997, 41.65104], [-8.144016, 41.650247]], [[-8.132053, 41.646818], [-8.123314, 41.642711], [-8.1188, 41.633669], [-8.127416, 41.624728], [-8.132386, 41.622058], [-8.144369, 41.62358], [-8.152489, 41.633922], [-8.147755, 41.642894], [-8.144085, 41.645041], [-8.132053, 41.646818]]]}}, {"id": "1", "type": "Feature", "properties": {"fill": "#eef8a7", "value_min": 0.4, "value_max": 0.47}, "geometry": {"type": "Polygon", "coordinates": [[[-8.132053, 41.646818], [-8.144085, 41.645041], [-8.147755, 41.642894], [-8.152489, 41.633922], [-8.144369, 41.62358], [-8.132386, 41.622058], [-8.127416, 41.624728], [-8.1188, 41.633669], [-8.123314, 41.642711], [-8.132053, 41.646818]], [[-8.132113, 41.642352], [-8.125716, 41.633722], [-8.132307, 41.627941], [-8.145159, 41.633868], [-8.132113, 41.642352]]]}}, {"id": "0", "type": "Feature", "properties": {"fill": "#ddf190", "value_min": 0.33, "value_max": 0.4}, "geometry": {"type": "Polygon", "coordinates": [[[-8.132113, 41.642352], [-8.145159, 41.633868], [-8.132307, 41.627941], [-8.125716, 41.633722], [-8.132113, 41.642352]]]}}, {"id": "9", "type": "Feature", "properties": {"fill": "#da382b", "value_min": 0.93, "value_max": 1.0}, "geometry": {"type": "MultiPolygon", "coordinates": [[[[-7.96055, 41.857039], [-7.971123, 41.848608], [-7.972402, 41.839612], [-7.964957, 41.830539], [-7.948991, 41.827196], [-7.938108, 41.830294], [-7.930488, 41.83923], [-7.931578, 41.848247], [-7.936505, 41.854012], [-7.948477, 41.858588], [-7.96055, 41.857039]]], [[[-8.029116, 41.732024], [-8.022802, 41.724587], [-8.010848, 41.720097], [-7.99877, 41.723714], [-7.992857, 41.731711], [-7.995461, 41.740741], [-7.998462, 41.743566], [-8.010418, 41.748127], [-8.022487, 41.74534], [-8.027515, 41.741017], [-8.029116, 41.732024]]], [[[-8.103764, 41.541808], [-8.109478, 41.542041], [-8.121552, 41.535764], [-8.124608, 41.525627], [-8.115019, 41.516546], [-8.109852, 41.514803], [-8.097869, 41.514718], [-8.092715, 41.516372], [-8.089697, 41.519187], [-8.089638, 41.519243], [-8.089398, 41.519467], [-8.090594, 41.522169], [-8.093588, 41.52307], [-8.091786, 41.531848], [-8.103764, 41.541808]]]]}}, {"id": "8", "type": "Feature", "properties": {"fill": "#e14a35", "value_min": 0.87, "value_max": 0.93}, "geometry": {"type": "MultiPolygon", "coordinates": [[[[-7.973008, 41.875215], [-7.984457, 41.868922], [-7.989212, 41.863763], [-7.990123, 41.860157], [-7.993254, 41.85836], [-7.994045, 41.856205], [-7.994282, 41.855211], [-7.994349, 41.854926], [-7.994389, 41.854761], [-7.995799, 41.848826], [-7.994529, 41.839808], [-7.988311, 41.830747], [-7.985094, 41.828647], [-7.973149, 41.822561], [-7.961149, 41.820027], [-7.94911, 41.819903], [-7.937032, 41.82218], [-7.922849, 41.830152], [-7.916696, 41.839101], [-7.914911, 41.84809], [-7.916462, 41.857112], [-7.922288, 41.866173], [-7.935282, 41.874816], [-7.937389, 41.87516], [-7.94222, 41.870892], [-7.951254, 41.871132], [-7.956367, 41.87339], [-7.956362, 41.875191], [-7.960878, 41.875648], [-7.962086, 41.874074], [-7.973008, 41.875215]], [[-7.96055, 41.857039], [-7.948477, 41.858588], [-7.936505, 41.854012], [-7.931578, 41.848247], [-7.930488, 41.83923], [-7.938108, 41.830294], [-7.948991, 41.827196], [-7.964957, 41.830539], [-7.972402, 41.839612], [-7.971123, 41.848608], [-7.96055, 41.857039]]], [[[-8.010218, 41.76117], [-8.022243, 41.761413], [-8.034334, 41.757358], [-8.043204, 41.750156], [-8.047207, 41.741182], [-8.046962, 41.732173], [-8.043613, 41.723138], [-8.034967, 41.715085], [-8.02305, 41.708229], [-8.011063, 41.706082], [-7.999031, 41.706889], [-7.986923, 41.7125], [-7.978571, 41.722578], [-7.977402, 41.731575], [-7.980273, 41.740607], [-7.987871, 41.749681], [-7.99825, 41.75718], [-8.010218, 41.76117]], [[-8.029116, 41.732024], [-8.027515, 41.741017], [-8.022487, 41.74534], [-8.010418, 41.748127], [-7.998462, 41.743566], [-7.995461, 41.740741], [-7.992857, 41.731711], [-7.99877, 41.723714], [-8.010848, 41.720097], [-8.022802, 41.724587], [-8.029116, 41.732024]]], [[[-8.131042, 41.722029], [-8.143089, 41.720151], [-8.149474, 41.714964], [-8.149701, 41.705958], [-8.143338, 41.701427], [-8.131312, 41.70198], [-8.12676, 41.705786], [-8.122782, 41.714763], [-8.131042, 41.722029]]], [[[-8.01857, 41.659878], [-8.023717, 41.664088], [-8.029063, 41.659967], [-8.023837, 41.656156], [-8.01857, 41.659878]]], [[[-8.082787, 41.548315], [-8.097342, 41.552596], [-8.109333, 41.552631], [-8.121361, 41.549862], [-8.132138, 41.543699], [-8.139161, 41.534744], [-8.139695, 41.525741], [-8.132834, 41.516682], [-8.121881, 41.511405], [-8.10994, 41.508336], [-8.0921, 41.508057], [-8.089697, 41.519187], [-8.092715, 41.516372], [-8.097869, 41.514718], [-8.109852, 41.514803], [-8.115019, 41.516546], [-8.124608, 41.525627], [-8.121552, 41.535764], [-8.109478, 41.542041], [-8.103764, 41.541808], [-8.106759, 41.543557], [-8.101666, 41.542655], [-8.094175, 41.544904], [-8.087885, 41.542876], [-8.083389, 41.5449], [-8.082488, 41.548144], [-8.082719, 41.548276], [-8.082787, 41.548315]]], [[[-8.089398, 41.519467], [-8.089398, 41.519467], [-8.089638, 41.519243], [-8.089398, 41.519467]]], [[[-8.62501, 41.541505], [-8.63702, 41.537826], [-8.642276, 41.528402], [-8.638638, 41.519384], [-8.62517, 41.513817], [-8.613174, 41.515869], [-8.608293, 41.519284], [-8.605423, 41.528282], [-8.613038, 41.53866], [-8.62501, 41.541505]]], [[[-8.241654, 41.516651], [-8.253701, 41.511181], [-8.255193, 41.508532], [-8.253767, 41.50545], [-8.241858, 41.499107], [-8.232454, 41.508383], [-8.241654, 41.516651]]]]}}]}