{"type": "FeatureCollection", "features": [{"id": "7", "type": "Feature", "properties": {"fill": "#fecb90", "value_min": 0.53, "value_max": -0.6}, "geometry": {"type": "MultiPolygon", "coordinates": [[[[-7.727352, 41.80154], [-7.732724, 41.80249], [-7.74537, 41.80133], [-7.760428, 41.792487], [-7.76515, 41.783531], [-7.764975, 41.774522], [-7.759242, 41.765453], [-7.742955, 41.758022], [-7.743242, 41.760333], [-7.739619, 41.762796], [-7.740214, 41.763924], [-7.726937, 41.771755], [-7.7254, 41.777152], [-7.727191, 41.779184], [-7.724177, 41.780299], [-7.725372, 41.781653], [-7.722296, 41.792446], [-7.728879, 41.797871], [-7.727352, 41.80154]]], [[[-8.471233, 41.687823], [-8.455978, 41.682822], [-8.443973, 41.681676], [-8.431952, 41.682407], [-8.419914, 41.684914], [-8.384969, 41.698451], [-8.370015, 41.707377], [-8.362495, 41.716343], [-8.36036, 41.725338], [-8.36139, 41.735771], [-8.368703, 41.73193], [-8.374122, 41.734845], [-8.384922, 41.73032], [-8.387332, 41.73189], [-8.393183, 41.729851], [-8.390557, 41.725502], [-8.390674, 41.716496], [-8.397496, 41.707525], [-8.407741, 41.702128], [-8.419781, 41.699771], [-8.431784, 41.701463], [-8.443898, 41.708567], [-8.453868, 41.697961], [-8.453255, 41.695487], [-8.461659, 41.694563], [-8.471233, 41.687823]]], [[[-7.889683, 41.774999], [-7.900407, 41.766891], [-7.912207, 41.739983], [-7.927954, 41.722117], [-7.930739, 41.713136], [-7.928904, 41.704112], [-7.921434, 41.695035], [-7.915165, 41.690786], [-7.903191, 41.688281], [-7.891127, 41.691096], [-7.878875, 41.704681], [-7.866526, 41.723448], [-7.854432, 41.727486], [-7.830334, 41.730309], [-7.818258, 41.733129], [-7.807929, 41.738948], [-7.802653, 41.7479], [-7.803843, 41.75692], [-7.809886, 41.765989], [-7.824519, 41.775147], [-7.84147, 41.779687], [-7.85348, 41.780974], [-7.877582, 41.778961], [-7.889683, 41.774999]], [[-7.85357, 41.775948], [-7.841618, 41.771459], [-7.833974, 41.766236], [-7.830737, 41.757197], [-7.833569, 41.748219], [-7.842147, 41.74201], [-7.854247, 41.737865], [-7.866295, 41.736597], [-7.878274, 41.739206], [-7.889338, 41.748771], [-7.891264, 41.757797], [-7.887586, 41.766768], [-7.877679, 41.773378], [-7.869911, 41.775602], [-7.85357, 41.775948]]], [[[-8.198654, 41.751345], [-8.198832, 41.742339], [-8.193073, 41.733292], [-8.179096, 41.724865], [-8.167126, 41.720752], [-8.159953, 41.715041], [-8.155298, 41.705876], [-8.143372, 41.698847], [-8.131334, 41.700338], [-8.124517, 41.705769], [-8.120167, 41.714743], [-8.124644, 41.723784], [-8.135709, 41.732875], [-8.139071, 41.750914], [-8.142613, 41.755941], [-8.154513, 41.765751], [-8.166506, 41.768683], [-8.178546, 41.767958], [-8.190648, 41.762339], [-8.198654, 41.751345]]], [[[-8.070965, 41.719612], [-8.074604, 41.714385], [-8.073888, 41.705372], [-8.059351, 41.691627], [-8.047382, 41.688382], [-8.035343, 41.689969], [-8.027416, 41.695981], [-8.026235, 41.704978], [-8.032231, 41.714036], [-8.046866, 41.723331], [-8.058858, 41.725442], [-8.070965, 41.719612]], [[-8.047098, 41.707672], [-8.044994, 41.705136], [-8.04717, 41.702743], [-8.059174, 41.703803], [-8.060365, 41.705262], [-8.059124, 41.707231], [-8.047098, 41.707672]]], [[[-8.02388, 41.653342], [-8.014981, 41.659847], [-8.023679, 41.66662], [-8.032118, 41.659993], [-8.02388, 41.653342]]], [[[-8.156038, 41.64926], [-8.16404, 41.643014], [-8.167149, 41.634029], [-8.16506, 41.625007], [-8.153013, 41.615912], [-8.144505, 41.613322], [-8.132485, 41.614674], [-8.120388, 41.621636], [-8.117852, 41.624655], [-8.112774, 41.633623], [-8.114912, 41.642646], [-8.120041, 41.647094], [-8.131977, 41.652519], [-8.143975, 41.653344], [-8.156038, 41.64926]]], [[[-8.445473, 41.506651], [-8.473505, 41.482717], [-8.487246, 41.464764], [-8.491152, 41.455774], [-8.489873, 41.44676], [-8.474691, 41.437685], [-8.458069, 41.433078], [-8.434136, 41.432419], [-8.410148, 41.437993], [-8.394428, 41.446298], [-8.386258, 41.455262], [-8.382734, 41.46425], [-8.38265, 41.482265], [-8.387455, 41.500305], [-8.397504, 41.510817], [-8.409455, 41.514418], [-8.421441, 41.514169], [-8.433448, 41.511482], [-8.445473, 41.506651]], [[-8.421283, 41.50048], [-8.409612, 41.497154], [-8.402873, 41.491379], [-8.399314, 41.482353], [-8.400765, 41.473353], [-8.409922, 41.462991], [-8.421935, 41.45863], [-8.433905, 41.459016], [-8.445829, 41.464863], [-8.451997, 41.473609], [-8.451951, 41.482616], [-8.4461, 41.491595], [-8.433557, 41.499041], [-8.421283, 41.50048]]], [[[-8.697203, 41.486133], [-8.70006, 41.48353], [-8.70347, 41.474532], [-8.702272, 41.465521], [-8.697337, 41.457276], [-8.68541, 41.447565], [-8.673472, 41.440915], [-8.661511, 41.439064], [-8.649492, 41.448208], [-8.643196, 41.456346], [-8.639568, 41.465342], [-8.63969, 41.47435], [-8.644099, 41.483371], [-8.656963, 41.492417], [-8.673197, 41.495809], [-8.689004, 41.492509], [-8.697203, 41.486133]]], [[[-8.577499, 41.473171], [-8.588346, 41.46517], [-8.596352, 41.456191], [-8.60162, 41.445608], [-8.613647, 41.436369], [-8.625624, 41.435072], [-8.661518, 41.437726], [-8.673521, 41.431157], [-8.69755, 41.411411], [-8.70418, 41.402473], [-8.707707, 41.393475], [-8.707169, 41.375458], [-8.70347, 41.366441], [-8.689302, 41.348388], [-8.679267, 41.339353], [-8.662094, 41.32654], [-8.638271, 41.312832], [-8.626355, 41.307398], [-8.602492, 41.302587], [-8.590541, 41.30347], [-8.578573, 41.307036], [-8.566576, 41.314791], [-8.554532, 41.329017], [-8.549509, 41.338918], [-8.545479, 41.356918], [-8.549239, 41.401971], [-8.543234, 41.410955], [-8.516334, 41.42886], [-8.501502, 41.446811], [-8.505807, 41.451294], [-8.506807, 41.455842], [-8.515528, 41.464886], [-8.529266, 41.473951], [-8.541532, 41.47854], [-8.5535, 41.479904], [-8.565489, 41.478226], [-8.577499, 41.473171]], [[-8.625986, 41.371888], [-8.61835, 41.36619], [-8.617478, 41.35718], [-8.626111, 41.350019], [-8.638067, 41.349699], [-8.648029, 41.357277], [-8.647408, 41.366283], [-8.63794, 41.372553], [-8.625986, 41.371888]]], [[[-8.139694, 41.377698], [-8.147175, 41.390686], [-8.165008, 41.408831], [-8.182948, 41.419896], [-8.194852, 41.424902], [-8.218729, 41.429805], [-8.230697, 41.429791], [-8.254695, 41.424423], [-8.266739, 41.417597], [-8.27511, 41.409578], [-8.282952, 41.391612], [-8.283611, 41.373601], [-8.280175, 41.355564], [-8.267476, 41.329868], [-8.265711, 41.332121], [-8.269004, 41.336169], [-8.263339, 41.340902], [-8.262751, 41.345405], [-8.256483, 41.347663], [-8.255889, 41.349689], [-8.249622, 41.353072], [-8.250445, 41.358023], [-8.256572, 41.364422], [-8.260453, 41.373454], [-8.260977, 41.382465], [-8.258001, 41.391454], [-8.249913, 41.400409], [-8.242956, 41.404771], [-8.230949, 41.408402], [-8.218979, 41.408886], [-8.207043, 41.406554], [-8.19515, 41.400802], [-8.185207, 41.390961], [-8.181259, 41.381926], [-8.181096, 41.376532], [-8.168382, 41.377438], [-8.1642, 41.38059], [-8.158223, 41.378791], [-8.150152, 41.37339], [-8.139694, 41.377698]]], [[[-8.580645, 41.192215], [-8.603395, 41.231023], [-8.614881, 41.24007], [-8.626715, 41.244178], [-8.63864, 41.245949], [-8.662508, 41.246201], [-8.686388, 41.244223], [-8.734162, 41.235391], [-8.748569, 41.231432], [-8.771404, 41.222472], [-8.787616, 41.213495], [-8.801949, 41.201475], [-8.799695, 41.14406], [-8.67527, 41.147484], [-8.676193, 41.146567], [-8.674793, 41.146932], [-8.674204, 41.147693], [-8.674849, 41.153767], [-8.672489, 41.15648], [-8.66117, 41.156307], [-8.662078, 41.158104], [-8.660313, 41.160813], [-8.657033, 41.160378], [-8.654961, 41.161963], [-8.653231, 41.169174], [-8.655366, 41.175467], [-8.647955, 41.180228], [-8.647696, 41.185181], [-8.640929, 41.196241], [-8.634946, 41.193341], [-8.632526, 41.188624], [-8.625658, 41.186628], [-8.621132, 41.178994], [-8.613374, 41.177451], [-8.608583, 41.174095], [-8.609164, 41.172066], [-8.605845, 41.166228], [-8.602852, 41.164214], [-8.59422, 41.165149], [-8.589766, 41.167193], [-8.589194, 41.170572], [-8.583263, 41.174422], [-8.582094, 41.177803], [-8.578825, 41.178941], [-8.580327, 41.180736], [-8.580645, 41.192215]], [[-8.686544, 41.211568], [-8.672658, 41.204218], [-8.670514, 41.195204], [-8.675562, 41.18621], [-8.686686, 41.181655], [-8.698605, 41.182632], [-8.704969, 41.186289], [-8.710478, 41.194137], [-8.707764, 41.204312], [-8.698478, 41.210222], [-8.686544, 41.211568]]]]}}, {"id": "8", "type": "Feature", "properties": {"fill": "#fc9863", "value_min": 0.6, "value_max": -0.67}, "geometry": {"type": "MultiPolygon", "coordinates": [[[[-7.85357, 41.775948], [-7.869911, 41.775602], [-7.877679, 41.773378], [-7.887586, 41.766768], [-7.891264, 41.757797], [-7.889338, 41.748771], [-7.878274, 41.739206], [-7.866295, 41.736597], [-7.854247, 41.737865], [-7.842147, 41.74201], [-7.833569, 41.748219], [-7.830737, 41.757197], [-7.833974, 41.766236], [-7.841618, 41.771459], [-7.85357, 41.775948]], [[-7.86568, 41.771507], [-7.853676, 41.769945], [-7.847067, 41.766368], [-7.843269, 41.757323], [-7.849596, 41.74838], [-7.854102, 41.746053], [-7.866156, 41.744501], [-7.876208, 41.748644], [-7.88242, 41.757711], [-7.878229, 41.766677], [-7.86568, 41.771507]]], [[[-8.443898, 41.708567], [-8.431784, 41.701463], [-8.419781, 41.699771], [-8.407741, 41.702128], [-8.397496, 41.707525], [-8.390674, 41.716496], [-8.390557, 41.725502], [-8.393183, 41.729851], [-8.398141, 41.72984], [-8.400531, 41.726683], [-8.402934, 41.726452], [-8.404721, 41.722847], [-8.417349, 41.725067], [-8.422737, 41.720552], [-8.429643, 41.719859], [-8.430533, 41.717381], [-8.435927, 41.714441], [-8.441333, 41.714201], [-8.443898, 41.708567]]], [[[-8.047098, 41.707672], [-8.059124, 41.707231], [-8.060365, 41.705262], [-8.059174, 41.703803], [-8.04717, 41.702743], [-8.044994, 41.705136], [-8.047098, 41.707672]]], [[[-8.421283, 41.50048], [-8.433557, 41.499041], [-8.4461, 41.491595], [-8.451951, 41.482616], [-8.451997, 41.473609], [-8.445829, 41.464863], [-8.433905, 41.459016], [-8.421935, 41.45863], [-8.409922, 41.462991], [-8.400765, 41.473353], [-8.399314, 41.482353], [-8.402873, 41.491379], [-8.409612, 41.497154], [-8.421283, 41.50048]], [[-8.421673, 41.488148], [-8.416051, 41.482439], [-8.421797, 41.474186], [-8.433746, 41.477365], [-8.436175, 41.48254], [-8.433674, 41.485645], [-8.421673, 41.488148]]], [[[-8.181096, 41.376532], [-8.181259, 41.381926], [-8.185207, 41.390961], [-8.19515, 41.400802], [-8.207043, 41.406554], [-8.218979, 41.408886], [-8.230949, 41.408402], [-8.242956, 41.404771], [-8.249913, 41.400409], [-8.258001, 41.391454], [-8.260977, 41.382465], [-8.260453, 41.373454], [-8.256572, 41.364422], [-8.250445, 41.358023], [-8.248141, 41.360052], [-8.248448, 41.364328], [-8.245461, 41.364781], [-8.244272, 41.368384], [-8.239197, 41.371315], [-8.232024, 41.369971], [-8.224854, 41.370878], [-8.21738, 41.368182], [-8.214399, 41.373587], [-8.208127, 41.376968], [-8.199163, 41.377423], [-8.194976, 41.374275], [-8.191691, 41.376302], [-8.189299, 41.375403], [-8.181096, 41.376532]], [[-8.219209, 41.389711], [-8.211294, 41.382135], [-8.215904, 41.373159], [-8.219428, 41.371355], [-8.231373, 41.372489], [-8.23593, 41.382302], [-8.231189, 41.388066], [-8.219209, 41.389711]]], [[[-8.625986, 41.371888], [-8.63794, 41.372553], [-8.647408, 41.366283], [-8.648029, 41.357277], [-8.638067, 41.349699], [-8.626111, 41.350019], [-8.617478, 41.35718], [-8.61835, 41.36619], [-8.625986, 41.371888]]], [[[-8.686544, 41.211568], [-8.698478, 41.210222], [-8.707764, 41.204312], [-8.710478, 41.194137], [-8.704969, 41.186289], [-8.698605, 41.182632], [-8.686686, 41.181655], [-8.675562, 41.18621], [-8.670514, 41.195204], [-8.672658, 41.204218], [-8.686544, 41.211568]]]]}}, {"id": "6", "type": "Feature", "properties": {"fill": "#fffebe", "value_min": 0.47, "value_max": -0.53}, "geometry": {"type": "Polygon", "coordinates": [[[-8.471233, 41.687823], [-8.475731, 41.686644], [-8.482012, 41.682123], [-8.484371, 41.674238], [-8.49308, 41.674886], [-8.499963, 41.671038], [-8.50927, 41.671233], [-8.51018, 41.672806], [-8.511967, 41.670324], [-8.509856, 41.668755], [-8.522103, 41.658811], [-8.525706, 41.659023], [-8.527769, 41.652714], [-8.534066, 41.652017], [-8.537355, 41.64998], [-8.537634, 41.646602], [-8.543876, 41.637352], [-8.543855, 41.633976], [-8.536342, 41.631977], [-8.535128, 41.62973], [-8.543431, 41.61462], [-8.554533, 41.615255], [-8.557244, 41.617046], [-8.562639, 41.61635], [-8.568056, 41.619031], [-8.570735, 41.616095], [-8.577321, 41.614269], [-8.581231, 41.615829], [-8.585766, 41.620988], [-8.591462, 41.620515], [-8.596534, 41.616668], [-8.601628, 41.615972], [-8.603996, 41.611686], [-8.613256, 41.606696], [-8.619881, 41.610269], [-8.621338, 41.604636], [-8.628833, 41.604378], [-8.636302, 41.600744], [-8.64075, 41.594422], [-8.645536, 41.593051], [-8.646744, 41.594171], [-8.649125, 41.591909], [-8.656622, 41.5921], [-8.660788, 41.588255], [-8.663794, 41.589141], [-8.665265, 41.585758], [-8.66948, 41.587989], [-8.684455, 41.586117], [-8.685608, 41.58071], [-8.697261, 41.576376], [-8.701703, 41.570277], [-8.707704, 41.570923], [-8.712485, 41.569323], [-8.716422, 41.573805], [-8.720316, 41.57356], [-8.725151, 41.577811], [-8.726633, 41.576003], [-8.734424, 41.575737], [-8.736564, 41.580228], [-8.738354, 41.579318], [-8.740778, 41.582006], [-8.74467, 41.581535], [-8.750711, 41.58623], [-8.756374, 41.582823], [-8.75635, 41.580347], [-8.762327, 41.578514], [-8.764443, 41.580303], [-8.767441, 41.580286], [-8.769874, 41.583874], [-8.768997, 41.58613], [-8.773228, 41.589482], [-8.775371, 41.593972], [-8.78556, 41.593464], [-8.797327, 41.600599], [-8.804218, 41.600109], [-8.80456, 41.604158], [-8.809434, 41.611332], [-8.828644, 41.609656], [-8.82839, 41.585633], [-8.818497, 41.554794], [-8.8221, 41.547542], [-8.821965, 41.534907], [-8.815926, 41.525624], [-8.81063, 41.5101], [-8.813279, 41.503483], [-8.812636, 41.496944], [-8.804699, 41.482068], [-8.798552, 41.474753], [-8.80154, 41.446836], [-8.806115, 41.43713], [-8.807354, 41.425915], [-8.811211, 41.415789], [-8.801949, 41.201475], [-8.787616, 41.213495], [-8.771404, 41.222472], [-8.748569, 41.231432], [-8.734162, 41.235391], [-8.686388, 41.244223], [-8.662508, 41.246201], [-8.63864, 41.245949], [-8.626715, 41.244178], [-8.614881, 41.24007], [-8.603395, 41.231023], [-8.580645, 41.192215], [-8.575958, 41.195609], [-8.576894, 41.201908], [-8.574515, 41.202593], [-8.57423, 41.20462], [-8.567971, 41.204644], [-8.565895, 41.206227], [-8.567697, 41.208246], [-8.566512, 41.209376], [-8.559636, 41.206251], [-8.554271, 41.20627], [-8.549521, 41.209214], [-8.544157, 41.209458], [-8.54238, 41.211265], [-8.532257, 41.213102], [-8.52713, 41.203215], [-8.523236, 41.200077], [-8.51163, 41.203042], [-8.510456, 41.206197], [-8.506583, 41.206435], [-8.504239, 41.213646], [-8.500076, 41.21546], [-8.50308, 41.219502], [-8.502204, 41.222656], [-8.495642, 41.222227], [-8.495947, 41.223351], [-8.490894, 41.226294], [-8.487935, 41.230354], [-8.490331, 41.232373], [-8.489156, 41.235528], [-8.486181, 41.236888], [-8.484411, 41.240495], [-8.476346, 41.237818], [-8.475756, 41.23917], [-8.470986, 41.23941], [-8.471604, 41.243459], [-8.469227, 41.245267], [-8.463258, 41.244384], [-8.459989, 41.246644], [-8.454323, 41.246886], [-8.455541, 41.251834], [-8.452276, 41.25522], [-8.449891, 41.255452], [-8.449304, 41.257479], [-8.447812, 41.257258], [-8.449028, 41.261982], [-8.439785, 41.262907], [-8.438023, 41.268989], [-8.434745, 41.269673], [-8.432691, 41.277107], [-8.427032, 41.279372], [-8.429143, 41.284319], [-8.426171, 41.287028], [-8.426488, 41.291079], [-8.425013, 41.294909], [-8.422037, 41.296942], [-8.422647, 41.299867], [-8.407744, 41.304856], [-8.406262, 41.307335], [-8.403277, 41.307342], [-8.401801, 41.311398], [-8.399712, 41.311628], [-8.400316, 41.313202], [-8.396738, 41.314336], [-8.398835, 41.316131], [-8.393778, 41.320751], [-8.411117, 41.330733], [-8.422943, 41.344752], [-8.427828, 41.356393], [-8.427394, 41.374406], [-8.417075, 41.392369], [-8.40652, 41.401323], [-8.389451, 41.410241], [-8.374457, 41.41522], [-8.350507, 41.417087], [-8.338564, 41.414818], [-8.326665, 41.408431], [-8.319194, 41.400839], [-8.313731, 41.391799], [-8.309329, 41.373758], [-8.310974, 41.355753], [-8.319632, 41.337672], [-8.312604, 41.334983], [-8.313794, 41.333405], [-8.310792, 41.327557], [-8.308701, 41.327561], [-8.307502, 41.325762], [-8.305116, 41.326891], [-8.303024, 41.325994], [-8.303615, 41.323742], [-8.301216, 41.319694], [-8.296431, 41.316774], [-8.297618, 41.313846], [-8.296116, 41.310022], [-8.281801, 41.316569], [-8.279132, 41.324451], [-8.272266, 41.32536], [-8.267476, 41.329868], [-8.280175, 41.355564], [-8.283611, 41.373601], [-8.282952, 41.391612], [-8.27511, 41.409578], [-8.266739, 41.417597], [-8.254695, 41.424423], [-8.230697, 41.429791], [-8.218729, 41.429805], [-8.194852, 41.424902], [-8.182948, 41.419896], [-8.165008, 41.408831], [-8.147175, 41.390686], [-8.139694, 41.377698], [-8.133418, 41.374292], [-8.119672, 41.376768], [-8.119672, 41.378569], [-8.116683, 41.380144], [-8.117578, 41.386447], [-8.113992, 41.386896], [-8.112795, 41.390723], [-8.110105, 41.390947], [-8.108011, 41.393648], [-8.103827, 41.392972], [-8.105321, 41.394998], [-8.10263, 41.396123], [-8.10801, 41.398825], [-8.108606, 41.403102], [-8.104419, 41.406252], [-8.104119, 41.408728], [-8.101727, 41.409403], [-8.102025, 41.411204], [-8.092756, 41.411201], [-8.09126, 41.414352], [-8.079893, 41.41975], [-8.077503, 41.416597], [-8.070923, 41.41862], [-8.066739, 41.416142], [-8.061953, 41.417264], [-8.056503, 41.429866], [-8.075177, 41.424977], [-8.099119, 41.424478], [-8.122993, 41.429015], [-8.134906, 41.433124], [-8.157838, 41.444809], [-8.170412, 41.453908], [-8.188253, 41.47205], [-8.194148, 41.481866], [-8.206016, 41.490825], [-8.230045, 41.484943], [-8.242035, 41.483948], [-8.253994, 41.485625], [-8.265911, 41.49109], [-8.27406, 41.499645], [-8.275936, 41.508665], [-8.27319, 41.517655], [-8.265521, 41.525597], [-8.253469, 41.531375], [-8.241464, 41.532867], [-8.229496, 41.531278], [-8.217565, 41.526595], [-8.205679, 41.518425], [-8.193754, 41.513591], [-8.166102, 41.525935], [-8.145587, 41.53129], [-8.133609, 41.530609], [-8.109806, 41.518158], [-8.097825, 41.517902], [-8.090295, 41.520791], [-8.093588, 41.52307], [-8.09209, 41.524645], [-8.092385, 41.532749], [-8.106759, 41.543557], [-8.101666, 41.542655], [-8.094175, 41.544904], [-8.087885, 41.542876], [-8.083389, 41.5449], [-8.080687, 41.551651], [-8.074097, 41.549848], [-8.073494, 41.553449], [-8.075891, 41.554575], [-8.076188, 41.557276], [-8.079783, 41.558403], [-8.081576, 41.565157], [-8.078879, 41.56493], [-8.075279, 41.568305], [-8.073182, 41.568079], [-8.069283, 41.570553], [-8.068081, 41.573478], [-8.056684, 41.579549], [-8.052181, 41.584498], [-8.052777, 41.587649], [-8.048277, 41.590122], [-8.047974, 41.592373], [-8.044072, 41.595521], [-8.031467, 41.602938], [-8.02367, 41.603156], [-8.019174, 41.601802], [-8.015872, 41.603824], [-8.010473, 41.604494], [-8.005671, 41.606515], [-8.003262, 41.611464], [-7.998761, 41.612809], [-7.999669, 41.608759], [-7.996976, 41.605829], [-7.996684, 41.602003], [-7.984685, 41.603564], [-7.982292, 41.60086], [-7.975689, 41.603552], [-7.974482, 41.606701], [-7.970882, 41.607147], [-7.969091, 41.603768], [-7.965796, 41.602413], [-7.9541, 41.602846], [-7.952606, 41.600592], [-7.947808, 41.60081], [-7.945413, 41.599456], [-7.942725, 41.595625], [-7.936132, 41.594488], [-7.93791, 41.601694], [-7.937004, 41.603718], [-7.931604, 41.604384], [-7.930979, 41.612711], [-7.925556, 41.620354], [-7.920755, 41.620796], [-7.917748, 41.623041], [-7.915933, 41.627764], [-7.913229, 41.628885], [-7.912613, 41.63361], [-7.906014, 41.633147], [-7.906884, 41.641927], [-7.897869, 41.645511], [-7.89696, 41.647985], [-7.892759, 41.647976], [-7.892145, 41.651576], [-7.902319, 41.659925], [-7.899913, 41.66127], [-7.900198, 41.665547], [-7.898396, 41.665769], [-7.897186, 41.668467], [-7.892682, 41.668683], [-7.892377, 41.670033], [-7.888171, 41.670925], [-7.883969, 41.67069], [-7.880358, 41.673159], [-7.877044, 41.676077], [-7.876723, 41.681253], [-7.873401, 41.686198], [-7.868896, 41.686413], [-7.868008, 41.68326], [-7.864403, 41.683701], [-7.864096, 41.685276], [-7.858987, 41.68639], [-7.857773, 41.689538], [-7.854776, 41.68818], [-7.847538, 41.695365], [-7.837912, 41.698942], [-7.835792, 41.702763], [-7.839682, 41.705924], [-7.838465, 41.709522], [-7.832453, 41.710407], [-7.825252, 41.708813], [-7.818621, 41.713522], [-7.815291, 41.718689], [-7.808986, 41.717996], [-7.808396, 41.715744], [-7.804499, 41.714158], [-7.79939, 41.714593], [-7.79788, 41.716164], [-7.796383, 41.71526], [-7.790966, 41.717044], [-7.789449, 41.719966], [-7.78464, 41.720402], [-7.78252, 41.723546], [-7.776204, 41.724652], [-7.773786, 41.727346], [-7.770798, 41.72441], [-7.765698, 41.723044], [-7.761765, 41.727758], [-7.762933, 41.733839], [-7.759307, 41.737203], [-7.759597, 41.739005], [-7.75689, 41.739446], [-7.758687, 41.740577], [-7.757758, 41.745301], [-7.748417, 41.749321], [-7.747786, 41.754496], [-7.742955, 41.758022], [-7.759242, 41.765453], [-7.764975, 41.774522], [-7.76515, 41.783531], [-7.760428, 41.792487], [-7.74537, 41.80133], [-7.732724, 41.80249], [-7.727352, 41.80154], [-7.728761, 41.816776], [-7.732041, 41.821514], [-7.734743, 41.822568], [-7.76859, 41.815329], [-7.779595, 41.810705], [-7.805096, 41.794462], [-7.817209, 41.79029], [-7.841339, 41.78697], [-7.901578, 41.783025], [-7.913558, 41.786222], [-7.925376, 41.799158], [-7.937294, 41.806352], [-7.949313, 41.807532], [-7.972645, 41.803587], [-7.985552, 41.799645], [-7.997591, 41.799533], [-8.009565, 41.803569], [-8.021495, 41.810623], [-8.039687, 41.829147], [-8.041351, 41.828023], [-8.041054, 41.825097], [-8.045268, 41.824425], [-8.046775, 41.821951], [-8.056712, 41.81588], [-8.06664, 41.817012], [-8.072961, 41.813414], [-8.078678, 41.813417], [-8.082892, 41.810493], [-8.091013, 41.812521], [-8.093421, 41.811397], [-8.093723, 41.808471], [-8.101845, 41.809824], [-8.104853, 41.81185], [-8.115984, 41.812302], [-8.123807, 41.808702], [-8.138247, 41.808477], [-8.139751, 41.813203], [-8.14276, 41.812978], [-8.144866, 41.815228], [-8.149078, 41.814777], [-8.153291, 41.817703], [-8.158106, 41.818377], [-8.165326, 41.81815], [-8.173744, 41.808019], [-8.177655, 41.808242], [-8.183676, 41.812741], [-8.190291, 41.809587], [-8.197158, 41.814129], [-8.201063, 41.808724], [-8.204973, 41.807372], [-8.205872, 41.804445], [-8.213692, 41.803765], [-8.217598, 41.80016], [-8.217589, 41.793634], [-8.224207, 41.794303], [-8.229917, 41.791598], [-8.240744, 41.791588], [-8.24074, 41.789338], [-8.244347, 41.787984], [-8.245546, 41.785731], [-8.251257, 41.784375], [-8.251845, 41.777172], [-8.257551, 41.773564], [-8.261762, 41.774235], [-8.271366, 41.766346], [-8.280681, 41.764083], [-8.284038, 41.761109], [-8.284931, 41.757507], [-8.305674, 41.758152], [-8.311096, 41.762195], [-8.318308, 41.761283], [-8.325233, 41.765098], [-8.328234, 41.763292], [-8.336653, 41.763728], [-8.341756, 41.761468], [-8.344765, 41.762363], [-8.349267, 41.760103], [-8.352557, 41.755145], [-8.34982, 41.745922], [-8.349814, 41.744122], [-8.352516, 41.743441], [-8.352203, 41.739616], [-8.357897, 41.735103], [-8.36139, 41.735771], [-8.36036, 41.725338], [-8.362495, 41.716343], [-8.370015, 41.707377], [-8.384969, 41.698451], [-8.419914, 41.684914], [-8.431952, 41.682407], [-8.443973, 41.681676], [-8.455978, 41.682822], [-8.471233, 41.687823]], [[-7.889683, 41.774999], [-7.877582, 41.778961], [-7.85348, 41.780974], [-7.84147, 41.779687], [-7.824519, 41.775147], [-7.809886, 41.765989], [-7.803843, 41.75692], [-7.802653, 41.7479], [-7.807929, 41.738948], [-7.818258, 41.733129], [-7.830334, 41.730309], [-7.854432, 41.727486], [-7.866526, 41.723448], [-7.878875, 41.704681], [-7.891127, 41.691096], [-7.903191, 41.688281], [-7.915165, 41.690786], [-7.921434, 41.695035], [-7.928904, 41.704112], [-7.930739, 41.713136], [-7.927954, 41.722117], [-7.912207, 41.739983], [-7.900407, 41.766891], [-7.889683, 41.774999]], [[-7.949885, 41.772499], [-7.937864, 41.771855], [-7.928808, 41.76716], [-7.927318, 41.758139], [-7.93828, 41.746602], [-7.950348, 41.744076], [-7.962337, 41.74637], [-7.970078, 41.749523], [-7.974067, 41.758566], [-7.970359, 41.76754], [-7.961947, 41.770624], [-7.949885, 41.772499]], [[-8.198654, 41.751345], [-8.190648, 41.762339], [-8.178546, 41.767958], [-8.166506, 41.768683], [-8.154513, 41.765751], [-8.142613, 41.755941], [-8.139071, 41.750914], [-8.135709, 41.732875], [-8.124644, 41.723784], [-8.120167, 41.714743], [-8.124517, 41.705769], [-8.131334, 41.700338], [-8.143372, 41.698847], [-8.155298, 41.705876], [-8.159953, 41.715041], [-8.167126, 41.720752], [-8.179096, 41.724865], [-8.193073, 41.733292], [-8.198832, 41.742339], [-8.198654, 41.751345]], [[-8.010294, 41.756165], [-7.998282, 41.75515], [-7.988882, 41.74969], [-7.984184, 41.740642], [-7.986255, 41.731653], [-7.994913, 41.722723], [-7.998811, 41.721073], [-8.010847, 41.720158], [-8.022779, 41.726124], [-8.028354, 41.732017], [-8.029553, 41.741034], [-8.023663, 41.749991], [-8.010294, 41.756165]], [[-8.070965, 41.719612], [-8.058858, 41.725442], [-8.046866, 41.723331], [-8.032231, 41.714036], [-8.026235, 41.704978], [-8.027416, 41.695981], [-8.035343, 41.689969], [-8.047382, 41.688382], [-8.059351, 41.691627], [-8.073888, 41.705372], [-8.074604, 41.714385], [-8.070965, 41.719612]], [[-7.845909, 41.712316], [-7.8409, 41.703258], [-7.84288, 41.701198], [-7.854949, 41.698326], [-7.85978, 41.703447], [-7.856853, 41.712425], [-7.854676, 41.713729], [-7.845909, 41.712316]], [[-8.203449, 41.699932], [-8.201031, 41.69732], [-8.203551, 41.691692], [-8.215564, 41.691988], [-8.218493, 41.69744], [-8.215467, 41.699978], [-8.203449, 41.699932]], [[-8.083273, 41.699508], [-8.065711, 41.687292], [-8.059116, 41.678231], [-8.058413, 41.669218], [-8.062386, 41.660244], [-8.071969, 41.649767], [-8.084026, 41.64641], [-8.095982, 41.650154], [-8.107908, 41.65614], [-8.114739, 41.660659], [-8.123272, 41.669731], [-8.122334, 41.678731], [-8.113676, 41.687672], [-8.095284, 41.700005], [-8.083273, 41.699508]], [[-8.371879, 41.682167], [-8.365541, 41.680331], [-8.354104, 41.671261], [-8.352581, 41.662245], [-8.360171, 41.651157], [-8.37223, 41.646028], [-8.384237, 41.646128], [-8.398994, 41.65349], [-8.404537, 41.662526], [-8.402645, 41.671523], [-8.389467, 41.680461], [-8.383893, 41.682191], [-8.371879, 41.682167]], [[-8.02388, 41.653342], [-8.032118, 41.659993], [-8.023679, 41.66662], [-8.014981, 41.659847], [-8.02388, 41.653342]], [[-8.156038, 41.64926], [-8.143975, 41.653344], [-8.131977, 41.652519], [-8.120041, 41.647094], [-8.114912, 41.642646], [-8.112774, 41.633623], [-8.117852, 41.624655], [-8.120388, 41.621636], [-8.132485, 41.614674], [-8.144505, 41.613322], [-8.153013, 41.615912], [-8.16506, 41.625007], [-8.167149, 41.634029], [-8.16404, 41.643014], [-8.156038, 41.64926]], [[-8.074922, 41.624317], [-8.069202, 41.615264], [-8.073421, 41.606291], [-8.084665, 41.601248], [-8.096624, 41.604188], [-8.10128, 41.615519], [-8.096344, 41.624258], [-8.084281, 41.628346], [-8.074922, 41.624317]], [[-8.528621, 41.607222], [-8.516625, 41.606533], [-8.50465, 41.603122], [-8.485154, 41.590857], [-8.468881, 41.574834], [-8.44494, 41.568981], [-8.432998, 41.56306], [-8.425458, 41.554546], [-8.424221, 41.545532], [-8.428755, 41.536547], [-8.444032, 41.527615], [-8.457297, 41.525623], [-8.46926, 41.528477], [-8.493121, 41.542847], [-8.529071, 41.545255], [-8.541036, 41.548729], [-8.551932, 41.555108], [-8.560721, 41.564149], [-8.564209, 41.57317], [-8.564354, 41.582178], [-8.560948, 41.591172], [-8.551442, 41.600142], [-8.540636, 41.605206], [-8.528621, 41.607222]], [[-8.445473, 41.506651], [-8.433448, 41.511482], [-8.421441, 41.514169], [-8.409455, 41.514418], [-8.397504, 41.510817], [-8.387455, 41.500305], [-8.38265, 41.482265], [-8.382734, 41.46425], [-8.386258, 41.455262], [-8.394428, 41.446298], [-8.410148, 41.437993], [-8.434136, 41.432419], [-8.458069, 41.433078], [-8.474691, 41.437685], [-8.489873, 41.44676], [-8.491152, 41.455774], [-8.487246, 41.464764], [-8.473505, 41.482717], [-8.445473, 41.506651]], [[-8.337643, 41.505398], [-8.325685, 41.503073], [-8.319933, 41.499926], [-8.313874, 41.490882], [-8.314699, 41.48188], [-8.323352, 41.472924], [-8.338012, 41.469179], [-8.350855, 41.473082], [-8.358553, 41.482133], [-8.359191, 41.491144], [-8.349654, 41.502561], [-8.337643, 41.505398]], [[-8.697203, 41.486133], [-8.689004, 41.492509], [-8.673197, 41.495809], [-8.656963, 41.492417], [-8.644099, 41.483371], [-8.63969, 41.47435], [-8.639568, 41.465342], [-8.643196, 41.456346], [-8.649492, 41.448208], [-8.661511, 41.439064], [-8.673472, 41.440915], [-8.68541, 41.447565], [-8.697337, 41.457276], [-8.702272, 41.465521], [-8.70347, 41.474532], [-8.70006, 41.48353], [-8.697203, 41.486133]], [[-8.577499, 41.473171], [-8.565489, 41.478226], [-8.5535, 41.479904], [-8.541532, 41.47854], [-8.529266, 41.473951], [-8.515528, 41.464886], [-8.506807, 41.455842], [-8.505807, 41.451294], [-8.501502, 41.446811], [-8.516334, 41.42886], [-8.543234, 41.410955], [-8.549239, 41.401971], [-8.545479, 41.356918], [-8.549509, 41.338918], [-8.554532, 41.329017], [-8.566576, 41.314791], [-8.578573, 41.307036], [-8.590541, 41.30347], [-8.602492, 41.302587], [-8.626355, 41.307398], [-8.638271, 41.312832], [-8.662094, 41.32654], [-8.679267, 41.339353], [-8.689302, 41.348388], [-8.70347, 41.366441], [-8.707169, 41.375458], [-8.707707, 41.393475], [-8.70418, 41.402473], [-8.69755, 41.411411], [-8.673521, 41.431157], [-8.661518, 41.437726], [-8.625624, 41.435072], [-8.613647, 41.436369], [-8.60162, 41.445608], [-8.596352, 41.456191], [-8.588346, 41.46517], [-8.577499, 41.473171]], [[-8.733795, 41.325702], [-8.721843, 41.326258], [-8.709902, 41.32431], [-8.697975, 41.319466], [-8.688033, 41.312354], [-8.681078, 41.303327], [-8.678775, 41.294313], [-8.680791, 41.285311], [-8.688513, 41.276324], [-8.698199, 41.270918], [-8.710154, 41.267407], [-8.722097, 41.26653], [-8.73403, 41.267771], [-8.745954, 41.27173], [-8.754513, 41.276484], [-8.762913, 41.285509], [-8.765995, 41.294523], [-8.765145, 41.303529], [-8.759928, 41.312526], [-8.747678, 41.321508], [-8.733795, 41.325702]]]}}, {"id": "9", "type": "Feature", "properties": {"fill": "#f77f52", "value_min": 0.67, "value_max": -0.73}, "geometry": {"type": "MultiPolygon", "coordinates": [[[[-7.86568, 41.771507], [-7.878229, 41.766677], [-7.88242, 41.757711], [-7.876208, 41.748644], [-7.866156, 41.744501], [-7.854102, 41.746053], [-7.849596, 41.74838], [-7.843269, 41.757323], [-7.847067, 41.766368], [-7.853676, 41.769945], [-7.86568, 41.771507]], [[-7.85388, 41.758487], [-7.853911, 41.756755], [-7.866019, 41.752291], [-7.872553, 41.757615], [-7.865773, 41.766215], [-7.85388, 41.758487]]], [[[-8.421673, 41.488148], [-8.433674, 41.485645], [-8.436175, 41.48254], [-8.433746, 41.477365], [-8.421797, 41.474186], [-8.416051, 41.482439], [-8.421673, 41.488148]]], [[[-8.219209, 41.389711], [-8.231189, 41.388066], [-8.23593, 41.382302], [-8.231373, 41.372489], [-8.219428, 41.371355], [-8.215904, 41.373159], [-8.211294, 41.382135], [-8.219209, 41.389711]]]]}}, {"id": "5", "type": "Feature", "properties": {"fill": "#eef8a7", "value_min": 0.4, "value_max": -0.47}, "geometry": {"type": "MultiPolygon", "coordinates": [[[[-8.039687, 41.829147], [-8.021495, 41.810623], [-8.009565, 41.803569], [-7.997591, 41.799533], [-7.985552, 41.799645], [-7.972645, 41.803587], [-7.949313, 41.807532], [-7.937294, 41.806352], [-7.925376, 41.799158], [-7.913558, 41.786222], [-7.901578, 41.783025], [-7.841339, 41.78697], [-7.817209, 41.79029], [-7.805096, 41.794462], [-7.779595, 41.810705], [-7.76859, 41.815329], [-7.734743, 41.822568], [-7.74345, 41.825605], [-7.738918, 41.82874], [-7.742196, 41.833928], [-7.74729, 41.837772], [-7.745767, 41.84067], [-7.756099, 41.838629], [-7.768135, 41.839059], [-7.797829, 41.846924], [-7.804064, 41.849968], [-7.813472, 41.820067], [-7.818272, 41.81111], [-7.826288, 41.802185], [-7.843448, 41.793352], [-7.853303, 41.790915], [-7.877413, 41.788602], [-7.889423, 41.790046], [-7.899036, 41.793899], [-7.909712, 41.803007], [-7.924961, 41.823986], [-7.936977, 41.825539], [-7.949031, 41.824737], [-7.961041, 41.826733], [-7.968942, 41.830575], [-7.975775, 41.839643], [-7.975536, 41.848647], [-7.972653, 41.853608], [-7.960449, 41.863318], [-7.94835, 41.866369], [-7.924245, 41.866748], [-7.907897, 41.869325], [-7.910299, 41.871285], [-7.910285, 41.875562], [-7.915391, 41.879397], [-7.921118, 41.877833], [-7.928044, 41.87807], [-7.935283, 41.874707], [-7.937389, 41.87516], [-7.941618, 41.870891], [-7.951254, 41.871132], [-7.956367, 41.87339], [-7.956362, 41.875191], [-7.960878, 41.875648], [-7.962086, 41.874074], [-7.973828, 41.875216], [-7.987996, 41.869157], [-7.990123, 41.860157], [-7.995547, 41.858138], [-7.994047, 41.855211], [-7.996162, 41.851837], [-8.003089, 41.850494], [-8.005804, 41.847346], [-8.007928, 41.838796], [-8.012753, 41.833624], [-8.013363, 41.829124], [-8.021183, 41.831382], [-8.02901, 41.829589], [-8.037134, 41.831171], [-8.039687, 41.829147]]], [[[-7.772873, 41.891454], [-7.757198, 41.893385], [-7.756942, 41.893396], [-7.756897, 41.893398], [-7.758376, 41.898127], [-7.764097, 41.898595], [-7.772873, 41.891454]]], [[[-7.741252, 41.890249], [-7.731091, 41.885193], [-7.724764, 41.877862], [-7.722351, 41.878424], [-7.720523, 41.881793], [-7.725335, 41.882935], [-7.726208, 41.887665], [-7.737044, 41.888828], [-7.737935, 41.890857], [-7.741252, 41.890249]]], [[[-7.84314, 41.873011], [-7.815857, 41.863716], [-7.803708, 41.869041], [-7.801053, 41.874175], [-7.804288, 41.874184], [-7.804914, 41.869459], [-7.813032, 41.871958], [-7.814229, 41.873537], [-7.823863, 41.874013], [-7.825059, 41.875817], [-7.830479, 41.875831], [-7.830789, 41.874031], [-7.832894, 41.874712], [-7.83772, 41.872924], [-7.842528, 41.875187], [-7.84314, 41.873011]]], [[[-7.796739, 41.878075], [-7.796739, 41.878075], [-7.796587, 41.878213], [-7.796739, 41.878075]]], [[[-7.796437, 41.878349], [-7.796437, 41.878349], [-7.796339, 41.878438], [-7.796437, 41.878349]]], [[[-7.796134, 41.878623], [-7.796134, 41.878623], [-7.796091, 41.878662], [-7.796134, 41.878623]]], [[[-7.795226, 41.879443], [-7.791872, 41.882476], [-7.794309, 41.882033], [-7.795226, 41.879443]]], [[[-7.949885, 41.772499], [-7.961947, 41.770624], [-7.970359, 41.76754], [-7.974067, 41.758566], [-7.970078, 41.749523], [-7.962337, 41.74637], [-7.950348, 41.744076], [-7.93828, 41.746602], [-7.927318, 41.758139], [-7.928808, 41.76716], [-7.937864, 41.771855], [-7.949885, 41.772499]]], [[[-8.010294, 41.756165], [-8.023663, 41.749991], [-8.029553, 41.741034], [-8.028354, 41.732017], [-8.022779, 41.726124], [-8.010847, 41.720158], [-7.998811, 41.721073], [-7.994913, 41.722723], [-7.986255, 41.731653], [-7.984184, 41.740642], [-7.988882, 41.74969], [-7.998282, 41.75515], [-8.010294, 41.756165]]], [[[-7.845909, 41.712316], [-7.854676, 41.713729], [-7.856853, 41.712425], [-7.85978, 41.703447], [-7.854949, 41.698326], [-7.84288, 41.701198], [-7.8409, 41.703258], [-7.845909, 41.712316]]], [[[-8.203449, 41.699932], [-8.215467, 41.699978], [-8.218493, 41.69744], [-8.215564, 41.691988], [-8.203551, 41.691692], [-8.201031, 41.69732], [-8.203449, 41.699932]]], [[[-8.083273, 41.699508], [-8.095284, 41.700005], [-8.113676, 41.687672], [-8.122334, 41.678731], [-8.123272, 41.669731], [-8.114739, 41.660659], [-8.107908, 41.65614], [-8.095982, 41.650154], [-8.084026, 41.64641], [-8.071969, 41.649767], [-8.062386, 41.660244], [-8.058413, 41.669218], [-8.059116, 41.678231], [-8.065711, 41.687292], [-8.083273, 41.699508]], [[-8.083388, 41.691415], [-8.077043, 41.687384], [-8.070593, 41.678325], [-8.073572, 41.669342], [-8.083793, 41.662857], [-8.0958, 41.663135], [-8.105926, 41.669598], [-8.108421, 41.678624], [-8.101027, 41.687574], [-8.095406, 41.691304], [-8.083388, 41.691415]]], [[[-8.371879, 41.682167], [-8.383893, 41.682191], [-8.389467, 41.680461], [-8.402645, 41.671523], [-8.404537, 41.662526], [-8.398994, 41.65349], [-8.384237, 41.646128], [-8.37223, 41.646028], [-8.360171, 41.651157], [-8.352581, 41.662245], [-8.354104, 41.671261], [-8.365541, 41.680331], [-8.371879, 41.682167]]], [[[-8.074922, 41.624317], [-8.084281, 41.628346], [-8.096344, 41.624258], [-8.10128, 41.615519], [-8.096624, 41.604188], [-8.084665, 41.601248], [-8.073421, 41.606291], [-8.069202, 41.615264], [-8.074922, 41.624317]]], [[[-8.528621, 41.607222], [-8.540636, 41.605206], [-8.551442, 41.600142], [-8.560948, 41.591172], [-8.564354, 41.582178], [-8.564209, 41.57317], [-8.560721, 41.564149], [-8.551932, 41.555108], [-8.541036, 41.548729], [-8.529071, 41.545255], [-8.493121, 41.542847], [-8.46926, 41.528477], [-8.457297, 41.525623], [-8.444032, 41.527615], [-8.428755, 41.536547], [-8.424221, 41.545532], [-8.425458, 41.554546], [-8.432998, 41.56306], [-8.44494, 41.568981], [-8.468881, 41.574834], [-8.485154, 41.590857], [-8.50465, 41.603122], [-8.516625, 41.606533], [-8.528621, 41.607222]]], [[[-8.090295, 41.520791], [-8.097825, 41.517902], [-8.109806, 41.518158], [-8.133609, 41.530609], [-8.145587, 41.53129], [-8.166102, 41.525935], [-8.193754, 41.513591], [-8.205679, 41.518425], [-8.217565, 41.526595], [-8.229496, 41.531278], [-8.241464, 41.532867], [-8.253469, 41.531375], [-8.265521, 41.525597], [-8.27319, 41.517655], [-8.275936, 41.508665], [-8.27406, 41.499645], [-8.265911, 41.49109], [-8.253994, 41.485625], [-8.242035, 41.483948], [-8.230045, 41.484943], [-8.206016, 41.490825], [-8.194148, 41.481866], [-8.188253, 41.47205], [-8.170412, 41.453908], [-8.157838, 41.444809], [-8.134906, 41.433124], [-8.122993, 41.429015], [-8.099119, 41.424478], [-8.075177, 41.424977], [-8.056503, 41.429866], [-8.057743, 41.438645], [-8.061033, 41.438872], [-8.064916, 41.444052], [-8.067908, 41.444279], [-8.069999, 41.447206], [-8.068788, 41.462286], [-8.073872, 41.46499], [-8.074468, 41.468141], [-8.073564, 41.474668], [-8.066374, 41.482318], [-8.066069, 41.48817], [-8.072054, 41.490199], [-8.07175, 41.494925], [-8.078333, 41.49898], [-8.078332, 41.500331], [-8.093, 41.504613], [-8.090295, 41.520791]], [[-8.122077, 41.496916], [-8.110102, 41.49652], [-8.098188, 41.491705], [-8.094617, 41.489365], [-8.09025, 41.480324], [-8.092958, 41.471338], [-8.098541, 41.466273], [-8.110577, 41.461764], [-8.122543, 41.462399], [-8.134436, 41.468502], [-8.137594, 41.471681], [-8.140783, 41.480712], [-8.137263, 41.489693], [-8.122077, 41.496916]]], [[[-8.337643, 41.505398], [-8.349654, 41.502561], [-8.359191, 41.491144], [-8.358553, 41.482133], [-8.350855, 41.473082], [-8.338012, 41.469179], [-8.323352, 41.472924], [-8.314699, 41.48188], [-8.313874, 41.490882], [-8.319933, 41.499926], [-8.325685, 41.503073], [-8.337643, 41.505398]]], [[[-8.319632, 41.337672], [-8.310974, 41.355753], [-8.309329, 41.373758], [-8.313731, 41.391799], [-8.319194, 41.400839], [-8.326665, 41.408431], [-8.338564, 41.414818], [-8.350507, 41.417087], [-8.374457, 41.41522], [-8.389451, 41.410241], [-8.40652, 41.401323], [-8.417075, 41.392369], [-8.427394, 41.374406], [-8.427828, 41.356393], [-8.422943, 41.344752], [-8.411117, 41.330733], [-8.393778, 41.320751], [-8.391701, 41.324026], [-8.386027, 41.323814], [-8.380382, 41.331254], [-8.375305, 41.33104], [-8.37201, 41.328346], [-8.361563, 41.329718], [-8.358276, 41.329049], [-8.357673, 41.327249], [-8.350207, 41.327264], [-8.346032, 41.328847], [-8.342462, 41.333131], [-8.333215, 41.336299], [-8.326363, 41.342163], [-8.324568, 41.341041], [-8.323376, 41.341943], [-8.319632, 41.337672]], [[-8.350756, 41.392063], [-8.338179, 41.382935], [-8.33509, 41.37391], [-8.336994, 41.364913], [-8.346115, 41.355958], [-8.351143, 41.353144], [-8.363117, 41.35111], [-8.37505, 41.353301], [-8.380184, 41.356146], [-8.388997, 41.365201], [-8.390545, 41.374217], [-8.386748, 41.383204], [-8.374683, 41.391642], [-8.3627, 41.393927], [-8.350756, 41.392063]]], [[[-8.733795, 41.325702], [-8.747678, 41.321508], [-8.759928, 41.312526], [-8.765145, 41.303529], [-8.765995, 41.294523], [-8.762913, 41.285509], [-8.754513, 41.276484], [-8.745954, 41.27173], [-8.73403, 41.267771], [-8.722097, 41.26653], [-8.710154, 41.267407], [-8.698199, 41.270918], [-8.688513, 41.276324], [-8.680791, 41.285311], [-8.678775, 41.294313], [-8.681078, 41.303327], [-8.688033, 41.312354], [-8.697975, 41.319466], [-8.709902, 41.32431], [-8.721843, 41.326258], [-8.733795, 41.325702]]]]}}, {"id": "4", "type": "Feature", "properties": {"fill": "#ddf190", "value_min": 0.33, "value_max": -0.4}, "geometry": {"type": "MultiPolygon", "coordinates": [[[[-7.757198, 41.893385], [-7.772873, 41.891454], [-7.779227, 41.886264], [-7.791872, 41.882476], [-7.795226, 41.879443], [-7.796091, 41.878662], [-7.796134, 41.878623], [-7.796339, 41.878438], [-7.796437, 41.878349], [-7.796587, 41.878213], [-7.796739, 41.878075], [-7.794349, 41.87438], [-7.801053, 41.874175], [-7.803708, 41.869041], [-7.815857, 41.863716], [-7.84314, 41.873011], [-7.841663, 41.866632], [-7.849515, 41.861475], [-7.858542, 41.862622], [-7.859456, 41.860148], [-7.864877, 41.859711], [-7.87033, 41.851395], [-7.873043, 41.850501], [-7.873064, 41.845454], [-7.864369, 41.845781], [-7.852374, 41.842963], [-7.844968, 41.838402], [-7.836179, 41.829306], [-7.833271, 41.82027], [-7.834668, 41.811277], [-7.841877, 41.802343], [-7.853207, 41.796266], [-7.865299, 41.793145], [-7.877336, 41.793042], [-7.889312, 41.79652], [-7.898107, 41.802897], [-7.903143, 41.811952], [-7.903989, 41.820966], [-7.900174, 41.829937], [-7.888544, 41.840935], [-7.874268, 41.845408], [-7.879056, 41.85254], [-7.886268, 41.855932], [-7.888076, 41.855486], [-7.891675, 41.859094], [-7.900698, 41.861588], [-7.904318, 41.859795], [-7.907309, 41.865203], [-7.906095, 41.868126], [-7.907897, 41.869325], [-7.924245, 41.866748], [-7.94835, 41.866369], [-7.960449, 41.863318], [-7.972653, 41.853608], [-7.975536, 41.848647], [-7.975775, 41.839643], [-7.968942, 41.830575], [-7.961041, 41.826733], [-7.949031, 41.824737], [-7.936977, 41.825539], [-7.924961, 41.823986], [-7.909712, 41.803007], [-7.899036, 41.793899], [-7.889423, 41.790046], [-7.877413, 41.788602], [-7.853303, 41.790915], [-7.843448, 41.793352], [-7.826288, 41.802185], [-7.818272, 41.81111], [-7.813472, 41.820067], [-7.804064, 41.849968], [-7.797829, 41.846924], [-7.768135, 41.839059], [-7.756099, 41.838629], [-7.745767, 41.84067], [-7.746349, 41.84407], [-7.750541, 41.847685], [-7.750532, 41.849261], [-7.743309, 41.849012], [-7.746901, 41.8524], [-7.746881, 41.855776], [-7.73843, 41.859348], [-7.734159, 41.868337], [-7.730228, 41.871024], [-7.729293, 41.875972], [-7.724764, 41.877862], [-7.731091, 41.885193], [-7.741252, 41.890249], [-7.742785, 41.885922], [-7.748203, 41.88639], [-7.750001, 41.887971], [-7.756022, 41.888441], [-7.758719, 41.890926], [-7.757198, 41.893385]]], [[[-7.756897, 41.893398], [-7.756897, 41.893398], [-7.756942, 41.893396], [-7.756897, 41.893398]]], [[[-8.083388, 41.691415], [-8.095406, 41.691304], [-8.101027, 41.687574], [-8.108421, 41.678624], [-8.105926, 41.669598], [-8.0958, 41.663135], [-8.083793, 41.662857], [-8.073572, 41.669342], [-8.070593, 41.678325], [-8.077043, 41.687384], [-8.083388, 41.691415]], [[-8.0835, 41.683473], [-8.079306, 41.678395], [-8.083654, 41.67266], [-8.09567, 41.672403], [-8.100122, 41.67856], [-8.095513, 41.683627], [-8.0835, 41.683473]]], [[[-8.122077, 41.496916], [-8.137263, 41.489693], [-8.140783, 41.480712], [-8.137594, 41.471681], [-8.134436, 41.468502], [-8.122543, 41.462399], [-8.110577, 41.461764], [-8.098541, 41.466273], [-8.092958, 41.471338], [-8.09025, 41.480324], [-8.094617, 41.489365], [-8.098188, 41.491705], [-8.110102, 41.49652], [-8.122077, 41.496916]]], [[[-8.350756, 41.392063], [-8.3627, 41.393927], [-8.374683, 41.391642], [-8.386748, 41.383204], [-8.390545, 41.374217], [-8.388997, 41.365201], [-8.380184, 41.356146], [-8.37505, 41.353301], [-8.363117, 41.35111], [-8.351143, 41.353144], [-8.346115, 41.355958], [-8.336994, 41.364913], [-8.33509, 41.37391], [-8.338179, 41.382935], [-8.350756, 41.392063]]]]}}, {"id": "3", "type": "Feature", "properties": {"fill": "#bde282", "value_min": 0.27, "value_max": -0.33}, "geometry": {"type": "MultiPolygon", "coordinates": [[[[-7.874268, 41.845408], [-7.888544, 41.840935], [-7.900174, 41.829937], [-7.903989, 41.820966], [-7.903143, 41.811952], [-7.898107, 41.802897], [-7.889312, 41.79652], [-7.877336, 41.793042], [-7.865299, 41.793145], [-7.853207, 41.796266], [-7.841877, 41.802343], [-7.834668, 41.811277], [-7.833271, 41.82027], [-7.836179, 41.829306], [-7.844968, 41.838402], [-7.852374, 41.842963], [-7.864369, 41.845781], [-7.873064, 41.845454], [-7.874268, 41.845408]], [[-7.864584, 41.833616], [-7.852636, 41.828314], [-7.846098, 41.820399], [-7.845517, 41.811387], [-7.853104, 41.802049], [-7.865222, 41.79747], [-7.877259, 41.797435], [-7.889201, 41.8029], [-7.894821, 41.811872], [-7.893484, 41.820866], [-7.888789, 41.826746], [-7.876633, 41.833284], [-7.864584, 41.833616]]], [[[-8.0835, 41.683473], [-8.095513, 41.683627], [-8.100122, 41.67856], [-8.09567, 41.672403], [-8.083654, 41.67266], [-8.079306, 41.678395], [-8.0835, 41.683473]]]]}}, {"id": "10", "type": "Feature", "properties": {"fill": "#ef6d48", "value_min": 0.73, "value_max": -0.8}, "geometry": {"type": "Polygon", "coordinates": [[[-7.85388, 41.758487], [-7.865773, 41.766215], [-7.872553, 41.757615], [-7.866019, 41.752291], [-7.853911, 41.756755], [-7.85388, 41.758487]]]}}, {"id": "0", "type": "Feature", "properties": {"fill": "#50b061", "value_min": 0.07, "value_max": -0.13}, "geometry": {"type": "Polygon", "coordinates": [[[-7.877037, 41.810189], [-7.864989, 41.810688], [-7.864113, 41.811572], [-7.864948, 41.812995], [-7.87697, 41.81398], [-7.878395, 41.811713], [-7.877037, 41.810189]]]}}, {"id": "1", "type": "Feature", "properties": {"fill": "#74c16c", "value_min": 0.13, "value_max": -0.2}, "geometry": {"type": "Polygon", "coordinates": [[[-7.886974, 41.811796], [-7.877183, 41.80182], [-7.863256, 41.802557], [-7.854669, 41.811478], [-7.858109, 41.820519], [-7.864741, 41.824762], [-7.876782, 41.82478], [-7.882902, 41.820763], [-7.886974, 41.811796]], [[-7.877037, 41.810189], [-7.878395, 41.811713], [-7.87697, 41.81398], [-7.864948, 41.812995], [-7.864113, 41.811572], [-7.864989, 41.810688], [-7.877037, 41.810189]]]}}, {"id": "2", "type": "Feature", "properties": {"fill": "#98d277", "value_min": 0.2, "value_max": -0.27}, "geometry": {"type": "Polygon", "coordinates": [[[-7.864584, 41.833616], [-7.876633, 41.833284], [-7.888789, 41.826746], [-7.893484, 41.820866], [-7.894821, 41.811872], [-7.889201, 41.8029], [-7.877259, 41.797435], [-7.865222, 41.79747], [-7.853104, 41.802049], [-7.845517, 41.811387], [-7.846098, 41.820399], [-7.852636, 41.828314], [-7.864584, 41.833616]], [[-7.886974, 41.811796], [-7.882902, 41.820763], [-7.876782, 41.82478], [-7.864741, 41.824762], [-7.858109, 41.820519], [-7.854669, 41.811478], [-7.863256, 41.802557], [-7.877183, 41.80182], [-7.886974, 41.811796]]]}}]}