{"type": "FeatureCollection", "features": [{"id": "1", "type": "Feature", "properties": {"fill": "#eef8a7", "value_min": 0.4, "value_max": 0.47}, "geometry": {"type": "MultiPolygon", "coordinates": [[[[-8.330513, 41.763964], [-8.33064, 41.763519], [-8.330642, 41.763513], [-8.331647, 41.752196], [-8.329976, 41.743179], [-8.323327, 41.729087], [-8.311441, 41.716133], [-8.299506, 41.708175], [-8.271834, 41.69779], [-8.263619, 41.693067], [-8.249207, 41.67963], [-8.23467, 41.670527], [-8.227871, 41.66772], [-8.215885, 41.665536], [-8.203865, 41.666204], [-8.191804, 41.670155], [-8.179689, 41.678213], [-8.172826, 41.688113], [-8.172576, 41.697118], [-8.178275, 41.715173], [-8.177629, 41.724176], [-8.167026, 41.728449], [-8.154876, 41.738103], [-8.15207, 41.742004], [-8.153939, 41.751024], [-8.16663, 41.759064], [-8.178649, 41.759912], [-8.190713, 41.75719], [-8.20275, 41.756547], [-8.224401, 41.778543], [-8.241043, 41.790383], [-8.245546, 41.785731], [-8.251257, 41.784375], [-8.251845, 41.777172], [-8.256049, 41.774241], [-8.261762, 41.774235], [-8.271366, 41.766346], [-8.280681, 41.764083], [-8.281636, 41.762478], [-8.274227, 41.760854], [-8.267129, 41.751802], [-8.269211, 41.742808], [-8.27513, 41.738105], [-8.287181, 41.735836], [-8.299149, 41.741085], [-8.302706, 41.752024], [-8.299064, 41.757712], [-8.30778, 41.758824], [-8.307785, 41.760625], [-8.311096, 41.762195], [-8.318308, 41.761283], [-8.325233, 41.765098], [-8.328234, 41.763292], [-8.330513, 41.763964]]], [[[-8.241204, 41.790462], [-8.241204, 41.790462], [-8.241344, 41.790531], [-8.241204, 41.790462]]], [[[-8.034541, 41.743574], [-8.037169, 41.741098], [-8.037634, 41.732095], [-8.030411, 41.723028], [-8.022911, 41.717403], [-8.010935, 41.7144], [-7.998869, 41.717325], [-7.993894, 41.722714], [-7.990834, 41.731694], [-7.994182, 41.74073], [-7.998437, 41.745173], [-8.010378, 41.7507], [-8.022407, 41.750616], [-8.034541, 41.743574]]], [[[-8.125613, 41.687763], [-8.125822, 41.678758], [-8.120864, 41.669713], [-8.097417, 41.651517], [-8.095846, 41.642498], [-8.11592, 41.615633], [-8.118366, 41.606644], [-8.116456, 41.597622], [-8.108824, 41.589626], [-8.096902, 41.584225], [-8.084929, 41.582519], [-8.072922, 41.583284], [-8.060874, 41.586854], [-8.045229, 41.597053], [-8.031021, 41.614948], [-8.00014, 41.635281], [-7.994936, 41.64166], [-7.990998, 41.650632], [-7.990849, 41.659638], [-7.994757, 41.668679], [-7.999546, 41.673641], [-8.011453, 41.680628], [-8.023446, 41.682059], [-8.047555, 41.676687], [-8.059545, 41.678339], [-8.083318, 41.69633], [-8.107239, 41.704555], [-8.119258, 41.704557], [-8.126134, 41.696774], [-8.125613, 41.687763]]], [[[-8.395931, 41.679763], [-8.405627, 41.671539], [-8.408375, 41.662546], [-8.404971, 41.653521], [-8.396245, 41.64618], [-8.384275, 41.642162], [-8.372268, 41.642071], [-8.360224, 41.645808], [-8.350225, 41.653224], [-8.345846, 41.662207], [-8.347631, 41.671224], [-8.356453, 41.680281], [-8.371856, 41.684462], [-8.383878, 41.683837], [-8.395931, 41.679763]]], [[[-8.457604, 41.536687], [-8.455113, 41.536675], [-8.44517, 41.542111], [-8.443923, 41.545629], [-8.445131, 41.546672], [-8.457106, 41.548498], [-8.460448, 41.545708], [-8.457604, 41.536687]]], [[[-8.63005, 41.519356], [-8.625149, 41.517539], [-8.617596, 41.519316], [-8.613122, 41.524606], [-8.613091, 41.529773], [-8.625046, 41.535291], [-8.636128, 41.528383], [-8.63005, 41.519356]]], [[[-8.091803, 41.503964], [-8.133904, 41.508457], [-8.14592, 41.505941], [-8.156382, 41.498842], [-8.162843, 41.489882], [-8.166938, 41.471897], [-8.15963, 41.435815], [-8.170846, 41.430547], [-8.206756, 41.430156], [-8.230732, 41.426797], [-8.242738, 41.423521], [-8.254769, 41.417942], [-8.266976, 41.409526], [-8.275445, 41.400572], [-8.28041, 41.391596], [-8.283815, 41.373602], [-8.279199, 41.355558], [-8.274046, 41.346518], [-8.265976, 41.337748], [-8.263339, 41.340902], [-8.262751, 41.345405], [-8.256483, 41.347663], [-8.255889, 41.349689], [-8.249622, 41.353072], [-8.251123, 41.356897], [-8.248141, 41.360052], [-8.248448, 41.364328], [-8.245461, 41.364781], [-8.244272, 41.368384], [-8.240009, 41.370639], [-8.243546, 41.373344], [-8.245155, 41.382363], [-8.239295, 41.391331], [-8.231099, 41.395706], [-8.219126, 41.396604], [-8.207218, 41.392142], [-8.200747, 41.382063], [-8.201804, 41.377197], [-8.199163, 41.377423], [-8.194677, 41.374275], [-8.191691, 41.376302], [-8.189299, 41.375403], [-8.184818, 41.376756], [-8.168382, 41.377438], [-8.1642, 41.38059], [-8.152544, 41.375866], [-8.151049, 41.37339], [-8.145073, 41.374742], [-8.139694, 41.377894], [-8.133418, 41.374292], [-8.131105, 41.374968], [-8.130717, 41.390562], [-8.13388, 41.408601], [-8.131653, 41.417592], [-8.087074, 41.430054], [-8.075011, 41.436676], [-8.066104, 41.443827], [-8.069999, 41.447206], [-8.068788, 41.462286], [-8.073872, 41.46499], [-8.074468, 41.468141], [-8.073564, 41.474668], [-8.066374, 41.482318], [-8.066069, 41.48817], [-8.072054, 41.490199], [-8.072348, 41.495601], [-8.078333, 41.49898], [-8.078332, 41.500331], [-8.084019, 41.502467], [-8.084423, 41.502584], [-8.084618, 41.502641], [-8.0852, 41.50281], [-8.088809, 41.503491], [-8.091633, 41.503937], [-8.091803, 41.503964]]], [[[-8.733862, 41.309194], [-8.740532, 41.303477], [-8.743548, 41.294476], [-8.740439, 41.285461], [-8.733982, 41.279555], [-8.725651, 41.276419], [-8.722059, 41.275379], [-8.710114, 41.276425], [-8.696513, 41.285353], [-8.693375, 41.294353], [-8.695898, 41.303367], [-8.709953, 41.312768], [-8.721897, 41.313528], [-8.733862, 41.309194]]], [[[-8.7342, 41.225783], [-8.74708, 41.213413], [-8.751765, 41.204415], [-8.753362, 41.195411], [-8.752303, 41.186401], [-8.748288, 41.177384], [-8.740618, 41.168359], [-8.72567, 41.159316], [-8.710649, 41.155178], [-8.698733, 41.154664], [-8.686807, 41.156421], [-8.674866, 41.160858], [-8.662903, 41.169361], [-8.653083, 41.186144], [-8.651945, 41.195149], [-8.653616, 41.204162], [-8.662647, 41.219156], [-8.674533, 41.228093], [-8.686443, 41.232723], [-8.698365, 41.234875], [-8.710299, 41.234548], [-8.722245, 41.231466], [-8.7342, 41.225783]]]]}}, {"id": "4", "type": "Feature", "properties": {"fill": "#fc9863", "value_min": 0.6, "value_max": 0.67}, "geometry": {"type": "MultiPolygon", "coordinates": [[[[-7.96146, 41.800753], [-7.973656, 41.790832], [-7.980786, 41.776639], [-7.981612, 41.76764], [-7.979312, 41.758613], [-7.973825, 41.749557], [-7.962473, 41.737929], [-7.950534, 41.732649], [-7.938519, 41.732099], [-7.926435, 41.73566], [-7.919806, 41.740055], [-7.911535, 41.748984], [-7.908495, 41.757962], [-7.908533, 41.766969], [-7.911029, 41.775999], [-7.922377, 41.79412], [-7.935183, 41.803246], [-7.949358, 41.804756], [-7.96146, 41.800753]], [[-7.94984, 41.775207], [-7.937815, 41.774781], [-7.924287, 41.767117], [-7.92198, 41.758089], [-7.926181, 41.750935], [-7.938335, 41.74326], [-7.950363, 41.743172], [-7.961932, 41.74945], [-7.967604, 41.758508], [-7.965941, 41.7675], [-7.961934, 41.771419], [-7.94984, 41.775207]]], [[[-8.459665, 41.694794], [-8.4439, 41.690133], [-8.431891, 41.689284], [-8.407821, 41.693416], [-8.395387, 41.698506], [-8.381783, 41.707441], [-8.37554, 41.716414], [-8.374337, 41.725415], [-8.376517, 41.73439], [-8.384922, 41.73032], [-8.387032, 41.731891], [-8.392726, 41.730302], [-8.389865, 41.725498], [-8.389941, 41.716492], [-8.396377, 41.707519], [-8.407747, 41.701431], [-8.419788, 41.698943], [-8.431795, 41.70025], [-8.4446, 41.706601], [-8.453868, 41.697961], [-8.453255, 41.695487], [-8.459665, 41.694794]]], [[[-7.830954, 41.710178], [-7.831433, 41.712169], [-7.842555, 41.719331], [-7.85456, 41.720267], [-7.866701, 41.713509], [-7.870053, 41.703549], [-7.866999, 41.696529], [-7.853569, 41.689457], [-7.847538, 41.695365], [-7.837309, 41.699391], [-7.835792, 41.702763], [-7.839682, 41.705924], [-7.838465, 41.709522], [-7.830954, 41.710178]]], [[[-8.613514, 41.606695], [-8.610823, 41.591352], [-8.606158, 41.582328], [-8.583197, 41.555225], [-8.565089, 41.537999], [-8.553148, 41.531084], [-8.541175, 41.529172], [-8.52918, 41.53027], [-8.505141, 41.538769], [-8.493096, 41.546093], [-8.474342, 41.563787], [-8.467078, 41.572761], [-8.462833, 41.581748], [-8.464991, 41.590765], [-8.472267, 41.599806], [-8.504457, 41.628305], [-8.528366, 41.642178], [-8.539424, 41.64502], [-8.543876, 41.637352], [-8.543855, 41.633976], [-8.536342, 41.631977], [-8.535128, 41.62973], [-8.542254, 41.618198], [-8.528538, 41.618581], [-8.516551, 41.616484], [-8.504582, 41.611936], [-8.487201, 41.599874], [-8.479615, 41.590833], [-8.476367, 41.581811], [-8.478342, 41.572812], [-8.484069, 41.563831], [-8.493025, 41.555111], [-8.505075, 41.547458], [-8.517095, 41.543387], [-8.529096, 41.541834], [-8.541076, 41.543118], [-8.54883, 41.546088], [-8.562935, 41.55515], [-8.570945, 41.564188], [-8.577885, 41.582228], [-8.577482, 41.591234], [-8.574016, 41.600228], [-8.565604, 41.609204], [-8.554227, 41.615256], [-8.555743, 41.616826], [-8.564441, 41.616794], [-8.568056, 41.619031], [-8.570735, 41.616095], [-8.577321, 41.614269], [-8.581231, 41.615829], [-8.585766, 41.620988], [-8.591462, 41.620515], [-8.596534, 41.616668], [-8.601628, 41.615972], [-8.603996, 41.611686], [-8.613514, 41.606695]]], [[[-8.721124, 41.494729], [-8.728276, 41.483601], [-8.72927, 41.474595], [-8.727066, 41.465583], [-8.721002, 41.456561], [-8.710096, 41.447526], [-8.69741, 41.441669], [-8.685452, 41.438935], [-8.673486, 41.438181], [-8.66151, 41.439283], [-8.649522, 41.442615], [-8.641106, 41.447332], [-8.631298, 41.456308], [-8.627156, 41.465302], [-8.62695, 41.474309], [-8.630844, 41.483329], [-8.640943, 41.492369], [-8.66118, 41.50266], [-8.673145, 41.506097], [-8.685121, 41.50748], [-8.697107, 41.50672], [-8.71244, 41.501577], [-8.721124, 41.494729]], [[-8.661268, 41.485774], [-8.657697, 41.483412], [-8.655551, 41.474398], [-8.661357, 41.468648], [-8.673335, 41.468205], [-8.681, 41.474472], [-8.678909, 41.483473], [-8.673244, 41.486405], [-8.661268, 41.485774]]], [[[-8.475754, 41.238684], [-8.482935, 41.248561], [-8.495315, 41.259916], [-8.507198, 41.26715], [-8.519099, 41.272205], [-8.531018, 41.275137], [-8.542948, 41.276566], [-8.566841, 41.274751], [-8.578803, 41.271371], [-8.590779, 41.265433], [-8.602775, 41.255905], [-8.608336, 41.249056], [-8.61288, 41.240064], [-8.615168, 41.222056], [-8.613824, 41.213043], [-8.607186, 41.195005], [-8.601869, 41.185979], [-8.588067, 41.170801], [-8.583263, 41.174422], [-8.582094, 41.177803], [-8.578825, 41.178941], [-8.581276, 41.188836], [-8.57945, 41.193795], [-8.591153, 41.205475], [-8.594653, 41.212977], [-8.595896, 41.22199], [-8.59394, 41.230991], [-8.587697, 41.239976], [-8.578962, 41.246603], [-8.566997, 41.251126], [-8.555052, 41.252436], [-8.543126, 41.251081], [-8.531221, 41.24672], [-8.521129, 41.239719], [-8.514219, 41.230682], [-8.511451, 41.221662], [-8.511963, 41.212657], [-8.518424, 41.200769], [-8.51163, 41.203042], [-8.510456, 41.206197], [-8.505693, 41.207113], [-8.504239, 41.213646], [-8.500076, 41.21546], [-8.50308, 41.219502], [-8.502204, 41.222656], [-8.495642, 41.222227], [-8.495947, 41.223351], [-8.490894, 41.226294], [-8.487935, 41.230354], [-8.490331, 41.232373], [-8.489156, 41.235528], [-8.486181, 41.236888], [-8.484411, 41.240495], [-8.478434, 41.238037], [-8.475754, 41.238684]]], [[[-8.518472, 41.200713], [-8.518472, 41.200713], [-8.518617, 41.200543], [-8.518472, 41.200713]]]]}}, {"id": "5", "type": "Feature", "properties": {"fill": "#f77f52", "value_min": 0.67, "value_max": 0.73}, "geometry": {"type": "MultiPolygon", "coordinates": [[[[-7.94984, 41.775207], [-7.961934, 41.771419], [-7.965941, 41.7675], [-7.967604, 41.758508], [-7.961932, 41.74945], [-7.950363, 41.743172], [-7.938335, 41.74326], [-7.926181, 41.750935], [-7.92198, 41.758089], [-7.924287, 41.767117], [-7.937815, 41.774781], [-7.94984, 41.775207]], [[-7.93794, 41.767248], [-7.932884, 41.758191], [-7.93818, 41.752658], [-7.950222, 41.751834], [-7.956926, 41.758412], [-7.951509, 41.767369], [-7.93794, 41.767248]]], [[[-8.4446, 41.706601], [-8.431795, 41.70025], [-8.419788, 41.698943], [-8.407747, 41.701431], [-8.396377, 41.707519], [-8.389941, 41.716492], [-8.389865, 41.725498], [-8.392726, 41.730302], [-8.398141, 41.72984], [-8.405745, 41.722845], [-8.404059, 41.716566], [-8.407646, 41.712398], [-8.419705, 41.708185], [-8.432174, 41.717151], [-8.436526, 41.714214], [-8.441632, 41.713975], [-8.4446, 41.706601]]], [[[-8.554227, 41.615256], [-8.565604, 41.609204], [-8.574016, 41.600228], [-8.577482, 41.591234], [-8.577885, 41.582228], [-8.570945, 41.564188], [-8.562935, 41.55515], [-8.54883, 41.546088], [-8.541076, 41.543118], [-8.529096, 41.541834], [-8.517095, 41.543387], [-8.505075, 41.547458], [-8.493025, 41.555111], [-8.484069, 41.563831], [-8.478342, 41.572812], [-8.476367, 41.581811], [-8.479615, 41.590833], [-8.487201, 41.599874], [-8.504582, 41.611936], [-8.516551, 41.616484], [-8.528538, 41.618581], [-8.542254, 41.618198], [-8.543431, 41.61462], [-8.554227, 41.615256]], [[-8.528623, 41.606862], [-8.516628, 41.606092], [-8.504657, 41.602157], [-8.489874, 41.590879], [-8.485432, 41.581851], [-8.486108, 41.572847], [-8.491709, 41.563865], [-8.505027, 41.553818], [-8.517047, 41.549892], [-8.52904, 41.549498], [-8.54101, 41.552497], [-8.556465, 41.564133], [-8.56111, 41.573158], [-8.561833, 41.582168], [-8.558748, 41.591163], [-8.552688, 41.597789], [-8.54064, 41.604657], [-8.528623, 41.606862]]], [[[-8.661268, 41.485774], [-8.673244, 41.486405], [-8.678909, 41.483473], [-8.681, 41.474472], [-8.673335, 41.468205], [-8.661357, 41.468648], [-8.655551, 41.474398], [-8.657697, 41.483412], [-8.661268, 41.485774]]], [[[-8.518424, 41.200769], [-8.511963, 41.212657], [-8.511451, 41.221662], [-8.514219, 41.230682], [-8.521129, 41.239719], [-8.531221, 41.24672], [-8.543126, 41.251081], [-8.555052, 41.252436], [-8.566997, 41.251126], [-8.578962, 41.246603], [-8.587697, 41.239976], [-8.59394, 41.230991], [-8.595896, 41.22199], [-8.594653, 41.212977], [-8.591153, 41.205475], [-8.57945, 41.193795], [-8.575958, 41.195609], [-8.576894, 41.201908], [-8.574515, 41.202593], [-8.57423, 41.20462], [-8.567971, 41.204644], [-8.565895, 41.206227], [-8.567697, 41.208246], [-8.566512, 41.209376], [-8.559636, 41.206251], [-8.554271, 41.20627], [-8.549521, 41.209214], [-8.544157, 41.209458], [-8.54238, 41.211265], [-8.533747, 41.213097], [-8.529858, 41.210859], [-8.530444, 41.209056], [-8.52653, 41.202542], [-8.523236, 41.200077], [-8.518617, 41.200543], [-8.518472, 41.200713], [-8.518424, 41.200769]], [[-8.555224, 41.227089], [-8.549647, 41.221818], [-8.555314, 41.213762], [-8.567211, 41.218652], [-8.568542, 41.22189], [-8.567176, 41.223971], [-8.555224, 41.227089]]]]}}, {"id": "6", "type": "Feature", "properties": {"fill": "#ef6d48", "value_min": 0.73, "value_max": 0.8}, "geometry": {"type": "MultiPolygon", "coordinates": [[[[-7.93794, 41.767248], [-7.951509, 41.767369], [-7.956926, 41.758412], [-7.950222, 41.751834], [-7.93818, 41.752658], [-7.932884, 41.758191], [-7.93794, 41.767248]]], [[[-8.432174, 41.717151], [-8.419705, 41.708185], [-8.407646, 41.712398], [-8.404059, 41.716566], [-8.405745, 41.722845], [-8.417349, 41.725067], [-8.41974, 41.722135], [-8.429643, 41.719859], [-8.432174, 41.717151]]], [[[-8.528623, 41.606862], [-8.54064, 41.604657], [-8.552688, 41.597789], [-8.558748, 41.591163], [-8.561833, 41.582168], [-8.56111, 41.573158], [-8.556465, 41.564133], [-8.54101, 41.552497], [-8.52904, 41.549498], [-8.517047, 41.549892], [-8.505027, 41.553818], [-8.491709, 41.563865], [-8.486108, 41.572847], [-8.485432, 41.581851], [-8.489874, 41.590879], [-8.504657, 41.602157], [-8.516628, 41.606092], [-8.528623, 41.606862]], [[-8.528687, 41.59818], [-8.516686, 41.598354], [-8.504716, 41.594526], [-8.499811, 41.590922], [-8.493089, 41.581885], [-8.492992, 41.572878], [-8.498861, 41.563896], [-8.504985, 41.559324], [-8.517006, 41.55546], [-8.528994, 41.555834], [-8.54095, 41.560995], [-8.544924, 41.564088], [-8.550123, 41.573115], [-8.549917, 41.582122], [-8.5439, 41.591106], [-8.528687, 41.59818]]], [[[-8.555224, 41.227089], [-8.567176, 41.223971], [-8.568542, 41.22189], [-8.567211, 41.218652], [-8.555314, 41.213762], [-8.549647, 41.221818], [-8.555224, 41.227089]]]]}}, {"id": "3", "type": "Feature", "properties": {"fill": "#fecb90", "value_min": 0.53, "value_max": 0.6}, "geometry": {"type": "MultiPolygon", "coordinates": [[[[-8.613514, 41.606695], [-8.619881, 41.610269], [-8.621338, 41.604636], [-8.628833, 41.604378], [-8.6366, 41.600518], [-8.639873, 41.597352], [-8.640152, 41.59465], [-8.645536, 41.593051], [-8.646744, 41.594171], [-8.649125, 41.591909], [-8.656622, 41.5921], [-8.660788, 41.588255], [-8.663794, 41.589141], [-8.665265, 41.585758], [-8.66948, 41.587989], [-8.684455, 41.586117], [-8.685608, 41.58071], [-8.697261, 41.576376], [-8.701703, 41.570277], [-8.707704, 41.570923], [-8.712485, 41.569323], [-8.716422, 41.573805], [-8.720316, 41.57356], [-8.725151, 41.577811], [-8.726633, 41.576003], [-8.734424, 41.575737], [-8.736564, 41.580228], [-8.738354, 41.579318], [-8.740778, 41.582006], [-8.74467, 41.581535], [-8.750711, 41.58623], [-8.75993, 41.578527], [-8.767441, 41.580286], [-8.769874, 41.583874], [-8.768997, 41.58613], [-8.773228, 41.589482], [-8.774165, 41.593303], [-8.78556, 41.593464], [-8.797327, 41.600599], [-8.804218, 41.600109], [-8.80456, 41.604158], [-8.809434, 41.611332], [-8.828644, 41.609656], [-8.82839, 41.585633], [-8.818497, 41.554794], [-8.8221, 41.547542], [-8.821965, 41.534907], [-8.815926, 41.525624], [-8.81063, 41.5101], [-8.813279, 41.503483], [-8.812636, 41.496944], [-8.804699, 41.482068], [-8.798552, 41.474753], [-8.80154, 41.446836], [-8.806115, 41.43713], [-8.807354, 41.425915], [-8.811166, 41.417099], [-8.808804, 41.375569], [-8.781423, 41.376238], [-8.745552, 41.374994], [-8.721646, 41.372469], [-8.697753, 41.367643], [-8.685814, 41.363946], [-8.672322, 41.357349], [-8.634683, 41.330213], [-8.628317, 41.321184], [-8.626861, 41.303164], [-8.639072, 41.267172], [-8.64234, 41.249167], [-8.627221, 41.187747], [-8.621132, 41.178994], [-8.613374, 41.177451], [-8.608583, 41.174095], [-8.609164, 41.172066], [-8.604942, 41.164881], [-8.59422, 41.165149], [-8.589174, 41.167645], [-8.588067, 41.170801], [-8.601869, 41.185979], [-8.607186, 41.195005], [-8.613824, 41.213043], [-8.615168, 41.222056], [-8.61288, 41.240064], [-8.608336, 41.249056], [-8.602775, 41.255905], [-8.590779, 41.265433], [-8.578803, 41.271371], [-8.566841, 41.274751], [-8.542948, 41.276566], [-8.531018, 41.275137], [-8.519099, 41.272205], [-8.507198, 41.26715], [-8.495315, 41.259916], [-8.482935, 41.248561], [-8.475754, 41.238684], [-8.470986, 41.23941], [-8.471604, 41.243459], [-8.469227, 41.245267], [-8.463258, 41.244384], [-8.459989, 41.246644], [-8.455512, 41.245982], [-8.455541, 41.251834], [-8.452276, 41.25522], [-8.449891, 41.255452], [-8.449304, 41.257479], [-8.447812, 41.257258], [-8.449028, 41.261982], [-8.443657, 41.261771], [-8.438004, 41.264938], [-8.438023, 41.268989], [-8.434745, 41.269673], [-8.432691, 41.277107], [-8.427032, 41.279372], [-8.429143, 41.284319], [-8.426171, 41.287028], [-8.425606, 41.294007], [-8.422037, 41.296942], [-8.421707, 41.30077], [-8.447277, 41.329465], [-8.456796, 41.347526], [-8.458585, 41.365549], [-8.45284, 41.383537], [-8.437622, 41.401479], [-8.424842, 41.410424], [-8.410331, 41.417768], [-8.374304, 41.431169], [-8.338298, 41.441008], [-8.326281, 41.445541], [-8.309939, 41.454829], [-8.300144, 41.463778], [-8.294308, 41.472749], [-8.291839, 41.481741], [-8.293895, 41.499769], [-8.301603, 41.514102], [-8.313459, 41.526197], [-8.325366, 41.533769], [-8.337302, 41.538861], [-8.361226, 41.544216], [-8.373219, 41.543879], [-8.385252, 41.539221], [-8.400545, 41.527396], [-8.44548, 41.505892], [-8.469611, 41.485445], [-8.481628, 41.48066], [-8.493604, 41.480857], [-8.505544, 41.485892], [-8.512342, 41.491895], [-8.516999, 41.500922], [-8.51658, 41.509928], [-8.511577, 41.518914], [-8.485347, 41.536814], [-8.469025, 41.557189], [-8.456971, 41.564635], [-8.444938, 41.569221], [-8.428861, 41.572577], [-8.417912, 41.581529], [-8.42475, 41.590571], [-8.456631, 41.605156], [-8.471931, 41.617819], [-8.47739, 41.626851], [-8.479438, 41.635868], [-8.478268, 41.64487], [-8.472955, 41.653853], [-8.459559, 41.662798], [-8.432035, 41.672907], [-8.396962, 41.689508], [-8.372863, 41.698386], [-8.359621, 41.706579], [-8.35347, 41.716292], [-8.352959, 41.725297], [-8.355676, 41.737583], [-8.357897, 41.735103], [-8.362407, 41.735994], [-8.368703, 41.73193], [-8.371416, 41.7344], [-8.376517, 41.73439], [-8.374337, 41.725415], [-8.37554, 41.716414], [-8.381783, 41.707441], [-8.395387, 41.698506], [-8.407821, 41.693416], [-8.431891, 41.689284], [-8.4439, 41.690133], [-8.459665, 41.694794], [-8.482012, 41.682123], [-8.484371, 41.674238], [-8.49308, 41.674886], [-8.499963, 41.671038], [-8.50927, 41.671233], [-8.51018, 41.672806], [-8.511967, 41.670324], [-8.509856, 41.668755], [-8.512252, 41.667847], [-8.514629, 41.663788], [-8.522103, 41.658811], [-8.525706, 41.659023], [-8.527769, 41.652714], [-8.536459, 41.650658], [-8.539424, 41.64502], [-8.528366, 41.642178], [-8.504457, 41.628305], [-8.472267, 41.599806], [-8.464991, 41.590765], [-8.462833, 41.581748], [-8.467078, 41.572761], [-8.474342, 41.563787], [-8.493096, 41.546093], [-8.505141, 41.538769], [-8.52918, 41.53027], [-8.541175, 41.529172], [-8.553148, 41.531084], [-8.565089, 41.537999], [-8.583197, 41.555225], [-8.606158, 41.582328], [-8.610823, 41.591352], [-8.613514, 41.606695]], [[-8.636896, 41.559991], [-8.62491, 41.558838], [-8.612942, 41.554852], [-8.600994, 41.547794], [-8.590997, 41.537239], [-8.586396, 41.528215], [-8.585215, 41.519203], [-8.589245, 41.509565], [-8.60128, 41.501203], [-8.613274, 41.49914], [-8.625245, 41.5008], [-8.637204, 41.504904], [-8.647841, 41.510405], [-8.659548, 41.519447], [-8.666416, 41.528475], [-8.668563, 41.537488], [-8.666057, 41.546489], [-8.655634, 41.555465], [-8.648898, 41.558264], [-8.636896, 41.559991]], [[-8.721124, 41.494729], [-8.71244, 41.501577], [-8.697107, 41.50672], [-8.685121, 41.50748], [-8.673145, 41.506097], [-8.66118, 41.50266], [-8.640943, 41.492369], [-8.630844, 41.483329], [-8.62695, 41.474309], [-8.627156, 41.465302], [-8.631298, 41.456308], [-8.641106, 41.447332], [-8.649522, 41.442615], [-8.66151, 41.439283], [-8.673486, 41.438181], [-8.685452, 41.438935], [-8.69741, 41.441669], [-8.710096, 41.447526], [-8.721002, 41.456561], [-8.727066, 41.465583], [-8.72927, 41.474595], [-8.728276, 41.483601], [-8.721124, 41.494729]]], [[[-8.039517, 41.829597], [-8.033643, 41.804117], [-8.02373, 41.786019], [-8.016053, 41.776947], [-7.998174, 41.762043], [-7.986347, 41.749182], [-7.962858, 41.714027], [-7.915348, 41.667957], [-7.892755, 41.649043], [-7.892145, 41.651576], [-7.901724, 41.658573], [-7.902017, 41.660599], [-7.899913, 41.66127], [-7.900198, 41.665547], [-7.898396, 41.665769], [-7.896885, 41.668692], [-7.883969, 41.67069], [-7.879755, 41.673607], [-7.877044, 41.676077], [-7.876723, 41.681253], [-7.873401, 41.686198], [-7.868896, 41.686413], [-7.868008, 41.68326], [-7.864403, 41.683701], [-7.864096, 41.685276], [-7.858987, 41.68639], [-7.857773, 41.689538], [-7.855076, 41.688181], [-7.853569, 41.689457], [-7.866999, 41.696529], [-7.870053, 41.703549], [-7.866701, 41.713509], [-7.85456, 41.720267], [-7.842555, 41.719331], [-7.831433, 41.712169], [-7.830954, 41.710178], [-7.825252, 41.708813], [-7.818621, 41.713522], [-7.815291, 41.718689], [-7.808986, 41.717996], [-7.808396, 41.715744], [-7.804499, 41.714158], [-7.79939, 41.714593], [-7.79788, 41.716164], [-7.796383, 41.71526], [-7.790966, 41.717044], [-7.789449, 41.719966], [-7.78464, 41.720402], [-7.78252, 41.723546], [-7.776204, 41.724652], [-7.773786, 41.727346], [-7.7678, 41.723276], [-7.765698, 41.723044], [-7.763885, 41.724801], [-7.782094, 41.737974], [-7.793997, 41.744524], [-7.805967, 41.74755], [-7.818008, 41.74677], [-7.846521, 41.739342], [-7.866281, 41.737394], [-7.878259, 41.740103], [-7.887671, 41.748755], [-7.890106, 41.757785], [-7.888842, 41.76678], [-7.877636, 41.784685], [-7.875132, 41.793667], [-7.889063, 41.810897], [-7.887593, 41.820809], [-7.876649, 41.832362], [-7.863917, 41.838591], [-7.855238, 41.847511], [-7.85429, 41.862386], [-7.858542, 41.862622], [-7.859456, 41.860148], [-7.865481, 41.859262], [-7.87033, 41.851395], [-7.873043, 41.850501], [-7.873367, 41.844875], [-7.879056, 41.85254], [-7.886268, 41.855932], [-7.888076, 41.855486], [-7.891675, 41.859094], [-7.900698, 41.861588], [-7.904318, 41.859795], [-7.907309, 41.865203], [-7.906095, 41.868126], [-7.910299, 41.871285], [-7.909985, 41.875111], [-7.915391, 41.879397], [-7.921118, 41.877833], [-7.928044, 41.87807], [-7.935283, 41.874707], [-7.937389, 41.87516], [-7.941618, 41.870891], [-7.951254, 41.871132], [-7.956367, 41.87339], [-7.956362, 41.875191], [-7.960878, 41.875648], [-7.962086, 41.874074], [-7.973828, 41.875216], [-7.987996, 41.869157], [-7.990123, 41.860157], [-7.995547, 41.858138], [-7.994047, 41.855211], [-7.996162, 41.851837], [-8.003089, 41.850494], [-8.005804, 41.847346], [-8.007928, 41.838796], [-8.012753, 41.833624], [-8.013363, 41.829124], [-8.017873, 41.831379], [-8.02901, 41.829589], [-8.037134, 41.831171], [-8.039517, 41.829597]], [[-7.96146, 41.800753], [-7.949358, 41.804756], [-7.935183, 41.803246], [-7.922377, 41.79412], [-7.911029, 41.775999], [-7.908533, 41.766969], [-7.908495, 41.757962], [-7.911535, 41.748984], [-7.919806, 41.740055], [-7.926435, 41.73566], [-7.938519, 41.732099], [-7.950534, 41.732649], [-7.962473, 41.737929], [-7.973825, 41.749557], [-7.979312, 41.758613], [-7.981612, 41.76764], [-7.980786, 41.776639], [-7.973656, 41.790832], [-7.96146, 41.800753]]]]}}, {"id": "2", "type": "Feature", "properties": {"fill": "#fffebe", "value_min": 0.47, "value_max": 0.53}, "geometry": {"type": "MultiPolygon", "coordinates": [[[[-8.355676, 41.737583], [-8.352959, 41.725297], [-8.35347, 41.716292], [-8.359621, 41.706579], [-8.372863, 41.698386], [-8.396962, 41.689508], [-8.432035, 41.672907], [-8.459559, 41.662798], [-8.472955, 41.653853], [-8.478268, 41.64487], [-8.479438, 41.635868], [-8.47739, 41.626851], [-8.471931, 41.617819], [-8.456631, 41.605156], [-8.42475, 41.590571], [-8.417912, 41.581529], [-8.428861, 41.572577], [-8.444938, 41.569221], [-8.456971, 41.564635], [-8.469025, 41.557189], [-8.485347, 41.536814], [-8.511577, 41.518914], [-8.51658, 41.509928], [-8.516999, 41.500922], [-8.512342, 41.491895], [-8.505544, 41.485892], [-8.493604, 41.480857], [-8.481628, 41.48066], [-8.469611, 41.485445], [-8.44548, 41.505892], [-8.400545, 41.527396], [-8.385252, 41.539221], [-8.373219, 41.543879], [-8.361226, 41.544216], [-8.337302, 41.538861], [-8.325366, 41.533769], [-8.313459, 41.526197], [-8.301603, 41.514102], [-8.293895, 41.499769], [-8.291839, 41.481741], [-8.294308, 41.472749], [-8.300144, 41.463778], [-8.309939, 41.454829], [-8.326281, 41.445541], [-8.338298, 41.441008], [-8.374304, 41.431169], [-8.410331, 41.417768], [-8.424842, 41.410424], [-8.437622, 41.401479], [-8.45284, 41.383537], [-8.458585, 41.365549], [-8.456796, 41.347526], [-8.447277, 41.329465], [-8.421707, 41.30077], [-8.416982, 41.301232], [-8.407744, 41.304856], [-8.406262, 41.307335], [-8.403277, 41.307342], [-8.401801, 41.311398], [-8.399712, 41.311628], [-8.400316, 41.313202], [-8.396738, 41.314336], [-8.398835, 41.316131], [-8.393775, 41.31997], [-8.393489, 41.323122], [-8.391105, 41.324253], [-8.386325, 41.323588], [-8.380382, 41.331254], [-8.375305, 41.33104], [-8.37201, 41.328346], [-8.361563, 41.329718], [-8.358276, 41.329049], [-8.357673, 41.327249], [-8.350207, 41.327264], [-8.346032, 41.328847], [-8.342462, 41.333131], [-8.333215, 41.336299], [-8.326363, 41.342163], [-8.324568, 41.341041], [-8.323376, 41.341943], [-8.316788, 41.335876], [-8.313802, 41.336331], [-8.310792, 41.327557], [-8.308701, 41.327561], [-8.307502, 41.325762], [-8.305116, 41.326891], [-8.303024, 41.325994], [-8.303615, 41.323742], [-8.301216, 41.319694], [-8.296431, 41.316774], [-8.297618, 41.313846], [-8.295817, 41.310022], [-8.281801, 41.316569], [-8.281808, 41.319721], [-8.278828, 41.321976], [-8.278238, 41.325128], [-8.273161, 41.325134], [-8.269582, 41.326939], [-8.265709, 41.331221], [-8.269004, 41.336169], [-8.265976, 41.337748], [-8.274046, 41.346518], [-8.279199, 41.355558], [-8.283815, 41.373602], [-8.28041, 41.391596], [-8.275445, 41.400572], [-8.266976, 41.409526], [-8.254769, 41.417942], [-8.242738, 41.423521], [-8.230732, 41.426797], [-8.206756, 41.430156], [-8.170846, 41.430547], [-8.15963, 41.435815], [-8.166938, 41.471897], [-8.162843, 41.489882], [-8.156382, 41.498842], [-8.14592, 41.505941], [-8.133904, 41.508457], [-8.091803, 41.503964], [-8.093, 41.505063], [-8.090901, 41.510014], [-8.091196, 41.516767], [-8.089398, 41.519242], [-8.090594, 41.522169], [-8.093588, 41.52307], [-8.091487, 41.531173], [-8.097775, 41.536127], [-8.097774, 41.537927], [-8.106759, 41.543557], [-8.101666, 41.542655], [-8.094175, 41.544904], [-8.087885, 41.542876], [-8.083389, 41.5449], [-8.080687, 41.551651], [-8.074097, 41.549848], [-8.073494, 41.553449], [-8.075891, 41.554575], [-8.076188, 41.557276], [-8.079783, 41.558403], [-8.081576, 41.565157], [-8.078879, 41.56493], [-8.075279, 41.568305], [-8.073182, 41.568079], [-8.069283, 41.570553], [-8.068081, 41.573478], [-8.056684, 41.579549], [-8.052181, 41.584498], [-8.052777, 41.587649], [-8.048277, 41.590122], [-8.047974, 41.592373], [-8.044072, 41.595521], [-8.031467, 41.602938], [-8.02367, 41.603156], [-8.019174, 41.601802], [-8.015872, 41.603824], [-8.010473, 41.604494], [-8.005671, 41.606515], [-8.003262, 41.611464], [-7.998761, 41.612809], [-7.999669, 41.608759], [-7.996976, 41.605829], [-7.996684, 41.602003], [-7.984685, 41.603564], [-7.982292, 41.60086], [-7.975689, 41.603552], [-7.974482, 41.606701], [-7.970882, 41.607147], [-7.969091, 41.603768], [-7.965796, 41.602413], [-7.9541, 41.602846], [-7.952606, 41.600592], [-7.947808, 41.60081], [-7.945413, 41.599456], [-7.942725, 41.595625], [-7.936733, 41.594264], [-7.93791, 41.601694], [-7.937004, 41.603718], [-7.931604, 41.604384], [-7.930073, 41.614735], [-7.925255, 41.620579], [-7.920755, 41.620796], [-7.917748, 41.623041], [-7.915933, 41.627764], [-7.913229, 41.628885], [-7.912613, 41.63361], [-7.906014, 41.633147], [-7.906884, 41.641927], [-7.903582, 41.642371], [-7.897869, 41.645511], [-7.89696, 41.647985], [-7.893961, 41.647528], [-7.892755, 41.649043], [-7.915348, 41.667957], [-7.962858, 41.714027], [-7.986347, 41.749182], [-7.998174, 41.762043], [-8.016053, 41.776947], [-8.02373, 41.786019], [-8.033643, 41.804117], [-8.039517, 41.829597], [-8.041351, 41.828023], [-8.041054, 41.825097], [-8.045268, 41.824425], [-8.046775, 41.821951], [-8.056712, 41.81588], [-8.06664, 41.817012], [-8.072961, 41.813414], [-8.078678, 41.813417], [-8.082892, 41.810493], [-8.091013, 41.812521], [-8.093421, 41.811397], [-8.093723, 41.808471], [-8.101845, 41.809824], [-8.104853, 41.81185], [-8.115984, 41.812302], [-8.123807, 41.808702], [-8.138247, 41.808477], [-8.139751, 41.813203], [-8.14276, 41.812978], [-8.144866, 41.815228], [-8.149078, 41.814777], [-8.153291, 41.817703], [-8.158106, 41.818377], [-8.165326, 41.81815], [-8.173744, 41.808019], [-8.177655, 41.808242], [-8.183676, 41.812741], [-8.190291, 41.809587], [-8.197158, 41.814129], [-8.201063, 41.808724], [-8.204973, 41.807372], [-8.205872, 41.804445], [-8.213692, 41.803765], [-8.217598, 41.80016], [-8.217589, 41.793634], [-8.224207, 41.794303], [-8.229917, 41.791598], [-8.23473, 41.792269], [-8.241344, 41.790531], [-8.241204, 41.790462], [-8.241043, 41.790383], [-8.224401, 41.778543], [-8.20275, 41.756547], [-8.190713, 41.75719], [-8.178649, 41.759912], [-8.16663, 41.759064], [-8.153939, 41.751024], [-8.15207, 41.742004], [-8.154876, 41.738103], [-8.167026, 41.728449], [-8.177629, 41.724176], [-8.178275, 41.715173], [-8.172576, 41.697118], [-8.172826, 41.688113], [-8.179689, 41.678213], [-8.191804, 41.670155], [-8.203865, 41.666204], [-8.215885, 41.665536], [-8.227871, 41.66772], [-8.23467, 41.670527], [-8.249207, 41.67963], [-8.263619, 41.693067], [-8.271834, 41.69779], [-8.299506, 41.708175], [-8.311441, 41.716133], [-8.323327, 41.729087], [-8.329976, 41.743179], [-8.331647, 41.752196], [-8.330642, 41.763513], [-8.336653, 41.763728], [-8.341756, 41.761468], [-8.344765, 41.762363], [-8.349267, 41.760103], [-8.352557, 41.755145], [-8.349814, 41.744122], [-8.352516, 41.743441], [-8.352203, 41.739616], [-8.355676, 41.737583]], [[-8.034541, 41.743574], [-8.022407, 41.750616], [-8.010378, 41.7507], [-7.998437, 41.745173], [-7.994182, 41.74073], [-7.990834, 41.731694], [-7.993894, 41.722714], [-7.998869, 41.717325], [-8.010935, 41.7144], [-8.022911, 41.717403], [-8.030411, 41.723028], [-8.037634, 41.732095], [-8.037169, 41.741098], [-8.034541, 41.743574]], [[-8.125613, 41.687763], [-8.126134, 41.696774], [-8.119258, 41.704557], [-8.107239, 41.704555], [-8.083318, 41.69633], [-8.059545, 41.678339], [-8.047555, 41.676687], [-8.023446, 41.682059], [-8.011453, 41.680628], [-7.999546, 41.673641], [-7.994757, 41.668679], [-7.990849, 41.659638], [-7.990998, 41.650632], [-7.994936, 41.64166], [-8.00014, 41.635281], [-8.031021, 41.614948], [-8.045229, 41.597053], [-8.060874, 41.586854], [-8.072922, 41.583284], [-8.084929, 41.582519], [-8.096902, 41.584225], [-8.108824, 41.589626], [-8.116456, 41.597622], [-8.118366, 41.606644], [-8.11592, 41.615633], [-8.095846, 41.642498], [-8.097417, 41.651517], [-8.120864, 41.669713], [-8.125822, 41.678758], [-8.125613, 41.687763]], [[-8.395931, 41.679763], [-8.383878, 41.683837], [-8.371856, 41.684462], [-8.356453, 41.680281], [-8.347631, 41.671224], [-8.345846, 41.662207], [-8.350225, 41.653224], [-8.360224, 41.645808], [-8.372268, 41.642071], [-8.384275, 41.642162], [-8.396245, 41.64618], [-8.404971, 41.653521], [-8.408375, 41.662546], [-8.405627, 41.671539], [-8.395931, 41.679763]], [[-8.457604, 41.536687], [-8.460448, 41.545708], [-8.457106, 41.548498], [-8.445131, 41.546672], [-8.443923, 41.545629], [-8.44517, 41.542111], [-8.455113, 41.536675], [-8.457604, 41.536687]]], [[[-7.85429, 41.862386], [-7.855238, 41.847511], [-7.863917, 41.838591], [-7.876649, 41.832362], [-7.887593, 41.820809], [-7.889063, 41.810897], [-7.875132, 41.793667], [-7.877636, 41.784685], [-7.888842, 41.76678], [-7.890106, 41.757785], [-7.887671, 41.748755], [-7.878259, 41.740103], [-7.866281, 41.737394], [-7.846521, 41.739342], [-7.818008, 41.74677], [-7.805967, 41.74755], [-7.793997, 41.744524], [-7.782094, 41.737974], [-7.763885, 41.724801], [-7.761765, 41.727758], [-7.762933, 41.733839], [-7.759307, 41.737203], [-7.759597, 41.739005], [-7.75689, 41.739446], [-7.758687, 41.740577], [-7.757758, 41.745301], [-7.748417, 41.749321], [-7.747786, 41.754496], [-7.743866, 41.756509], [-7.740214, 41.763924], [-7.726937, 41.771755], [-7.7254, 41.777152], [-7.727191, 41.779184], [-7.724177, 41.780299], [-7.725372, 41.781653], [-7.722296, 41.792446], [-7.728879, 41.797871], [-7.727026, 41.805517], [-7.728761, 41.816776], [-7.732041, 41.821514], [-7.743152, 41.825154], [-7.742839, 41.827178], [-7.738918, 41.82874], [-7.742196, 41.833928], [-7.74729, 41.837772], [-7.746349, 41.84407], [-7.750246, 41.846784], [-7.750532, 41.849261], [-7.743309, 41.849012], [-7.746901, 41.8524], [-7.746881, 41.855776], [-7.73843, 41.859348], [-7.734159, 41.868337], [-7.730228, 41.871024], [-7.729293, 41.875972], [-7.722351, 41.878424], [-7.720523, 41.881793], [-7.725335, 41.882935], [-7.726208, 41.887665], [-7.737044, 41.888828], [-7.737935, 41.890857], [-7.74246, 41.889747], [-7.742785, 41.885922], [-7.756022, 41.888441], [-7.758719, 41.890926], [-7.756592, 41.89407], [-7.758076, 41.897901], [-7.764097, 41.898595], [-7.779227, 41.886264], [-7.785257, 41.885157], [-7.788886, 41.882467], [-7.794007, 41.882257], [-7.796739, 41.878214], [-7.794349, 41.87438], [-7.797064, 41.873488], [-7.803381, 41.874857], [-7.804914, 41.869459], [-7.813032, 41.871958], [-7.814229, 41.873537], [-7.823863, 41.874013], [-7.825059, 41.875817], [-7.830479, 41.875831], [-7.830789, 41.874031], [-7.832894, 41.874712], [-7.83772, 41.872924], [-7.842528, 41.875187], [-7.841663, 41.866632], [-7.849515, 41.861475], [-7.85429, 41.862386]]], [[[-8.33064, 41.763519], [-8.33064, 41.763519], [-8.330513, 41.763964], [-8.33064, 41.763519]]], [[[-8.091633, 41.503937], [-8.091633, 41.503937], [-8.088809, 41.503491], [-8.091633, 41.503937]]], [[[-8.0852, 41.50281], [-8.0852, 41.50281], [-8.084618, 41.502641], [-8.0852, 41.50281]]], [[[-8.084423, 41.502584], [-8.084423, 41.502584], [-8.084019, 41.502467], [-8.084423, 41.502584]]], [[[-8.066104, 41.443827], [-8.075011, 41.436676], [-8.087074, 41.430054], [-8.131653, 41.417592], [-8.13388, 41.408601], [-8.130717, 41.390562], [-8.131105, 41.374968], [-8.119672, 41.376768], [-8.119672, 41.378569], [-8.116683, 41.380144], [-8.117578, 41.386447], [-8.113992, 41.386896], [-8.112795, 41.390723], [-8.110105, 41.390947], [-8.108011, 41.393648], [-8.103827, 41.392972], [-8.105321, 41.394998], [-8.10263, 41.396123], [-8.10801, 41.398825], [-8.108606, 41.403102], [-8.104419, 41.406252], [-8.104119, 41.408728], [-8.101727, 41.409403], [-8.102025, 41.411204], [-8.092756, 41.411201], [-8.09126, 41.414352], [-8.079893, 41.41975], [-8.077503, 41.416597], [-8.070923, 41.41862], [-8.066739, 41.416142], [-8.061654, 41.417489], [-8.059852, 41.424916], [-8.055959, 41.429415], [-8.05745, 41.432793], [-8.056549, 41.436394], [-8.057743, 41.438645], [-8.061033, 41.438872], [-8.066104, 41.443827]]], [[[-8.636896, 41.559991], [-8.648898, 41.558264], [-8.655634, 41.555465], [-8.666057, 41.546489], [-8.668563, 41.537488], [-8.666416, 41.528475], [-8.659548, 41.519447], [-8.647841, 41.510405], [-8.637204, 41.504904], [-8.625245, 41.5008], [-8.613274, 41.49914], [-8.60128, 41.501203], [-8.589245, 41.509565], [-8.585215, 41.519203], [-8.586396, 41.528215], [-8.590997, 41.537239], [-8.600994, 41.547794], [-8.612942, 41.554852], [-8.62491, 41.558838], [-8.636896, 41.559991]], [[-8.63005, 41.519356], [-8.636128, 41.528383], [-8.625046, 41.535291], [-8.613091, 41.529773], [-8.613122, 41.524606], [-8.617596, 41.519316], [-8.625149, 41.517539], [-8.63005, 41.519356]]], [[[-8.627221, 41.187747], [-8.64234, 41.249167], [-8.639072, 41.267172], [-8.626861, 41.303164], [-8.628317, 41.321184], [-8.634683, 41.330213], [-8.672322, 41.357349], [-8.685814, 41.363946], [-8.697753, 41.367643], [-8.721646, 41.372469], [-8.745552, 41.374994], [-8.781423, 41.376238], [-8.808804, 41.375569], [-8.799695, 41.14406], [-8.67527, 41.147484], [-8.676193, 41.146567], [-8.674793, 41.146932], [-8.674204, 41.147693], [-8.674849, 41.153767], [-8.672489, 41.15648], [-8.66117, 41.156307], [-8.662078, 41.158104], [-8.660313, 41.160813], [-8.657033, 41.160378], [-8.654961, 41.161963], [-8.653231, 41.169174], [-8.655366, 41.175467], [-8.647955, 41.180228], [-8.647696, 41.185181], [-8.641225, 41.196014], [-8.634946, 41.193341], [-8.632526, 41.188624], [-8.627221, 41.187747]], [[-8.733862, 41.309194], [-8.721897, 41.313528], [-8.709953, 41.312768], [-8.695898, 41.303367], [-8.693375, 41.294353], [-8.696513, 41.285353], [-8.710114, 41.276425], [-8.722059, 41.275379], [-8.725651, 41.276419], [-8.733982, 41.279555], [-8.740439, 41.285461], [-8.743548, 41.294476], [-8.740532, 41.303477], [-8.733862, 41.309194]], [[-8.7342, 41.225783], [-8.722245, 41.231466], [-8.710299, 41.234548], [-8.698365, 41.234875], [-8.686443, 41.232723], [-8.674533, 41.228093], [-8.662647, 41.219156], [-8.653616, 41.204162], [-8.651945, 41.195149], [-8.653083, 41.186144], [-8.662903, 41.169361], [-8.674866, 41.160858], [-8.686807, 41.156421], [-8.698733, 41.154664], [-8.710649, 41.155178], [-8.72567, 41.159316], [-8.740618, 41.168359], [-8.748288, 41.177384], [-8.752303, 41.186401], [-8.753362, 41.195411], [-8.751765, 41.204415], [-8.74708, 41.213413], [-8.7342, 41.225783]]]]}}, {"id": "0", "type": "Feature", "properties": {"fill": "#ddf190", "value_min": 0.33, "value_max": 0.4}, "geometry": {"type": "MultiPolygon", "coordinates": [[[[-8.299064, 41.757712], [-8.302706, 41.752024], [-8.299149, 41.741085], [-8.287181, 41.735836], [-8.27513, 41.738105], [-8.269211, 41.742808], [-8.267129, 41.751802], [-8.274227, 41.760854], [-8.281636, 41.762478], [-8.287033, 41.756829], [-8.299064, 41.757712]]], [[[-8.201804, 41.377197], [-8.200747, 41.382063], [-8.207218, 41.392142], [-8.219126, 41.396604], [-8.231099, 41.395706], [-8.239295, 41.391331], [-8.245155, 41.382363], [-8.243546, 41.373344], [-8.240009, 41.370639], [-8.224854, 41.370878], [-8.21738, 41.368182], [-8.211712, 41.376065], [-8.201804, 41.377197]]]]}}, {"id": "9", "type": "Feature", "properties": {"fill": "#da382b", "value_min": 0.93, "value_max": 1.0}, "geometry": {"type": "Polygon", "coordinates": [[[-8.532016, 41.573043], [-8.528894, 41.569626], [-8.516929, 41.565706], [-8.505697, 41.572933], [-8.509647, 41.581957], [-8.516783, 41.585395], [-8.529439, 41.58204], [-8.532016, 41.573043]]]}}, {"id": "8", "type": "Feature", "properties": {"fill": "#e14a35", "value_min": 0.87, "value_max": 0.93}, "geometry": {"type": "Polygon", "coordinates": [[[-8.528741, 41.590699], [-8.539741, 41.582082], [-8.540919, 41.573079], [-8.533702, 41.564043], [-8.528953, 41.561607], [-8.51697, 41.560247], [-8.504941, 41.565078], [-8.499145, 41.572905], [-8.500192, 41.581917], [-8.504773, 41.587017], [-8.516734, 41.591953], [-8.528741, 41.590699]], [[-8.532016, 41.573043], [-8.529439, 41.58204], [-8.516783, 41.585395], [-8.509647, 41.581957], [-8.505697, 41.572933], [-8.516929, 41.565706], [-8.528894, 41.569626], [-8.532016, 41.573043]]]}}, {"id": "7", "type": "Feature", "properties": {"fill": "#e85c3f", "value_min": 0.8, "value_max": 0.87}, "geometry": {"type": "Polygon", "coordinates": [[[-8.528687, 41.59818], [-8.5439, 41.591106], [-8.549917, 41.582122], [-8.550123, 41.573115], [-8.544924, 41.564088], [-8.54095, 41.560995], [-8.528994, 41.555834], [-8.517006, 41.55546], [-8.504985, 41.559324], [-8.498861, 41.563896], [-8.492992, 41.572878], [-8.493089, 41.581885], [-8.499811, 41.590922], [-8.504716, 41.594526], [-8.516686, 41.598354], [-8.528687, 41.59818]], [[-8.528741, 41.590699], [-8.516734, 41.591953], [-8.504773, 41.587017], [-8.500192, 41.581917], [-8.499145, 41.572905], [-8.504941, 41.565078], [-8.51697, 41.560247], [-8.528953, 41.561607], [-8.533702, 41.564043], [-8.540919, 41.573079], [-8.539741, 41.582082], [-8.528741, 41.590699]]]}}]}