{"type": "FeatureCollection", "features": [{"id": "2", "type": "Feature", "properties": {"fill": "#fecb90", "value_min": 0.53, "value_max": 0.6}, "geometry": {"type": "MultiPolygon", "coordinates": [[[[-7.877097, 41.806743], [-7.865058, 41.806766], [-7.860543, 41.811537], [-7.864869, 41.817502], [-7.876912, 41.817296], [-7.880656, 41.811735], [-7.877097, 41.806743]]], [[[-7.727913, 41.808099], [-7.744661, 41.807597], [-7.756802, 41.802292], [-7.765367, 41.79254], [-7.767214, 41.783553], [-7.764409, 41.774516], [-7.757489, 41.766709], [-7.743242, 41.760244], [-7.739619, 41.762796], [-7.739912, 41.764148], [-7.726937, 41.771755], [-7.725406, 41.776252], [-7.727191, 41.779184], [-7.724177, 41.780299], [-7.725372, 41.781653], [-7.722296, 41.792446], [-7.728879, 41.797871], [-7.72705, 41.801691], [-7.727913, 41.808099]]], [[[-8.307783, 41.759916], [-8.312574, 41.752083], [-8.311168, 41.743068], [-8.300801, 41.733998], [-8.287228, 41.731597], [-8.275167, 41.734816], [-8.26634, 41.74279], [-8.264096, 41.751783], [-8.269311, 41.760823], [-8.275272, 41.765202], [-8.280681, 41.764083], [-8.284038, 41.761109], [-8.284931, 41.757507], [-8.287033, 41.756829], [-8.298457, 41.757263], [-8.300866, 41.758835], [-8.305674, 41.758152], [-8.307783, 41.759916]]], [[[-8.383678, 41.704712], [-8.423832, 41.689645], [-8.442149, 41.680729], [-8.447509, 41.671748], [-8.44304, 41.662719], [-8.420284, 41.643657], [-8.396499, 41.618949], [-8.384553, 41.612893], [-8.37255, 41.612973], [-8.348454, 41.622123], [-8.332981, 41.635111], [-8.326614, 41.644081], [-8.322924, 41.653067], [-8.321555, 41.671073], [-8.328186, 41.689126], [-8.33567, 41.698019], [-8.347607, 41.70603], [-8.359597, 41.70903], [-8.371627, 41.708033], [-8.383678, 41.704712]], [[-8.383867, 41.684992], [-8.371858, 41.684256], [-8.363466, 41.68032], [-8.355799, 41.67127], [-8.35556, 41.662262], [-8.36013, 41.655286], [-8.37221, 41.64811], [-8.384225, 41.647359], [-8.396195, 41.651485], [-8.406005, 41.662533], [-8.405841, 41.67154], [-8.39743, 41.680503], [-8.383867, 41.684992]]], [[[-7.854885, 41.701936], [-7.849636, 41.703346], [-7.854733, 41.710539], [-7.856373, 41.703413], [-7.854885, 41.701936]]], [[[-8.156021, 41.650601], [-8.166522, 41.643032], [-8.171202, 41.634059], [-8.170465, 41.625046], [-8.16418, 41.615994], [-8.15654, 41.610785], [-8.144588, 41.607031], [-8.108592, 41.606517], [-8.096639, 41.603059], [-8.084637, 41.603212], [-8.078886, 41.606335], [-8.073299, 41.615297], [-8.079788, 41.624356], [-8.084302, 41.626914], [-8.096274, 41.629221], [-8.109131, 41.642602], [-8.119998, 41.650273], [-8.131952, 41.654378], [-8.143961, 41.654464], [-8.156021, 41.650601]], [[-8.132056, 41.646645], [-8.122992, 41.642708], [-8.117285, 41.633657], [-8.123828, 41.6247], [-8.132405, 41.620601], [-8.144384, 41.622451], [-8.148041, 41.624882], [-8.153106, 41.633927], [-8.148043, 41.642897], [-8.144085, 41.645055], [-8.132056, 41.646645]]], [[[-8.590862, 41.620509], [-8.592603, 41.609303], [-8.58866, 41.591274], [-8.580105, 41.573229], [-8.556894, 41.537112], [-8.553774, 41.528093], [-8.549753, 41.492048], [-8.543593, 41.483016], [-8.520966, 41.464909], [-8.513556, 41.45587], [-8.509081, 41.446844], [-8.507842, 41.437831], [-8.511131, 41.428838], [-8.522115, 41.419876], [-8.530004, 41.416317], [-8.541984, 41.414211], [-8.553945, 41.414918], [-8.565888, 41.418328], [-8.577813, 41.424782], [-8.589697, 41.438017], [-8.596343, 41.456191], [-8.60925, 41.47425], [-8.620997, 41.483297], [-8.649215, 41.499602], [-8.661166, 41.505301], [-8.685091, 41.513537], [-8.721015, 41.519912], [-8.756603, 41.519694], [-8.780957, 41.515003], [-8.813421, 41.50205], [-8.812204, 41.495903], [-8.805308, 41.483058], [-8.798552, 41.474753], [-8.798251, 41.469014], [-8.801548, 41.4468], [-8.806115, 41.43713], [-8.807354, 41.425915], [-8.811211, 41.415789], [-8.800534, 41.165432], [-8.782089, 41.176278], [-8.752872, 41.204418], [-8.740678, 41.213399], [-8.72325, 41.222366], [-8.698393, 41.228757], [-8.67453, 41.228719], [-8.654901, 41.222182], [-8.644133, 41.213141], [-8.63834, 41.204115], [-8.633309, 41.189746], [-8.625658, 41.186628], [-8.621132, 41.178994], [-8.613374, 41.177451], [-8.608583, 41.174095], [-8.609164, 41.172066], [-8.604942, 41.164881], [-8.600767, 41.164222], [-8.589766, 41.167193], [-8.589194, 41.170572], [-8.583263, 41.174422], [-8.582094, 41.177803], [-8.578825, 41.178941], [-8.581296, 41.191762], [-8.575958, 41.195609], [-8.576894, 41.201908], [-8.574515, 41.202593], [-8.57423, 41.20462], [-8.567971, 41.204644], [-8.565895, 41.206227], [-8.567697, 41.208246], [-8.566512, 41.209376], [-8.559636, 41.206251], [-8.554271, 41.20627], [-8.549521, 41.209214], [-8.544157, 41.209458], [-8.54238, 41.211265], [-8.532257, 41.213102], [-8.52713, 41.203215], [-8.523236, 41.200077], [-8.51163, 41.203042], [-8.510456, 41.206197], [-8.505693, 41.207113], [-8.504239, 41.213646], [-8.500076, 41.21546], [-8.50308, 41.219502], [-8.502204, 41.222656], [-8.495642, 41.222227], [-8.495947, 41.223351], [-8.490894, 41.226294], [-8.487935, 41.230354], [-8.490331, 41.232373], [-8.489156, 41.235528], [-8.486181, 41.236888], [-8.484411, 41.240495], [-8.476346, 41.237818], [-8.475756, 41.23917], [-8.470986, 41.23941], [-8.471604, 41.243459], [-8.469227, 41.245267], [-8.463258, 41.244384], [-8.459989, 41.246644], [-8.454323, 41.246886], [-8.455541, 41.251834], [-8.452276, 41.25522], [-8.449891, 41.255452], [-8.449304, 41.257479], [-8.447812, 41.257258], [-8.449028, 41.261982], [-8.439785, 41.262907], [-8.438023, 41.268989], [-8.434745, 41.269673], [-8.432691, 41.277107], [-8.427032, 41.279372], [-8.429143, 41.284319], [-8.426171, 41.287028], [-8.426488, 41.291079], [-8.425013, 41.294909], [-8.422037, 41.296942], [-8.422647, 41.299867], [-8.407744, 41.304856], [-8.406262, 41.307335], [-8.403277, 41.307342], [-8.401801, 41.311398], [-8.399712, 41.311628], [-8.400316, 41.313202], [-8.396738, 41.314336], [-8.398835, 41.316131], [-8.393775, 41.31997], [-8.393489, 41.323122], [-8.391105, 41.324253], [-8.386325, 41.323588], [-8.380382, 41.331254], [-8.375305, 41.33104], [-8.37201, 41.328346], [-8.361563, 41.329718], [-8.358276, 41.329049], [-8.357673, 41.327249], [-8.350207, 41.327264], [-8.346032, 41.328847], [-8.342462, 41.333131], [-8.333215, 41.336299], [-8.326363, 41.342163], [-8.324568, 41.341041], [-8.323376, 41.341943], [-8.320676, 41.338121], [-8.312604, 41.334983], [-8.313794, 41.333405], [-8.31139, 41.328007], [-8.307502, 41.325762], [-8.305116, 41.326891], [-8.303024, 41.325994], [-8.303615, 41.323742], [-8.301216, 41.319694], [-8.296431, 41.316774], [-8.297618, 41.313846], [-8.296116, 41.310022], [-8.294755, 41.310924], [-8.28778, 41.337596], [-8.28988, 41.37364], [-8.294261, 41.391682], [-8.298441, 41.400715], [-8.305072, 41.409763], [-8.314594, 41.418513], [-8.338388, 41.432127], [-8.362265, 41.438375], [-8.386201, 41.438821], [-8.434125, 41.433691], [-8.446086, 41.434738], [-8.455357, 41.437595], [-8.464635, 41.446646], [-8.463998, 41.464658], [-8.456307, 41.482637], [-8.449672, 41.491612], [-8.433503, 41.50524], [-8.407356, 41.518424], [-8.39923, 41.527389], [-8.394231, 41.545378], [-8.396667, 41.563405], [-8.40045, 41.572432], [-8.408836, 41.582353], [-8.420784, 41.587826], [-8.44473, 41.593574], [-8.456692, 41.597976], [-8.468637, 41.604575], [-8.485162, 41.617879], [-8.504375, 41.638983], [-8.516326, 41.646466], [-8.528307, 41.65023], [-8.53586, 41.650823], [-8.543876, 41.637352], [-8.543855, 41.633976], [-8.536342, 41.631977], [-8.535132, 41.630406], [-8.543431, 41.61462], [-8.554533, 41.615255], [-8.557244, 41.617046], [-8.562639, 41.61635], [-8.568056, 41.619031], [-8.570735, 41.616095], [-8.577321, 41.614269], [-8.581231, 41.615829], [-8.585766, 41.620988], [-8.590862, 41.620509]], [[-8.516695, 41.597077], [-8.504722, 41.593647], [-8.500489, 41.590925], [-8.492269, 41.581882], [-8.490757, 41.572868], [-8.495111, 41.56388], [-8.50501, 41.555963], [-8.517025, 41.552894], [-8.528999, 41.555203], [-8.540937, 41.562784], [-8.546741, 41.573102], [-8.54619, 41.582107], [-8.539347, 41.591087], [-8.528701, 41.596277], [-8.516695, 41.597077]], [[-8.481245, 41.528724], [-8.469304, 41.523103], [-8.464226, 41.518703], [-8.462393, 41.509687], [-8.469494, 41.499836], [-8.481515, 41.494846], [-8.493488, 41.495823], [-8.502345, 41.50086], [-8.505398, 41.505061], [-8.508242, 41.509893], [-8.507082, 41.518895], [-8.493228, 41.529105], [-8.481245, 41.528724]], [[-8.673192, 41.496636], [-8.661222, 41.494738], [-8.649277, 41.488154], [-8.643816, 41.48337], [-8.640345, 41.474352], [-8.642274, 41.46535], [-8.649444, 41.45705], [-8.661448, 41.45128], [-8.673426, 41.450041], [-8.685388, 41.452138], [-8.694011, 41.456492], [-8.702922, 41.465523], [-8.70524, 41.474536], [-8.702621, 41.483537], [-8.692441, 41.492518], [-8.68518, 41.4952], [-8.673192, 41.496636]], [[-8.362597, 41.404465], [-8.350649, 41.402853], [-8.338733, 41.39818], [-8.326877, 41.387798], [-8.32091, 41.373827], [-8.321415, 41.364822], [-8.325017, 41.355836], [-8.332857, 41.346874], [-8.339301, 41.34204], [-8.3513, 41.337321], [-8.36327, 41.335455], [-8.375213, 41.336338], [-8.38713, 41.339939], [-8.398721, 41.347237], [-8.406364, 41.356284], [-8.409503, 41.365308], [-8.40945, 41.374315], [-8.406286, 41.383307], [-8.398491, 41.392274], [-8.382111, 41.401195], [-8.37457, 41.403445], [-8.362597, 41.404465]], [[-8.709984, 41.305976], [-8.70584, 41.303393], [-8.702102, 41.294376], [-8.710074, 41.285437], [-8.722018, 41.28519], [-8.731442, 41.294448], [-8.727489, 41.303446], [-8.721928, 41.306378], [-8.709984, 41.305976]]], [[[-8.134209, 41.485576], [-8.137791, 41.48069], [-8.135854, 41.471668], [-8.122537, 41.462849], [-8.110565, 41.462664], [-8.097002, 41.47137], [-8.095398, 41.480364], [-8.10294, 41.489431], [-8.110163, 41.492029], [-8.122137, 41.492473], [-8.130909, 41.489645], [-8.134209, 41.485576]]]]}}, {"id": "1", "type": "Feature", "properties": {"fill": "#fffebe", "value_min": 0.47, "value_max": 0.53}, "geometry": {"type": "MultiPolygon", "coordinates": [[[[-8.383867, 41.684992], [-8.39743, 41.680503], [-8.405841, 41.67154], [-8.406005, 41.662533], [-8.396195, 41.651485], [-8.384225, 41.647359], [-8.37221, 41.64811], [-8.36013, 41.655286], [-8.35556, 41.662262], [-8.355799, 41.67127], [-8.363466, 41.68032], [-8.371858, 41.684256], [-8.383867, 41.684992]]], [[[-8.132056, 41.646645], [-8.144085, 41.645055], [-8.148043, 41.642897], [-8.153106, 41.633927], [-8.148041, 41.624882], [-8.144384, 41.622451], [-8.132405, 41.620601], [-8.123828, 41.6247], [-8.117285, 41.633657], [-8.122992, 41.642708], [-8.132056, 41.646645]], [[-8.131926, 41.633769], [-8.132232, 41.633497], [-8.132842, 41.633776], [-8.132224, 41.634132], [-8.131926, 41.633769]]], [[[-8.516695, 41.597077], [-8.528701, 41.596277], [-8.539347, 41.591087], [-8.54619, 41.582107], [-8.546741, 41.573102], [-8.540937, 41.562784], [-8.528999, 41.555203], [-8.517025, 41.552894], [-8.50501, 41.555963], [-8.495111, 41.56388], [-8.490757, 41.572868], [-8.492269, 41.581882], [-8.500489, 41.590925], [-8.504722, 41.593647], [-8.516695, 41.597077]]], [[[-8.481245, 41.528724], [-8.493228, 41.529105], [-8.507082, 41.518895], [-8.508242, 41.509893], [-8.505398, 41.505061], [-8.502345, 41.50086], [-8.493488, 41.495823], [-8.481515, 41.494846], [-8.469494, 41.499836], [-8.462393, 41.509687], [-8.464226, 41.518703], [-8.469304, 41.523103], [-8.481245, 41.528724]]], [[[-8.673192, 41.496636], [-8.68518, 41.4952], [-8.692441, 41.492518], [-8.702621, 41.483537], [-8.70524, 41.474536], [-8.702922, 41.465523], [-8.694011, 41.456492], [-8.685388, 41.452138], [-8.673426, 41.450041], [-8.661448, 41.45128], [-8.649444, 41.45705], [-8.642274, 41.46535], [-8.640345, 41.474352], [-8.643816, 41.48337], [-8.649277, 41.488154], [-8.661222, 41.494738], [-8.673192, 41.496636]]], [[[-8.362597, 41.404465], [-8.37457, 41.403445], [-8.382111, 41.401195], [-8.398491, 41.392274], [-8.406286, 41.383307], [-8.40945, 41.374315], [-8.409503, 41.365308], [-8.406364, 41.356284], [-8.398721, 41.347237], [-8.38713, 41.339939], [-8.375213, 41.336338], [-8.36327, 41.335455], [-8.3513, 41.337321], [-8.339301, 41.34204], [-8.332857, 41.346874], [-8.325017, 41.355836], [-8.321415, 41.364822], [-8.32091, 41.373827], [-8.326877, 41.387798], [-8.338733, 41.39818], [-8.350649, 41.402853], [-8.362597, 41.404465]], [[-8.36006, 41.383059], [-8.350903, 41.377354], [-8.349097, 41.37399], [-8.350978, 41.369733], [-8.357727, 41.365031], [-8.362995, 41.363647], [-8.36734, 41.365084], [-8.375622, 41.374137], [-8.365075, 41.383087], [-8.36006, 41.383059]]], [[[-8.709984, 41.305976], [-8.721928, 41.306378], [-8.727489, 41.303446], [-8.731442, 41.294448], [-8.722018, 41.28519], [-8.710074, 41.285437], [-8.702102, 41.294376], [-8.70584, 41.303393], [-8.709984, 41.305976]]]]}}, {"id": "0", "type": "Feature", "properties": {"fill": "#eef8a7", "value_min": 0.4, "value_max": 0.47}, "geometry": {"type": "MultiPolygon", "coordinates": [[[[-8.131926, 41.633769], [-8.132224, 41.634132], [-8.132842, 41.633776], [-8.132232, 41.633497], [-8.131926, 41.633769]]], [[[-8.36006, 41.383059], [-8.365075, 41.383087], [-8.375622, 41.374137], [-8.36734, 41.365084], [-8.362995, 41.363647], [-8.357727, 41.365031], [-8.350978, 41.369733], [-8.349097, 41.37399], [-8.350903, 41.377354], [-8.36006, 41.383059]]]]}}, {"id": "3", "type": "Feature", "properties": {"fill": "#fc9863", "value_min": 0.6, "value_max": 0.67}, "geometry": {"type": "MultiPolygon", "coordinates": [[[[-8.590862, 41.620509], [-8.596534, 41.616668], [-8.601628, 41.615972], [-8.603996, 41.611686], [-8.613256, 41.606696], [-8.619881, 41.610269], [-8.621338, 41.604636], [-8.628833, 41.604378], [-8.636302, 41.600744], [-8.64075, 41.594422], [-8.645536, 41.593051], [-8.646744, 41.594171], [-8.649125, 41.591909], [-8.656622, 41.5921], [-8.660788, 41.588255], [-8.663794, 41.589141], [-8.665265, 41.585758], [-8.66948, 41.587989], [-8.684455, 41.586117], [-8.685608, 41.58071], [-8.697261, 41.576376], [-8.701703, 41.570277], [-8.707704, 41.570923], [-8.711586, 41.569327], [-8.716422, 41.573805], [-8.720316, 41.57356], [-8.725151, 41.577811], [-8.726633, 41.576003], [-8.734424, 41.575737], [-8.736564, 41.580228], [-8.738354, 41.579318], [-8.740778, 41.582006], [-8.74467, 41.581535], [-8.750711, 41.58623], [-8.756374, 41.582823], [-8.75635, 41.580347], [-8.762327, 41.578514], [-8.764443, 41.580303], [-8.767441, 41.580286], [-8.769874, 41.583874], [-8.768997, 41.58613], [-8.773228, 41.589482], [-8.775371, 41.593972], [-8.78556, 41.593464], [-8.797327, 41.600599], [-8.804218, 41.600109], [-8.80456, 41.604158], [-8.809434, 41.611332], [-8.828644, 41.609656], [-8.82839, 41.585633], [-8.818497, 41.554794], [-8.8221, 41.547542], [-8.821965, 41.534907], [-8.815926, 41.525624], [-8.81063, 41.5101], [-8.813421, 41.50205], [-8.780957, 41.515003], [-8.756603, 41.519694], [-8.721015, 41.519912], [-8.685091, 41.513537], [-8.661166, 41.505301], [-8.649215, 41.499602], [-8.620997, 41.483297], [-8.60925, 41.47425], [-8.596343, 41.456191], [-8.589697, 41.438017], [-8.577813, 41.424782], [-8.565888, 41.418328], [-8.553945, 41.414918], [-8.541984, 41.414211], [-8.530004, 41.416317], [-8.522115, 41.419876], [-8.511131, 41.428838], [-8.507842, 41.437831], [-8.509081, 41.446844], [-8.513556, 41.45587], [-8.520966, 41.464909], [-8.543593, 41.483016], [-8.549753, 41.492048], [-8.553774, 41.528093], [-8.556894, 41.537112], [-8.580105, 41.573229], [-8.58866, 41.591274], [-8.592603, 41.609303], [-8.590862, 41.620509]], [[-8.636847, 41.568791], [-8.624858, 41.567824], [-8.612887, 41.564091], [-8.600931, 41.55795], [-8.58901, 41.546815], [-8.582971, 41.53721], [-8.580729, 41.528194], [-8.581572, 41.51919], [-8.58926, 41.507238], [-8.601289, 41.499748], [-8.613284, 41.497464], [-8.625257, 41.498837], [-8.637215, 41.502965], [-8.651922, 41.510417], [-8.663843, 41.51946], [-8.670933, 41.528488], [-8.673997, 41.537504], [-8.673423, 41.54651], [-8.668657, 41.555503], [-8.655662, 41.564473], [-8.64885, 41.567112], [-8.636847, 41.568791]]], [[[-8.53586, 41.650823], [-8.528307, 41.65023], [-8.516326, 41.646466], [-8.504375, 41.638983], [-8.485162, 41.617879], [-8.468637, 41.604575], [-8.456692, 41.597976], [-8.44473, 41.593574], [-8.420784, 41.587826], [-8.408836, 41.582353], [-8.40045, 41.572432], [-8.396667, 41.563405], [-8.394231, 41.545378], [-8.39923, 41.527389], [-8.407356, 41.518424], [-8.433503, 41.50524], [-8.449672, 41.491612], [-8.456307, 41.482637], [-8.463998, 41.464658], [-8.464635, 41.446646], [-8.455357, 41.437595], [-8.446086, 41.434738], [-8.434125, 41.433691], [-8.386201, 41.438821], [-8.362265, 41.438375], [-8.338388, 41.432127], [-8.314594, 41.418513], [-8.305072, 41.409763], [-8.298441, 41.400715], [-8.294261, 41.391682], [-8.28988, 41.37364], [-8.28778, 41.337596], [-8.294755, 41.310924], [-8.281801, 41.316569], [-8.279132, 41.324451], [-8.272266, 41.32536], [-8.265709, 41.331221], [-8.269004, 41.336169], [-8.263339, 41.340902], [-8.262751, 41.345405], [-8.256483, 41.347663], [-8.255889, 41.349689], [-8.249622, 41.353072], [-8.251123, 41.356897], [-8.248141, 41.360052], [-8.248448, 41.364328], [-8.245461, 41.364781], [-8.244272, 41.368384], [-8.241287, 41.370413], [-8.224854, 41.370878], [-8.21738, 41.368182], [-8.214399, 41.373587], [-8.208127, 41.376968], [-8.199163, 41.377423], [-8.194677, 41.374275], [-8.191691, 41.376302], [-8.189299, 41.375403], [-8.184818, 41.376756], [-8.168382, 41.377438], [-8.164499, 41.38059], [-8.152544, 41.375866], [-8.151049, 41.37339], [-8.145073, 41.374742], [-8.139694, 41.377894], [-8.133418, 41.374292], [-8.125051, 41.375193], [-8.119672, 41.376768], [-8.119672, 41.378569], [-8.116683, 41.380144], [-8.117877, 41.385771], [-8.113992, 41.386896], [-8.112795, 41.390723], [-8.110105, 41.390947], [-8.108011, 41.393648], [-8.103827, 41.392972], [-8.105321, 41.394998], [-8.10263, 41.396123], [-8.10801, 41.398825], [-8.108606, 41.403102], [-8.104419, 41.406252], [-8.104119, 41.408728], [-8.101727, 41.409403], [-8.102025, 41.411204], [-8.092756, 41.411201], [-8.09126, 41.414352], [-8.079893, 41.41975], [-8.077503, 41.416597], [-8.070923, 41.41862], [-8.066739, 41.416142], [-8.061953, 41.417264], [-8.059852, 41.424916], [-8.055959, 41.429415], [-8.05745, 41.432793], [-8.056549, 41.436394], [-8.069999, 41.447206], [-8.068788, 41.462286], [-8.073872, 41.46499], [-8.074468, 41.468592], [-8.074164, 41.473543], [-8.069082, 41.478943], [-8.082058, 41.489266], [-8.107309, 41.498472], [-8.122036, 41.499936], [-8.137582, 41.498703], [-8.158507, 41.489851], [-8.167452, 41.480908], [-8.182503, 41.455358], [-8.194583, 41.446698], [-8.206589, 41.443849], [-8.218564, 41.44354], [-8.242457, 41.447712], [-8.266282, 41.458243], [-8.282016, 41.472673], [-8.289932, 41.48545], [-8.296062, 41.499782], [-8.300277, 41.517823], [-8.30023, 41.52683], [-8.29818, 41.535825], [-8.293633, 41.544804], [-8.277102, 41.562017], [-8.252956, 41.575925], [-8.228886, 41.582578], [-8.216878, 41.583563], [-8.168921, 41.581202], [-8.084938, 41.58189], [-8.072921, 41.583341], [-8.060873, 41.586896], [-8.048639, 41.597081], [-8.046382, 41.60607], [-8.04895, 41.615098], [-8.054562, 41.624151], [-8.060258, 41.629271], [-8.07214, 41.637897], [-8.096015, 41.647759], [-8.119868, 41.659863], [-8.131816, 41.664486], [-8.155812, 41.666622], [-8.20393, 41.660969], [-8.215935, 41.661475], [-8.227898, 41.665506], [-8.23978, 41.67651], [-8.244428, 41.688606], [-8.243866, 41.697609], [-8.239878, 41.70659], [-8.227254, 41.719296], [-8.215159, 41.725275], [-8.203127, 41.726063], [-8.179098, 41.724686], [-8.167043, 41.72712], [-8.15557, 41.733023], [-8.146433, 41.741962], [-8.143527, 41.750947], [-8.144443, 41.759961], [-8.14928, 41.769004], [-8.154385, 41.775497], [-8.180186, 41.796249], [-8.189906, 41.809812], [-8.193, 41.810486], [-8.197158, 41.814129], [-8.201063, 41.808724], [-8.204973, 41.807372], [-8.205872, 41.804445], [-8.213692, 41.803765], [-8.217598, 41.80016], [-8.217589, 41.793634], [-8.224207, 41.794303], [-8.229917, 41.791598], [-8.240744, 41.791588], [-8.24074, 41.789338], [-8.244347, 41.787984], [-8.245546, 41.785731], [-8.251257, 41.784375], [-8.251845, 41.777172], [-8.257551, 41.773564], [-8.261762, 41.774235], [-8.269568, 41.76905], [-8.269565, 41.767474], [-8.275272, 41.765202], [-8.269311, 41.760823], [-8.264096, 41.751783], [-8.26634, 41.74279], [-8.275167, 41.734816], [-8.287228, 41.731597], [-8.300801, 41.733998], [-8.311168, 41.743068], [-8.312574, 41.752083], [-8.307783, 41.759916], [-8.311096, 41.762195], [-8.318308, 41.761283], [-8.325233, 41.765098], [-8.328234, 41.763292], [-8.336653, 41.763728], [-8.341756, 41.761468], [-8.344765, 41.762363], [-8.349267, 41.760103], [-8.352557, 41.755145], [-8.349814, 41.744122], [-8.352516, 41.743441], [-8.352203, 41.739616], [-8.357897, 41.735103], [-8.362407, 41.735994], [-8.368703, 41.73193], [-8.374122, 41.734845], [-8.384922, 41.73032], [-8.387032, 41.731891], [-8.393033, 41.729852], [-8.396942, 41.730518], [-8.400531, 41.726683], [-8.402934, 41.726452], [-8.404721, 41.722847], [-8.417349, 41.725067], [-8.422737, 41.720552], [-8.429643, 41.719859], [-8.430533, 41.717381], [-8.435927, 41.714441], [-8.441632, 41.713975], [-8.4446, 41.70654], [-8.453868, 41.697961], [-8.453255, 41.695487], [-8.461659, 41.694563], [-8.482012, 41.682123], [-8.484371, 41.674238], [-8.49308, 41.674886], [-8.499963, 41.671038], [-8.50927, 41.671233], [-8.51018, 41.672806], [-8.511967, 41.670324], [-8.509856, 41.668755], [-8.512252, 41.667847], [-8.514629, 41.663788], [-8.522103, 41.658811], [-8.525706, 41.659023], [-8.527769, 41.652714], [-8.53586, 41.650823]], [[-8.383678, 41.704712], [-8.371627, 41.708033], [-8.359597, 41.70903], [-8.347607, 41.70603], [-8.33567, 41.698019], [-8.328186, 41.689126], [-8.321555, 41.671073], [-8.322924, 41.653067], [-8.326614, 41.644081], [-8.332981, 41.635111], [-8.348454, 41.622123], [-8.37255, 41.612973], [-8.384553, 41.612893], [-8.396499, 41.618949], [-8.420284, 41.643657], [-8.44304, 41.662719], [-8.447509, 41.671748], [-8.442149, 41.680729], [-8.423832, 41.689645], [-8.383678, 41.704712]], [[-8.156021, 41.650601], [-8.143961, 41.654464], [-8.131952, 41.654378], [-8.119998, 41.650273], [-8.109131, 41.642602], [-8.096274, 41.629221], [-8.084302, 41.626914], [-8.079788, 41.624356], [-8.073299, 41.615297], [-8.078886, 41.606335], [-8.084637, 41.603212], [-8.096639, 41.603059], [-8.108592, 41.606517], [-8.144588, 41.607031], [-8.15654, 41.610785], [-8.16418, 41.615994], [-8.170465, 41.625046], [-8.171202, 41.634059], [-8.166522, 41.643032], [-8.156021, 41.650601]], [[-8.134209, 41.485576], [-8.130909, 41.489645], [-8.122137, 41.492473], [-8.110163, 41.492029], [-8.10294, 41.489431], [-8.095398, 41.480364], [-8.097002, 41.47137], [-8.110565, 41.462664], [-8.122537, 41.462849], [-8.135854, 41.471668], [-8.137791, 41.48069], [-8.134209, 41.485576]]], [[[-8.633309, 41.189746], [-8.63834, 41.204115], [-8.644133, 41.213141], [-8.654901, 41.222182], [-8.67453, 41.228719], [-8.698393, 41.228757], [-8.72325, 41.222366], [-8.740678, 41.213399], [-8.752872, 41.204418], [-8.782089, 41.176278], [-8.800534, 41.165432], [-8.799695, 41.14406], [-8.67527, 41.147484], [-8.676193, 41.146567], [-8.674793, 41.146932], [-8.674204, 41.147693], [-8.674849, 41.153767], [-8.672489, 41.15648], [-8.66117, 41.156307], [-8.662078, 41.158104], [-8.660313, 41.160813], [-8.657033, 41.160378], [-8.654961, 41.161963], [-8.653231, 41.169174], [-8.655366, 41.175467], [-8.647955, 41.180228], [-8.647696, 41.185181], [-8.640929, 41.196241], [-8.634946, 41.193341], [-8.633309, 41.189746]]], [[[-7.853512, 41.862385], [-7.859246, 41.856558], [-7.872755, 41.847391], [-7.873066, 41.844875], [-7.874564, 41.846561], [-7.888622, 41.836396], [-7.913167, 41.809374], [-7.92524, 41.807328], [-7.94932, 41.807062], [-7.964978, 41.803519], [-7.978047, 41.794629], [-7.981734, 41.785655], [-7.980373, 41.776636], [-7.972402, 41.758551], [-7.962342, 41.746089], [-7.950412, 41.740135], [-7.938397, 41.739481], [-7.926305, 41.743465], [-7.916036, 41.749026], [-7.889775, 41.769683], [-7.87765, 41.775046], [-7.865587, 41.776767], [-7.853567, 41.776113], [-7.84162, 41.771373], [-7.83516, 41.766248], [-7.832136, 41.757211], [-7.835537, 41.748238], [-7.849112, 41.739368], [-7.854252, 41.737583], [-7.866451, 41.727685], [-7.876905, 41.703616], [-7.879067, 41.69463], [-7.879053, 41.685623], [-7.87673, 41.679487], [-7.873401, 41.686198], [-7.868896, 41.686413], [-7.868008, 41.68326], [-7.864403, 41.683701], [-7.864096, 41.685276], [-7.858987, 41.68639], [-7.857773, 41.689538], [-7.854776, 41.68818], [-7.847538, 41.695365], [-7.837309, 41.699391], [-7.835792, 41.702763], [-7.839682, 41.705924], [-7.838465, 41.709522], [-7.832453, 41.710407], [-7.825252, 41.708813], [-7.818621, 41.713522], [-7.815291, 41.718689], [-7.808986, 41.717996], [-7.808396, 41.715744], [-7.803298, 41.714154], [-7.790966, 41.717044], [-7.789449, 41.719966], [-7.78464, 41.720402], [-7.78252, 41.723546], [-7.776204, 41.724652], [-7.773786, 41.727346], [-7.770798, 41.72441], [-7.765698, 41.723044], [-7.761765, 41.727758], [-7.762933, 41.733839], [-7.759307, 41.737203], [-7.759597, 41.739005], [-7.75689, 41.739446], [-7.758687, 41.740577], [-7.757758, 41.745301], [-7.748417, 41.749321], [-7.747786, 41.754496], [-7.743866, 41.756509], [-7.743242, 41.760244], [-7.757489, 41.766709], [-7.764409, 41.774516], [-7.767214, 41.783553], [-7.765367, 41.79254], [-7.756802, 41.802292], [-7.744661, 41.807597], [-7.727913, 41.808099], [-7.728171, 41.814974], [-7.732041, 41.821514], [-7.74345, 41.825605], [-7.738918, 41.82874], [-7.742196, 41.833928], [-7.74729, 41.837772], [-7.746349, 41.84407], [-7.750246, 41.846784], [-7.750532, 41.849261], [-7.743309, 41.849012], [-7.746901, 41.8524], [-7.746881, 41.855776], [-7.73843, 41.859348], [-7.734159, 41.868337], [-7.730228, 41.871024], [-7.729293, 41.875972], [-7.720533, 41.880218], [-7.720523, 41.881793], [-7.725335, 41.882935], [-7.726208, 41.887665], [-7.737044, 41.888828], [-7.73944, 41.891087], [-7.74246, 41.889747], [-7.742785, 41.885922], [-7.756022, 41.888441], [-7.758719, 41.890926], [-7.756592, 41.89407], [-7.758076, 41.897901], [-7.764097, 41.898595], [-7.779227, 41.886264], [-7.785257, 41.885157], [-7.788886, 41.882467], [-7.794007, 41.882257], [-7.796739, 41.878214], [-7.794349, 41.87438], [-7.797064, 41.873488], [-7.803381, 41.874857], [-7.804914, 41.869459], [-7.813032, 41.871958], [-7.814229, 41.873537], [-7.823863, 41.874013], [-7.825059, 41.875817], [-7.830479, 41.875831], [-7.830789, 41.874031], [-7.832894, 41.874712], [-7.83772, 41.872924], [-7.842528, 41.875187], [-7.841663, 41.866632], [-7.849515, 41.861475], [-7.853512, 41.862385]], [[-7.877097, 41.806743], [-7.880656, 41.811735], [-7.876912, 41.817296], [-7.864869, 41.817502], [-7.860543, 41.811537], [-7.865058, 41.806766], [-7.877097, 41.806743]], [[-7.854885, 41.701936], [-7.856373, 41.703413], [-7.854733, 41.710539], [-7.849636, 41.703346], [-7.854885, 41.701936]]], [[[-8.11939, 41.6949], [-8.116013, 41.696697], [-8.119341, 41.698473], [-8.120866, 41.696734], [-8.11939, 41.6949]]]]}}, {"id": "8", "type": "Feature", "properties": {"fill": "#da382b", "value_min": 0.93, "value_max": 1.0}, "geometry": {"type": "Polygon", "coordinates": [[[-8.115312, 41.525556], [-8.109766, 41.521052], [-8.097769, 41.521883], [-8.09372, 41.525388], [-8.097594, 41.534488], [-8.10957, 41.53537], [-8.115312, 41.525556]]]}}, {"id": "4", "type": "Feature", "properties": {"fill": "#f77f52", "value_min": 0.67, "value_max": 0.73}, "geometry": {"type": "MultiPolygon", "coordinates": [[[[-8.189906, 41.809812], [-8.180186, 41.796249], [-8.154385, 41.775497], [-8.14928, 41.769004], [-8.144443, 41.759961], [-8.143527, 41.750947], [-8.146433, 41.741962], [-8.15557, 41.733023], [-8.167043, 41.72712], [-8.179098, 41.724686], [-8.203127, 41.726063], [-8.215159, 41.725275], [-8.227254, 41.719296], [-8.239878, 41.70659], [-8.243866, 41.697609], [-8.244428, 41.688606], [-8.23978, 41.67651], [-8.227898, 41.665506], [-8.215935, 41.661475], [-8.20393, 41.660969], [-8.155812, 41.666622], [-8.131816, 41.664486], [-8.119868, 41.659863], [-8.096015, 41.647759], [-8.07214, 41.637897], [-8.060258, 41.629271], [-8.054562, 41.624151], [-8.04895, 41.615098], [-8.046382, 41.60607], [-8.048639, 41.597081], [-8.060873, 41.586896], [-8.072921, 41.583341], [-8.084938, 41.58189], [-8.168921, 41.581202], [-8.216878, 41.583563], [-8.228886, 41.582578], [-8.252956, 41.575925], [-8.277102, 41.562017], [-8.293633, 41.544804], [-8.29818, 41.535825], [-8.30023, 41.52683], [-8.300277, 41.517823], [-8.296062, 41.499782], [-8.289932, 41.48545], [-8.282016, 41.472673], [-8.266282, 41.458243], [-8.242457, 41.447712], [-8.218564, 41.44354], [-8.206589, 41.443849], [-8.194583, 41.446698], [-8.182503, 41.455358], [-8.167452, 41.480908], [-8.158507, 41.489851], [-8.137582, 41.498703], [-8.122036, 41.499936], [-8.107309, 41.498472], [-8.082058, 41.489266], [-8.069082, 41.478943], [-8.066074, 41.483218], [-8.066069, 41.48817], [-8.072054, 41.490199], [-8.07175, 41.494925], [-8.07923, 41.500499], [-8.098046, 41.501978], [-8.134287, 41.507686], [-8.14585, 41.511285], [-8.15691, 41.516861], [-8.164403, 41.525923], [-8.16473, 41.534933], [-8.160176, 41.543907], [-8.150955, 41.552846], [-8.14526, 41.556088], [-8.1332, 41.561214], [-8.121167, 41.564215], [-8.097163, 41.565471], [-8.082176, 41.563566], [-8.081276, 41.565382], [-8.078879, 41.56493], [-8.075279, 41.568305], [-8.073182, 41.568079], [-8.069283, 41.570553], [-8.068081, 41.573478], [-8.056684, 41.579549], [-8.052181, 41.584498], [-8.052777, 41.587649], [-8.037169, 41.600242], [-8.031467, 41.602938], [-8.02367, 41.603156], [-8.019174, 41.601802], [-8.015872, 41.603824], [-8.013474, 41.603372], [-8.005971, 41.60629], [-8.003562, 41.611239], [-7.99936, 41.61281], [-7.998462, 41.612359], [-7.999669, 41.608759], [-7.996976, 41.605829], [-7.996684, 41.602003], [-7.984685, 41.603564], [-7.982292, 41.60086], [-7.975689, 41.603552], [-7.974482, 41.606701], [-7.970882, 41.607147], [-7.969091, 41.603768], [-7.965796, 41.602413], [-7.9541, 41.602846], [-7.952606, 41.600592], [-7.947808, 41.60081], [-7.945413, 41.599456], [-7.942725, 41.595625], [-7.936132, 41.594488], [-7.93791, 41.601694], [-7.937004, 41.603718], [-7.931604, 41.604384], [-7.930979, 41.612711], [-7.925556, 41.620354], [-7.920755, 41.620796], [-7.917748, 41.623041], [-7.915933, 41.627764], [-7.913229, 41.628885], [-7.912613, 41.63361], [-7.906014, 41.633147], [-7.906884, 41.641927], [-7.897869, 41.645511], [-7.89696, 41.647985], [-7.892759, 41.647976], [-7.892145, 41.651576], [-7.902319, 41.659925], [-7.899913, 41.66127], [-7.900198, 41.665547], [-7.898396, 41.665769], [-7.896885, 41.668692], [-7.883969, 41.67069], [-7.877044, 41.676077], [-7.87673, 41.679487], [-7.879053, 41.685623], [-7.879067, 41.69463], [-7.876905, 41.703616], [-7.866451, 41.727685], [-7.854252, 41.737583], [-7.849112, 41.739368], [-7.835537, 41.748238], [-7.832136, 41.757211], [-7.83516, 41.766248], [-7.84162, 41.771373], [-7.853567, 41.776113], [-7.865587, 41.776767], [-7.87765, 41.775046], [-7.889775, 41.769683], [-7.916036, 41.749026], [-7.926305, 41.743465], [-7.938397, 41.739481], [-7.950412, 41.740135], [-7.962342, 41.746089], [-7.972402, 41.758551], [-7.980373, 41.776636], [-7.981734, 41.785655], [-7.978047, 41.794629], [-7.964978, 41.803519], [-7.94932, 41.807062], [-7.92524, 41.807328], [-7.913167, 41.809374], [-7.888622, 41.836396], [-7.874564, 41.846561], [-7.879956, 41.853217], [-7.888076, 41.855486], [-7.891675, 41.859094], [-7.900698, 41.861588], [-7.903848, 41.860244], [-7.904427, 41.847991], [-7.907838, 41.839017], [-7.914017, 41.830068], [-7.925008, 41.821196], [-7.937118, 41.816975], [-7.961233, 41.814823], [-7.985276, 41.817161], [-7.998206, 41.821827], [-8.012614, 41.833624], [-8.013965, 41.828899], [-8.017873, 41.831379], [-8.02901, 41.829589], [-8.037134, 41.831171], [-8.041351, 41.828023], [-8.041054, 41.825097], [-8.045268, 41.824425], [-8.046775, 41.821951], [-8.056712, 41.81588], [-8.06664, 41.817012], [-8.072961, 41.813414], [-8.078678, 41.813417], [-8.082892, 41.810493], [-8.091013, 41.812521], [-8.093421, 41.811397], [-8.093723, 41.808471], [-8.101845, 41.809824], [-8.104853, 41.81185], [-8.115984, 41.812302], [-8.123807, 41.808702], [-8.138247, 41.808477], [-8.139751, 41.813203], [-8.14276, 41.812978], [-8.144866, 41.815228], [-8.149078, 41.814777], [-8.153291, 41.817703], [-8.158106, 41.818377], [-8.165326, 41.81815], [-8.173744, 41.808019], [-8.177655, 41.808242], [-8.183676, 41.812741], [-8.189906, 41.809812]], [[-8.01032, 41.754474], [-7.998369, 41.74954], [-7.98932, 41.740687], [-7.985967, 41.731651], [-7.987406, 41.722657], [-7.99901, 41.708247], [-8.011071, 41.705571], [-8.022991, 41.71211], [-8.035255, 41.723068], [-8.042525, 41.732136], [-8.042352, 41.741142], [-8.033933, 41.750078], [-8.022347, 41.754612], [-8.01032, 41.754474]], [[-8.118836, 41.73548], [-8.109294, 41.732673], [-8.099451, 41.723589], [-8.104471, 41.714622], [-8.119194, 41.709278], [-8.131381, 41.696829], [-8.143511, 41.688427], [-8.155493, 41.690963], [-8.162883, 41.697048], [-8.166459, 41.706081], [-8.164205, 41.715072], [-8.142954, 41.730362], [-8.130872, 41.734648], [-8.118836, 41.73548]], [[-7.890584, 41.722675], [-7.890776, 41.711499], [-7.902806, 41.710961], [-7.905498, 41.712899], [-7.904213, 41.721893], [-7.890584, 41.722675]], [[-8.11939, 41.6949], [-8.120866, 41.696734], [-8.119341, 41.698473], [-8.116013, 41.696697], [-8.11939, 41.6949]], [[-8.083204, 41.704365], [-8.059377, 41.689859], [-8.04739, 41.687829], [-8.019841, 41.695917], [-8.011116, 41.702651], [-7.999213, 41.695169], [-7.987338, 41.686103], [-7.979612, 41.677553], [-7.973179, 41.659481], [-7.974531, 41.650487], [-7.979214, 41.641521], [-7.988154, 41.633972], [-8.000239, 41.628879], [-8.012264, 41.627589], [-8.024244, 41.629192], [-8.036181, 41.633796], [-8.04808, 41.641043], [-8.059943, 41.650988], [-8.071869, 41.656775], [-8.095841, 41.660186], [-8.113001, 41.669653], [-8.116996, 41.678691], [-8.096624, 41.696546], [-8.095284, 41.699999], [-8.083204, 41.704365]], [[-8.253444, 41.533563], [-8.241436, 41.535301], [-8.229462, 41.53416], [-8.212362, 41.526261], [-8.205821, 41.517209], [-8.204363, 41.508192], [-8.207398, 41.499205], [-8.2151, 41.490251], [-8.230068, 41.482995], [-8.24206, 41.481846], [-8.254013, 41.483967], [-8.265913, 41.490946], [-8.272537, 41.499636], [-8.274854, 41.508658], [-8.2731, 41.517654], [-8.265502, 41.527321], [-8.253444, 41.533563]]], [[[-7.872755, 41.847391], [-7.859246, 41.856558], [-7.853512, 41.862385], [-7.858542, 41.862622], [-7.859456, 41.860148], [-7.865481, 41.859262], [-7.87033, 41.851395], [-7.873043, 41.850501], [-7.872755, 41.847391]]], [[[-8.636847, 41.568791], [-8.64885, 41.567112], [-8.655662, 41.564473], [-8.668657, 41.555503], [-8.673423, 41.54651], [-8.673997, 41.537504], [-8.670933, 41.528488], [-8.663843, 41.51946], [-8.651922, 41.510417], [-8.637215, 41.502965], [-8.625257, 41.498837], [-8.613284, 41.497464], [-8.601289, 41.499748], [-8.58926, 41.507238], [-8.581572, 41.51919], [-8.580729, 41.528194], [-8.582971, 41.53721], [-8.58901, 41.546815], [-8.600931, 41.55795], [-8.612887, 41.564091], [-8.624858, 41.567824], [-8.636847, 41.568791]], [[-8.624971, 41.548311], [-8.612997, 41.54559], [-8.601886, 41.537277], [-8.59805, 41.528256], [-8.600052, 41.519256], [-8.611493, 41.510288], [-8.625201, 41.508571], [-8.637162, 41.512368], [-8.646605, 41.519408], [-8.650874, 41.528429], [-8.6488, 41.53743], [-8.636972, 41.546458], [-8.624971, 41.548311]]]]}}, {"id": "7", "type": "Feature", "properties": {"fill": "#e14a35", "value_min": 0.87, "value_max": 0.93}, "geometry": {"type": "MultiPolygon", "coordinates": [[[[-7.968448, 41.839577], [-7.96097, 41.831077], [-7.948965, 41.828803], [-7.943642, 41.830345], [-7.936821, 41.834935], [-7.933471, 41.839258], [-7.935416, 41.848282], [-7.948536, 41.855017], [-7.960618, 41.852829], [-7.965985, 41.848562], [-7.968448, 41.839577]]], [[[-8.095973, 41.543928], [-8.109439, 41.54486], [-8.1215, 41.539646], [-8.126464, 41.534648], [-8.127697, 41.52565], [-8.119175, 41.516578], [-8.10987, 41.513494], [-8.09789, 41.51322], [-8.090598, 41.515514], [-8.089398, 41.519468], [-8.090594, 41.522169], [-8.093588, 41.52307], [-8.091786, 41.531848], [-8.097775, 41.536127], [-8.097774, 41.537927], [-8.106759, 41.543106], [-8.095973, 41.543928]], [[-8.115312, 41.525556], [-8.10957, 41.53537], [-8.097594, 41.534488], [-8.09372, 41.525388], [-8.097769, 41.521883], [-8.109766, 41.521052], [-8.115312, 41.525556]]]]}}, {"id": "6", "type": "Feature", "properties": {"fill": "#e85c3f", "value_min": 0.8, "value_max": 0.87}, "geometry": {"type": "MultiPolygon", "coordinates": [[[[-7.972472, 41.864894], [-7.981135, 41.857704], [-7.985324, 41.848734], [-7.984655, 41.839721], [-7.978909, 41.830664], [-7.961103, 41.822873], [-7.949073, 41.822212], [-7.936987, 41.824915], [-7.927999, 41.8302], [-7.921774, 41.839148], [-7.920961, 41.848147], [-7.924982, 41.857192], [-7.936304, 41.866181], [-7.948294, 41.869755], [-7.960351, 41.869323], [-7.972472, 41.864894]], [[-7.968448, 41.839577], [-7.965985, 41.848562], [-7.960618, 41.852829], [-7.948536, 41.855017], [-7.935416, 41.848282], [-7.933471, 41.839258], [-7.936821, 41.834935], [-7.943642, 41.830345], [-7.948965, 41.828803], [-7.96097, 41.831077], [-7.968448, 41.839577]]], [[[-8.151112, 41.705969], [-8.14335, 41.700537], [-8.131311, 41.702077], [-8.127223, 41.70579], [-8.122672, 41.714762], [-8.131036, 41.722495], [-8.143082, 41.720737], [-8.150477, 41.714971], [-8.151112, 41.705969]]], [[[-8.095683, 41.671521], [-8.083679, 41.670877], [-8.076588, 41.678373], [-8.083461, 41.686236], [-8.095491, 41.685228], [-8.101063, 41.678567], [-8.095683, 41.671521]]], [[[-8.041358, 41.66007], [-8.035928, 41.650756], [-8.023977, 41.6469], [-8.011096, 41.650807], [-8.00622, 41.659772], [-8.011551, 41.668825], [-8.023588, 41.67266], [-8.035946, 41.669032], [-8.041358, 41.66007]]], [[[-8.08223, 41.549176], [-8.097325, 41.553831], [-8.109314, 41.554007], [-8.121341, 41.55137], [-8.134436, 41.543716], [-8.140539, 41.534754], [-8.140525, 41.525747], [-8.13314, 41.516684], [-8.121881, 41.511421], [-8.109939, 41.50839], [-8.0921, 41.508076], [-8.090598, 41.515514], [-8.09789, 41.51322], [-8.10987, 41.513494], [-8.119175, 41.516578], [-8.127697, 41.52565], [-8.126464, 41.534648], [-8.1215, 41.539646], [-8.109439, 41.54486], [-8.095973, 41.543928], [-8.094175, 41.544904], [-8.087885, 41.542876], [-8.083389, 41.5449], [-8.08223, 41.549176]]], [[[-8.62512, 41.52249], [-8.619876, 41.52833], [-8.625072, 41.53081], [-8.62888, 41.52836], [-8.62512, 41.52249]]], [[[-8.241782, 41.505688], [-8.239128, 41.508427], [-8.241722, 41.510774], [-8.246639, 41.508476], [-8.241782, 41.505688]]]]}}, {"id": "5", "type": "Feature", "properties": {"fill": "#ef6d48", "value_min": 0.73, "value_max": 0.8}, "geometry": {"type": "MultiPolygon", "coordinates": [[[[-8.012614, 41.833624], [-7.998206, 41.821827], [-7.985276, 41.817161], [-7.961233, 41.814823], [-7.937118, 41.816975], [-7.925008, 41.821196], [-7.914017, 41.830068], [-7.907838, 41.839017], [-7.904427, 41.847991], [-7.903848, 41.860244], [-7.907309, 41.865203], [-7.906095, 41.868126], [-7.910299, 41.871285], [-7.909985, 41.875111], [-7.915391, 41.879397], [-7.921118, 41.877833], [-7.928044, 41.87807], [-7.935283, 41.874707], [-7.937389, 41.87516], [-7.941618, 41.870891], [-7.951254, 41.871132], [-7.956367, 41.87339], [-7.956362, 41.875191], [-7.960878, 41.875648], [-7.962086, 41.874074], [-7.973828, 41.875216], [-7.987996, 41.869157], [-7.990123, 41.860157], [-7.995547, 41.858138], [-7.994047, 41.855211], [-7.996765, 41.851162], [-8.00339, 41.85027], [-8.007618, 41.843072], [-8.007928, 41.838796], [-8.012614, 41.833624]], [[-7.972472, 41.864894], [-7.960351, 41.869323], [-7.948294, 41.869755], [-7.936304, 41.866181], [-7.924982, 41.857192], [-7.920961, 41.848147], [-7.921774, 41.839148], [-7.927999, 41.8302], [-7.936987, 41.824915], [-7.949073, 41.822212], [-7.961103, 41.822873], [-7.978909, 41.830664], [-7.984655, 41.839721], [-7.985324, 41.848734], [-7.981135, 41.857704], [-7.972472, 41.864894]]], [[[-8.01032, 41.754474], [-8.022347, 41.754612], [-8.033933, 41.750078], [-8.042352, 41.741142], [-8.042525, 41.732136], [-8.035255, 41.723068], [-8.022991, 41.71211], [-8.011071, 41.705571], [-7.99901, 41.708247], [-7.987406, 41.722657], [-7.985967, 41.731651], [-7.98932, 41.740687], [-7.998369, 41.74954], [-8.01032, 41.754474]]], [[[-8.118836, 41.73548], [-8.130872, 41.734648], [-8.142954, 41.730362], [-8.164205, 41.715072], [-8.166459, 41.706081], [-8.162883, 41.697048], [-8.155493, 41.690963], [-8.143511, 41.688427], [-8.131381, 41.696829], [-8.119194, 41.709278], [-8.104471, 41.714622], [-8.099451, 41.723589], [-8.109294, 41.732673], [-8.118836, 41.73548]], [[-8.151112, 41.705969], [-8.150477, 41.714971], [-8.143082, 41.720737], [-8.131036, 41.722495], [-8.122672, 41.714762], [-8.127223, 41.70579], [-8.131311, 41.702077], [-8.14335, 41.700537], [-8.151112, 41.705969]]], [[[-7.890584, 41.722675], [-7.904213, 41.721893], [-7.905498, 41.712899], [-7.902806, 41.710961], [-7.890776, 41.711499], [-7.890584, 41.722675]]], [[[-8.083204, 41.704365], [-8.095284, 41.699999], [-8.096624, 41.696546], [-8.116996, 41.678691], [-8.113001, 41.669653], [-8.095841, 41.660186], [-8.071869, 41.656775], [-8.059943, 41.650988], [-8.04808, 41.641043], [-8.036181, 41.633796], [-8.024244, 41.629192], [-8.012264, 41.627589], [-8.000239, 41.628879], [-7.988154, 41.633972], [-7.979214, 41.641521], [-7.974531, 41.650487], [-7.973179, 41.659481], [-7.979612, 41.677553], [-7.987338, 41.686103], [-7.999213, 41.695169], [-8.011116, 41.702651], [-8.019841, 41.695917], [-8.04739, 41.687829], [-8.059377, 41.689859], [-8.083204, 41.704365]], [[-8.095683, 41.671521], [-8.101063, 41.678567], [-8.095491, 41.685228], [-8.083461, 41.686236], [-8.076588, 41.678373], [-8.083679, 41.670877], [-8.095683, 41.671521]], [[-8.041358, 41.66007], [-8.035946, 41.669032], [-8.023588, 41.67266], [-8.011551, 41.668825], [-8.00622, 41.659772], [-8.011096, 41.650807], [-8.023977, 41.6469], [-8.035928, 41.650756], [-8.041358, 41.66007]]], [[[-8.082176, 41.563566], [-8.097163, 41.565471], [-8.121167, 41.564215], [-8.1332, 41.561214], [-8.14526, 41.556088], [-8.150955, 41.552846], [-8.160176, 41.543907], [-8.16473, 41.534933], [-8.164403, 41.525923], [-8.15691, 41.516861], [-8.14585, 41.511285], [-8.134287, 41.507686], [-8.098046, 41.501978], [-8.07923, 41.500499], [-8.092402, 41.504163], [-8.0921, 41.508076], [-8.109939, 41.50839], [-8.121881, 41.511421], [-8.13314, 41.516684], [-8.140525, 41.525747], [-8.140539, 41.534754], [-8.134436, 41.543716], [-8.121341, 41.55137], [-8.109314, 41.554007], [-8.097325, 41.553831], [-8.08223, 41.549176], [-8.079788, 41.551876], [-8.074396, 41.549848], [-8.072897, 41.551197], [-8.076188, 41.557276], [-8.079783, 41.558403], [-8.082176, 41.563566]]], [[[-8.624971, 41.548311], [-8.636972, 41.546458], [-8.6488, 41.53743], [-8.650874, 41.528429], [-8.646605, 41.519408], [-8.637162, 41.512368], [-8.625201, 41.508571], [-8.611493, 41.510288], [-8.600052, 41.519256], [-8.59805, 41.528256], [-8.601886, 41.537277], [-8.612997, 41.54559], [-8.624971, 41.548311]], [[-8.62512, 41.52249], [-8.62888, 41.52836], [-8.625072, 41.53081], [-8.619876, 41.52833], [-8.62512, 41.52249]]], [[[-8.253444, 41.533563], [-8.265502, 41.527321], [-8.2731, 41.517654], [-8.274854, 41.508658], [-8.272537, 41.499636], [-8.265913, 41.490946], [-8.254013, 41.483967], [-8.24206, 41.481846], [-8.230068, 41.482995], [-8.2151, 41.490251], [-8.207398, 41.499205], [-8.204363, 41.508192], [-8.205821, 41.517209], [-8.212362, 41.526261], [-8.229462, 41.53416], [-8.241436, 41.535301], [-8.253444, 41.533563]], [[-8.241782, 41.505688], [-8.246639, 41.508476], [-8.241722, 41.510774], [-8.239128, 41.508427], [-8.241782, 41.505688]]]]}}]}