{"type": "FeatureCollection", "features": [{"id": "7", "type": "Feature", "properties": {"fill": "#a3a3a3", "value_min": -0.5, "value_max": -0.25}, "geometry": {"type": "MultiPolygon", "coordinates": [[[[-7.889765, 41.77026], [-7.893812, 41.766828], [-7.897048, 41.757852], [-7.894989, 41.739819], [-7.902352, 41.737657], [-7.913655, 41.73099], [-7.922805, 41.722069], [-7.923929, 41.713073], [-7.915696, 41.703988], [-7.902981, 41.700677], [-7.890899, 41.704387], [-7.884018, 41.712692], [-7.881533, 41.721675], [-7.883998, 41.730706], [-7.878333, 41.735847], [-7.854207, 41.740103], [-7.842097, 41.744826], [-7.836078, 41.748244], [-7.830916, 41.757198], [-7.832215, 41.766218], [-7.84156, 41.774678], [-7.853523, 41.778545], [-7.865547, 41.779048], [-7.877616, 41.776974], [-7.889765, 41.77026]], [[-7.86568, 41.77151], [-7.853683, 41.769567], [-7.84862, 41.766384], [-7.845537, 41.757346], [-7.853756, 41.748422], [-7.866125, 41.746247], [-7.873532, 41.748617], [-7.878053, 41.751905], [-7.881935, 41.757706], [-7.878038, 41.766675], [-7.86568, 41.77151]]], [[[-8.467344, 41.690617], [-8.455959, 41.685084], [-8.443966, 41.682471], [-8.431952, 41.682378], [-8.419919, 41.684373], [-8.395806, 41.693111], [-8.384096, 41.698446], [-8.371023, 41.707383], [-8.364418, 41.716353], [-8.362554, 41.72535], [-8.363605, 41.734905], [-8.368703, 41.73193], [-8.374122, 41.734845], [-8.384922, 41.73032], [-8.387332, 41.73189], [-8.39367, 41.730075], [-8.390834, 41.725504], [-8.390741, 41.716496], [-8.397271, 41.707523], [-8.407743, 41.701906], [-8.419782, 41.699636], [-8.431784, 41.701492], [-8.44353, 41.708793], [-8.453868, 41.697961], [-8.453255, 41.695487], [-8.461659, 41.694563], [-8.467344, 41.690617]]], [[[-8.190612, 41.765211], [-8.195368, 41.760329], [-8.199202, 41.751349], [-8.197873, 41.742333], [-8.190154, 41.733271], [-8.179068, 41.727056], [-8.167083, 41.724042], [-8.157835, 41.715025], [-8.153751, 41.705988], [-8.14334, 41.701253], [-8.131288, 41.703758], [-8.124491, 41.714776], [-8.130977, 41.72684], [-8.141002, 41.732915], [-8.13939, 41.750916], [-8.143904, 41.759957], [-8.15448, 41.768283], [-8.166467, 41.771695], [-8.178511, 41.77076], [-8.190612, 41.765211]], [[-8.166756, 41.749326], [-8.162036, 41.742077], [-8.166899, 41.738302], [-8.178879, 41.741845], [-8.178864, 41.743048], [-8.166756, 41.749326]], [[-8.131104, 41.717417], [-8.129409, 41.714813], [-8.131223, 41.708568], [-8.14326, 41.707294], [-8.145141, 41.714931], [-8.143135, 41.716702], [-8.131104, 41.717417]]], [[[-8.03418, 41.767615], [-8.044581, 41.759174], [-8.048789, 41.750202], [-8.048588, 41.741193], [-8.044626, 41.732154], [-8.036129, 41.723076], [-8.022982, 41.712685], [-8.011057, 41.706496], [-7.999066, 41.704641], [-7.98703, 41.705705], [-7.973163, 41.713523], [-7.968121, 41.722485], [-7.968982, 41.7315], [-7.979874, 41.749611], [-7.986221, 41.757195], [-7.998105, 41.766516], [-8.010068, 41.770923], [-8.022092, 41.771398], [-8.03418, 41.767615]], [[-8.010318, 41.754636], [-7.998348, 41.750879], [-7.987855, 41.740674], [-7.986656, 41.72953], [-7.99019, 41.722681], [-7.998866, 41.717537], [-8.010902, 41.716578], [-8.022856, 41.721024], [-8.033004, 41.732056], [-8.03368, 41.741069], [-8.026686, 41.750017], [-8.022375, 41.752747], [-8.010318, 41.754636]]], [[[-8.168091, 41.64586], [-8.171229, 41.643066], [-8.175651, 41.634091], [-8.175265, 41.625081], [-8.168477, 41.61586], [-8.156552, 41.609907], [-8.144555, 41.609533], [-8.132503, 41.613335], [-8.120379, 41.622237], [-8.11253, 41.633621], [-8.111183, 41.642617], [-8.117799, 41.651675], [-8.131913, 41.657311], [-8.143919, 41.657584], [-8.155971, 41.654421], [-8.168091, 41.64586]], [[-8.132007, 41.650309], [-8.120077, 41.644449], [-8.117396, 41.633658], [-8.120284, 41.629238], [-8.132414, 41.619916], [-8.144426, 41.619301], [-8.155383, 41.624936], [-8.159654, 41.633975], [-8.155469, 41.642951], [-8.144025, 41.649595], [-8.132007, 41.650309]]], [[[-8.461579, 41.626778], [-8.456513, 41.619243], [-8.444544, 41.615219], [-8.432511, 41.61867], [-8.427367, 41.626613], [-8.432351, 41.63697], [-8.444319, 41.641495], [-8.456352, 41.638385], [-8.459016, 41.635774], [-8.461579, 41.626778]]], [[[-8.67286, 41.562719], [-8.680508, 41.555537], [-8.684175, 41.54654], [-8.68385, 41.537532], [-8.679958, 41.528513], [-8.671172, 41.519481], [-8.658197, 41.510436], [-8.637235, 41.499437], [-8.60137, 41.486449], [-8.596587, 41.483214], [-8.603162, 41.456214], [-8.603259, 41.447207], [-8.60092, 41.438192], [-8.595186, 41.429164], [-8.577864, 41.416814], [-8.565928, 41.412363], [-8.553978, 41.410117], [-8.542013, 41.410123], [-8.530029, 41.412884], [-8.518006, 41.420686], [-8.511746, 41.42884], [-8.508735, 41.437835], [-8.508603, 41.446842], [-8.511081, 41.45586], [-8.517038, 41.464893], [-8.526796, 41.473941], [-8.541507, 41.482099], [-8.553457, 41.48612], [-8.58469, 41.492179], [-8.580023, 41.519184], [-8.580539, 41.528194], [-8.583357, 41.537211], [-8.589013, 41.54629], [-8.600931, 41.557973], [-8.612882, 41.564816], [-8.624849, 41.569379], [-8.636833, 41.57132], [-8.648828, 41.571226], [-8.660835, 41.568776], [-8.67286, 41.562719]], [[-8.624957, 41.550811], [-8.612984, 41.547871], [-8.601046, 41.539257], [-8.595719, 41.528248], [-8.596822, 41.519245], [-8.601207, 41.51309], [-8.613232, 41.506237], [-8.625217, 41.505793], [-8.63933, 41.510378], [-8.651083, 41.519422], [-8.655387, 41.528442], [-8.654042, 41.537446], [-8.648978, 41.543541], [-8.636953, 41.549834], [-8.624957, 41.550811]], [[-8.550772, 41.474037], [-8.541578, 41.472011], [-8.530924, 41.46495], [-8.525992, 41.455922], [-8.526871, 41.446919], [-8.535012, 41.437944], [-8.541844, 41.434144], [-8.553824, 41.432669], [-8.565774, 41.435532], [-8.569976, 41.43808], [-8.578557, 41.447119], [-8.58029, 41.456133], [-8.576458, 41.465127], [-8.565526, 41.472653], [-8.550772, 41.474037]]], [[[-8.080681, 41.560005], [-8.097198, 41.562995], [-8.121168, 41.564119], [-8.133177, 41.562931], [-8.14521, 41.559879], [-8.157538, 41.552895], [-8.165101, 41.543943], [-8.168139, 41.534957], [-8.168605, 41.516946], [-8.164168, 41.480885], [-8.164936, 41.471883], [-8.168669, 41.462902], [-8.181141, 41.453985], [-8.20653, 41.448677], [-8.242471, 41.446526], [-8.254433, 41.447368], [-8.266368, 41.450615], [-8.278216, 41.461797], [-8.301598, 41.514552], [-8.313446, 41.527387], [-8.32537, 41.533433], [-8.337342, 41.534905], [-8.349343, 41.533609], [-8.361376, 41.528957], [-8.373445, 41.520489], [-8.382456, 41.509286], [-8.387722, 41.491299], [-8.387252, 41.473282], [-8.38421, 41.455251], [-8.37425, 41.43681], [-8.362377, 41.426957], [-8.331351, 41.409918], [-8.323398, 41.400864], [-8.31907, 41.391831], [-8.315187, 41.373793], [-8.316417, 41.355785], [-8.320674, 41.338121], [-8.316788, 41.335876], [-8.313802, 41.336331], [-8.310792, 41.327557], [-8.308701, 41.327561], [-8.307502, 41.325762], [-8.305116, 41.326891], [-8.303024, 41.325994], [-8.303615, 41.323742], [-8.301216, 41.319694], [-8.296431, 41.316774], [-8.297618, 41.313846], [-8.295817, 41.310022], [-8.281801, 41.316569], [-8.281808, 41.319721], [-8.278828, 41.321976], [-8.278238, 41.325128], [-8.273161, 41.325134], [-8.269582, 41.326939], [-8.265709, 41.331221], [-8.269004, 41.336169], [-8.265722, 41.337748], [-8.265428, 41.339999], [-8.263339, 41.340902], [-8.264081, 41.342477], [-8.274366, 41.355528], [-8.27794, 41.364558], [-8.279666, 41.382584], [-8.277793, 41.39158], [-8.273451, 41.40056], [-8.264657, 41.409511], [-8.254798, 41.415456], [-8.242784, 41.419573], [-8.230792, 41.421751], [-8.206867, 41.421022], [-8.183031, 41.413251], [-8.165003, 41.399824], [-8.158845, 41.390771], [-8.154138, 41.375866], [-8.150152, 41.37339], [-8.139694, 41.377894], [-8.133418, 41.374292], [-8.119672, 41.376768], [-8.119672, 41.378569], [-8.116683, 41.380144], [-8.117578, 41.386447], [-8.113992, 41.386896], [-8.112795, 41.390723], [-8.110105, 41.390947], [-8.108011, 41.393648], [-8.103827, 41.392972], [-8.105321, 41.394998], [-8.10263, 41.396123], [-8.10801, 41.398825], [-8.108606, 41.403102], [-8.104419, 41.406252], [-8.104119, 41.408728], [-8.101727, 41.409403], [-8.102025, 41.411204], [-8.092756, 41.411201], [-8.09126, 41.414352], [-8.079893, 41.41975], [-8.077503, 41.416597], [-8.070923, 41.41862], [-8.066739, 41.416142], [-8.061654, 41.417489], [-8.059852, 41.424916], [-8.055959, 41.429415], [-8.05745, 41.432793], [-8.056549, 41.436394], [-8.069999, 41.447206], [-8.068788, 41.462286], [-8.073872, 41.46499], [-8.074468, 41.468141], [-8.073564, 41.474668], [-8.066374, 41.482318], [-8.066069, 41.48817], [-8.072054, 41.490199], [-8.072348, 41.495601], [-8.078333, 41.49898], [-8.078332, 41.500331], [-8.082224, 41.501233], [-8.098068, 41.500373], [-8.11003, 41.501789], [-8.121981, 41.504014], [-8.13189, 41.507667], [-8.142244, 41.516752], [-8.144701, 41.525778], [-8.143174, 41.534774], [-8.13649, 41.543731], [-8.121339, 41.551519], [-8.109321, 41.553516], [-8.097337, 41.552967], [-8.082787, 41.548647], [-8.080687, 41.551651], [-8.074396, 41.549848], [-8.072897, 41.551197], [-8.076188, 41.557276], [-8.079484, 41.558178], [-8.080381, 41.559933], [-8.080573, 41.559979], [-8.080681, 41.560005]], [[-8.34951, 41.516957], [-8.337516, 41.517831], [-8.325556, 41.515525], [-8.313652, 41.507899], [-8.307116, 41.499849], [-8.303076, 41.490818], [-8.301602, 41.481801], [-8.302624, 41.4728], [-8.307046, 41.463819], [-8.314189, 41.457037], [-8.326216, 41.451859], [-8.3382, 41.450661], [-8.350152, 41.452686], [-8.36207, 41.458293], [-8.373977, 41.47321], [-8.376573, 41.482232], [-8.376419, 41.491239], [-8.373074, 41.500228], [-8.361541, 41.512179], [-8.34951, 41.516957]]], [[[-8.452867, 41.254037], [-8.483275, 41.272911], [-8.507086, 41.281949], [-8.530933, 41.286983], [-8.590616, 41.291567], [-8.614463, 41.298156], [-8.650194, 41.317263], [-8.709745, 41.359719], [-8.733607, 41.371753], [-8.769451, 41.380038], [-8.809022, 41.381077], [-8.806167, 41.308697], [-8.793546, 41.324485], [-8.785632, 41.330593], [-8.769599, 41.338273], [-8.745676, 41.343316], [-8.721777, 41.341803], [-8.69791, 41.33371], [-8.678247, 41.321335], [-8.667771, 41.312297], [-8.660389, 41.303268], [-8.655379, 41.294245], [-8.653344, 41.285232], [-8.65404, 41.276226], [-8.658191, 41.26723], [-8.667507, 41.25825], [-8.686361, 41.249726], [-8.722199, 41.242457], [-8.746073, 41.241053], [-8.76993, 41.243934], [-8.781851, 41.248223], [-8.793763, 41.255484], [-8.804527, 41.267048], [-8.799695, 41.14406], [-8.674793, 41.146932], [-8.674849, 41.153767], [-8.672489, 41.15648], [-8.66117, 41.156307], [-8.662078, 41.158104], [-8.660313, 41.160813], [-8.657033, 41.160378], [-8.654961, 41.161963], [-8.653231, 41.169174], [-8.655366, 41.175467], [-8.647955, 41.180228], [-8.647696, 41.185181], [-8.640929, 41.196241], [-8.634946, 41.193341], [-8.632526, 41.188624], [-8.625658, 41.186628], [-8.621132, 41.178994], [-8.613374, 41.177451], [-8.608583, 41.174095], [-8.609164, 41.172066], [-8.604942, 41.164881], [-8.59422, 41.165149], [-8.589174, 41.167645], [-8.589194, 41.170572], [-8.583263, 41.174422], [-8.582094, 41.177803], [-8.578825, 41.178941], [-8.581296, 41.191762], [-8.575958, 41.195609], [-8.577183, 41.200557], [-8.57423, 41.20462], [-8.567971, 41.204644], [-8.565895, 41.206227], [-8.567697, 41.208246], [-8.566512, 41.209376], [-8.559636, 41.206251], [-8.554271, 41.20627], [-8.549521, 41.209214], [-8.544157, 41.209458], [-8.54238, 41.211265], [-8.532257, 41.213102], [-8.52713, 41.203215], [-8.523236, 41.200077], [-8.51163, 41.203042], [-8.510456, 41.206197], [-8.505693, 41.207113], [-8.504239, 41.213646], [-8.500076, 41.21546], [-8.50308, 41.219502], [-8.502204, 41.222656], [-8.495642, 41.222227], [-8.495947, 41.223351], [-8.490894, 41.226294], [-8.487935, 41.230354], [-8.490331, 41.232373], [-8.489156, 41.235528], [-8.486181, 41.236888], [-8.484411, 41.240495], [-8.476644, 41.237817], [-8.475756, 41.23917], [-8.471283, 41.239184], [-8.471604, 41.243459], [-8.469227, 41.245267], [-8.463258, 41.244384], [-8.459989, 41.246644], [-8.454323, 41.246886], [-8.455834, 41.250933], [-8.452867, 41.254037]], [[-8.686557, 41.208855], [-8.674744, 41.204224], [-8.671778, 41.195207], [-8.674731, 41.188213], [-8.686686, 41.181673], [-8.698603, 41.182975], [-8.703248, 41.186285], [-8.708214, 41.195305], [-8.703847, 41.204302], [-8.698492, 41.207352], [-8.686557, 41.208855]]]]}}, {"id": "10", "type": "Feature", "properties": {"fill": "#a3a3a3", "value_min": 0.25, "value_max": -0.5}, "geometry": {"type": "MultiPolygon", "coordinates": [[[[-8.132236, 41.633228], [-8.131644, 41.633767], [-8.132217, 41.634665], [-8.133704, 41.633782], [-8.132236, 41.633228]]], [[[-8.109739, 41.522997], [-8.097737, 41.524194], [-8.096511, 41.52541], [-8.097685, 41.527944], [-8.109632, 41.530857], [-8.112544, 41.525534], [-8.109739, 41.522997]]], [[[-8.356125, 41.482119], [-8.349918, 41.476123], [-8.33796, 41.474306], [-8.325848, 41.481946], [-8.325681, 41.490952], [-8.337707, 41.499088], [-8.349705, 41.49745], [-8.356341, 41.491128], [-8.356125, 41.482119]]], [[[-8.231266, 41.381568], [-8.219344, 41.378377], [-8.217202, 41.382176], [-8.219275, 41.384164], [-8.231253, 41.382628], [-8.231266, 41.381568]]], [[[-8.738499, 41.294464], [-8.73385, 41.285446], [-8.722038, 41.280438], [-8.710094, 41.280944], [-8.701648, 41.285367], [-8.696277, 41.294361], [-8.699269, 41.303376], [-8.709966, 41.309895], [-8.721909, 41.310779], [-8.73585, 41.303466], [-8.738499, 41.294464]]]]}}, {"id": "8", "type": "Feature", "properties": {"fill": "#a3a3a3", "value_min": -0.25, "value_max": -0.0}, "geometry": {"type": "MultiPolygon", "coordinates": [[[[-7.86568, 41.77151], [-7.878038, 41.766675], [-7.881935, 41.757706], [-7.878053, 41.751905], [-7.873532, 41.748617], [-7.866125, 41.746247], [-7.853756, 41.748422], [-7.845537, 41.757346], [-7.84862, 41.766384], [-7.853683, 41.769567], [-7.86568, 41.77151]], [[-7.864519, 41.757535], [-7.865936, 41.757005], [-7.86668, 41.757557], [-7.865908, 41.758552], [-7.864519, 41.757535]]], [[[-8.010318, 41.754636], [-8.022375, 41.752747], [-8.026686, 41.750017], [-8.03368, 41.741069], [-8.033004, 41.732056], [-8.022856, 41.721024], [-8.010902, 41.716578], [-7.998866, 41.717537], [-7.99019, 41.722681], [-7.986656, 41.72953], [-7.987855, 41.740674], [-7.998348, 41.750879], [-8.010318, 41.754636]], [[-7.999989, 41.740781], [-7.99667, 41.731745], [-7.998683, 41.729289], [-8.010788, 41.724027], [-8.02417, 41.731982], [-8.022002, 41.74097], [-8.010463, 41.7452], [-7.999989, 41.740781]]], [[[-8.166756, 41.749326], [-8.178864, 41.743048], [-8.178879, 41.741845], [-8.166899, 41.738302], [-8.162036, 41.742077], [-8.166756, 41.749326]]], [[[-8.44353, 41.708793], [-8.431784, 41.701492], [-8.419782, 41.699636], [-8.407743, 41.701906], [-8.397271, 41.707523], [-8.390741, 41.716496], [-8.390834, 41.725504], [-8.39367, 41.730075], [-8.398141, 41.72984], [-8.400531, 41.726683], [-8.402934, 41.726452], [-8.404721, 41.722847], [-8.417349, 41.725067], [-8.422737, 41.720552], [-8.429643, 41.719859], [-8.430533, 41.717381], [-8.435927, 41.714441], [-8.441632, 41.713975], [-8.44353, 41.708793]]], [[[-8.131104, 41.717417], [-8.143135, 41.716702], [-8.145141, 41.714931], [-8.14326, 41.707294], [-8.131223, 41.708568], [-8.129409, 41.714813], [-8.131104, 41.717417]]], [[[-8.132007, 41.650309], [-8.144025, 41.649595], [-8.155469, 41.642951], [-8.159654, 41.633975], [-8.155383, 41.624936], [-8.144426, 41.619301], [-8.132414, 41.619916], [-8.120284, 41.629238], [-8.117396, 41.633658], [-8.120077, 41.644449], [-8.132007, 41.650309]], [[-8.128489, 41.64275], [-8.123595, 41.633706], [-8.132336, 41.625743], [-8.144307, 41.62826], [-8.14896, 41.633896], [-8.144125, 41.642053], [-8.132082, 41.644694], [-8.128489, 41.64275]]], [[[-8.082787, 41.548647], [-8.097337, 41.552967], [-8.109321, 41.553516], [-8.121339, 41.551519], [-8.13649, 41.543731], [-8.143174, 41.534774], [-8.144701, 41.525778], [-8.142244, 41.516752], [-8.13189, 41.507667], [-8.121981, 41.504014], [-8.11003, 41.501789], [-8.098068, 41.500373], [-8.082224, 41.501233], [-8.093, 41.504613], [-8.090599, 41.513693], [-8.097921, 41.510948], [-8.1099, 41.511264], [-8.123034, 41.516608], [-8.128715, 41.525658], [-8.126494, 41.534649], [-8.121506, 41.539162], [-8.109449, 41.54413], [-8.097274, 41.543554], [-8.094175, 41.544904], [-8.087885, 41.542876], [-8.083389, 41.5449], [-8.082787, 41.548647]]], [[[-8.624957, 41.550811], [-8.636953, 41.549834], [-8.648978, 41.543541], [-8.654042, 41.537446], [-8.655387, 41.528442], [-8.651083, 41.519422], [-8.63933, 41.510378], [-8.625217, 41.505793], [-8.613232, 41.506237], [-8.601207, 41.51309], [-8.596822, 41.519245], [-8.595719, 41.528248], [-8.601046, 41.539257], [-8.612984, 41.547871], [-8.624957, 41.550811]], [[-8.625043, 41.535902], [-8.613088, 41.53038], [-8.611668, 41.528303], [-8.616435, 41.519312], [-8.625151, 41.517161], [-8.631107, 41.51936], [-8.637111, 41.528386], [-8.625043, 41.535902]]], [[[-8.34951, 41.516957], [-8.361541, 41.512179], [-8.373074, 41.500228], [-8.376419, 41.491239], [-8.376573, 41.482232], [-8.373977, 41.47321], [-8.36207, 41.458293], [-8.350152, 41.452686], [-8.3382, 41.450661], [-8.326216, 41.451859], [-8.314189, 41.457037], [-8.307046, 41.463819], [-8.302624, 41.4728], [-8.301602, 41.481801], [-8.303076, 41.490818], [-8.307116, 41.499849], [-8.313652, 41.507899], [-8.325556, 41.515525], [-8.337516, 41.517831], [-8.34951, 41.516957]], [[-8.337618, 41.507831], [-8.325674, 41.5041], [-8.320342, 41.499928], [-8.314461, 41.490886], [-8.31395, 41.481876], [-8.31877, 41.472897], [-8.326056, 41.467321], [-8.338061, 41.464351], [-8.350022, 41.465747], [-8.361874, 41.473144], [-8.366832, 41.482179], [-8.366784, 41.491186], [-8.361372, 41.500163], [-8.349611, 41.506838], [-8.337618, 41.507831]]], [[[-8.550772, 41.474037], [-8.565526, 41.472653], [-8.576458, 41.465127], [-8.58029, 41.456133], [-8.578557, 41.447119], [-8.569976, 41.43808], [-8.565774, 41.435532], [-8.553824, 41.432669], [-8.541844, 41.434144], [-8.535012, 41.437944], [-8.526871, 41.446919], [-8.525992, 41.455922], [-8.530924, 41.46495], [-8.541578, 41.472011], [-8.550772, 41.474037]], [[-8.542894, 41.455991], [-8.553701, 41.450581], [-8.558649, 41.456052], [-8.553632, 41.460582], [-8.542894, 41.455991]]], [[[-8.154138, 41.375866], [-8.158845, 41.390771], [-8.165003, 41.399824], [-8.183031, 41.413251], [-8.206867, 41.421022], [-8.230792, 41.421751], [-8.242784, 41.419573], [-8.254798, 41.415456], [-8.264657, 41.409511], [-8.273451, 41.40056], [-8.277793, 41.39158], [-8.279666, 41.382584], [-8.27794, 41.364558], [-8.274366, 41.355528], [-8.264081, 41.342477], [-8.262155, 41.345856], [-8.256483, 41.347663], [-8.255889, 41.349689], [-8.249622, 41.353072], [-8.251123, 41.356897], [-8.248141, 41.360052], [-8.248444, 41.362114], [-8.256355, 41.373428], [-8.257051, 41.38244], [-8.255117, 41.387478], [-8.253424, 41.391424], [-8.243524, 41.400367], [-8.230992, 41.40478], [-8.219022, 41.405326], [-8.201784, 41.400085], [-8.191067, 41.391002], [-8.18721, 41.381968], [-8.187538, 41.375629], [-8.168382, 41.377438], [-8.164499, 41.38059], [-8.158223, 41.378791], [-8.154138, 41.375866]]], [[[-8.804527, 41.267048], [-8.793763, 41.255484], [-8.781851, 41.248223], [-8.76993, 41.243934], [-8.746073, 41.241053], [-8.722199, 41.242457], [-8.686361, 41.249726], [-8.667507, 41.25825], [-8.658191, 41.26723], [-8.65404, 41.276226], [-8.653344, 41.285232], [-8.655379, 41.294245], [-8.660389, 41.303268], [-8.667771, 41.312297], [-8.678247, 41.321335], [-8.69791, 41.33371], [-8.721777, 41.341803], [-8.745676, 41.343316], [-8.769599, 41.338273], [-8.785632, 41.330593], [-8.793546, 41.324485], [-8.806167, 41.308697], [-8.804527, 41.267048]], [[-8.733796, 41.325519], [-8.721843, 41.326303], [-8.709901, 41.324596], [-8.697973, 41.320068], [-8.686775, 41.312351], [-8.679688, 41.303323], [-8.676871, 41.294308], [-8.677856, 41.285303], [-8.683298, 41.27631], [-8.698219, 41.266545], [-8.710173, 41.263236], [-8.722115, 41.262282], [-8.734048, 41.263424], [-8.746905, 41.26746], [-8.757882, 41.274713], [-8.765764, 41.285515], [-8.767409, 41.294526], [-8.765626, 41.30353], [-8.759693, 41.312526], [-8.746906, 41.321506], [-8.733796, 41.325519]]]]}}, {"id": "9", "type": "Feature", "properties": {"fill": "#a3a3a3", "value_min": 0.0, "value_max": -0.25}, "geometry": {"type": "MultiPolygon", "coordinates": [[[[-7.864519, 41.757535], [-7.865908, 41.758552], [-7.86668, 41.757557], [-7.865936, 41.757005], [-7.864519, 41.757535]]], [[[-7.999989, 41.740781], [-8.010463, 41.7452], [-8.022002, 41.74097], [-8.02417, 41.731982], [-8.010788, 41.724027], [-7.998683, 41.729289], [-7.99667, 41.731745], [-7.999989, 41.740781]]], [[[-8.128489, 41.64275], [-8.132082, 41.644694], [-8.144125, 41.642053], [-8.14896, 41.633896], [-8.144307, 41.62826], [-8.132336, 41.625743], [-8.123595, 41.633706], [-8.128489, 41.64275]], [[-8.132236, 41.633228], [-8.133704, 41.633782], [-8.132217, 41.634665], [-8.131644, 41.633767], [-8.132236, 41.633228]]], [[[-8.097274, 41.543554], [-8.109449, 41.54413], [-8.121506, 41.539162], [-8.126494, 41.534649], [-8.128715, 41.525658], [-8.123034, 41.516608], [-8.1099, 41.511264], [-8.097921, 41.510948], [-8.090599, 41.513693], [-8.091196, 41.516767], [-8.089398, 41.519468], [-8.090594, 41.522169], [-8.093588, 41.52307], [-8.091786, 41.531848], [-8.097775, 41.536127], [-8.097774, 41.537927], [-8.106759, 41.543106], [-8.097274, 41.543554]], [[-8.109739, 41.522997], [-8.112544, 41.525534], [-8.109632, 41.530857], [-8.097685, 41.527944], [-8.096511, 41.52541], [-8.097737, 41.524194], [-8.109739, 41.522997]]], [[[-8.625043, 41.535902], [-8.637111, 41.528386], [-8.631107, 41.51936], [-8.625151, 41.517161], [-8.616435, 41.519312], [-8.611668, 41.528303], [-8.613088, 41.53038], [-8.625043, 41.535902]]], [[[-8.337618, 41.507831], [-8.349611, 41.506838], [-8.361372, 41.500163], [-8.366784, 41.491186], [-8.366832, 41.482179], [-8.361874, 41.473144], [-8.350022, 41.465747], [-8.338061, 41.464351], [-8.326056, 41.467321], [-8.31877, 41.472897], [-8.31395, 41.481876], [-8.314461, 41.490886], [-8.320342, 41.499928], [-8.325674, 41.5041], [-8.337618, 41.507831]], [[-8.356125, 41.482119], [-8.356341, 41.491128], [-8.349705, 41.49745], [-8.337707, 41.499088], [-8.325681, 41.490952], [-8.325848, 41.481946], [-8.33796, 41.474306], [-8.349918, 41.476123], [-8.356125, 41.482119]]], [[[-8.542894, 41.455991], [-8.553632, 41.460582], [-8.558649, 41.456052], [-8.553701, 41.450581], [-8.542894, 41.455991]]], [[[-8.187538, 41.375629], [-8.18721, 41.381968], [-8.191067, 41.391002], [-8.201784, 41.400085], [-8.219022, 41.405326], [-8.230992, 41.40478], [-8.243524, 41.400367], [-8.253424, 41.391424], [-8.255117, 41.387478], [-8.257051, 41.38244], [-8.256355, 41.373428], [-8.248444, 41.362114], [-8.248448, 41.364328], [-8.245461, 41.364781], [-8.244272, 41.368384], [-8.239197, 41.371315], [-8.232024, 41.369971], [-8.224854, 41.370878], [-8.21738, 41.368182], [-8.214399, 41.373587], [-8.208127, 41.376968], [-8.199163, 41.377423], [-8.194976, 41.374275], [-8.191691, 41.376302], [-8.187538, 41.375629]], [[-8.231266, 41.381568], [-8.231253, 41.382628], [-8.219275, 41.384164], [-8.217202, 41.382176], [-8.219344, 41.378377], [-8.231266, 41.381568]]], [[[-8.733796, 41.325519], [-8.746906, 41.321506], [-8.759693, 41.312526], [-8.765626, 41.30353], [-8.767409, 41.294526], [-8.765764, 41.285515], [-8.757882, 41.274713], [-8.746905, 41.26746], [-8.734048, 41.263424], [-8.722115, 41.262282], [-8.710173, 41.263236], [-8.698219, 41.266545], [-8.683298, 41.27631], [-8.677856, 41.285303], [-8.676871, 41.294308], [-8.679688, 41.303323], [-8.686775, 41.312351], [-8.697973, 41.320068], [-8.709901, 41.324596], [-8.721843, 41.326303], [-8.733796, 41.325519]], [[-8.738499, 41.294464], [-8.73585, 41.303466], [-8.721909, 41.310779], [-8.709966, 41.309895], [-8.699269, 41.303376], [-8.696277, 41.294361], [-8.701648, 41.285367], [-8.710094, 41.280944], [-8.722038, 41.280438], [-8.73385, 41.285446], [-8.738499, 41.294464]]]]}}, {"id": "1", "type": "Feature", "properties": {"fill": "#c93e18", "value_min": -2.0, "value_max": -1.75}, "geometry": {"type": "MultiPolygon", "coordinates": [[[[-8.119423, 41.692473], [-8.110837, 41.696657], [-8.119296, 41.701817], [-8.123556, 41.696755], [-8.119423, 41.692473]], [[-8.11823, 41.696714], [-8.119373, 41.696157], [-8.119924, 41.696727], [-8.119356, 41.697401], [-8.11823, 41.696714]]], [[[-8.096377, 41.621879], [-8.100495, 41.615513], [-8.096575, 41.607702], [-8.084607, 41.605297], [-8.082244, 41.606361], [-8.074697, 41.615308], [-8.082578, 41.624378], [-8.08824, 41.624423], [-8.096377, 41.621879]], [[-8.083577, 41.615379], [-8.084479, 41.614414], [-8.088136, 41.615416], [-8.084451, 41.616336], [-8.083577, 41.615379]]], [[[-8.502905, 41.50987], [-8.49346, 41.499396], [-8.481494, 41.497459], [-8.469464, 41.503464], [-8.465361, 41.509701], [-8.468689, 41.518724], [-8.481275, 41.524868], [-8.493269, 41.523845], [-8.500582, 41.518867], [-8.502905, 41.50987]], [[-8.479145, 41.518772], [-8.473846, 41.50974], [-8.481441, 41.504182], [-8.493388, 41.508615], [-8.493357, 41.512657], [-8.486504, 41.518805], [-8.481316, 41.519811], [-8.479145, 41.518772]]]]}}, {"id": "0", "type": "Feature", "properties": {"fill": "#b11c1c", "value_min": -2.25, "value_max": -2.0}, "geometry": {"type": "MultiPolygon", "coordinates": [[[[-8.11823, 41.696714], [-8.119356, 41.697401], [-8.119924, 41.696727], [-8.119373, 41.696157], [-8.11823, 41.696714]]], [[[-8.083577, 41.615379], [-8.084451, 41.616336], [-8.088136, 41.615416], [-8.084479, 41.614414], [-8.083577, 41.615379]]], [[[-8.479145, 41.518772], [-8.481316, 41.519811], [-8.486504, 41.518805], [-8.493357, 41.512657], [-8.493388, 41.508615], [-8.481441, 41.504182], [-8.473846, 41.50974], [-8.479145, 41.518772]]]]}}, {"id": "6", "type": "Feature", "properties": {"fill": "#a3a3a3", "value_min": -0.75, "value_max": -0.5}, "geometry": {"type": "MultiPolygon", "coordinates": [[[[-8.602832, 41.613942], [-8.604294, 41.61146], [-8.613256, 41.606696], [-8.619881, 41.610269], [-8.621338, 41.604636], [-8.628833, 41.604378], [-8.6366, 41.600518], [-8.639873, 41.597352], [-8.640152, 41.59465], [-8.645536, 41.593051], [-8.646744, 41.594171], [-8.649125, 41.591909], [-8.656622, 41.5921], [-8.660788, 41.588255], [-8.663794, 41.589141], [-8.665265, 41.585758], [-8.66948, 41.587989], [-8.684455, 41.586117], [-8.685608, 41.58071], [-8.697261, 41.576376], [-8.701703, 41.570277], [-8.707704, 41.570923], [-8.711586, 41.569327], [-8.716422, 41.573805], [-8.720316, 41.57356], [-8.725151, 41.577811], [-8.726633, 41.576003], [-8.734424, 41.575737], [-8.736564, 41.580228], [-8.738354, 41.579318], [-8.740778, 41.582006], [-8.74467, 41.581535], [-8.750711, 41.58623], [-8.756374, 41.582823], [-8.75635, 41.580347], [-8.762327, 41.578514], [-8.764443, 41.580303], [-8.767441, 41.580286], [-8.769874, 41.583874], [-8.768997, 41.58613], [-8.773228, 41.589482], [-8.775371, 41.593972], [-8.78556, 41.593464], [-8.797327, 41.600599], [-8.804218, 41.600109], [-8.80456, 41.604158], [-8.809434, 41.611332], [-8.828644, 41.609656], [-8.82839, 41.585633], [-8.818497, 41.554794], [-8.8221, 41.547542], [-8.821965, 41.534907], [-8.815926, 41.525624], [-8.81063, 41.5101], [-8.813279, 41.503483], [-8.812636, 41.496944], [-8.804699, 41.482068], [-8.798552, 41.474753], [-8.80154, 41.446836], [-8.806115, 41.43713], [-8.807354, 41.425915], [-8.811166, 41.417099], [-8.809022, 41.381077], [-8.769451, 41.380038], [-8.733607, 41.371753], [-8.709745, 41.359719], [-8.650194, 41.317263], [-8.614463, 41.298156], [-8.590616, 41.291567], [-8.530933, 41.286983], [-8.507086, 41.281949], [-8.483275, 41.272911], [-8.452867, 41.254037], [-8.447812, 41.257258], [-8.449028, 41.261982], [-8.439785, 41.262907], [-8.438023, 41.268989], [-8.434745, 41.269673], [-8.432691, 41.277107], [-8.427032, 41.279372], [-8.429143, 41.284319], [-8.426171, 41.287028], [-8.426488, 41.291079], [-8.425013, 41.294909], [-8.422037, 41.296942], [-8.422647, 41.299867], [-8.407744, 41.304856], [-8.406262, 41.307335], [-8.402979, 41.307568], [-8.401801, 41.311398], [-8.399712, 41.311628], [-8.400316, 41.313202], [-8.396738, 41.314336], [-8.398835, 41.316131], [-8.393775, 41.31997], [-8.393489, 41.323122], [-8.391105, 41.324253], [-8.386325, 41.323588], [-8.380382, 41.331254], [-8.375305, 41.33104], [-8.37201, 41.328346], [-8.361563, 41.329718], [-8.358276, 41.329049], [-8.357673, 41.327249], [-8.350207, 41.327264], [-8.346032, 41.328847], [-8.342462, 41.333131], [-8.333215, 41.336299], [-8.326363, 41.342163], [-8.324568, 41.341041], [-8.323376, 41.341943], [-8.320674, 41.338121], [-8.316417, 41.355785], [-8.315187, 41.373793], [-8.31907, 41.391831], [-8.323398, 41.400864], [-8.331351, 41.409918], [-8.362377, 41.426957], [-8.37425, 41.43681], [-8.38421, 41.455251], [-8.387252, 41.473282], [-8.387722, 41.491299], [-8.382456, 41.509286], [-8.373445, 41.520489], [-8.361376, 41.528957], [-8.349343, 41.533609], [-8.337342, 41.534905], [-8.32537, 41.533433], [-8.313446, 41.527387], [-8.301598, 41.514552], [-8.278216, 41.461797], [-8.266368, 41.450615], [-8.254433, 41.447368], [-8.242471, 41.446526], [-8.20653, 41.448677], [-8.181141, 41.453985], [-8.168669, 41.462902], [-8.164936, 41.471883], [-8.164168, 41.480885], [-8.168605, 41.516946], [-8.168139, 41.534957], [-8.165101, 41.543943], [-8.157538, 41.552895], [-8.14521, 41.559879], [-8.133177, 41.562931], [-8.121168, 41.564119], [-8.097198, 41.562995], [-8.080681, 41.560005], [-8.081576, 41.565157], [-8.078879, 41.56493], [-8.077678, 41.566956], [-8.073182, 41.568079], [-8.069039, 41.571453], [-8.109007, 41.576319], [-8.120953, 41.579988], [-8.132608, 41.588738], [-8.133417, 41.597751], [-8.129069, 41.606726], [-8.101693, 41.642544], [-8.099467, 41.651533], [-8.107049, 41.6606], [-8.131784, 41.666881], [-8.15578, 41.669044], [-8.167834, 41.665824], [-8.204133, 41.644472], [-8.216214, 41.638405], [-8.228264, 41.634839], [-8.240293, 41.632893], [-8.252293, 41.633411], [-8.264266, 41.636286], [-8.276206, 41.642246], [-8.287697, 41.652854], [-8.293383, 41.661896], [-8.296774, 41.679931], [-8.292695, 41.69792], [-8.286677, 41.70689], [-8.277001, 41.715837], [-8.251142, 41.732708], [-8.239057, 41.737843], [-8.227032, 41.737781], [-8.203098, 41.728403], [-8.179392, 41.715181], [-8.16736, 41.702633], [-8.155455, 41.693902], [-8.143413, 41.695771], [-8.131321, 41.701318], [-8.106859, 41.732026], [-8.09477, 41.736637], [-8.082766, 41.735162], [-8.046913, 41.720137], [-8.038636, 41.71409], [-8.03072, 41.705016], [-8.029166, 41.695996], [-8.035033, 41.687039], [-8.049113, 41.678149], [-8.058237, 41.669217], [-8.058541, 41.660212], [-8.053054, 41.65116], [-8.041705, 41.642059], [-8.005432, 41.623737], [-7.993952, 41.61463], [-7.990146, 41.60267], [-7.984685, 41.603564], [-7.982292, 41.60086], [-7.975689, 41.603552], [-7.974482, 41.606701], [-7.970882, 41.607147], [-7.969091, 41.603768], [-7.965796, 41.602413], [-7.9541, 41.602846], [-7.952606, 41.600592], [-7.947808, 41.60081], [-7.945413, 41.599456], [-7.942725, 41.595625], [-7.936132, 41.594488], [-7.93791, 41.601694], [-7.937004, 41.603718], [-7.931604, 41.604384], [-7.930073, 41.614735], [-7.925255, 41.620579], [-7.920755, 41.620796], [-7.917748, 41.623041], [-7.915933, 41.627764], [-7.913229, 41.628885], [-7.912613, 41.63361], [-7.906014, 41.633147], [-7.905699, 41.637648], [-7.907788, 41.640804], [-7.897869, 41.645511], [-7.896829, 41.647984], [-7.898413, 41.65564], [-7.898432, 41.655762], [-7.898485, 41.656091], [-7.902319, 41.659925], [-7.899913, 41.66127], [-7.900198, 41.665547], [-7.898726, 41.665544], [-7.896577, 41.676786], [-7.892001, 41.685748], [-7.872474, 41.721586], [-7.866438, 41.728419], [-7.854342, 41.732503], [-7.821428, 41.739088], [-7.807611, 41.747952], [-7.804803, 41.75693], [-7.806417, 41.765953], [-7.811624, 41.775014], [-7.82526, 41.784161], [-7.841336, 41.787142], [-7.889496, 41.785834], [-7.901487, 41.788374], [-7.908626, 41.79399], [-7.919587, 41.812107], [-7.91991, 41.821117], [-7.913097, 41.839066], [-7.910156, 41.857052], [-7.912143, 41.869818], [-7.916011, 41.879174], [-7.928044, 41.87807], [-7.935283, 41.874707], [-7.937389, 41.87516], [-7.941618, 41.870891], [-7.951254, 41.871132], [-7.956367, 41.87339], [-7.956362, 41.875191], [-7.960878, 41.875648], [-7.962086, 41.874074], [-7.973828, 41.875216], [-7.985584, 41.87028], [-7.9886, 41.868258], [-7.987701, 41.866456], [-7.98951, 41.865333], [-7.990123, 41.860157], [-7.995547, 41.858138], [-7.994047, 41.855211], [-7.996162, 41.851837], [-8.003089, 41.850494], [-8.005804, 41.847346], [-8.007928, 41.838796], [-8.012753, 41.833624], [-8.013062, 41.829348], [-8.017873, 41.831379], [-8.02901, 41.829589], [-8.037134, 41.831171], [-8.041351, 41.828023], [-8.041054, 41.825097], [-8.045268, 41.824425], [-8.047679, 41.821276], [-8.057314, 41.815656], [-8.06664, 41.817012], [-8.072961, 41.813414], [-8.078678, 41.813417], [-8.082892, 41.810493], [-8.091013, 41.812521], [-8.093421, 41.811397], [-8.093723, 41.808471], [-8.101845, 41.809824], [-8.104853, 41.81185], [-8.115984, 41.812302], [-8.123807, 41.808702], [-8.138247, 41.808477], [-8.139751, 41.813203], [-8.14276, 41.812978], [-8.144866, 41.815228], [-8.149078, 41.814777], [-8.153291, 41.817703], [-8.158106, 41.818377], [-8.165326, 41.81815], [-8.173744, 41.808019], [-8.177655, 41.808242], [-8.183676, 41.812741], [-8.190291, 41.809587], [-8.197158, 41.814129], [-8.201063, 41.808724], [-8.204973, 41.807372], [-8.205872, 41.804445], [-8.213692, 41.803765], [-8.217598, 41.80016], [-8.217589, 41.793634], [-8.224207, 41.794303], [-8.229917, 41.791598], [-8.240744, 41.791588], [-8.24074, 41.789338], [-8.244347, 41.787984], [-8.245546, 41.785731], [-8.251257, 41.784375], [-8.251845, 41.777172], [-8.257551, 41.773564], [-8.261762, 41.774235], [-8.271366, 41.766346], [-8.280681, 41.764083], [-8.284038, 41.761109], [-8.284931, 41.757507], [-8.305674, 41.758152], [-8.311096, 41.762195], [-8.318308, 41.761283], [-8.325233, 41.765098], [-8.328234, 41.763292], [-8.336653, 41.763728], [-8.341756, 41.761468], [-8.344765, 41.762363], [-8.349267, 41.760103], [-8.352557, 41.755145], [-8.34982, 41.745922], [-8.349814, 41.744122], [-8.352516, 41.743441], [-8.352203, 41.739616], [-8.357897, 41.735103], [-8.362407, 41.735994], [-8.363605, 41.734905], [-8.362554, 41.72535], [-8.364418, 41.716353], [-8.371023, 41.707383], [-8.384096, 41.698446], [-8.395806, 41.693111], [-8.419919, 41.684373], [-8.431952, 41.682378], [-8.443966, 41.682471], [-8.455959, 41.685084], [-8.467344, 41.690617], [-8.482012, 41.682123], [-8.484371, 41.674238], [-8.49308, 41.674886], [-8.499963, 41.671038], [-8.50927, 41.671233], [-8.51018, 41.672806], [-8.511967, 41.670324], [-8.509856, 41.668755], [-8.512252, 41.667847], [-8.514629, 41.663788], [-8.522103, 41.658811], [-8.525706, 41.659023], [-8.527769, 41.652714], [-8.536459, 41.650658], [-8.538826, 41.645272], [-8.528361, 41.642873], [-8.516391, 41.637848], [-8.50444, 41.630562], [-8.478468, 41.608842], [-8.456707, 41.596182], [-8.408818, 41.584352], [-8.401409, 41.581445], [-8.391188, 41.572384], [-8.388162, 41.56336], [-8.388436, 41.554355], [-8.404586, 41.509403], [-8.407959, 41.47339], [-8.409865, 41.469279], [-8.421946, 41.457426], [-8.433981, 41.450282], [-8.445989, 41.446102], [-8.457971, 41.444791], [-8.469926, 41.446873], [-8.481858, 41.451727], [-8.550295, 41.501057], [-8.556719, 41.51009], [-8.569566, 41.546168], [-8.597833, 41.591307], [-8.60114, 41.600326], [-8.602832, 41.613942]], [[-7.889765, 41.77026], [-7.877616, 41.776974], [-7.865547, 41.779048], [-7.853523, 41.778545], [-7.84156, 41.774678], [-7.832215, 41.766218], [-7.830916, 41.757198], [-7.836078, 41.748244], [-7.842097, 41.744826], [-7.854207, 41.740103], [-7.878333, 41.735847], [-7.883998, 41.730706], [-7.881533, 41.721675], [-7.884018, 41.712692], [-7.890899, 41.704387], [-7.902981, 41.700677], [-7.915696, 41.703988], [-7.923929, 41.713073], [-7.922805, 41.722069], [-7.913655, 41.73099], [-7.902352, 41.737657], [-7.894989, 41.739819], [-7.897048, 41.757852], [-7.893812, 41.766828], [-7.889765, 41.77026]], [[-8.190612, 41.765211], [-8.178511, 41.77076], [-8.166467, 41.771695], [-8.15448, 41.768283], [-8.143904, 41.759957], [-8.13939, 41.750916], [-8.141002, 41.732915], [-8.130977, 41.72684], [-8.124491, 41.714776], [-8.131288, 41.703758], [-8.14334, 41.701253], [-8.153751, 41.705988], [-8.157835, 41.715025], [-8.167083, 41.724042], [-8.179068, 41.727056], [-8.190154, 41.733271], [-8.197873, 41.742333], [-8.199202, 41.751349], [-8.195368, 41.760329], [-8.190612, 41.765211]], [[-8.03418, 41.767615], [-8.022092, 41.771398], [-8.010068, 41.770923], [-7.998105, 41.766516], [-7.986221, 41.757195], [-7.979874, 41.749611], [-7.968982, 41.7315], [-7.968121, 41.722485], [-7.973163, 41.713523], [-7.98703, 41.705705], [-7.999066, 41.704641], [-8.011057, 41.706496], [-8.022982, 41.712685], [-8.036129, 41.723076], [-8.044626, 41.732154], [-8.048588, 41.741193], [-8.048789, 41.750202], [-8.044581, 41.759174], [-8.03418, 41.767615]], [[-7.949878, 41.772924], [-7.93785, 41.772658], [-7.924633, 41.767121], [-7.922382, 41.758093], [-7.928212, 41.74914], [-7.938329, 41.743625], [-7.950354, 41.743729], [-7.959709, 41.74943], [-7.965833, 41.758492], [-7.963826, 41.767481], [-7.949878, 41.772924]], [[-8.383939, 41.67736], [-8.371935, 41.676348], [-8.363205, 41.671311], [-8.361289, 41.662294], [-8.372165, 41.652734], [-8.384178, 41.652339], [-8.397439, 41.662489], [-8.396019, 41.671488], [-8.383939, 41.67736]], [[-8.168091, 41.64586], [-8.155971, 41.654421], [-8.143919, 41.657584], [-8.131913, 41.657311], [-8.117799, 41.651675], [-8.111183, 41.642617], [-8.11253, 41.633621], [-8.120379, 41.622237], [-8.132503, 41.613335], [-8.144555, 41.609533], [-8.156552, 41.609907], [-8.168477, 41.61586], [-8.175265, 41.625081], [-8.175651, 41.634091], [-8.171229, 41.643066], [-8.168091, 41.64586]], [[-8.461579, 41.626778], [-8.459016, 41.635774], [-8.456352, 41.638385], [-8.444319, 41.641495], [-8.432351, 41.63697], [-8.427367, 41.626613], [-8.432511, 41.61867], [-8.444544, 41.615219], [-8.456513, 41.619243], [-8.461579, 41.626778]], [[-8.67286, 41.562719], [-8.660835, 41.568776], [-8.648828, 41.571226], [-8.636833, 41.57132], [-8.624849, 41.569379], [-8.612882, 41.564816], [-8.600931, 41.557973], [-8.589013, 41.54629], [-8.583357, 41.537211], [-8.580539, 41.528194], [-8.580023, 41.519184], [-8.58469, 41.492179], [-8.553457, 41.48612], [-8.541507, 41.482099], [-8.526796, 41.473941], [-8.517038, 41.464893], [-8.511081, 41.45586], [-8.508603, 41.446842], [-8.508735, 41.437835], [-8.511746, 41.42884], [-8.518006, 41.420686], [-8.530029, 41.412884], [-8.542013, 41.410123], [-8.553978, 41.410117], [-8.565928, 41.412363], [-8.577864, 41.416814], [-8.595186, 41.429164], [-8.60092, 41.438192], [-8.603259, 41.447207], [-8.603162, 41.456214], [-8.596587, 41.483214], [-8.60137, 41.486449], [-8.637235, 41.499437], [-8.658197, 41.510436], [-8.671172, 41.519481], [-8.679958, 41.528513], [-8.68385, 41.537532], [-8.684175, 41.54654], [-8.680508, 41.555537], [-8.67286, 41.562719]], [[-8.241184, 41.556822], [-8.229229, 41.553769], [-8.217304, 41.548259], [-8.205454, 41.536801], [-8.199265, 41.526171], [-8.195714, 41.508132], [-8.197092, 41.499134], [-8.201254, 41.490155], [-8.209916, 41.481208], [-8.218171, 41.476212], [-8.230189, 41.472797], [-8.242171, 41.472244], [-8.254124, 41.474336], [-8.267057, 41.481586], [-8.275546, 41.490647], [-8.280707, 41.499687], [-8.284806, 41.517727], [-8.281094, 41.535719], [-8.27479, 41.544687], [-8.265219, 41.552268], [-8.253181, 41.55637], [-8.241184, 41.556822]], [[-8.697113, 41.50531], [-8.685129, 41.505661], [-8.673154, 41.504175], [-8.66119, 41.500767], [-8.644138, 41.492378], [-8.634003, 41.483339], [-8.630013, 41.474319], [-8.630497, 41.465313], [-8.63426, 41.456318], [-8.637504, 41.451089], [-8.649539, 41.439407], [-8.661545, 41.432582], [-8.673525, 41.430359], [-8.685492, 41.430763], [-8.697448, 41.433442], [-8.709393, 41.438695], [-8.721329, 41.446673], [-8.73042, 41.456583], [-8.734545, 41.4656], [-8.735744, 41.47461], [-8.733345, 41.483612], [-8.727439, 41.492606], [-8.7129, 41.501578], [-8.697113, 41.50531]], [[-8.637769, 41.403423], [-8.613877, 41.397549], [-8.60195, 41.391624], [-8.591311, 41.384113], [-8.583023, 41.375075], [-8.579214, 41.366054], [-8.57877, 41.357044], [-8.581658, 41.348047], [-8.589689, 41.339069], [-8.602313, 41.332055], [-8.614282, 41.328998], [-8.626234, 41.328554], [-8.638173, 41.330497], [-8.6501, 41.334876], [-8.668593, 41.348331], [-8.675113, 41.357357], [-8.678592, 41.366374], [-8.679227, 41.375384], [-8.676933, 41.384385], [-8.670802, 41.393375], [-8.661712, 41.400339], [-8.649732, 41.403507], [-8.637769, 41.403423]]], [[[-8.080573, 41.559979], [-8.080573, 41.559979], [-8.080381, 41.559933], [-8.080573, 41.559979]]], [[[-8.09568, 41.671746], [-8.083695, 41.669768], [-8.076494, 41.678372], [-8.083514, 41.682513], [-8.095557, 41.680499], [-8.097598, 41.67854], [-8.09568, 41.671746]]], [[[-8.686557, 41.208855], [-8.698492, 41.207352], [-8.703847, 41.204302], [-8.708214, 41.195305], [-8.703248, 41.186285], [-8.698603, 41.182975], [-8.686686, 41.181673], [-8.674731, 41.188213], [-8.671778, 41.195207], [-8.674744, 41.204224], [-8.686557, 41.208855]]]]}}, {"id": "5", "type": "Feature", "properties": {"fill": "#a3a3a3", "value_min": -1.0, "value_max": -0.75}, "geometry": {"type": "MultiPolygon", "coordinates": [[[[-7.916011, 41.879174], [-7.912143, 41.869818], [-7.910156, 41.857052], [-7.913097, 41.839066], [-7.91991, 41.821117], [-7.919587, 41.812107], [-7.908626, 41.79399], [-7.901487, 41.788374], [-7.889496, 41.785834], [-7.841336, 41.787142], [-7.82526, 41.784161], [-7.811624, 41.775014], [-7.806417, 41.765953], [-7.804803, 41.75693], [-7.807611, 41.747952], [-7.821428, 41.739088], [-7.854342, 41.732503], [-7.866438, 41.728419], [-7.872474, 41.721586], [-7.892001, 41.685748], [-7.896577, 41.676786], [-7.898726, 41.665544], [-7.896885, 41.668692], [-7.882465, 41.671588], [-7.877044, 41.676077], [-7.876723, 41.681253], [-7.873702, 41.685973], [-7.870775, 41.685742], [-7.874708, 41.694587], [-7.874541, 41.703593], [-7.871309, 41.712568], [-7.866598, 41.719335], [-7.863135, 41.721494], [-7.854461, 41.725818], [-7.842421, 41.726758], [-7.830429, 41.725083], [-7.819184, 41.721051], [-7.815594, 41.718191], [-7.808986, 41.717996], [-7.808396, 41.715744], [-7.803298, 41.714154], [-7.790966, 41.717044], [-7.789449, 41.719966], [-7.78464, 41.720402], [-7.78252, 41.723546], [-7.776204, 41.724652], [-7.773786, 41.727346], [-7.770798, 41.72441], [-7.765698, 41.723044], [-7.761765, 41.727758], [-7.762933, 41.733839], [-7.759307, 41.737203], [-7.759597, 41.739005], [-7.75689, 41.739446], [-7.758687, 41.740577], [-7.757758, 41.745301], [-7.748417, 41.749321], [-7.747786, 41.754496], [-7.743863, 41.756995], [-7.757553, 41.763426], [-7.767836, 41.774553], [-7.775229, 41.792645], [-7.780897, 41.801712], [-7.792768, 41.81006], [-7.804707, 41.815412], [-7.816709, 41.817475], [-7.828874, 41.81062], [-7.839085, 41.802315], [-7.853205, 41.796427], [-7.86529, 41.793636], [-7.877323, 41.793794], [-7.889287, 41.797914], [-7.895583, 41.802872], [-7.899698, 41.811919], [-7.89897, 41.820918], [-7.893686, 41.829874], [-7.88864, 41.83535], [-7.876464, 41.842929], [-7.852245, 41.850159], [-7.842873, 41.856394], [-7.837415, 41.873148], [-7.842528, 41.875187], [-7.841663, 41.866632], [-7.848912, 41.861698], [-7.858542, 41.862622], [-7.859456, 41.860148], [-7.865481, 41.859262], [-7.87033, 41.851395], [-7.873043, 41.850501], [-7.873367, 41.844875], [-7.879056, 41.85254], [-7.886268, 41.855932], [-7.888076, 41.855486], [-7.891675, 41.859094], [-7.900698, 41.861588], [-7.904318, 41.859795], [-7.907309, 41.865203], [-7.906095, 41.868126], [-7.910299, 41.871285], [-7.909985, 41.875111], [-7.916011, 41.879174]]], [[[-7.898485, 41.656091], [-7.898485, 41.656091], [-7.898432, 41.655762], [-7.898485, 41.656091]]], [[[-7.898413, 41.65564], [-7.896829, 41.647984], [-7.892759, 41.647976], [-7.892145, 41.651576], [-7.898413, 41.65564]]], [[[-7.949878, 41.772924], [-7.963826, 41.767481], [-7.965833, 41.758492], [-7.959709, 41.74943], [-7.950354, 41.743729], [-7.938329, 41.743625], [-7.928212, 41.74914], [-7.922382, 41.758093], [-7.924633, 41.767121], [-7.93785, 41.772658], [-7.949878, 41.772924]]], [[[-7.990146, 41.60267], [-7.993952, 41.61463], [-8.005432, 41.623737], [-8.041705, 41.642059], [-8.053054, 41.65116], [-8.058541, 41.660212], [-8.058237, 41.669217], [-8.049113, 41.678149], [-8.035033, 41.687039], [-8.029166, 41.695996], [-8.03072, 41.705016], [-8.038636, 41.71409], [-8.046913, 41.720137], [-8.082766, 41.735162], [-8.09477, 41.736637], [-8.106859, 41.732026], [-8.131321, 41.701318], [-8.143413, 41.695771], [-8.155455, 41.693902], [-8.16736, 41.702633], [-8.179392, 41.715181], [-8.203098, 41.728403], [-8.227032, 41.737781], [-8.239057, 41.737843], [-8.251142, 41.732708], [-8.277001, 41.715837], [-8.286677, 41.70689], [-8.292695, 41.69792], [-8.296774, 41.679931], [-8.293383, 41.661896], [-8.287697, 41.652854], [-8.276206, 41.642246], [-8.264266, 41.636286], [-8.252293, 41.633411], [-8.240293, 41.632893], [-8.228264, 41.634839], [-8.216214, 41.638405], [-8.204133, 41.644472], [-8.167834, 41.665824], [-8.15578, 41.669044], [-8.131784, 41.666881], [-8.107049, 41.6606], [-8.099467, 41.651533], [-8.101693, 41.642544], [-8.129069, 41.606726], [-8.133417, 41.597751], [-8.132608, 41.588738], [-8.120953, 41.579988], [-8.109007, 41.576319], [-8.069039, 41.571453], [-8.068081, 41.573478], [-8.062384, 41.575501], [-8.055484, 41.580673], [-8.052181, 41.584498], [-8.052777, 41.587649], [-8.048277, 41.590122], [-8.045573, 41.594397], [-8.031467, 41.602938], [-8.02367, 41.603156], [-8.019174, 41.601802], [-8.015872, 41.603824], [-8.013474, 41.603372], [-8.005971, 41.60629], [-8.003562, 41.611239], [-7.998761, 41.612809], [-7.999669, 41.608759], [-7.996976, 41.605829], [-7.996983, 41.602228], [-7.990146, 41.60267]], [[-8.215222, 41.720165], [-8.203227, 41.717946], [-8.191279, 41.7121], [-8.184138, 41.706208], [-8.179481, 41.697168], [-8.178541, 41.688154], [-8.183109, 41.679179], [-8.191775, 41.672474], [-8.203848, 41.667622], [-8.215878, 41.666146], [-8.227868, 41.66796], [-8.233802, 41.670522], [-8.246052, 41.67961], [-8.250199, 41.688644], [-8.250103, 41.69765], [-8.245975, 41.70663], [-8.234723, 41.715563], [-8.22726, 41.71878], [-8.215222, 41.720165]], [[-8.098668, 41.714576], [-8.095094, 41.713526], [-8.087021, 41.705477], [-8.088647, 41.696483], [-8.095388, 41.692564], [-8.10756, 41.68135], [-8.119633, 41.677052], [-8.131617, 41.679346], [-8.139746, 41.68787], [-8.136617, 41.696854], [-8.131354, 41.698878], [-8.119156, 41.712029], [-8.107078, 41.716224], [-8.098668, 41.714576]], [[-8.09568, 41.671746], [-8.097598, 41.67854], [-8.095557, 41.680499], [-8.083514, 41.682513], [-8.076494, 41.678372], [-8.083695, 41.669768], [-8.09568, 41.671746]], [[-8.084087, 41.642052], [-8.072089, 41.641412], [-8.055527, 41.633166], [-8.046251, 41.624083], [-8.041159, 41.615033], [-8.04074, 41.606023], [-8.045178, 41.597052], [-8.057511, 41.588147], [-8.072915, 41.583735], [-8.084921, 41.583102], [-8.096896, 41.584634], [-8.108829, 41.589261], [-8.117321, 41.597629], [-8.118678, 41.606647], [-8.115867, 41.615632], [-8.108315, 41.626612], [-8.096142, 41.638672], [-8.084087, 41.642052]]], [[[-8.383939, 41.67736], [-8.396019, 41.671488], [-8.397439, 41.662489], [-8.384178, 41.652339], [-8.372165, 41.652734], [-8.361289, 41.662294], [-8.363205, 41.671311], [-8.371935, 41.676348], [-8.383939, 41.67736]]], [[[-8.602832, 41.613942], [-8.60114, 41.600326], [-8.597833, 41.591307], [-8.569566, 41.546168], [-8.556719, 41.51009], [-8.550295, 41.501057], [-8.481858, 41.451727], [-8.469926, 41.446873], [-8.457971, 41.444791], [-8.445989, 41.446102], [-8.433981, 41.450282], [-8.421946, 41.457426], [-8.409865, 41.469279], [-8.407959, 41.47339], [-8.404586, 41.509403], [-8.388436, 41.554355], [-8.388162, 41.56336], [-8.391188, 41.572384], [-8.401409, 41.581445], [-8.408818, 41.584352], [-8.456707, 41.596182], [-8.478468, 41.608842], [-8.50444, 41.630562], [-8.516391, 41.637848], [-8.528361, 41.642873], [-8.538826, 41.645272], [-8.543876, 41.637352], [-8.543855, 41.633976], [-8.536342, 41.631977], [-8.535128, 41.62973], [-8.543431, 41.61462], [-8.554533, 41.615255], [-8.557244, 41.617046], [-8.562639, 41.61635], [-8.568056, 41.619031], [-8.570735, 41.616095], [-8.577321, 41.614269], [-8.581231, 41.615829], [-8.586066, 41.620987], [-8.591462, 41.620515], [-8.596534, 41.616668], [-8.601628, 41.615972], [-8.602832, 41.613942]], [[-8.52862, 41.607281], [-8.516624, 41.606679], [-8.504649, 41.603281], [-8.485142, 41.590857], [-8.477013, 41.581813], [-8.472245, 41.572784], [-8.47091, 41.545756], [-8.462668, 41.536711], [-8.437798, 41.527584], [-8.433363, 41.52129], [-8.432275, 41.51855], [-8.433845, 41.50955], [-8.439067, 41.500569], [-8.457668, 41.481149], [-8.469702, 41.474294], [-8.481688, 41.47317], [-8.493646, 41.475529], [-8.505581, 41.480954], [-8.521789, 41.491935], [-8.530849, 41.50098], [-8.536629, 41.51001], [-8.541711, 41.537053], [-8.545556, 41.546076], [-8.557449, 41.564137], [-8.560702, 41.573156], [-8.561149, 41.582165], [-8.558169, 41.591161], [-8.549655, 41.600135], [-8.540638, 41.604932], [-8.52862, 41.607281]]], [[[-8.241184, 41.556822], [-8.253181, 41.55637], [-8.265219, 41.552268], [-8.27479, 41.544687], [-8.281094, 41.535719], [-8.284806, 41.517727], [-8.280707, 41.499687], [-8.275546, 41.490647], [-8.267057, 41.481586], [-8.254124, 41.474336], [-8.242171, 41.472244], [-8.230189, 41.472797], [-8.218171, 41.476212], [-8.209916, 41.481208], [-8.201254, 41.490155], [-8.197092, 41.499134], [-8.195714, 41.508132], [-8.199265, 41.526171], [-8.205454, 41.536801], [-8.217304, 41.548259], [-8.229229, 41.553769], [-8.241184, 41.556822]], [[-8.241495, 41.53023], [-8.22846, 41.526371], [-8.218563, 41.517296], [-8.215991, 41.508272], [-8.218753, 41.499283], [-8.229394, 41.490347], [-8.241993, 41.487525], [-8.255337, 41.490518], [-8.265824, 41.498817], [-8.269289, 41.508623], [-8.265583, 41.520149], [-8.2535, 41.528664], [-8.241495, 41.53023]]], [[[-8.697113, 41.50531], [-8.7129, 41.501578], [-8.727439, 41.492606], [-8.733345, 41.483612], [-8.735744, 41.47461], [-8.734545, 41.4656], [-8.73042, 41.456583], [-8.721329, 41.446673], [-8.709393, 41.438695], [-8.697448, 41.433442], [-8.685492, 41.430763], [-8.673525, 41.430359], [-8.661545, 41.432582], [-8.649539, 41.439407], [-8.637504, 41.451089], [-8.63426, 41.456318], [-8.630497, 41.465313], [-8.630013, 41.474319], [-8.634003, 41.483339], [-8.644138, 41.492378], [-8.66119, 41.500767], [-8.673154, 41.504175], [-8.685129, 41.505661], [-8.697113, 41.50531]], [[-8.66126, 41.487325], [-8.655278, 41.483405], [-8.652593, 41.474389], [-8.661375, 41.465247], [-8.673353, 41.464565], [-8.68574, 41.474485], [-8.683349, 41.483486], [-8.673234, 41.488405], [-8.66126, 41.487325]]], [[[-8.637769, 41.403423], [-8.649732, 41.403507], [-8.661712, 41.400339], [-8.670802, 41.393375], [-8.676933, 41.384385], [-8.679227, 41.375384], [-8.678592, 41.366374], [-8.675113, 41.357357], [-8.668593, 41.348331], [-8.6501, 41.334876], [-8.638173, 41.330497], [-8.626234, 41.328554], [-8.614282, 41.328998], [-8.602313, 41.332055], [-8.589689, 41.339069], [-8.581658, 41.348047], [-8.57877, 41.357044], [-8.579214, 41.366054], [-8.583023, 41.375075], [-8.591311, 41.384113], [-8.60195, 41.391624], [-8.613877, 41.397549], [-8.637769, 41.403423]], [[-8.62599, 41.371264], [-8.619304, 41.366193], [-8.618598, 41.357183], [-8.626104, 41.351246], [-8.63806, 41.351003], [-8.646451, 41.357272], [-8.646127, 41.366279], [-8.637944, 41.371941], [-8.62599, 41.371264]]]]}}, {"id": "4", "type": "Feature", "properties": {"fill": "#b6a27f", "value_min": -1.25, "value_max": -1.0}, "geometry": {"type": "MultiPolygon", "coordinates": [[[[-7.837415, 41.873148], [-7.842873, 41.856394], [-7.852245, 41.850159], [-7.876464, 41.842929], [-7.88864, 41.83535], [-7.893686, 41.829874], [-7.89897, 41.820918], [-7.899698, 41.811919], [-7.895583, 41.802872], [-7.889287, 41.797914], [-7.877323, 41.793794], [-7.86529, 41.793636], [-7.853205, 41.796427], [-7.839085, 41.802315], [-7.828874, 41.81062], [-7.816709, 41.817475], [-7.804707, 41.815412], [-7.792768, 41.81006], [-7.780897, 41.801712], [-7.775229, 41.792645], [-7.767836, 41.774553], [-7.757553, 41.763426], [-7.743863, 41.756995], [-7.740214, 41.763924], [-7.726937, 41.771755], [-7.7254, 41.777152], [-7.727191, 41.779184], [-7.724177, 41.780299], [-7.725372, 41.781653], [-7.722302, 41.791546], [-7.722889, 41.793798], [-7.728879, 41.797871], [-7.727026, 41.805517], [-7.72995, 41.819031], [-7.73594, 41.823554], [-7.74345, 41.825605], [-7.738919, 41.828515], [-7.739807, 41.830975], [-7.756275, 41.829516], [-7.768286, 41.831161], [-7.783375, 41.837766], [-7.793568, 41.84688], [-7.798493, 41.855938], [-7.799658, 41.864957], [-7.797744, 41.87394], [-7.803381, 41.874857], [-7.804914, 41.869459], [-7.813032, 41.871958], [-7.814229, 41.873537], [-7.823863, 41.874013], [-7.825059, 41.875817], [-7.830479, 41.875831], [-7.830789, 41.874031], [-7.832894, 41.874712], [-7.837415, 41.873148]], [[-7.864737, 41.824953], [-7.85719, 41.82051], [-7.85409, 41.811473], [-7.863193, 41.802556], [-7.87718, 41.801998], [-7.886279, 41.811789], [-7.882002, 41.820755], [-7.876788, 41.824438], [-7.864737, 41.824953]]], [[[-7.796121, 41.876636], [-7.792736, 41.882253], [-7.796739, 41.878214], [-7.796121, 41.876636]]], [[[-7.815594, 41.718191], [-7.819184, 41.721051], [-7.830429, 41.725083], [-7.842421, 41.726758], [-7.854461, 41.725818], [-7.863135, 41.721494], [-7.866598, 41.719335], [-7.871309, 41.712568], [-7.874541, 41.703593], [-7.874708, 41.694587], [-7.870775, 41.685742], [-7.868896, 41.686413], [-7.868008, 41.68326], [-7.864403, 41.683701], [-7.864096, 41.685276], [-7.858987, 41.68639], [-7.857773, 41.689538], [-7.854776, 41.68818], [-7.852668, 41.689582], [-7.855104, 41.689593], [-7.862502, 41.694467], [-7.866949, 41.699343], [-7.868323, 41.703532], [-7.865381, 41.71251], [-7.854574, 41.719489], [-7.842559, 41.71907], [-7.830838, 41.712163], [-7.830224, 41.710176], [-7.825252, 41.708813], [-7.818621, 41.713522], [-7.815594, 41.718191]]], [[[-8.215222, 41.720165], [-8.22726, 41.71878], [-8.234723, 41.715563], [-8.245975, 41.70663], [-8.250103, 41.69765], [-8.250199, 41.688644], [-8.246052, 41.67961], [-8.233802, 41.670522], [-8.227868, 41.66796], [-8.215878, 41.666146], [-8.203848, 41.667622], [-8.191775, 41.672474], [-8.183109, 41.679179], [-8.178541, 41.688154], [-8.179481, 41.697168], [-8.184138, 41.706208], [-8.191279, 41.7121], [-8.203227, 41.717946], [-8.215222, 41.720165]], [[-8.203326, 41.709934], [-8.19681, 41.706297], [-8.189651, 41.69724], [-8.191456, 41.688246], [-8.203696, 41.679926], [-8.215717, 41.67938], [-8.227661, 41.685287], [-8.230776, 41.688515], [-8.232574, 41.697535], [-8.226057, 41.706498], [-8.215335, 41.710848], [-8.203326, 41.709934]]], [[[-8.098668, 41.714576], [-8.107078, 41.716224], [-8.119156, 41.712029], [-8.131354, 41.698878], [-8.136617, 41.696854], [-8.139746, 41.68787], [-8.131617, 41.679346], [-8.119633, 41.677052], [-8.10756, 41.68135], [-8.095388, 41.692564], [-8.088647, 41.696483], [-8.087021, 41.705477], [-8.095094, 41.713526], [-8.098668, 41.714576]], [[-8.107163, 41.710069], [-8.099832, 41.705578], [-8.098595, 41.696562], [-8.107462, 41.688472], [-8.119544, 41.683642], [-8.128273, 41.687784], [-8.130822, 41.69681], [-8.119197, 41.709049], [-8.107163, 41.710069]]], [[[-8.084087, 41.642052], [-8.096142, 41.638672], [-8.108315, 41.626612], [-8.115867, 41.615632], [-8.118678, 41.606647], [-8.117321, 41.597629], [-8.108829, 41.589261], [-8.096896, 41.584634], [-8.084921, 41.583102], [-8.072915, 41.583735], [-8.057511, 41.588147], [-8.045178, 41.597052], [-8.04074, 41.606023], [-8.041159, 41.615033], [-8.046251, 41.624083], [-8.055527, 41.633166], [-8.072089, 41.641412], [-8.084087, 41.642052]], [[-8.07631, 41.633335], [-8.072218, 41.632411], [-8.060974, 41.624204], [-8.056337, 41.615159], [-8.057806, 41.606164], [-8.06647, 41.597227], [-8.072768, 41.594068], [-8.084798, 41.591822], [-8.096774, 41.593436], [-8.108657, 41.601811], [-8.11127, 41.60659], [-8.110834, 41.615593], [-8.104908, 41.624554], [-8.096235, 41.631997], [-8.084187, 41.635051], [-8.07631, 41.633335]]], [[[-8.52862, 41.607281], [-8.540638, 41.604932], [-8.549655, 41.600135], [-8.558169, 41.591161], [-8.561149, 41.582165], [-8.560702, 41.573156], [-8.557449, 41.564137], [-8.545556, 41.546076], [-8.541711, 41.537053], [-8.536629, 41.51001], [-8.530849, 41.50098], [-8.521789, 41.491935], [-8.505581, 41.480954], [-8.493646, 41.475529], [-8.481688, 41.47317], [-8.469702, 41.474294], [-8.457668, 41.481149], [-8.439067, 41.500569], [-8.433845, 41.50955], [-8.432275, 41.51855], [-8.433363, 41.52129], [-8.437798, 41.527584], [-8.462668, 41.536711], [-8.47091, 41.545756], [-8.472245, 41.572784], [-8.477013, 41.581813], [-8.485142, 41.590857], [-8.504649, 41.603281], [-8.516624, 41.606679], [-8.52862, 41.607281]], [[-8.516752, 41.589492], [-8.50479, 41.584746], [-8.501713, 41.581923], [-8.499128, 41.572905], [-8.504956, 41.563025], [-8.516982, 41.558628], [-8.528951, 41.56175], [-8.537841, 41.573067], [-8.535631, 41.582065], [-8.528765, 41.587422], [-8.516752, 41.589492]], [[-8.493133, 41.541355], [-8.481177, 41.537168], [-8.462726, 41.527704], [-8.450639, 41.518639], [-8.448759, 41.509623], [-8.452971, 41.500636], [-8.462415, 41.491673], [-8.469601, 41.486724], [-8.481602, 41.483973], [-8.493571, 41.485158], [-8.50551, 41.490327], [-8.517616, 41.500925], [-8.522537, 41.509953], [-8.523094, 41.518962], [-8.517184, 41.531508], [-8.50513, 41.540228], [-8.493133, 41.541355]]], [[[-8.241495, 41.53023], [-8.2535, 41.528664], [-8.265583, 41.520149], [-8.269289, 41.508623], [-8.265824, 41.498817], [-8.255337, 41.490518], [-8.241993, 41.487525], [-8.229394, 41.490347], [-8.218753, 41.499283], [-8.215991, 41.508272], [-8.218563, 41.517296], [-8.22846, 41.526371], [-8.241495, 41.53023]], [[-8.239107, 41.508427], [-8.241782, 41.505613], [-8.246905, 41.508478], [-8.241721, 41.5109], [-8.239107, 41.508427]]], [[[-8.66126, 41.487325], [-8.673234, 41.488405], [-8.683349, 41.483486], [-8.68574, 41.474485], [-8.673353, 41.464565], [-8.661375, 41.465247], [-8.652593, 41.474389], [-8.655278, 41.483405], [-8.66126, 41.487325]]], [[[-8.62599, 41.371264], [-8.637944, 41.371941], [-8.646127, 41.366279], [-8.646451, 41.357272], [-8.63806, 41.351003], [-8.626104, 41.351246], [-8.618598, 41.357183], [-8.619304, 41.366193], [-8.62599, 41.371264]]]]}}, {"id": "2", "type": "Feature", "properties": {"fill": "#e57b10", "value_min": -1.75, "value_max": -1.5}, "geometry": {"type": "MultiPolygon", "coordinates": [[[[-7.737841, 41.860922], [-7.737442, 41.86429], [-7.743408, 41.871683], [-7.747387, 41.873405], [-7.755386, 41.875405], [-7.767493, 41.872481], [-7.774218, 41.864688], [-7.773609, 41.855675], [-7.767923, 41.850107], [-7.755948, 41.846412], [-7.750538, 41.848231], [-7.750532, 41.849261], [-7.748427, 41.848963], [-7.744505, 41.850321], [-7.746901, 41.8524], [-7.746881, 41.855776], [-7.739943, 41.858003], [-7.737841, 41.860922]]], [[[-7.858407, 41.703434], [-7.854918, 41.700098], [-7.843872, 41.703288], [-7.849985, 41.712356], [-7.855933, 41.712416], [-7.858407, 41.703434]]], [[[-8.127189, 41.696782], [-8.119473, 41.688787], [-8.107388, 41.69381], [-8.104323, 41.696606], [-8.107255, 41.703432], [-8.119238, 41.70607], [-8.127189, 41.696782]], [[-8.119423, 41.692473], [-8.123556, 41.696755], [-8.119296, 41.701817], [-8.110837, 41.696657], [-8.119423, 41.692473]]], [[[-8.215554, 41.692785], [-8.203547, 41.691981], [-8.200898, 41.697319], [-8.203448, 41.70004], [-8.215469, 41.699779], [-8.217978, 41.697436], [-8.215554, 41.692785]]], [[[-8.105706, 41.615554], [-8.103539, 41.60653], [-8.096672, 41.600725], [-8.084696, 41.599046], [-8.072631, 41.603577], [-8.069442, 41.606259], [-8.066119, 41.615239], [-8.071151, 41.624287], [-8.084261, 41.629808], [-8.096298, 41.62754], [-8.105706, 41.615554]], [[-8.096377, 41.621879], [-8.08824, 41.624423], [-8.082578, 41.624378], [-8.074697, 41.615308], [-8.082244, 41.606361], [-8.084607, 41.605297], [-8.096575, 41.607702], [-8.100495, 41.615513], [-8.096377, 41.621879]]], [[[-8.505242, 41.525569], [-8.510973, 41.518912], [-8.511977, 41.509908], [-8.50544, 41.499542], [-8.493512, 41.492735], [-8.481541, 41.491542], [-8.469532, 41.495215], [-8.462822, 41.500682], [-8.458381, 41.509669], [-8.460963, 41.518688], [-8.469288, 41.524996], [-8.48123, 41.530512], [-8.493212, 41.531162], [-8.505242, 41.525569]], [[-8.502905, 41.50987], [-8.500582, 41.518867], [-8.493269, 41.523845], [-8.481275, 41.524868], [-8.468689, 41.518724], [-8.465361, 41.509701], [-8.469464, 41.503464], [-8.481494, 41.497459], [-8.49346, 41.499396], [-8.502905, 41.50987]]]]}}, {"id": "3", "type": "Feature", "properties": {"fill": "#e19f31", "value_min": -1.5, "value_max": -1.25}, "geometry": {"type": "MultiPolygon", "coordinates": [[[[-7.792736, 41.882253], [-7.796121, 41.876636], [-7.794349, 41.87438], [-7.797744, 41.87394], [-7.799658, 41.864957], [-7.798493, 41.855938], [-7.793568, 41.84688], [-7.783375, 41.837766], [-7.768286, 41.831161], [-7.756275, 41.829516], [-7.739807, 41.830975], [-7.74729, 41.837772], [-7.746349, 41.84407], [-7.750538, 41.848231], [-7.755948, 41.846412], [-7.767923, 41.850107], [-7.773609, 41.855675], [-7.774218, 41.864688], [-7.767493, 41.872481], [-7.755386, 41.875405], [-7.747387, 41.873405], [-7.743408, 41.871683], [-7.737442, 41.86429], [-7.737841, 41.860922], [-7.734159, 41.868337], [-7.730228, 41.871024], [-7.729293, 41.875972], [-7.720533, 41.880218], [-7.720523, 41.881793], [-7.725335, 41.882935], [-7.726208, 41.887665], [-7.737044, 41.888828], [-7.73944, 41.891087], [-7.74246, 41.889747], [-7.742785, 41.885922], [-7.756022, 41.888441], [-7.758719, 41.890926], [-7.756592, 41.89407], [-7.758076, 41.897901], [-7.764097, 41.898595], [-7.779227, 41.886264], [-7.792736, 41.882253]]], [[[-7.744505, 41.850321], [-7.748427, 41.848963], [-7.743309, 41.849012], [-7.744505, 41.850321]]], [[[-7.864737, 41.824953], [-7.876788, 41.824438], [-7.882002, 41.820755], [-7.886279, 41.811789], [-7.87718, 41.801998], [-7.863193, 41.802556], [-7.85409, 41.811473], [-7.85719, 41.82051], [-7.864737, 41.824953]]], [[[-7.830224, 41.710176], [-7.830838, 41.712163], [-7.842559, 41.71907], [-7.854574, 41.719489], [-7.865381, 41.71251], [-7.868323, 41.703532], [-7.866949, 41.699343], [-7.862502, 41.694467], [-7.855104, 41.689593], [-7.852668, 41.689582], [-7.847538, 41.695365], [-7.837309, 41.699391], [-7.835792, 41.702763], [-7.839682, 41.705924], [-7.838465, 41.709522], [-7.830224, 41.710176]], [[-7.858407, 41.703434], [-7.855933, 41.712416], [-7.849985, 41.712356], [-7.843872, 41.703288], [-7.854918, 41.700098], [-7.858407, 41.703434]]], [[[-8.203326, 41.709934], [-8.215335, 41.710848], [-8.226057, 41.706498], [-8.232574, 41.697535], [-8.230776, 41.688515], [-8.227661, 41.685287], [-8.215717, 41.67938], [-8.203696, 41.679926], [-8.191456, 41.688246], [-8.189651, 41.69724], [-8.19681, 41.706297], [-8.203326, 41.709934]], [[-8.215554, 41.692785], [-8.217978, 41.697436], [-8.215469, 41.699779], [-8.203448, 41.70004], [-8.200898, 41.697319], [-8.203547, 41.691981], [-8.215554, 41.692785]]], [[[-8.107163, 41.710069], [-8.119197, 41.709049], [-8.130822, 41.69681], [-8.128273, 41.687784], [-8.119544, 41.683642], [-8.107462, 41.688472], [-8.098595, 41.696562], [-8.099832, 41.705578], [-8.107163, 41.710069]], [[-8.127189, 41.696782], [-8.119238, 41.70607], [-8.107255, 41.703432], [-8.104323, 41.696606], [-8.107388, 41.69381], [-8.119473, 41.688787], [-8.127189, 41.696782]]], [[[-8.07631, 41.633335], [-8.084187, 41.635051], [-8.096235, 41.631997], [-8.104908, 41.624554], [-8.110834, 41.615593], [-8.11127, 41.60659], [-8.108657, 41.601811], [-8.096774, 41.593436], [-8.084798, 41.591822], [-8.072768, 41.594068], [-8.06647, 41.597227], [-8.057806, 41.606164], [-8.056337, 41.615159], [-8.060974, 41.624204], [-8.072218, 41.632411], [-8.07631, 41.633335]], [[-8.105706, 41.615554], [-8.096298, 41.62754], [-8.084261, 41.629808], [-8.071151, 41.624287], [-8.066119, 41.615239], [-8.069442, 41.606259], [-8.072631, 41.603577], [-8.084696, 41.599046], [-8.096672, 41.600725], [-8.103539, 41.60653], [-8.105706, 41.615554]]], [[[-8.516752, 41.589492], [-8.528765, 41.587422], [-8.535631, 41.582065], [-8.537841, 41.573067], [-8.528951, 41.56175], [-8.516982, 41.558628], [-8.504956, 41.563025], [-8.499128, 41.572905], [-8.501713, 41.581923], [-8.50479, 41.584746], [-8.516752, 41.589492]]], [[[-8.493133, 41.541355], [-8.50513, 41.540228], [-8.517184, 41.531508], [-8.523094, 41.518962], [-8.522537, 41.509953], [-8.517616, 41.500925], [-8.50551, 41.490327], [-8.493571, 41.485158], [-8.481602, 41.483973], [-8.469601, 41.486724], [-8.462415, 41.491673], [-8.452971, 41.500636], [-8.448759, 41.509623], [-8.450639, 41.518639], [-8.462726, 41.527704], [-8.481177, 41.537168], [-8.493133, 41.541355]], [[-8.505242, 41.525569], [-8.493212, 41.531162], [-8.48123, 41.530512], [-8.469288, 41.524996], [-8.460963, 41.518688], [-8.458381, 41.509669], [-8.462822, 41.500682], [-8.469532, 41.495215], [-8.481541, 41.491542], [-8.493512, 41.492735], [-8.50544, 41.499542], [-8.511977, 41.509908], [-8.510973, 41.518912], [-8.505242, 41.525569]]], [[[-8.239107, 41.508427], [-8.241721, 41.5109], [-8.246905, 41.508478], [-8.241782, 41.505613], [-8.239107, 41.508427]]]]}}]}