{"type": "FeatureCollection", "features": [{"id": "8", "type": "Feature", "properties": {"fill": "#a3a3a3", "value_min": 0.25, "value_max": -0.5}, "geometry": {"type": "MultiPolygon", "coordinates": [[[[-8.150725, 41.705966], [-8.14334, 41.701246], [-8.131301, 41.70283], [-8.123555, 41.714769], [-8.131025, 41.723316], [-8.143052, 41.722984], [-8.15189, 41.714981], [-8.150725, 41.705966]], [[-8.13111, 41.716971], [-8.129223, 41.714812], [-8.131259, 41.705911], [-8.143203, 41.711629], [-8.14351, 41.714919], [-8.13111, 41.716971]]], [[[-8.361688, 41.497184], [-8.365511, 41.491179], [-8.365635, 41.482172], [-8.359375, 41.47313], [-8.350004, 41.467551], [-8.338042, 41.466193], [-8.326033, 41.469515], [-8.32114, 41.472911], [-8.315098, 41.481882], [-8.315256, 41.490891], [-8.32164, 41.499936], [-8.325689, 41.50272], [-8.337634, 41.506331], [-8.349628, 41.505163], [-8.361688, 41.497184]]], [[[-8.710404, 41.210916], [-8.716758, 41.204334], [-8.718878, 41.195332], [-8.715224, 41.186315], [-8.710531, 41.181993], [-8.698632, 41.176809], [-8.68671, 41.176758], [-8.674763, 41.181764], [-8.670334, 41.186195], [-8.66642, 41.195192], [-8.668284, 41.204205], [-8.674615, 41.211592], [-8.686521, 41.216275], [-8.698452, 41.216082], [-8.710404, 41.210916]]]]}}, {"id": "7", "type": "Feature", "properties": {"fill": "#a3a3a3", "value_min": 0.0, "value_max": -0.25}, "geometry": {"type": "MultiPolygon", "coordinates": [[[[-7.948813, 41.838093], [-7.947081, 41.839383], [-7.948755, 41.841603], [-7.951873, 41.839427], [-7.948813, 41.838093]]], [[[-8.186451, 41.742252], [-8.179046, 41.733193], [-8.167027, 41.728421], [-8.161925, 41.724062], [-8.159206, 41.706028], [-8.155363, 41.700942], [-8.143415, 41.695608], [-8.131341, 41.699829], [-8.119133, 41.713752], [-8.11662, 41.714716], [-8.115502, 41.723714], [-8.11892, 41.729324], [-8.130832, 41.737648], [-8.142429, 41.741932], [-8.148563, 41.750985], [-8.154648, 41.755506], [-8.166627, 41.75934], [-8.178686, 41.757038], [-8.184912, 41.751248], [-8.186451, 41.742252]], [[-8.150725, 41.705966], [-8.15189, 41.714981], [-8.143052, 41.722984], [-8.131025, 41.723316], [-8.123555, 41.714769], [-8.131301, 41.70283], [-8.14334, 41.701246], [-8.150725, 41.705966]]], [[[-8.029491, 41.732027], [-8.022803, 41.724524], [-8.010836, 41.7209], [-7.998725, 41.72662], [-7.995536, 41.731735], [-7.9985, 41.741086], [-8.010441, 41.746628], [-8.022504, 41.744263], [-8.027057, 41.741013], [-8.029491, 41.732027]]], [[[-8.150523, 41.633908], [-8.144339, 41.625841], [-8.132359, 41.624056], [-8.121285, 41.633688], [-8.125653, 41.642728], [-8.132063, 41.646127], [-8.145729, 41.642879], [-8.150523, 41.633908]]], [[[-8.629306, 41.519354], [-8.625147, 41.517811], [-8.618736, 41.519319], [-8.612391, 41.528305], [-8.625049, 41.53491], [-8.635371, 41.528381], [-8.629306, 41.519354]]], [[[-8.373539, 41.510713], [-8.382129, 41.500277], [-8.386024, 41.482283], [-8.381481, 41.464244], [-8.374072, 41.455337], [-8.362181, 41.446966], [-8.350256, 41.442333], [-8.338303, 41.440516], [-8.326329, 41.440884], [-8.31433, 41.443607], [-8.302301, 41.448996], [-8.294406, 41.454735], [-8.286546, 41.463694], [-8.282223, 41.472674], [-8.281653, 41.490686], [-8.285362, 41.499716], [-8.29297, 41.508771], [-8.313514, 41.520932], [-8.325468, 41.523983], [-8.337447, 41.524682], [-8.349447, 41.523216], [-8.361476, 41.518808], [-8.373539, 41.510713]], [[-8.361688, 41.497184], [-8.349628, 41.505163], [-8.337634, 41.506331], [-8.325689, 41.50272], [-8.32164, 41.499936], [-8.315256, 41.490891], [-8.315098, 41.481882], [-8.32114, 41.472911], [-8.326033, 41.469515], [-8.338042, 41.466193], [-8.350004, 41.467551], [-8.359375, 41.47313], [-8.365635, 41.482172], [-8.365511, 41.491179], [-8.361688, 41.497184]]], [[[-8.231284, 41.379983], [-8.219359, 41.37713], [-8.216531, 41.382171], [-8.219265, 41.384974], [-8.231243, 41.383529], [-8.231284, 41.379983]]], [[[-8.649901, 41.372125], [-8.655524, 41.366307], [-8.656946, 41.357304], [-8.650034, 41.347152], [-8.638106, 41.3426], [-8.62615, 41.343208], [-8.616089, 41.348167], [-8.610104, 41.357155], [-8.611199, 41.366166], [-8.614042, 41.369554], [-8.625958, 41.376721], [-8.637914, 41.37721], [-8.649901, 41.372125]]], [[[-8.63903, 41.196024], [-8.644128, 41.213141], [-8.650689, 41.224454], [-8.662559, 41.23632], [-8.674459, 41.243102], [-8.686375, 41.24683], [-8.710239, 41.248142], [-8.734126, 41.244202], [-8.746078, 41.239671], [-8.760668, 41.231458], [-8.770763, 41.22247], [-8.777672, 41.213476], [-8.784058, 41.195472], [-8.784448, 41.186465], [-8.779612, 41.16844], [-8.770241, 41.155183], [-8.758392, 41.144979], [-8.674793, 41.146932], [-8.674849, 41.153767], [-8.672489, 41.15648], [-8.66117, 41.156307], [-8.662078, 41.158104], [-8.660313, 41.160813], [-8.657033, 41.160378], [-8.654961, 41.161963], [-8.653231, 41.169174], [-8.655366, 41.175467], [-8.647955, 41.180228], [-8.647696, 41.185181], [-8.641225, 41.196014], [-8.63903, 41.196024]], [[-8.710404, 41.210916], [-8.698452, 41.216082], [-8.686521, 41.216275], [-8.674615, 41.211592], [-8.668284, 41.204205], [-8.66642, 41.195192], [-8.670334, 41.186195], [-8.674763, 41.181764], [-8.68671, 41.176758], [-8.698632, 41.176809], [-8.710531, 41.181993], [-8.715224, 41.186315], [-8.718878, 41.195332], [-8.716758, 41.204334], [-8.710404, 41.210916]]]]}}, {"id": "6", "type": "Feature", "properties": {"fill": "#a3a3a3", "value_min": -0.25, "value_max": -0.0}, "geometry": {"type": "MultiPolygon", "coordinates": [[[[-7.951854, 41.871624], [-7.960303, 41.872289], [-7.97239, 41.870033], [-7.979545, 41.866696], [-7.990245, 41.857784], [-7.994014, 41.848811], [-7.993483, 41.839799], [-7.987767, 41.830742], [-7.973159, 41.821922], [-7.961169, 41.818787], [-7.949125, 41.818986], [-7.937014, 41.823292], [-7.928612, 41.830206], [-7.923425, 41.839164], [-7.922822, 41.848165], [-7.926603, 41.857207], [-7.936301, 41.866362], [-7.94775, 41.871126], [-7.951854, 41.871624]], [[-7.948813, 41.838093], [-7.951873, 41.839427], [-7.948755, 41.841603], [-7.947081, 41.839383], [-7.948813, 41.838093]]], [[[-8.178098, 41.803078], [-8.190203, 41.797688], [-8.202855, 41.787402], [-8.209018, 41.778438], [-8.211973, 41.769451], [-8.2124, 41.760447], [-8.210495, 41.751427], [-8.205313, 41.742384], [-8.196612, 41.733317], [-8.17914, 41.721381], [-8.172825, 41.715134], [-8.16306, 41.697049], [-8.155543, 41.687214], [-8.143595, 41.682021], [-8.119194, 41.709235], [-8.107121, 41.713099], [-8.0951, 41.713095], [-8.085229, 41.705463], [-8.081002, 41.696422], [-8.073686, 41.687357], [-8.059489, 41.682129], [-8.047451, 41.683723], [-7.999125, 41.700864], [-7.986979, 41.708946], [-7.979302, 41.722585], [-7.979104, 41.73159], [-7.98241, 41.740626], [-7.998234, 41.758228], [-8.010152, 41.765406], [-8.034113, 41.772095], [-8.064577, 41.777352], [-8.117945, 41.800531], [-8.129937, 41.803899], [-8.153975, 41.806718], [-8.178098, 41.803078]], [[-8.186451, 41.742252], [-8.184912, 41.751248], [-8.178686, 41.757038], [-8.166627, 41.75934], [-8.154648, 41.755506], [-8.148563, 41.750985], [-8.142429, 41.741932], [-8.130832, 41.737648], [-8.11892, 41.729324], [-8.115502, 41.723714], [-8.11662, 41.714716], [-8.119133, 41.713752], [-8.131341, 41.699829], [-8.143415, 41.695608], [-8.155363, 41.700942], [-8.159206, 41.706028], [-8.161925, 41.724062], [-8.167027, 41.728421], [-8.179046, 41.733193], [-8.186451, 41.742252]], [[-8.029491, 41.732027], [-8.027057, 41.741013], [-8.022504, 41.744263], [-8.010441, 41.746628], [-7.9985, 41.741086], [-7.995536, 41.731735], [-7.998725, 41.72662], [-8.010836, 41.7209], [-8.022803, 41.724524], [-8.029491, 41.732027]]], [[[-8.452373, 41.699261], [-8.443851, 41.695876], [-8.431852, 41.693749], [-8.419831, 41.694191], [-8.403741, 41.69855], [-8.387153, 41.70747], [-8.378878, 41.716433], [-8.375635, 41.725422], [-8.376017, 41.734391], [-8.384922, 41.73032], [-8.387032, 41.731891], [-8.393033, 41.729852], [-8.396942, 41.730518], [-8.400531, 41.726683], [-8.402934, 41.726452], [-8.404721, 41.722847], [-8.417349, 41.725067], [-8.422737, 41.720552], [-8.429643, 41.719859], [-8.430533, 41.717381], [-8.435927, 41.714441], [-8.441632, 41.713975], [-8.4446, 41.70654], [-8.452373, 41.699261]]], [[[-8.155917, 41.658572], [-8.172343, 41.643074], [-8.177285, 41.634102], [-8.179181, 41.625109], [-8.178466, 41.616097], [-8.174023, 41.607058], [-8.168664, 41.601259], [-8.156701, 41.598407], [-8.144679, 41.600152], [-8.132586, 41.607076], [-8.120447, 41.61729], [-8.108475, 41.633589], [-8.104362, 41.642564], [-8.105419, 41.65158], [-8.107921, 41.655224], [-8.119828, 41.662776], [-8.131795, 41.666044], [-8.143816, 41.665361], [-8.155917, 41.658572]], [[-8.150523, 41.633908], [-8.145729, 41.642879], [-8.132063, 41.646127], [-8.125653, 41.642728], [-8.121285, 41.633688], [-8.132359, 41.624056], [-8.144339, 41.625841], [-8.150523, 41.633908]]], [[[-8.076188, 41.556978], [-8.097212, 41.561986], [-8.181004, 41.574347], [-8.264955, 41.575576], [-8.300969, 41.57296], [-8.337009, 41.567546], [-8.361059, 41.561182], [-8.409204, 41.541989], [-8.410942, 41.545465], [-8.421402, 41.554525], [-8.433018, 41.560823], [-8.444991, 41.563051], [-8.456998, 41.561445], [-8.467425, 41.554748], [-8.471915, 41.545761], [-8.466536, 41.536729], [-8.457248, 41.531567], [-8.445281, 41.529151], [-8.421281, 41.532096], [-8.415359, 41.527473], [-8.41653, 41.518471], [-8.423229, 41.509498], [-8.445604, 41.491593], [-8.451369, 41.482613], [-8.454506, 41.473621], [-8.460739, 41.446628], [-8.470026, 41.434553], [-8.48204, 41.428926], [-8.494004, 41.429395], [-8.505887, 41.440652], [-8.513562, 41.455871], [-8.52125, 41.46491], [-8.529606, 41.471426], [-8.541537, 41.477789], [-8.553494, 41.480817], [-8.565469, 41.481225], [-8.577465, 41.478416], [-8.583538, 41.47416], [-8.590405, 41.465177], [-8.601716, 41.430058], [-8.61373, 41.422297], [-8.619684, 41.42024], [-8.685603, 41.407618], [-8.721519, 41.402233], [-8.757419, 41.399767], [-8.809722, 41.39881], [-8.799695, 41.14406], [-8.758392, 41.144979], [-8.770241, 41.155183], [-8.779612, 41.16844], [-8.784448, 41.186465], [-8.784058, 41.195472], [-8.777672, 41.213476], [-8.770763, 41.22247], [-8.760668, 41.231458], [-8.746078, 41.239671], [-8.734126, 41.244202], [-8.710239, 41.248142], [-8.686375, 41.24683], [-8.674459, 41.243102], [-8.662559, 41.23632], [-8.650689, 41.224454], [-8.644128, 41.213141], [-8.63903, 41.196024], [-8.638231, 41.194227], [-8.634946, 41.193341], [-8.632526, 41.188624], [-8.625658, 41.186628], [-8.621132, 41.178994], [-8.613374, 41.177451], [-8.608583, 41.174095], [-8.609164, 41.172066], [-8.605845, 41.166228], [-8.603194, 41.164663], [-8.621193, 41.213068], [-8.625012, 41.240104], [-8.620979, 41.258106], [-8.61464, 41.268175], [-8.602631, 41.279753], [-8.578663, 41.293119], [-8.554715, 41.302097], [-8.53078, 41.308341], [-8.506877, 41.309691], [-8.494944, 41.308003], [-8.471121, 41.29941], [-8.432683, 41.27549], [-8.432691, 41.277107], [-8.427032, 41.279372], [-8.429143, 41.284319], [-8.426171, 41.287028], [-8.426488, 41.291079], [-8.425013, 41.294909], [-8.422037, 41.296942], [-8.422647, 41.299867], [-8.407744, 41.304856], [-8.406262, 41.307335], [-8.403277, 41.307342], [-8.401801, 41.311398], [-8.399712, 41.311628], [-8.400316, 41.313202], [-8.396738, 41.314336], [-8.398835, 41.316131], [-8.393775, 41.31997], [-8.393489, 41.323122], [-8.391105, 41.324253], [-8.386325, 41.323588], [-8.380382, 41.331254], [-8.375305, 41.33104], [-8.37201, 41.328346], [-8.361563, 41.329718], [-8.358276, 41.329049], [-8.357673, 41.327249], [-8.350207, 41.327264], [-8.346032, 41.328847], [-8.342462, 41.333131], [-8.333215, 41.336299], [-8.326363, 41.342163], [-8.324568, 41.341041], [-8.323376, 41.341943], [-8.320676, 41.338121], [-8.312604, 41.334983], [-8.313794, 41.333405], [-8.31139, 41.328007], [-8.307502, 41.325762], [-8.305116, 41.326891], [-8.303024, 41.325994], [-8.303615, 41.323742], [-8.301216, 41.319694], [-8.296431, 41.316774], [-8.297618, 41.313846], [-8.295817, 41.310022], [-8.281801, 41.316569], [-8.279132, 41.324451], [-8.272266, 41.32536], [-8.265709, 41.331221], [-8.269004, 41.336169], [-8.263339, 41.340902], [-8.262751, 41.345405], [-8.256483, 41.347663], [-8.255889, 41.349689], [-8.249622, 41.353072], [-8.251123, 41.356897], [-8.248141, 41.360052], [-8.248448, 41.364328], [-8.245461, 41.364781], [-8.244272, 41.368384], [-8.241287, 41.370413], [-8.224854, 41.370878], [-8.21738, 41.368182], [-8.214399, 41.373587], [-8.208127, 41.376968], [-8.199163, 41.377423], [-8.194677, 41.374275], [-8.191691, 41.376302], [-8.189299, 41.375403], [-8.184818, 41.376756], [-8.168382, 41.377438], [-8.164499, 41.38059], [-8.152544, 41.375866], [-8.151049, 41.37339], [-8.145073, 41.374742], [-8.139694, 41.377894], [-8.133418, 41.374292], [-8.125051, 41.375193], [-8.119672, 41.376768], [-8.119672, 41.378569], [-8.116683, 41.380144], [-8.117877, 41.385771], [-8.113992, 41.386896], [-8.112795, 41.390723], [-8.110105, 41.390947], [-8.108011, 41.393648], [-8.103827, 41.392972], [-8.105321, 41.394998], [-8.10263, 41.396123], [-8.10801, 41.398825], [-8.108606, 41.403102], [-8.104419, 41.406252], [-8.104119, 41.408728], [-8.101727, 41.409403], [-8.102025, 41.411204], [-8.092756, 41.411201], [-8.09126, 41.414352], [-8.079893, 41.41975], [-8.077503, 41.416597], [-8.070923, 41.41862], [-8.066739, 41.416142], [-8.061654, 41.417489], [-8.059852, 41.424916], [-8.055959, 41.429415], [-8.05745, 41.432793], [-8.056549, 41.436394], [-8.069999, 41.447206], [-8.068788, 41.462286], [-8.073872, 41.46499], [-8.074468, 41.468141], [-8.073564, 41.474668], [-8.066374, 41.482318], [-8.066069, 41.48817], [-8.072054, 41.490199], [-8.07175, 41.494925], [-8.078333, 41.49898], [-8.078332, 41.500331], [-8.093, 41.504613], [-8.089398, 41.519242], [-8.090594, 41.522169], [-8.093588, 41.52307], [-8.091487, 41.531173], [-8.097775, 41.536127], [-8.097774, 41.537927], [-8.106759, 41.543106], [-8.10616, 41.543782], [-8.101666, 41.542655], [-8.094175, 41.544904], [-8.087885, 41.542876], [-8.083689, 41.544675], [-8.081886, 41.550977], [-8.079489, 41.551876], [-8.074097, 41.549848], [-8.072897, 41.551197], [-8.076188, 41.556978]], [[-8.373539, 41.510713], [-8.361476, 41.518808], [-8.349447, 41.523216], [-8.337447, 41.524682], [-8.325468, 41.523983], [-8.313514, 41.520932], [-8.29297, 41.508771], [-8.285362, 41.499716], [-8.281653, 41.490686], [-8.282223, 41.472674], [-8.286546, 41.463694], [-8.294406, 41.454735], [-8.302301, 41.448996], [-8.31433, 41.443607], [-8.326329, 41.440884], [-8.338303, 41.440516], [-8.350256, 41.442333], [-8.362181, 41.446966], [-8.374072, 41.455337], [-8.381481, 41.464244], [-8.386024, 41.482283], [-8.382129, 41.500277], [-8.373539, 41.510713]], [[-8.231284, 41.379983], [-8.231243, 41.383529], [-8.219265, 41.384974], [-8.216531, 41.382171], [-8.219359, 41.37713], [-8.231284, 41.379983]], [[-8.649901, 41.372125], [-8.637914, 41.37721], [-8.625958, 41.376721], [-8.614042, 41.369554], [-8.611199, 41.366166], [-8.610104, 41.357155], [-8.616089, 41.348167], [-8.62615, 41.343208], [-8.638106, 41.3426], [-8.650034, 41.347152], [-8.656946, 41.357304], [-8.655524, 41.366307], [-8.649901, 41.372125]]], [[[-8.60307, 41.164438], [-8.60307, 41.164438], [-8.603152, 41.164587], [-8.60307, 41.164438]]], [[[-8.671115, 41.546503], [-8.672043, 41.537498], [-8.669218, 41.528483], [-8.661615, 41.519453], [-8.649843, 41.510411], [-8.63721, 41.50384], [-8.625254, 41.499283], [-8.613287, 41.496867], [-8.601302, 41.497647], [-8.589267, 41.506103], [-8.584069, 41.519199], [-8.584405, 41.528208], [-8.58777, 41.537227], [-8.600966, 41.552261], [-8.612915, 41.559356], [-8.624886, 41.563047], [-8.636872, 41.564219], [-8.648872, 41.563037], [-8.664621, 41.555492], [-8.671115, 41.546503]], [[-8.629306, 41.519354], [-8.635371, 41.528381], [-8.625049, 41.53491], [-8.612391, 41.528305], [-8.618736, 41.519319], [-8.625147, 41.517811], [-8.629306, 41.519354]]]]}}, {"id": "5", "type": "Feature", "properties": {"fill": "#a3a3a3", "value_min": -0.5, "value_max": -0.25}, "geometry": {"type": "MultiPolygon", "coordinates": [[[[-8.577092, 41.61427], [-8.581231, 41.615829], [-8.585766, 41.620988], [-8.591462, 41.620515], [-8.596534, 41.616668], [-8.601628, 41.615972], [-8.603996, 41.611686], [-8.613256, 41.606696], [-8.619881, 41.610269], [-8.621338, 41.604636], [-8.628833, 41.604378], [-8.636302, 41.600744], [-8.64075, 41.594422], [-8.645536, 41.593051], [-8.646744, 41.594171], [-8.649125, 41.591909], [-8.656622, 41.5921], [-8.660788, 41.588255], [-8.663794, 41.589141], [-8.665265, 41.585758], [-8.66948, 41.587989], [-8.684455, 41.586117], [-8.685608, 41.58071], [-8.697261, 41.576376], [-8.701703, 41.570277], [-8.707704, 41.570923], [-8.711586, 41.569327], [-8.716422, 41.573805], [-8.720316, 41.57356], [-8.725151, 41.577811], [-8.726633, 41.576003], [-8.734424, 41.575737], [-8.736564, 41.580228], [-8.738354, 41.579318], [-8.740778, 41.582006], [-8.74467, 41.581535], [-8.750711, 41.58623], [-8.756374, 41.582823], [-8.75635, 41.580347], [-8.762327, 41.578514], [-8.764443, 41.580303], [-8.767441, 41.580286], [-8.769874, 41.583874], [-8.768997, 41.58613], [-8.773228, 41.589482], [-8.775371, 41.593972], [-8.78556, 41.593464], [-8.797327, 41.600599], [-8.804218, 41.600109], [-8.80456, 41.604158], [-8.809434, 41.611332], [-8.828644, 41.609656], [-8.82839, 41.585633], [-8.818497, 41.554794], [-8.8221, 41.547542], [-8.821965, 41.534907], [-8.815926, 41.525624], [-8.81063, 41.5101], [-8.813279, 41.503483], [-8.812636, 41.496944], [-8.804699, 41.482068], [-8.798552, 41.474753], [-8.80154, 41.446836], [-8.806115, 41.43713], [-8.807354, 41.425915], [-8.811035, 41.418186], [-8.809722, 41.39881], [-8.757419, 41.399767], [-8.721519, 41.402233], [-8.685603, 41.407618], [-8.619684, 41.42024], [-8.61373, 41.422297], [-8.601716, 41.430058], [-8.590405, 41.465177], [-8.583538, 41.47416], [-8.577465, 41.478416], [-8.565469, 41.481225], [-8.553494, 41.480817], [-8.541537, 41.477789], [-8.529606, 41.471426], [-8.52125, 41.46491], [-8.513562, 41.455871], [-8.505887, 41.440652], [-8.494004, 41.429395], [-8.48204, 41.428926], [-8.470026, 41.434553], [-8.460739, 41.446628], [-8.454506, 41.473621], [-8.451369, 41.482613], [-8.445604, 41.491593], [-8.423229, 41.509498], [-8.41653, 41.518471], [-8.415359, 41.527473], [-8.421281, 41.532096], [-8.445281, 41.529151], [-8.457248, 41.531567], [-8.466536, 41.536729], [-8.471915, 41.545761], [-8.467425, 41.554748], [-8.456998, 41.561445], [-8.444991, 41.563051], [-8.433018, 41.560823], [-8.421402, 41.554525], [-8.410942, 41.545465], [-8.409204, 41.541989], [-8.361059, 41.561182], [-8.337009, 41.567546], [-8.300969, 41.57296], [-8.264955, 41.575576], [-8.181004, 41.574347], [-8.097212, 41.561986], [-8.076188, 41.556978], [-8.080082, 41.558854], [-8.081576, 41.565157], [-8.078879, 41.56493], [-8.075279, 41.568305], [-8.073182, 41.568079], [-8.069283, 41.570553], [-8.068081, 41.573478], [-8.056684, 41.579549], [-8.052181, 41.584498], [-8.052777, 41.587649], [-8.048277, 41.590122], [-8.047974, 41.592373], [-8.044072, 41.595521], [-8.031467, 41.602938], [-8.02367, 41.603156], [-8.019174, 41.601802], [-8.015872, 41.603824], [-8.010473, 41.604494], [-8.005971, 41.60629], [-8.003562, 41.611239], [-7.99936, 41.61281], [-7.998462, 41.612359], [-7.999669, 41.608759], [-7.996976, 41.605829], [-7.996684, 41.602003], [-7.984685, 41.603564], [-7.982292, 41.60086], [-7.975689, 41.603552], [-7.974482, 41.606701], [-7.970882, 41.607147], [-7.969091, 41.603768], [-7.965796, 41.602413], [-7.9541, 41.602846], [-7.952606, 41.600592], [-7.947808, 41.60081], [-7.945413, 41.599456], [-7.942725, 41.595625], [-7.936132, 41.594488], [-7.93791, 41.601694], [-7.937004, 41.603718], [-7.931604, 41.604384], [-7.930979, 41.612711], [-7.925556, 41.620354], [-7.920755, 41.620796], [-7.917748, 41.623041], [-7.915933, 41.627764], [-7.913229, 41.628885], [-7.912613, 41.63361], [-7.906014, 41.633147], [-7.906884, 41.641927], [-7.897869, 41.645511], [-7.89696, 41.647985], [-7.892759, 41.647976], [-7.892145, 41.651576], [-7.902319, 41.659925], [-7.899913, 41.66127], [-7.8999, 41.664917], [-7.900173, 41.665097], [-7.9002, 41.665115], [-7.915393, 41.677211], [-7.927191, 41.690207], [-7.945669, 41.722281], [-7.962477, 41.737675], [-7.97168, 41.749538], [-7.976156, 41.758585], [-7.976667, 41.767596], [-7.973957, 41.771937], [-7.966138, 41.776509], [-7.937765, 41.777811], [-7.925676, 41.781173], [-7.92018, 41.785093], [-7.918065, 41.79408], [-7.91999, 41.812111], [-7.894494, 41.859325], [-7.900698, 41.861588], [-7.904318, 41.859795], [-7.907309, 41.865203], [-7.906095, 41.868126], [-7.910299, 41.871285], [-7.909985, 41.875111], [-7.915391, 41.879397], [-7.928949, 41.877847], [-7.935283, 41.874707], [-7.937389, 41.87516], [-7.941618, 41.870891], [-7.94775, 41.871126], [-7.936301, 41.866362], [-7.926603, 41.857207], [-7.922822, 41.848165], [-7.923425, 41.839164], [-7.928612, 41.830206], [-7.937014, 41.823292], [-7.949125, 41.818986], [-7.961169, 41.818787], [-7.973159, 41.821922], [-7.987767, 41.830742], [-7.993483, 41.839799], [-7.994014, 41.848811], [-7.990245, 41.857784], [-7.979545, 41.866696], [-7.97239, 41.870033], [-7.960303, 41.872289], [-7.951854, 41.871624], [-7.956367, 41.87339], [-7.956362, 41.875191], [-7.960878, 41.875648], [-7.96299, 41.874075], [-7.972322, 41.875439], [-7.987996, 41.869157], [-7.990123, 41.860157], [-7.995547, 41.858138], [-7.994047, 41.855211], [-7.996162, 41.851837], [-8.003089, 41.850494], [-8.005804, 41.847346], [-8.007928, 41.838796], [-8.010941, 41.836773], [-8.013965, 41.828899], [-8.017873, 41.831379], [-8.02901, 41.829589], [-8.037134, 41.831171], [-8.041351, 41.828023], [-8.041054, 41.825097], [-8.045268, 41.824425], [-8.046775, 41.821951], [-8.056712, 41.81588], [-8.06664, 41.817012], [-8.072961, 41.813414], [-8.078678, 41.813417], [-8.082892, 41.810493], [-8.091013, 41.812521], [-8.093421, 41.811397], [-8.093723, 41.808471], [-8.101845, 41.809824], [-8.104853, 41.81185], [-8.115984, 41.812302], [-8.123807, 41.808702], [-8.138247, 41.808477], [-8.139751, 41.813203], [-8.14276, 41.812978], [-8.144866, 41.815228], [-8.149078, 41.814777], [-8.153291, 41.817703], [-8.158106, 41.818377], [-8.165326, 41.81815], [-8.173744, 41.808019], [-8.177655, 41.808242], [-8.183676, 41.812741], [-8.190291, 41.809587], [-8.197158, 41.814129], [-8.201063, 41.808724], [-8.204973, 41.807372], [-8.205872, 41.804445], [-8.213692, 41.803765], [-8.217598, 41.80016], [-8.217589, 41.793634], [-8.224207, 41.794303], [-8.229917, 41.791598], [-8.240744, 41.791588], [-8.24074, 41.789338], [-8.244347, 41.787984], [-8.245546, 41.785731], [-8.251257, 41.784375], [-8.251845, 41.777172], [-8.257551, 41.773564], [-8.261762, 41.774235], [-8.271366, 41.766346], [-8.280681, 41.764083], [-8.284038, 41.761109], [-8.284931, 41.757507], [-8.305674, 41.758152], [-8.311096, 41.762195], [-8.318308, 41.761283], [-8.325233, 41.765098], [-8.328234, 41.763292], [-8.336653, 41.763728], [-8.341756, 41.761468], [-8.344765, 41.762363], [-8.349267, 41.760103], [-8.352557, 41.755145], [-8.34982, 41.745922], [-8.349814, 41.744122], [-8.352516, 41.743441], [-8.352203, 41.739616], [-8.357897, 41.735103], [-8.362407, 41.735994], [-8.368703, 41.73193], [-8.371416, 41.7344], [-8.376017, 41.734391], [-8.375635, 41.725422], [-8.378878, 41.716433], [-8.387153, 41.70747], [-8.403741, 41.69855], [-8.419831, 41.694191], [-8.431852, 41.693749], [-8.443851, 41.695876], [-8.452373, 41.699261], [-8.453255, 41.695487], [-8.461659, 41.694563], [-8.482012, 41.682123], [-8.484371, 41.674238], [-8.49308, 41.674886], [-8.499963, 41.671038], [-8.50927, 41.671233], [-8.51018, 41.672806], [-8.511967, 41.670324], [-8.509856, 41.668755], [-8.512252, 41.667847], [-8.514629, 41.663788], [-8.522103, 41.658811], [-8.525706, 41.659023], [-8.527769, 41.652714], [-8.534066, 41.652017], [-8.537951, 41.649302], [-8.537634, 41.646602], [-8.543876, 41.637352], [-8.543855, 41.633976], [-8.538141, 41.631806], [-8.537541, 41.631812], [-8.536341, 41.631825], [-8.51645, 41.629908], [-8.504479, 41.625519], [-8.492533, 41.618029], [-8.48061, 41.607961], [-8.472842, 41.599809], [-8.468979, 41.590784], [-8.469353, 41.581778], [-8.473087, 41.572788], [-8.485655, 41.554831], [-8.487696, 41.545832], [-8.479757, 41.536789], [-8.45012, 41.518637], [-8.447479, 41.509617], [-8.451621, 41.500629], [-8.459938, 41.491661], [-8.469629, 41.483218], [-8.481654, 41.477418], [-8.493636, 41.476807], [-8.505588, 41.480081], [-8.525595, 41.491951], [-8.535598, 41.500999], [-8.549244, 41.528075], [-8.57497, 41.564203], [-8.583557, 41.582249], [-8.58434, 41.600266], [-8.577092, 41.61427]], [[-8.178098, 41.803078], [-8.153975, 41.806718], [-8.129937, 41.803899], [-8.117945, 41.800531], [-8.064577, 41.777352], [-8.034113, 41.772095], [-8.010152, 41.765406], [-7.998234, 41.758228], [-7.98241, 41.740626], [-7.979104, 41.73159], [-7.979302, 41.722585], [-7.986979, 41.708946], [-7.999125, 41.700864], [-8.047451, 41.683723], [-8.059489, 41.682129], [-8.073686, 41.687357], [-8.081002, 41.696422], [-8.085229, 41.705463], [-8.0951, 41.713095], [-8.107121, 41.713099], [-8.119194, 41.709235], [-8.143595, 41.682021], [-8.155543, 41.687214], [-8.16306, 41.697049], [-8.172825, 41.715134], [-8.17914, 41.721381], [-8.196612, 41.733317], [-8.205313, 41.742384], [-8.210495, 41.751427], [-8.2124, 41.760447], [-8.211973, 41.769451], [-8.209018, 41.778438], [-8.202855, 41.787402], [-8.190203, 41.797688], [-8.178098, 41.803078]], [[-8.224681, 41.73351], [-8.215077, 41.732004], [-8.203111, 41.727339], [-8.183685, 41.715212], [-8.176336, 41.706152], [-8.172157, 41.697115], [-8.170571, 41.67909], [-8.174869, 41.670114], [-8.179859, 41.664803], [-8.191988, 41.655435], [-8.204072, 41.649388], [-8.216126, 41.64566], [-8.240158, 41.644369], [-8.252144, 41.646242], [-8.264108, 41.65016], [-8.284007, 41.661838], [-8.291795, 41.670893], [-8.294675, 41.679918], [-8.293437, 41.688918], [-8.281429, 41.706857], [-8.256701, 41.724714], [-8.239113, 41.733085], [-8.224681, 41.73351]], [[-8.107268, 41.702438], [-8.103168, 41.696597], [-8.107408, 41.692354], [-8.11948, 41.688335], [-8.125746, 41.696771], [-8.119263, 41.704236], [-8.107268, 41.702438]], [[-8.371783, 41.69198], [-8.352911, 41.689268], [-8.336941, 41.68017], [-8.330117, 41.671123], [-8.329809, 41.662114], [-8.334538, 41.653135], [-8.348264, 41.641024], [-8.360323, 41.635727], [-8.372354, 41.633229], [-8.384357, 41.633549], [-8.396331, 41.636916], [-8.408269, 41.644441], [-8.417242, 41.653584], [-8.420029, 41.662605], [-8.417716, 41.6716], [-8.40793, 41.680558], [-8.395868, 41.686528], [-8.383815, 41.690391], [-8.371783, 41.69198]], [[-8.020357, 41.6689], [-8.008549, 41.659792], [-8.013573, 41.650828], [-8.023972, 41.64723], [-8.03589, 41.653325], [-8.038248, 41.660044], [-8.035741, 41.663275], [-8.026069, 41.668949], [-8.020357, 41.6689]], [[-8.155917, 41.658572], [-8.143816, 41.665361], [-8.131795, 41.666044], [-8.119828, 41.662776], [-8.107921, 41.655224], [-8.105419, 41.65158], [-8.104362, 41.642564], [-8.108475, 41.633589], [-8.120447, 41.61729], [-8.132586, 41.607076], [-8.144679, 41.600152], [-8.156701, 41.598407], [-8.168664, 41.601259], [-8.174023, 41.607058], [-8.178466, 41.616097], [-8.179181, 41.625109], [-8.177285, 41.634102], [-8.172343, 41.643074], [-8.155917, 41.658572]], [[-8.084223, 41.632458], [-8.072247, 41.630432], [-8.062312, 41.624215], [-8.057938, 41.615172], [-8.060644, 41.606187], [-8.071786, 41.59727], [-8.084761, 41.594423], [-8.097932, 41.597479], [-8.10733, 41.606559], [-8.107843, 41.61557], [-8.09627, 41.6295], [-8.084223, 41.632458]], [[-8.671115, 41.546503], [-8.664621, 41.555492], [-8.648872, 41.563037], [-8.636872, 41.564219], [-8.624886, 41.563047], [-8.612915, 41.559356], [-8.600966, 41.552261], [-8.58777, 41.537227], [-8.584405, 41.528208], [-8.584069, 41.519199], [-8.589267, 41.506103], [-8.601302, 41.497647], [-8.613287, 41.496867], [-8.625254, 41.499283], [-8.63721, 41.50384], [-8.649843, 41.510411], [-8.661615, 41.519453], [-8.669218, 41.528483], [-8.672043, 41.537498], [-8.671115, 41.546503]], [[-8.673158, 41.503392], [-8.661192, 41.500443], [-8.644788, 41.49238], [-8.635664, 41.483344], [-8.632602, 41.474327], [-8.634644, 41.465326], [-8.641908, 41.456342], [-8.649476, 41.451096], [-8.660407, 41.44739], [-8.673448, 41.445766], [-8.687104, 41.447466], [-8.697367, 41.450879], [-8.706895, 41.456526], [-8.71512, 41.465554], [-8.718219, 41.474569], [-8.717456, 41.483574], [-8.709143, 41.494854], [-8.697089, 41.501538], [-8.685138, 41.503856], [-8.673158, 41.503392]]], [[[-8.432683, 41.27549], [-8.471121, 41.29941], [-8.494944, 41.308003], [-8.506877, 41.309691], [-8.53078, 41.308341], [-8.554715, 41.302097], [-8.578663, 41.293119], [-8.602631, 41.279753], [-8.61464, 41.268175], [-8.620979, 41.258106], [-8.625012, 41.240104], [-8.621193, 41.213068], [-8.603194, 41.164663], [-8.603152, 41.164587], [-8.60307, 41.164438], [-8.59422, 41.165149], [-8.589766, 41.167193], [-8.589194, 41.170572], [-8.583263, 41.174422], [-8.582094, 41.177803], [-8.578825, 41.178941], [-8.58128, 41.189439], [-8.591197, 41.198444], [-8.594875, 41.20397], [-8.598766, 41.212992], [-8.600099, 41.222004], [-8.598707, 41.231007], [-8.594131, 41.239999], [-8.578924, 41.252451], [-8.566961, 41.256623], [-8.555013, 41.258188], [-8.54308, 41.257584], [-8.531164, 41.254774], [-8.518545, 41.248716], [-8.508008, 41.239663], [-8.501953, 41.230629], [-8.49955, 41.222665], [-8.49952, 41.222566], [-8.499482, 41.22244], [-8.495642, 41.222227], [-8.495947, 41.223351], [-8.490894, 41.226294], [-8.487935, 41.230354], [-8.490331, 41.232373], [-8.489156, 41.235528], [-8.486181, 41.236888], [-8.484411, 41.240495], [-8.476346, 41.237818], [-8.475756, 41.23917], [-8.470986, 41.23941], [-8.471604, 41.243459], [-8.469227, 41.245267], [-8.463258, 41.244384], [-8.459989, 41.246644], [-8.454323, 41.246886], [-8.455541, 41.251834], [-8.452276, 41.25522], [-8.449891, 41.255452], [-8.449304, 41.257479], [-8.447812, 41.257258], [-8.449028, 41.261982], [-8.439785, 41.262907], [-8.438023, 41.268989], [-8.434745, 41.269673], [-8.434762, 41.2735], [-8.432683, 41.27549]]], [[[-8.576427, 41.615116], [-8.576427, 41.615116], [-8.576372, 41.615173], [-8.576427, 41.615116]]]]}}, {"id": "3", "type": "Feature", "properties": {"fill": "#a3a3a3", "value_min": -1.0, "value_max": -0.75}, "geometry": {"type": "MultiPolygon", "coordinates": [[[[-7.888656, 41.834454], [-7.899581, 41.820924], [-7.90173, 41.811938], [-7.900009, 41.802915], [-7.88762, 41.784782], [-7.88536, 41.775753], [-7.888753, 41.766779], [-7.889208, 41.757777], [-7.883735, 41.748717], [-7.878173, 41.74504], [-7.866214, 41.741161], [-7.854185, 41.741378], [-7.837377, 41.748257], [-7.830517, 41.757194], [-7.825916, 41.784168], [-7.81922, 41.802113], [-7.818995, 41.811117], [-7.821424, 41.820149], [-7.827711, 41.82922], [-7.839208, 41.838343], [-7.852369, 41.843244], [-7.864403, 41.843881], [-7.876495, 41.84117], [-7.888656, 41.834454]], [[-7.864719, 41.825981], [-7.854238, 41.820481], [-7.850441, 41.811436], [-7.856201, 41.802487], [-7.865207, 41.798331], [-7.877231, 41.799077], [-7.882704, 41.802748], [-7.888282, 41.811809], [-7.883555, 41.82077], [-7.876773, 41.825301], [-7.864719, 41.825981]]], [[[-7.9589, 41.758429], [-7.950269, 41.748901], [-7.938251, 41.74833], [-7.927858, 41.758144], [-7.934553, 41.767213], [-7.949949, 41.768565], [-7.953181, 41.767384], [-7.9589, 41.758429]]], [[[-8.251444, 41.706721], [-8.256502, 41.697692], [-8.256975, 41.688688], [-8.253043, 41.679655], [-8.239877, 41.668249], [-8.227915, 41.664056], [-8.215914, 41.663183], [-8.20388, 41.664979], [-8.191796, 41.670806], [-8.182914, 41.679178], [-8.17936, 41.68816], [-8.179685, 41.697169], [-8.183478, 41.706203], [-8.191258, 41.713739], [-8.2032, 41.720122], [-8.215192, 41.722615], [-8.227221, 41.722056], [-8.242287, 41.715613], [-8.251444, 41.706721]], [[-8.211814, 41.715408], [-8.203271, 41.714343], [-8.191336, 41.707512], [-8.185177, 41.697208], [-8.186038, 41.688207], [-8.191673, 41.68061], [-8.203771, 41.673831], [-8.215798, 41.672713], [-8.227777, 41.675613], [-8.23415, 41.679531], [-8.241148, 41.688584], [-8.241987, 41.697597], [-8.237177, 41.706572], [-8.227325, 41.713332], [-8.215272, 41.71601], [-8.211814, 41.715408]]], [[[-8.119378, 41.695782], [-8.117497, 41.696708], [-8.119354, 41.697567], [-8.120081, 41.696728], [-8.119378, 41.695782]]], [[[-8.550176, 41.582123], [-8.550488, 41.573117], [-8.546063, 41.564092], [-8.540962, 41.559219], [-8.529015, 41.553059], [-8.517031, 41.552011], [-8.505003, 41.556866], [-8.497378, 41.56389], [-8.492134, 41.572874], [-8.49216, 41.581881], [-8.498397, 41.590916], [-8.504708, 41.595572], [-8.51668, 41.599122], [-8.528682, 41.598835], [-8.540715, 41.594079], [-8.544464, 41.591108], [-8.550176, 41.582123]], [[-8.516803, 41.581988], [-8.511834, 41.572959], [-8.5169, 41.569577], [-8.525537, 41.573017], [-8.516803, 41.581988]]], [[[-8.515837, 41.518932], [-8.516266, 41.509927], [-8.511779, 41.5009], [-8.505469, 41.495733], [-8.493529, 41.490552], [-8.481551, 41.490315], [-8.469533, 41.495088], [-8.463305, 41.500684], [-8.459037, 41.509672], [-8.462263, 41.518694], [-8.469299, 41.523744], [-8.481235, 41.529878], [-8.493204, 41.532253], [-8.505207, 41.530112], [-8.515837, 41.518932]], [[-8.48129, 41.523063], [-8.472501, 41.518742], [-8.467804, 41.509713], [-8.469435, 41.507034], [-8.481482, 41.498952], [-8.49345, 41.500684], [-8.501588, 41.509864], [-8.498722, 41.518859], [-8.493283, 41.522142], [-8.48129, 41.523063]]], [[[-8.55528, 41.218776], [-8.553103, 41.221831], [-8.555246, 41.223837], [-8.562884, 41.221869], [-8.55528, 41.218776]]]]}}, {"id": "4", "type": "Feature", "properties": {"fill": "#a3a3a3", "value_min": -0.75, "value_max": -0.5}, "geometry": {"type": "MultiPolygon", "coordinates": [[[[-7.894494, 41.859325], [-7.91999, 41.812111], [-7.918065, 41.79408], [-7.92018, 41.785093], [-7.925676, 41.781173], [-7.937765, 41.777811], [-7.966138, 41.776509], [-7.973957, 41.771937], [-7.976667, 41.767596], [-7.976156, 41.758585], [-7.97168, 41.749538], [-7.962477, 41.737675], [-7.945669, 41.722281], [-7.927191, 41.690207], [-7.915393, 41.677211], [-7.9002, 41.665115], [-7.896885, 41.668692], [-7.883969, 41.67069], [-7.879755, 41.673607], [-7.877044, 41.676077], [-7.876723, 41.681253], [-7.873401, 41.686198], [-7.868896, 41.686413], [-7.868008, 41.68326], [-7.864403, 41.683701], [-7.864096, 41.685276], [-7.858987, 41.68639], [-7.857773, 41.689538], [-7.854776, 41.68818], [-7.847538, 41.695365], [-7.837912, 41.698942], [-7.835792, 41.702763], [-7.839682, 41.705924], [-7.838465, 41.709522], [-7.832453, 41.710407], [-7.825252, 41.708813], [-7.818621, 41.713522], [-7.815291, 41.718689], [-7.808986, 41.717996], [-7.808396, 41.715744], [-7.804499, 41.714158], [-7.79939, 41.714593], [-7.79788, 41.716164], [-7.796383, 41.71526], [-7.790966, 41.717044], [-7.789449, 41.719966], [-7.78464, 41.720402], [-7.78252, 41.723546], [-7.776204, 41.724652], [-7.773786, 41.727346], [-7.7678, 41.723276], [-7.763888, 41.724389], [-7.761765, 41.727758], [-7.762933, 41.733839], [-7.759307, 41.737203], [-7.759597, 41.739005], [-7.75689, 41.739446], [-7.758687, 41.740577], [-7.757758, 41.745301], [-7.748417, 41.749321], [-7.747786, 41.754496], [-7.743866, 41.756509], [-7.740214, 41.763924], [-7.726937, 41.771755], [-7.7254, 41.777152], [-7.727191, 41.779184], [-7.724177, 41.780299], [-7.725372, 41.781653], [-7.722296, 41.792446], [-7.728879, 41.797871], [-7.727026, 41.805517], [-7.728761, 41.816776], [-7.732041, 41.821514], [-7.743152, 41.825154], [-7.742839, 41.827178], [-7.738918, 41.82874], [-7.742196, 41.833928], [-7.74729, 41.837772], [-7.746349, 41.84407], [-7.750246, 41.846784], [-7.750532, 41.849261], [-7.743309, 41.849012], [-7.746901, 41.8524], [-7.746881, 41.855776], [-7.73843, 41.859348], [-7.734159, 41.868337], [-7.730228, 41.871024], [-7.729293, 41.875972], [-7.722351, 41.878424], [-7.720523, 41.881793], [-7.725335, 41.882935], [-7.726208, 41.887665], [-7.737044, 41.888828], [-7.737935, 41.890857], [-7.74246, 41.889747], [-7.742785, 41.885922], [-7.756022, 41.888441], [-7.758719, 41.890926], [-7.756592, 41.89407], [-7.758076, 41.897901], [-7.764097, 41.898595], [-7.779227, 41.886264], [-7.785257, 41.885157], [-7.788886, 41.882467], [-7.794007, 41.882257], [-7.796739, 41.878214], [-7.794349, 41.87438], [-7.797064, 41.873488], [-7.803381, 41.874857], [-7.804914, 41.869459], [-7.813032, 41.871958], [-7.814229, 41.873537], [-7.823863, 41.874013], [-7.825059, 41.875817], [-7.830479, 41.875831], [-7.830789, 41.874031], [-7.832894, 41.874712], [-7.83772, 41.872924], [-7.842528, 41.875187], [-7.841663, 41.866632], [-7.849515, 41.861475], [-7.858542, 41.862622], [-7.859456, 41.860148], [-7.864877, 41.859711], [-7.87033, 41.851395], [-7.873043, 41.850501], [-7.873066, 41.844875], [-7.879956, 41.853217], [-7.888076, 41.855486], [-7.891675, 41.859094], [-7.894494, 41.859325]], [[-7.888656, 41.834454], [-7.876495, 41.84117], [-7.864403, 41.843881], [-7.852369, 41.843244], [-7.839208, 41.838343], [-7.827711, 41.82922], [-7.821424, 41.820149], [-7.818995, 41.811117], [-7.81922, 41.802113], [-7.825916, 41.784168], [-7.830517, 41.757194], [-7.837377, 41.748257], [-7.854185, 41.741378], [-7.866214, 41.741161], [-7.878173, 41.74504], [-7.883735, 41.748717], [-7.889208, 41.757777], [-7.888753, 41.766779], [-7.88536, 41.775753], [-7.88762, 41.784782], [-7.900009, 41.802915], [-7.90173, 41.811938], [-7.899581, 41.820924], [-7.888656, 41.834454]], [[-7.9589, 41.758429], [-7.953181, 41.767384], [-7.949949, 41.768565], [-7.934553, 41.767213], [-7.927858, 41.758144], [-7.938251, 41.74833], [-7.950269, 41.748901], [-7.9589, 41.758429]]], [[[-7.900173, 41.665097], [-7.900173, 41.665097], [-7.8999, 41.664917], [-7.900173, 41.665097]]], [[[-8.224681, 41.73351], [-8.239113, 41.733085], [-8.256701, 41.724714], [-8.281429, 41.706857], [-8.293437, 41.688918], [-8.294675, 41.679918], [-8.291795, 41.670893], [-8.284007, 41.661838], [-8.264108, 41.65016], [-8.252144, 41.646242], [-8.240158, 41.644369], [-8.216126, 41.64566], [-8.204072, 41.649388], [-8.191988, 41.655435], [-8.179859, 41.664803], [-8.174869, 41.670114], [-8.170571, 41.67909], [-8.172157, 41.697115], [-8.176336, 41.706152], [-8.183685, 41.715212], [-8.203111, 41.727339], [-8.215077, 41.732004], [-8.224681, 41.73351]], [[-8.251444, 41.706721], [-8.242287, 41.715613], [-8.227221, 41.722056], [-8.215192, 41.722615], [-8.2032, 41.720122], [-8.191258, 41.713739], [-8.183478, 41.706203], [-8.179685, 41.697169], [-8.17936, 41.68816], [-8.182914, 41.679178], [-8.191796, 41.670806], [-8.20388, 41.664979], [-8.215914, 41.663183], [-8.227915, 41.664056], [-8.239877, 41.668249], [-8.253043, 41.679655], [-8.256975, 41.688688], [-8.256502, 41.697692], [-8.251444, 41.706721]]], [[[-8.107268, 41.702438], [-8.119263, 41.704236], [-8.125746, 41.696771], [-8.11948, 41.688335], [-8.107408, 41.692354], [-8.103168, 41.696597], [-8.107268, 41.702438]], [[-8.119378, 41.695782], [-8.120081, 41.696728], [-8.119354, 41.697567], [-8.117497, 41.696708], [-8.119378, 41.695782]]], [[[-8.371783, 41.69198], [-8.383815, 41.690391], [-8.395868, 41.686528], [-8.40793, 41.680558], [-8.417716, 41.6716], [-8.420029, 41.662605], [-8.417242, 41.653584], [-8.408269, 41.644441], [-8.396331, 41.636916], [-8.384357, 41.633549], [-8.372354, 41.633229], [-8.360323, 41.635727], [-8.348264, 41.641024], [-8.334538, 41.653135], [-8.329809, 41.662114], [-8.330117, 41.671123], [-8.336941, 41.68017], [-8.352911, 41.689268], [-8.371783, 41.69198]]], [[[-8.020357, 41.6689], [-8.026069, 41.668949], [-8.035741, 41.663275], [-8.038248, 41.660044], [-8.03589, 41.653325], [-8.023972, 41.64723], [-8.013573, 41.650828], [-8.008549, 41.659792], [-8.020357, 41.6689]]], [[[-8.576372, 41.615173], [-8.576427, 41.615116], [-8.577092, 41.61427], [-8.58434, 41.600266], [-8.583557, 41.582249], [-8.57497, 41.564203], [-8.549244, 41.528075], [-8.535598, 41.500999], [-8.525595, 41.491951], [-8.505588, 41.480081], [-8.493636, 41.476807], [-8.481654, 41.477418], [-8.469629, 41.483218], [-8.459938, 41.491661], [-8.451621, 41.500629], [-8.447479, 41.509617], [-8.45012, 41.518637], [-8.479757, 41.536789], [-8.487696, 41.545832], [-8.485655, 41.554831], [-8.473087, 41.572788], [-8.469353, 41.581778], [-8.468979, 41.590784], [-8.472842, 41.599809], [-8.48061, 41.607961], [-8.492533, 41.618029], [-8.504479, 41.625519], [-8.51645, 41.629908], [-8.536341, 41.631825], [-8.535128, 41.62973], [-8.543431, 41.61462], [-8.554533, 41.615255], [-8.557244, 41.617046], [-8.562639, 41.61635], [-8.567756, 41.619032], [-8.570735, 41.616095], [-8.576372, 41.615173]], [[-8.550176, 41.582123], [-8.544464, 41.591108], [-8.540715, 41.594079], [-8.528682, 41.598835], [-8.51668, 41.599122], [-8.504708, 41.595572], [-8.498397, 41.590916], [-8.49216, 41.581881], [-8.492134, 41.572874], [-8.497378, 41.56389], [-8.505003, 41.556866], [-8.517031, 41.552011], [-8.529015, 41.553059], [-8.540962, 41.559219], [-8.546063, 41.564092], [-8.550488, 41.573117], [-8.550176, 41.582123]], [[-8.515837, 41.518932], [-8.505207, 41.530112], [-8.493204, 41.532253], [-8.481235, 41.529878], [-8.469299, 41.523744], [-8.462263, 41.518694], [-8.459037, 41.509672], [-8.463305, 41.500684], [-8.469533, 41.495088], [-8.481551, 41.490315], [-8.493529, 41.490552], [-8.505469, 41.495733], [-8.511779, 41.5009], [-8.516266, 41.509927], [-8.515837, 41.518932]]], [[[-8.537541, 41.631812], [-8.537541, 41.631812], [-8.538141, 41.631806], [-8.537541, 41.631812]]], [[[-8.084223, 41.632458], [-8.09627, 41.6295], [-8.107843, 41.61557], [-8.10733, 41.606559], [-8.097932, 41.597479], [-8.084761, 41.594423], [-8.071786, 41.59727], [-8.060644, 41.606187], [-8.057938, 41.615172], [-8.062312, 41.624215], [-8.072247, 41.630432], [-8.084223, 41.632458]]], [[[-8.673158, 41.503392], [-8.685138, 41.503856], [-8.697089, 41.501538], [-8.709143, 41.494854], [-8.717456, 41.483574], [-8.718219, 41.474569], [-8.71512, 41.465554], [-8.706895, 41.456526], [-8.697367, 41.450879], [-8.687104, 41.447466], [-8.673448, 41.445766], [-8.660407, 41.44739], [-8.649476, 41.451096], [-8.641908, 41.456342], [-8.634644, 41.465326], [-8.632602, 41.474327], [-8.635664, 41.483344], [-8.644788, 41.49238], [-8.661192, 41.500443], [-8.673158, 41.503392]]], [[[-8.49955, 41.222665], [-8.501953, 41.230629], [-8.508008, 41.239663], [-8.518545, 41.248716], [-8.531164, 41.254774], [-8.54308, 41.257584], [-8.555013, 41.258188], [-8.566961, 41.256623], [-8.578924, 41.252451], [-8.594131, 41.239999], [-8.598707, 41.231007], [-8.600099, 41.222004], [-8.598766, 41.212992], [-8.594875, 41.20397], [-8.591197, 41.198444], [-8.58128, 41.189439], [-8.581296, 41.191762], [-8.575958, 41.195609], [-8.576894, 41.201908], [-8.574515, 41.202593], [-8.57423, 41.20462], [-8.567971, 41.204644], [-8.565895, 41.206227], [-8.567697, 41.208246], [-8.566512, 41.209376], [-8.559636, 41.206251], [-8.554271, 41.20627], [-8.549521, 41.209214], [-8.544157, 41.209458], [-8.54238, 41.211265], [-8.532257, 41.213102], [-8.52713, 41.203215], [-8.523236, 41.200077], [-8.51163, 41.203042], [-8.510456, 41.206197], [-8.505693, 41.207113], [-8.504239, 41.213646], [-8.500076, 41.21546], [-8.503086, 41.220627], [-8.501907, 41.222882], [-8.49955, 41.222665]], [[-8.55528, 41.218776], [-8.562884, 41.221869], [-8.555246, 41.223837], [-8.553103, 41.221831], [-8.55528, 41.218776]]], [[[-8.499482, 41.22244], [-8.499482, 41.22244], [-8.49952, 41.222566], [-8.499482, 41.22244]]]]}}, {"id": "1", "type": "Feature", "properties": {"fill": "#e19f31", "value_min": -1.5, "value_max": -1.25}, "geometry": {"type": "MultiPolygon", "coordinates": [[[[-8.227431, 41.70455], [-8.232238, 41.697532], [-8.230266, 41.688512], [-8.215711, 41.679916], [-8.203688, 41.680605], [-8.192894, 41.688256], [-8.190671, 41.697247], [-8.197682, 41.706303], [-8.203329, 41.709686], [-8.215337, 41.71066], [-8.227431, 41.70455]], [[-8.203395, 41.704328], [-8.197069, 41.697292], [-8.200953, 41.688312], [-8.203616, 41.686425], [-8.215633, 41.686305], [-8.219287, 41.688438], [-8.223325, 41.697472], [-8.215408, 41.70484], [-8.203395, 41.704328]]], [[[-8.4814, 41.509258], [-8.480737, 41.509772], [-8.481387, 41.510889], [-8.482779, 41.509781], [-8.4814, 41.509258]]]]}}, {"id": "2", "type": "Feature", "properties": {"fill": "#b6a27f", "value_min": -1.25, "value_max": -1.0}, "geometry": {"type": "MultiPolygon", "coordinates": [[[[-7.864719, 41.825981], [-7.876773, 41.825301], [-7.883555, 41.82077], [-7.888282, 41.811809], [-7.882704, 41.802748], [-7.877231, 41.799077], [-7.865207, 41.798331], [-7.856201, 41.802487], [-7.850441, 41.811436], [-7.854238, 41.820481], [-7.864719, 41.825981]]], [[[-8.211814, 41.715408], [-8.215272, 41.71601], [-8.227325, 41.713332], [-8.237177, 41.706572], [-8.241987, 41.697597], [-8.241148, 41.688584], [-8.23415, 41.679531], [-8.227777, 41.675613], [-8.215798, 41.672713], [-8.203771, 41.673831], [-8.191673, 41.68061], [-8.186038, 41.688207], [-8.185177, 41.697208], [-8.191336, 41.707512], [-8.203271, 41.714343], [-8.211814, 41.715408]], [[-8.227431, 41.70455], [-8.215337, 41.71066], [-8.203329, 41.709686], [-8.197682, 41.706303], [-8.190671, 41.697247], [-8.192894, 41.688256], [-8.203688, 41.680605], [-8.215711, 41.679916], [-8.230266, 41.688512], [-8.232238, 41.697532], [-8.227431, 41.70455]]], [[[-8.516803, 41.581988], [-8.525537, 41.573017], [-8.5169, 41.569577], [-8.511834, 41.572959], [-8.516803, 41.581988]]], [[[-8.48129, 41.523063], [-8.493283, 41.522142], [-8.498722, 41.518859], [-8.501588, 41.509864], [-8.49345, 41.500684], [-8.481482, 41.498952], [-8.469435, 41.507034], [-8.467804, 41.509713], [-8.472501, 41.518742], [-8.48129, 41.523063]], [[-8.4814, 41.509258], [-8.482779, 41.509781], [-8.481387, 41.510889], [-8.480737, 41.509772], [-8.4814, 41.509258]]]]}}, {"id": "0", "type": "Feature", "properties": {"fill": "#e57b10", "value_min": -1.75, "value_max": -1.5}, "geometry": {"type": "Polygon", "coordinates": [[[-8.203395, 41.704328], [-8.215408, 41.70484], [-8.223325, 41.697472], [-8.219287, 41.688438], [-8.215633, 41.686305], [-8.203616, 41.686425], [-8.200953, 41.688312], [-8.197069, 41.697292], [-8.203395, 41.704328]]]}}, {"id": "9", "type": "Feature", "properties": {"fill": "#a3a3a3", "value_min": 0.5, "value_max": -0.75}, "geometry": {"type": "Polygon", "coordinates": [[[-8.13111, 41.716971], [-8.14351, 41.714919], [-8.143203, 41.711629], [-8.131259, 41.705911], [-8.129223, 41.714812], [-8.13111, 41.716971]]]}}]}