{"type": "FeatureCollection", "features": [{"id": "0", "type": "Feature", "properties": {"fill": "#a3a3a3", "value_min": 0.0, "value_max": -0.25}, "geometry": {"type": "MultiPolygon", "coordinates": [[[[-7.872597, 41.757615], [-7.866016, 41.752436], [-7.852503, 41.757416], [-7.853841, 41.760675], [-7.862045, 41.766518], [-7.865754, 41.767326], [-7.872597, 41.757615]]], [[[-8.178798, 41.748238], [-8.181972, 41.74222], [-8.178922, 41.738488], [-8.166933, 41.735697], [-8.159882, 41.742061], [-8.166725, 41.751773], [-8.178798, 41.748238]]], [[[-8.424372, 41.720773], [-8.426845, 41.716682], [-8.419672, 41.711865], [-8.407616, 41.715659], [-8.407583, 41.719321], [-8.41482, 41.724848], [-8.417349, 41.725067], [-8.41974, 41.722135], [-8.424372, 41.720773]]], [[[-8.217517, 41.688426], [-8.215621, 41.687292], [-8.203608, 41.687041], [-8.201492, 41.688316], [-8.196605, 41.697289], [-8.203387, 41.705005], [-8.215411, 41.704625], [-8.221985, 41.697463], [-8.217517, 41.688426]]], [[[-8.340477, 41.482031], [-8.337254, 41.482012], [-8.336338, 41.491014], [-8.33778, 41.491989], [-8.343949, 41.491058], [-8.340477, 41.482031]]], [[[-8.710422, 41.206787], [-8.712904, 41.204325], [-8.715333, 41.195323], [-8.71173, 41.186306], [-8.698623, 41.178759], [-8.686703, 41.178208], [-8.674756, 41.183025], [-8.671427, 41.186198], [-8.667361, 41.195195], [-8.669489, 41.204209], [-8.674625, 41.209492], [-8.68653, 41.214431], [-8.698462, 41.213841], [-8.710422, 41.206787]]]]}}, {"id": "3", "type": "Feature", "properties": {"fill": "#a3a3a3", "value_min": 0.75, "value_max": -1.0}, "geometry": {"type": "MultiPolygon", "coordinates": [[[[-8.252452, 41.780161], [-8.25242, 41.780097], [-8.25215, 41.779563], [-8.246886, 41.760678], [-8.247153, 41.751673], [-8.249935, 41.742684], [-8.255873, 41.733716], [-8.263238, 41.726451], [-8.294864, 41.706941], [-8.300696, 41.697969], [-8.300638, 41.688962], [-8.294278, 41.670909], [-8.283044, 41.652825], [-8.274882, 41.643767], [-8.263822, 41.634689], [-8.240414, 41.622598], [-8.216478, 41.616585], [-8.1805, 41.614248], [-8.165064, 41.616], [-8.159999, 41.633977], [-8.153384, 41.642936], [-8.144043, 41.648255], [-8.132017, 41.649544], [-8.119435, 41.642681], [-8.118194, 41.633664], [-8.132425, 41.619092], [-8.143574, 41.615842], [-8.151417, 41.606893], [-8.142702, 41.597821], [-8.128087, 41.588704], [-8.108924, 41.582374], [-8.096955, 41.580405], [-8.072957, 41.580825], [-8.060917, 41.583886], [-8.047975, 41.591661], [-8.047072, 41.592597], [-8.046474, 41.593216], [-8.046421, 41.593272], [-8.045873, 41.593838], [-8.045769, 41.593947], [-8.045573, 41.594149], [-8.045335, 41.594396], [-8.045273, 41.59446], [-8.045118, 41.594621], [-8.044973, 41.594771], [-8.044901, 41.594846], [-8.040146, 41.606018], [-8.041809, 41.615039], [-8.047535, 41.624093], [-8.063946, 41.642242], [-8.067585, 41.651279], [-8.062037, 41.669248], [-8.061925, 41.678254], [-8.068337, 41.687313], [-8.083305, 41.697243], [-8.095347, 41.695478], [-8.1075, 41.685697], [-8.1196, 41.679483], [-8.131587, 41.681539], [-8.135555, 41.687839], [-8.133474, 41.69683], [-8.119174, 41.710693], [-8.107547, 41.714646], [-8.096032, 41.723563], [-8.089859, 41.741528], [-8.087708, 41.759525], [-8.08919, 41.77755], [-8.095278, 41.795612], [-8.105207, 41.81185], [-8.117188, 41.812302], [-8.123807, 41.808702], [-8.138247, 41.808477], [-8.139751, 41.813203], [-8.14276, 41.812978], [-8.145769, 41.815453], [-8.149078, 41.814777], [-8.153893, 41.817928], [-8.161415, 41.818376], [-8.165326, 41.81815], [-8.173744, 41.808019], [-8.177054, 41.808017], [-8.182773, 41.812516], [-8.190291, 41.809587], [-8.197158, 41.814129], [-8.201063, 41.808724], [-8.204973, 41.807372], [-8.205872, 41.804445], [-8.213692, 41.803765], [-8.217598, 41.80016], [-8.217589, 41.793634], [-8.224207, 41.794303], [-8.229917, 41.791598], [-8.240744, 41.791588], [-8.24074, 41.789338], [-8.244347, 41.787984], [-8.245546, 41.785731], [-8.251257, 41.784375], [-8.252452, 41.780161]], [[-8.166265, 41.787298], [-8.154265, 41.784668], [-8.142311, 41.778673], [-8.130427, 41.767641], [-8.122516, 41.750789], [-8.118156, 41.723734], [-8.119776, 41.71474], [-8.131324, 41.701059], [-8.158749, 41.688011], [-8.177144, 41.67013], [-8.191903, 41.662198], [-8.203955, 41.658876], [-8.215974, 41.658192], [-8.227961, 41.660229], [-8.239915, 41.664992], [-8.247724, 41.670613], [-8.25541, 41.679671], [-8.258847, 41.6887], [-8.258766, 41.697706], [-8.255277, 41.706691], [-8.232325, 41.733561], [-8.214629, 41.768795], [-8.20492, 41.778409], [-8.190354, 41.785737], [-8.178294, 41.787743], [-8.166265, 41.787298]], [[-8.083429, 41.688506], [-8.07447, 41.678356], [-8.07875, 41.669383], [-8.083756, 41.665412], [-8.095776, 41.664828], [-8.102689, 41.669573], [-8.10488, 41.678597], [-8.095453, 41.687922], [-8.083429, 41.688506]], [[-8.084284, 41.628175], [-8.076855, 41.624333], [-8.071066, 41.615279], [-8.072513, 41.611866], [-8.07643, 41.606315], [-8.084648, 41.602412], [-8.096632, 41.603617], [-8.100884, 41.606509], [-8.104985, 41.615548], [-8.096308, 41.626819], [-8.084284, 41.628175]]], [[[-7.879056, 41.852448], [-7.88841, 41.848636], [-7.90065, 41.837309], [-7.91039, 41.821027], [-7.911941, 41.812035], [-7.906306, 41.784961], [-7.909092, 41.757967], [-7.905957, 41.748931], [-7.893114, 41.739801], [-7.876365, 41.730631], [-7.872, 41.721582], [-7.884318, 41.685674], [-7.882813, 41.671588], [-7.877044, 41.676077], [-7.876723, 41.681253], [-7.873401, 41.686198], [-7.868896, 41.686413], [-7.868008, 41.68326], [-7.864403, 41.683701], [-7.864096, 41.685276], [-7.858987, 41.68639], [-7.858551, 41.688639], [-7.867028, 41.694843], [-7.869539, 41.703544], [-7.866685, 41.714386], [-7.859517, 41.721458], [-7.857087, 41.730441], [-7.878241, 41.741096], [-7.889001, 41.748768], [-7.894228, 41.757825], [-7.893908, 41.766829], [-7.888359, 41.784789], [-7.897873, 41.802894], [-7.899941, 41.811921], [-7.897929, 41.820908], [-7.890888, 41.829847], [-7.876561, 41.837379], [-7.864506, 41.838026], [-7.852521, 41.834735], [-7.844302, 41.829388], [-7.835818, 41.820296], [-7.826049, 41.793176], [-7.809168, 41.765982], [-7.807811, 41.756961], [-7.80911, 41.747968], [-7.816696, 41.730032], [-7.815242, 41.718689], [-7.808986, 41.717996], [-7.808396, 41.715744], [-7.803298, 41.714154], [-7.790966, 41.717044], [-7.789449, 41.719966], [-7.78464, 41.720402], [-7.78252, 41.723546], [-7.776204, 41.724652], [-7.773786, 41.727346], [-7.770798, 41.72441], [-7.765698, 41.723044], [-7.761765, 41.727758], [-7.762933, 41.733839], [-7.759307, 41.737203], [-7.759597, 41.739005], [-7.75689, 41.739446], [-7.758687, 41.740577], [-7.757758, 41.745301], [-7.748417, 41.749321], [-7.747786, 41.754496], [-7.743864, 41.756851], [-7.7576, 41.760979], [-7.763641, 41.765501], [-7.768643, 41.774561], [-7.768028, 41.783562], [-7.762026, 41.792504], [-7.744799, 41.800564], [-7.732746, 41.801347], [-7.728263, 41.800095], [-7.727026, 41.805517], [-7.728502, 41.8101], [-7.744624, 41.809488], [-7.780881, 41.802055], [-7.792906, 41.802715], [-7.804839, 41.808342], [-7.84033, 41.842911], [-7.852249, 41.849953], [-7.86423, 41.853617], [-7.869719, 41.8536], [-7.87033, 41.851395], [-7.873043, 41.850501], [-7.873066, 41.844875], [-7.879056, 41.852448]]], [[[-8.466145, 41.690959], [-8.443952, 41.684139], [-8.431946, 41.683007], [-8.419923, 41.683903], [-8.375023, 41.698398], [-8.353314, 41.707284], [-8.343235, 41.716234], [-8.341546, 41.725232], [-8.349704, 41.757852], [-8.352557, 41.755145], [-8.34982, 41.745922], [-8.349814, 41.744122], [-8.352516, 41.743441], [-8.352203, 41.739616], [-8.357897, 41.735103], [-8.362407, 41.735994], [-8.368703, 41.73193], [-8.371416, 41.7344], [-8.376325, 41.73439], [-8.374553, 41.725416], [-8.376464, 41.716419], [-8.38403, 41.707453], [-8.399099, 41.698526], [-8.407803, 41.695291], [-8.41984, 41.693144], [-8.431853, 41.693658], [-8.44384, 41.697122], [-8.450674, 41.701121], [-8.453868, 41.697961], [-8.453255, 41.695487], [-8.461659, 41.694563], [-8.466145, 41.690959]]], [[[-8.349421, 41.525848], [-8.364984, 41.518198], [-8.373538, 41.510789], [-8.380009, 41.500265], [-8.381857, 41.491268], [-8.379089, 41.473238], [-8.373211, 41.464199], [-8.362091, 41.456094], [-8.350157, 41.452182], [-8.338197, 41.450937], [-8.326215, 41.451889], [-8.314207, 41.455249], [-8.302161, 41.462057], [-8.292898, 41.472741], [-8.290635, 41.481734], [-8.293392, 41.499766], [-8.301606, 41.513843], [-8.313487, 41.52357], [-8.325435, 41.527154], [-8.337414, 41.527864], [-8.349421, 41.525848]], [[-8.337563, 41.513212], [-8.325608, 41.510529], [-8.313713, 41.502149], [-8.307535, 41.490844], [-8.307628, 41.481838], [-8.314037, 41.471463], [-8.326089, 41.46409], [-8.338088, 41.461747], [-8.350048, 41.463113], [-8.361965, 41.468951], [-8.366177, 41.473168], [-8.370702, 41.4822], [-8.370935, 41.491209], [-8.366959, 41.500194], [-8.361604, 41.505735], [-8.349561, 41.511833], [-8.337563, 41.513212]]], [[[-8.614665, 41.177446], [-8.621697, 41.204061], [-8.630091, 41.222104], [-8.638712, 41.232923], [-8.650602, 41.240819], [-8.662516, 41.244786], [-8.674443, 41.246313], [-8.698316, 41.245572], [-8.7222, 41.242115], [-8.74609, 41.236623], [-8.762114, 41.231461], [-8.780564, 41.22249], [-8.793171, 41.213505], [-8.802082, 41.204867], [-8.799695, 41.14406], [-8.741068, 41.145361], [-8.748756, 41.150361], [-8.758303, 41.160653], [-8.765566, 41.17742], [-8.765952, 41.186429], [-8.764095, 41.195433], [-8.759545, 41.204432], [-8.752267, 41.213424], [-8.734202, 41.22544], [-8.718987, 41.231364], [-8.698363, 41.235377], [-8.674502, 41.234447], [-8.663934, 41.231216], [-8.650695, 41.223324], [-8.642061, 41.213134], [-8.635254, 41.193565], [-8.635245, 41.193434], [-8.635238, 41.19334], [-8.632526, 41.188624], [-8.625658, 41.186628], [-8.62263, 41.180113], [-8.614665, 41.177446]]]]}}, {"id": "2", "type": "Feature", "properties": {"fill": "#a3a3a3", "value_min": 0.5, "value_max": -0.75}, "geometry": {"type": "MultiPolygon", "coordinates": [[[[-7.815242, 41.718689], [-7.816696, 41.730032], [-7.80911, 41.747968], [-7.807811, 41.756961], [-7.809168, 41.765982], [-7.826049, 41.793176], [-7.835818, 41.820296], [-7.844302, 41.829388], [-7.852521, 41.834735], [-7.864506, 41.838026], [-7.876561, 41.837379], [-7.890888, 41.829847], [-7.897929, 41.820908], [-7.899941, 41.811921], [-7.897873, 41.802894], [-7.888359, 41.784789], [-7.893908, 41.766829], [-7.894228, 41.757825], [-7.889001, 41.748768], [-7.878241, 41.741096], [-7.857087, 41.730441], [-7.859517, 41.721458], [-7.866685, 41.714386], [-7.869539, 41.703544], [-7.867028, 41.694843], [-7.858551, 41.688639], [-7.857473, 41.689537], [-7.854776, 41.68818], [-7.847538, 41.695365], [-7.837309, 41.699391], [-7.835792, 41.702763], [-7.839682, 41.705924], [-7.838465, 41.709522], [-7.832453, 41.710407], [-7.825252, 41.708813], [-7.818621, 41.713522], [-7.815242, 41.718689]], [[-7.864704, 41.826812], [-7.85288, 41.820467], [-7.848852, 41.81142], [-7.85312, 41.801182], [-7.865263, 41.795191], [-7.877272, 41.796731], [-7.885173, 41.802772], [-7.889879, 41.811824], [-7.885642, 41.82079], [-7.876753, 41.826435], [-7.864704, 41.826812]], [[-7.853529, 41.778222], [-7.841638, 41.770323], [-7.838278, 41.76628], [-7.836806, 41.757258], [-7.843308, 41.748317], [-7.854145, 41.743583], [-7.866168, 41.743809], [-7.876908, 41.74865], [-7.883793, 41.757724], [-7.882156, 41.766715], [-7.877698, 41.77227], [-7.865548, 41.778995], [-7.853529, 41.778222]], [[-7.854301, 41.703393], [-7.855008, 41.7034], [-7.854845, 41.704202], [-7.854301, 41.703393]]], [[[-7.728263, 41.800095], [-7.732746, 41.801347], [-7.744799, 41.800564], [-7.762026, 41.792504], [-7.768028, 41.783562], [-7.768643, 41.774561], [-7.763641, 41.765501], [-7.7576, 41.760979], [-7.743864, 41.756851], [-7.740214, 41.763924], [-7.726937, 41.771755], [-7.7254, 41.777152], [-7.727191, 41.779184], [-7.724177, 41.780299], [-7.725372, 41.781653], [-7.722296, 41.792446], [-7.728581, 41.79742], [-7.728263, 41.800095]]], [[[-8.166265, 41.787298], [-8.178294, 41.787743], [-8.190354, 41.785737], [-8.20492, 41.778409], [-8.214629, 41.768795], [-8.232325, 41.733561], [-8.255277, 41.706691], [-8.258766, 41.697706], [-8.258847, 41.6887], [-8.25541, 41.679671], [-8.247724, 41.670613], [-8.239915, 41.664992], [-8.227961, 41.660229], [-8.215974, 41.658192], [-8.203955, 41.658876], [-8.191903, 41.662198], [-8.177144, 41.67013], [-8.158749, 41.688011], [-8.131324, 41.701059], [-8.119776, 41.71474], [-8.118156, 41.723734], [-8.122516, 41.750789], [-8.130427, 41.767641], [-8.142311, 41.778673], [-8.154265, 41.784668], [-8.166265, 41.787298]], [[-8.166542, 41.765866], [-8.154568, 41.761594], [-8.144888, 41.750957], [-8.143616, 41.741941], [-8.146126, 41.732953], [-8.143012, 41.723923], [-8.131046, 41.721726], [-8.126336, 41.71479], [-8.129928, 41.70581], [-8.131278, 41.704491], [-8.143321, 41.702745], [-8.151635, 41.705973], [-8.155146, 41.717524], [-8.167146, 41.719149], [-8.179195, 41.717062], [-8.182851, 41.715206], [-8.180887, 41.697178], [-8.183872, 41.688192], [-8.193969, 41.679256], [-8.203755, 41.675171], [-8.215772, 41.674849], [-8.227734, 41.679168], [-8.236754, 41.688555], [-8.238222, 41.697572], [-8.234564, 41.706555], [-8.227322, 41.71359], [-8.215222, 41.720155], [-8.200119, 41.724334], [-8.201333, 41.742357], [-8.198804, 41.751346], [-8.190675, 41.760224], [-8.178578, 41.765502], [-8.166542, 41.765866]]], [[[-8.450674, 41.701121], [-8.44384, 41.697122], [-8.431853, 41.693658], [-8.41984, 41.693144], [-8.407803, 41.695291], [-8.399099, 41.698526], [-8.38403, 41.707453], [-8.376464, 41.716419], [-8.374553, 41.725416], [-8.376325, 41.73439], [-8.384922, 41.73032], [-8.387032, 41.731891], [-8.394776, 41.730298], [-8.391856, 41.725509], [-8.39191, 41.716502], [-8.399232, 41.707534], [-8.407731, 41.703227], [-8.419768, 41.701195], [-8.431765, 41.703576], [-8.439262, 41.707736], [-8.441631, 41.711049], [-8.450674, 41.701121]]], [[[-8.083429, 41.688506], [-8.095453, 41.687922], [-8.10488, 41.678597], [-8.102689, 41.669573], [-8.095776, 41.664828], [-8.083756, 41.665412], [-8.07875, 41.669383], [-8.07447, 41.678356], [-8.083429, 41.688506]]], [[[-8.084284, 41.628175], [-8.096308, 41.626819], [-8.104985, 41.615548], [-8.100884, 41.606509], [-8.096632, 41.603617], [-8.084648, 41.602412], [-8.07643, 41.606315], [-8.072513, 41.611866], [-8.071066, 41.615279], [-8.076855, 41.624333], [-8.084284, 41.628175]]], [[[-8.337563, 41.513212], [-8.349561, 41.511833], [-8.361604, 41.505735], [-8.366959, 41.500194], [-8.370935, 41.491209], [-8.370702, 41.4822], [-8.366177, 41.473168], [-8.361965, 41.468951], [-8.350048, 41.463113], [-8.338088, 41.461747], [-8.326089, 41.46409], [-8.314037, 41.471463], [-8.307628, 41.481838], [-8.307535, 41.490844], [-8.313713, 41.502149], [-8.325608, 41.510529], [-8.337563, 41.513212]], [[-8.337666, 41.503119], [-8.32574, 41.497737], [-8.320614, 41.490922], [-8.320983, 41.481917], [-8.325965, 41.476105], [-8.337994, 41.470942], [-8.351249, 41.473085], [-8.360741, 41.482145], [-8.361104, 41.491155], [-8.349661, 41.501834], [-8.337666, 41.503119]]], [[[-8.635254, 41.193565], [-8.642061, 41.213134], [-8.650695, 41.223324], [-8.663934, 41.231216], [-8.674502, 41.234447], [-8.698363, 41.235377], [-8.718987, 41.231364], [-8.734202, 41.22544], [-8.752267, 41.213424], [-8.759545, 41.204432], [-8.764095, 41.195433], [-8.765952, 41.186429], [-8.765566, 41.17742], [-8.758303, 41.160653], [-8.748756, 41.150361], [-8.741068, 41.145361], [-8.674793, 41.146932], [-8.674849, 41.153767], [-8.672489, 41.15648], [-8.66117, 41.156307], [-8.662078, 41.158104], [-8.660313, 41.160813], [-8.657033, 41.160378], [-8.654961, 41.161963], [-8.653231, 41.169174], [-8.655366, 41.175467], [-8.647955, 41.180228], [-8.647696, 41.185181], [-8.641225, 41.196014], [-8.635254, 41.193565]], [[-8.698409, 41.225434], [-8.686476, 41.225734], [-8.674556, 41.223433], [-8.662658, 41.217053], [-8.652493, 41.204159], [-8.650393, 41.195144], [-8.651385, 41.186139], [-8.655768, 41.177145], [-8.662904, 41.169244], [-8.674859, 41.162347], [-8.686793, 41.159361], [-8.698713, 41.158954], [-8.710623, 41.161093], [-8.72252, 41.166483], [-8.733737, 41.177351], [-8.737588, 41.186368], [-8.737882, 41.195377], [-8.734633, 41.204377], [-8.727271, 41.213368], [-8.71163, 41.222338], [-8.698409, 41.225434]]], [[[-8.635238, 41.19334], [-8.635238, 41.19334], [-8.635245, 41.193434], [-8.635238, 41.19334]]]]}}, {"id": "1", "type": "Feature", "properties": {"fill": "#a3a3a3", "value_min": 0.25, "value_max": -0.5}, "geometry": {"type": "MultiPolygon", "coordinates": [[[[-7.864704, 41.826812], [-7.876753, 41.826435], [-7.885642, 41.82079], [-7.889879, 41.811824], [-7.885173, 41.802772], [-7.877272, 41.796731], [-7.865263, 41.795191], [-7.85312, 41.801182], [-7.848852, 41.81142], [-7.85288, 41.820467], [-7.864704, 41.826812]]], [[[-7.853529, 41.778222], [-7.865548, 41.778995], [-7.877698, 41.77227], [-7.882156, 41.766715], [-7.883793, 41.757724], [-7.876908, 41.74865], [-7.866168, 41.743809], [-7.854145, 41.743583], [-7.843308, 41.748317], [-7.836806, 41.757258], [-7.838278, 41.76628], [-7.841638, 41.770323], [-7.853529, 41.778222]], [[-7.872597, 41.757615], [-7.865754, 41.767326], [-7.862045, 41.766518], [-7.853841, 41.760675], [-7.852503, 41.757416], [-7.866016, 41.752436], [-7.872597, 41.757615]]], [[[-8.166542, 41.765866], [-8.178578, 41.765502], [-8.190675, 41.760224], [-8.198804, 41.751346], [-8.201333, 41.742357], [-8.200119, 41.724334], [-8.215222, 41.720155], [-8.227322, 41.71359], [-8.234564, 41.706555], [-8.238222, 41.697572], [-8.236754, 41.688555], [-8.227734, 41.679168], [-8.215772, 41.674849], [-8.203755, 41.675171], [-8.193969, 41.679256], [-8.183872, 41.688192], [-8.180887, 41.697178], [-8.182851, 41.715206], [-8.179195, 41.717062], [-8.167146, 41.719149], [-8.155146, 41.717524], [-8.151635, 41.705973], [-8.143321, 41.702745], [-8.131278, 41.704491], [-8.129928, 41.70581], [-8.126336, 41.71479], [-8.131046, 41.721726], [-8.143012, 41.723923], [-8.146126, 41.732953], [-8.143616, 41.741941], [-8.144888, 41.750957], [-8.154568, 41.761594], [-8.166542, 41.765866]], [[-8.178798, 41.748238], [-8.166725, 41.751773], [-8.159882, 41.742061], [-8.166933, 41.735697], [-8.178922, 41.738488], [-8.181972, 41.74222], [-8.178798, 41.748238]], [[-8.217517, 41.688426], [-8.221985, 41.697463], [-8.215411, 41.704625], [-8.203387, 41.705005], [-8.196605, 41.697289], [-8.201492, 41.688316], [-8.203608, 41.687041], [-8.215621, 41.687292], [-8.217517, 41.688426]]], [[[-8.441631, 41.711049], [-8.439262, 41.707736], [-8.431765, 41.703576], [-8.419768, 41.701195], [-8.407731, 41.703227], [-8.399232, 41.707534], [-8.39191, 41.716502], [-8.391856, 41.725509], [-8.394776, 41.730298], [-8.396942, 41.730518], [-8.400531, 41.726683], [-8.402934, 41.726452], [-8.404721, 41.722847], [-8.41482, 41.724848], [-8.407583, 41.719321], [-8.407616, 41.715659], [-8.419672, 41.711865], [-8.426845, 41.716682], [-8.424372, 41.720773], [-8.429643, 41.719859], [-8.430533, 41.717381], [-8.435927, 41.714441], [-8.441333, 41.714201], [-8.441631, 41.711049]]], [[[-7.854301, 41.703393], [-7.854845, 41.704202], [-7.855008, 41.7034], [-7.854301, 41.703393]]], [[[-8.337666, 41.503119], [-8.349661, 41.501834], [-8.361104, 41.491155], [-8.360741, 41.482145], [-8.351249, 41.473085], [-8.337994, 41.470942], [-8.325965, 41.476105], [-8.320983, 41.481917], [-8.320614, 41.490922], [-8.32574, 41.497737], [-8.337666, 41.503119]], [[-8.340477, 41.482031], [-8.343949, 41.491058], [-8.33778, 41.491989], [-8.336338, 41.491014], [-8.337254, 41.482012], [-8.340477, 41.482031]]], [[[-8.698409, 41.225434], [-8.71163, 41.222338], [-8.727271, 41.213368], [-8.734633, 41.204377], [-8.737882, 41.195377], [-8.737588, 41.186368], [-8.733737, 41.177351], [-8.72252, 41.166483], [-8.710623, 41.161093], [-8.698713, 41.158954], [-8.686793, 41.159361], [-8.674859, 41.162347], [-8.662904, 41.169244], [-8.655768, 41.177145], [-8.651385, 41.186139], [-8.650393, 41.195144], [-8.652493, 41.204159], [-8.662658, 41.217053], [-8.674556, 41.223433], [-8.686476, 41.225734], [-8.698409, 41.225434]], [[-8.710422, 41.206787], [-8.698462, 41.213841], [-8.68653, 41.214431], [-8.674625, 41.209492], [-8.669489, 41.204209], [-8.667361, 41.195195], [-8.671427, 41.186198], [-8.674756, 41.183025], [-8.686703, 41.178208], [-8.698623, 41.178759], [-8.71173, 41.186306], [-8.715333, 41.195323], [-8.712904, 41.204325], [-8.710422, 41.206787]]]]}}, {"id": "4", "type": "Feature", "properties": {"fill": "#90a4bc", "value_min": 1.0, "value_max": -1.25}, "geometry": {"type": "MultiPolygon", "coordinates": [[[[-8.510179, 41.672679], [-8.510179, 41.672679], [-8.509879, 41.672648], [-8.510179, 41.672679]]], [[[-8.502725, 41.67193], [-8.502725, 41.67193], [-8.50237, 41.671902], [-8.502725, 41.67193]]], [[[-8.499366, 41.671668], [-8.432084, 41.667352], [-8.420061, 41.668508], [-8.395918, 41.681203], [-8.383872, 41.684455], [-8.371852, 41.684902], [-8.356778, 41.680283], [-8.347876, 41.671225], [-8.34451, 41.662199], [-8.34446, 41.653192], [-8.349329, 41.626198], [-8.34809, 41.599169], [-8.349277, 41.581161], [-8.356707, 41.563189], [-8.391857, 41.518343], [-8.395931, 41.509357], [-8.397096, 41.500356], [-8.394555, 41.464313], [-8.390849, 41.455286], [-8.378903, 41.446215], [-8.374178, 41.444336], [-8.350291, 41.438738], [-8.326366, 41.437343], [-8.302401, 41.439687], [-8.290397, 41.44283], [-8.265636, 41.454555], [-8.254328, 41.46349], [-8.246176, 41.472444], [-8.241891, 41.481423], [-8.242191, 41.490432], [-8.253821, 41.500732], [-8.25602, 41.508537], [-8.253663, 41.514471], [-8.249006, 41.517499], [-8.241614, 41.520083], [-8.217644, 41.520091], [-8.183407, 41.535067], [-8.14541, 41.544679], [-8.109384, 41.548892], [-8.083389, 41.545629], [-8.080687, 41.551651], [-8.074396, 41.549848], [-8.072897, 41.551197], [-8.076188, 41.557276], [-8.080082, 41.558854], [-8.081576, 41.565157], [-8.078879, 41.56493], [-8.075279, 41.568305], [-8.073182, 41.568079], [-8.069283, 41.570553], [-8.068081, 41.573478], [-8.056684, 41.579549], [-8.052181, 41.584498], [-8.052777, 41.587649], [-8.047975, 41.591661], [-8.060917, 41.583886], [-8.072957, 41.580825], [-8.096955, 41.580405], [-8.108924, 41.582374], [-8.128087, 41.588704], [-8.142702, 41.597821], [-8.151417, 41.606893], [-8.143574, 41.615842], [-8.132425, 41.619092], [-8.118194, 41.633664], [-8.119435, 41.642681], [-8.132017, 41.649544], [-8.144043, 41.648255], [-8.153384, 41.642936], [-8.159999, 41.633977], [-8.165064, 41.616], [-8.1805, 41.614248], [-8.216478, 41.616585], [-8.240414, 41.622598], [-8.263822, 41.634689], [-8.274882, 41.643767], [-8.283044, 41.652825], [-8.294278, 41.670909], [-8.300638, 41.688962], [-8.300696, 41.697969], [-8.294864, 41.706941], [-8.263238, 41.726451], [-8.255873, 41.733716], [-8.249935, 41.742684], [-8.247153, 41.751673], [-8.246886, 41.760678], [-8.25215, 41.779563], [-8.251845, 41.777172], [-8.256049, 41.774241], [-8.261762, 41.774235], [-8.271366, 41.766346], [-8.280681, 41.764083], [-8.281935, 41.762005], [-8.274887, 41.759714], [-8.269812, 41.751819], [-8.27211, 41.742827], [-8.275108, 41.740102], [-8.287172, 41.736652], [-8.299154, 41.740632], [-8.301978, 41.743012], [-8.304056, 41.752032], [-8.299662, 41.75815], [-8.30778, 41.758824], [-8.307785, 41.760625], [-8.311096, 41.762195], [-8.318308, 41.761283], [-8.326436, 41.765096], [-8.328234, 41.763292], [-8.336653, 41.763728], [-8.341756, 41.761468], [-8.344765, 41.762363], [-8.349267, 41.760103], [-8.349704, 41.757852], [-8.341546, 41.725232], [-8.343235, 41.716234], [-8.353314, 41.707284], [-8.375023, 41.698398], [-8.419923, 41.683903], [-8.431946, 41.683007], [-8.443952, 41.684139], [-8.466145, 41.690959], [-8.482012, 41.682123], [-8.484371, 41.674238], [-8.49308, 41.674886], [-8.499366, 41.671668]], [[-8.349421, 41.525848], [-8.337414, 41.527864], [-8.325435, 41.527154], [-8.313487, 41.52357], [-8.301606, 41.513843], [-8.293392, 41.499766], [-8.290635, 41.481734], [-8.292898, 41.472741], [-8.302161, 41.462057], [-8.314207, 41.455249], [-8.326215, 41.451889], [-8.338197, 41.450937], [-8.350157, 41.452182], [-8.362091, 41.456094], [-8.373211, 41.464199], [-8.379089, 41.473238], [-8.381857, 41.491268], [-8.380009, 41.500265], [-8.373538, 41.510789], [-8.364984, 41.518198], [-8.349421, 41.525848]]], [[[-7.729358, 41.817519], [-7.768614, 41.814079], [-7.780641, 41.814714], [-7.792612, 41.818378], [-7.808488, 41.829022], [-7.842979, 41.865735], [-7.849515, 41.861475], [-7.858542, 41.862622], [-7.859456, 41.860148], [-7.865481, 41.859262], [-7.869719, 41.8536], [-7.86423, 41.853617], [-7.852249, 41.849953], [-7.84033, 41.842911], [-7.804839, 41.808342], [-7.792906, 41.802715], [-7.780881, 41.802055], [-7.744624, 41.809488], [-7.728502, 41.8101], [-7.729358, 41.817519]]], [[[-7.919867, 41.878731], [-7.914495, 41.8661], [-7.914023, 41.848082], [-7.91642, 41.839098], [-7.932174, 41.812225], [-7.923301, 41.794129], [-7.923743, 41.785126], [-7.925672, 41.781461], [-7.93787, 41.771484], [-7.96195, 41.770438], [-7.973944, 41.772737], [-7.980708, 41.776639], [-7.98715, 41.785703], [-7.994367, 41.80378], [-8.005713, 41.821892], [-8.011161, 41.835873], [-8.013965, 41.828899], [-8.017873, 41.831379], [-8.02901, 41.829589], [-8.037134, 41.831171], [-8.041351, 41.828023], [-8.041054, 41.825097], [-8.045268, 41.824425], [-8.047679, 41.821276], [-8.057314, 41.815656], [-8.06664, 41.817012], [-8.072961, 41.813414], [-8.078678, 41.813417], [-8.082892, 41.810493], [-8.091013, 41.812521], [-8.093421, 41.811397], [-8.093723, 41.808471], [-8.101845, 41.809824], [-8.105207, 41.81185], [-8.095278, 41.795612], [-8.08919, 41.77755], [-8.087708, 41.759525], [-8.089859, 41.741528], [-8.096032, 41.723563], [-8.107547, 41.714646], [-8.119174, 41.710693], [-8.133474, 41.69683], [-8.135555, 41.687839], [-8.131587, 41.681539], [-8.1196, 41.679483], [-8.1075, 41.685697], [-8.095347, 41.695478], [-8.083305, 41.697243], [-8.068337, 41.687313], [-8.061925, 41.678254], [-8.062037, 41.669248], [-8.067585, 41.651279], [-8.063946, 41.642242], [-8.047535, 41.624093], [-8.041809, 41.615039], [-8.040146, 41.606018], [-8.044901, 41.594846], [-8.031467, 41.602938], [-8.02367, 41.603156], [-8.019174, 41.601802], [-8.015872, 41.603824], [-8.010473, 41.604494], [-8.005671, 41.606515], [-8.003262, 41.611464], [-7.998761, 41.612809], [-7.999669, 41.608759], [-7.996976, 41.605829], [-7.996684, 41.602003], [-7.984685, 41.603564], [-7.982292, 41.60086], [-7.975689, 41.603552], [-7.974482, 41.606701], [-7.970882, 41.607147], [-7.969091, 41.603768], [-7.965796, 41.602413], [-7.9541, 41.602846], [-7.952606, 41.600592], [-7.947808, 41.60081], [-7.945413, 41.599456], [-7.942725, 41.595625], [-7.936132, 41.594488], [-7.93791, 41.601694], [-7.937004, 41.603718], [-7.931604, 41.604384], [-7.930979, 41.612711], [-7.925556, 41.620354], [-7.920755, 41.620796], [-7.917748, 41.623041], [-7.915933, 41.627764], [-7.913229, 41.628885], [-7.912613, 41.63361], [-7.906014, 41.633147], [-7.906884, 41.641927], [-7.897869, 41.645511], [-7.89696, 41.647985], [-7.892759, 41.647976], [-7.892145, 41.651576], [-7.902319, 41.659925], [-7.899913, 41.66127], [-7.900198, 41.665547], [-7.898396, 41.665769], [-7.896885, 41.668692], [-7.882813, 41.671588], [-7.884318, 41.685674], [-7.872, 41.721582], [-7.876365, 41.730631], [-7.893114, 41.739801], [-7.905957, 41.748931], [-7.909092, 41.757967], [-7.906306, 41.784961], [-7.911941, 41.812035], [-7.91039, 41.821027], [-7.90065, 41.837309], [-7.88841, 41.848636], [-7.879056, 41.852448], [-7.898893, 41.86136], [-7.902203, 41.861591], [-7.904318, 41.859795], [-7.907309, 41.865203], [-7.906095, 41.868126], [-7.910299, 41.871285], [-7.910285, 41.875562], [-7.915391, 41.879397], [-7.919867, 41.878731]], [[-8.010135, 41.766545], [-7.998107, 41.766389], [-7.986157, 41.761264], [-7.977112, 41.749586], [-7.971424, 41.731522], [-7.973366, 41.722532], [-7.978635, 41.713572], [-8.000092, 41.695747], [-8.00306, 41.686766], [-7.999389, 41.683802], [-7.990191, 41.668639], [-7.989231, 41.659624], [-7.992404, 41.650645], [-8.004717, 41.641745], [-8.012083, 41.639421], [-8.024089, 41.639453], [-8.036028, 41.644009], [-8.043312, 41.65108], [-8.046052, 41.660109], [-8.043193, 41.669093], [-8.037526, 41.678052], [-8.047769, 41.687145], [-8.059359, 41.691083], [-8.066203, 41.696303], [-8.073477, 41.705369], [-8.071008, 41.716627], [-8.05881, 41.728764], [-8.053216, 41.732225], [-8.041026, 41.750137], [-8.034343, 41.756743], [-8.022207, 41.763836], [-8.010135, 41.766545]], [[-7.89604, 41.730822], [-7.89046, 41.729912], [-7.881495, 41.721674], [-7.882244, 41.712675], [-7.890939, 41.702032], [-7.903019, 41.698423], [-7.914999, 41.700695], [-7.921006, 41.704038], [-7.926221, 41.713094], [-7.92461, 41.722086], [-7.914519, 41.72921], [-7.909327, 41.730949], [-7.902446, 41.732118], [-7.89604, 41.730822]], [[-8.10722, 41.705937], [-8.103324, 41.696599], [-8.119479, 41.688369], [-8.127273, 41.696783], [-8.119236, 41.706202], [-8.10722, 41.705937]]], [[[-8.044973, 41.594771], [-8.044973, 41.594771], [-8.045118, 41.594621], [-8.044973, 41.594771]]], [[[-8.045273, 41.59446], [-8.045273, 41.59446], [-8.045335, 41.594396], [-8.045273, 41.59446]]], [[[-8.045573, 41.594149], [-8.045573, 41.594149], [-8.045769, 41.593947], [-8.045573, 41.594149]]], [[[-8.045873, 41.593838], [-8.045873, 41.593838], [-8.046421, 41.593272], [-8.045873, 41.593838]]], [[[-8.046474, 41.593216], [-8.046474, 41.593216], [-8.047072, 41.592597], [-8.046474, 41.593216]]], [[[-8.25242, 41.780097], [-8.25242, 41.780097], [-8.252452, 41.780161], [-8.25242, 41.780097]]], [[[-8.582089, 41.177038], [-8.591266, 41.187222], [-8.601621, 41.203994], [-8.617255, 41.249086], [-8.626637, 41.258008], [-8.638548, 41.262582], [-8.65048, 41.263769], [-8.662421, 41.263115], [-8.710206, 41.255666], [-8.734087, 41.253851], [-8.804106, 41.256368], [-8.802082, 41.204867], [-8.793171, 41.213505], [-8.780564, 41.22249], [-8.762114, 41.231461], [-8.74609, 41.236623], [-8.7222, 41.242115], [-8.698316, 41.245572], [-8.674443, 41.246313], [-8.662516, 41.244786], [-8.650602, 41.240819], [-8.638712, 41.232923], [-8.630091, 41.222104], [-8.621697, 41.204061], [-8.614665, 41.177446], [-8.608583, 41.174095], [-8.609164, 41.172066], [-8.605845, 41.166228], [-8.602852, 41.164214], [-8.59422, 41.165149], [-8.589766, 41.167193], [-8.589194, 41.170572], [-8.585925, 41.17171], [-8.582089, 41.177038]]]]}}, {"id": "5", "type": "Feature", "properties": {"fill": "#71a5e5", "value_min": 1.25, "value_max": -1.5}, "geometry": {"type": "MultiPolygon", "coordinates": [[[[-7.842979, 41.865735], [-7.808488, 41.829022], [-7.792612, 41.818378], [-7.780641, 41.814714], [-7.768614, 41.814079], [-7.729358, 41.817519], [-7.732041, 41.821514], [-7.735641, 41.823287], [-7.768471, 41.821519], [-7.780473, 41.823576], [-7.792414, 41.828915], [-7.804309, 41.837985], [-7.812628, 41.847078], [-7.823195, 41.865201], [-7.826172, 41.87582], [-7.830479, 41.875831], [-7.830789, 41.874031], [-7.832894, 41.874712], [-7.83772, 41.872924], [-7.842528, 41.875187], [-7.841663, 41.866632], [-7.842979, 41.865735]]], [[[-8.011161, 41.835873], [-8.005713, 41.821892], [-7.994367, 41.80378], [-7.98715, 41.785703], [-7.980708, 41.776639], [-7.973944, 41.772737], [-7.96195, 41.770438], [-7.93787, 41.771484], [-7.925672, 41.781461], [-7.923743, 41.785126], [-7.923301, 41.794129], [-7.932174, 41.812225], [-7.91642, 41.839098], [-7.914023, 41.848082], [-7.914495, 41.8661], [-7.919867, 41.878731], [-7.928044, 41.87807], [-7.935283, 41.874707], [-7.937389, 41.87516], [-7.941618, 41.870891], [-7.951254, 41.871132], [-7.956367, 41.87339], [-7.956362, 41.875191], [-7.960878, 41.875648], [-7.96299, 41.874075], [-7.972322, 41.875439], [-7.987996, 41.869157], [-7.990123, 41.860157], [-7.995547, 41.858138], [-7.994047, 41.855211], [-7.996765, 41.851162], [-8.00339, 41.85027], [-8.007618, 41.843072], [-8.007928, 41.838796], [-8.011161, 41.835873]], [[-7.948528, 41.855472], [-7.936576, 41.849769], [-7.933587, 41.839259], [-7.936837, 41.83399], [-7.948989, 41.827325], [-7.963488, 41.830526], [-7.970173, 41.839592], [-7.967485, 41.848575], [-7.960604, 41.853725], [-7.948528, 41.855472]]], [[[-8.299662, 41.75815], [-8.304056, 41.752032], [-8.301978, 41.743012], [-8.299154, 41.740632], [-8.287172, 41.736652], [-8.275108, 41.740102], [-8.27211, 41.742827], [-8.269812, 41.751819], [-8.274887, 41.759714], [-8.281935, 41.762005], [-8.287033, 41.756829], [-8.299662, 41.75815]]], [[[-8.010135, 41.766545], [-8.022207, 41.763836], [-8.034343, 41.756743], [-8.041026, 41.750137], [-8.053216, 41.732225], [-8.05881, 41.728764], [-8.071008, 41.716627], [-8.073477, 41.705369], [-8.066203, 41.696303], [-8.059359, 41.691083], [-8.047769, 41.687145], [-8.037526, 41.678052], [-8.043193, 41.669093], [-8.046052, 41.660109], [-8.043312, 41.65108], [-8.036028, 41.644009], [-8.024089, 41.639453], [-8.012083, 41.639421], [-8.004717, 41.641745], [-7.992404, 41.650645], [-7.989231, 41.659624], [-7.990191, 41.668639], [-7.999389, 41.683802], [-8.00306, 41.686766], [-8.000092, 41.695747], [-7.978635, 41.713572], [-7.973366, 41.722532], [-7.971424, 41.731522], [-7.977112, 41.749586], [-7.986157, 41.761264], [-7.998107, 41.766389], [-8.010135, 41.766545]], [[-8.047117, 41.706374], [-8.04715, 41.704145], [-8.059229, 41.705253], [-8.059151, 41.705389], [-8.047117, 41.706374]]], [[[-8.510179, 41.672679], [-8.511967, 41.670324], [-8.509856, 41.668755], [-8.522103, 41.658811], [-8.525706, 41.659023], [-8.527769, 41.652714], [-8.534066, 41.652017], [-8.537951, 41.649302], [-8.537634, 41.646602], [-8.543876, 41.637352], [-8.543855, 41.633976], [-8.536342, 41.631977], [-8.535128, 41.62973], [-8.543431, 41.61462], [-8.554533, 41.615255], [-8.557244, 41.617046], [-8.562639, 41.61635], [-8.568056, 41.619031], [-8.570735, 41.616095], [-8.577321, 41.614269], [-8.581231, 41.615829], [-8.585766, 41.620988], [-8.591462, 41.620515], [-8.596534, 41.616668], [-8.601628, 41.615972], [-8.603996, 41.611686], [-8.613256, 41.606696], [-8.619881, 41.610269], [-8.621338, 41.604636], [-8.628833, 41.604378], [-8.636302, 41.600744], [-8.64075, 41.594422], [-8.645536, 41.593051], [-8.646744, 41.594171], [-8.649125, 41.591909], [-8.656622, 41.5921], [-8.660788, 41.588255], [-8.663794, 41.589141], [-8.665265, 41.585758], [-8.66948, 41.587989], [-8.684455, 41.586117], [-8.685608, 41.58071], [-8.697261, 41.576376], [-8.701703, 41.570277], [-8.707704, 41.570923], [-8.712485, 41.569323], [-8.716422, 41.573805], [-8.720316, 41.57356], [-8.725151, 41.577811], [-8.726633, 41.576003], [-8.734424, 41.575737], [-8.736564, 41.580228], [-8.738354, 41.579318], [-8.740778, 41.582006], [-8.74467, 41.581535], [-8.750711, 41.58623], [-8.756374, 41.582823], [-8.75635, 41.580347], [-8.762327, 41.578514], [-8.764443, 41.580303], [-8.767441, 41.580286], [-8.769874, 41.583874], [-8.768997, 41.58613], [-8.773228, 41.589482], [-8.775371, 41.593972], [-8.78556, 41.593464], [-8.797327, 41.600599], [-8.804218, 41.600109], [-8.80456, 41.604158], [-8.809434, 41.611332], [-8.828644, 41.609656], [-8.82839, 41.585633], [-8.818497, 41.554794], [-8.8221, 41.547542], [-8.821965, 41.534907], [-8.815926, 41.525624], [-8.81063, 41.5101], [-8.813279, 41.503483], [-8.812636, 41.496944], [-8.804699, 41.482068], [-8.798552, 41.474753], [-8.80154, 41.446836], [-8.806115, 41.43713], [-8.807354, 41.425915], [-8.811202, 41.416419], [-8.804106, 41.256368], [-8.734087, 41.253851], [-8.710206, 41.255666], [-8.662421, 41.263115], [-8.65048, 41.263769], [-8.638548, 41.262582], [-8.626637, 41.258008], [-8.617255, 41.249086], [-8.601621, 41.203994], [-8.591266, 41.187222], [-8.582089, 41.177038], [-8.578825, 41.178941], [-8.581296, 41.191762], [-8.575958, 41.195609], [-8.577183, 41.200557], [-8.57423, 41.20462], [-8.567971, 41.204644], [-8.565895, 41.206227], [-8.567697, 41.208246], [-8.566512, 41.209376], [-8.559636, 41.206251], [-8.554271, 41.20627], [-8.549521, 41.209214], [-8.544157, 41.209458], [-8.54238, 41.211265], [-8.532257, 41.213102], [-8.52713, 41.203215], [-8.523236, 41.200077], [-8.51163, 41.203042], [-8.510456, 41.206197], [-8.505693, 41.207113], [-8.504239, 41.213646], [-8.500076, 41.21546], [-8.50308, 41.219502], [-8.502204, 41.222656], [-8.495642, 41.222227], [-8.495947, 41.223351], [-8.490894, 41.226294], [-8.487935, 41.230354], [-8.490331, 41.232373], [-8.489156, 41.235528], [-8.486181, 41.236888], [-8.484411, 41.240495], [-8.476346, 41.237818], [-8.475756, 41.23917], [-8.470986, 41.23941], [-8.471604, 41.243459], [-8.469227, 41.245267], [-8.463258, 41.244384], [-8.459989, 41.246644], [-8.455512, 41.245982], [-8.455541, 41.251834], [-8.452276, 41.25522], [-8.449891, 41.255452], [-8.449304, 41.257479], [-8.447812, 41.257258], [-8.449028, 41.261982], [-8.439785, 41.262907], [-8.438023, 41.268989], [-8.434745, 41.269673], [-8.434762, 41.2735], [-8.43298, 41.275206], [-8.447359, 41.284431], [-8.468593, 41.302542], [-8.488963, 41.329658], [-8.49925, 41.356726], [-8.502995, 41.383765], [-8.506238, 41.394358], [-8.518181, 41.396919], [-8.554051, 41.399429], [-8.577933, 41.406275], [-8.601488, 41.420179], [-8.610351, 41.429217], [-8.614974, 41.43824], [-8.617019, 41.447254], [-8.613722, 41.465258], [-8.610128, 41.474253], [-8.603658, 41.483239], [-8.589344, 41.493911], [-8.577337, 41.498026], [-8.565348, 41.499226], [-8.553373, 41.498386], [-8.541415, 41.49511], [-8.529476, 41.48935], [-8.517557, 41.481212], [-8.501072, 41.464824], [-8.496539, 41.455797], [-8.492982, 41.437767], [-8.491931, 41.419747], [-8.482993, 41.4107], [-8.470206, 41.412408], [-8.422249, 41.423278], [-8.398289, 41.42598], [-8.374351, 41.4263], [-8.350432, 41.424663], [-8.290705, 41.41453], [-8.278749, 41.413608], [-8.266773, 41.414594], [-8.230792, 41.421725], [-8.218813, 41.42275], [-8.19489, 41.421827], [-8.17102, 41.416839], [-8.159141, 41.410105], [-8.151894, 41.399728], [-8.148867, 41.390698], [-8.147176, 41.374967], [-8.145073, 41.374742], [-8.139694, 41.377894], [-8.133418, 41.374292], [-8.119074, 41.377218], [-8.119672, 41.378569], [-8.116683, 41.380144], [-8.117578, 41.386447], [-8.113992, 41.386896], [-8.112795, 41.390723], [-8.110105, 41.390947], [-8.108011, 41.393648], [-8.103827, 41.392972], [-8.105321, 41.394998], [-8.10263, 41.396123], [-8.10801, 41.398825], [-8.108606, 41.403102], [-8.101128, 41.411654], [-8.092756, 41.411201], [-8.09126, 41.414352], [-8.079893, 41.41975], [-8.077503, 41.416597], [-8.070923, 41.41862], [-8.066739, 41.416142], [-8.061654, 41.417489], [-8.059852, 41.424916], [-8.055959, 41.429415], [-8.05745, 41.432793], [-8.056549, 41.436394], [-8.057743, 41.438645], [-8.061033, 41.438872], [-8.063424, 41.4409], [-8.06494, 41.444052], [-8.075037, 41.434851], [-8.087105, 41.427792], [-8.099135, 41.423289], [-8.123118, 41.419686], [-8.135079, 41.420079], [-8.147013, 41.422615], [-8.158858, 41.432044], [-8.165954, 41.444868], [-8.170468, 41.460238], [-8.171253, 41.471928], [-8.166232, 41.489907], [-8.158884, 41.498861], [-8.14591, 41.506734], [-8.133892, 41.509354], [-8.121914, 41.509014], [-8.093, 41.504857], [-8.089398, 41.519242], [-8.090594, 41.522169], [-8.093588, 41.52307], [-8.091487, 41.531173], [-8.097775, 41.536127], [-8.097774, 41.537927], [-8.106759, 41.543557], [-8.101666, 41.542655], [-8.094175, 41.544904], [-8.087885, 41.542876], [-8.083389, 41.545629], [-8.109384, 41.548892], [-8.14541, 41.544679], [-8.183407, 41.535067], [-8.217644, 41.520091], [-8.241614, 41.520083], [-8.249006, 41.517499], [-8.253663, 41.514471], [-8.25602, 41.508537], [-8.253821, 41.500732], [-8.242191, 41.490432], [-8.241891, 41.481423], [-8.246176, 41.472444], [-8.254328, 41.46349], [-8.265636, 41.454555], [-8.290397, 41.44283], [-8.302401, 41.439687], [-8.326366, 41.437343], [-8.350291, 41.438738], [-8.374178, 41.444336], [-8.378903, 41.446215], [-8.390849, 41.455286], [-8.394555, 41.464313], [-8.397096, 41.500356], [-8.395931, 41.509357], [-8.391857, 41.518343], [-8.356707, 41.563189], [-8.349277, 41.581161], [-8.34809, 41.599169], [-8.349329, 41.626198], [-8.34446, 41.653192], [-8.34451, 41.662199], [-8.347876, 41.671225], [-8.356778, 41.680283], [-8.371852, 41.684902], [-8.383872, 41.684455], [-8.395918, 41.681203], [-8.420061, 41.668508], [-8.432084, 41.667352], [-8.499366, 41.671668], [-8.50237, 41.671902], [-8.502725, 41.67193], [-8.50927, 41.671233], [-8.509879, 41.672648], [-8.510179, 41.672679]], [[-8.456263, 41.648989], [-8.44425, 41.649515], [-8.427174, 41.644627], [-8.41576, 41.635562], [-8.411846, 41.626535], [-8.412296, 41.61753], [-8.41687, 41.608546], [-8.432739, 41.592731], [-8.437509, 41.590634], [-8.431958, 41.5816], [-8.420928, 41.571741], [-8.414826, 41.563499], [-8.411327, 41.554474], [-8.410955, 41.545465], [-8.413535, 41.536471], [-8.421335, 41.526036], [-8.433389, 41.518328], [-8.445398, 41.515419], [-8.457353, 41.518962], [-8.492125, 41.536845], [-8.498796, 41.545881], [-8.495885, 41.554876], [-8.489307, 41.563854], [-8.463763, 41.59076], [-8.479781, 41.608848], [-8.484529, 41.617876], [-8.484948, 41.626886], [-8.480382, 41.635872], [-8.469477, 41.64483], [-8.456263, 41.648989]], [[-8.613099, 41.528515], [-8.618475, 41.519318], [-8.625149, 41.517491], [-8.629242, 41.519354], [-8.633801, 41.528376], [-8.625057, 41.533391], [-8.613099, 41.528515]], [[-8.719346, 41.339458], [-8.709838, 41.338701], [-8.697902, 41.33546], [-8.685983, 41.328763], [-8.674095, 41.316351], [-8.66974, 41.303295], [-8.6718, 41.294293], [-8.677833, 41.285303], [-8.69024, 41.276329], [-8.710141, 41.270372], [-8.722083, 41.26973], [-8.734016, 41.271334], [-8.748979, 41.276472], [-8.760836, 41.285505], [-8.766653, 41.294525], [-8.768615, 41.303537], [-8.767497, 41.312542], [-8.762866, 41.32154], [-8.75311, 41.330527], [-8.745708, 41.334949], [-8.733742, 41.33861], [-8.719346, 41.339458]], [[-8.555216, 41.228225], [-8.548298, 41.221813], [-8.555317, 41.213418], [-8.567209, 41.218946], [-8.568404, 41.22189], [-8.567174, 41.224243], [-8.555216, 41.228225]]], [[[-7.89604, 41.730822], [-7.902446, 41.732118], [-7.909327, 41.730949], [-7.914519, 41.72921], [-7.92461, 41.722086], [-7.926221, 41.713094], [-7.921006, 41.704038], [-7.914999, 41.700695], [-7.903019, 41.698423], [-7.890939, 41.702032], [-7.882244, 41.712675], [-7.881495, 41.721674], [-7.89046, 41.729912], [-7.89604, 41.730822]]], [[[-8.10722, 41.705937], [-8.119236, 41.706202], [-8.127273, 41.696783], [-8.119479, 41.688369], [-8.103324, 41.696599], [-8.10722, 41.705937]], [[-8.113921, 41.696681], [-8.119402, 41.694053], [-8.121892, 41.696742], [-8.119323, 41.699823], [-8.113921, 41.696681]]]]}}, {"id": "6", "type": "Feature", "properties": {"fill": "#5093f6", "value_min": 1.5, "value_max": -1.75}, "geometry": {"type": "MultiPolygon", "coordinates": [[[[-7.826172, 41.87582], [-7.823195, 41.865201], [-7.812628, 41.847078], [-7.804309, 41.837985], [-7.792414, 41.828915], [-7.780473, 41.823576], [-7.768471, 41.821519], [-7.735641, 41.823287], [-7.743152, 41.825154], [-7.742839, 41.827178], [-7.739521, 41.828447], [-7.756328, 41.82678], [-7.768354, 41.82764], [-7.780335, 41.830811], [-7.792251, 41.837565], [-7.80184, 41.846966], [-7.807489, 41.856032], [-7.811256, 41.871728], [-7.814229, 41.873537], [-7.823863, 41.874013], [-7.826172, 41.87582]]], [[[-7.738919, 41.828554], [-7.738919, 41.828554], [-7.73913, 41.828516], [-7.738919, 41.828554]]], [[[-7.948528, 41.855472], [-7.960604, 41.853725], [-7.967485, 41.848575], [-7.970173, 41.839592], [-7.963488, 41.830526], [-7.948989, 41.827325], [-7.936837, 41.83399], [-7.933587, 41.839259], [-7.936576, 41.849769], [-7.948528, 41.855472]]], [[[-8.047117, 41.706374], [-8.059151, 41.705389], [-8.059229, 41.705253], [-8.04715, 41.704145], [-8.047117, 41.706374]]], [[[-8.113921, 41.696681], [-8.119323, 41.699823], [-8.121892, 41.696742], [-8.119402, 41.694053], [-8.113921, 41.696681]]], [[[-8.456263, 41.648989], [-8.469477, 41.64483], [-8.480382, 41.635872], [-8.484948, 41.626886], [-8.484529, 41.617876], [-8.479781, 41.608848], [-8.463763, 41.59076], [-8.489307, 41.563854], [-8.495885, 41.554876], [-8.498796, 41.545881], [-8.492125, 41.536845], [-8.457353, 41.518962], [-8.445398, 41.515419], [-8.433389, 41.518328], [-8.421335, 41.526036], [-8.413535, 41.536471], [-8.410955, 41.545465], [-8.411327, 41.554474], [-8.414826, 41.563499], [-8.420928, 41.571741], [-8.431958, 41.5816], [-8.437509, 41.590634], [-8.432739, 41.592731], [-8.41687, 41.608546], [-8.412296, 41.61753], [-8.411846, 41.626535], [-8.41576, 41.635562], [-8.427174, 41.644627], [-8.44425, 41.649515], [-8.456263, 41.648989]], [[-8.445054, 41.555708], [-8.435998, 41.54559], [-8.43935, 41.536599], [-8.445248, 41.533073], [-8.457239, 41.532569], [-8.465234, 41.536723], [-8.469981, 41.545752], [-8.461536, 41.55472], [-8.457036, 41.556858], [-8.445054, 41.555708]]], [[[-8.613099, 41.528515], [-8.625057, 41.533391], [-8.633801, 41.528376], [-8.629242, 41.519354], [-8.625149, 41.517491], [-8.618475, 41.519318], [-8.613099, 41.528515]]], [[[-8.093, 41.504857], [-8.121914, 41.509014], [-8.133892, 41.509354], [-8.14591, 41.506734], [-8.158884, 41.498861], [-8.166232, 41.489907], [-8.171253, 41.471928], [-8.170468, 41.460238], [-8.165954, 41.444868], [-8.158858, 41.432044], [-8.147013, 41.422615], [-8.135079, 41.420079], [-8.123118, 41.419686], [-8.099135, 41.423289], [-8.087105, 41.427792], [-8.075037, 41.434851], [-8.06494, 41.444052], [-8.067908, 41.444279], [-8.069999, 41.447206], [-8.068788, 41.462286], [-8.073872, 41.46499], [-8.074468, 41.468141], [-8.073564, 41.474668], [-8.066374, 41.482318], [-8.066069, 41.48817], [-8.072054, 41.490199], [-8.07175, 41.494925], [-8.078333, 41.49898], [-8.078332, 41.500331], [-8.093, 41.504857]], [[-8.120291, 41.498572], [-8.11008, 41.498125], [-8.098159, 41.493783], [-8.091157, 41.489338], [-8.086537, 41.480294], [-8.087623, 41.471296], [-8.095396, 41.46235], [-8.110649, 41.456489], [-8.122616, 41.456945], [-8.134525, 41.461844], [-8.143312, 41.471724], [-8.144846, 41.480743], [-8.140985, 41.489721], [-8.134087, 41.494747], [-8.120291, 41.498572]]], [[[-8.147176, 41.374967], [-8.148867, 41.390698], [-8.151894, 41.399728], [-8.159141, 41.410105], [-8.17102, 41.416839], [-8.19489, 41.421827], [-8.218813, 41.42275], [-8.230792, 41.421725], [-8.266773, 41.414594], [-8.278749, 41.413608], [-8.290705, 41.41453], [-8.350432, 41.424663], [-8.374351, 41.4263], [-8.398289, 41.42598], [-8.422249, 41.423278], [-8.470206, 41.412408], [-8.482993, 41.4107], [-8.491931, 41.419747], [-8.492982, 41.437767], [-8.496539, 41.455797], [-8.501072, 41.464824], [-8.517557, 41.481212], [-8.529476, 41.48935], [-8.541415, 41.49511], [-8.553373, 41.498386], [-8.565348, 41.499226], [-8.577337, 41.498026], [-8.589344, 41.493911], [-8.603658, 41.483239], [-8.610128, 41.474253], [-8.613722, 41.465258], [-8.617019, 41.447254], [-8.614974, 41.43824], [-8.610351, 41.429217], [-8.601488, 41.420179], [-8.577933, 41.406275], [-8.554051, 41.399429], [-8.518181, 41.396919], [-8.506238, 41.394358], [-8.502995, 41.383765], [-8.49925, 41.356726], [-8.488963, 41.329658], [-8.468593, 41.302542], [-8.447359, 41.284431], [-8.43298, 41.275206], [-8.432691, 41.277107], [-8.427032, 41.279372], [-8.429143, 41.284319], [-8.426171, 41.287028], [-8.426488, 41.291079], [-8.425013, 41.294909], [-8.422037, 41.296942], [-8.422647, 41.299867], [-8.407744, 41.304856], [-8.406262, 41.307335], [-8.403277, 41.307342], [-8.401801, 41.311398], [-8.399712, 41.311628], [-8.400316, 41.313202], [-8.396738, 41.314336], [-8.398834, 41.315906], [-8.397054, 41.318568], [-8.414431, 41.329303], [-8.423051, 41.338354], [-8.428857, 41.347391], [-8.431869, 41.356413], [-8.431372, 41.374426], [-8.427636, 41.383415], [-8.420647, 41.392387], [-8.409384, 41.401338], [-8.398465, 41.406933], [-8.374479, 41.412911], [-8.350553, 41.412492], [-8.326689, 41.406031], [-8.316379, 41.400823], [-8.304726, 41.391745], [-8.297308, 41.382693], [-8.293481, 41.373662], [-8.292385, 41.35564], [-8.294683, 41.346646], [-8.299668, 41.337669], [-8.309377, 41.32756], [-8.307502, 41.325762], [-8.305116, 41.326891], [-8.303024, 41.325994], [-8.303615, 41.323742], [-8.301216, 41.319694], [-8.296431, 41.316774], [-8.297618, 41.313846], [-8.296116, 41.310022], [-8.281801, 41.316569], [-8.279132, 41.324451], [-8.272266, 41.32536], [-8.265709, 41.331221], [-8.269004, 41.336169], [-8.263339, 41.340902], [-8.262751, 41.345405], [-8.256483, 41.347663], [-8.255889, 41.349689], [-8.249622, 41.353072], [-8.251123, 41.356897], [-8.248141, 41.360052], [-8.248448, 41.364328], [-8.245461, 41.364781], [-8.244272, 41.368384], [-8.239197, 41.371315], [-8.232024, 41.369971], [-8.224854, 41.370878], [-8.21738, 41.368182], [-8.214399, 41.373587], [-8.208127, 41.376968], [-8.199163, 41.377423], [-8.194677, 41.374275], [-8.191691, 41.376302], [-8.189299, 41.375403], [-8.184818, 41.376756], [-8.168382, 41.377438], [-8.164499, 41.38059], [-8.152544, 41.375866], [-8.151049, 41.37339], [-8.147176, 41.374967]]], [[[-8.719346, 41.339458], [-8.733742, 41.33861], [-8.745708, 41.334949], [-8.75311, 41.330527], [-8.762866, 41.32154], [-8.767497, 41.312542], [-8.768615, 41.303537], [-8.766653, 41.294525], [-8.760836, 41.285505], [-8.748979, 41.276472], [-8.734016, 41.271334], [-8.722083, 41.26973], [-8.710141, 41.270372], [-8.69024, 41.276329], [-8.677833, 41.285303], [-8.6718, 41.294293], [-8.66974, 41.303295], [-8.674095, 41.316351], [-8.685983, 41.328763], [-8.697902, 41.33546], [-8.709838, 41.338701], [-8.719346, 41.339458]]], [[[-8.555216, 41.228225], [-8.567174, 41.224243], [-8.568404, 41.22189], [-8.567209, 41.218946], [-8.555317, 41.213418], [-8.548298, 41.221813], [-8.555216, 41.228225]]]]}}, {"id": "7", "type": "Feature", "properties": {"fill": "#3171ee", "value_min": 1.75, "value_max": -2.0}, "geometry": {"type": "MultiPolygon", "coordinates": [[[[-7.811256, 41.871728], [-7.807489, 41.856032], [-7.80184, 41.846966], [-7.792251, 41.837565], [-7.780335, 41.830811], [-7.768354, 41.82764], [-7.756328, 41.82678], [-7.739521, 41.828447], [-7.73913, 41.828516], [-7.738919, 41.828554], [-7.742201, 41.833203], [-7.756232, 41.831739], [-7.768252, 41.832954], [-7.781134, 41.837742], [-7.79259, 41.84687], [-7.798441, 41.855938], [-7.800663, 41.864967], [-7.800073, 41.874], [-7.804288, 41.874184], [-7.804914, 41.869459], [-7.811256, 41.871728]]], [[[-8.445054, 41.555708], [-8.457036, 41.556858], [-8.461536, 41.55472], [-8.469981, 41.545752], [-8.465234, 41.536723], [-8.457239, 41.532569], [-8.445248, 41.533073], [-8.43935, 41.536599], [-8.435998, 41.54559], [-8.445054, 41.555708]]], [[[-8.120291, 41.498572], [-8.134087, 41.494747], [-8.140985, 41.489721], [-8.144846, 41.480743], [-8.143312, 41.471724], [-8.134525, 41.461844], [-8.122616, 41.456945], [-8.110649, 41.456489], [-8.095396, 41.46235], [-8.087623, 41.471296], [-8.086537, 41.480294], [-8.091157, 41.489338], [-8.098159, 41.493783], [-8.11008, 41.498125], [-8.120291, 41.498572]], [[-8.110294, 41.482515], [-8.108951, 41.48047], [-8.110344, 41.47881], [-8.122314, 41.479342], [-8.123263, 41.48058], [-8.122277, 41.48211], [-8.110294, 41.482515]]], [[[-8.309377, 41.32756], [-8.299668, 41.337669], [-8.294683, 41.346646], [-8.292385, 41.35564], [-8.293481, 41.373662], [-8.297308, 41.382693], [-8.304726, 41.391745], [-8.316379, 41.400823], [-8.326689, 41.406031], [-8.350553, 41.412492], [-8.374479, 41.412911], [-8.398465, 41.406933], [-8.409384, 41.401338], [-8.420647, 41.392387], [-8.427636, 41.383415], [-8.431372, 41.374426], [-8.431869, 41.356413], [-8.428857, 41.347391], [-8.423051, 41.338354], [-8.414431, 41.329303], [-8.397054, 41.318568], [-8.393775, 41.31997], [-8.393489, 41.323122], [-8.391701, 41.324026], [-8.386027, 41.323814], [-8.380382, 41.331254], [-8.375305, 41.33104], [-8.37201, 41.328346], [-8.361563, 41.329718], [-8.358276, 41.329049], [-8.357673, 41.327249], [-8.350207, 41.327264], [-8.346032, 41.328847], [-8.342462, 41.333131], [-8.333215, 41.336299], [-8.326363, 41.342163], [-8.324568, 41.341041], [-8.323376, 41.341943], [-8.316788, 41.335876], [-8.313802, 41.336331], [-8.31169, 41.328456], [-8.309377, 41.32756]], [[-8.362607, 41.403442], [-8.346356, 41.400997], [-8.338731, 41.398411], [-8.328074, 41.391884], [-8.320149, 41.38283], [-8.316992, 41.373804], [-8.316958, 41.364796], [-8.319978, 41.355806], [-8.327301, 41.346693], [-8.339333, 41.338907], [-8.351322, 41.335118], [-8.363283, 41.33412], [-8.375219, 41.335631], [-8.387131, 41.339874], [-8.397914, 41.347233], [-8.405253, 41.356279], [-8.408328, 41.365302], [-8.40817, 41.374309], [-8.404724, 41.383299], [-8.396535, 41.392264], [-8.386582, 41.398278], [-8.378162, 41.401173], [-8.362607, 41.403442]]]]}}, {"id": "8", "type": "Feature", "properties": {"fill": "#245ede", "value_min": 2.0, "value_max": -2.25}, "geometry": {"type": "MultiPolygon", "coordinates": [[[[-7.800073, 41.874], [-7.800663, 41.864967], [-7.798441, 41.855938], [-7.79259, 41.84687], [-7.781134, 41.837742], [-7.768252, 41.832954], [-7.756232, 41.831739], [-7.742201, 41.833203], [-7.746689, 41.83746], [-7.756141, 41.836484], [-7.768152, 41.838142], [-7.783916, 41.846778], [-7.790243, 41.855851], [-7.792007, 41.864877], [-7.789971, 41.873862], [-7.779493, 41.886265], [-7.785257, 41.885157], [-7.788886, 41.882467], [-7.794007, 41.882257], [-7.796739, 41.878214], [-7.794349, 41.87438], [-7.800073, 41.874]]], [[[-7.778622, 41.886761], [-7.767115, 41.892147], [-7.756894, 41.89397], [-7.758376, 41.898127], [-7.764097, 41.898595], [-7.778622, 41.886761]]], [[[-7.730105, 41.888579], [-7.725809, 41.885413], [-7.726208, 41.887665], [-7.730105, 41.888579]]], [[[-7.725502, 41.885187], [-7.725502, 41.885187], [-7.725321, 41.885053], [-7.725502, 41.885187]]], [[[-7.721514, 41.882247], [-7.721514, 41.882247], [-7.721424, 41.88218], [-7.721514, 41.882247]]], [[[-7.72127, 41.882021], [-7.72127, 41.882021], [-7.721125, 41.881832], [-7.72127, 41.882021]]], [[[-7.721097, 41.881795], [-7.721097, 41.881795], [-7.720826, 41.881441], [-7.721097, 41.881795]]], [[[-7.72058, 41.881118], [-7.72058, 41.881118], [-7.720528, 41.88105], [-7.72058, 41.881118]]], [[[-7.779226, 41.886477], [-7.779226, 41.886477], [-7.778725, 41.886713], [-7.779226, 41.886477]]], [[[-8.110294, 41.482515], [-8.122277, 41.48211], [-8.123263, 41.48058], [-8.122314, 41.479342], [-8.110344, 41.47881], [-8.108951, 41.48047], [-8.110294, 41.482515]]], [[[-8.362607, 41.403442], [-8.378162, 41.401173], [-8.386582, 41.398278], [-8.396535, 41.392264], [-8.404724, 41.383299], [-8.40817, 41.374309], [-8.408328, 41.365302], [-8.405253, 41.356279], [-8.397914, 41.347233], [-8.387131, 41.339874], [-8.375219, 41.335631], [-8.363283, 41.33412], [-8.351322, 41.335118], [-8.339333, 41.338907], [-8.327301, 41.346693], [-8.319978, 41.355806], [-8.316958, 41.364796], [-8.316992, 41.373804], [-8.320149, 41.38283], [-8.328074, 41.391884], [-8.338731, 41.398411], [-8.346356, 41.400997], [-8.362607, 41.403442]], [[-8.362696, 41.394315], [-8.350751, 41.392637], [-8.338862, 41.385448], [-8.332594, 41.373895], [-8.334059, 41.364896], [-8.341711, 41.355933], [-8.351164, 41.351014], [-8.363134, 41.349398], [-8.375066, 41.351633], [-8.383005, 41.356161], [-8.390666, 41.36521], [-8.391952, 41.374224], [-8.386712, 41.384472], [-8.374677, 41.392318], [-8.362696, 41.394315]]]]}}, {"id": "9", "type": "Feature", "properties": {"fill": "#2253c5", "value_min": 2.25, "value_max": -2.5}, "geometry": {"type": "MultiPolygon", "coordinates": [[[[-7.756894, 41.89397], [-7.767115, 41.892147], [-7.778622, 41.886761], [-7.778725, 41.886713], [-7.779226, 41.886477], [-7.779493, 41.886265], [-7.789971, 41.873862], [-7.792007, 41.864877], [-7.790243, 41.855851], [-7.783916, 41.846778], [-7.768152, 41.838142], [-7.756141, 41.836484], [-7.746689, 41.83746], [-7.746355, 41.843048], [-7.756043, 41.841529], [-7.768049, 41.843537], [-7.774113, 41.846674], [-7.782544, 41.85577], [-7.783817, 41.86479], [-7.779995, 41.873756], [-7.7673, 41.882538], [-7.755204, 41.884785], [-7.743187, 41.882965], [-7.729553, 41.873722], [-7.729293, 41.875972], [-7.722351, 41.878424], [-7.720528, 41.88105], [-7.72058, 41.881118], [-7.720826, 41.881441], [-7.721097, 41.881795], [-7.721125, 41.881832], [-7.72127, 41.882021], [-7.721424, 41.88218], [-7.721514, 41.882247], [-7.725035, 41.882709], [-7.725321, 41.885053], [-7.725502, 41.885187], [-7.725809, 41.885413], [-7.730105, 41.888579], [-7.737044, 41.888828], [-7.739741, 41.891088], [-7.74246, 41.889747], [-7.742785, 41.885922], [-7.748203, 41.88639], [-7.750001, 41.887971], [-7.756022, 41.888441], [-7.758719, 41.890926], [-7.756894, 41.89397]]], [[[-8.362696, 41.394315], [-8.374677, 41.392318], [-8.386712, 41.384472], [-8.391952, 41.374224], [-8.390666, 41.36521], [-8.383005, 41.356161], [-8.375066, 41.351633], [-8.363134, 41.349398], [-8.351164, 41.351014], [-8.341711, 41.355933], [-8.334059, 41.364896], [-8.332594, 41.373895], [-8.338862, 41.385448], [-8.350751, 41.392637], [-8.362696, 41.394315]], [[-8.360338, 41.38306], [-8.350902, 41.37738], [-8.348975, 41.373989], [-8.350981, 41.369516], [-8.357515, 41.36503], [-8.362995, 41.363641], [-8.367184, 41.365083], [-8.375454, 41.374136], [-8.364705, 41.383085], [-8.360338, 41.38306]]]]}}, {"id": "10", "type": "Feature", "properties": {"fill": "#2048ac", "value_min": 2.5, "value_max": -2.75}, "geometry": {"type": "MultiPolygon", "coordinates": [[[[-7.729553, 41.873722], [-7.743187, 41.882965], [-7.755204, 41.884785], [-7.7673, 41.882538], [-7.779995, 41.873756], [-7.783817, 41.86479], [-7.782544, 41.85577], [-7.774113, 41.846674], [-7.768049, 41.843537], [-7.756043, 41.841529], [-7.746355, 41.843048], [-7.750536, 41.848647], [-7.755941, 41.846776], [-7.767917, 41.850393], [-7.77356, 41.855675], [-7.774471, 41.864691], [-7.767481, 41.873113], [-7.755376, 41.875905], [-7.745735, 41.873387], [-7.737226, 41.864287], [-7.73777, 41.860922], [-7.729553, 41.873722]]], [[[-7.744913, 41.850593], [-7.749423, 41.849032], [-7.743309, 41.849012], [-7.744913, 41.850593]]], [[[-8.360338, 41.38306], [-8.364705, 41.383085], [-8.375454, 41.374136], [-8.367184, 41.365083], [-8.362995, 41.363641], [-8.357515, 41.36503], [-8.350981, 41.369516], [-8.348975, 41.373989], [-8.350902, 41.37738], [-8.360338, 41.38306]]]]}}, {"id": "11", "type": "Feature", "properties": {"fill": "#1f3f95", "value_min": 2.75, "value_max": -3.0}, "geometry": {"type": "Polygon", "coordinates": [[[-7.73777, 41.860922], [-7.737226, 41.864287], [-7.745735, 41.873387], [-7.755376, 41.875905], [-7.767481, 41.873113], [-7.774471, 41.864691], [-7.77356, 41.855675], [-7.767917, 41.850393], [-7.755941, 41.846776], [-7.750536, 41.848647], [-7.749423, 41.849032], [-7.744913, 41.850593], [-7.746901, 41.8524], [-7.746881, 41.855776], [-7.739943, 41.858003], [-7.73777, 41.860922]]]}}]}