{"type": "FeatureCollection", "features": [{"id": "9", "type": "Feature", "properties": {"fill": "#a3a3a3", "value_min": 0.25, "value_max": -0.5}, "geometry": {"type": "Polygon", "coordinates": [[[-8.380202, 41.374162], [-8.374957, 41.363021], [-8.363042, 41.358873], [-8.351062, 41.361284], [-8.346171, 41.364966], [-8.34271, 41.373954], [-8.347998, 41.382991], [-8.362767, 41.387005], [-8.37528, 41.383143], [-8.380202, 41.374162]]]}}, {"id": "1", "type": "Feature", "properties": {"fill": "#e57b10", "value_min": -1.75, "value_max": -1.5}, "geometry": {"type": "MultiPolygon", "coordinates": [[[[-8.467352, 41.626805], [-8.462581, 41.617776], [-8.456559, 41.613753], [-8.444578, 41.611228], [-8.432547, 41.614569], [-8.428818, 41.617613], [-8.42539, 41.626603], [-8.432343, 41.637836], [-8.444311, 41.642343], [-8.456331, 41.640882], [-8.464068, 41.635797], [-8.467352, 41.626805]], [[-8.438391, 41.626667], [-8.444488, 41.621745], [-8.452489, 41.626735], [-8.444399, 41.632169], [-8.438391, 41.626667]]], [[[-8.433641, 41.489412], [-8.439116, 41.482554], [-8.43492, 41.473526], [-8.421821, 41.471465], [-8.418008, 41.473442], [-8.412273, 41.48242], [-8.421641, 41.491728], [-8.433641, 41.489412]]], [[[-8.710416, 41.208121], [-8.714266, 41.204328], [-8.716867, 41.195327], [-8.71369, 41.186311], [-8.710527, 41.183004], [-8.698631, 41.176925], [-8.686711, 41.176385], [-8.674768, 41.180689], [-8.668797, 41.186191], [-8.664992, 41.195188], [-8.667321, 41.204202], [-8.674616, 41.21133], [-8.686526, 41.215287], [-8.698458, 41.214599], [-8.710416, 41.208121]]]]}}, {"id": "3", "type": "Feature", "properties": {"fill": "#b6a27f", "value_min": -1.25, "value_max": -1.0}, "geometry": {"type": "MultiPolygon", "coordinates": [[[[-7.872912, 41.757618], [-7.86602, 41.75221], [-7.85298, 41.757421], [-7.865764, 41.766749], [-7.872912, 41.757618]]], [[[-8.449388, 41.703078], [-8.443821, 41.699314], [-8.431826, 41.696642], [-8.419805, 41.69707], [-8.407758, 41.700233], [-8.394522, 41.707509], [-8.387978, 41.716481], [-8.387282, 41.725485], [-8.389902, 41.730984], [-8.393033, 41.729852], [-8.396942, 41.730518], [-8.400531, 41.726683], [-8.402934, 41.726452], [-8.404598, 41.723072], [-8.403093, 41.716561], [-8.407657, 41.711241], [-8.41732, 41.707627], [-8.421858, 41.70765], [-8.433832, 41.716249], [-8.436526, 41.714214], [-8.441632, 41.713975], [-8.4446, 41.70654], [-8.449388, 41.703078]]], [[[-8.095628, 41.675429], [-8.083604, 41.676156], [-8.081939, 41.678416], [-8.083542, 41.68054], [-8.095545, 41.681346], [-8.098107, 41.678544], [-8.095628, 41.675429]]], [[[-8.480172, 41.662555], [-8.492234, 41.656099], [-8.501314, 41.644972], [-8.503101, 41.635973], [-8.501657, 41.626959], [-8.496586, 41.61793], [-8.480646, 41.603504], [-8.468703, 41.596513], [-8.456736, 41.592693], [-8.444749, 41.591394], [-8.432745, 41.591971], [-8.420718, 41.595232], [-8.408635, 41.604458], [-8.405725, 41.608489], [-8.403291, 41.617483], [-8.405056, 41.6265], [-8.4105, 41.635535], [-8.420266, 41.645716], [-8.432196, 41.654577], [-8.444152, 41.660878], [-8.456134, 41.664387], [-8.468138, 41.665232], [-8.480172, 41.662555]], [[-8.456245, 41.651092], [-8.444241, 41.650535], [-8.43227, 41.646133], [-8.419842, 41.635583], [-8.415604, 41.626554], [-8.416534, 41.617551], [-8.424421, 41.608584], [-8.432638, 41.604258], [-8.444654, 41.602475], [-8.45664, 41.604128], [-8.468593, 41.609926], [-8.477139, 41.617843], [-8.48069, 41.626866], [-8.479764, 41.635869], [-8.472764, 41.644845], [-8.468283, 41.647617], [-8.456245, 41.651092]]], [[[-8.697097, 41.50885], [-8.709264, 41.501569], [-8.716975, 41.492581], [-8.720138, 41.483581], [-8.720107, 41.474573], [-8.716932, 41.465558], [-8.709407, 41.456532], [-8.694313, 41.447485], [-8.685425, 41.444505], [-8.673463, 41.442754], [-8.66149, 41.443097], [-8.649506, 41.445627], [-8.637505, 41.450851], [-8.629503, 41.456302], [-8.622536, 41.465287], [-8.620346, 41.474287], [-8.622687, 41.483303], [-8.62903, 41.492331], [-8.649182, 41.505626], [-8.661142, 41.509916], [-8.673113, 41.512439], [-8.685098, 41.512066], [-8.697097, 41.50885]]], [[[-8.445472, 41.506735], [-8.465795, 41.491688], [-8.472931, 41.482714], [-8.476627, 41.473723], [-8.47551, 41.464711], [-8.46824, 41.45567], [-8.457933, 41.449396], [-8.445992, 41.445725], [-8.434032, 41.444439], [-8.422053, 41.445306], [-8.410057, 41.448085], [-8.394725, 41.455307], [-8.384295, 41.464259], [-8.377868, 41.473232], [-8.375788, 41.482228], [-8.377166, 41.491243], [-8.384285, 41.500288], [-8.397519, 41.509209], [-8.40947, 41.512718], [-8.421452, 41.512986], [-8.445472, 41.506735]], [[-8.418267, 41.500465], [-8.409604, 41.498027], [-8.401323, 41.491371], [-8.398064, 41.482346], [-8.399915, 41.473349], [-8.409917, 41.463544], [-8.421927, 41.459546], [-8.433897, 41.459927], [-8.445825, 41.465399], [-8.452422, 41.473611], [-8.452893, 41.48262], [-8.447442, 41.491602], [-8.433551, 41.49976], [-8.421556, 41.501222], [-8.418267, 41.500465]]], [[[-8.354028, 41.482108], [-8.349879, 41.480035], [-8.337907, 41.479529], [-8.334604, 41.481997], [-8.333954, 41.491], [-8.337758, 41.494158], [-8.349742, 41.493745], [-8.354518, 41.491118], [-8.354028, 41.482108]]], [[[-8.565517, 41.47393], [-8.578225, 41.465133], [-8.58163, 41.456138], [-8.578052, 41.447118], [-8.565758, 41.437818], [-8.553807, 41.435182], [-8.541828, 41.436495], [-8.526219, 41.446916], [-8.52336, 41.455912], [-8.52687, 41.464933], [-8.541561, 41.474399], [-8.553526, 41.476174], [-8.565517, 41.47393]]], [[[-8.610792, 41.175436], [-8.614346, 41.195029], [-8.621528, 41.213069], [-8.628017, 41.222098], [-8.638483, 41.231139], [-8.650623, 41.236857], [-8.667717, 41.240235], [-8.686404, 41.240793], [-8.710285, 41.237928], [-8.735536, 41.231403], [-8.755825, 41.22244], [-8.768842, 41.213459], [-8.777963, 41.204469], [-8.787691, 41.186471], [-8.789388, 41.177466], [-8.787309, 41.159447], [-8.779455, 41.144512], [-8.67527, 41.147484], [-8.676193, 41.146567], [-8.674793, 41.146932], [-8.674204, 41.147693], [-8.674356, 41.15332], [-8.686834, 41.150746], [-8.698752, 41.150501], [-8.710662, 41.152285], [-8.722561, 41.156617], [-8.734447, 41.164792], [-8.743529, 41.177373], [-8.745704, 41.186386], [-8.745024, 41.195393], [-8.74139, 41.204392], [-8.73369, 41.213383], [-8.719652, 41.222357], [-8.698395, 41.228279], [-8.686461, 41.228878], [-8.674537, 41.227371], [-8.660724, 41.222199], [-8.64973, 41.213158], [-8.64424, 41.204133], [-8.642005, 41.193535], [-8.641225, 41.196014], [-8.638841, 41.196025], [-8.638231, 41.194227], [-8.634946, 41.193341], [-8.632526, 41.188624], [-8.625658, 41.186628], [-8.621132, 41.178994], [-8.613374, 41.177451], [-8.610792, 41.175436]]], [[[-8.65439, 41.165123], [-8.65439, 41.165123], [-8.654673, 41.164891], [-8.65439, 41.165123]]], [[[-8.654686, 41.16488], [-8.659903, 41.16059], [-8.656143, 41.160832], [-8.654686, 41.16488]]], [[[-8.660308, 41.160257], [-8.660308, 41.160257], [-8.660454, 41.160137], [-8.660308, 41.160257]]], [[[-8.660604, 41.160013], [-8.66545, 41.157188], [-8.66117, 41.156307], [-8.660604, 41.160013]]], [[[-8.665644, 41.157103], [-8.665644, 41.157103], [-8.665974, 41.15696], [-8.665644, 41.157103]]], [[[-8.666238, 41.156846], [-8.666238, 41.156846], [-8.666497, 41.156733], [-8.666238, 41.156846]]], [[[-8.666831, 41.156588], [-8.666831, 41.156588], [-8.667021, 41.156505], [-8.666831, 41.156588]]], [[[-8.667128, 41.156459], [-8.667128, 41.156459], [-8.667722, 41.156201], [-8.667128, 41.156459]]]]}}, {"id": "2", "type": "Feature", "properties": {"fill": "#e19f31", "value_min": -1.5, "value_max": -1.25}, "geometry": {"type": "MultiPolygon", "coordinates": [[[[-8.433832, 41.716249], [-8.421858, 41.70765], [-8.41732, 41.707627], [-8.407657, 41.711241], [-8.403093, 41.716561], [-8.404598, 41.723072], [-8.417349, 41.725067], [-8.41974, 41.722135], [-8.429643, 41.719859], [-8.430533, 41.717381], [-8.433832, 41.716249]]], [[[-8.456245, 41.651092], [-8.468283, 41.647617], [-8.472764, 41.644845], [-8.479764, 41.635869], [-8.48069, 41.626866], [-8.477139, 41.617843], [-8.468593, 41.609926], [-8.45664, 41.604128], [-8.444654, 41.602475], [-8.432638, 41.604258], [-8.424421, 41.608584], [-8.416534, 41.617551], [-8.415604, 41.626554], [-8.419842, 41.635583], [-8.43227, 41.646133], [-8.444241, 41.650535], [-8.456245, 41.651092]], [[-8.467352, 41.626805], [-8.464068, 41.635797], [-8.456331, 41.640882], [-8.444311, 41.642343], [-8.432343, 41.637836], [-8.42539, 41.626603], [-8.428818, 41.617613], [-8.432547, 41.614569], [-8.444578, 41.611228], [-8.456559, 41.613753], [-8.462581, 41.617776], [-8.467352, 41.626805]]], [[[-8.418267, 41.500465], [-8.421556, 41.501222], [-8.433551, 41.49976], [-8.447442, 41.491602], [-8.452893, 41.48262], [-8.452422, 41.473611], [-8.445825, 41.465399], [-8.433897, 41.459927], [-8.421927, 41.459546], [-8.409917, 41.463544], [-8.399915, 41.473349], [-8.398064, 41.482346], [-8.401323, 41.491371], [-8.409604, 41.498027], [-8.418267, 41.500465]], [[-8.433641, 41.489412], [-8.421641, 41.491728], [-8.412273, 41.48242], [-8.418008, 41.473442], [-8.421821, 41.471465], [-8.43492, 41.473526], [-8.439116, 41.482554], [-8.433641, 41.489412]]], [[[-8.642005, 41.193535], [-8.64424, 41.204133], [-8.64973, 41.213158], [-8.660724, 41.222199], [-8.674537, 41.227371], [-8.686461, 41.228878], [-8.698395, 41.228279], [-8.719652, 41.222357], [-8.73369, 41.213383], [-8.74139, 41.204392], [-8.745024, 41.195393], [-8.745704, 41.186386], [-8.743529, 41.177373], [-8.734447, 41.164792], [-8.722561, 41.156617], [-8.710662, 41.152285], [-8.698752, 41.150501], [-8.686834, 41.150746], [-8.674356, 41.15332], [-8.672489, 41.15648], [-8.667722, 41.156201], [-8.667128, 41.156459], [-8.667021, 41.156505], [-8.666831, 41.156588], [-8.666497, 41.156733], [-8.666238, 41.156846], [-8.665974, 41.15696], [-8.665644, 41.157103], [-8.66545, 41.157188], [-8.660604, 41.160013], [-8.660454, 41.160137], [-8.660308, 41.160257], [-8.659903, 41.16059], [-8.654686, 41.16488], [-8.654673, 41.164891], [-8.65439, 41.165123], [-8.653231, 41.169174], [-8.655366, 41.175467], [-8.647955, 41.180228], [-8.647696, 41.185181], [-8.642005, 41.193535]], [[-8.710416, 41.208121], [-8.698458, 41.214599], [-8.686526, 41.215287], [-8.674616, 41.21133], [-8.667321, 41.204202], [-8.664992, 41.195188], [-8.668797, 41.186191], [-8.674768, 41.180689], [-8.686711, 41.176385], [-8.698631, 41.176925], [-8.710527, 41.183004], [-8.71369, 41.186311], [-8.716867, 41.195327], [-8.714266, 41.204328], [-8.710416, 41.208121]]]]}}, {"id": "4", "type": "Feature", "properties": {"fill": "#a3a3a3", "value_min": -1.0, "value_max": -0.75}, "geometry": {"type": "MultiPolygon", "coordinates": [[[[-7.72703, 41.804882], [-7.732659, 41.805768], [-7.744718, 41.804709], [-7.754088, 41.801425], [-7.765077, 41.792537], [-7.768442, 41.783566], [-7.767036, 41.774544], [-7.760099, 41.765463], [-7.743305, 41.757632], [-7.740214, 41.763924], [-7.726937, 41.771755], [-7.7254, 41.777152], [-7.727191, 41.779184], [-7.724177, 41.780299], [-7.725372, 41.781653], [-7.722296, 41.792446], [-7.728879, 41.797871], [-7.72703, 41.804882]]], [[[-8.828659, 41.60393], [-8.827645, 41.581702], [-8.821576, 41.567535], [-8.821417, 41.560283], [-8.818497, 41.554794], [-8.8221, 41.547542], [-8.821717, 41.533832], [-8.815926, 41.525624], [-8.81063, 41.5101], [-8.813279, 41.503483], [-8.812636, 41.496944], [-8.804699, 41.482068], [-8.798552, 41.474753], [-8.80154, 41.446836], [-8.806115, 41.43713], [-8.807354, 41.425915], [-8.811189, 41.415392], [-8.781322, 41.406501], [-8.745461, 41.398542], [-8.67375, 41.385415], [-8.625939, 41.380195], [-8.590133, 41.368583], [-8.578188, 41.366725], [-8.566232, 41.366707], [-8.554263, 41.368433], [-8.530289, 41.376716], [-8.466863, 41.410626], [-8.374196, 41.4424], [-8.338176, 41.453068], [-8.326153, 41.457898], [-8.31763, 41.463883], [-8.310325, 41.472846], [-8.307646, 41.481838], [-8.308221, 41.490849], [-8.311577, 41.499876], [-8.325546, 41.516509], [-8.38349, 41.554328], [-8.388675, 41.563363], [-8.379554, 41.590336], [-8.379992, 41.608353], [-8.390192, 41.626422], [-8.427678, 41.662643], [-8.432118, 41.671672], [-8.430189, 41.68067], [-8.414891, 41.6896], [-8.393226, 41.698495], [-8.378652, 41.707424], [-8.371814, 41.716394], [-8.3691, 41.725386], [-8.369969, 41.732603], [-8.374122, 41.734845], [-8.384922, 41.73032], [-8.387032, 41.731891], [-8.389902, 41.730984], [-8.387282, 41.725485], [-8.387978, 41.716481], [-8.394522, 41.707509], [-8.407758, 41.700233], [-8.419805, 41.69707], [-8.431826, 41.696642], [-8.443821, 41.699314], [-8.449388, 41.703078], [-8.453868, 41.697961], [-8.453255, 41.695487], [-8.461659, 41.694563], [-8.482012, 41.682123], [-8.484371, 41.674238], [-8.49308, 41.674886], [-8.499963, 41.671038], [-8.50927, 41.671233], [-8.51018, 41.672806], [-8.511967, 41.670324], [-8.509856, 41.668755], [-8.522103, 41.658811], [-8.525706, 41.659023], [-8.527769, 41.652714], [-8.534066, 41.652017], [-8.537355, 41.64998], [-8.537634, 41.646602], [-8.543876, 41.637352], [-8.543855, 41.633976], [-8.536342, 41.631977], [-8.535128, 41.62973], [-8.543431, 41.61462], [-8.554533, 41.615255], [-8.557244, 41.617046], [-8.562639, 41.61635], [-8.568056, 41.619031], [-8.570735, 41.616095], [-8.577321, 41.614269], [-8.581231, 41.615829], [-8.585766, 41.620988], [-8.591462, 41.620515], [-8.596534, 41.616668], [-8.601628, 41.615972], [-8.603996, 41.611686], [-8.613256, 41.606696], [-8.619881, 41.610269], [-8.621338, 41.604636], [-8.628833, 41.604378], [-8.636302, 41.600744], [-8.64075, 41.594422], [-8.645536, 41.593051], [-8.646744, 41.594171], [-8.649125, 41.591909], [-8.656622, 41.5921], [-8.660788, 41.588255], [-8.663794, 41.589141], [-8.665265, 41.585758], [-8.66948, 41.587989], [-8.684455, 41.586117], [-8.685608, 41.58071], [-8.697261, 41.576376], [-8.701703, 41.570277], [-8.707704, 41.570923], [-8.712485, 41.569323], [-8.716422, 41.573805], [-8.720316, 41.57356], [-8.725151, 41.577811], [-8.726633, 41.576003], [-8.734424, 41.575737], [-8.736564, 41.580228], [-8.738354, 41.579318], [-8.740778, 41.582006], [-8.74467, 41.581535], [-8.750711, 41.58623], [-8.756374, 41.582823], [-8.75635, 41.580347], [-8.762327, 41.578514], [-8.764443, 41.580303], [-8.767441, 41.580286], [-8.769874, 41.583874], [-8.768997, 41.58613], [-8.773228, 41.589482], [-8.774165, 41.593303], [-8.78556, 41.593464], [-8.797327, 41.600599], [-8.804218, 41.600109], [-8.80456, 41.604158], [-8.809434, 41.611332], [-8.818856, 41.610704], [-8.828659, 41.60393]], [[-8.480172, 41.662555], [-8.468138, 41.665232], [-8.456134, 41.664387], [-8.444152, 41.660878], [-8.432196, 41.654577], [-8.420266, 41.645716], [-8.4105, 41.635535], [-8.405056, 41.6265], [-8.403291, 41.617483], [-8.405725, 41.608489], [-8.408635, 41.604458], [-8.420718, 41.595232], [-8.432745, 41.591971], [-8.444749, 41.591394], [-8.456736, 41.592693], [-8.468703, 41.596513], [-8.480646, 41.603504], [-8.496586, 41.61793], [-8.501657, 41.626959], [-8.503101, 41.635973], [-8.501314, 41.644972], [-8.492234, 41.656099], [-8.480172, 41.662555]], [[-8.540647, 41.603654], [-8.528648, 41.603548], [-8.516665, 41.60113], [-8.504702, 41.596289], [-8.49603, 41.590906], [-8.480858, 41.57705], [-8.469169, 41.57277], [-8.444927, 41.570542], [-8.416361, 41.563507], [-8.405897, 41.554446], [-8.409124, 41.550779], [-8.410315, 41.545462], [-8.418759, 41.536497], [-8.433304, 41.528002], [-8.445323, 41.524287], [-8.457313, 41.523726], [-8.469265, 41.527839], [-8.488521, 41.536829], [-8.49314, 41.54035], [-8.505112, 41.54255], [-8.52908, 41.544], [-8.541043, 41.54776], [-8.552756, 41.555111], [-8.561183, 41.564151], [-8.565568, 41.573175], [-8.567135, 41.582188], [-8.564487, 41.591185], [-8.554252, 41.600153], [-8.540647, 41.603654]], [[-8.697097, 41.50885], [-8.685098, 41.512066], [-8.673113, 41.512439], [-8.661142, 41.509916], [-8.649182, 41.505626], [-8.62903, 41.492331], [-8.622687, 41.483303], [-8.620346, 41.474287], [-8.622536, 41.465287], [-8.629503, 41.456302], [-8.637505, 41.450851], [-8.649506, 41.445627], [-8.66149, 41.443097], [-8.673463, 41.442754], [-8.685425, 41.444505], [-8.694313, 41.447485], [-8.709407, 41.456532], [-8.716932, 41.465558], [-8.720107, 41.474573], [-8.720138, 41.483581], [-8.716975, 41.492581], [-8.709264, 41.501569], [-8.697097, 41.50885]], [[-8.445472, 41.506735], [-8.421452, 41.512986], [-8.40947, 41.512718], [-8.397519, 41.509209], [-8.384285, 41.500288], [-8.377166, 41.491243], [-8.375788, 41.482228], [-8.377868, 41.473232], [-8.384295, 41.464259], [-8.394725, 41.455307], [-8.410057, 41.448085], [-8.422053, 41.445306], [-8.434032, 41.444439], [-8.445992, 41.445725], [-8.457933, 41.449396], [-8.46824, 41.45567], [-8.47551, 41.464711], [-8.476627, 41.473723], [-8.472931, 41.482714], [-8.465795, 41.491688], [-8.445472, 41.506735]], [[-8.354028, 41.482108], [-8.354518, 41.491118], [-8.349742, 41.493745], [-8.337758, 41.494158], [-8.333954, 41.491], [-8.334604, 41.481997], [-8.337907, 41.479529], [-8.349879, 41.480035], [-8.354028, 41.482108]], [[-8.565517, 41.47393], [-8.553526, 41.476174], [-8.541561, 41.474399], [-8.52687, 41.464933], [-8.52336, 41.455912], [-8.526219, 41.446916], [-8.541828, 41.436495], [-8.553807, 41.435182], [-8.565758, 41.437818], [-8.578052, 41.447118], [-8.58163, 41.456138], [-8.578225, 41.465133], [-8.565517, 41.47393]]], [[[-7.886789, 41.757753], [-7.88256, 41.748705], [-7.878168, 41.745292], [-7.866202, 41.741873], [-7.854154, 41.743092], [-7.84285, 41.748312], [-7.836422, 41.757254], [-7.839171, 41.766289], [-7.841677, 41.76816], [-7.853599, 41.774277], [-7.865617, 41.775103], [-7.877717, 41.771224], [-7.883763, 41.766731], [-7.886789, 41.757753]], [[-7.872912, 41.757618], [-7.865764, 41.766749], [-7.85298, 41.757421], [-7.86602, 41.75221], [-7.872912, 41.757618]]], [[[-8.107577, 41.680147], [-8.108779, 41.678627], [-8.105106, 41.669591], [-8.095785, 41.664225], [-8.083766, 41.664723], [-8.077117, 41.66937], [-8.072818, 41.678343], [-8.078743, 41.687397], [-8.083398, 41.690698], [-8.095402, 41.691594], [-8.102278, 41.687584], [-8.107577, 41.680147]], [[-8.095628, 41.675429], [-8.098107, 41.678544], [-8.095545, 41.681346], [-8.083542, 41.68054], [-8.081939, 41.678416], [-8.083604, 41.676156], [-8.095628, 41.675429]]], [[[-8.491114, 41.226293], [-8.497932, 41.23962], [-8.505074, 41.248659], [-8.519181, 41.261065], [-8.542969, 41.273591], [-8.566812, 41.279077], [-8.590703, 41.277652], [-8.66248, 41.258235], [-8.698289, 41.251449], [-8.734116, 41.246573], [-8.803488, 41.240631], [-8.799695, 41.14406], [-8.779455, 41.144512], [-8.787309, 41.159447], [-8.789388, 41.177466], [-8.787691, 41.186471], [-8.777963, 41.204469], [-8.768842, 41.213459], [-8.755825, 41.22244], [-8.735536, 41.231403], [-8.710285, 41.237928], [-8.686404, 41.240793], [-8.667717, 41.240235], [-8.650623, 41.236857], [-8.638483, 41.231139], [-8.628017, 41.222098], [-8.621528, 41.213069], [-8.614346, 41.195029], [-8.610792, 41.175436], [-8.608583, 41.174095], [-8.609164, 41.172066], [-8.604942, 41.164881], [-8.59422, 41.165149], [-8.589174, 41.167645], [-8.589194, 41.170572], [-8.583263, 41.174422], [-8.582094, 41.177803], [-8.578825, 41.178941], [-8.581296, 41.191762], [-8.575958, 41.195609], [-8.576894, 41.201908], [-8.574515, 41.202593], [-8.57423, 41.20462], [-8.567971, 41.204644], [-8.565895, 41.206227], [-8.567697, 41.208246], [-8.566512, 41.209376], [-8.559636, 41.206251], [-8.554271, 41.20627], [-8.549521, 41.209214], [-8.544157, 41.209458], [-8.54238, 41.211265], [-8.532257, 41.213102], [-8.52653, 41.202542], [-8.523236, 41.200077], [-8.518471, 41.200543], [-8.51163, 41.203042], [-8.510456, 41.206197], [-8.505693, 41.207113], [-8.504239, 41.213646], [-8.500076, 41.21546], [-8.50308, 41.219502], [-8.502204, 41.222656], [-8.495642, 41.222227], [-8.491114, 41.226293]]]]}}, {"id": "5", "type": "Feature", "properties": {"fill": "#a3a3a3", "value_min": -0.75, "value_max": -0.5}, "geometry": {"type": "MultiPolygon", "coordinates": [[[[-8.828659, 41.60393], [-8.818856, 41.610704], [-8.828644, 41.609656], [-8.828659, 41.60393]]], [[[-8.369969, 41.732603], [-8.3691, 41.725386], [-8.371814, 41.716394], [-8.378652, 41.707424], [-8.393226, 41.698495], [-8.414891, 41.6896], [-8.430189, 41.68067], [-8.432118, 41.671672], [-8.427678, 41.662643], [-8.390192, 41.626422], [-8.379992, 41.608353], [-8.379554, 41.590336], [-8.388675, 41.563363], [-8.38349, 41.554328], [-8.325546, 41.516509], [-8.311577, 41.499876], [-8.308221, 41.490849], [-8.307646, 41.481838], [-8.310325, 41.472846], [-8.31763, 41.463883], [-8.326153, 41.457898], [-8.338176, 41.453068], [-8.374196, 41.4424], [-8.466863, 41.410626], [-8.530289, 41.376716], [-8.554263, 41.368433], [-8.566232, 41.366707], [-8.578188, 41.366725], [-8.590133, 41.368583], [-8.625939, 41.380195], [-8.67375, 41.385415], [-8.745461, 41.398542], [-8.781322, 41.406501], [-8.811189, 41.415392], [-8.803488, 41.240631], [-8.734116, 41.246573], [-8.698289, 41.251449], [-8.66248, 41.258235], [-8.590703, 41.277652], [-8.566812, 41.279077], [-8.542969, 41.273591], [-8.519181, 41.261065], [-8.505074, 41.248659], [-8.497932, 41.23962], [-8.491114, 41.226293], [-8.487935, 41.230354], [-8.490331, 41.232373], [-8.489156, 41.235528], [-8.486181, 41.236888], [-8.484411, 41.240495], [-8.476346, 41.237818], [-8.475756, 41.23917], [-8.470986, 41.23941], [-8.471604, 41.243459], [-8.469227, 41.245267], [-8.463258, 41.244384], [-8.459989, 41.246644], [-8.454323, 41.246886], [-8.455541, 41.251834], [-8.452276, 41.25522], [-8.449891, 41.255452], [-8.449304, 41.257479], [-8.447812, 41.257258], [-8.449028, 41.261982], [-8.439785, 41.262907], [-8.438023, 41.268989], [-8.434745, 41.269673], [-8.432691, 41.277107], [-8.427032, 41.279372], [-8.429143, 41.284319], [-8.426171, 41.287028], [-8.426485, 41.290394], [-8.443152, 41.31143], [-8.451572, 41.329486], [-8.453655, 41.338503], [-8.453583, 41.356518], [-8.451371, 41.365515], [-8.442091, 41.383486], [-8.423592, 41.40141], [-8.398389, 41.415186], [-8.374382, 41.423043], [-8.32643, 41.431142], [-8.308462, 41.436805], [-8.294423, 41.445728], [-8.287059, 41.45469], [-8.283922, 41.463678], [-8.28576, 41.481704], [-8.29613, 41.517797], [-8.297137, 41.535818], [-8.293504, 41.562818], [-8.293171, 41.58083], [-8.295174, 41.58985], [-8.300665, 41.601186], [-8.31252, 41.614815], [-8.324447, 41.622], [-8.337214, 41.626129], [-8.372361, 41.632448], [-8.396273, 41.643209], [-8.408765, 41.65354], [-8.415388, 41.662581], [-8.416952, 41.671597], [-8.411729, 41.680577], [-8.395838, 41.68973], [-8.347602, 41.706524], [-8.33909, 41.716211], [-8.33853, 41.734221], [-8.343971, 41.762364], [-8.349267, 41.760103], [-8.352557, 41.755145], [-8.34982, 41.745922], [-8.349814, 41.744122], [-8.352516, 41.743441], [-8.352203, 41.739616], [-8.357897, 41.735103], [-8.362407, 41.735994], [-8.368703, 41.73193], [-8.369969, 41.732603]], [[-8.733727, 41.342308], [-8.721776, 41.341928], [-8.6979, 41.335718], [-8.675439, 41.321327], [-8.667078, 41.312295], [-8.663052, 41.303276], [-8.662545, 41.294267], [-8.665543, 41.285268], [-8.674296, 41.275842], [-8.68627, 41.268716], [-8.698229, 41.264482], [-8.710178, 41.262049], [-8.734056, 41.26141], [-8.757912, 41.26663], [-8.775728, 41.276527], [-8.78376, 41.28555], [-8.788011, 41.294566], [-8.78891, 41.303576], [-8.786826, 41.312579], [-8.781205, 41.321577], [-8.771317, 41.330565], [-8.75765, 41.337531], [-8.745685, 41.340858], [-8.733727, 41.342308]]], [[[-7.730849, 41.819628], [-7.756545, 41.815561], [-7.771706, 41.810621], [-7.785801, 41.801764], [-7.805322, 41.782298], [-7.817397, 41.780081], [-7.841411, 41.782951], [-7.86548, 41.78284], [-7.877543, 41.78116], [-7.893797, 41.775835], [-7.901346, 41.7669], [-7.907697, 41.73994], [-7.922596, 41.722067], [-7.923545, 41.713069], [-7.918442, 41.704014], [-7.914992, 41.701109], [-7.90304, 41.697192], [-7.890979, 41.699737], [-7.879724, 41.71265], [-7.876095, 41.721622], [-7.866412, 41.72994], [-7.806088, 41.741019], [-7.794079, 41.74013], [-7.762976, 41.726294], [-7.762933, 41.733839], [-7.759307, 41.737203], [-7.759597, 41.739005], [-7.75689, 41.739446], [-7.758687, 41.740577], [-7.757758, 41.745301], [-7.748417, 41.749321], [-7.747786, 41.754496], [-7.743305, 41.757632], [-7.760099, 41.765463], [-7.767036, 41.774544], [-7.768442, 41.783566], [-7.765077, 41.792537], [-7.754088, 41.801425], [-7.744718, 41.804709], [-7.732659, 41.805768], [-7.72703, 41.804882], [-7.728171, 41.814974], [-7.730849, 41.819628]], [[-7.886789, 41.757753], [-7.883763, 41.766731], [-7.877717, 41.771224], [-7.865617, 41.775103], [-7.853599, 41.774277], [-7.841677, 41.76816], [-7.839171, 41.766289], [-7.836422, 41.757254], [-7.84285, 41.748312], [-7.854154, 41.743092], [-7.866202, 41.741873], [-7.878168, 41.745292], [-7.88256, 41.748705], [-7.886789, 41.757753]]], [[[-7.953229, 41.785399], [-7.9497, 41.783842], [-7.937665, 41.783906], [-7.934585, 41.785227], [-7.933526, 41.794224], [-7.937444, 41.797288], [-7.949469, 41.797972], [-7.954744, 41.794419], [-7.953229, 41.785399]]], [[[-8.128702, 41.696794], [-8.131111, 41.678798], [-8.129464, 41.669779], [-8.121186, 41.660708], [-8.107954, 41.652809], [-8.096004, 41.648556], [-8.083978, 41.649802], [-8.071863, 41.657184], [-8.063851, 41.669263], [-8.062161, 41.678256], [-8.06697, 41.687302], [-8.083259, 41.700478], [-8.107191, 41.708044], [-8.119224, 41.70706], [-8.128702, 41.696794]], [[-8.107577, 41.680147], [-8.102278, 41.687584], [-8.095402, 41.691594], [-8.083398, 41.690698], [-8.078743, 41.687397], [-8.072818, 41.678343], [-8.077117, 41.66937], [-8.083766, 41.664723], [-8.095785, 41.664225], [-8.105106, 41.669591], [-8.108779, 41.678627], [-8.107577, 41.680147]]], [[[-8.09648, 41.614456], [-8.084516, 41.611803], [-8.081485, 41.615363], [-8.084409, 41.619363], [-8.096451, 41.61653], [-8.09648, 41.614456]]], [[[-8.540647, 41.603654], [-8.554252, 41.600153], [-8.564487, 41.591185], [-8.567135, 41.582188], [-8.565568, 41.573175], [-8.561183, 41.564151], [-8.552756, 41.555111], [-8.541043, 41.54776], [-8.52908, 41.544], [-8.505112, 41.54255], [-8.49314, 41.54035], [-8.488521, 41.536829], [-8.469265, 41.527839], [-8.457313, 41.523726], [-8.445323, 41.524287], [-8.433304, 41.528002], [-8.418759, 41.536497], [-8.410315, 41.545462], [-8.409124, 41.550779], [-8.405897, 41.554446], [-8.416361, 41.563507], [-8.444927, 41.570542], [-8.469169, 41.57277], [-8.480858, 41.57705], [-8.49603, 41.590906], [-8.504702, 41.596289], [-8.516665, 41.60113], [-8.528648, 41.603548], [-8.540647, 41.603654]]]]}}, {"id": "6", "type": "Feature", "properties": {"fill": "#a3a3a3", "value_min": -0.5, "value_max": -0.25}, "geometry": {"type": "MultiPolygon", "coordinates": [[[[-8.343971, 41.762364], [-8.33853, 41.734221], [-8.33909, 41.716211], [-8.347602, 41.706524], [-8.395838, 41.68973], [-8.411729, 41.680577], [-8.416952, 41.671597], [-8.415388, 41.662581], [-8.408765, 41.65354], [-8.396273, 41.643209], [-8.372361, 41.632448], [-8.337214, 41.626129], [-8.324447, 41.622], [-8.31252, 41.614815], [-8.300665, 41.601186], [-8.295174, 41.58985], [-8.293171, 41.58083], [-8.293504, 41.562818], [-8.297137, 41.535818], [-8.29613, 41.517797], [-8.28576, 41.481704], [-8.283922, 41.463678], [-8.287059, 41.45469], [-8.294423, 41.445728], [-8.308462, 41.436805], [-8.32643, 41.431142], [-8.374382, 41.423043], [-8.398389, 41.415186], [-8.423592, 41.40141], [-8.442091, 41.383486], [-8.451371, 41.365515], [-8.453583, 41.356518], [-8.453655, 41.338503], [-8.451572, 41.329486], [-8.443152, 41.31143], [-8.426485, 41.290394], [-8.425013, 41.294909], [-8.422037, 41.296942], [-8.421756, 41.30077], [-8.416982, 41.301232], [-8.407744, 41.304856], [-8.406262, 41.307335], [-8.402979, 41.307568], [-8.401801, 41.311398], [-8.399712, 41.311628], [-8.400316, 41.313202], [-8.396738, 41.314336], [-8.398835, 41.316131], [-8.39132, 41.324027], [-8.399508, 41.329226], [-8.411025, 41.340882], [-8.418477, 41.356346], [-8.419378, 41.365358], [-8.417985, 41.374359], [-8.413899, 41.383346], [-8.406618, 41.392316], [-8.398542, 41.398561], [-8.386518, 41.405074], [-8.362534, 41.410864], [-8.338609, 41.410447], [-8.302779, 41.404364], [-8.290804, 41.40541], [-8.228178, 41.436295], [-8.212978, 41.445199], [-8.207658, 41.45417], [-8.209384, 41.463189], [-8.218257, 41.469064], [-8.242134, 41.47547], [-8.254048, 41.480929], [-8.266319, 41.490589], [-8.271967, 41.499632], [-8.274151, 41.508653], [-8.272678, 41.517651], [-8.265492, 41.528218], [-8.253424, 41.535301], [-8.2414, 41.538367], [-8.229413, 41.538276], [-8.217091, 41.535301], [-8.181724, 41.517325], [-8.145752, 41.518751], [-8.109905, 41.510938], [-8.0915, 41.509779], [-8.089398, 41.519468], [-8.090594, 41.522169], [-8.093588, 41.52307], [-8.091786, 41.531848], [-8.097775, 41.536127], [-8.097774, 41.537927], [-8.106759, 41.543557], [-8.101666, 41.542655], [-8.094175, 41.544904], [-8.087885, 41.542876], [-8.083389, 41.5449], [-8.080687, 41.551651], [-8.074097, 41.549848], [-8.073494, 41.553449], [-8.075891, 41.554575], [-8.076188, 41.557276], [-8.079783, 41.558403], [-8.081576, 41.565157], [-8.078879, 41.56493], [-8.075279, 41.568305], [-8.073182, 41.568079], [-8.069283, 41.570553], [-8.068081, 41.573478], [-8.056684, 41.579549], [-8.052181, 41.584498], [-8.052777, 41.587649], [-8.048277, 41.590122], [-8.045573, 41.594397], [-8.031467, 41.602938], [-8.02367, 41.603156], [-8.019174, 41.601802], [-8.015872, 41.603824], [-8.010473, 41.604494], [-8.005971, 41.60629], [-8.003562, 41.611239], [-7.99936, 41.61281], [-7.998462, 41.612359], [-7.999669, 41.608759], [-7.996976, 41.605829], [-7.996684, 41.602003], [-7.984685, 41.603564], [-7.982292, 41.60086], [-7.975689, 41.603552], [-7.974482, 41.606701], [-7.970882, 41.607147], [-7.969091, 41.603768], [-7.965796, 41.602413], [-7.9541, 41.602846], [-7.952606, 41.600592], [-7.947808, 41.60081], [-7.945413, 41.599456], [-7.942725, 41.595625], [-7.936132, 41.594488], [-7.93791, 41.601694], [-7.937004, 41.603718], [-7.931604, 41.604384], [-7.930979, 41.612711], [-7.925556, 41.620354], [-7.920755, 41.620796], [-7.917748, 41.623041], [-7.915933, 41.627764], [-7.913229, 41.628885], [-7.912613, 41.63361], [-7.906014, 41.633147], [-7.906884, 41.641927], [-7.897869, 41.645511], [-7.89696, 41.647985], [-7.892759, 41.647976], [-7.892145, 41.651576], [-7.902319, 41.659925], [-7.899913, 41.66127], [-7.900198, 41.665547], [-7.898396, 41.665769], [-7.896885, 41.668692], [-7.883969, 41.67069], [-7.879755, 41.673607], [-7.877044, 41.676077], [-7.876723, 41.681253], [-7.873401, 41.686198], [-7.868896, 41.686413], [-7.867408, 41.683258], [-7.864403, 41.683701], [-7.864096, 41.685276], [-7.860493, 41.685268], [-7.859285, 41.687015], [-7.867079, 41.691948], [-7.868494, 41.694526], [-7.870554, 41.703554], [-7.866695, 41.713808], [-7.854549, 41.720883], [-7.842529, 41.720754], [-7.830611, 41.715045], [-7.82649, 41.712119], [-7.825251, 41.709027], [-7.818621, 41.713522], [-7.815291, 41.718689], [-7.808986, 41.717996], [-7.808396, 41.715744], [-7.804499, 41.714158], [-7.79939, 41.714593], [-7.79788, 41.716164], [-7.796383, 41.71526], [-7.790966, 41.717044], [-7.789449, 41.719966], [-7.78464, 41.720402], [-7.78252, 41.723546], [-7.776204, 41.724652], [-7.773786, 41.727346], [-7.766599, 41.723047], [-7.762976, 41.726294], [-7.794079, 41.74013], [-7.806088, 41.741019], [-7.866412, 41.72994], [-7.876095, 41.721622], [-7.879724, 41.71265], [-7.890979, 41.699737], [-7.90304, 41.697192], [-7.914992, 41.701109], [-7.918442, 41.704014], [-7.923545, 41.713069], [-7.922596, 41.722067], [-7.907697, 41.73994], [-7.901346, 41.7669], [-7.893797, 41.775835], [-7.877543, 41.78116], [-7.86548, 41.78284], [-7.841411, 41.782951], [-7.817397, 41.780081], [-7.805322, 41.782298], [-7.785801, 41.801764], [-7.771706, 41.810621], [-7.756545, 41.815561], [-7.730849, 41.819628], [-7.73594, 41.823554], [-7.743152, 41.825154], [-7.742839, 41.827178], [-7.738919, 41.828515], [-7.740953, 41.832123], [-7.768326, 41.829103], [-7.804438, 41.829899], [-7.816637, 41.821391], [-7.82302, 41.811159], [-7.831771, 41.802241], [-7.841155, 41.797197], [-7.850177, 41.79342], [-7.865343, 41.790624], [-7.877388, 41.79009], [-7.889395, 41.791683], [-7.895391, 41.793864], [-7.907174, 41.802983], [-7.913121, 41.812105], [-7.924957, 41.824245], [-7.949053, 41.823425], [-7.961075, 41.824614], [-7.976394, 41.830641], [-7.983641, 41.839712], [-7.984967, 41.848731], [-7.982014, 41.857712], [-7.972428, 41.867616], [-7.956363, 41.87459], [-7.960576, 41.875647], [-7.962086, 41.874074], [-7.973828, 41.875216], [-7.987996, 41.869157], [-7.990123, 41.860157], [-7.995547, 41.858138], [-7.994047, 41.855211], [-7.996162, 41.851837], [-8.003089, 41.850494], [-8.005804, 41.847346], [-8.007928, 41.838796], [-8.012753, 41.833624], [-8.013062, 41.829348], [-8.017873, 41.831379], [-8.02901, 41.829589], [-8.037134, 41.831171], [-8.041351, 41.828023], [-8.041054, 41.825097], [-8.045268, 41.824425], [-8.047679, 41.821276], [-8.057314, 41.815656], [-8.06664, 41.817012], [-8.072961, 41.813414], [-8.078678, 41.813417], [-8.082892, 41.810493], [-8.091013, 41.812521], [-8.093421, 41.811397], [-8.093723, 41.808471], [-8.101845, 41.809824], [-8.104853, 41.81185], [-8.115984, 41.812302], [-8.123807, 41.808702], [-8.138247, 41.808477], [-8.139751, 41.813203], [-8.14276, 41.812978], [-8.144866, 41.815228], [-8.149078, 41.814777], [-8.153291, 41.817703], [-8.158106, 41.818377], [-8.165326, 41.81815], [-8.173744, 41.808019], [-8.177655, 41.808242], [-8.183676, 41.812741], [-8.190291, 41.809587], [-8.197158, 41.814129], [-8.201063, 41.808724], [-8.204973, 41.807372], [-8.205872, 41.804445], [-8.213692, 41.803765], [-8.217598, 41.80016], [-8.217589, 41.793634], [-8.224207, 41.794303], [-8.229917, 41.791598], [-8.240744, 41.791588], [-8.24074, 41.789338], [-8.244347, 41.787984], [-8.245546, 41.785731], [-8.251257, 41.784375], [-8.251845, 41.777172], [-8.257551, 41.773564], [-8.261762, 41.774235], [-8.271366, 41.766346], [-8.280681, 41.764083], [-8.284038, 41.761109], [-8.284931, 41.757507], [-8.305674, 41.758152], [-8.311096, 41.762195], [-8.318308, 41.761283], [-8.325233, 41.765098], [-8.328234, 41.763292], [-8.336653, 41.763728], [-8.341756, 41.761468], [-8.343971, 41.762364]], [[-7.953229, 41.785399], [-7.954744, 41.794419], [-7.949469, 41.797972], [-7.937444, 41.797288], [-7.933526, 41.794224], [-7.934585, 41.785227], [-7.937665, 41.783906], [-7.9497, 41.783842], [-7.953229, 41.785399]], [[-8.178211, 41.794243], [-8.166173, 41.794393], [-8.154162, 41.792508], [-8.14219, 41.787716], [-8.130276, 41.778806], [-8.123476, 41.76881], [-8.121862, 41.759791], [-8.123412, 41.750796], [-8.13674, 41.732883], [-8.162299, 41.715058], [-8.16728, 41.708828], [-8.173002, 41.688114], [-8.177895, 41.679142], [-8.186966, 41.6702], [-8.191848, 41.666635], [-8.203913, 41.662329], [-8.215937, 41.661269], [-8.227931, 41.662711], [-8.239887, 41.667454], [-8.253614, 41.679659], [-8.258287, 41.688696], [-8.259564, 41.697712], [-8.258114, 41.706709], [-8.253865, 41.715689], [-8.235779, 41.742591], [-8.222911, 41.769526], [-8.214838, 41.778478], [-8.202372, 41.787053], [-8.190275, 41.792027], [-8.178211, 41.794243]], [[-7.937934, 41.767561], [-7.93171, 41.75818], [-7.938228, 41.749754], [-7.950298, 41.747131], [-7.957658, 41.749411], [-7.96383, 41.758474], [-7.954393, 41.767395], [-7.949952, 41.768387], [-7.937934, 41.767561]], [[-8.010205, 41.761987], [-7.998231, 41.758423], [-7.982746, 41.749636], [-7.97737, 41.740582], [-7.976878, 41.73157], [-7.979015, 41.722582], [-7.98671, 41.704637], [-7.985663, 41.69562], [-7.969524, 41.668456], [-7.96729, 41.659429], [-7.967492, 41.650423], [-7.970659, 41.641445], [-7.978332, 41.632506], [-7.988274, 41.626324], [-8.000328, 41.623087], [-8.012338, 41.622701], [-8.024307, 41.625007], [-8.036236, 41.630084], [-8.049723, 41.642126], [-8.053854, 41.651167], [-8.053514, 41.660171], [-8.045933, 41.678123], [-8.048637, 41.687152], [-8.059344, 41.692094], [-8.064275, 41.696287], [-8.071592, 41.705354], [-8.072159, 41.714365], [-8.067734, 41.723336], [-8.046458, 41.750913], [-8.034196, 41.759087], [-8.022229, 41.762336], [-8.010205, 41.761987]], [[-8.128702, 41.696794], [-8.119224, 41.70706], [-8.107191, 41.708044], [-8.083259, 41.700478], [-8.06697, 41.687302], [-8.062161, 41.678256], [-8.063851, 41.669263], [-8.071863, 41.657184], [-8.083978, 41.649802], [-8.096004, 41.648556], [-8.107954, 41.652809], [-8.121186, 41.660708], [-8.129464, 41.669779], [-8.131111, 41.678798], [-8.128702, 41.696794]], [[-8.383857, 41.685989], [-8.371834, 41.686757], [-8.359846, 41.683924], [-8.352883, 41.680261], [-8.346397, 41.671217], [-8.346364, 41.66221], [-8.352501, 41.653237], [-8.360194, 41.648845], [-8.372231, 41.645919], [-8.38423, 41.646919], [-8.396189, 41.652151], [-8.405086, 41.662529], [-8.405525, 41.671538], [-8.397926, 41.680506], [-8.383857, 41.685989]], [[-8.09648, 41.614456], [-8.096451, 41.61653], [-8.084409, 41.619363], [-8.081485, 41.615363], [-8.084516, 41.611803], [-8.09648, 41.614456]]], [[[-7.918103, 41.879086], [-7.918103, 41.879086], [-7.917183, 41.879176], [-7.918103, 41.879086]]], [[[-7.915994, 41.879292], [-7.915994, 41.879292], [-7.915391, 41.879351], [-7.915994, 41.879292]]], [[[-8.288361, 41.312971], [-8.296421, 41.312874], [-8.295817, 41.310022], [-8.292241, 41.312504], [-8.288361, 41.312971]]], [[[-8.733727, 41.342308], [-8.745685, 41.340858], [-8.75765, 41.337531], [-8.771317, 41.330565], [-8.781205, 41.321577], [-8.786826, 41.312579], [-8.78891, 41.303576], [-8.788011, 41.294566], [-8.78376, 41.28555], [-8.775728, 41.276527], [-8.757912, 41.26663], [-8.734056, 41.26141], [-8.710178, 41.262049], [-8.698229, 41.264482], [-8.68627, 41.268716], [-8.674296, 41.275842], [-8.665543, 41.285268], [-8.662545, 41.294267], [-8.663052, 41.303276], [-8.667078, 41.312295], [-8.675439, 41.321327], [-8.6979, 41.335718], [-8.721776, 41.341928], [-8.733727, 41.342308]], [[-8.721881, 41.317321], [-8.709937, 41.31645], [-8.7002, 41.312386], [-8.691426, 41.303355], [-8.689798, 41.294343], [-8.694262, 41.285348], [-8.710112, 41.276961], [-8.722055, 41.27634], [-8.73398, 41.280169], [-8.741722, 41.285464], [-8.746538, 41.294482], [-8.745289, 41.303487], [-8.736932, 41.312476], [-8.721881, 41.317321]]]]}}, {"id": "7", "type": "Feature", "properties": {"fill": "#a3a3a3", "value_min": -0.25, "value_max": -0.0}, "geometry": {"type": "MultiPolygon", "coordinates": [[[[-7.915391, 41.879351], [-7.915994, 41.879292], [-7.917183, 41.879176], [-7.918103, 41.879086], [-7.921118, 41.877833], [-7.928044, 41.87807], [-7.935283, 41.874707], [-7.937389, 41.87516], [-7.941618, 41.870891], [-7.951254, 41.871132], [-7.954864, 41.872262], [-7.956363, 41.87459], [-7.972428, 41.867616], [-7.982014, 41.857712], [-7.984967, 41.848731], [-7.983641, 41.839712], [-7.976394, 41.830641], [-7.961075, 41.824614], [-7.949053, 41.823425], [-7.924957, 41.824245], [-7.913121, 41.812105], [-7.907174, 41.802983], [-7.895391, 41.793864], [-7.889395, 41.791683], [-7.877388, 41.79009], [-7.865343, 41.790624], [-7.850177, 41.79342], [-7.841155, 41.797197], [-7.831771, 41.802241], [-7.82302, 41.811159], [-7.816637, 41.821391], [-7.804438, 41.829899], [-7.768326, 41.829103], [-7.740953, 41.832123], [-7.74729, 41.837772], [-7.746349, 41.84407], [-7.749845, 41.846783], [-7.755967, 41.84544], [-7.767973, 41.847474], [-7.778015, 41.855722], [-7.779585, 41.864745], [-7.773156, 41.873684], [-7.7674, 41.877325], [-7.755309, 41.879362], [-7.74332, 41.8762], [-7.739463, 41.873319], [-7.734878, 41.865638], [-7.734159, 41.868337], [-7.730228, 41.871024], [-7.729293, 41.875972], [-7.722351, 41.878424], [-7.720523, 41.881793], [-7.725335, 41.882935], [-7.726208, 41.887665], [-7.737044, 41.888828], [-7.737935, 41.890857], [-7.74246, 41.889747], [-7.742785, 41.885922], [-7.756022, 41.888441], [-7.758719, 41.890926], [-7.756592, 41.89407], [-7.758076, 41.897901], [-7.764097, 41.898595], [-7.779227, 41.886264], [-7.785257, 41.885157], [-7.788886, 41.882467], [-7.794007, 41.882257], [-7.796739, 41.878214], [-7.794349, 41.87438], [-7.797064, 41.873488], [-7.803381, 41.874857], [-7.804914, 41.869459], [-7.813032, 41.871958], [-7.814229, 41.873537], [-7.823863, 41.874013], [-7.825059, 41.875817], [-7.830479, 41.875831], [-7.830789, 41.874031], [-7.832894, 41.874712], [-7.83772, 41.872924], [-7.842528, 41.875187], [-7.841663, 41.866632], [-7.849515, 41.861475], [-7.858542, 41.862622], [-7.859456, 41.860148], [-7.864877, 41.859711], [-7.87033, 41.851395], [-7.873043, 41.850501], [-7.873367, 41.844875], [-7.879056, 41.85254], [-7.886268, 41.855932], [-7.888076, 41.855486], [-7.891675, 41.859094], [-7.900698, 41.861588], [-7.904318, 41.859795], [-7.907309, 41.865203], [-7.906095, 41.868126], [-7.910299, 41.871285], [-7.909985, 41.875111], [-7.915391, 41.879351]], [[-7.864626, 41.831252], [-7.852697, 41.824854], [-7.849274, 41.820431], [-7.848423, 41.811416], [-7.856159, 41.802487], [-7.865194, 41.799072], [-7.877233, 41.798967], [-7.886003, 41.80278], [-7.89265, 41.811851], [-7.891002, 41.820842], [-7.888843, 41.823639], [-7.876674, 41.830949], [-7.864626, 41.831252]]], [[[-7.743306, 41.849446], [-7.743306, 41.849446], [-7.743832, 41.849014], [-7.743306, 41.849446]]], [[[-7.743911, 41.848976], [-7.743911, 41.848976], [-7.744412, 41.848791], [-7.743911, 41.848976]]], [[[-8.178211, 41.794243], [-8.190275, 41.792027], [-8.202372, 41.787053], [-8.214838, 41.778478], [-8.222911, 41.769526], [-8.235779, 41.742591], [-8.253865, 41.715689], [-8.258114, 41.706709], [-8.259564, 41.697712], [-8.258287, 41.688696], [-8.253614, 41.679659], [-8.239887, 41.667454], [-8.227931, 41.662711], [-8.215937, 41.661269], [-8.203913, 41.662329], [-8.191848, 41.666635], [-8.186966, 41.6702], [-8.177895, 41.679142], [-8.173002, 41.688114], [-8.16728, 41.708828], [-8.162299, 41.715058], [-8.13674, 41.732883], [-8.123412, 41.750796], [-8.121862, 41.759791], [-8.123476, 41.76881], [-8.130276, 41.778806], [-8.14219, 41.787716], [-8.154162, 41.792508], [-8.166173, 41.794393], [-8.178211, 41.794243]], [[-8.166672, 41.755869], [-8.158797, 41.75106], [-8.155729, 41.742031], [-8.166972, 41.732658], [-8.178985, 41.733558], [-8.187152, 41.742257], [-8.183662, 41.751239], [-8.178716, 41.754644], [-8.166672, 41.755869]], [[-8.203378, 41.705744], [-8.196388, 41.697287], [-8.200951, 41.688312], [-8.203614, 41.686589], [-8.215629, 41.686631], [-8.218757, 41.688434], [-8.223218, 41.697472], [-8.215396, 41.705843], [-8.203378, 41.705744]]], [[[-7.937934, 41.767561], [-7.949952, 41.768387], [-7.954393, 41.767395], [-7.96383, 41.758474], [-7.957658, 41.749411], [-7.950298, 41.747131], [-7.938228, 41.749754], [-7.93171, 41.75818], [-7.937934, 41.767561]]], [[[-8.010205, 41.761987], [-8.022229, 41.762336], [-8.034196, 41.759087], [-8.046458, 41.750913], [-8.067734, 41.723336], [-8.072159, 41.714365], [-8.071592, 41.705354], [-8.064275, 41.696287], [-8.059344, 41.692094], [-8.048637, 41.687152], [-8.045933, 41.678123], [-8.053514, 41.660171], [-8.053854, 41.651167], [-8.049723, 41.642126], [-8.036236, 41.630084], [-8.024307, 41.625007], [-8.012338, 41.622701], [-8.000328, 41.623087], [-7.988274, 41.626324], [-7.978332, 41.632506], [-7.970659, 41.641445], [-7.967492, 41.650423], [-7.96729, 41.659429], [-7.969524, 41.668456], [-7.985663, 41.69562], [-7.98671, 41.704637], [-7.979015, 41.722582], [-7.976878, 41.73157], [-7.97737, 41.740582], [-7.982746, 41.749636], [-7.998231, 41.758423], [-8.010205, 41.761987]], [[-8.011627, 41.669242], [-8.005518, 41.659766], [-8.010188, 41.650799], [-8.023983, 41.646478], [-8.035819, 41.651017], [-8.039659, 41.660056], [-8.03568, 41.667372], [-8.023588, 41.672676], [-8.011627, 41.669242]]], [[[-7.825251, 41.709027], [-7.82649, 41.712119], [-7.830611, 41.715045], [-7.842529, 41.720754], [-7.854549, 41.720883], [-7.866695, 41.713808], [-7.870554, 41.703554], [-7.868494, 41.694526], [-7.867079, 41.691948], [-7.859285, 41.687015], [-7.857773, 41.689538], [-7.855076, 41.688181], [-7.852668, 41.689526], [-7.847538, 41.695365], [-7.837309, 41.699391], [-7.835792, 41.702763], [-7.839682, 41.705924], [-7.838465, 41.709522], [-7.832453, 41.710407], [-7.825251, 41.709027]]], [[[-8.383857, 41.685989], [-8.397926, 41.680506], [-8.405525, 41.671538], [-8.405086, 41.662529], [-8.396189, 41.652151], [-8.38423, 41.646919], [-8.372231, 41.645919], [-8.360194, 41.648845], [-8.352501, 41.653237], [-8.346364, 41.66221], [-8.346397, 41.671217], [-8.352883, 41.680261], [-8.359846, 41.683924], [-8.371834, 41.686757], [-8.383857, 41.685989]], [[-8.371948, 41.675007], [-8.367169, 41.671333], [-8.367072, 41.662326], [-8.37211, 41.658354], [-8.384138, 41.65656], [-8.393812, 41.66247], [-8.393703, 41.671476], [-8.383943, 41.676944], [-8.371948, 41.675007]]], [[[-8.0915, 41.509779], [-8.109905, 41.510938], [-8.145752, 41.518751], [-8.181724, 41.517325], [-8.217091, 41.535301], [-8.229413, 41.538276], [-8.2414, 41.538367], [-8.253424, 41.535301], [-8.265492, 41.528218], [-8.272678, 41.517651], [-8.274151, 41.508653], [-8.271967, 41.499632], [-8.266319, 41.490589], [-8.254048, 41.480929], [-8.242134, 41.47547], [-8.218257, 41.469064], [-8.209384, 41.463189], [-8.207658, 41.45417], [-8.212978, 41.445199], [-8.228178, 41.436295], [-8.290804, 41.40541], [-8.302779, 41.404364], [-8.338609, 41.410447], [-8.362534, 41.410864], [-8.386518, 41.405074], [-8.398542, 41.398561], [-8.406618, 41.392316], [-8.413899, 41.383346], [-8.417985, 41.374359], [-8.419378, 41.365358], [-8.418477, 41.356346], [-8.411025, 41.340882], [-8.399508, 41.329226], [-8.39132, 41.324027], [-8.386325, 41.323588], [-8.380382, 41.331254], [-8.375305, 41.33104], [-8.37201, 41.328346], [-8.361563, 41.329718], [-8.358276, 41.329049], [-8.357673, 41.327249], [-8.350207, 41.327264], [-8.346032, 41.328847], [-8.342462, 41.333131], [-8.333215, 41.336299], [-8.326363, 41.342163], [-8.324568, 41.341041], [-8.323376, 41.341943], [-8.320676, 41.338121], [-8.312604, 41.334983], [-8.313794, 41.333405], [-8.31139, 41.328007], [-8.307502, 41.325762], [-8.305116, 41.326891], [-8.303024, 41.325994], [-8.303615, 41.323742], [-8.301216, 41.319694], [-8.296431, 41.316774], [-8.296421, 41.312874], [-8.288361, 41.312971], [-8.284488, 41.316341], [-8.281801, 41.316569], [-8.279132, 41.324451], [-8.272266, 41.32536], [-8.265709, 41.331221], [-8.269004, 41.336169], [-8.263339, 41.340902], [-8.262751, 41.345405], [-8.256483, 41.347663], [-8.255889, 41.349689], [-8.249622, 41.353072], [-8.251123, 41.356897], [-8.248141, 41.360052], [-8.247533, 41.364554], [-8.25352, 41.37341], [-8.254041, 41.38242], [-8.249487, 41.391398], [-8.243048, 41.396827], [-8.231025, 41.402031], [-8.219052, 41.402846], [-8.207122, 41.400044], [-8.195029, 41.39103], [-8.191091, 41.381995], [-8.191796, 41.376077], [-8.169578, 41.377212], [-8.164499, 41.38059], [-8.152544, 41.375866], [-8.151049, 41.37339], [-8.145073, 41.374742], [-8.139694, 41.377894], [-8.133418, 41.374292], [-8.119672, 41.376768], [-8.119672, 41.378569], [-8.116683, 41.380144], [-8.117578, 41.386447], [-8.113992, 41.386896], [-8.112795, 41.390723], [-8.110105, 41.390947], [-8.108011, 41.393648], [-8.103827, 41.392972], [-8.105321, 41.394998], [-8.10263, 41.396123], [-8.10801, 41.398825], [-8.108606, 41.403102], [-8.104419, 41.406252], [-8.104119, 41.408728], [-8.101727, 41.409403], [-8.102025, 41.411204], [-8.092756, 41.411201], [-8.09126, 41.414352], [-8.079893, 41.41975], [-8.077503, 41.416597], [-8.070923, 41.41862], [-8.066739, 41.416142], [-8.061654, 41.417489], [-8.059852, 41.424916], [-8.055959, 41.429415], [-8.05745, 41.432793], [-8.056549, 41.436394], [-8.069999, 41.447206], [-8.068788, 41.462286], [-8.073872, 41.46499], [-8.074468, 41.468141], [-8.073564, 41.474668], [-8.066374, 41.482318], [-8.066069, 41.48817], [-8.072054, 41.490199], [-8.07175, 41.494925], [-8.078333, 41.49898], [-8.078332, 41.500331], [-8.093, 41.504613], [-8.0915, 41.509779]], [[-8.122061, 41.498135], [-8.110088, 41.497537], [-8.098168, 41.49314], [-8.091925, 41.489344], [-8.087113, 41.480299], [-8.088321, 41.471301], [-8.096551, 41.462359], [-8.11064, 41.457204], [-8.122607, 41.457632], [-8.134516, 41.462527], [-8.142975, 41.471721], [-8.144702, 41.480741], [-8.140788, 41.48972], [-8.134092, 41.494346], [-8.122061, 41.498135]], [[-8.362648, 41.399227], [-8.350692, 41.398556], [-8.332853, 41.391912], [-8.322926, 41.382846], [-8.31894, 41.373815], [-8.319087, 41.364809], [-8.323414, 41.355827], [-8.334002, 41.346881], [-8.351265, 41.340853], [-8.36322, 41.340539], [-8.375149, 41.342988], [-8.383411, 41.347156], [-8.393884, 41.356219], [-8.398205, 41.36525], [-8.398421, 41.374258], [-8.394688, 41.383246], [-8.386649, 41.391178], [-8.374631, 41.397052], [-8.362648, 41.399227]]], [[[-8.721881, 41.317321], [-8.736932, 41.312476], [-8.745289, 41.303487], [-8.746538, 41.294482], [-8.741722, 41.285464], [-8.73398, 41.280169], [-8.722055, 41.27634], [-8.710112, 41.276961], [-8.694262, 41.285348], [-8.689798, 41.294343], [-8.691426, 41.303355], [-8.7002, 41.312386], [-8.709937, 41.31645], [-8.721881, 41.317321]]]]}}, {"id": "8", "type": "Feature", "properties": {"fill": "#a3a3a3", "value_min": 0.0, "value_max": -0.25}, "geometry": {"type": "MultiPolygon", "coordinates": [[[[-7.734878, 41.865638], [-7.739463, 41.873319], [-7.74332, 41.8762], [-7.755309, 41.879362], [-7.7674, 41.877325], [-7.773156, 41.873684], [-7.779585, 41.864745], [-7.778015, 41.855722], [-7.767973, 41.847474], [-7.755967, 41.84544], [-7.749845, 41.846783], [-7.750532, 41.849261], [-7.744412, 41.848791], [-7.743911, 41.848976], [-7.743832, 41.849014], [-7.743306, 41.849446], [-7.746901, 41.8524], [-7.746881, 41.855776], [-7.739943, 41.858003], [-7.734878, 41.865638]]], [[[-7.864626, 41.831252], [-7.876674, 41.830949], [-7.888843, 41.823639], [-7.891002, 41.820842], [-7.89265, 41.811851], [-7.886003, 41.80278], [-7.877233, 41.798967], [-7.865194, 41.799072], [-7.856159, 41.802487], [-7.848423, 41.811416], [-7.849274, 41.820431], [-7.852697, 41.824854], [-7.864626, 41.831252]]], [[[-8.166672, 41.755869], [-8.178716, 41.754644], [-8.183662, 41.751239], [-8.187152, 41.742257], [-8.178985, 41.733558], [-8.166972, 41.732658], [-8.155729, 41.742031], [-8.158797, 41.75106], [-8.166672, 41.755869]]], [[[-8.203378, 41.705744], [-8.215396, 41.705843], [-8.223218, 41.697472], [-8.218757, 41.688434], [-8.215629, 41.686631], [-8.203614, 41.686589], [-8.200951, 41.688312], [-8.196388, 41.697287], [-8.203378, 41.705744]]], [[[-8.371948, 41.675007], [-8.383943, 41.676944], [-8.393703, 41.671476], [-8.393812, 41.66247], [-8.384138, 41.65656], [-8.37211, 41.658354], [-8.367072, 41.662326], [-8.367169, 41.671333], [-8.371948, 41.675007]]], [[[-8.011627, 41.669242], [-8.023588, 41.672676], [-8.03568, 41.667372], [-8.039659, 41.660056], [-8.035819, 41.651017], [-8.023983, 41.646478], [-8.010188, 41.650799], [-8.005518, 41.659766], [-8.011627, 41.669242]]], [[[-8.122061, 41.498135], [-8.134092, 41.494346], [-8.140788, 41.48972], [-8.144702, 41.480741], [-8.142975, 41.471721], [-8.134516, 41.462527], [-8.122607, 41.457632], [-8.11064, 41.457204], [-8.096551, 41.462359], [-8.088321, 41.471301], [-8.087113, 41.480299], [-8.091925, 41.489344], [-8.098168, 41.49314], [-8.110088, 41.497537], [-8.122061, 41.498135]]], [[[-8.191796, 41.376077], [-8.191091, 41.381995], [-8.195029, 41.39103], [-8.207122, 41.400044], [-8.219052, 41.402846], [-8.231025, 41.402031], [-8.243048, 41.396827], [-8.249487, 41.391398], [-8.254041, 41.38242], [-8.25352, 41.37341], [-8.247533, 41.364554], [-8.245461, 41.364781], [-8.244272, 41.368384], [-8.239197, 41.371315], [-8.232024, 41.369971], [-8.224854, 41.370878], [-8.21738, 41.368182], [-8.211712, 41.376065], [-8.200358, 41.377648], [-8.194677, 41.374275], [-8.191796, 41.376077]]], [[[-8.362648, 41.399227], [-8.374631, 41.397052], [-8.386649, 41.391178], [-8.394688, 41.383246], [-8.398421, 41.374258], [-8.398205, 41.36525], [-8.393884, 41.356219], [-8.383411, 41.347156], [-8.375149, 41.342988], [-8.36322, 41.340539], [-8.351265, 41.340853], [-8.334002, 41.346881], [-8.323414, 41.355827], [-8.319087, 41.364809], [-8.31894, 41.373815], [-8.322926, 41.382846], [-8.332853, 41.391912], [-8.350692, 41.398556], [-8.362648, 41.399227]], [[-8.380202, 41.374162], [-8.37528, 41.383143], [-8.362767, 41.387005], [-8.347998, 41.382991], [-8.34271, 41.373954], [-8.346171, 41.364966], [-8.351062, 41.361284], [-8.363042, 41.358873], [-8.374957, 41.363021], [-8.380202, 41.374162]]]]}}, {"id": "0", "type": "Feature", "properties": {"fill": "#c93e18", "value_min": -2.0, "value_max": -1.75}, "geometry": {"type": "Polygon", "coordinates": [[[-8.438391, 41.626667], [-8.444399, 41.632169], [-8.452489, 41.626735], [-8.444488, 41.621745], [-8.438391, 41.626667]]]}}]}