{"type": "FeatureCollection", "features": [{"id": "7", "type": "Feature", "properties": {"fill": "#a3a3a3", "value_min": 0.0, "value_max": -0.25}, "geometry": {"type": "MultiPolygon", "coordinates": [[[[-7.853276, 41.79241], [-7.889445, 41.788791], [-7.902232, 41.784922], [-7.91228, 41.776011], [-7.917411, 41.767053], [-7.931647, 41.722152], [-7.930063, 41.71313], [-7.926895, 41.70802], [-7.924085, 41.704067], [-7.915048, 41.697746], [-7.903069, 41.695507], [-7.890996, 41.698721], [-7.872701, 41.721588], [-7.866511, 41.724269], [-7.85444, 41.727015], [-7.842403, 41.727796], [-7.806328, 41.728041], [-7.79422, 41.732563], [-7.787777, 41.738738], [-7.785372, 41.747719], [-7.789577, 41.765777], [-7.79446, 41.774835], [-7.805236, 41.786932], [-7.817158, 41.793044], [-7.829156, 41.79511], [-7.853276, 41.79241]], [[-7.865398, 41.787518], [-7.841309, 41.788597], [-7.829312, 41.786549], [-7.817389, 41.780472], [-7.811248, 41.77501], [-7.80634, 41.765952], [-7.804684, 41.756928], [-7.80683, 41.747944], [-7.81817, 41.737947], [-7.830264, 41.734131], [-7.878481, 41.72734], [-7.889825, 41.721755], [-7.890703, 41.715783], [-7.902732, 41.71531], [-7.903243, 41.721884], [-7.898278, 41.730844], [-7.902426, 41.733284], [-7.908667, 41.748956], [-7.906422, 41.766949], [-7.900267, 41.775897], [-7.889548, 41.78284], [-7.865398, 41.787518]]], [[[-8.445796, 41.7055], [-8.431808, 41.698781], [-8.419798, 41.697849], [-8.407756, 41.700407], [-8.394756, 41.70751], [-8.388697, 41.716485], [-8.388663, 41.725492], [-8.391558, 41.73053], [-8.398141, 41.72984], [-8.400531, 41.726683], [-8.402934, 41.726452], [-8.404721, 41.722847], [-8.417349, 41.725067], [-8.422737, 41.720552], [-8.429643, 41.719859], [-8.430533, 41.717381], [-8.435927, 41.714441], [-8.441632, 41.713975], [-8.441618, 41.711049], [-8.445796, 41.7055]], [[-8.416902, 41.716632], [-8.419637, 41.71574], [-8.421014, 41.716653], [-8.41961, 41.718723], [-8.416902, 41.716632]]], [[[-8.144171, 41.63859], [-8.147383, 41.633885], [-8.14429, 41.629546], [-8.132336, 41.625723], [-8.123936, 41.633708], [-8.132101, 41.64325], [-8.144171, 41.63859]]], [[[-8.083388, 41.545666], [-8.097362, 41.551161], [-8.109349, 41.551445], [-8.121387, 41.547964], [-8.127303, 41.543662], [-8.132637, 41.534695], [-8.131505, 41.525679], [-8.121912, 41.516599], [-8.109875, 41.513101], [-8.097898, 41.512603], [-8.090599, 41.514312], [-8.089398, 41.519468], [-8.090594, 41.522169], [-8.093289, 41.523051], [-8.097801, 41.519602], [-8.109792, 41.519122], [-8.11857, 41.525581], [-8.116091, 41.534569], [-8.109526, 41.538572], [-8.097774, 41.537828], [-8.106759, 41.543557], [-8.101666, 41.542655], [-8.094175, 41.544904], [-8.087885, 41.542876], [-8.083388, 41.545666]]], [[[-8.091938, 41.531848], [-8.091938, 41.531848], [-8.091786, 41.53126], [-8.091938, 41.531848]]], [[[-8.091764, 41.531173], [-8.091764, 41.531173], [-8.091532, 41.530272], [-8.091764, 41.531173]]], [[[-8.373398, 41.525275], [-8.38983, 41.509325], [-8.394322, 41.500342], [-8.395781, 41.491342], [-8.395239, 41.455309], [-8.39236, 41.446287], [-8.376442, 41.419179], [-8.382702, 41.410205], [-8.402316, 41.392294], [-8.407476, 41.383313], [-8.409701, 41.374317], [-8.409337, 41.365307], [-8.406044, 41.356283], [-8.398573, 41.347236], [-8.38713, 41.339891], [-8.375213, 41.336282], [-8.36327, 41.335481], [-8.351299, 41.337467], [-8.339298, 41.342303], [-8.325154, 41.355837], [-8.321178, 41.364821], [-8.319959, 41.373821], [-8.321152, 41.382836], [-8.326789, 41.396405], [-8.335287, 41.409941], [-8.331509, 41.418927], [-8.314482, 41.429182], [-8.295448, 41.445734], [-8.28972, 41.454706], [-8.286632, 41.463695], [-8.286021, 41.472698], [-8.290096, 41.490738], [-8.297641, 41.508799], [-8.303515, 41.517842], [-8.313446, 41.527421], [-8.32537, 41.533367], [-8.337338, 41.535279], [-8.349331, 41.534775], [-8.361349, 41.531712], [-8.373398, 41.525275]], [[-8.337483, 41.521124], [-8.325528, 41.518184], [-8.3112, 41.508881], [-8.304418, 41.499833], [-8.299449, 41.481788], [-8.300891, 41.472789], [-8.305644, 41.463811], [-8.314201, 41.45583], [-8.326236, 41.449901], [-8.338229, 41.44786], [-8.350194, 41.448509], [-8.362127, 41.452462], [-8.366039, 41.455152], [-8.375652, 41.464212], [-8.380309, 41.473245], [-8.382138, 41.482262], [-8.381927, 41.491268], [-8.379099, 41.50026], [-8.371994, 41.509229], [-8.361498, 41.516551], [-8.349474, 41.520495], [-8.337483, 41.521124]]], [[[-8.473649, 41.239177], [-8.480354, 41.24855], [-8.489636, 41.257599], [-8.503184, 41.266666], [-8.519088, 41.273792], [-8.531003, 41.277274], [-8.554859, 41.280869], [-8.602629, 41.280078], [-8.614565, 41.280906], [-8.626485, 41.284674], [-8.638381, 41.292958], [-8.669474, 41.32131], [-8.685966, 41.332232], [-8.709821, 41.342699], [-8.733711, 41.34627], [-8.757626, 41.343928], [-8.771901, 41.339574], [-8.789668, 41.3306], [-8.806441, 41.315647], [-8.802102, 41.205375], [-8.793304, 41.186481], [-8.782239, 41.168445], [-8.770242, 41.154843], [-8.758421, 41.144979], [-8.674793, 41.146932], [-8.674849, 41.153767], [-8.672489, 41.15648], [-8.66117, 41.156307], [-8.662078, 41.158104], [-8.660313, 41.160813], [-8.657033, 41.160378], [-8.654961, 41.161963], [-8.653231, 41.169174], [-8.655366, 41.175467], [-8.647955, 41.180228], [-8.647696, 41.185181], [-8.640929, 41.196241], [-8.634946, 41.193341], [-8.632526, 41.188624], [-8.625658, 41.186628], [-8.621132, 41.178994], [-8.613374, 41.177451], [-8.608583, 41.174095], [-8.609164, 41.172066], [-8.604942, 41.164881], [-8.59422, 41.165149], [-8.589174, 41.167645], [-8.589194, 41.170572], [-8.583263, 41.174422], [-8.582094, 41.177803], [-8.578825, 41.178941], [-8.581296, 41.191762], [-8.575958, 41.195609], [-8.576894, 41.201908], [-8.574515, 41.202593], [-8.57423, 41.20462], [-8.567971, 41.204644], [-8.565895, 41.206227], [-8.567697, 41.208246], [-8.566512, 41.209376], [-8.559636, 41.206251], [-8.554271, 41.20627], [-8.549521, 41.209214], [-8.544157, 41.209458], [-8.54238, 41.211265], [-8.532257, 41.213102], [-8.52653, 41.202542], [-8.523236, 41.200077], [-8.518471, 41.200543], [-8.51163, 41.203042], [-8.510456, 41.206197], [-8.505693, 41.207113], [-8.504239, 41.213646], [-8.500076, 41.21546], [-8.50308, 41.219502], [-8.502204, 41.222656], [-8.495642, 41.222227], [-8.495947, 41.223351], [-8.490894, 41.226294], [-8.487935, 41.230354], [-8.490331, 41.232373], [-8.489156, 41.235528], [-8.486181, 41.236888], [-8.484411, 41.240495], [-8.476644, 41.237817], [-8.473649, 41.239177]], [[-8.721915, 41.309358], [-8.709971, 41.308691], [-8.700983, 41.303381], [-8.698077, 41.297475], [-8.698103, 41.291886], [-8.702968, 41.28537], [-8.710092, 41.281522], [-8.722035, 41.281137], [-8.731521, 41.28544], [-8.736835, 41.29446], [-8.733962, 41.303462], [-8.721915, 41.309358]], [[-8.555185, 41.232862], [-8.549795, 41.230826], [-8.543311, 41.224472], [-8.541934, 41.221788], [-8.543364, 41.216788], [-8.545734, 41.212795], [-8.555351, 41.208345], [-8.56727, 41.209781], [-8.571653, 41.212894], [-8.575187, 41.221915], [-8.568736, 41.230899], [-8.555185, 41.232862]]]]}}, {"id": "6", "type": "Feature", "properties": {"fill": "#a3a3a3", "value_min": -0.25, "value_max": -0.0}, "geometry": {"type": "MultiPolygon", "coordinates": [[[[-7.747505, 41.751049], [-7.75764, 41.758921], [-7.769404, 41.772782], [-7.781727, 41.792714], [-7.793358, 41.801844], [-7.804865, 41.806928], [-7.816864, 41.809044], [-7.828935, 41.807258], [-7.838872, 41.802313], [-7.865274, 41.794556], [-7.877323, 41.793796], [-7.901333, 41.797367], [-7.91337, 41.797315], [-7.919131, 41.79409], [-7.926546, 41.785152], [-7.937773, 41.777362], [-7.949846, 41.774869], [-7.973927, 41.773848], [-8.022387, 41.751956], [-8.029391, 41.741033], [-8.028395, 41.732017], [-8.022782, 41.725906], [-8.01085, 41.719964], [-7.986793, 41.720832], [-7.974833, 41.716918], [-7.948385, 41.686278], [-7.927565, 41.667724], [-7.915672, 41.660611], [-7.903739, 41.656031], [-7.897235, 41.655039], [-7.902319, 41.659925], [-7.899913, 41.66127], [-7.900198, 41.665547], [-7.898396, 41.665769], [-7.896885, 41.668692], [-7.883969, 41.67069], [-7.8776, 41.676079], [-7.878221, 41.694622], [-7.876354, 41.70361], [-7.872442, 41.712579], [-7.866613, 41.718463], [-7.854511, 41.723043], [-7.842486, 41.723141], [-7.832206, 41.721184], [-7.818334, 41.714421], [-7.815291, 41.718689], [-7.808986, 41.717996], [-7.808396, 41.715744], [-7.804499, 41.714158], [-7.79939, 41.714593], [-7.79788, 41.716164], [-7.796383, 41.71526], [-7.790966, 41.717044], [-7.789449, 41.719966], [-7.78464, 41.720402], [-7.78252, 41.723546], [-7.776204, 41.724652], [-7.773786, 41.727346], [-7.770798, 41.72441], [-7.765698, 41.723044], [-7.761765, 41.727758], [-7.762933, 41.733839], [-7.759307, 41.737203], [-7.759597, 41.739005], [-7.75689, 41.739446], [-7.758687, 41.740577], [-7.757758, 41.745301], [-7.749323, 41.748649], [-7.747505, 41.751049]], [[-7.853276, 41.79241], [-7.829156, 41.79511], [-7.817158, 41.793044], [-7.805236, 41.786932], [-7.79446, 41.774835], [-7.789577, 41.765777], [-7.785372, 41.747719], [-7.787777, 41.738738], [-7.79422, 41.732563], [-7.806328, 41.728041], [-7.842403, 41.727796], [-7.85444, 41.727015], [-7.866511, 41.724269], [-7.872701, 41.721588], [-7.890996, 41.698721], [-7.903069, 41.695507], [-7.915048, 41.697746], [-7.924085, 41.704067], [-7.926895, 41.70802], [-7.930063, 41.71313], [-7.931647, 41.722152], [-7.917411, 41.767053], [-7.91228, 41.776011], [-7.902232, 41.784922], [-7.889445, 41.788791], [-7.853276, 41.79241]]], [[[-8.484371, 41.67435], [-8.46809, 41.671122], [-8.444036, 41.674418], [-8.383488, 41.698443], [-8.370133, 41.707378], [-8.364851, 41.716356], [-8.364432, 41.725361], [-8.366469, 41.73351], [-8.369604, 41.731928], [-8.371416, 41.7344], [-8.374122, 41.734845], [-8.384922, 41.73032], [-8.387032, 41.731891], [-8.391558, 41.73053], [-8.388663, 41.725492], [-8.388697, 41.716485], [-8.394756, 41.70751], [-8.407756, 41.700407], [-8.419798, 41.697849], [-8.431808, 41.698781], [-8.445796, 41.7055], [-8.453868, 41.697961], [-8.453255, 41.695487], [-8.461659, 41.694563], [-8.482012, 41.682123], [-8.484371, 41.67435]]], [[[-8.227327, 41.713165], [-8.236874, 41.70657], [-8.243024, 41.697604], [-8.244513, 41.688607], [-8.241393, 41.679579], [-8.227867, 41.668032], [-8.215893, 41.664891], [-8.203871, 41.665765], [-8.191782, 41.671866], [-8.184929, 41.679192], [-8.180888, 41.688171], [-8.180964, 41.697178], [-8.186068, 41.706222], [-8.20326, 41.715279], [-8.215266, 41.716491], [-8.227327, 41.713165]]], [[[-8.119403, 41.693972], [-8.114536, 41.696686], [-8.11925, 41.705173], [-8.12619, 41.696775], [-8.119403, 41.693972]]], [[[-8.168056, 41.648618], [-8.176101, 41.643101], [-8.18012, 41.634123], [-8.180615, 41.625119], [-8.177591, 41.61609], [-8.168595, 41.606645], [-8.156684, 41.599763], [-8.144715, 41.597385], [-8.132703, 41.598398], [-8.120622, 41.604389], [-8.11088, 41.615594], [-8.106626, 41.624568], [-8.106847, 41.633577], [-8.112218, 41.642625], [-8.120025, 41.648285], [-8.131962, 41.653599], [-8.143951, 41.655222], [-8.155981, 41.653665], [-8.168056, 41.648618]], [[-8.144171, 41.63859], [-8.132101, 41.64325], [-8.123936, 41.633708], [-8.132336, 41.625723], [-8.14429, 41.629546], [-8.147383, 41.633885], [-8.144171, 41.63859]]], [[[-8.468326, 41.642408], [-8.473358, 41.63584], [-8.473964, 41.626836], [-8.468114, 41.617802], [-8.456579, 41.611374], [-8.444594, 41.609438], [-8.432568, 41.612224], [-8.42557, 41.617597], [-8.423017, 41.626591], [-8.427459, 41.635621], [-8.432321, 41.640339], [-8.444276, 41.646418], [-8.456273, 41.647864], [-8.468326, 41.642408]]], [[[-8.265019, 41.34], [-8.27373, 41.364531], [-8.275151, 41.382555], [-8.270736, 41.400543], [-8.255911, 41.42747], [-8.253198, 41.43646], [-8.252917, 41.445466], [-8.259004, 41.46352], [-8.276841, 41.490656], [-8.280956, 41.499689], [-8.285708, 41.517733], [-8.289197, 41.544777], [-8.292797, 41.553806], [-8.301071, 41.563546], [-8.312995, 41.570033], [-8.324961, 41.572742], [-8.336949, 41.573362], [-8.34896, 41.571814], [-8.360989, 41.568249], [-8.373055, 41.560845], [-8.409406, 41.519841], [-8.421478, 41.510069], [-8.445571, 41.49514], [-8.456564, 41.482638], [-8.461155, 41.473652], [-8.470592, 41.437666], [-8.479706, 41.419692], [-8.486792, 41.410717], [-8.506236, 41.394706], [-8.51824, 41.388947], [-8.530226, 41.385529], [-8.554157, 41.383991], [-8.578051, 41.38802], [-8.625786, 41.406809], [-8.649995, 41.420336], [-8.658075, 41.429368], [-8.657999, 41.438376], [-8.644414, 41.456349], [-8.639689, 41.465342], [-8.638624, 41.474346], [-8.642139, 41.483365], [-8.649267, 41.48998], [-8.661214, 41.496159], [-8.673182, 41.498691], [-8.685163, 41.498629], [-8.697156, 41.496164], [-8.707343, 41.492557], [-8.733179, 41.476428], [-8.745171, 41.472503], [-8.769123, 41.472717], [-8.803042, 41.479939], [-8.798552, 41.474753], [-8.7983, 41.468544], [-8.801548, 41.4468], [-8.806115, 41.43713], [-8.807354, 41.425915], [-8.811202, 41.416419], [-8.806441, 41.315647], [-8.789668, 41.3306], [-8.771901, 41.339574], [-8.757626, 41.343928], [-8.733711, 41.34627], [-8.709821, 41.342699], [-8.685966, 41.332232], [-8.669474, 41.32131], [-8.638381, 41.292958], [-8.626485, 41.284674], [-8.614565, 41.280906], [-8.602629, 41.280078], [-8.554859, 41.280869], [-8.531003, 41.277274], [-8.519088, 41.273792], [-8.503184, 41.266666], [-8.489636, 41.257599], [-8.480354, 41.24855], [-8.473649, 41.239177], [-8.470986, 41.23941], [-8.471604, 41.243459], [-8.469227, 41.245267], [-8.463258, 41.244384], [-8.459989, 41.246644], [-8.454323, 41.246886], [-8.455541, 41.251834], [-8.452276, 41.25522], [-8.449891, 41.255452], [-8.449304, 41.257479], [-8.447812, 41.257258], [-8.449028, 41.261982], [-8.439785, 41.262907], [-8.438023, 41.268989], [-8.434745, 41.269673], [-8.432691, 41.277107], [-8.427032, 41.279372], [-8.429143, 41.284319], [-8.426171, 41.287028], [-8.426488, 41.291079], [-8.425013, 41.294909], [-8.422037, 41.296942], [-8.422647, 41.299867], [-8.407744, 41.304856], [-8.406262, 41.307335], [-8.403277, 41.307342], [-8.401801, 41.311398], [-8.399712, 41.311628], [-8.400316, 41.313202], [-8.396738, 41.314336], [-8.398835, 41.316131], [-8.393775, 41.31997], [-8.393489, 41.323122], [-8.391105, 41.324253], [-8.386325, 41.323588], [-8.380382, 41.331254], [-8.375305, 41.33104], [-8.37201, 41.328346], [-8.361563, 41.329718], [-8.358276, 41.329049], [-8.357673, 41.327249], [-8.350207, 41.327264], [-8.346032, 41.328847], [-8.342462, 41.333131], [-8.333215, 41.336299], [-8.326363, 41.342163], [-8.324568, 41.341041], [-8.323376, 41.341943], [-8.320676, 41.338121], [-8.312604, 41.334983], [-8.313794, 41.333405], [-8.31139, 41.328007], [-8.307502, 41.325762], [-8.305116, 41.326891], [-8.303024, 41.325994], [-8.303615, 41.323742], [-8.301216, 41.319694], [-8.296431, 41.316774], [-8.297618, 41.313846], [-8.295817, 41.310022], [-8.281801, 41.316569], [-8.281808, 41.319721], [-8.278828, 41.321976], [-8.278238, 41.325128], [-8.273161, 41.325134], [-8.269582, 41.326939], [-8.265709, 41.331221], [-8.269004, 41.336169], [-8.265722, 41.337748], [-8.265019, 41.34]], [[-8.373398, 41.525275], [-8.361349, 41.531712], [-8.349331, 41.534775], [-8.337338, 41.535279], [-8.32537, 41.533367], [-8.313446, 41.527421], [-8.303515, 41.517842], [-8.297641, 41.508799], [-8.290096, 41.490738], [-8.286021, 41.472698], [-8.286632, 41.463695], [-8.28972, 41.454706], [-8.295448, 41.445734], [-8.314482, 41.429182], [-8.331509, 41.418927], [-8.335287, 41.409941], [-8.326789, 41.396405], [-8.321152, 41.382836], [-8.319959, 41.373821], [-8.321178, 41.364821], [-8.325154, 41.355837], [-8.339298, 41.342303], [-8.351299, 41.337467], [-8.36327, 41.335481], [-8.375213, 41.336282], [-8.38713, 41.339891], [-8.398573, 41.347236], [-8.406044, 41.356283], [-8.409337, 41.365307], [-8.409701, 41.374317], [-8.407476, 41.383313], [-8.402316, 41.392294], [-8.382702, 41.410205], [-8.376442, 41.419179], [-8.39236, 41.446287], [-8.395239, 41.455309], [-8.395781, 41.491342], [-8.394322, 41.500342], [-8.38983, 41.509325], [-8.373398, 41.525275]]], [[[-8.758421, 41.144979], [-8.770242, 41.154843], [-8.782239, 41.168445], [-8.793304, 41.186481], [-8.802102, 41.205375], [-8.799695, 41.14406], [-8.758421, 41.144979]]], [[[-8.073032, 41.568304], [-8.097022, 41.57564], [-8.108995, 41.577215], [-8.120986, 41.577528], [-8.133007, 41.575615], [-8.145096, 41.568531], [-8.151339, 41.561856], [-8.155877, 41.552882], [-8.156982, 41.543883], [-8.155471, 41.534865], [-8.150092, 41.525818], [-8.137944, 41.51672], [-8.109936, 41.508626], [-8.0921, 41.507632], [-8.090599, 41.514312], [-8.097898, 41.512603], [-8.109875, 41.513101], [-8.121912, 41.516599], [-8.131505, 41.525679], [-8.132637, 41.534695], [-8.127303, 41.543662], [-8.121387, 41.547964], [-8.109349, 41.551445], [-8.097362, 41.551161], [-8.083388, 41.545666], [-8.080687, 41.551651], [-8.074396, 41.549848], [-8.072897, 41.551197], [-8.076188, 41.557276], [-8.079783, 41.558403], [-8.082177, 41.563131], [-8.081276, 41.565382], [-8.078879, 41.56493], [-8.077678, 41.566956], [-8.073032, 41.568304]]]]}}, {"id": "8", "type": "Feature", "properties": {"fill": "#a3a3a3", "value_min": 0.25, "value_max": -0.5}, "geometry": {"type": "MultiPolygon", "coordinates": [[[[-7.865398, 41.787518], [-7.889548, 41.78284], [-7.900267, 41.775897], [-7.906422, 41.766949], [-7.908667, 41.748956], [-7.902426, 41.733284], [-7.898278, 41.730844], [-7.903243, 41.721884], [-7.902732, 41.71531], [-7.890703, 41.715783], [-7.889825, 41.721755], [-7.878481, 41.72734], [-7.830264, 41.734131], [-7.81817, 41.737947], [-7.80683, 41.747944], [-7.804684, 41.756928], [-7.80634, 41.765952], [-7.811248, 41.77501], [-7.817389, 41.780472], [-7.829312, 41.786549], [-7.841309, 41.788597], [-7.865398, 41.787518]], [[-7.850859, 41.78442], [-7.841403, 41.783377], [-7.829453, 41.778783], [-7.824098, 41.775142], [-7.818067, 41.766074], [-7.816708, 41.757053], [-7.82013, 41.748081], [-7.832913, 41.739205], [-7.842249, 41.736381], [-7.866355, 41.73318], [-7.878361, 41.734227], [-7.890292, 41.739682], [-7.899296, 41.748867], [-7.900781, 41.757888], [-7.898973, 41.766878], [-7.891743, 41.775815], [-7.877522, 41.782377], [-7.865456, 41.784227], [-7.850859, 41.78442]]], [[[-8.416902, 41.716632], [-8.41961, 41.718723], [-8.421014, 41.716653], [-8.419637, 41.71574], [-8.416902, 41.716632]]], [[[-8.097774, 41.537828], [-8.109526, 41.538572], [-8.116091, 41.534569], [-8.11857, 41.525581], [-8.109792, 41.519122], [-8.097801, 41.519602], [-8.093289, 41.523051], [-8.091532, 41.530272], [-8.091764, 41.531173], [-8.091786, 41.53126], [-8.091938, 41.531848], [-8.097775, 41.536127], [-8.097774, 41.537828]]], [[[-8.337483, 41.521124], [-8.349474, 41.520495], [-8.361498, 41.516551], [-8.371994, 41.509229], [-8.379099, 41.50026], [-8.381927, 41.491268], [-8.382138, 41.482262], [-8.380309, 41.473245], [-8.375652, 41.464212], [-8.366039, 41.455152], [-8.362127, 41.452462], [-8.350194, 41.448509], [-8.338229, 41.44786], [-8.326236, 41.449901], [-8.314201, 41.45583], [-8.305644, 41.463811], [-8.300891, 41.472789], [-8.299449, 41.481788], [-8.304418, 41.499833], [-8.3112, 41.508881], [-8.325528, 41.518184], [-8.337483, 41.521124]], [[-8.337576, 41.511956], [-8.325629, 41.508421], [-8.314886, 41.499896], [-8.31009, 41.49086], [-8.309514, 41.481849], [-8.314032, 41.471869], [-8.324055, 41.46392], [-8.338108, 41.459709], [-8.350072, 41.460713], [-8.361991, 41.466378], [-8.368482, 41.47318], [-8.372225, 41.482208], [-8.372084, 41.491215], [-8.367764, 41.500199], [-8.361603, 41.5059], [-8.349567, 41.511204], [-8.337576, 41.511956]]], [[[-8.721915, 41.309358], [-8.733962, 41.303462], [-8.736835, 41.29446], [-8.731521, 41.28544], [-8.722035, 41.281137], [-8.710092, 41.281522], [-8.702968, 41.28537], [-8.698103, 41.291886], [-8.698077, 41.297475], [-8.700983, 41.303381], [-8.709971, 41.308691], [-8.721915, 41.309358]]], [[[-8.555185, 41.232862], [-8.568736, 41.230899], [-8.575187, 41.221915], [-8.571653, 41.212894], [-8.56727, 41.209781], [-8.555351, 41.208345], [-8.545734, 41.212795], [-8.543364, 41.216788], [-8.541934, 41.221788], [-8.543311, 41.224472], [-8.549795, 41.230826], [-8.555185, 41.232862]]]]}}, {"id": "5", "type": "Feature", "properties": {"fill": "#a3a3a3", "value_min": -0.5, "value_max": -0.25}, "geometry": {"type": "MultiPolygon", "coordinates": [[[[-8.484371, 41.67435], [-8.49308, 41.674886], [-8.499963, 41.671038], [-8.50927, 41.671233], [-8.51018, 41.672806], [-8.511967, 41.670324], [-8.509856, 41.668755], [-8.522103, 41.658811], [-8.525706, 41.659023], [-8.527769, 41.652714], [-8.534066, 41.652017], [-8.537355, 41.64998], [-8.537634, 41.646602], [-8.543876, 41.637352], [-8.543855, 41.633976], [-8.536342, 41.631977], [-8.535128, 41.62973], [-8.543431, 41.61462], [-8.554533, 41.615255], [-8.557244, 41.617046], [-8.562639, 41.61635], [-8.568056, 41.619031], [-8.570735, 41.616095], [-8.577321, 41.614269], [-8.581231, 41.615829], [-8.585766, 41.620988], [-8.591462, 41.620515], [-8.596534, 41.616668], [-8.601628, 41.615972], [-8.603996, 41.611686], [-8.613256, 41.606696], [-8.619881, 41.610269], [-8.621338, 41.604636], [-8.628833, 41.604378], [-8.636302, 41.600744], [-8.64075, 41.594422], [-8.645536, 41.593051], [-8.646744, 41.594171], [-8.649125, 41.591909], [-8.656622, 41.5921], [-8.660788, 41.588255], [-8.663794, 41.589141], [-8.665265, 41.585758], [-8.66948, 41.587989], [-8.684455, 41.586117], [-8.685608, 41.58071], [-8.697261, 41.576376], [-8.701703, 41.570277], [-8.707704, 41.570923], [-8.712485, 41.569323], [-8.716422, 41.573805], [-8.720316, 41.57356], [-8.725151, 41.577811], [-8.726633, 41.576003], [-8.734424, 41.575737], [-8.736564, 41.580228], [-8.738354, 41.579318], [-8.740778, 41.582006], [-8.74467, 41.581535], [-8.750711, 41.58623], [-8.756374, 41.582823], [-8.75635, 41.580347], [-8.762327, 41.578514], [-8.764443, 41.580303], [-8.767441, 41.580286], [-8.769874, 41.583874], [-8.768997, 41.58613], [-8.773228, 41.589482], [-8.775371, 41.593972], [-8.78556, 41.593464], [-8.797327, 41.600599], [-8.804218, 41.600109], [-8.80456, 41.604158], [-8.809434, 41.611332], [-8.828644, 41.609656], [-8.82839, 41.585633], [-8.818497, 41.554794], [-8.8221, 41.547542], [-8.821965, 41.534907], [-8.815926, 41.525624], [-8.81063, 41.5101], [-8.813279, 41.503483], [-8.812636, 41.496944], [-8.803042, 41.479939], [-8.769123, 41.472717], [-8.745171, 41.472503], [-8.733179, 41.476428], [-8.707343, 41.492557], [-8.697156, 41.496164], [-8.685163, 41.498629], [-8.673182, 41.498691], [-8.661214, 41.496159], [-8.649267, 41.48998], [-8.642139, 41.483365], [-8.638624, 41.474346], [-8.639689, 41.465342], [-8.644414, 41.456349], [-8.657999, 41.438376], [-8.658075, 41.429368], [-8.649995, 41.420336], [-8.625786, 41.406809], [-8.578051, 41.38802], [-8.554157, 41.383991], [-8.530226, 41.385529], [-8.51824, 41.388947], [-8.506236, 41.394706], [-8.486792, 41.410717], [-8.479706, 41.419692], [-8.470592, 41.437666], [-8.461155, 41.473652], [-8.456564, 41.482638], [-8.445571, 41.49514], [-8.421478, 41.510069], [-8.409406, 41.519841], [-8.373055, 41.560845], [-8.360989, 41.568249], [-8.34896, 41.571814], [-8.336949, 41.573362], [-8.324961, 41.572742], [-8.312995, 41.570033], [-8.301071, 41.563546], [-8.292797, 41.553806], [-8.289197, 41.544777], [-8.285708, 41.517733], [-8.280956, 41.499689], [-8.276841, 41.490656], [-8.259004, 41.46352], [-8.252917, 41.445466], [-8.253198, 41.43646], [-8.255911, 41.42747], [-8.270736, 41.400543], [-8.275151, 41.382555], [-8.27373, 41.364531], [-8.265019, 41.34], [-8.263339, 41.340902], [-8.262751, 41.345405], [-8.256483, 41.347663], [-8.255889, 41.349689], [-8.249622, 41.353072], [-8.251123, 41.356897], [-8.248141, 41.360052], [-8.248448, 41.364328], [-8.245461, 41.364781], [-8.244272, 41.368384], [-8.239197, 41.371315], [-8.232024, 41.369971], [-8.224854, 41.370878], [-8.21738, 41.368182], [-8.214399, 41.373587], [-8.208127, 41.376968], [-8.199163, 41.377423], [-8.194677, 41.374275], [-8.191691, 41.376302], [-8.189299, 41.375403], [-8.184818, 41.376756], [-8.168382, 41.377438], [-8.164499, 41.38059], [-8.152544, 41.375866], [-8.151049, 41.37339], [-8.145073, 41.374742], [-8.139694, 41.377894], [-8.133418, 41.374292], [-8.119672, 41.376768], [-8.119672, 41.378569], [-8.116683, 41.380144], [-8.117578, 41.386447], [-8.113992, 41.386896], [-8.112795, 41.390723], [-8.110105, 41.390947], [-8.108011, 41.393648], [-8.103827, 41.392972], [-8.105321, 41.394998], [-8.10263, 41.396123], [-8.10801, 41.398825], [-8.108008, 41.403519], [-8.1233, 41.406165], [-8.147112, 41.415032], [-8.170839, 41.431096], [-8.18926, 41.454042], [-8.200534, 41.481143], [-8.206061, 41.487123], [-8.230062, 41.48348], [-8.242031, 41.484273], [-8.253963, 41.488349], [-8.26611, 41.499595], [-8.268697, 41.508619], [-8.267166, 41.517616], [-8.253478, 41.530606], [-8.241459, 41.533293], [-8.229485, 41.532228], [-8.216139, 41.526287], [-8.206442, 41.517213], [-8.193915, 41.500635], [-8.163885, 41.507905], [-8.145881, 41.508884], [-8.078332, 41.499957], [-8.084618, 41.502809], [-8.092402, 41.504163], [-8.0921, 41.507632], [-8.109936, 41.508626], [-8.137944, 41.51672], [-8.150092, 41.525818], [-8.155471, 41.534865], [-8.156982, 41.543883], [-8.155877, 41.552882], [-8.151339, 41.561856], [-8.145096, 41.568531], [-8.133007, 41.575615], [-8.120986, 41.577528], [-8.108995, 41.577215], [-8.097022, 41.57564], [-8.073032, 41.568304], [-8.069283, 41.570553], [-8.068081, 41.573478], [-8.056684, 41.579549], [-8.052181, 41.584498], [-8.052777, 41.587649], [-8.037169, 41.600242], [-8.031467, 41.602938], [-8.02367, 41.603156], [-8.019174, 41.601802], [-8.015872, 41.603824], [-8.013474, 41.603372], [-8.005971, 41.60629], [-8.003562, 41.611239], [-7.99936, 41.61281], [-7.998462, 41.612359], [-7.999669, 41.608759], [-7.996976, 41.605829], [-7.996684, 41.602003], [-7.984685, 41.603564], [-7.982292, 41.60086], [-7.975689, 41.603552], [-7.974482, 41.606701], [-7.970882, 41.607147], [-7.969091, 41.603768], [-7.965796, 41.602413], [-7.9541, 41.602846], [-7.952606, 41.600592], [-7.947808, 41.60081], [-7.945413, 41.599456], [-7.942725, 41.595625], [-7.936132, 41.594488], [-7.93791, 41.601694], [-7.937004, 41.603718], [-7.931604, 41.604384], [-7.930979, 41.612711], [-7.925556, 41.620354], [-7.920755, 41.620796], [-7.917748, 41.623041], [-7.915933, 41.627764], [-7.913229, 41.628885], [-7.912613, 41.63361], [-7.906014, 41.633147], [-7.906884, 41.641927], [-7.897869, 41.645511], [-7.89696, 41.647985], [-7.892759, 41.647976], [-7.892145, 41.651576], [-7.897235, 41.655039], [-7.903739, 41.656031], [-7.915672, 41.660611], [-7.927565, 41.667724], [-7.948385, 41.686278], [-7.974833, 41.716918], [-7.986793, 41.720832], [-8.01085, 41.719964], [-8.022782, 41.725906], [-8.028395, 41.732017], [-8.029391, 41.741033], [-8.022387, 41.751956], [-7.973927, 41.773848], [-7.949846, 41.774869], [-7.937773, 41.777362], [-7.926546, 41.785152], [-7.919131, 41.79409], [-7.91337, 41.797315], [-7.901333, 41.797367], [-7.877323, 41.793796], [-7.865274, 41.794556], [-7.838872, 41.802313], [-7.828935, 41.807258], [-7.816864, 41.809044], [-7.804865, 41.806928], [-7.793358, 41.801844], [-7.781727, 41.792714], [-7.769404, 41.772782], [-7.75764, 41.758921], [-7.747505, 41.751049], [-7.747786, 41.754496], [-7.743866, 41.756509], [-7.740214, 41.763924], [-7.728449, 41.77041], [-7.725406, 41.776252], [-7.727191, 41.779184], [-7.724177, 41.780299], [-7.725372, 41.781653], [-7.722296, 41.792446], [-7.728879, 41.797871], [-7.72705, 41.801691], [-7.728172, 41.814687], [-7.75657, 41.814303], [-7.768578, 41.815935], [-7.792507, 41.823974], [-7.820492, 41.838153], [-7.833977, 41.847297], [-7.843476, 41.865351], [-7.849515, 41.861475], [-7.858542, 41.862622], [-7.859456, 41.860148], [-7.864877, 41.859711], [-7.87033, 41.851395], [-7.873043, 41.850501], [-7.873367, 41.844875], [-7.879056, 41.85254], [-7.886268, 41.855932], [-7.888076, 41.855486], [-7.891675, 41.859094], [-7.900698, 41.861588], [-7.904318, 41.859795], [-7.907309, 41.865203], [-7.906095, 41.868126], [-7.910299, 41.871285], [-7.909985, 41.875111], [-7.915391, 41.879397], [-7.921118, 41.877833], [-7.928044, 41.87807], [-7.935283, 41.874707], [-7.937389, 41.87516], [-7.941618, 41.870891], [-7.951254, 41.871132], [-7.956367, 41.87339], [-7.956362, 41.875191], [-7.960878, 41.875648], [-7.962086, 41.874074], [-7.973828, 41.875216], [-7.987996, 41.869157], [-7.990123, 41.860157], [-7.995547, 41.858138], [-7.994047, 41.855211], [-7.996162, 41.851837], [-8.003089, 41.850494], [-8.005804, 41.847346], [-8.007928, 41.838796], [-8.010941, 41.836773], [-8.013965, 41.828899], [-8.017873, 41.831379], [-8.02901, 41.829589], [-8.037134, 41.831171], [-8.041351, 41.828023], [-8.041054, 41.825097], [-8.045268, 41.824425], [-8.046775, 41.821951], [-8.056712, 41.81588], [-8.06664, 41.817012], [-8.072961, 41.813414], [-8.078678, 41.813417], [-8.082892, 41.810493], [-8.091013, 41.812521], [-8.093421, 41.811397], [-8.093723, 41.808471], [-8.101845, 41.809824], [-8.104853, 41.81185], [-8.115984, 41.812302], [-8.123807, 41.808702], [-8.138247, 41.808477], [-8.139751, 41.813203], [-8.14276, 41.812978], [-8.144866, 41.815228], [-8.149078, 41.814777], [-8.153291, 41.817703], [-8.158106, 41.818377], [-8.165326, 41.81815], [-8.173744, 41.808019], [-8.177655, 41.808242], [-8.183676, 41.812741], [-8.190291, 41.809587], [-8.197158, 41.814129], [-8.201063, 41.808724], [-8.204973, 41.807372], [-8.205872, 41.804445], [-8.214593, 41.803089], [-8.214591, 41.801513], [-8.217598, 41.80016], [-8.217591, 41.795573], [-8.202342, 41.789445], [-8.166292, 41.785239], [-8.154307, 41.781498], [-8.142365, 41.774587], [-8.136141, 41.768906], [-8.130913, 41.759859], [-8.130264, 41.750848], [-8.133996, 41.741869], [-8.144782, 41.732943], [-8.155021, 41.727016], [-8.167093, 41.723305], [-8.179102, 41.724347], [-8.198926, 41.733333], [-8.202987, 41.737349], [-8.214936, 41.743622], [-8.226987, 41.741568], [-8.251244, 41.723972], [-8.275441, 41.710496], [-8.287489, 41.707925], [-8.299509, 41.707919], [-8.311498, 41.710835], [-8.323437, 41.718568], [-8.329415, 41.725162], [-8.339331, 41.743233], [-8.342602, 41.761466], [-8.344765, 41.762363], [-8.349267, 41.760103], [-8.352557, 41.755145], [-8.34982, 41.745922], [-8.349814, 41.744122], [-8.352516, 41.743441], [-8.352203, 41.739616], [-8.357897, 41.735103], [-8.362407, 41.735994], [-8.366469, 41.73351], [-8.364432, 41.725361], [-8.364851, 41.716356], [-8.370133, 41.707378], [-8.383488, 41.698443], [-8.444036, 41.674418], [-8.46809, 41.671122], [-8.484371, 41.67435]], [[-7.948289, 41.870052], [-7.936279, 41.867673], [-7.924345, 41.860778], [-7.920559, 41.85715], [-7.916132, 41.848102], [-7.916991, 41.839103], [-7.926161, 41.830183], [-7.936986, 41.824974], [-7.949067, 41.822578], [-7.961091, 41.823635], [-7.975981, 41.830638], [-7.982326, 41.839701], [-7.982899, 41.848713], [-7.978627, 41.857681], [-7.972497, 41.863307], [-7.960361, 41.868744], [-7.948289, 41.870052]], [[-7.876436, 41.844569], [-7.86438, 41.845129], [-7.852388, 41.842179], [-7.847698, 41.838429], [-7.842559, 41.829371], [-7.842047, 41.820359], [-7.844969, 41.811381], [-7.855191, 41.802477], [-7.86519, 41.799305], [-7.877234, 41.798884], [-7.889206, 41.80261], [-7.898605, 41.811908], [-7.900396, 41.820932], [-7.898896, 41.829924], [-7.890407, 41.83885], [-7.876436, 41.844569]], [[-8.070752, 41.734377], [-8.058769, 41.731524], [-8.046822, 41.726303], [-8.034928, 41.717706], [-8.011196, 41.697382], [-7.995945, 41.686704], [-7.986313, 41.677612], [-7.980051, 41.66855], [-7.976887, 41.659515], [-7.976218, 41.650502], [-7.978079, 41.641511], [-7.988249, 41.627901], [-8.000357, 41.621252], [-8.012399, 41.618695], [-8.024396, 41.619103], [-8.036352, 41.622312], [-8.060189, 41.634061], [-8.096046, 41.645542], [-8.122729, 41.66072], [-8.131423, 41.669793], [-8.130406, 41.678793], [-8.119535, 41.684277], [-8.102769, 41.696594], [-8.098106, 41.705565], [-8.093065, 41.723539], [-8.082795, 41.733107], [-8.070752, 41.734377]], [[-8.227327, 41.713165], [-8.215266, 41.716491], [-8.20326, 41.715279], [-8.186068, 41.706222], [-8.180964, 41.697178], [-8.180888, 41.688171], [-8.184929, 41.679192], [-8.191782, 41.671866], [-8.203871, 41.665765], [-8.215893, 41.664891], [-8.227867, 41.668032], [-8.241393, 41.679579], [-8.244513, 41.688607], [-8.243024, 41.697604], [-8.236874, 41.70657], [-8.227327, 41.713165]], [[-8.119403, 41.693972], [-8.12619, 41.696775], [-8.11925, 41.705173], [-8.114536, 41.696686], [-8.119403, 41.693972]], [[-8.371875, 41.68252], [-8.36445, 41.680325], [-8.354094, 41.67126], [-8.353536, 41.66225], [-8.36015, 41.653266], [-8.372213, 41.647801], [-8.384223, 41.647645], [-8.397333, 41.653481], [-8.403692, 41.662521], [-8.402366, 41.671522], [-8.395954, 41.677359], [-8.389863, 41.680463], [-8.383891, 41.682411], [-8.371875, 41.68252]], [[-8.168056, 41.648618], [-8.155981, 41.653665], [-8.143951, 41.655222], [-8.131962, 41.653599], [-8.120025, 41.648285], [-8.112218, 41.642625], [-8.106847, 41.633577], [-8.106626, 41.624568], [-8.11088, 41.615594], [-8.120622, 41.604389], [-8.132703, 41.598398], [-8.144715, 41.597385], [-8.156684, 41.599763], [-8.168595, 41.606645], [-8.177591, 41.61609], [-8.180615, 41.625119], [-8.18012, 41.634123], [-8.176101, 41.643101], [-8.168056, 41.648618]], [[-8.468326, 41.642408], [-8.456273, 41.647864], [-8.444276, 41.646418], [-8.432321, 41.640339], [-8.427459, 41.635621], [-8.423017, 41.626591], [-8.42557, 41.617597], [-8.432568, 41.612224], [-8.444594, 41.609438], [-8.456579, 41.611374], [-8.468114, 41.617802], [-8.473964, 41.626836], [-8.473358, 41.63584], [-8.468326, 41.642408]], [[-8.456937, 41.568695], [-8.444945, 41.568415], [-8.432991, 41.563883], [-8.42379, 41.554537], [-8.421912, 41.54552], [-8.424626, 41.536527], [-8.433306, 41.527762], [-8.445341, 41.522093], [-8.45734, 41.520562], [-8.469309, 41.522459], [-8.478361, 41.527776], [-8.486583, 41.53682], [-8.486645, 41.545828], [-8.481096, 41.55481], [-8.470427, 41.563769], [-8.456937, 41.568695]], [[-8.620414, 41.546347], [-8.613001, 41.544955], [-8.601902, 41.537277], [-8.597633, 41.528255], [-8.601179, 41.517613], [-8.61321, 41.50989], [-8.625197, 41.509212], [-8.637156, 41.513525], [-8.644816, 41.519403], [-8.648861, 41.528423], [-8.646109, 41.537422], [-8.636982, 41.544692], [-8.624978, 41.547182], [-8.620414, 41.546347]], [[-8.553541, 41.473853], [-8.541578, 41.472022], [-8.531905, 41.464954], [-8.52842, 41.455932], [-8.531993, 41.446939], [-8.541802, 41.440192], [-8.553783, 41.438557], [-8.565727, 41.442591], [-8.571036, 41.447092], [-8.574465, 41.456112], [-8.571252, 41.465107], [-8.565543, 41.470163], [-8.553541, 41.473853]]], [[[-7.818334, 41.714421], [-7.832206, 41.721184], [-7.842486, 41.723141], [-7.854511, 41.723043], [-7.866613, 41.718463], [-7.872442, 41.712579], [-7.876354, 41.70361], [-7.878221, 41.694622], [-7.8776, 41.676079], [-7.876723, 41.681253], [-7.873401, 41.686198], [-7.868896, 41.686413], [-7.868008, 41.68326], [-7.864403, 41.683701], [-7.864096, 41.685276], [-7.858987, 41.68639], [-7.857694, 41.689538], [-7.866996, 41.696673], [-7.86919, 41.70354], [-7.865778, 41.712513], [-7.854594, 41.718334], [-7.842591, 41.717294], [-7.832674, 41.712182], [-7.831867, 41.710181], [-7.825252, 41.708813], [-7.818334, 41.714421]]], [[[-7.856012, 41.688408], [-7.856012, 41.688408], [-7.856276, 41.688585], [-7.856012, 41.688408]]], [[[-7.856348, 41.688634], [-7.856348, 41.688634], [-7.856575, 41.688786], [-7.856348, 41.688634]]], [[[-7.857021, 41.689086], [-7.857021, 41.689086], [-7.857174, 41.689189], [-7.857021, 41.689086]]], [[[-7.857357, 41.689312], [-7.857357, 41.689312], [-7.857473, 41.68939], [-7.857357, 41.689312]]]]}}, {"id": "0", "type": "Feature", "properties": {"fill": "#e57b10", "value_min": -1.75, "value_max": -1.5}, "geometry": {"type": "MultiPolygon", "coordinates": [[[[-8.095627, 41.675512], [-8.083612, 41.675608], [-8.081188, 41.67841], [-8.083534, 41.681101], [-8.09555, 41.68103], [-8.097722, 41.678541], [-8.095627, 41.675512]]], [[[-8.122308, 41.479846], [-8.110337, 41.479335], [-8.10942, 41.480474], [-8.110304, 41.481736], [-8.122287, 41.481399], [-8.122308, 41.479846]]]]}}, {"id": "9", "type": "Feature", "properties": {"fill": "#a3a3a3", "value_min": 0.5, "value_max": -0.75}, "geometry": {"type": "MultiPolygon", "coordinates": [[[[-7.850859, 41.78442], [-7.865456, 41.784227], [-7.877522, 41.782377], [-7.891743, 41.775815], [-7.898973, 41.766878], [-7.900781, 41.757888], [-7.899296, 41.748867], [-7.890292, 41.739682], [-7.878361, 41.734227], [-7.866355, 41.73318], [-7.842249, 41.736381], [-7.832913, 41.739205], [-7.82013, 41.748081], [-7.816708, 41.757053], [-7.818067, 41.766074], [-7.824098, 41.775142], [-7.829453, 41.778783], [-7.841403, 41.783377], [-7.850859, 41.78442]], [[-7.865503, 41.781529], [-7.85347, 41.781519], [-7.841486, 41.77877], [-7.8345, 41.775248], [-7.826408, 41.766159], [-7.824916, 41.757137], [-7.829923, 41.748181], [-7.842173, 41.740591], [-7.854256, 41.737378], [-7.866295, 41.73657], [-7.878274, 41.739223], [-7.890171, 41.746685], [-7.895611, 41.757839], [-7.893365, 41.766824], [-7.884461, 41.775744], [-7.877581, 41.779013], [-7.865503, 41.781529]]], [[[-8.337576, 41.511956], [-8.349567, 41.511204], [-8.361603, 41.5059], [-8.367764, 41.500199], [-8.372084, 41.491215], [-8.372225, 41.482208], [-8.368482, 41.47318], [-8.361991, 41.466378], [-8.350072, 41.460713], [-8.338108, 41.459709], [-8.324055, 41.46392], [-8.314032, 41.471869], [-8.309514, 41.481849], [-8.31009, 41.49086], [-8.314886, 41.499896], [-8.325629, 41.508421], [-8.337576, 41.511956]], [[-8.337652, 41.504536], [-8.325719, 41.499809], [-8.319107, 41.490914], [-8.319012, 41.481906], [-8.325999, 41.472745], [-8.33802, 41.468341], [-8.349984, 41.469498], [-8.361868, 41.478834], [-8.363816, 41.482162], [-8.363821, 41.49117], [-8.356135, 41.500134], [-8.349643, 41.503631], [-8.337652, 41.504536]]]]}}, {"id": "10", "type": "Feature", "properties": {"fill": "#a3a3a3", "value_min": 0.75, "value_max": -1.0}, "geometry": {"type": "MultiPolygon", "coordinates": [[[[-7.865503, 41.781529], [-7.877581, 41.779013], [-7.884461, 41.775744], [-7.893365, 41.766824], [-7.895611, 41.757839], [-7.890171, 41.746685], [-7.878274, 41.739223], [-7.866295, 41.73657], [-7.854256, 41.737378], [-7.842173, 41.740591], [-7.829923, 41.748181], [-7.824916, 41.757137], [-7.826408, 41.766159], [-7.8345, 41.775248], [-7.841486, 41.77877], [-7.85347, 41.781519], [-7.865503, 41.781529]], [[-7.853525, 41.77842], [-7.841573, 41.773985], [-7.833245, 41.766229], [-7.831781, 41.757207], [-7.836729, 41.748251], [-7.854201, 41.740466], [-7.866238, 41.739843], [-7.878212, 41.742755], [-7.886687, 41.748746], [-7.890442, 41.757789], [-7.888344, 41.766775], [-7.877551, 41.775677], [-7.865551, 41.778832], [-7.853525, 41.77842]]], [[[-8.337652, 41.504536], [-8.349643, 41.503631], [-8.356135, 41.500134], [-8.363821, 41.49117], [-8.363816, 41.482162], [-8.361868, 41.478834], [-8.349984, 41.469498], [-8.33802, 41.468341], [-8.325999, 41.472745], [-8.319012, 41.481906], [-8.319107, 41.490914], [-8.325719, 41.499809], [-8.337652, 41.504536]], [[-8.337731, 41.496797], [-8.32922, 41.490973], [-8.32968, 41.481968], [-8.337935, 41.47671], [-8.349895, 41.478392], [-8.353887, 41.482107], [-8.354182, 41.491116], [-8.349727, 41.49524], [-8.337731, 41.496797]]]]}}, {"id": "11", "type": "Feature", "properties": {"fill": "#90a4bc", "value_min": 1.0, "value_max": -1.25}, "geometry": {"type": "MultiPolygon", "coordinates": [[[[-7.853525, 41.77842], [-7.865551, 41.778832], [-7.877551, 41.775677], [-7.888344, 41.766775], [-7.890442, 41.757789], [-7.886687, 41.748746], [-7.878212, 41.742755], [-7.866238, 41.739843], [-7.854201, 41.740466], [-7.836729, 41.748251], [-7.831781, 41.757207], [-7.833245, 41.766229], [-7.841573, 41.773985], [-7.853525, 41.77842]], [[-7.855428, 41.775459], [-7.839108, 41.766288], [-7.836993, 41.75726], [-7.843314, 41.748317], [-7.854151, 41.743283], [-7.866194, 41.7423], [-7.878153, 41.746149], [-7.881761, 41.748698], [-7.886811, 41.757754], [-7.884332, 41.766736], [-7.877699, 41.772234], [-7.867706, 41.775581], [-7.855428, 41.775459]]], [[[-8.337731, 41.496797], [-8.349727, 41.49524], [-8.354182, 41.491116], [-8.353887, 41.482107], [-8.349895, 41.478392], [-8.337935, 41.47671], [-8.32968, 41.481968], [-8.32922, 41.490973], [-8.337731, 41.496797]]]]}}, {"id": "4", "type": "Feature", "properties": {"fill": "#a3a3a3", "value_min": -0.75, "value_max": -0.5}, "geometry": {"type": "MultiPolygon", "coordinates": [[[[-7.843476, 41.865351], [-7.833977, 41.847297], [-7.820492, 41.838153], [-7.792507, 41.823974], [-7.768578, 41.815935], [-7.75657, 41.814303], [-7.728172, 41.814687], [-7.732041, 41.821514], [-7.743152, 41.825154], [-7.742839, 41.827178], [-7.738919, 41.828515], [-7.73951, 41.830212], [-7.756288, 41.828866], [-7.768303, 41.830273], [-7.78669, 41.837801], [-7.797633, 41.846922], [-7.803068, 41.855986], [-7.805497, 41.869686], [-7.813032, 41.871958], [-7.814229, 41.873537], [-7.823863, 41.874013], [-7.825059, 41.875817], [-7.830479, 41.875831], [-7.830789, 41.874031], [-7.832894, 41.874712], [-7.83772, 41.872924], [-7.842528, 41.875187], [-7.841663, 41.866632], [-7.843476, 41.865351]]], [[[-7.948289, 41.870052], [-7.960361, 41.868744], [-7.972497, 41.863307], [-7.978627, 41.857681], [-7.982899, 41.848713], [-7.982326, 41.839701], [-7.975981, 41.830638], [-7.961091, 41.823635], [-7.949067, 41.822578], [-7.936986, 41.824974], [-7.926161, 41.830183], [-7.916991, 41.839103], [-7.916132, 41.848102], [-7.920559, 41.85715], [-7.924345, 41.860778], [-7.936279, 41.867673], [-7.948289, 41.870052]]], [[[-7.876436, 41.844569], [-7.890407, 41.83885], [-7.898896, 41.829924], [-7.900396, 41.820932], [-7.898605, 41.811908], [-7.889206, 41.80261], [-7.877234, 41.798884], [-7.86519, 41.799305], [-7.855191, 41.802477], [-7.844969, 41.811381], [-7.842047, 41.820359], [-7.842559, 41.829371], [-7.847698, 41.838429], [-7.852388, 41.842179], [-7.86438, 41.845129], [-7.876436, 41.844569]], [[-7.864795, 41.821675], [-7.859356, 41.811525], [-7.865062, 41.806541], [-7.877111, 41.805935], [-7.883505, 41.811762], [-7.878802, 41.820723], [-7.876829, 41.822082], [-7.864795, 41.821675]]], [[[-8.342602, 41.761466], [-8.339331, 41.743233], [-8.329415, 41.725162], [-8.323437, 41.718568], [-8.311498, 41.710835], [-8.299509, 41.707919], [-8.287489, 41.707925], [-8.275441, 41.710496], [-8.251244, 41.723972], [-8.226987, 41.741568], [-8.214936, 41.743622], [-8.202987, 41.737349], [-8.198926, 41.733333], [-8.179102, 41.724347], [-8.167093, 41.723305], [-8.155021, 41.727016], [-8.144782, 41.732943], [-8.133996, 41.741869], [-8.130264, 41.750848], [-8.130913, 41.759859], [-8.136141, 41.768906], [-8.142365, 41.774587], [-8.154307, 41.781498], [-8.166292, 41.785239], [-8.202342, 41.789445], [-8.217591, 41.795573], [-8.217589, 41.793634], [-8.224207, 41.794303], [-8.229917, 41.791598], [-8.240744, 41.791588], [-8.24074, 41.789338], [-8.244347, 41.787984], [-8.245546, 41.785731], [-8.251257, 41.784375], [-8.251845, 41.777172], [-8.257551, 41.773564], [-8.261762, 41.774235], [-8.269268, 41.769167], [-8.259426, 41.76076], [-8.256723, 41.751735], [-8.259205, 41.742744], [-8.26873, 41.733798], [-8.275217, 41.730413], [-8.287262, 41.728503], [-8.29926, 41.730887], [-8.304759, 41.734022], [-8.31314, 41.743079], [-8.314949, 41.752097], [-8.311095, 41.762069], [-8.318308, 41.761283], [-8.326436, 41.765096], [-8.328234, 41.763292], [-8.336653, 41.763728], [-8.342602, 41.761466]]], [[[-8.070752, 41.734377], [-8.082795, 41.733107], [-8.093065, 41.723539], [-8.098106, 41.705565], [-8.102769, 41.696594], [-8.119535, 41.684277], [-8.130406, 41.678793], [-8.131423, 41.669793], [-8.122729, 41.66072], [-8.096046, 41.645542], [-8.060189, 41.634061], [-8.036352, 41.622312], [-8.024396, 41.619103], [-8.012399, 41.618695], [-8.000357, 41.621252], [-7.988249, 41.627901], [-7.978079, 41.641511], [-7.976218, 41.650502], [-7.976887, 41.659515], [-7.980051, 41.66855], [-7.986313, 41.677612], [-7.995945, 41.686704], [-8.011196, 41.697382], [-8.034928, 41.717706], [-8.046822, 41.726303], [-8.058769, 41.731524], [-8.070752, 41.734377]], [[-8.071238, 41.700656], [-8.063154, 41.696278], [-8.052013, 41.68718], [-8.047451, 41.678135], [-8.035596, 41.67301], [-8.023578, 41.673313], [-8.013234, 41.668839], [-8.007766, 41.659785], [-8.012328, 41.650818], [-8.023979, 41.646772], [-8.03928, 41.651046], [-8.047807, 41.659587], [-8.059838, 41.658196], [-8.071898, 41.654754], [-8.08392, 41.65387], [-8.095904, 41.65571], [-8.107833, 41.661615], [-8.1161, 41.669677], [-8.116079, 41.678683], [-8.095338, 41.696162], [-8.08324, 41.701826], [-8.071238, 41.700656]]], [[[-7.831867, 41.710181], [-7.832674, 41.712182], [-7.842591, 41.717294], [-7.854594, 41.718334], [-7.865778, 41.712513], [-7.86919, 41.70354], [-7.866996, 41.696673], [-7.857694, 41.689538], [-7.857473, 41.68939], [-7.857357, 41.689312], [-7.857174, 41.689189], [-7.857021, 41.689086], [-7.856575, 41.688786], [-7.856348, 41.688634], [-7.856276, 41.688585], [-7.856012, 41.688408], [-7.852367, 41.68975], [-7.847538, 41.695365], [-7.837309, 41.699391], [-7.835792, 41.702763], [-7.839682, 41.705924], [-7.838465, 41.709522], [-7.831867, 41.710181]], [[-7.850427, 41.712361], [-7.84343, 41.703284], [-7.854927, 41.699607], [-7.858929, 41.703439], [-7.856018, 41.712417], [-7.850427, 41.712361]]], [[[-8.371875, 41.68252], [-8.383891, 41.682411], [-8.389863, 41.680463], [-8.395954, 41.677359], [-8.402366, 41.671522], [-8.403692, 41.662521], [-8.397333, 41.653481], [-8.384223, 41.647645], [-8.372213, 41.647801], [-8.36015, 41.653266], [-8.353536, 41.66225], [-8.354094, 41.67126], [-8.36445, 41.680325], [-8.371875, 41.68252]]], [[[-8.456937, 41.568695], [-8.470427, 41.563769], [-8.481096, 41.55481], [-8.486645, 41.545828], [-8.486583, 41.53682], [-8.478361, 41.527776], [-8.469309, 41.522459], [-8.45734, 41.520562], [-8.445341, 41.522093], [-8.433306, 41.527762], [-8.424626, 41.536527], [-8.421912, 41.54552], [-8.42379, 41.554537], [-8.432991, 41.563883], [-8.444945, 41.568415], [-8.456937, 41.568695]], [[-8.450098, 41.545659], [-8.457163, 41.541636], [-8.459126, 41.545701], [-8.457116, 41.547355], [-8.450098, 41.545659]]], [[[-8.620414, 41.546347], [-8.624978, 41.547182], [-8.636982, 41.544692], [-8.646109, 41.537422], [-8.648861, 41.528423], [-8.644816, 41.519403], [-8.637156, 41.513525], [-8.625197, 41.509212], [-8.61321, 41.50989], [-8.601179, 41.517613], [-8.597633, 41.528255], [-8.601902, 41.537277], [-8.613001, 41.544955], [-8.620414, 41.546347]]], [[[-8.078332, 41.499957], [-8.145881, 41.508884], [-8.163885, 41.507905], [-8.193915, 41.500635], [-8.206442, 41.517213], [-8.216139, 41.526287], [-8.229485, 41.532228], [-8.241459, 41.533293], [-8.253478, 41.530606], [-8.267166, 41.517616], [-8.268697, 41.508619], [-8.26611, 41.499595], [-8.253963, 41.488349], [-8.242031, 41.484273], [-8.230062, 41.48348], [-8.206061, 41.487123], [-8.200534, 41.481143], [-8.18926, 41.454042], [-8.170839, 41.431096], [-8.147112, 41.415032], [-8.1233, 41.406165], [-8.108008, 41.403519], [-8.104419, 41.406252], [-8.104119, 41.408728], [-8.101727, 41.409403], [-8.102025, 41.411204], [-8.092756, 41.411201], [-8.09126, 41.414352], [-8.081986, 41.4193], [-8.078697, 41.419524], [-8.077503, 41.416597], [-8.070923, 41.41862], [-8.066739, 41.416142], [-8.061654, 41.417489], [-8.059852, 41.424916], [-8.055959, 41.429415], [-8.05745, 41.432793], [-8.056549, 41.436394], [-8.057743, 41.438645], [-8.061033, 41.438872], [-8.063424, 41.4409], [-8.064916, 41.444052], [-8.068505, 41.444729], [-8.070288, 41.457619], [-8.074804, 41.45129], [-8.086894, 41.442862], [-8.098921, 41.438806], [-8.110907, 41.437602], [-8.122864, 41.438551], [-8.13479, 41.441895], [-8.146678, 41.44816], [-8.153403, 41.453784], [-8.160219, 41.462841], [-8.163456, 41.471872], [-8.163086, 41.480877], [-8.158068, 41.489847], [-8.146016, 41.498634], [-8.133993, 41.501796], [-8.122004, 41.502342], [-8.096314, 41.498386], [-8.086176, 41.494014], [-8.077011, 41.489226], [-8.068792, 41.479393], [-8.066074, 41.483218], [-8.066069, 41.48817], [-8.072054, 41.490199], [-8.07175, 41.494925], [-8.078332, 41.499957]]], [[[-8.068837, 41.460035], [-8.068837, 41.460035], [-8.069242, 41.45936], [-8.068837, 41.460035]]], [[[-8.553541, 41.473853], [-8.565543, 41.470163], [-8.571252, 41.465107], [-8.574465, 41.456112], [-8.571036, 41.447092], [-8.565727, 41.442591], [-8.553783, 41.438557], [-8.541802, 41.440192], [-8.531993, 41.446939], [-8.52842, 41.455932], [-8.531905, 41.464954], [-8.541578, 41.472022], [-8.553541, 41.473853]]]]}}, {"id": "1", "type": "Feature", "properties": {"fill": "#e19f31", "value_min": -1.5, "value_max": -1.25}, "geometry": {"type": "MultiPolygon", "coordinates": [[[[-7.764841, 41.855581], [-7.755824, 41.852797], [-7.748986, 41.855409], [-7.747795, 41.864403], [-7.755523, 41.868322], [-7.76605, 41.864601], [-7.764841, 41.855581]]], [[[-8.095464, 41.687133], [-8.102926, 41.678582], [-8.095725, 41.668482], [-8.08372, 41.668014], [-8.074388, 41.678355], [-8.083431, 41.688332], [-8.095464, 41.687133]], [[-8.095627, 41.675512], [-8.097722, 41.678541], [-8.09555, 41.68103], [-8.083534, 41.681101], [-8.081188, 41.67841], [-8.083612, 41.675608], [-8.095627, 41.675512]]], [[[-8.134231, 41.483941], [-8.136071, 41.480677], [-8.132167, 41.47164], [-8.122496, 41.465847], [-8.110527, 41.465472], [-8.099635, 41.47139], [-8.096217, 41.480371], [-8.102665, 41.489429], [-8.110158, 41.492402], [-8.122134, 41.492744], [-8.1303, 41.489641], [-8.134231, 41.483941]], [[-8.122308, 41.479846], [-8.122287, 41.481399], [-8.110304, 41.481736], [-8.10942, 41.480474], [-8.110337, 41.479335], [-8.122308, 41.479846]]]]}}, {"id": "2", "type": "Feature", "properties": {"fill": "#b6a27f", "value_min": -1.25, "value_max": -1.0}, "geometry": {"type": "MultiPolygon", "coordinates": [[[[-7.748802, 41.886951], [-7.755147, 41.887738], [-7.767239, 41.885711], [-7.773205, 41.882691], [-7.783637, 41.873795], [-7.786947, 41.864823], [-7.785559, 41.855802], [-7.778251, 41.846718], [-7.76809, 41.841409], [-7.756084, 41.839384], [-7.746068, 41.840699], [-7.746349, 41.84407], [-7.750246, 41.846784], [-7.750532, 41.849261], [-7.743309, 41.849012], [-7.746901, 41.8524], [-7.746881, 41.855776], [-7.73843, 41.859348], [-7.734159, 41.868337], [-7.730228, 41.871024], [-7.729293, 41.875972], [-7.727484, 41.876331], [-7.731187, 41.880334], [-7.742784, 41.886093], [-7.748802, 41.886951]], [[-7.764841, 41.855581], [-7.76605, 41.864601], [-7.755523, 41.868322], [-7.747795, 41.864403], [-7.748986, 41.855409], [-7.755824, 41.852797], [-7.764841, 41.855581]]], [[[-8.107588, 41.679349], [-8.106221, 41.6696], [-8.095805, 41.662808], [-8.083806, 41.661935], [-8.068856, 41.669304], [-8.065315, 41.678282], [-8.071216, 41.687337], [-8.083356, 41.69363], [-8.0954, 41.691702], [-8.107588, 41.679349]], [[-8.095464, 41.687133], [-8.083431, 41.688332], [-8.074388, 41.678355], [-8.08372, 41.668014], [-8.095725, 41.668482], [-8.102926, 41.678582], [-8.095464, 41.687133]]], [[[-8.146219, 41.48315], [-8.147563, 41.480763], [-8.146538, 41.471748], [-8.139926, 41.462691], [-8.134567, 41.458663], [-8.12265, 41.454438], [-8.110685, 41.453919], [-8.09867, 41.456916], [-8.090696, 41.462312], [-8.084735, 41.471273], [-8.084832, 41.480281], [-8.090939, 41.489336], [-8.110091, 41.497311], [-8.122061, 41.498115], [-8.134083, 41.495049], [-8.142971, 41.489736], [-8.146219, 41.48315]], [[-8.134231, 41.483941], [-8.1303, 41.489641], [-8.122134, 41.492744], [-8.110158, 41.492402], [-8.102665, 41.489429], [-8.096217, 41.480371], [-8.099635, 41.47139], [-8.110527, 41.465472], [-8.122496, 41.465847], [-8.132167, 41.47164], [-8.136071, 41.480677], [-8.134231, 41.483941]]]]}}, {"id": "3", "type": "Feature", "properties": {"fill": "#a3a3a3", "value_min": -1.0, "value_max": -0.75}, "geometry": {"type": "MultiPolygon", "coordinates": [[[[-7.805497, 41.869686], [-7.803068, 41.855986], [-7.797633, 41.846922], [-7.78669, 41.837801], [-7.768303, 41.830273], [-7.756288, 41.828866], [-7.73951, 41.830212], [-7.74729, 41.837772], [-7.746068, 41.840699], [-7.756084, 41.839384], [-7.76809, 41.841409], [-7.778251, 41.846718], [-7.785559, 41.855802], [-7.786947, 41.864823], [-7.783637, 41.873795], [-7.773205, 41.882691], [-7.767239, 41.885711], [-7.755147, 41.887738], [-7.748802, 41.886951], [-7.756022, 41.888441], [-7.758719, 41.890926], [-7.756592, 41.89407], [-7.758076, 41.897901], [-7.764097, 41.898595], [-7.779227, 41.886264], [-7.785257, 41.885157], [-7.788886, 41.882467], [-7.794007, 41.882257], [-7.796739, 41.878214], [-7.794349, 41.87438], [-7.797064, 41.873488], [-7.803381, 41.874857], [-7.805497, 41.869686]]], [[[-7.742784, 41.886093], [-7.731187, 41.880334], [-7.727484, 41.876331], [-7.720533, 41.880218], [-7.720523, 41.881793], [-7.725335, 41.882935], [-7.726208, 41.887665], [-7.737044, 41.888828], [-7.739741, 41.891088], [-7.74246, 41.889747], [-7.742784, 41.886093]]], [[[-7.864795, 41.821675], [-7.876829, 41.822082], [-7.878802, 41.820723], [-7.883505, 41.811762], [-7.877111, 41.805935], [-7.865062, 41.806541], [-7.859356, 41.811525], [-7.864795, 41.821675]]], [[[-8.311095, 41.762069], [-8.314949, 41.752097], [-8.31314, 41.743079], [-8.304759, 41.734022], [-8.29926, 41.730887], [-8.287262, 41.728503], [-8.275217, 41.730413], [-8.26873, 41.733798], [-8.259205, 41.742744], [-8.256723, 41.751735], [-8.259426, 41.76076], [-8.269268, 41.769167], [-8.271366, 41.766346], [-8.280681, 41.764083], [-8.284038, 41.761109], [-8.284931, 41.757507], [-8.287033, 41.756829], [-8.298457, 41.757263], [-8.300866, 41.758835], [-8.305674, 41.758152], [-8.311095, 41.762069]]], [[[-7.850427, 41.712361], [-7.856018, 41.712417], [-7.858929, 41.703439], [-7.854927, 41.699607], [-7.84343, 41.703284], [-7.850427, 41.712361]]], [[[-8.071238, 41.700656], [-8.08324, 41.701826], [-8.095338, 41.696162], [-8.116079, 41.678683], [-8.1161, 41.669677], [-8.107833, 41.661615], [-8.095904, 41.65571], [-8.08392, 41.65387], [-8.071898, 41.654754], [-8.059838, 41.658196], [-8.047807, 41.659587], [-8.03928, 41.651046], [-8.023979, 41.646772], [-8.012328, 41.650818], [-8.007766, 41.659785], [-8.013234, 41.668839], [-8.023578, 41.673313], [-8.035596, 41.67301], [-8.047451, 41.678135], [-8.052013, 41.68718], [-8.063154, 41.696278], [-8.071238, 41.700656]], [[-8.107588, 41.679349], [-8.0954, 41.691702], [-8.083356, 41.69363], [-8.071216, 41.687337], [-8.065315, 41.678282], [-8.068856, 41.669304], [-8.083806, 41.661935], [-8.095805, 41.662808], [-8.106221, 41.6696], [-8.107588, 41.679349]]], [[[-8.450098, 41.545659], [-8.457116, 41.547355], [-8.459126, 41.545701], [-8.457163, 41.541636], [-8.450098, 41.545659]]], [[[-8.068792, 41.479393], [-8.077011, 41.489226], [-8.086176, 41.494014], [-8.096314, 41.498386], [-8.122004, 41.502342], [-8.133993, 41.501796], [-8.146016, 41.498634], [-8.158068, 41.489847], [-8.163086, 41.480877], [-8.163456, 41.471872], [-8.160219, 41.462841], [-8.153403, 41.453784], [-8.146678, 41.44816], [-8.13479, 41.441895], [-8.122864, 41.438551], [-8.110907, 41.437602], [-8.098921, 41.438806], [-8.086894, 41.442862], [-8.074804, 41.45129], [-8.070288, 41.457619], [-8.069242, 41.45936], [-8.068837, 41.460035], [-8.069385, 41.462962], [-8.073872, 41.46499], [-8.074468, 41.468592], [-8.074164, 41.473543], [-8.068792, 41.479393]], [[-8.146219, 41.48315], [-8.142971, 41.489736], [-8.134083, 41.495049], [-8.122061, 41.498115], [-8.110091, 41.497311], [-8.090939, 41.489336], [-8.084832, 41.480281], [-8.084735, 41.471273], [-8.090696, 41.462312], [-8.09867, 41.456916], [-8.110685, 41.453919], [-8.12265, 41.454438], [-8.134567, 41.458663], [-8.139926, 41.462691], [-8.146538, 41.471748], [-8.147563, 41.480763], [-8.146219, 41.48315]]]]}}, {"id": "17", "type": "Feature", "properties": {"fill": "#2048ac", "value_min": 2.5, "value_max": -2.75}, "geometry": {"type": "Polygon", "coordinates": [[[-7.86593, 41.757343], [-7.865368, 41.757544], [-7.865919, 41.757941], [-7.866203, 41.757552], [-7.86593, 41.757343]]]}}, {"id": "14", "type": "Feature", "properties": {"fill": "#3171ee", "value_min": 1.75, "value_max": -2.0}, "geometry": {"type": "Polygon", "coordinates": [[[-7.877859, 41.763029], [-7.879853, 41.757686], [-7.878, 41.754943], [-7.866108, 41.747212], [-7.854045, 41.749215], [-7.846316, 41.757354], [-7.849572, 41.766394], [-7.853693, 41.76903], [-7.865689, 41.770986], [-7.875673, 41.766652], [-7.877859, 41.763029]], [[-7.856064, 41.766458], [-7.850493, 41.757396], [-7.853965, 41.753741], [-7.866056, 41.750183], [-7.87578, 41.757646], [-7.86995, 41.766596], [-7.865734, 41.768426], [-7.856064, 41.766458]]]}}, {"id": "13", "type": "Feature", "properties": {"fill": "#5093f6", "value_min": 1.5, "value_max": -1.75}, "geometry": {"type": "Polygon", "coordinates": [[[-7.883332, 41.75772], [-7.87638, 41.748645], [-7.866151, 41.744756], [-7.854101, 41.7461], [-7.849201, 41.748376], [-7.842138, 41.757312], [-7.84452, 41.766343], [-7.853637, 41.772174], [-7.865644, 41.773545], [-7.880319, 41.766697], [-7.883332, 41.75772]], [[-7.877859, 41.763029], [-7.875673, 41.766652], [-7.865689, 41.770986], [-7.853693, 41.76903], [-7.849572, 41.766394], [-7.846316, 41.757354], [-7.854045, 41.749215], [-7.866108, 41.747212], [-7.878, 41.754943], [-7.879853, 41.757686], [-7.877859, 41.763029]]]}}, {"id": "12", "type": "Feature", "properties": {"fill": "#71a5e5", "value_min": 1.25, "value_max": -1.5}, "geometry": {"type": "Polygon", "coordinates": [[[-7.855428, 41.775459], [-7.867706, 41.775581], [-7.877699, 41.772234], [-7.884332, 41.766736], [-7.886811, 41.757754], [-7.881761, 41.748698], [-7.878153, 41.746149], [-7.866194, 41.7423], [-7.854151, 41.743283], [-7.843314, 41.748317], [-7.836993, 41.75726], [-7.839108, 41.766288], [-7.855428, 41.775459]], [[-7.883332, 41.75772], [-7.880319, 41.766697], [-7.865644, 41.773545], [-7.853637, 41.772174], [-7.84452, 41.766343], [-7.842138, 41.757312], [-7.849201, 41.748376], [-7.854101, 41.7461], [-7.866151, 41.744756], [-7.87638, 41.748645], [-7.883332, 41.75772]]]}}, {"id": "16", "type": "Feature", "properties": {"fill": "#2253c5", "value_min": 2.25, "value_max": -2.5}, "geometry": {"type": "Polygon", "coordinates": [[[-7.865993, 41.753763], [-7.855686, 41.757448], [-7.8658, 41.764728], [-7.87099, 41.757599], [-7.865993, 41.753763]], [[-7.86593, 41.757343], [-7.866203, 41.757552], [-7.865919, 41.757941], [-7.865368, 41.757544], [-7.86593, 41.757343]]]}}, {"id": "15", "type": "Feature", "properties": {"fill": "#245ede", "value_min": 2.0, "value_max": -2.25}, "geometry": {"type": "Polygon", "coordinates": [[[-7.856064, 41.766458], [-7.865734, 41.768426], [-7.86995, 41.766596], [-7.87578, 41.757646], [-7.866056, 41.750183], [-7.853965, 41.753741], [-7.850493, 41.757396], [-7.856064, 41.766458]], [[-7.865993, 41.753763], [-7.87099, 41.757599], [-7.8658, 41.764728], [-7.855686, 41.757448], [-7.865993, 41.753763]]]}}]}