{"type": "FeatureCollection", "features": [{"id": "6", "type": "Feature", "properties": {"fill": "#5093f6", "value_min": 1.5, "value_max": 1.75}, "geometry": {"type": "MultiPolygon", "coordinates": [[[[-7.857386, 41.703423], [-7.854898, 41.701232], [-7.847562, 41.703325], [-7.853034, 41.712387], [-7.855173, 41.712408], [-7.857386, 41.703423]]], [[[-8.1334, 41.480657], [-8.127382, 41.471604], [-8.122458, 41.468703], [-8.11049, 41.468188], [-8.103881, 41.471423], [-8.097849, 41.480384], [-8.103359, 41.489434], [-8.110156, 41.49254], [-8.122136, 41.492598], [-8.128299, 41.489626], [-8.1334, 41.480657]]], [[[-8.722338, 41.209553], [-8.726771, 41.204359], [-8.729574, 41.195357], [-8.728322, 41.186347], [-8.722475, 41.177198], [-8.710587, 41.16942], [-8.69868, 41.166314], [-8.686759, 41.166411], [-8.674822, 41.169763], [-8.662858, 41.178191], [-8.657886, 41.186159], [-8.656105, 41.195161], [-8.658057, 41.204175], [-8.664818, 41.213203], [-8.674578, 41.21902], [-8.686494, 41.222034], [-8.698426, 41.221608], [-8.710373, 41.217913], [-8.722338, 41.209553]]]]}}, {"id": "4", "type": "Feature", "properties": {"fill": "#90a4bc", "value_min": 1.0, "value_max": 1.25}, "geometry": {"type": "MultiPolygon", "coordinates": [[[[-7.782521, 41.723324], [-7.824011, 41.775142], [-7.829434, 41.779852], [-7.841357, 41.78596], [-7.853347, 41.788457], [-7.865381, 41.788454], [-7.889614, 41.784801], [-7.90147, 41.789358], [-7.9022, 41.793929], [-7.908745, 41.802998], [-7.925187, 41.810476], [-7.937202, 41.811888], [-7.94925, 41.811377], [-7.961331, 41.808791], [-7.971925, 41.803581], [-7.977405, 41.794623], [-7.97455, 41.785591], [-7.961837, 41.77741], [-7.949839, 41.775309], [-7.92577, 41.775578], [-7.90162, 41.780575], [-7.895336, 41.748829], [-7.881795, 41.730684], [-7.879159, 41.721652], [-7.881964, 41.712672], [-7.893669, 41.694772], [-7.89521, 41.685779], [-7.891577, 41.676737], [-7.886702, 41.670921], [-7.883969, 41.67069], [-7.877044, 41.676077], [-7.876723, 41.681253], [-7.873401, 41.686198], [-7.868896, 41.686413], [-7.867408, 41.683258], [-7.858991, 41.68639], [-7.867107, 41.690332], [-7.870446, 41.694546], [-7.872821, 41.703576], [-7.86662, 41.718094], [-7.854457, 41.726034], [-7.842427, 41.726418], [-7.829673, 41.721158], [-7.821423, 41.711954], [-7.815291, 41.718689], [-7.808986, 41.717996], [-7.808396, 41.715744], [-7.804499, 41.714158], [-7.79939, 41.714593], [-7.79788, 41.716164], [-7.796383, 41.71526], [-7.790966, 41.717044], [-7.789449, 41.719966], [-7.78464, 41.720402], [-7.782521, 41.723324]], [[-7.937408, 41.799476], [-7.930572, 41.794197], [-7.932383, 41.785207], [-7.937681, 41.78289], [-7.949716, 41.782855], [-7.955242, 41.785417], [-7.956923, 41.794439], [-7.949439, 41.799788], [-7.937408, 41.799476]]], [[[-8.316495, 41.761736], [-8.319539, 41.752125], [-8.317551, 41.743106], [-8.311234, 41.735523], [-8.299284, 41.728661], [-8.28728, 41.726878], [-8.275233, 41.728952], [-8.266641, 41.733785], [-8.258494, 41.74274], [-8.256468, 41.751734], [-8.259019, 41.760757], [-8.268335, 41.769951], [-8.271366, 41.766346], [-8.280681, 41.764083], [-8.284038, 41.761109], [-8.284931, 41.757507], [-8.287033, 41.756829], [-8.298457, 41.757263], [-8.300866, 41.758835], [-8.305674, 41.758152], [-8.311096, 41.762195], [-8.316495, 41.761736]]], [[[-8.059231, 41.699864], [-8.047222, 41.699259], [-8.042667, 41.705116], [-8.047055, 41.710566], [-8.059068, 41.711064], [-8.063663, 41.705289], [-8.059231, 41.699864]]], [[[-8.104962, 41.542008], [-8.109475, 41.542271], [-8.129465, 41.534671], [-8.157786, 41.514889], [-8.169624, 41.498939], [-8.173551, 41.48996], [-8.176249, 41.471964], [-8.174671, 41.462946], [-8.170469, 41.453908], [-8.158752, 41.440242], [-8.146891, 41.431948], [-8.123083, 41.422315], [-8.111147, 41.420037], [-8.087216, 41.4199], [-8.075217, 41.42221], [-8.056556, 41.430412], [-8.057743, 41.438645], [-8.061033, 41.438872], [-8.064916, 41.444052], [-8.067908, 41.444279], [-8.069999, 41.447206], [-8.068788, 41.462286], [-8.073872, 41.46499], [-8.074468, 41.468141], [-8.073564, 41.474668], [-8.066374, 41.482318], [-8.066069, 41.48817], [-8.072054, 41.490199], [-8.07175, 41.494925], [-8.078333, 41.49898], [-8.078332, 41.500331], [-8.093, 41.504613], [-8.089398, 41.519242], [-8.090594, 41.522169], [-8.093588, 41.52307], [-8.091487, 41.531173], [-8.103764, 41.541938], [-8.104487, 41.541981], [-8.104962, 41.542008]], [[-8.121974, 41.504566], [-8.11, 41.50398], [-8.098053, 41.501424], [-8.090484, 41.49834], [-8.078959, 41.489241], [-8.075447, 41.480206], [-8.076112, 41.471204], [-8.08132, 41.462238], [-8.086687, 41.45766], [-8.098741, 41.4518], [-8.110741, 41.449786], [-8.122699, 41.450803], [-8.134615, 41.455049], [-8.144818, 41.462728], [-8.150677, 41.471778], [-8.152035, 41.480796], [-8.149284, 41.489783], [-8.14608, 41.493721], [-8.133986, 41.502292], [-8.121974, 41.504566]]], [[[-8.721068, 41.507616], [-8.728886, 41.501617], [-8.735891, 41.492626], [-8.739614, 41.483627], [-8.740459, 41.474621], [-8.738706, 41.46561], [-8.733857, 41.456591], [-8.725775, 41.447565], [-8.709397, 41.437792], [-8.697446, 41.433871], [-8.685484, 41.432281], [-8.673513, 41.432668], [-8.661531, 41.435323], [-8.649532, 41.440759], [-8.637508, 41.450387], [-8.632866, 41.456313], [-8.627972, 41.465305], [-8.625821, 41.474305], [-8.626326, 41.483315], [-8.630273, 41.492335], [-8.637236, 41.499097], [-8.649174, 41.50715], [-8.661128, 41.51268], [-8.673093, 41.516344], [-8.685072, 41.517567], [-8.69706, 41.516784], [-8.709058, 41.513679], [-8.721068, 41.507616]], [[-8.673189, 41.497313], [-8.661216, 41.495873], [-8.649272, 41.488991], [-8.644614, 41.483372], [-8.643391, 41.474361], [-8.649408, 41.463866], [-8.661415, 41.457529], [-8.673394, 41.456395], [-8.685352, 41.459563], [-8.693844, 41.465499], [-8.698615, 41.474519], [-8.697438, 41.483524], [-8.689295, 41.492509], [-8.673189, 41.497313]]], [[[-8.36171, 41.494985], [-8.363598, 41.491168], [-8.363343, 41.48216], [-8.356199, 41.473112], [-8.34999, 41.468942], [-8.338034, 41.466993], [-8.326029, 41.469909], [-8.321358, 41.472912], [-8.315016, 41.481882], [-8.315093, 41.49089], [-8.321228, 41.499933], [-8.325684, 41.503146], [-8.337631, 41.506604], [-8.349629, 41.505051], [-8.357254, 41.50014], [-8.36171, 41.494985]]], [[[-8.659161, 41.366318], [-8.658802, 41.35731], [-8.652248, 41.348282], [-8.63811, 41.341912], [-8.626158, 41.341844], [-8.614175, 41.346979], [-8.607721, 41.357147], [-8.60871, 41.366158], [-8.614021, 41.373148], [-8.625943, 41.379497], [-8.637896, 41.380621], [-8.649873, 41.377197], [-8.659161, 41.366318]]], [[[-8.605963, 41.167803], [-8.617067, 41.204046], [-8.626817, 41.226316], [-8.638672, 41.240163], [-8.650573, 41.246392], [-8.662495, 41.248795], [-8.686366, 41.248831], [-8.734134, 41.242265], [-8.775798, 41.231488], [-8.794711, 41.222516], [-8.802564, 41.217133], [-8.799695, 41.14406], [-8.735538, 41.145482], [-8.746414, 41.152605], [-8.753344, 41.159379], [-8.759227, 41.168399], [-8.762446, 41.177414], [-8.763168, 41.186423], [-8.761472, 41.195428], [-8.757119, 41.204427], [-8.749892, 41.213419], [-8.734207, 41.224202], [-8.715695, 41.231356], [-8.698366, 41.234627], [-8.686431, 41.23508], [-8.674505, 41.233795], [-8.665848, 41.231222], [-8.6507, 41.22254], [-8.642803, 41.213137], [-8.636091, 41.193561], [-8.632526, 41.188624], [-8.625658, 41.186628], [-8.621132, 41.178994], [-8.613374, 41.177451], [-8.608583, 41.174095], [-8.609164, 41.172066], [-8.605963, 41.167803]]], [[[-8.605763, 41.166228], [-8.605763, 41.166228], [-8.60585, 41.166913], [-8.605763, 41.166228]]]]}}, {"id": "5", "type": "Feature", "properties": {"fill": "#71a5e5", "value_min": 1.25, "value_max": 1.5}, "geometry": {"type": "MultiPolygon", "coordinates": [[[[-7.937408, 41.799476], [-7.949439, 41.799788], [-7.956923, 41.794439], [-7.955242, 41.785417], [-7.949716, 41.782855], [-7.937681, 41.78289], [-7.932383, 41.785207], [-7.930572, 41.794197], [-7.937408, 41.799476]]], [[[-7.821423, 41.711954], [-7.829673, 41.721158], [-7.842427, 41.726418], [-7.854457, 41.726034], [-7.86662, 41.718094], [-7.872821, 41.703576], [-7.870446, 41.694546], [-7.867107, 41.690332], [-7.858991, 41.68639], [-7.857773, 41.689538], [-7.854776, 41.68818], [-7.847538, 41.695365], [-7.837309, 41.699391], [-7.835792, 41.702763], [-7.839682, 41.705924], [-7.838465, 41.709522], [-7.832453, 41.710407], [-7.825252, 41.708813], [-7.821423, 41.711954]], [[-7.857386, 41.703423], [-7.855173, 41.712408], [-7.853034, 41.712387], [-7.847562, 41.703325], [-7.854898, 41.701232], [-7.857386, 41.703423]]], [[[-8.121974, 41.504566], [-8.133986, 41.502292], [-8.14608, 41.493721], [-8.149284, 41.489783], [-8.152035, 41.480796], [-8.150677, 41.471778], [-8.144818, 41.462728], [-8.134615, 41.455049], [-8.122699, 41.450803], [-8.110741, 41.449786], [-8.098741, 41.4518], [-8.086687, 41.45766], [-8.08132, 41.462238], [-8.076112, 41.471204], [-8.075447, 41.480206], [-8.078959, 41.489241], [-8.090484, 41.49834], [-8.098053, 41.501424], [-8.11, 41.50398], [-8.121974, 41.504566]], [[-8.1334, 41.480657], [-8.128299, 41.489626], [-8.122136, 41.492598], [-8.110156, 41.49254], [-8.103359, 41.489434], [-8.097849, 41.480384], [-8.103881, 41.471423], [-8.11049, 41.468188], [-8.122458, 41.468703], [-8.127382, 41.471604], [-8.1334, 41.480657]]], [[[-8.673189, 41.497313], [-8.689295, 41.492509], [-8.697438, 41.483524], [-8.698615, 41.474519], [-8.693844, 41.465499], [-8.685352, 41.459563], [-8.673394, 41.456395], [-8.661415, 41.457529], [-8.649408, 41.463866], [-8.643391, 41.474361], [-8.644614, 41.483372], [-8.649272, 41.488991], [-8.661216, 41.495873], [-8.673189, 41.497313]]], [[[-8.636091, 41.193561], [-8.642803, 41.213137], [-8.6507, 41.22254], [-8.665848, 41.231222], [-8.674505, 41.233795], [-8.686431, 41.23508], [-8.698366, 41.234627], [-8.715695, 41.231356], [-8.734207, 41.224202], [-8.749892, 41.213419], [-8.757119, 41.204427], [-8.761472, 41.195428], [-8.763168, 41.186423], [-8.762446, 41.177414], [-8.759227, 41.168399], [-8.753344, 41.159379], [-8.746414, 41.152605], [-8.735538, 41.145482], [-8.674793, 41.146932], [-8.674849, 41.153767], [-8.672489, 41.15648], [-8.66117, 41.156307], [-8.662078, 41.158104], [-8.660313, 41.160813], [-8.657033, 41.160378], [-8.654961, 41.161963], [-8.653231, 41.169174], [-8.655366, 41.175467], [-8.647955, 41.180228], [-8.647696, 41.185181], [-8.641225, 41.196014], [-8.638841, 41.196025], [-8.636091, 41.193561]], [[-8.722338, 41.209553], [-8.710373, 41.217913], [-8.698426, 41.221608], [-8.686494, 41.222034], [-8.674578, 41.21902], [-8.664818, 41.213203], [-8.658057, 41.204175], [-8.656105, 41.195161], [-8.657886, 41.186159], [-8.662858, 41.178191], [-8.674822, 41.169763], [-8.686759, 41.166411], [-8.69868, 41.166314], [-8.710587, 41.16942], [-8.722475, 41.177198], [-8.728322, 41.186347], [-8.729574, 41.195357], [-8.726771, 41.204359], [-8.722338, 41.209553]]]]}}, {"id": "1", "type": "Feature", "properties": {"fill": "#a3a3a3", "value_min": 0.25, "value_max": 0.5}, "geometry": {"type": "MultiPolygon", "coordinates": [[[[-8.17888, 41.741754], [-8.166899, 41.738336], [-8.162556, 41.742081], [-8.166766, 41.748598], [-8.178865, 41.742983], [-8.17888, 41.741754]]], [[[-8.026796, 41.732004], [-8.022758, 41.727498], [-8.010825, 41.721627], [-7.998745, 41.725331], [-7.993626, 41.731718], [-7.996095, 41.740747], [-8.010428, 41.74749], [-8.022506, 41.744134], [-8.025769, 41.741002], [-8.026796, 41.732004]]], [[[-8.561439, 41.616355], [-8.572239, 41.600222], [-8.574187, 41.582214], [-8.567923, 41.564176], [-8.548128, 41.537078], [-8.544638, 41.528057], [-8.545045, 41.510044], [-8.547453, 41.501046], [-8.554551, 41.492066], [-8.577462, 41.474138], [-8.583161, 41.465151], [-8.585609, 41.456153], [-8.584766, 41.447142], [-8.580143, 41.438118], [-8.565831, 41.426968], [-8.553891, 41.422885], [-8.541934, 41.421395], [-8.529964, 41.421843], [-8.51798, 41.424147], [-8.481986, 41.435702], [-8.446063, 41.437431], [-8.434081, 41.438758], [-8.422082, 41.442051], [-8.410048, 41.44904], [-8.397933, 41.46457], [-8.394916, 41.48233], [-8.397662, 41.493829], [-8.401853, 41.500381], [-8.409514, 41.50793], [-8.413517, 41.509448], [-8.421457, 41.512402], [-8.445393, 41.516069], [-8.457333, 41.521337], [-8.48557, 41.536815], [-8.491897, 41.545851], [-8.489057, 41.554846], [-8.468845, 41.579197], [-8.456798, 41.585236], [-8.420741, 41.592637], [-8.407436, 41.59949], [-8.398519, 41.608451], [-8.394488, 41.617437], [-8.394013, 41.626442], [-8.39731, 41.635467], [-8.403935, 41.644508], [-8.420174, 41.655996], [-8.432143, 41.660685], [-8.456137, 41.664014], [-8.472079, 41.662856], [-8.492222, 41.65764], [-8.539288, 41.632417], [-8.536342, 41.631977], [-8.535128, 41.62973], [-8.543431, 41.61462], [-8.554533, 41.615255], [-8.557244, 41.617046], [-8.561439, 41.616355]], [[-8.444345, 41.638462], [-8.436477, 41.635665], [-8.429838, 41.626625], [-8.432488, 41.621331], [-8.437025, 41.617654], [-8.444544, 41.615213], [-8.456519, 41.618489], [-8.461539, 41.626778], [-8.456524, 41.635762], [-8.444345, 41.638462]], [[-8.516755, 41.589034], [-8.504799, 41.583674], [-8.502145, 41.572918], [-8.50491, 41.569062], [-8.516954, 41.56235], [-8.528929, 41.564783], [-8.535915, 41.573059], [-8.534042, 41.582059], [-8.528771, 41.586545], [-8.516755, 41.589034]], [[-8.481289, 41.523111], [-8.471721, 41.518738], [-8.465645, 41.509703], [-8.470155, 41.500716], [-8.481508, 41.495693], [-8.493474, 41.497626], [-8.498259, 41.500842], [-8.503735, 41.509873], [-8.500274, 41.518866], [-8.493279, 41.522655], [-8.481289, 41.523111]], [[-8.421671, 41.488299], [-8.416809, 41.482443], [-8.421794, 41.474485], [-8.433755, 41.47634], [-8.437657, 41.482547], [-8.433663, 41.486893], [-8.421671, 41.488299]]], [[[-8.108318, 41.626392], [-8.115597, 41.61563], [-8.116158, 41.606627], [-8.10955, 41.597569], [-8.096798, 41.591665], [-8.084815, 41.590618], [-8.072786, 41.592797], [-8.063895, 41.597206], [-8.05531, 41.606143], [-8.053419, 41.615135], [-8.056954, 41.624171], [-8.072183, 41.634874], [-8.084154, 41.63732], [-8.096191, 41.635206], [-8.108318, 41.626392]], [[-8.084352, 41.623387], [-8.07727, 41.615329], [-8.084577, 41.607457], [-8.09654, 41.610191], [-8.099554, 41.615506], [-8.0964, 41.620178], [-8.084352, 41.623387]]], [[[-8.386582, 41.398302], [-8.396751, 41.392265], [-8.404051, 41.383295], [-8.406314, 41.374299], [-8.404991, 41.365285], [-8.399708, 41.35625], [-8.387071, 41.346282], [-8.375158, 41.342009], [-8.363217, 41.340875], [-8.351248, 41.34255], [-8.339242, 41.347909], [-8.330574, 41.355868], [-8.325826, 41.364848], [-8.324964, 41.373851], [-8.327781, 41.382875], [-8.335381, 41.391927], [-8.350679, 41.39982], [-8.362621, 41.401948], [-8.374589, 41.401488], [-8.386582, 41.398302]]], [[[-8.73597, 41.294458], [-8.728027, 41.285432], [-8.722026, 41.283207], [-8.710083, 41.283528], [-8.70592, 41.285378], [-8.697854, 41.294365], [-8.701024, 41.303381], [-8.70997, 41.309122], [-8.721913, 41.309858], [-8.733953, 41.303462], [-8.73597, 41.294458]]]]}}, {"id": "3", "type": "Feature", "properties": {"fill": "#a3a3a3", "value_min": 0.75, "value_max": 1.0}, "geometry": {"type": "MultiPolygon", "coordinates": [[[[-8.449233, 41.703151], [-8.441824, 41.698741], [-8.431835, 41.695691], [-8.419827, 41.694652], [-8.400742, 41.698534], [-8.371588, 41.712024], [-8.359554, 41.71337], [-8.347563, 41.710425], [-8.311663, 41.69531], [-8.299676, 41.692489], [-8.287662, 41.692303], [-8.275608, 41.695608], [-8.263512, 41.702456], [-8.251376, 41.712583], [-8.231927, 41.733558], [-8.225437, 41.751529], [-8.213282, 41.803765], [-8.217598, 41.80016], [-8.217589, 41.793634], [-8.224207, 41.794303], [-8.229917, 41.791598], [-8.240744, 41.791588], [-8.24074, 41.789338], [-8.244347, 41.787984], [-8.245546, 41.785731], [-8.251257, 41.784375], [-8.251845, 41.777172], [-8.257551, 41.773564], [-8.261762, 41.774235], [-8.268335, 41.769951], [-8.259019, 41.760757], [-8.256468, 41.751734], [-8.258494, 41.74274], [-8.266641, 41.733785], [-8.275233, 41.728952], [-8.28728, 41.726878], [-8.299284, 41.728661], [-8.311234, 41.735523], [-8.317551, 41.743106], [-8.319539, 41.752125], [-8.316495, 41.761736], [-8.319512, 41.761732], [-8.325233, 41.765098], [-8.328234, 41.763292], [-8.336653, 41.763728], [-8.341756, 41.761468], [-8.344765, 41.762363], [-8.349267, 41.760103], [-8.352557, 41.755145], [-8.349814, 41.744122], [-8.352516, 41.743441], [-8.352203, 41.739616], [-8.357897, 41.735103], [-8.362407, 41.735994], [-8.368703, 41.73193], [-8.374122, 41.734845], [-8.384922, 41.73032], [-8.387032, 41.731891], [-8.393033, 41.729852], [-8.396942, 41.730518], [-8.400531, 41.726683], [-8.402934, 41.726452], [-8.404721, 41.722847], [-8.417349, 41.725067], [-8.422737, 41.720552], [-8.429643, 41.719859], [-8.430533, 41.717381], [-8.435927, 41.714441], [-8.441333, 41.714201], [-8.4446, 41.70654], [-8.449233, 41.703151]]], [[[-8.093421, 41.81068], [-8.077427, 41.79547], [-8.063831, 41.786353], [-8.010045, 41.772368], [-7.974226, 41.755048], [-7.962117, 41.760081], [-7.949961, 41.767815], [-7.937945, 41.766934], [-7.930296, 41.758167], [-7.938281, 41.746531], [-7.958871, 41.740415], [-7.9664, 41.713463], [-7.974024, 41.695517], [-7.973863, 41.686509], [-7.963961, 41.659399], [-7.960816, 41.641356], [-7.961148, 41.623345], [-7.96648, 41.603089], [-7.960399, 41.601955], [-7.9541, 41.602846], [-7.952606, 41.600592], [-7.947808, 41.60081], [-7.945413, 41.599456], [-7.942725, 41.595625], [-7.935832, 41.594713], [-7.93791, 41.601694], [-7.937004, 41.603718], [-7.931604, 41.604384], [-7.930979, 41.612711], [-7.925556, 41.620354], [-7.920755, 41.620796], [-7.917748, 41.623041], [-7.915933, 41.627764], [-7.913229, 41.628885], [-7.912613, 41.63361], [-7.906014, 41.633147], [-7.906884, 41.641927], [-7.897869, 41.645511], [-7.89696, 41.647985], [-7.892759, 41.647976], [-7.892145, 41.651576], [-7.902319, 41.659925], [-7.899913, 41.66127], [-7.900198, 41.665547], [-7.898396, 41.665769], [-7.896885, 41.668692], [-7.886702, 41.670921], [-7.891577, 41.676737], [-7.89521, 41.685779], [-7.893669, 41.694772], [-7.881964, 41.712672], [-7.879159, 41.721652], [-7.881795, 41.730684], [-7.895336, 41.748829], [-7.90162, 41.780575], [-7.92577, 41.775578], [-7.949839, 41.775309], [-7.961837, 41.77741], [-7.97455, 41.785591], [-7.977405, 41.794623], [-7.971925, 41.803581], [-7.961331, 41.808791], [-7.94925, 41.811377], [-7.937202, 41.811888], [-7.925187, 41.810476], [-7.908745, 41.802998], [-7.9022, 41.793929], [-7.90147, 41.789358], [-7.889614, 41.784801], [-7.865381, 41.788454], [-7.853347, 41.788457], [-7.841357, 41.78596], [-7.829434, 41.779852], [-7.824011, 41.775142], [-7.782521, 41.723324], [-7.776204, 41.724652], [-7.773786, 41.727346], [-7.7678, 41.723276], [-7.763888, 41.724389], [-7.761765, 41.727758], [-7.762933, 41.733839], [-7.759307, 41.737203], [-7.759597, 41.739005], [-7.75689, 41.739446], [-7.758687, 41.740577], [-7.757758, 41.745301], [-7.748417, 41.749321], [-7.747786, 41.754496], [-7.744773, 41.755836], [-7.75758, 41.76199], [-7.769369, 41.774618], [-7.772561, 41.78361], [-7.772563, 41.792617], [-7.768805, 41.804069], [-7.760471, 41.819507], [-7.765502, 41.828568], [-7.780186, 41.838679], [-7.78808, 41.846822], [-7.793426, 41.855885], [-7.795421, 41.864913], [-7.794403, 41.873909], [-7.790392, 41.882471], [-7.794007, 41.882257], [-7.796739, 41.878214], [-7.794349, 41.87438], [-7.797064, 41.873488], [-7.803381, 41.874857], [-7.804914, 41.869459], [-7.813032, 41.871958], [-7.814229, 41.873537], [-7.823863, 41.874013], [-7.825059, 41.875817], [-7.830479, 41.875831], [-7.830789, 41.874031], [-7.832894, 41.874712], [-7.83772, 41.872924], [-7.842528, 41.875187], [-7.841663, 41.866632], [-7.849515, 41.861475], [-7.858542, 41.862622], [-7.859456, 41.860148], [-7.864877, 41.859711], [-7.87033, 41.851395], [-7.873043, 41.850501], [-7.873066, 41.844875], [-7.879056, 41.85254], [-7.886268, 41.855932], [-7.888076, 41.855486], [-7.891675, 41.859094], [-7.900698, 41.861588], [-7.904318, 41.859795], [-7.907309, 41.865203], [-7.906095, 41.868126], [-7.910299, 41.871285], [-7.909985, 41.875111], [-7.91479, 41.879171], [-7.928044, 41.87807], [-7.931524, 41.876501], [-7.924171, 41.871164], [-7.920341, 41.866155], [-7.916189, 41.857109], [-7.915537, 41.848096], [-7.918133, 41.839114], [-7.926292, 41.830184], [-7.936982, 41.825215], [-7.949063, 41.8228], [-7.961098, 41.823159], [-7.973094, 41.826004], [-7.984309, 41.830712], [-7.995074, 41.839813], [-7.999892, 41.850716], [-8.003089, 41.850494], [-8.005804, 41.847346], [-8.007928, 41.838796], [-8.012753, 41.833624], [-8.013363, 41.829124], [-8.017873, 41.831379], [-8.02901, 41.829589], [-8.037134, 41.831171], [-8.041351, 41.828023], [-8.041054, 41.825097], [-8.045268, 41.824425], [-8.047679, 41.821276], [-8.057314, 41.815656], [-8.06664, 41.817012], [-8.072961, 41.813414], [-8.078678, 41.813417], [-8.082892, 41.810493], [-8.090111, 41.812521], [-8.093421, 41.81068]]], [[[-8.076179, 41.567195], [-8.157004, 41.575129], [-8.181002, 41.574555], [-8.193574, 41.571168], [-8.206191, 41.562248], [-8.209945, 41.553267], [-8.203325, 41.517192], [-8.205973, 41.499196], [-8.218114, 41.481004], [-8.230199, 41.471922], [-8.242239, 41.466428], [-8.254225, 41.465531], [-8.266136, 41.471176], [-8.277951, 41.485696], [-8.29782, 41.526815], [-8.301422, 41.530909], [-8.312389, 41.53591], [-8.325325, 41.537787], [-8.349346, 41.53329], [-8.3614, 41.526561], [-8.370105, 41.518226], [-8.375783, 41.50925], [-8.379483, 41.491255], [-8.376919, 41.473226], [-8.373317, 41.464199], [-8.366732, 41.455156], [-8.362147, 41.450404], [-8.350239, 41.443986], [-8.338305, 41.440344], [-8.278526, 41.433791], [-8.267108, 41.427542], [-8.25932, 41.418485], [-8.255291, 41.409451], [-8.253761, 41.382419], [-8.246709, 41.36478], [-8.244864, 41.365457], [-8.244272, 41.368384], [-8.239197, 41.371315], [-8.232024, 41.369971], [-8.224854, 41.370878], [-8.21738, 41.368182], [-8.214399, 41.373587], [-8.208127, 41.376968], [-8.199163, 41.377423], [-8.194677, 41.374275], [-8.191691, 41.376302], [-8.189299, 41.375403], [-8.184818, 41.376756], [-8.168382, 41.377438], [-8.1642, 41.38059], [-8.152544, 41.375866], [-8.151049, 41.37339], [-8.145073, 41.374742], [-8.139694, 41.377894], [-8.133418, 41.374292], [-8.119672, 41.376768], [-8.119672, 41.378569], [-8.116683, 41.380144], [-8.117578, 41.386447], [-8.113992, 41.386896], [-8.112795, 41.390723], [-8.110105, 41.390947], [-8.108011, 41.393648], [-8.103827, 41.392972], [-8.105321, 41.394998], [-8.10263, 41.396123], [-8.10801, 41.398825], [-8.108606, 41.403102], [-8.104419, 41.406252], [-8.104119, 41.408728], [-8.101727, 41.409403], [-8.102025, 41.411204], [-8.092756, 41.411201], [-8.09126, 41.414352], [-8.079893, 41.41975], [-8.077503, 41.416597], [-8.070923, 41.41862], [-8.066739, 41.416142], [-8.061953, 41.417264], [-8.056556, 41.430412], [-8.075217, 41.42221], [-8.087216, 41.4199], [-8.111147, 41.420037], [-8.123083, 41.422315], [-8.146891, 41.431948], [-8.158752, 41.440242], [-8.170469, 41.453908], [-8.174671, 41.462946], [-8.176249, 41.471964], [-8.173551, 41.48996], [-8.169624, 41.498939], [-8.157786, 41.514889], [-8.129465, 41.534671], [-8.109475, 41.542271], [-8.104962, 41.542008], [-8.106459, 41.543782], [-8.101666, 41.542655], [-8.094475, 41.544904], [-8.087885, 41.542876], [-8.083389, 41.5449], [-8.080687, 41.551651], [-8.074097, 41.549848], [-8.073494, 41.553449], [-8.075891, 41.554575], [-8.076188, 41.557276], [-8.079783, 41.558403], [-8.082177, 41.563131], [-8.081276, 41.565382], [-8.078879, 41.56493], [-8.076179, 41.567195]], [[-8.36171, 41.494985], [-8.357254, 41.50014], [-8.349629, 41.505051], [-8.337631, 41.506604], [-8.325684, 41.503146], [-8.321228, 41.499933], [-8.315093, 41.49089], [-8.315016, 41.481882], [-8.321358, 41.472912], [-8.326029, 41.469909], [-8.338034, 41.466993], [-8.34999, 41.468942], [-8.356199, 41.473112], [-8.363343, 41.48216], [-8.363598, 41.491168], [-8.36171, 41.494985]]], [[[-8.57627, 41.197681], [-8.583178, 41.203928], [-8.589195, 41.212958], [-8.591663, 41.221975], [-8.590992, 41.231238], [-8.586995, 41.239974], [-8.578938, 41.250313], [-8.566949, 41.258324], [-8.545669, 41.266841], [-8.529798, 41.275785], [-8.525323, 41.284775], [-8.525129, 41.293782], [-8.533433, 41.329847], [-8.540033, 41.347889], [-8.550182, 41.365944], [-8.56678, 41.384023], [-8.601438, 41.411171], [-8.609203, 41.420205], [-8.612424, 41.429224], [-8.612737, 41.438232], [-8.609346, 41.456236], [-8.589325, 41.519218], [-8.589585, 41.528226], [-8.593019, 41.537246], [-8.600995, 41.547623], [-8.612932, 41.556475], [-8.636854, 41.56756], [-8.68414, 41.584316], [-8.685637, 41.584086], [-8.686203, 41.580257], [-8.698452, 41.57547], [-8.701703, 41.570277], [-8.707704, 41.570923], [-8.712485, 41.569323], [-8.716422, 41.573805], [-8.720316, 41.57356], [-8.725151, 41.577811], [-8.726633, 41.576003], [-8.734424, 41.575737], [-8.736564, 41.580228], [-8.738354, 41.579318], [-8.740778, 41.582006], [-8.74467, 41.581535], [-8.750711, 41.58623], [-8.75993, 41.578527], [-8.767441, 41.580286], [-8.769874, 41.583874], [-8.768997, 41.58613], [-8.773228, 41.589482], [-8.774165, 41.593303], [-8.78556, 41.593464], [-8.797327, 41.600599], [-8.804218, 41.600109], [-8.80456, 41.604158], [-8.809434, 41.611332], [-8.828644, 41.609656], [-8.82839, 41.585633], [-8.818497, 41.554794], [-8.8221, 41.547542], [-8.821965, 41.534907], [-8.815926, 41.525624], [-8.81063, 41.5101], [-8.813279, 41.503483], [-8.812636, 41.496944], [-8.804699, 41.482068], [-8.798552, 41.474753], [-8.80154, 41.446836], [-8.806115, 41.43713], [-8.807354, 41.425915], [-8.811193, 41.416638], [-8.806756, 41.323648], [-8.802998, 41.330624], [-8.793498, 41.339566], [-8.781524, 41.346143], [-8.757596, 41.351984], [-8.733691, 41.351296], [-8.709813, 41.344523], [-8.685971, 41.3312], [-8.663331, 41.312284], [-8.6568, 41.303257], [-8.654803, 41.294244], [-8.657825, 41.285245], [-8.666879, 41.276264], [-8.684602, 41.267306], [-8.710181, 41.261308], [-8.73406, 41.260447], [-8.745992, 41.261765], [-8.768671, 41.267505], [-8.786732, 41.276548], [-8.797593, 41.285576], [-8.805761, 41.298404], [-8.802564, 41.217133], [-8.794711, 41.222516], [-8.775798, 41.231488], [-8.734134, 41.242265], [-8.686366, 41.248831], [-8.662495, 41.248795], [-8.650573, 41.246392], [-8.638672, 41.240163], [-8.626817, 41.226316], [-8.617067, 41.204046], [-8.605963, 41.167803], [-8.60585, 41.166913], [-8.605763, 41.166228], [-8.600767, 41.164222], [-8.59422, 41.165149], [-8.589174, 41.167645], [-8.589194, 41.170572], [-8.583263, 41.174422], [-8.582094, 41.177803], [-8.578825, 41.178941], [-8.581296, 41.191762], [-8.577139, 41.194029], [-8.57627, 41.197681]], [[-8.721068, 41.507616], [-8.709058, 41.513679], [-8.69706, 41.516784], [-8.685072, 41.517567], [-8.673093, 41.516344], [-8.661128, 41.51268], [-8.649174, 41.50715], [-8.637236, 41.499097], [-8.630273, 41.492335], [-8.626326, 41.483315], [-8.625821, 41.474305], [-8.627972, 41.465305], [-8.632866, 41.456313], [-8.637508, 41.450387], [-8.649532, 41.440759], [-8.661531, 41.435323], [-8.673513, 41.432668], [-8.685484, 41.432281], [-8.697446, 41.433871], [-8.709397, 41.437792], [-8.725775, 41.447565], [-8.733857, 41.456591], [-8.738706, 41.46561], [-8.740459, 41.474621], [-8.739614, 41.483627], [-8.735891, 41.492626], [-8.728886, 41.501617], [-8.721068, 41.507616]], [[-8.659161, 41.366318], [-8.649873, 41.377197], [-8.637896, 41.380621], [-8.625943, 41.379497], [-8.614021, 41.373148], [-8.60871, 41.366158], [-8.607721, 41.357147], [-8.614175, 41.346979], [-8.626158, 41.341844], [-8.63811, 41.341912], [-8.652248, 41.348282], [-8.658802, 41.35731], [-8.659161, 41.366318]]], [[[-8.104487, 41.541981], [-8.104487, 41.541981], [-8.103764, 41.541938], [-8.104487, 41.541981]]], [[[-8.094808, 41.733891], [-8.112617, 41.714685], [-8.119148, 41.712603], [-8.13135, 41.699177], [-8.137101, 41.696857], [-8.14051, 41.687876], [-8.136213, 41.678837], [-8.131673, 41.675167], [-8.119689, 41.672983], [-8.107596, 41.678723], [-8.095451, 41.68807], [-8.083427, 41.688603], [-8.071531, 41.680286], [-8.059559, 41.677332], [-8.047517, 41.679264], [-8.025822, 41.686961], [-8.014409, 41.695871], [-8.017312, 41.704902], [-8.058669, 41.738378], [-8.070622, 41.743416], [-8.082664, 41.742334], [-8.094808, 41.733891]], [[-8.059231, 41.699864], [-8.063663, 41.705289], [-8.059068, 41.711064], [-8.047055, 41.710566], [-8.042667, 41.705116], [-8.047222, 41.699259], [-8.059231, 41.699864]]], [[[-8.144156, 41.639674], [-8.147101, 41.633882], [-8.144263, 41.631601], [-8.132288, 41.629307], [-8.127692, 41.633737], [-8.132094, 41.643807], [-8.144156, 41.639674]]], [[[-8.469094, 41.548722], [-8.470508, 41.545754], [-8.465289, 41.536723], [-8.45724, 41.532473], [-8.445258, 41.53188], [-8.434669, 41.536577], [-8.430203, 41.545562], [-8.436154, 41.554598], [-8.445029, 41.558653], [-8.457022, 41.558505], [-8.463768, 41.554731], [-8.469094, 41.548722]]]]}}, {"id": "0", "type": "Feature", "properties": {"fill": "#a3a3a3", "value_min": 0.0, "value_max": 0.25}, "geometry": {"type": "MultiPolygon", "coordinates": [[[[-8.444345, 41.638462], [-8.456524, 41.635762], [-8.461539, 41.626778], [-8.456519, 41.618489], [-8.444544, 41.615213], [-8.437025, 41.617654], [-8.432488, 41.621331], [-8.429838, 41.626625], [-8.436477, 41.635665], [-8.444345, 41.638462]]], [[[-8.084352, 41.623387], [-8.0964, 41.620178], [-8.099554, 41.615506], [-8.09654, 41.610191], [-8.084577, 41.607457], [-8.07727, 41.615329], [-8.084352, 41.623387]]], [[[-8.516755, 41.589034], [-8.528771, 41.586545], [-8.534042, 41.582059], [-8.535915, 41.573059], [-8.528929, 41.564783], [-8.516954, 41.56235], [-8.50491, 41.569062], [-8.502145, 41.572918], [-8.504799, 41.583674], [-8.516755, 41.589034]]], [[[-8.481289, 41.523111], [-8.493279, 41.522655], [-8.500274, 41.518866], [-8.503735, 41.509873], [-8.498259, 41.500842], [-8.493474, 41.497626], [-8.481508, 41.495693], [-8.470155, 41.500716], [-8.465645, 41.509703], [-8.471721, 41.518738], [-8.481289, 41.523111]]], [[[-8.421671, 41.488299], [-8.433663, 41.486893], [-8.437657, 41.482547], [-8.433755, 41.47634], [-8.421794, 41.474485], [-8.416809, 41.482443], [-8.421671, 41.488299]]]]}}, {"id": "2", "type": "Feature", "properties": {"fill": "#a3a3a3", "value_min": 0.5, "value_max": 0.75}, "geometry": {"type": "MultiPolygon", "coordinates": [[[[-8.68414, 41.584316], [-8.636854, 41.56756], [-8.612932, 41.556475], [-8.600995, 41.547623], [-8.593019, 41.537246], [-8.589585, 41.528226], [-8.589325, 41.519218], [-8.609346, 41.456236], [-8.612737, 41.438232], [-8.612424, 41.429224], [-8.609203, 41.420205], [-8.601438, 41.411171], [-8.56678, 41.384023], [-8.550182, 41.365944], [-8.540033, 41.347889], [-8.533433, 41.329847], [-8.525129, 41.293782], [-8.525323, 41.284775], [-8.529798, 41.275785], [-8.545669, 41.266841], [-8.566949, 41.258324], [-8.578938, 41.250313], [-8.586995, 41.239974], [-8.590992, 41.231238], [-8.591663, 41.221975], [-8.589195, 41.212958], [-8.583178, 41.203928], [-8.57627, 41.197681], [-8.576894, 41.201908], [-8.574515, 41.202593], [-8.57423, 41.20462], [-8.567971, 41.204644], [-8.565895, 41.206227], [-8.567697, 41.208246], [-8.566512, 41.209376], [-8.559636, 41.206251], [-8.554271, 41.20627], [-8.549521, 41.209214], [-8.544157, 41.209458], [-8.54238, 41.211265], [-8.532257, 41.213102], [-8.52713, 41.203215], [-8.523236, 41.200077], [-8.51163, 41.203042], [-8.510456, 41.206197], [-8.506583, 41.206435], [-8.504239, 41.213646], [-8.500076, 41.21546], [-8.50308, 41.219502], [-8.502204, 41.222656], [-8.495642, 41.222227], [-8.495947, 41.223351], [-8.490894, 41.226294], [-8.487935, 41.230354], [-8.490331, 41.232373], [-8.489156, 41.235528], [-8.486181, 41.236888], [-8.484411, 41.240495], [-8.476346, 41.237818], [-8.475756, 41.23917], [-8.470986, 41.23941], [-8.471604, 41.243459], [-8.469227, 41.245267], [-8.463258, 41.244384], [-8.459989, 41.246644], [-8.454323, 41.246886], [-8.455541, 41.251834], [-8.452276, 41.25522], [-8.449891, 41.255452], [-8.449304, 41.257479], [-8.447812, 41.257258], [-8.449028, 41.261982], [-8.439785, 41.262907], [-8.438023, 41.268989], [-8.434745, 41.269673], [-8.432691, 41.277107], [-8.427032, 41.279372], [-8.429143, 41.284319], [-8.426171, 41.287028], [-8.426488, 41.291079], [-8.425013, 41.294909], [-8.422037, 41.296942], [-8.422647, 41.299867], [-8.407744, 41.304856], [-8.406262, 41.307335], [-8.403277, 41.307342], [-8.401801, 41.311398], [-8.399712, 41.311628], [-8.400316, 41.313202], [-8.396738, 41.314336], [-8.398835, 41.316131], [-8.393775, 41.31997], [-8.393489, 41.323122], [-8.391105, 41.324253], [-8.386325, 41.323588], [-8.380382, 41.331254], [-8.375305, 41.33104], [-8.37201, 41.328346], [-8.361563, 41.329718], [-8.358276, 41.329049], [-8.357673, 41.327249], [-8.350207, 41.327264], [-8.346032, 41.328847], [-8.342462, 41.333131], [-8.333215, 41.336299], [-8.326363, 41.342163], [-8.324568, 41.341041], [-8.323376, 41.341943], [-8.320676, 41.338121], [-8.312604, 41.334983], [-8.313794, 41.333405], [-8.31139, 41.328007], [-8.307502, 41.325762], [-8.305116, 41.326891], [-8.303024, 41.325994], [-8.303615, 41.323742], [-8.301216, 41.319694], [-8.296431, 41.316774], [-8.297618, 41.313846], [-8.295817, 41.310022], [-8.281801, 41.316569], [-8.279132, 41.324451], [-8.272266, 41.32536], [-8.265709, 41.331221], [-8.269004, 41.336169], [-8.263339, 41.340902], [-8.262751, 41.345405], [-8.256483, 41.347663], [-8.255889, 41.349689], [-8.249622, 41.353072], [-8.251123, 41.356897], [-8.248141, 41.360052], [-8.248448, 41.364328], [-8.246709, 41.36478], [-8.253761, 41.382419], [-8.255291, 41.409451], [-8.25932, 41.418485], [-8.267108, 41.427542], [-8.278526, 41.433791], [-8.338305, 41.440344], [-8.350239, 41.443986], [-8.362147, 41.450404], [-8.366732, 41.455156], [-8.373317, 41.464199], [-8.376919, 41.473226], [-8.379483, 41.491255], [-8.375783, 41.50925], [-8.370105, 41.518226], [-8.3614, 41.526561], [-8.349346, 41.53329], [-8.325325, 41.537787], [-8.312389, 41.53591], [-8.301422, 41.530909], [-8.29782, 41.526815], [-8.277951, 41.485696], [-8.266136, 41.471176], [-8.254225, 41.465531], [-8.242239, 41.466428], [-8.230199, 41.471922], [-8.218114, 41.481004], [-8.205973, 41.499196], [-8.203325, 41.517192], [-8.209945, 41.553267], [-8.206191, 41.562248], [-8.193574, 41.571168], [-8.181002, 41.574555], [-8.157004, 41.575129], [-8.076179, 41.567195], [-8.069883, 41.570103], [-8.069281, 41.572579], [-8.065682, 41.575053], [-8.062384, 41.575501], [-8.056684, 41.579549], [-8.052181, 41.584498], [-8.052777, 41.587649], [-8.048277, 41.590122], [-8.047974, 41.592373], [-8.031467, 41.602938], [-8.02367, 41.603156], [-8.019174, 41.601802], [-8.015872, 41.603824], [-8.013474, 41.603372], [-8.005971, 41.60629], [-8.003562, 41.611239], [-7.99936, 41.61281], [-7.998462, 41.612359], [-7.999669, 41.608759], [-7.996976, 41.605829], [-7.996684, 41.602003], [-7.984685, 41.603564], [-7.982292, 41.60086], [-7.975689, 41.603552], [-7.974482, 41.606701], [-7.971182, 41.607147], [-7.969091, 41.603768], [-7.96648, 41.603089], [-7.961148, 41.623345], [-7.960816, 41.641356], [-7.963961, 41.659399], [-7.973863, 41.686509], [-7.974024, 41.695517], [-7.9664, 41.713463], [-7.958871, 41.740415], [-7.938281, 41.746531], [-7.930296, 41.758167], [-7.937945, 41.766934], [-7.949961, 41.767815], [-7.962117, 41.760081], [-7.974226, 41.755048], [-8.010045, 41.772368], [-8.063831, 41.786353], [-8.077427, 41.79547], [-8.093421, 41.81068], [-8.093723, 41.808471], [-8.095829, 41.808471], [-8.104853, 41.81185], [-8.117188, 41.812302], [-8.123807, 41.808702], [-8.138247, 41.808477], [-8.139751, 41.813203], [-8.14276, 41.812978], [-8.145769, 41.815453], [-8.149078, 41.814777], [-8.153893, 41.817928], [-8.161415, 41.818376], [-8.165627, 41.817925], [-8.173744, 41.808019], [-8.177655, 41.808242], [-8.183676, 41.812741], [-8.190291, 41.809587], [-8.197158, 41.814129], [-8.201063, 41.808724], [-8.204973, 41.807372], [-8.205872, 41.804445], [-8.213282, 41.803765], [-8.225437, 41.751529], [-8.231927, 41.733558], [-8.251376, 41.712583], [-8.263512, 41.702456], [-8.275608, 41.695608], [-8.287662, 41.692303], [-8.299676, 41.692489], [-8.311663, 41.69531], [-8.347563, 41.710425], [-8.359554, 41.71337], [-8.371588, 41.712024], [-8.400742, 41.698534], [-8.419827, 41.694652], [-8.431835, 41.695691], [-8.441824, 41.698741], [-8.449233, 41.703151], [-8.453868, 41.697961], [-8.453255, 41.695487], [-8.461659, 41.694563], [-8.482012, 41.682123], [-8.484371, 41.674238], [-8.49308, 41.674886], [-8.499963, 41.671038], [-8.50927, 41.671233], [-8.51018, 41.672806], [-8.511967, 41.670324], [-8.509856, 41.668755], [-8.512252, 41.667847], [-8.514629, 41.663788], [-8.522103, 41.658811], [-8.525706, 41.659023], [-8.527769, 41.652714], [-8.534066, 41.652017], [-8.537951, 41.649302], [-8.537634, 41.646602], [-8.543876, 41.637352], [-8.543855, 41.633976], [-8.539288, 41.632417], [-8.492222, 41.65764], [-8.472079, 41.662856], [-8.456137, 41.664014], [-8.432143, 41.660685], [-8.420174, 41.655996], [-8.403935, 41.644508], [-8.39731, 41.635467], [-8.394013, 41.626442], [-8.394488, 41.617437], [-8.398519, 41.608451], [-8.407436, 41.59949], [-8.420741, 41.592637], [-8.456798, 41.585236], [-8.468845, 41.579197], [-8.489057, 41.554846], [-8.491897, 41.545851], [-8.48557, 41.536815], [-8.457333, 41.521337], [-8.445393, 41.516069], [-8.421457, 41.512402], [-8.413517, 41.509448], [-8.409514, 41.50793], [-8.401853, 41.500381], [-8.397662, 41.493829], [-8.394916, 41.48233], [-8.397933, 41.46457], [-8.410048, 41.44904], [-8.422082, 41.442051], [-8.434081, 41.438758], [-8.446063, 41.437431], [-8.481986, 41.435702], [-8.51798, 41.424147], [-8.529964, 41.421843], [-8.541934, 41.421395], [-8.553891, 41.422885], [-8.565831, 41.426968], [-8.580143, 41.438118], [-8.584766, 41.447142], [-8.585609, 41.456153], [-8.583161, 41.465151], [-8.577462, 41.474138], [-8.554551, 41.492066], [-8.547453, 41.501046], [-8.545045, 41.510044], [-8.544638, 41.528057], [-8.548128, 41.537078], [-8.567923, 41.564176], [-8.574187, 41.582214], [-8.572239, 41.600222], [-8.561439, 41.616355], [-8.568056, 41.619031], [-8.570735, 41.616095], [-8.577321, 41.614269], [-8.581231, 41.615829], [-8.585766, 41.620988], [-8.591462, 41.620515], [-8.596534, 41.616668], [-8.601628, 41.615972], [-8.603996, 41.611686], [-8.613256, 41.606696], [-8.619881, 41.610269], [-8.621338, 41.604636], [-8.628833, 41.604378], [-8.636302, 41.600744], [-8.639873, 41.597352], [-8.640152, 41.59465], [-8.645536, 41.593051], [-8.646744, 41.594171], [-8.649125, 41.591909], [-8.656622, 41.5921], [-8.660788, 41.588255], [-8.663794, 41.589141], [-8.665265, 41.585758], [-8.670979, 41.587982], [-8.684455, 41.586117], [-8.68414, 41.584316]], [[-8.17888, 41.741754], [-8.178865, 41.742983], [-8.166766, 41.748598], [-8.162556, 41.742081], [-8.166899, 41.738336], [-8.17888, 41.741754]], [[-8.094808, 41.733891], [-8.082664, 41.742334], [-8.070622, 41.743416], [-8.058669, 41.738378], [-8.017312, 41.704902], [-8.014409, 41.695871], [-8.025822, 41.686961], [-8.047517, 41.679264], [-8.059559, 41.677332], [-8.071531, 41.680286], [-8.083427, 41.688603], [-8.095451, 41.68807], [-8.107596, 41.678723], [-8.119689, 41.672983], [-8.131673, 41.675167], [-8.136213, 41.678837], [-8.14051, 41.687876], [-8.137101, 41.696857], [-8.13135, 41.699177], [-8.119148, 41.712603], [-8.112617, 41.714685], [-8.094808, 41.733891]], [[-8.026796, 41.732004], [-8.025769, 41.741002], [-8.022506, 41.744134], [-8.010428, 41.74749], [-7.996095, 41.740747], [-7.993626, 41.731718], [-7.998745, 41.725331], [-8.010825, 41.721627], [-8.022758, 41.727498], [-8.026796, 41.732004]], [[-8.144156, 41.639674], [-8.132094, 41.643807], [-8.127692, 41.633737], [-8.132288, 41.629307], [-8.144263, 41.631601], [-8.147101, 41.633882], [-8.144156, 41.639674]], [[-8.108318, 41.626392], [-8.096191, 41.635206], [-8.084154, 41.63732], [-8.072183, 41.634874], [-8.056954, 41.624171], [-8.053419, 41.615135], [-8.05531, 41.606143], [-8.063895, 41.597206], [-8.072786, 41.592797], [-8.084815, 41.590618], [-8.096798, 41.591665], [-8.10955, 41.597569], [-8.116158, 41.606627], [-8.115597, 41.61563], [-8.108318, 41.626392]], [[-8.469094, 41.548722], [-8.463768, 41.554731], [-8.457022, 41.558505], [-8.445029, 41.558653], [-8.436154, 41.554598], [-8.430203, 41.545562], [-8.434669, 41.536577], [-8.445258, 41.53188], [-8.45724, 41.532473], [-8.465289, 41.536723], [-8.470508, 41.545754], [-8.469094, 41.548722]], [[-8.386582, 41.398302], [-8.374589, 41.401488], [-8.362621, 41.401948], [-8.350679, 41.39982], [-8.335381, 41.391927], [-8.327781, 41.382875], [-8.324964, 41.373851], [-8.325826, 41.364848], [-8.330574, 41.355868], [-8.339242, 41.347909], [-8.351248, 41.34255], [-8.363217, 41.340875], [-8.375158, 41.342009], [-8.387071, 41.346282], [-8.399708, 41.35625], [-8.404991, 41.365285], [-8.406314, 41.374299], [-8.404051, 41.383295], [-8.396751, 41.392265], [-8.386582, 41.398302]]], [[[-7.790392, 41.882471], [-7.794403, 41.873909], [-7.795421, 41.864913], [-7.793426, 41.855885], [-7.78808, 41.846822], [-7.780186, 41.838679], [-7.765502, 41.828568], [-7.760471, 41.819507], [-7.768805, 41.804069], [-7.772563, 41.792617], [-7.772561, 41.78361], [-7.769369, 41.774618], [-7.75758, 41.76199], [-7.744773, 41.755836], [-7.740214, 41.763924], [-7.726937, 41.771755], [-7.7254, 41.777152], [-7.727191, 41.779184], [-7.724177, 41.780299], [-7.725372, 41.781653], [-7.722296, 41.792446], [-7.728879, 41.797871], [-7.727026, 41.805517], [-7.728761, 41.816776], [-7.732041, 41.821514], [-7.743152, 41.825154], [-7.742839, 41.827178], [-7.738918, 41.82874], [-7.742196, 41.833928], [-7.74729, 41.837772], [-7.746349, 41.84407], [-7.750246, 41.846784], [-7.750532, 41.849261], [-7.743309, 41.849012], [-7.746901, 41.8524], [-7.746881, 41.855776], [-7.73843, 41.859348], [-7.734159, 41.868337], [-7.730228, 41.871024], [-7.729293, 41.875972], [-7.722351, 41.878424], [-7.720523, 41.881793], [-7.725335, 41.882935], [-7.726208, 41.887665], [-7.737044, 41.888828], [-7.737935, 41.890857], [-7.74246, 41.889747], [-7.742785, 41.885922], [-7.756022, 41.888441], [-7.758719, 41.890926], [-7.756592, 41.89407], [-7.758076, 41.897901], [-7.763193, 41.898593], [-7.779227, 41.886264], [-7.790392, 41.882471]]], [[[-7.999892, 41.850716], [-7.995074, 41.839813], [-7.984309, 41.830712], [-7.973094, 41.826004], [-7.961098, 41.823159], [-7.949063, 41.8228], [-7.936982, 41.825215], [-7.926292, 41.830184], [-7.918133, 41.839114], [-7.915537, 41.848096], [-7.916189, 41.857109], [-7.920341, 41.866155], [-7.924171, 41.871164], [-7.931524, 41.876501], [-7.937389, 41.87516], [-7.941618, 41.870891], [-7.951254, 41.871132], [-7.956367, 41.87339], [-7.956362, 41.875191], [-7.960576, 41.875647], [-7.962086, 41.874074], [-7.97202, 41.875439], [-7.975637, 41.874543], [-7.987996, 41.869157], [-7.990123, 41.860157], [-7.995547, 41.858138], [-7.994044, 41.856786], [-7.994652, 41.853861], [-7.996765, 41.851162], [-7.999892, 41.850716]]], [[[-8.805761, 41.298404], [-8.797593, 41.285576], [-8.786732, 41.276548], [-8.768671, 41.267505], [-8.745992, 41.261765], [-8.73406, 41.260447], [-8.710181, 41.261308], [-8.684602, 41.267306], [-8.666879, 41.276264], [-8.657825, 41.285245], [-8.654803, 41.294244], [-8.6568, 41.303257], [-8.663331, 41.312284], [-8.685971, 41.3312], [-8.709813, 41.344523], [-8.733691, 41.351296], [-8.757596, 41.351984], [-8.781524, 41.346143], [-8.793498, 41.339566], [-8.802998, 41.330624], [-8.806756, 41.323648], [-8.805761, 41.298404]], [[-8.73597, 41.294458], [-8.733953, 41.303462], [-8.721913, 41.309858], [-8.70997, 41.309122], [-8.701024, 41.303381], [-8.697854, 41.294365], [-8.70592, 41.285378], [-8.710083, 41.283528], [-8.722026, 41.283207], [-8.728027, 41.285432], [-8.73597, 41.294458]]]]}}]}