{"type": "FeatureCollection", "features": [{"id": "3", "type": "Feature", "properties": {"fill": "#b6a27f", "value_min": -1.25, "value_max": -1.0}, "geometry": {"type": "MultiPolygon", "coordinates": [[[[-8.178559, 41.766997], [-8.190685, 41.759388], [-8.195919, 41.751326], [-8.196887, 41.742326], [-8.192972, 41.733291], [-8.179211, 41.715806], [-8.167481, 41.693249], [-8.155568, 41.685293], [-8.143562, 41.684561], [-8.131463, 41.690743], [-8.119233, 41.706382], [-8.097318, 41.714566], [-8.095029, 41.718168], [-8.083072, 41.713652], [-8.079975, 41.705421], [-8.070841, 41.696341], [-8.059395, 41.688619], [-8.047425, 41.685462], [-8.03934, 41.687075], [-8.035373, 41.687949], [-8.025557, 41.695966], [-8.02486, 41.704967], [-8.030486, 41.714021], [-8.046831, 41.725739], [-8.058802, 41.72928], [-8.070828, 41.7291], [-8.082896, 41.726019], [-8.106629, 41.74862], [-8.130509, 41.761573], [-8.154474, 41.768737], [-8.166498, 41.769307], [-8.178559, 41.766997]], [[-8.128617, 41.732821], [-8.118931, 41.728495], [-8.114861, 41.723709], [-8.114111, 41.714696], [-8.119158, 41.71193], [-8.123068, 41.705758], [-8.131359, 41.698481], [-8.138379, 41.696867], [-8.143438, 41.69388], [-8.155402, 41.697964], [-8.162598, 41.706053], [-8.16381, 41.715069], [-8.158931, 41.72404], [-8.155016, 41.727463], [-8.142921, 41.732823], [-8.130883, 41.733805], [-8.128617, 41.732821]], [[-8.046962, 41.716841], [-8.042829, 41.714125], [-8.036357, 41.705064], [-8.042001, 41.696104], [-8.047305, 41.693644], [-8.059301, 41.695046], [-8.068474, 41.705328], [-8.064753, 41.714305], [-8.058971, 41.717692], [-8.046962, 41.716841]]], [[[-7.887045, 41.757756], [-7.884482, 41.748724], [-7.878211, 41.742853], [-7.866222, 41.740714], [-7.854165, 41.742458], [-7.843043, 41.748314], [-7.837919, 41.757269], [-7.841709, 41.766408], [-7.853622, 41.773013], [-7.865634, 41.774127], [-7.877732, 41.770348], [-7.883156, 41.766725], [-7.887045, 41.757756]], [[-7.857805, 41.766476], [-7.853785, 41.763848], [-7.850537, 41.757396], [-7.853971, 41.753385], [-7.866068, 41.7495], [-7.87611, 41.757649], [-7.869331, 41.76659], [-7.865743, 41.767939], [-7.857805, 41.766476]]], [[[-8.424006, 41.720549], [-8.426613, 41.716681], [-8.419677, 41.711346], [-8.407619, 41.715377], [-8.407587, 41.718911], [-8.415687, 41.724396], [-8.417349, 41.725067], [-8.41974, 41.722135], [-8.424006, 41.720549]]], [[[-7.914638, 41.712985], [-7.902927, 41.703829], [-7.890878, 41.705614], [-7.884447, 41.712696], [-7.88276, 41.721687], [-7.890455, 41.7302], [-7.902487, 41.72969], [-7.913107, 41.721978], [-7.914638, 41.712985]]], [[[-8.386102, 41.662429], [-8.384092, 41.661365], [-8.379918, 41.662396], [-8.379675, 41.671401], [-8.383984, 41.672714], [-8.386234, 41.671437], [-8.386102, 41.662429]]], [[[-8.745044, 41.504915], [-8.757662, 41.492674], [-8.762993, 41.483677], [-8.765556, 41.474675], [-8.764513, 41.456658], [-8.754795, 41.438623], [-8.745981, 41.429596], [-8.733828, 41.420561], [-8.701517, 41.402466], [-8.697608, 41.398881], [-8.693136, 41.393437], [-8.686357, 41.366396], [-8.682162, 41.357376], [-8.675348, 41.34835], [-8.665401, 41.339314], [-8.650126, 41.330017], [-8.6382, 41.325573], [-8.626262, 41.323641], [-8.61431, 41.32415], [-8.60234, 41.32759], [-8.590342, 41.335291], [-8.580857, 41.348044], [-8.578607, 41.357044], [-8.578811, 41.366052], [-8.581366, 41.375069], [-8.590011, 41.388115], [-8.616969, 41.411224], [-8.620018, 41.420241], [-8.609087, 41.456235], [-8.60981, 41.465245], [-8.619303, 41.483291], [-8.630404, 41.492335], [-8.649198, 41.502765], [-8.67311, 41.513095], [-8.685078, 41.516286], [-8.70904, 41.517669], [-8.721033, 41.515783], [-8.735566, 41.51064], [-8.745044, 41.504915]], [[-8.685153, 41.500762], [-8.673169, 41.501264], [-8.6612, 41.498917], [-8.647208, 41.492388], [-8.638076, 41.483352], [-8.634659, 41.474334], [-8.637437, 41.463112], [-8.649477, 41.45095], [-8.661473, 41.446483], [-8.673451, 41.445118], [-8.687294, 41.447466], [-8.697364, 41.451553], [-8.704232, 41.456519], [-8.710998, 41.465543], [-8.713212, 41.474556], [-8.711143, 41.483559], [-8.704212, 41.492549], [-8.697153, 41.496808], [-8.685153, 41.500762]]], [[[-8.445641, 41.486928], [-8.448628, 41.4826], [-8.448646, 41.473593], [-8.445796, 41.468781], [-8.43389, 41.460736], [-8.421925, 41.459728], [-8.409917, 41.463499], [-8.400002, 41.473349], [-8.398619, 41.482349], [-8.402952, 41.491379], [-8.409624, 41.495799], [-8.421579, 41.498702], [-8.433577, 41.496702], [-8.441967, 41.491575], [-8.445641, 41.486928]]], [[[-8.553676, 41.454175], [-8.550421, 41.45602], [-8.553654, 41.45738], [-8.555418, 41.45604], [-8.553676, 41.454175]]], [[[-8.142183, 41.376993], [-8.149178, 41.3907], [-8.166538, 41.408842], [-8.182956, 41.419268], [-8.194857, 41.424566], [-8.218727, 41.429939], [-8.230692, 41.430178], [-8.254686, 41.425177], [-8.266729, 41.418475], [-8.275889, 41.409583], [-8.283461, 41.391615], [-8.284054, 41.373604], [-8.280414, 41.355566], [-8.276954, 41.346536], [-8.266902, 41.330485], [-8.265711, 41.332121], [-8.269004, 41.336169], [-8.263339, 41.340902], [-8.262751, 41.345405], [-8.256483, 41.347663], [-8.255997, 41.349239], [-8.266915, 41.364488], [-8.269848, 41.382522], [-8.267534, 41.391515], [-8.262076, 41.400487], [-8.254895, 41.406946], [-8.242858, 41.413176], [-8.230861, 41.415867], [-8.218892, 41.416136], [-8.20695, 41.414228], [-8.19504, 41.409754], [-8.180658, 41.399936], [-8.173315, 41.390876], [-8.168791, 41.377437], [-8.1642, 41.38059], [-8.152544, 41.375866], [-8.151049, 41.37339], [-8.145073, 41.374742], [-8.142183, 41.376993]]], [[[-8.60541, 41.165779], [-8.609722, 41.186006], [-8.623858, 41.222084], [-8.629681, 41.231111], [-8.638676, 41.239353], [-8.650582, 41.244694], [-8.662506, 41.246709], [-8.686377, 41.246387], [-8.722204, 41.241295], [-8.746093, 41.235846], [-8.760928, 41.231458], [-8.781322, 41.222491], [-8.795178, 41.213509], [-8.802167, 41.207034], [-8.799695, 41.14406], [-8.67527, 41.147484], [-8.676193, 41.146567], [-8.674793, 41.146932], [-8.674204, 41.147693], [-8.674259, 41.154385], [-8.68683, 41.15142], [-8.69875, 41.150965], [-8.710661, 41.152577], [-8.722561, 41.156718], [-8.734448, 41.164587], [-8.744014, 41.177375], [-8.746289, 41.186387], [-8.745709, 41.195394], [-8.742218, 41.204394], [-8.734694, 41.213385], [-8.722287, 41.221709], [-8.710336, 41.226255], [-8.698393, 41.228716], [-8.686459, 41.229197], [-8.674536, 41.227487], [-8.661521, 41.222201], [-8.651222, 41.213163], [-8.646086, 41.204139], [-8.644172, 41.189699], [-8.641225, 41.196014], [-8.638841, 41.196025], [-8.638231, 41.194227], [-8.634946, 41.193341], [-8.632526, 41.188624], [-8.625658, 41.186628], [-8.621132, 41.178994], [-8.613374, 41.177451], [-8.608583, 41.174095], [-8.609164, 41.172066], [-8.60541, 41.165779]]], [[[-8.653222, 41.168138], [-8.653222, 41.168138], [-8.653324, 41.168048], [-8.653222, 41.168138]]], [[[-8.653518, 41.167882], [-8.653518, 41.167882], [-8.654118, 41.167369], [-8.653518, 41.167882]]], [[[-8.654383, 41.167143], [-8.662952, 41.159813], [-8.669359, 41.156719], [-8.66117, 41.156307], [-8.662078, 41.158104], [-8.660313, 41.160813], [-8.657033, 41.160378], [-8.654961, 41.161963], [-8.654383, 41.167143]]]]}}, {"id": "1", "type": "Feature", "properties": {"fill": "#e57b10", "value_min": -1.75, "value_max": -1.5}, "geometry": {"type": "MultiPolygon", "coordinates": [[[[-8.143043, 41.723608], [-8.153474, 41.714993], [-8.152956, 41.705982], [-8.143359, 41.699841], [-8.131318, 41.701546], [-8.126489, 41.705784], [-8.121847, 41.714756], [-8.131011, 41.724321], [-8.143043, 41.723608]], [[-8.131088, 41.71861], [-8.127361, 41.714798], [-8.129912, 41.70581], [-8.131277, 41.704612], [-8.143295, 41.704656], [-8.14528, 41.705925], [-8.145786, 41.714936], [-8.14313, 41.71713], [-8.131088, 41.71861]]], [[[-8.059159, 41.704804], [-8.047149, 41.704192], [-8.046342, 41.705147], [-8.047121, 41.706116], [-8.059144, 41.705818], [-8.059159, 41.704804]]], [[[-8.685244, 41.482068], [-8.686755, 41.474487], [-8.685291, 41.472209], [-8.673357, 41.463795], [-8.66138, 41.464346], [-8.65094, 41.474384], [-8.653587, 41.4834], [-8.661254, 41.488486], [-8.673228, 41.489549], [-8.684888, 41.48349], [-8.685244, 41.482068]]], [[[-8.187468, 41.375629], [-8.187264, 41.381968], [-8.191224, 41.391004], [-8.201834, 41.400085], [-8.21902, 41.405519], [-8.230989, 41.405029], [-8.243001, 41.400854], [-8.253322, 41.391423], [-8.256786, 41.382438], [-8.256052, 41.373426], [-8.248743, 41.362533], [-8.248448, 41.364328], [-8.244864, 41.365457], [-8.243973, 41.368609], [-8.237252, 41.371092], [-8.240311, 41.373323], [-8.24314, 41.382349], [-8.236074, 41.39131], [-8.23112, 41.393901], [-8.21915, 41.394607], [-8.210482, 41.391137], [-8.203904, 41.382085], [-8.205193, 41.376519], [-8.199163, 41.377423], [-8.194976, 41.374275], [-8.191691, 41.376302], [-8.187468, 41.375629]]], [[[-8.248737, 41.362527], [-8.248737, 41.362527], [-8.248444, 41.362265], [-8.248737, 41.362527]]], [[[-8.704469, 41.195296], [-8.69858, 41.188179], [-8.686665, 41.186184], [-8.675819, 41.195219], [-8.679557, 41.204237], [-8.686563, 41.207617], [-8.698497, 41.20628], [-8.701607, 41.204296], [-8.704469, 41.195296]]]]}}, {"id": "2", "type": "Feature", "properties": {"fill": "#e19f31", "value_min": -1.5, "value_max": -1.25}, "geometry": {"type": "MultiPolygon", "coordinates": [[[[-7.857805, 41.766476], [-7.865743, 41.767939], [-7.869331, 41.76659], [-7.87611, 41.757649], [-7.866068, 41.7495], [-7.853971, 41.753385], [-7.850537, 41.757396], [-7.853785, 41.763848], [-7.857805, 41.766476]]], [[[-8.128617, 41.732821], [-8.130883, 41.733805], [-8.142921, 41.732823], [-8.155016, 41.727463], [-8.158931, 41.72404], [-8.16381, 41.715069], [-8.162598, 41.706053], [-8.155402, 41.697964], [-8.143438, 41.69388], [-8.138379, 41.696867], [-8.131359, 41.698481], [-8.123068, 41.705758], [-8.119158, 41.71193], [-8.114111, 41.714696], [-8.114861, 41.723709], [-8.118931, 41.728495], [-8.128617, 41.732821]], [[-8.143043, 41.723608], [-8.131011, 41.724321], [-8.121847, 41.714756], [-8.126489, 41.705784], [-8.131318, 41.701546], [-8.143359, 41.699841], [-8.152956, 41.705982], [-8.153474, 41.714993], [-8.143043, 41.723608]]], [[[-8.046962, 41.716841], [-8.058971, 41.717692], [-8.064753, 41.714305], [-8.068474, 41.705328], [-8.059301, 41.695046], [-8.047305, 41.693644], [-8.042001, 41.696104], [-8.036357, 41.705064], [-8.042829, 41.714125], [-8.046962, 41.716841]], [[-8.059159, 41.704804], [-8.059144, 41.705818], [-8.047121, 41.706116], [-8.046342, 41.705147], [-8.047149, 41.704192], [-8.059159, 41.704804]]], [[[-8.685153, 41.500762], [-8.697153, 41.496808], [-8.704212, 41.492549], [-8.711143, 41.483559], [-8.713212, 41.474556], [-8.710998, 41.465543], [-8.704232, 41.456519], [-8.697364, 41.451553], [-8.687294, 41.447466], [-8.673451, 41.445118], [-8.661473, 41.446483], [-8.649477, 41.45095], [-8.637437, 41.463112], [-8.634659, 41.474334], [-8.638076, 41.483352], [-8.647208, 41.492388], [-8.6612, 41.498917], [-8.673169, 41.501264], [-8.685153, 41.500762]], [[-8.685244, 41.482068], [-8.684888, 41.48349], [-8.673228, 41.489549], [-8.661254, 41.488486], [-8.653587, 41.4834], [-8.65094, 41.474384], [-8.66138, 41.464346], [-8.673357, 41.463795], [-8.685291, 41.472209], [-8.686755, 41.474487], [-8.685244, 41.482068]]], [[[-8.168791, 41.377437], [-8.173315, 41.390876], [-8.180658, 41.399936], [-8.19504, 41.409754], [-8.20695, 41.414228], [-8.218892, 41.416136], [-8.230861, 41.415867], [-8.242858, 41.413176], [-8.254895, 41.406946], [-8.262076, 41.400487], [-8.267534, 41.391515], [-8.269848, 41.382522], [-8.266915, 41.364488], [-8.255997, 41.349239], [-8.249622, 41.353072], [-8.251123, 41.356897], [-8.248141, 41.360052], [-8.248444, 41.362265], [-8.248737, 41.362527], [-8.248743, 41.362533], [-8.256052, 41.373426], [-8.256786, 41.382438], [-8.253322, 41.391423], [-8.243001, 41.400854], [-8.230989, 41.405029], [-8.21902, 41.405519], [-8.201834, 41.400085], [-8.191224, 41.391004], [-8.187264, 41.381968], [-8.187468, 41.375629], [-8.168791, 41.377437]]], [[[-8.644172, 41.189699], [-8.646086, 41.204139], [-8.651222, 41.213163], [-8.661521, 41.222201], [-8.674536, 41.227487], [-8.686459, 41.229197], [-8.698393, 41.228716], [-8.710336, 41.226255], [-8.722287, 41.221709], [-8.734694, 41.213385], [-8.742218, 41.204394], [-8.745709, 41.195394], [-8.746289, 41.186387], [-8.744014, 41.177375], [-8.734448, 41.164587], [-8.722561, 41.156718], [-8.710661, 41.152577], [-8.69875, 41.150965], [-8.68683, 41.15142], [-8.674259, 41.154385], [-8.672489, 41.15648], [-8.669359, 41.156719], [-8.662952, 41.159813], [-8.654383, 41.167143], [-8.654118, 41.167369], [-8.653518, 41.167882], [-8.653324, 41.168048], [-8.653222, 41.168138], [-8.655366, 41.175467], [-8.647955, 41.180228], [-8.647696, 41.185181], [-8.644172, 41.189699]], [[-8.704469, 41.195296], [-8.701607, 41.204296], [-8.698497, 41.20628], [-8.686563, 41.207617], [-8.679557, 41.204237], [-8.675819, 41.195219], [-8.686665, 41.186184], [-8.69858, 41.188179], [-8.704469, 41.195296]]]]}}, {"id": "4", "type": "Feature", "properties": {"fill": "#a3a3a3", "value_min": -1.0, "value_max": -0.75}, "geometry": {"type": "MultiPolygon", "coordinates": [[[[-8.503736, 41.671476], [-8.476965, 41.653871], [-8.466802, 41.644817], [-8.46197, 41.635787], [-8.460203, 41.626772], [-8.456489, 41.622084], [-8.449484, 41.617714], [-8.444535, 41.616343], [-8.420516, 41.61781], [-8.384586, 41.609434], [-8.360618, 41.605892], [-8.348617, 41.605927], [-8.336597, 41.607802], [-8.324557, 41.61153], [-8.312484, 41.618196], [-8.302916, 41.625926], [-8.295425, 41.634887], [-8.291101, 41.643868], [-8.290387, 41.661878], [-8.293409, 41.670903], [-8.299235, 41.679946], [-8.306892, 41.689], [-8.335496, 41.714998], [-8.352383, 41.739615], [-8.357897, 41.735103], [-8.362407, 41.735994], [-8.368703, 41.73193], [-8.374122, 41.734845], [-8.384922, 41.73032], [-8.387032, 41.731891], [-8.393033, 41.729852], [-8.396942, 41.730518], [-8.400531, 41.726683], [-8.402934, 41.726452], [-8.404721, 41.722847], [-8.413744, 41.725076], [-8.415687, 41.724396], [-8.407587, 41.718911], [-8.407619, 41.715377], [-8.419677, 41.711346], [-8.426613, 41.716681], [-8.424006, 41.720549], [-8.429643, 41.719859], [-8.430533, 41.717381], [-8.436526, 41.714214], [-8.441632, 41.713975], [-8.4446, 41.70654], [-8.453868, 41.697961], [-8.453255, 41.695487], [-8.461659, 41.694563], [-8.467939, 41.689593], [-8.478124, 41.685061], [-8.482012, 41.682123], [-8.484371, 41.674238], [-8.49308, 41.674886], [-8.499963, 41.671038], [-8.503736, 41.671476]], [[-8.386102, 41.662429], [-8.386234, 41.671437], [-8.383984, 41.672714], [-8.379675, 41.671401], [-8.379918, 41.662396], [-8.384092, 41.661365], [-8.386102, 41.662429]]], [[[-8.236388, 41.791592], [-8.233109, 41.769594], [-8.23165, 41.733556], [-8.225359, 41.724507], [-8.203252, 41.715915], [-8.190217, 41.706251], [-8.18545, 41.69721], [-8.184333, 41.688195], [-8.186495, 41.670196], [-8.181145, 41.661151], [-8.167924, 41.658859], [-8.143846, 41.663121], [-8.131756, 41.668967], [-8.119556, 41.682732], [-8.116139, 41.687691], [-8.119432, 41.691815], [-8.120799, 41.696734], [-8.119343, 41.698369], [-8.107356, 41.696101], [-8.095302, 41.698683], [-8.08331, 41.696872], [-8.068296, 41.687313], [-8.053331, 41.669177], [-8.049604, 41.651132], [-8.036099, 41.639268], [-8.024161, 41.634728], [-8.012178, 41.633173], [-8.000158, 41.634083], [-7.981789, 41.641544], [-7.972735, 41.65047], [-7.968053, 41.659436], [-7.966566, 41.668429], [-7.968114, 41.67745], [-7.975402, 41.686522], [-7.985817, 41.695622], [-8.022898, 41.718283], [-8.037976, 41.732098], [-8.061239, 41.777325], [-8.076026, 41.795459], [-8.092715, 41.811396], [-8.093723, 41.808471], [-8.101845, 41.809824], [-8.104853, 41.81185], [-8.115984, 41.812302], [-8.123807, 41.808702], [-8.138247, 41.808477], [-8.139751, 41.813203], [-8.14276, 41.812978], [-8.145769, 41.815453], [-8.149078, 41.814777], [-8.153893, 41.817928], [-8.161415, 41.818376], [-8.165326, 41.81815], [-8.173744, 41.808019], [-8.177054, 41.808017], [-8.182773, 41.812516], [-8.190291, 41.809587], [-8.197158, 41.814129], [-8.201063, 41.808724], [-8.204973, 41.807372], [-8.205872, 41.804445], [-8.213692, 41.803765], [-8.217598, 41.80016], [-8.217589, 41.793634], [-8.224207, 41.794303], [-8.229917, 41.791598], [-8.236388, 41.791592]], [[-8.178559, 41.766997], [-8.166498, 41.769307], [-8.154474, 41.768737], [-8.130509, 41.761573], [-8.106629, 41.74862], [-8.082896, 41.726019], [-8.070828, 41.7291], [-8.058802, 41.72928], [-8.046831, 41.725739], [-8.030486, 41.714021], [-8.02486, 41.704967], [-8.025557, 41.695966], [-8.035373, 41.687949], [-8.03934, 41.687075], [-8.047425, 41.685462], [-8.059395, 41.688619], [-8.070841, 41.696341], [-8.079975, 41.705421], [-8.083072, 41.713652], [-8.095029, 41.718168], [-8.097318, 41.714566], [-8.119233, 41.706382], [-8.131463, 41.690743], [-8.143562, 41.684561], [-8.155568, 41.685293], [-8.167481, 41.693249], [-8.179211, 41.715806], [-8.192972, 41.733291], [-8.196887, 41.742326], [-8.195919, 41.751326], [-8.190685, 41.759388], [-8.178559, 41.766997]]], [[[-8.69218, 41.578095], [-8.698452, 41.57547], [-8.701703, 41.570277], [-8.707704, 41.570923], [-8.712485, 41.569323], [-8.716422, 41.573805], [-8.720316, 41.57356], [-8.725151, 41.577811], [-8.726633, 41.576003], [-8.734424, 41.575737], [-8.736564, 41.580228], [-8.738354, 41.579318], [-8.740778, 41.582006], [-8.74467, 41.581535], [-8.750711, 41.58623], [-8.756374, 41.582823], [-8.75635, 41.580347], [-8.762327, 41.578514], [-8.764443, 41.580303], [-8.767441, 41.580286], [-8.769874, 41.583874], [-8.768997, 41.58613], [-8.773228, 41.589482], [-8.775371, 41.593972], [-8.78556, 41.593464], [-8.797327, 41.600599], [-8.804218, 41.600109], [-8.80456, 41.604158], [-8.809434, 41.611332], [-8.828644, 41.609656], [-8.82839, 41.585633], [-8.818497, 41.554794], [-8.8221, 41.547542], [-8.821965, 41.534907], [-8.815926, 41.525624], [-8.81063, 41.5101], [-8.813279, 41.503483], [-8.812636, 41.496944], [-8.804699, 41.482068], [-8.798552, 41.474753], [-8.80154, 41.446836], [-8.806115, 41.43713], [-8.807354, 41.425915], [-8.811211, 41.415789], [-8.802167, 41.207034], [-8.795178, 41.213509], [-8.781322, 41.222491], [-8.760928, 41.231458], [-8.746093, 41.235846], [-8.722204, 41.241295], [-8.686377, 41.246387], [-8.662506, 41.246709], [-8.650582, 41.244694], [-8.638676, 41.239353], [-8.629681, 41.231111], [-8.623858, 41.222084], [-8.609722, 41.186006], [-8.60541, 41.165779], [-8.600767, 41.164222], [-8.589766, 41.167193], [-8.589194, 41.170572], [-8.583263, 41.174422], [-8.582094, 41.177803], [-8.578825, 41.178941], [-8.581296, 41.191762], [-8.575958, 41.195609], [-8.576894, 41.201908], [-8.574515, 41.202593], [-8.57423, 41.20462], [-8.567971, 41.204644], [-8.565895, 41.206227], [-8.567697, 41.208246], [-8.566512, 41.209376], [-8.559636, 41.206251], [-8.554271, 41.20627], [-8.549521, 41.209214], [-8.544157, 41.209458], [-8.54238, 41.211265], [-8.532257, 41.213102], [-8.52713, 41.203215], [-8.523236, 41.200077], [-8.51163, 41.203042], [-8.510456, 41.206197], [-8.505693, 41.207113], [-8.504239, 41.213646], [-8.500076, 41.21546], [-8.50308, 41.219502], [-8.502204, 41.222656], [-8.495642, 41.222227], [-8.495947, 41.223351], [-8.490894, 41.226294], [-8.487935, 41.230354], [-8.490331, 41.232373], [-8.489156, 41.235528], [-8.486181, 41.236888], [-8.484411, 41.240495], [-8.476346, 41.237818], [-8.475756, 41.23917], [-8.470986, 41.23941], [-8.471604, 41.243459], [-8.469227, 41.245267], [-8.463258, 41.244384], [-8.459989, 41.246644], [-8.455512, 41.245982], [-8.455541, 41.251834], [-8.452276, 41.25522], [-8.449891, 41.255452], [-8.449304, 41.257479], [-8.447812, 41.257258], [-8.449028, 41.261982], [-8.439785, 41.262907], [-8.438023, 41.268989], [-8.434745, 41.269673], [-8.434762, 41.2735], [-8.432334, 41.277108], [-8.451723, 41.293456], [-8.465556, 41.311536], [-8.473752, 41.329589], [-8.478231, 41.356633], [-8.476201, 41.374639], [-8.468893, 41.39262], [-8.462535, 41.401598], [-8.452682, 41.410559], [-8.435473, 41.419484], [-8.386237, 41.434943], [-8.362252, 41.439686], [-8.338312, 41.439659], [-8.326371, 41.436846], [-8.314488, 41.428646], [-8.30616, 41.409769], [-8.300884, 41.382715], [-8.299667, 41.355684], [-8.303367, 41.323742], [-8.301216, 41.319694], [-8.296431, 41.316774], [-8.297618, 41.313846], [-8.295817, 41.310022], [-8.281801, 41.316569], [-8.279132, 41.324451], [-8.272266, 41.32536], [-8.266902, 41.330485], [-8.276954, 41.346536], [-8.280414, 41.355566], [-8.284054, 41.373604], [-8.283461, 41.391615], [-8.275889, 41.409583], [-8.266729, 41.418475], [-8.254686, 41.425177], [-8.230692, 41.430178], [-8.218727, 41.429939], [-8.194857, 41.424566], [-8.182956, 41.419268], [-8.166538, 41.408842], [-8.149178, 41.3907], [-8.142183, 41.376993], [-8.139096, 41.377894], [-8.133418, 41.374292], [-8.119672, 41.376768], [-8.119672, 41.378569], [-8.116683, 41.380144], [-8.117578, 41.386447], [-8.113992, 41.386896], [-8.112795, 41.390723], [-8.110105, 41.390947], [-8.108011, 41.393648], [-8.104172, 41.392972], [-8.170803, 41.433916], [-8.206495, 41.451576], [-8.230365, 41.457913], [-8.266229, 41.462928], [-8.278155, 41.467249], [-8.2847, 41.47269], [-8.289986, 41.480485], [-8.303937, 41.508837], [-8.313514, 41.520993], [-8.325417, 41.528918], [-8.337367, 41.532457], [-8.349353, 41.532593], [-8.421438, 41.514514], [-8.44549, 41.504667], [-8.469629, 41.483251], [-8.481673, 41.475003], [-8.493664, 41.473142], [-8.505618, 41.476161], [-8.541422, 41.494068], [-8.553376, 41.497941], [-8.565345, 41.499772], [-8.601299, 41.498149], [-8.613275, 41.499015], [-8.62524, 41.501719], [-8.645269, 41.510397], [-8.658099, 41.519443], [-8.666872, 41.528476], [-8.677994, 41.546523], [-8.69218, 41.578095]], [[-8.745044, 41.504915], [-8.735566, 41.51064], [-8.721033, 41.515783], [-8.70904, 41.517669], [-8.685078, 41.516286], [-8.67311, 41.513095], [-8.649198, 41.502765], [-8.630404, 41.492335], [-8.619303, 41.483291], [-8.60981, 41.465245], [-8.609087, 41.456235], [-8.620018, 41.420241], [-8.616969, 41.411224], [-8.590011, 41.388115], [-8.581366, 41.375069], [-8.578811, 41.366052], [-8.578607, 41.357044], [-8.580857, 41.348044], [-8.590342, 41.335291], [-8.60234, 41.32759], [-8.61431, 41.32415], [-8.626262, 41.323641], [-8.6382, 41.325573], [-8.650126, 41.330017], [-8.665401, 41.339314], [-8.675348, 41.34835], [-8.682162, 41.357376], [-8.686357, 41.366396], [-8.693136, 41.393437], [-8.697608, 41.398881], [-8.701517, 41.402466], [-8.733828, 41.420561], [-8.745981, 41.429596], [-8.754795, 41.438623], [-8.764513, 41.456658], [-8.765556, 41.474675], [-8.762993, 41.483677], [-8.757662, 41.492674], [-8.745044, 41.504915]], [[-8.445641, 41.486928], [-8.441967, 41.491575], [-8.433577, 41.496702], [-8.421579, 41.498702], [-8.409624, 41.495799], [-8.402952, 41.491379], [-8.398619, 41.482349], [-8.400002, 41.473349], [-8.409917, 41.463499], [-8.421925, 41.459728], [-8.43389, 41.460736], [-8.445796, 41.468781], [-8.448646, 41.473593], [-8.448628, 41.4826], [-8.445641, 41.486928]], [[-8.553676, 41.454175], [-8.555418, 41.45604], [-8.553654, 41.45738], [-8.550421, 41.45602], [-8.553676, 41.454175]], [[-8.731693, 41.339487], [-8.709852, 41.335595], [-8.697924, 41.330549], [-8.682994, 41.321348], [-8.672971, 41.312312], [-8.666495, 41.303286], [-8.663987, 41.294271], [-8.665305, 41.285267], [-8.671821, 41.276278], [-8.686277, 41.267371], [-8.698234, 41.26346], [-8.722124, 41.259979], [-8.745993, 41.261715], [-8.757919, 41.264696], [-8.76984, 41.26968], [-8.78063, 41.276537], [-8.789007, 41.28556], [-8.79283, 41.294575], [-8.793571, 41.303584], [-8.791469, 41.312588], [-8.785585, 41.321585], [-8.774187, 41.330571], [-8.757651, 41.337269], [-8.745691, 41.339382], [-8.731693, 41.339487]]], [[[-7.88973, 41.772296], [-7.89648, 41.766854], [-7.90337, 41.748906], [-7.911589, 41.739977], [-7.933686, 41.722171], [-7.938675, 41.71321], [-7.942141, 41.704235], [-7.941903, 41.695226], [-7.935416, 41.686159], [-7.927328, 41.682001], [-7.915341, 41.680353], [-7.903289, 41.682511], [-7.89116, 41.689174], [-7.878854, 41.705839], [-7.871641, 41.721578], [-7.866437, 41.728515], [-7.832279, 41.739199], [-7.821748, 41.748098], [-7.820106, 41.757088], [-7.823523, 41.76613], [-7.83534, 41.775257], [-7.853505, 41.779567], [-7.865537, 41.77962], [-7.884222, 41.775742], [-7.88973, 41.772296]], [[-7.887045, 41.757756], [-7.883156, 41.766725], [-7.877732, 41.770348], [-7.865634, 41.774127], [-7.853622, 41.773013], [-7.841709, 41.766408], [-7.837919, 41.757269], [-7.843043, 41.748314], [-7.854165, 41.742458], [-7.866222, 41.740714], [-7.878211, 41.742853], [-7.884482, 41.748724], [-7.887045, 41.757756]], [[-7.914638, 41.712985], [-7.913107, 41.721978], [-7.902487, 41.72969], [-7.890455, 41.7302], [-7.88276, 41.721687], [-7.884447, 41.712696], [-7.890878, 41.705614], [-7.902927, 41.703829], [-7.914638, 41.712985]]]]}}, {"id": "5", "type": "Feature", "properties": {"fill": "#a3a3a3", "value_min": -0.75, "value_max": -0.5}, "geometry": {"type": "MultiPolygon", "coordinates": [[[[-8.69218, 41.578095], [-8.677994, 41.546523], [-8.666872, 41.528476], [-8.658099, 41.519443], [-8.645269, 41.510397], [-8.62524, 41.501719], [-8.613275, 41.499015], [-8.601299, 41.498149], [-8.565345, 41.499772], [-8.553376, 41.497941], [-8.541422, 41.494068], [-8.505618, 41.476161], [-8.493664, 41.473142], [-8.481673, 41.475003], [-8.469629, 41.483251], [-8.44549, 41.504667], [-8.421438, 41.514514], [-8.349353, 41.532593], [-8.337367, 41.532457], [-8.325417, 41.528918], [-8.313514, 41.520993], [-8.303937, 41.508837], [-8.289986, 41.480485], [-8.2847, 41.47269], [-8.278155, 41.467249], [-8.266229, 41.462928], [-8.230365, 41.457913], [-8.206495, 41.451576], [-8.170803, 41.433916], [-8.104172, 41.392972], [-8.105321, 41.394998], [-8.10263, 41.396123], [-8.10801, 41.398825], [-8.108606, 41.403102], [-8.104419, 41.406252], [-8.104119, 41.408728], [-8.101727, 41.409403], [-8.102025, 41.411204], [-8.092756, 41.411201], [-8.09126, 41.414352], [-8.079893, 41.41975], [-8.077503, 41.416597], [-8.070923, 41.41862], [-8.066739, 41.416142], [-8.061654, 41.417489], [-8.059852, 41.424916], [-8.055959, 41.429415], [-8.057444, 41.438195], [-8.061296, 41.439098], [-8.075046, 41.434231], [-8.087044, 41.432176], [-8.110972, 41.432851], [-8.122906, 41.435459], [-8.145878, 41.444721], [-8.158583, 41.453369], [-8.167912, 41.462897], [-8.173181, 41.471942], [-8.175681, 41.480968], [-8.172997, 41.498963], [-8.168035, 41.507935], [-8.157734, 41.51889], [-8.145662, 41.525526], [-8.133636, 41.528526], [-8.109772, 41.520624], [-8.097788, 41.520533], [-8.092091, 41.522193], [-8.093588, 41.52307], [-8.09209, 41.524645], [-8.092385, 41.532749], [-8.106759, 41.543557], [-8.101666, 41.542655], [-8.094175, 41.544904], [-8.087885, 41.542876], [-8.083389, 41.5449], [-8.080687, 41.551651], [-8.074097, 41.549848], [-8.073494, 41.553449], [-8.075891, 41.554575], [-8.076188, 41.557276], [-8.079783, 41.558403], [-8.081576, 41.565157], [-8.078879, 41.56493], [-8.075279, 41.568305], [-8.073182, 41.568079], [-8.069283, 41.570553], [-8.068081, 41.573478], [-8.056684, 41.579549], [-8.052181, 41.584498], [-8.052777, 41.587649], [-8.048277, 41.590122], [-8.047974, 41.592373], [-8.031467, 41.602938], [-8.02367, 41.603156], [-8.019174, 41.601802], [-8.015872, 41.603824], [-8.013474, 41.603372], [-8.005971, 41.60629], [-8.003562, 41.611239], [-7.998761, 41.612809], [-7.999669, 41.608759], [-7.996976, 41.605829], [-7.996684, 41.602003], [-7.984685, 41.603564], [-7.982292, 41.60086], [-7.975689, 41.603552], [-7.974482, 41.606701], [-7.970882, 41.607147], [-7.969091, 41.603768], [-7.965796, 41.602413], [-7.9541, 41.602846], [-7.952606, 41.600592], [-7.947808, 41.60081], [-7.945413, 41.599456], [-7.942725, 41.595625], [-7.936132, 41.594488], [-7.93791, 41.601694], [-7.937004, 41.603718], [-7.931604, 41.604384], [-7.930979, 41.612711], [-7.925556, 41.620354], [-7.920755, 41.620796], [-7.917748, 41.623041], [-7.915933, 41.627764], [-7.913229, 41.628885], [-7.912613, 41.63361], [-7.906014, 41.633147], [-7.906884, 41.641927], [-7.897869, 41.645511], [-7.89696, 41.647985], [-7.892759, 41.647976], [-7.892145, 41.651576], [-7.902319, 41.659925], [-7.899913, 41.66127], [-7.900198, 41.665547], [-7.898396, 41.665769], [-7.896885, 41.668692], [-7.883969, 41.67069], [-7.879755, 41.673607], [-7.877044, 41.676077], [-7.876723, 41.681253], [-7.873401, 41.686198], [-7.868896, 41.686413], [-7.868008, 41.68326], [-7.864403, 41.683701], [-7.863842, 41.685276], [-7.867154, 41.687669], [-7.87064, 41.694547], [-7.871602, 41.703564], [-7.866661, 41.715754], [-7.858126, 41.721445], [-7.854504, 41.723397], [-7.842464, 41.724381], [-7.825722, 41.721118], [-7.817406, 41.716165], [-7.81469, 41.718688], [-7.808986, 41.717996], [-7.808396, 41.715744], [-7.804499, 41.714158], [-7.79939, 41.714593], [-7.79788, 41.716164], [-7.796383, 41.71526], [-7.790966, 41.717044], [-7.789449, 41.719966], [-7.78464, 41.720402], [-7.78252, 41.723546], [-7.776204, 41.724652], [-7.773786, 41.727346], [-7.770798, 41.72441], [-7.765698, 41.723044], [-7.761765, 41.727758], [-7.763239, 41.732714], [-7.761725, 41.734741], [-7.769997, 41.741706], [-7.796393, 41.774856], [-7.805342, 41.781267], [-7.817303, 41.78517], [-7.829316, 41.786309], [-7.901582, 41.782787], [-7.909865, 41.784995], [-7.913544, 41.78706], [-7.925299, 41.803794], [-7.937225, 41.810501], [-7.973306, 41.812768], [-7.985293, 41.816077], [-7.993724, 41.821788], [-8.001636, 41.830863], [-8.006724, 41.843296], [-8.013965, 41.828899], [-8.017873, 41.831379], [-8.02901, 41.829589], [-8.037134, 41.831171], [-8.041351, 41.828023], [-8.041054, 41.825097], [-8.045268, 41.824425], [-8.047679, 41.821276], [-8.057314, 41.815656], [-8.06664, 41.817012], [-8.072961, 41.813414], [-8.078678, 41.813417], [-8.082892, 41.810493], [-8.090111, 41.812521], [-8.092715, 41.811396], [-8.076026, 41.795459], [-8.061239, 41.777325], [-8.037976, 41.732098], [-8.022898, 41.718283], [-7.985817, 41.695622], [-7.975402, 41.686522], [-7.968114, 41.67745], [-7.966566, 41.668429], [-7.968053, 41.659436], [-7.972735, 41.65047], [-7.981789, 41.641544], [-8.000158, 41.634083], [-8.012178, 41.633173], [-8.024161, 41.634728], [-8.036099, 41.639268], [-8.049604, 41.651132], [-8.053331, 41.669177], [-8.068296, 41.687313], [-8.08331, 41.696872], [-8.095302, 41.698683], [-8.107356, 41.696101], [-8.119343, 41.698369], [-8.120799, 41.696734], [-8.119432, 41.691815], [-8.116139, 41.687691], [-8.119556, 41.682732], [-8.131756, 41.668967], [-8.143846, 41.663121], [-8.167924, 41.658859], [-8.181145, 41.661151], [-8.186495, 41.670196], [-8.184333, 41.688195], [-8.18545, 41.69721], [-8.190217, 41.706251], [-8.203252, 41.715915], [-8.225359, 41.724507], [-8.23165, 41.733556], [-8.233109, 41.769594], [-8.236388, 41.791592], [-8.240744, 41.791588], [-8.24074, 41.789338], [-8.244347, 41.787984], [-8.245546, 41.785731], [-8.251257, 41.784375], [-8.251845, 41.777172], [-8.256049, 41.774241], [-8.261762, 41.774235], [-8.269568, 41.76905], [-8.269565, 41.767474], [-8.275272, 41.765232], [-8.269129, 41.760822], [-8.263695, 41.75178], [-8.265606, 41.742785], [-8.277306, 41.733853], [-8.287223, 41.732037], [-8.29921, 41.735451], [-8.30735, 41.743045], [-8.309211, 41.752063], [-8.305677, 41.758377], [-8.311096, 41.762195], [-8.318308, 41.761283], [-8.325233, 41.765098], [-8.328234, 41.763292], [-8.336653, 41.763728], [-8.341756, 41.761468], [-8.344765, 41.762363], [-8.349267, 41.760103], [-8.352557, 41.755145], [-8.34982, 41.745922], [-8.349814, 41.744122], [-8.352516, 41.743441], [-8.352383, 41.739615], [-8.335496, 41.714998], [-8.306892, 41.689], [-8.299235, 41.679946], [-8.293409, 41.670903], [-8.290387, 41.661878], [-8.291101, 41.643868], [-8.295425, 41.634887], [-8.302916, 41.625926], [-8.312484, 41.618196], [-8.324557, 41.61153], [-8.336597, 41.607802], [-8.348617, 41.605927], [-8.360618, 41.605892], [-8.384586, 41.609434], [-8.420516, 41.61781], [-8.444535, 41.616343], [-8.449484, 41.617714], [-8.456489, 41.622084], [-8.460203, 41.626772], [-8.46197, 41.635787], [-8.466802, 41.644817], [-8.476965, 41.653871], [-8.503736, 41.671476], [-8.50927, 41.671233], [-8.51018, 41.672806], [-8.511967, 41.670324], [-8.509856, 41.668755], [-8.512252, 41.667847], [-8.514629, 41.663788], [-8.522103, 41.658811], [-8.525706, 41.659023], [-8.527769, 41.652714], [-8.534066, 41.652017], [-8.537951, 41.649302], [-8.537634, 41.646602], [-8.543876, 41.637352], [-8.543855, 41.633976], [-8.536342, 41.631977], [-8.535128, 41.62973], [-8.543431, 41.61462], [-8.554533, 41.615255], [-8.557244, 41.617046], [-8.562639, 41.61635], [-8.568056, 41.619031], [-8.570735, 41.616095], [-8.577321, 41.614269], [-8.581231, 41.615829], [-8.585766, 41.620988], [-8.591462, 41.620515], [-8.596534, 41.616668], [-8.601628, 41.615972], [-8.603996, 41.611686], [-8.613256, 41.606696], [-8.619881, 41.610269], [-8.621338, 41.604636], [-8.628833, 41.604378], [-8.636302, 41.600744], [-8.639873, 41.597352], [-8.640152, 41.59465], [-8.645536, 41.593051], [-8.646744, 41.594171], [-8.649125, 41.591909], [-8.656622, 41.5921], [-8.660788, 41.588255], [-8.663794, 41.589141], [-8.665265, 41.585758], [-8.66948, 41.587989], [-8.684455, 41.586117], [-8.685608, 41.58071], [-8.69218, 41.578095]], [[-7.949817, 41.776636], [-7.925764, 41.775935], [-7.916919, 41.767048], [-7.917536, 41.758047], [-7.922754, 41.749089], [-7.938403, 41.739109], [-7.95047, 41.736552], [-7.962469, 41.738177], [-7.974398, 41.744268], [-7.981196, 41.749622], [-7.983679, 41.758651], [-7.98204, 41.767644], [-7.973912, 41.774793], [-7.961842, 41.777091], [-7.949817, 41.776636]], [[-7.88973, 41.772296], [-7.884222, 41.775742], [-7.865537, 41.77962], [-7.853505, 41.779567], [-7.83534, 41.775257], [-7.823523, 41.76613], [-7.820106, 41.757088], [-7.821748, 41.748098], [-7.832279, 41.739199], [-7.866437, 41.728515], [-7.871641, 41.721578], [-7.878854, 41.705839], [-7.89116, 41.689174], [-7.903289, 41.682511], [-7.915341, 41.680353], [-7.927328, 41.682001], [-7.935416, 41.686159], [-7.941903, 41.695226], [-7.942141, 41.704235], [-7.938675, 41.71321], [-7.933686, 41.722171], [-7.911589, 41.739977], [-7.90337, 41.748906], [-7.89648, 41.766854], [-7.88973, 41.772296]], [[-7.998466, 41.743299], [-7.995072, 41.740738], [-7.994983, 41.73173], [-7.998683, 41.729338], [-8.01076, 41.725822], [-8.021647, 41.73196], [-8.019424, 41.740948], [-8.010447, 41.746221], [-7.998466, 41.743299]], [[-8.083404, 41.690261], [-8.078897, 41.687398], [-8.07154, 41.678332], [-8.072953, 41.669337], [-8.083821, 41.660879], [-8.095832, 41.660823], [-8.107299, 41.669609], [-8.108158, 41.678622], [-8.100721, 41.687571], [-8.095415, 41.69066], [-8.083404, 41.690261]], [[-8.084168, 41.636371], [-8.072226, 41.631842], [-8.06283, 41.624219], [-8.057966, 41.615172], [-8.057895, 41.606165], [-8.062935, 41.597199], [-8.072829, 41.589795], [-8.08487, 41.586733], [-8.096849, 41.588006], [-8.108772, 41.593425], [-8.112802, 41.597594], [-8.117118, 41.606635], [-8.116236, 41.615635], [-8.108311, 41.626919], [-8.096193, 41.635], [-8.084168, 41.636371]], [[-8.528641, 41.604441], [-8.516642, 41.604216], [-8.504667, 41.600935], [-8.488027, 41.59087], [-8.468908, 41.571556], [-8.444961, 41.566564], [-8.433025, 41.559961], [-8.428035, 41.554558], [-8.425455, 41.545538], [-8.428697, 41.536547], [-8.44085, 41.527599], [-8.463349, 41.518699], [-8.469433, 41.507327], [-8.481473, 41.500143], [-8.493439, 41.502071], [-8.501907, 41.509865], [-8.502638, 41.518876], [-8.498392, 41.527865], [-8.498978, 41.536875], [-8.505132, 41.540049], [-8.529068, 41.54564], [-8.541027, 41.550099], [-8.548653, 41.555095], [-8.557149, 41.564135], [-8.560555, 41.573156], [-8.560082, 41.582161], [-8.555334, 41.59115], [-8.543522, 41.600111], [-8.528641, 41.604441]], [[-8.61303, 41.540082], [-8.609075, 41.537302], [-8.604319, 41.528278], [-8.608608, 41.519285], [-8.613169, 41.516825], [-8.625162, 41.515222], [-8.636377, 41.519376], [-8.640602, 41.528397], [-8.637026, 41.536823], [-8.625007, 41.542119], [-8.61303, 41.540082]]], [[[-7.86322, 41.684824], [-7.86322, 41.684824], [-7.863796, 41.685243], [-7.86322, 41.684824]]], [[[-8.303367, 41.323742], [-8.299667, 41.355684], [-8.300884, 41.382715], [-8.30616, 41.409769], [-8.314488, 41.428646], [-8.326371, 41.436846], [-8.338312, 41.439659], [-8.362252, 41.439686], [-8.386237, 41.434943], [-8.435473, 41.419484], [-8.452682, 41.410559], [-8.462535, 41.401598], [-8.468893, 41.39262], [-8.476201, 41.374639], [-8.478231, 41.356633], [-8.473752, 41.329589], [-8.465556, 41.311536], [-8.451723, 41.293456], [-8.432334, 41.277108], [-8.427032, 41.279372], [-8.429143, 41.284319], [-8.426171, 41.287028], [-8.426488, 41.291079], [-8.425013, 41.294909], [-8.422037, 41.296942], [-8.422647, 41.299867], [-8.407744, 41.304856], [-8.406262, 41.307335], [-8.403277, 41.307342], [-8.401801, 41.311398], [-8.399712, 41.311628], [-8.400316, 41.313202], [-8.396738, 41.314336], [-8.398835, 41.316131], [-8.393775, 41.31997], [-8.393489, 41.323122], [-8.391105, 41.324253], [-8.386325, 41.323588], [-8.382165, 41.328923], [-8.399123, 41.335512], [-8.41225, 41.347307], [-8.417497, 41.356341], [-8.419604, 41.365359], [-8.419155, 41.374365], [-8.416015, 41.383356], [-8.409317, 41.39233], [-8.398521, 41.400876], [-8.386503, 41.406669], [-8.374511, 41.409602], [-8.362538, 41.410482], [-8.350585, 41.409238], [-8.33866, 41.405385], [-8.326787, 41.396592], [-8.318623, 41.382821], [-8.317268, 41.364798], [-8.319859, 41.355806], [-8.327332, 41.343675], [-8.338007, 41.33494], [-8.333215, 41.336299], [-8.326363, 41.342163], [-8.324568, 41.341041], [-8.323376, 41.341943], [-8.320676, 41.338121], [-8.316788, 41.335876], [-8.313802, 41.336331], [-8.31139, 41.328007], [-8.307502, 41.325762], [-8.303622, 41.326443], [-8.303367, 41.323742]]], [[[-8.338883, 41.334282], [-8.338883, 41.334282], [-8.338909, 41.334263], [-8.338883, 41.334282]]], [[[-8.33918, 41.334059], [-8.33918, 41.334059], [-8.339209, 41.334037], [-8.33918, 41.334059]]], [[[-8.339478, 41.333869], [-8.339478, 41.333869], [-8.339625, 41.333811], [-8.339478, 41.333869]]], [[[-8.343058, 41.332458], [-8.343058, 41.332458], [-8.343066, 41.332454], [-8.343058, 41.332458]]], [[[-8.343356, 41.33234], [-8.343356, 41.33234], [-8.343639, 41.332228], [-8.343356, 41.33234]]], [[[-8.343654, 41.332222], [-8.343654, 41.332222], [-8.344212, 41.332002], [-8.343654, 41.332222]]], [[[-8.344251, 41.331987], [-8.357974, 41.327973], [-8.350207, 41.327264], [-8.345436, 41.329299], [-8.344251, 41.331987]]], [[[-8.731693, 41.339487], [-8.745691, 41.339382], [-8.757651, 41.337269], [-8.774187, 41.330571], [-8.785585, 41.321585], [-8.791469, 41.312588], [-8.793571, 41.303584], [-8.79283, 41.294575], [-8.789007, 41.28556], [-8.78063, 41.276537], [-8.76984, 41.26968], [-8.757919, 41.264696], [-8.745993, 41.261715], [-8.722124, 41.259979], [-8.698234, 41.26346], [-8.686277, 41.267371], [-8.671821, 41.276278], [-8.665305, 41.285267], [-8.663987, 41.294271], [-8.666495, 41.303286], [-8.672971, 41.312312], [-8.682994, 41.321348], [-8.697924, 41.330549], [-8.709852, 41.335595], [-8.731693, 41.339487]], [[-8.709983, 41.306097], [-8.705687, 41.303393], [-8.701932, 41.294375], [-8.710075, 41.285315], [-8.722018, 41.285042], [-8.732108, 41.29445], [-8.728217, 41.303448], [-8.721926, 41.306644], [-8.709983, 41.306097]]]]}}, {"id": "0", "type": "Feature", "properties": {"fill": "#c93e18", "value_min": -2.0, "value_max": -1.75}, "geometry": {"type": "MultiPolygon", "coordinates": [[[[-8.131088, 41.71861], [-8.14313, 41.71713], [-8.145786, 41.714936], [-8.14528, 41.705925], [-8.143295, 41.704656], [-8.131277, 41.704612], [-8.129912, 41.70581], [-8.127361, 41.714798], [-8.131088, 41.71861]]], [[[-8.205193, 41.376519], [-8.203904, 41.382085], [-8.210482, 41.391137], [-8.21915, 41.394607], [-8.23112, 41.393901], [-8.236074, 41.39131], [-8.24314, 41.382349], [-8.240311, 41.373323], [-8.237252, 41.371092], [-8.232024, 41.369971], [-8.224854, 41.370878], [-8.21738, 41.368182], [-8.211712, 41.376065], [-8.205193, 41.376519]]]]}}, {"id": "6", "type": "Feature", "properties": {"fill": "#a3a3a3", "value_min": -0.5, "value_max": -0.25}, "geometry": {"type": "MultiPolygon", "coordinates": [[[[-8.006724, 41.843296], [-8.001636, 41.830863], [-7.993724, 41.821788], [-7.985293, 41.816077], [-7.973306, 41.812768], [-7.937225, 41.810501], [-7.925299, 41.803794], [-7.913544, 41.78706], [-7.909865, 41.784995], [-7.901582, 41.782787], [-7.829316, 41.786309], [-7.817303, 41.78517], [-7.805342, 41.781267], [-7.796393, 41.774856], [-7.769997, 41.741706], [-7.761725, 41.734741], [-7.759597, 41.739005], [-7.75689, 41.739446], [-7.758687, 41.740577], [-7.757758, 41.745301], [-7.748417, 41.749321], [-7.747786, 41.754496], [-7.743866, 41.756509], [-7.740214, 41.763924], [-7.726937, 41.771755], [-7.7254, 41.777152], [-7.727191, 41.779184], [-7.724177, 41.780299], [-7.725372, 41.781653], [-7.722302, 41.791546], [-7.722889, 41.793798], [-7.728879, 41.797871], [-7.727026, 41.805517], [-7.72995, 41.819031], [-7.73594, 41.823554], [-7.74345, 41.825605], [-7.738918, 41.82874], [-7.742196, 41.833928], [-7.74729, 41.837772], [-7.74577, 41.840242], [-7.746604, 41.844071], [-7.756032, 41.842066], [-7.768044, 41.843764], [-7.774319, 41.846676], [-7.782845, 41.855773], [-7.782783, 41.864779], [-7.775484, 41.873708], [-7.767387, 41.877984], [-7.755303, 41.879684], [-7.743308, 41.876806], [-7.737943, 41.873302], [-7.734162, 41.867932], [-7.730228, 41.871024], [-7.729293, 41.875972], [-7.720533, 41.880218], [-7.720523, 41.881793], [-7.725335, 41.882935], [-7.726208, 41.887665], [-7.737044, 41.888828], [-7.73944, 41.891087], [-7.74246, 41.889747], [-7.742785, 41.885922], [-7.756022, 41.888441], [-7.758719, 41.890926], [-7.756592, 41.89407], [-7.758076, 41.897901], [-7.764097, 41.898595], [-7.779227, 41.886264], [-7.785257, 41.885157], [-7.788886, 41.882467], [-7.794007, 41.882257], [-7.796739, 41.878214], [-7.794349, 41.87438], [-7.797064, 41.873488], [-7.803381, 41.874857], [-7.804914, 41.869459], [-7.813032, 41.871958], [-7.814229, 41.873537], [-7.823863, 41.874013], [-7.825059, 41.875817], [-7.830479, 41.875831], [-7.830789, 41.874031], [-7.832894, 41.874712], [-7.83772, 41.872924], [-7.842528, 41.875187], [-7.841663, 41.866632], [-7.849515, 41.861475], [-7.858544, 41.862269], [-7.840039, 41.859011], [-7.828095, 41.853351], [-7.820056, 41.847155], [-7.814247, 41.838088], [-7.812128, 41.82906], [-7.813644, 41.820069], [-7.818419, 41.811111], [-7.827672, 41.802199], [-7.846196, 41.79338], [-7.853288, 41.791737], [-7.877398, 41.789497], [-7.889398, 41.791495], [-7.895005, 41.79386], [-7.90588, 41.802971], [-7.910848, 41.812025], [-7.91212, 41.83005], [-7.908931, 41.839027], [-7.901406, 41.847962], [-7.888976, 41.856223], [-7.891675, 41.859094], [-7.898893, 41.86136], [-7.902203, 41.861591], [-7.904318, 41.859795], [-7.907309, 41.865203], [-7.906095, 41.868126], [-7.910299, 41.871285], [-7.909985, 41.875111], [-7.915391, 41.879397], [-7.921118, 41.877833], [-7.928044, 41.87807], [-7.935283, 41.874707], [-7.937389, 41.87516], [-7.941618, 41.870891], [-7.951254, 41.871132], [-7.956367, 41.87339], [-7.956362, 41.875191], [-7.960878, 41.875648], [-7.96299, 41.874075], [-7.972322, 41.875439], [-7.987996, 41.869157], [-7.990123, 41.860157], [-7.995547, 41.858138], [-7.994044, 41.856786], [-7.994954, 41.853411], [-7.996765, 41.851162], [-8.00339, 41.85027], [-8.006724, 41.843296]], [[-7.733026, 41.787128], [-7.730554, 41.783154], [-7.733152, 41.780771], [-7.745625, 41.783319], [-7.745113, 41.78446], [-7.733026, 41.787128]]], [[[-7.949817, 41.776636], [-7.961842, 41.777091], [-7.973912, 41.774793], [-7.98204, 41.767644], [-7.983679, 41.758651], [-7.981196, 41.749622], [-7.974398, 41.744268], [-7.962469, 41.738177], [-7.95047, 41.736552], [-7.938403, 41.739109], [-7.922754, 41.749089], [-7.917536, 41.758047], [-7.916919, 41.767048], [-7.925764, 41.775935], [-7.949817, 41.776636]], [[-7.946818, 41.767326], [-7.937965, 41.765733], [-7.933699, 41.758198], [-7.938168, 41.753366], [-7.95022, 41.75192], [-7.957211, 41.758414], [-7.950476, 41.76736], [-7.946818, 41.767326]]], [[[-8.305677, 41.758377], [-8.309211, 41.752063], [-8.30735, 41.743045], [-8.29921, 41.735451], [-8.287223, 41.732037], [-8.277306, 41.733853], [-8.265606, 41.742785], [-8.263695, 41.75178], [-8.269129, 41.760822], [-8.275272, 41.765232], [-8.280681, 41.764083], [-8.284038, 41.761109], [-8.284931, 41.757507], [-8.287033, 41.756829], [-8.305677, 41.758377]]], [[[-7.998466, 41.743299], [-8.010447, 41.746221], [-8.019424, 41.740948], [-8.021647, 41.73196], [-8.01076, 41.725822], [-7.998683, 41.729338], [-7.994983, 41.73173], [-7.995072, 41.740738], [-7.998466, 41.743299]]], [[[-7.817406, 41.716165], [-7.825722, 41.721118], [-7.842464, 41.724381], [-7.854504, 41.723397], [-7.858126, 41.721445], [-7.866661, 41.715754], [-7.871602, 41.703564], [-7.87064, 41.694547], [-7.867154, 41.687669], [-7.863842, 41.685276], [-7.863796, 41.685243], [-7.86322, 41.684824], [-7.858987, 41.68639], [-7.857773, 41.689538], [-7.855076, 41.688181], [-7.852668, 41.689526], [-7.847538, 41.695365], [-7.837309, 41.699391], [-7.835792, 41.702763], [-7.839682, 41.705924], [-7.838465, 41.709522], [-7.832453, 41.710407], [-7.825252, 41.708813], [-7.818621, 41.713522], [-7.817406, 41.716165]], [[-7.844245, 41.712299], [-7.840723, 41.703256], [-7.84288, 41.7012], [-7.854946, 41.698501], [-7.859795, 41.703447], [-7.857109, 41.712428], [-7.85467, 41.714082], [-7.844245, 41.712299]]], [[[-8.083404, 41.690261], [-8.095415, 41.69066], [-8.100721, 41.687571], [-8.108158, 41.678622], [-8.107299, 41.669609], [-8.095832, 41.660823], [-8.083821, 41.660879], [-8.072953, 41.669337], [-8.07154, 41.678332], [-8.078897, 41.687398], [-8.083404, 41.690261]], [[-8.083526, 41.681649], [-8.080715, 41.678406], [-8.083633, 41.6741], [-8.095653, 41.673628], [-8.098946, 41.67855], [-8.095534, 41.682146], [-8.083526, 41.681649]]], [[[-8.084168, 41.636371], [-8.096193, 41.635], [-8.108311, 41.626919], [-8.116236, 41.615635], [-8.117118, 41.606635], [-8.112802, 41.597594], [-8.108772, 41.593425], [-8.096849, 41.588006], [-8.08487, 41.586733], [-8.072829, 41.589795], [-8.062935, 41.597199], [-8.057895, 41.606165], [-8.057966, 41.615172], [-8.06283, 41.624219], [-8.072226, 41.631842], [-8.084168, 41.636371]]], [[[-8.528641, 41.604441], [-8.543522, 41.600111], [-8.555334, 41.59115], [-8.560082, 41.582161], [-8.560555, 41.573156], [-8.557149, 41.564135], [-8.548653, 41.555095], [-8.541027, 41.550099], [-8.529068, 41.54564], [-8.505132, 41.540049], [-8.498978, 41.536875], [-8.498392, 41.527865], [-8.502638, 41.518876], [-8.501907, 41.509865], [-8.493439, 41.502071], [-8.481473, 41.500143], [-8.469433, 41.507327], [-8.463349, 41.518699], [-8.44085, 41.527599], [-8.428697, 41.536547], [-8.425455, 41.545538], [-8.428035, 41.554558], [-8.433025, 41.559961], [-8.444961, 41.566564], [-8.468908, 41.571556], [-8.488027, 41.59087], [-8.504667, 41.600935], [-8.516642, 41.604216], [-8.528641, 41.604441]]], [[[-8.61303, 41.540082], [-8.625007, 41.542119], [-8.637026, 41.536823], [-8.640602, 41.528397], [-8.636377, 41.519376], [-8.625162, 41.515222], [-8.613169, 41.516825], [-8.608608, 41.519285], [-8.604319, 41.528278], [-8.609075, 41.537302], [-8.61303, 41.540082]]], [[[-8.092091, 41.522193], [-8.097788, 41.520533], [-8.109772, 41.520624], [-8.133636, 41.528526], [-8.145662, 41.525526], [-8.157734, 41.51889], [-8.168035, 41.507935], [-8.172997, 41.498963], [-8.175681, 41.480968], [-8.173181, 41.471942], [-8.167912, 41.462897], [-8.158583, 41.453369], [-8.145878, 41.444721], [-8.122906, 41.435459], [-8.110972, 41.432851], [-8.087044, 41.432176], [-8.075046, 41.434231], [-8.061296, 41.439098], [-8.064916, 41.444052], [-8.067908, 41.444279], [-8.069999, 41.447206], [-8.068788, 41.462286], [-8.073872, 41.46499], [-8.074468, 41.468141], [-8.073564, 41.474668], [-8.066374, 41.482318], [-8.066069, 41.48817], [-8.072054, 41.490199], [-8.07175, 41.494925], [-8.078333, 41.49898], [-8.078332, 41.500331], [-8.093, 41.504613], [-8.089398, 41.519242], [-8.090594, 41.522169], [-8.092091, 41.522193]], [[-8.122007, 41.502121], [-8.110034, 41.501513], [-8.098095, 41.498413], [-8.084185, 41.489283], [-8.080144, 41.480243], [-8.081727, 41.471249], [-8.08951, 41.462303], [-8.098663, 41.457419], [-8.110669, 41.455091], [-8.122628, 41.456054], [-8.134541, 41.460626], [-8.145812, 41.471742], [-8.148241, 41.480768], [-8.145609, 41.489756], [-8.135393, 41.498687], [-8.122007, 41.502121]]], [[[-8.338007, 41.33494], [-8.327332, 41.343675], [-8.319859, 41.355806], [-8.317268, 41.364798], [-8.318623, 41.382821], [-8.326787, 41.396592], [-8.33866, 41.405385], [-8.350585, 41.409238], [-8.362538, 41.410482], [-8.374511, 41.409602], [-8.386503, 41.406669], [-8.398521, 41.400876], [-8.409317, 41.39233], [-8.416015, 41.383356], [-8.419155, 41.374365], [-8.419604, 41.365359], [-8.417497, 41.356341], [-8.41225, 41.347307], [-8.399123, 41.335512], [-8.382165, 41.328923], [-8.380382, 41.331254], [-8.377097, 41.331261], [-8.37201, 41.328346], [-8.361563, 41.329718], [-8.357974, 41.327973], [-8.344251, 41.331987], [-8.344212, 41.332002], [-8.343654, 41.332222], [-8.343639, 41.332228], [-8.343356, 41.33234], [-8.343066, 41.332454], [-8.343058, 41.332458], [-8.339625, 41.333811], [-8.339478, 41.333869], [-8.339209, 41.334037], [-8.33918, 41.334059], [-8.338909, 41.334263], [-8.338883, 41.334282], [-8.338007, 41.33494]], [[-8.362688, 41.395107], [-8.350746, 41.393136], [-8.338866, 41.385076], [-8.334113, 41.373904], [-8.335878, 41.364907], [-8.343957, 41.355945], [-8.351157, 41.351792], [-8.363131, 41.34968], [-8.375067, 41.351546], [-8.38365, 41.356165], [-8.391396, 41.365214], [-8.392809, 41.374229], [-8.386701, 41.385642], [-8.374668, 41.393199], [-8.362688, 41.395107]]], [[[-8.709983, 41.306097], [-8.721926, 41.306644], [-8.728217, 41.303448], [-8.732108, 41.29445], [-8.722018, 41.285042], [-8.710075, 41.285315], [-8.701932, 41.294375], [-8.705687, 41.303393], [-8.709983, 41.306097]]]]}}, {"id": "7", "type": "Feature", "properties": {"fill": "#a3a3a3", "value_min": -0.25, "value_max": -0.0}, "geometry": {"type": "MultiPolygon", "coordinates": [[[[-7.734162, 41.867932], [-7.737943, 41.873302], [-7.743308, 41.876806], [-7.755303, 41.879684], [-7.767387, 41.877984], [-7.775484, 41.873708], [-7.782783, 41.864779], [-7.782845, 41.855773], [-7.774319, 41.846676], [-7.768044, 41.843764], [-7.756032, 41.842066], [-7.746604, 41.844071], [-7.750246, 41.846784], [-7.750532, 41.849261], [-7.743309, 41.849012], [-7.746901, 41.8524], [-7.746881, 41.855776], [-7.73843, 41.859348], [-7.734162, 41.867932]]], [[[-7.888976, 41.856223], [-7.901406, 41.847962], [-7.908931, 41.839027], [-7.91212, 41.83005], [-7.910848, 41.812025], [-7.90588, 41.802971], [-7.895005, 41.79386], [-7.889398, 41.791495], [-7.877398, 41.789497], [-7.853288, 41.791737], [-7.846196, 41.79338], [-7.827672, 41.802199], [-7.818419, 41.811111], [-7.813644, 41.820069], [-7.812128, 41.82906], [-7.814247, 41.838088], [-7.820056, 41.847155], [-7.828095, 41.853351], [-7.840039, 41.859011], [-7.858544, 41.862269], [-7.859456, 41.860148], [-7.865481, 41.859262], [-7.87033, 41.851395], [-7.873043, 41.850501], [-7.873066, 41.844875], [-7.879956, 41.853217], [-7.888976, 41.856223]], [[-7.862646, 41.838578], [-7.852498, 41.835996], [-7.843615, 41.829381], [-7.838576, 41.820324], [-7.839284, 41.811324], [-7.845812, 41.802383], [-7.853167, 41.798543], [-7.865268, 41.7949], [-7.877303, 41.794908], [-7.889263, 41.799338], [-7.893953, 41.802857], [-7.898703, 41.811909], [-7.898171, 41.820911], [-7.888678, 41.833195], [-7.876545, 41.838293], [-7.862646, 41.838578]]], [[[-7.733026, 41.787128], [-7.745113, 41.78446], [-7.745625, 41.783319], [-7.733152, 41.780771], [-7.730554, 41.783154], [-7.733026, 41.787128]]], [[[-7.946818, 41.767326], [-7.950476, 41.76736], [-7.957211, 41.758414], [-7.95022, 41.75192], [-7.938168, 41.753366], [-7.933699, 41.758198], [-7.937965, 41.765733], [-7.946818, 41.767326]]], [[[-7.844245, 41.712299], [-7.85467, 41.714082], [-7.857109, 41.712428], [-7.859795, 41.703447], [-7.854946, 41.698501], [-7.84288, 41.7012], [-7.840723, 41.703256], [-7.844245, 41.712299]]], [[[-8.083526, 41.681649], [-8.095534, 41.682146], [-8.098946, 41.67855], [-8.095653, 41.673628], [-8.083633, 41.6741], [-8.080715, 41.678406], [-8.083526, 41.681649]]], [[[-8.122007, 41.502121], [-8.135393, 41.498687], [-8.145609, 41.489756], [-8.148241, 41.480768], [-8.145812, 41.471742], [-8.134541, 41.460626], [-8.122628, 41.456054], [-8.110669, 41.455091], [-8.098663, 41.457419], [-8.08951, 41.462303], [-8.081727, 41.471249], [-8.080144, 41.480243], [-8.084185, 41.489283], [-8.098095, 41.498413], [-8.110034, 41.501513], [-8.122007, 41.502121]], [[-8.110233, 41.486945], [-8.106142, 41.480448], [-8.110387, 41.475714], [-8.122355, 41.476348], [-8.125737, 41.480599], [-8.122218, 41.486505], [-8.110233, 41.486945]]], [[[-8.362688, 41.395107], [-8.374668, 41.393199], [-8.386701, 41.385642], [-8.392809, 41.374229], [-8.391396, 41.365214], [-8.38365, 41.356165], [-8.375067, 41.351546], [-8.363131, 41.34968], [-8.351157, 41.351792], [-8.343957, 41.355945], [-8.335878, 41.364907], [-8.334113, 41.373904], [-8.338866, 41.385076], [-8.350746, 41.393136], [-8.362688, 41.395107]]]]}}, {"id": "8", "type": "Feature", "properties": {"fill": "#a3a3a3", "value_min": 0.0, "value_max": -0.25}, "geometry": {"type": "MultiPolygon", "coordinates": [[[[-7.862646, 41.838578], [-7.876545, 41.838293], [-7.888678, 41.833195], [-7.898171, 41.820911], [-7.898703, 41.811909], [-7.893953, 41.802857], [-7.889263, 41.799338], [-7.877303, 41.794908], [-7.865268, 41.7949], [-7.853167, 41.798543], [-7.845812, 41.802383], [-7.839284, 41.811324], [-7.838576, 41.820324], [-7.843615, 41.829381], [-7.852498, 41.835996], [-7.862646, 41.838578]], [[-7.86469, 41.82761], [-7.853255, 41.820471], [-7.851149, 41.811443], [-7.859156, 41.802516], [-7.865174, 41.80022], [-7.87721, 41.800243], [-7.882641, 41.802747], [-7.889754, 41.811823], [-7.886679, 41.8208], [-7.876736, 41.827373], [-7.86469, 41.82761]]], [[[-8.110233, 41.486945], [-8.122218, 41.486505], [-8.125737, 41.480599], [-8.122355, 41.476348], [-8.110387, 41.475714], [-8.106142, 41.480448], [-8.110233, 41.486945]]]]}}, {"id": "10", "type": "Feature", "properties": {"fill": "#a3a3a3", "value_min": 0.5, "value_max": -0.75}, "geometry": {"type": "Polygon", "coordinates": [[[-7.877061, 41.808812], [-7.865015, 41.809217], [-7.86268, 41.811558], [-7.864908, 41.815292], [-7.876935, 41.816009], [-7.879621, 41.811725], [-7.877061, 41.808812]]]}}, {"id": "9", "type": "Feature", "properties": {"fill": "#a3a3a3", "value_min": 0.25, "value_max": -0.5}, "geometry": {"type": "Polygon", "coordinates": [[[-7.86469, 41.82761], [-7.876736, 41.827373], [-7.886679, 41.8208], [-7.889754, 41.811823], [-7.882641, 41.802747], [-7.87721, 41.800243], [-7.865174, 41.80022], [-7.859156, 41.802516], [-7.851149, 41.811443], [-7.853255, 41.820471], [-7.86469, 41.82761]], [[-7.877061, 41.808812], [-7.879621, 41.811725], [-7.876935, 41.816009], [-7.864908, 41.815292], [-7.86268, 41.811558], [-7.865015, 41.809217], [-7.877061, 41.808812]]]}}]}