{"type": "FeatureCollection", "features": [{"id": "0", "type": "Feature", "properties": {"fill": "#951d1d", "value_min": -2.75, "value_max": -2.5}, "geometry": {"type": "Polygon", "coordinates": [[[-8.640887, 41.357255], [-8.638037, 41.355108], [-8.626078, 41.35579], [-8.624392, 41.357202], [-8.625306, 41.366213], [-8.637968, 41.367523], [-8.639884, 41.36626], [-8.640887, 41.357255]]]}}, {"id": "1", "type": "Feature", "properties": {"fill": "#a21c1c", "value_min": -2.5, "value_max": -2.25}, "geometry": {"type": "MultiPolygon", "coordinates": [[[[-8.680474, 41.47447], [-8.673335, 41.468306], [-8.661357, 41.468692], [-8.655855, 41.474399], [-8.658237, 41.483414], [-8.66127, 41.485345], [-8.673246, 41.485885], [-8.678067, 41.483471], [-8.680474, 41.47447]]], [[[-8.433713, 41.481069], [-8.421769, 41.477317], [-8.418066, 41.482449], [-8.421693, 41.485912], [-8.433693, 41.483368], [-8.433713, 41.481069]]], [[[-8.661249, 41.366324], [-8.660781, 41.357315], [-8.654437, 41.348289], [-8.650046, 41.345025], [-8.638119, 41.340332], [-8.626169, 41.339993], [-8.614192, 41.344199], [-8.608951, 41.348143], [-8.603709, 41.357133], [-8.604141, 41.366142], [-8.610302, 41.375171], [-8.625924, 41.382723], [-8.637881, 41.383199], [-8.649861, 41.379508], [-8.655626, 41.375315], [-8.661249, 41.366324]], [[-8.640887, 41.357255], [-8.639884, 41.36626], [-8.637968, 41.367523], [-8.625306, 41.366213], [-8.624392, 41.357202], [-8.626078, 41.35579], [-8.638037, 41.355108], [-8.640887, 41.357255]]]]}}, {"id": "4", "type": "Feature", "properties": {"fill": "#e57b10", "value_min": -1.75, "value_max": -1.5}, "geometry": {"type": "MultiPolygon", "coordinates": [[[[-7.884873, 41.757735], [-7.878132, 41.747382], [-7.866176, 41.743346], [-7.854123, 41.74486], [-7.846788, 41.748352], [-7.840378, 41.757294], [-7.843399, 41.766332], [-7.853636, 41.772228], [-7.865645, 41.77349], [-7.881413, 41.766708], [-7.884873, 41.757735]], [[-7.856325, 41.766461], [-7.853769, 41.764739], [-7.850262, 41.757394], [-7.853972, 41.753356], [-7.866064, 41.749698], [-7.876223, 41.757651], [-7.869927, 41.766596], [-7.865738, 41.768246], [-7.856325, 41.766461]]], [[[-8.453259, 41.696223], [-8.443879, 41.692572], [-8.431875, 41.691174], [-8.41985, 41.692078], [-8.399583, 41.698528], [-8.385318, 41.70746], [-8.378766, 41.716432], [-8.377439, 41.725432], [-8.379523, 41.732736], [-8.384922, 41.73032], [-8.387032, 41.731891], [-8.39258, 41.730303], [-8.389737, 41.725498], [-8.389895, 41.716492], [-8.396415, 41.707519], [-8.407747, 41.701434], [-8.419789, 41.698867], [-8.431796, 41.700078], [-8.444653, 41.706539], [-8.452375, 41.699766], [-8.453259, 41.696223]]], [[[-8.463426, 41.626787], [-8.457728, 41.617753], [-8.444555, 41.613939], [-8.432229, 41.61763], [-8.427838, 41.626615], [-8.43236, 41.635934], [-8.444325, 41.640701], [-8.456351, 41.638589], [-8.460118, 41.635779], [-8.463426, 41.626787]]], [[[-8.494827, 41.223355], [-8.500856, 41.239632], [-8.506913, 41.248666], [-8.534436, 41.275804], [-8.540005, 41.284834], [-8.540847, 41.293846], [-8.538937, 41.302846], [-8.527855, 41.338832], [-8.52091, 41.374833], [-8.513844, 41.392819], [-8.487818, 41.428736], [-8.481937, 41.441856], [-8.469923, 41.447158], [-8.446033, 41.440977], [-8.422086, 41.441628], [-8.398075, 41.449203], [-8.387401, 41.455268], [-8.37397, 41.46598], [-8.361965, 41.469023], [-8.350002, 41.467699], [-8.338016, 41.468761], [-8.325971, 41.475477], [-8.321869, 41.481922], [-8.321971, 41.49093], [-8.32575, 41.496841], [-8.337658, 41.503938], [-8.349632, 41.504706], [-8.373656, 41.49852], [-8.397536, 41.507409], [-8.409501, 41.509393], [-8.421486, 41.509102], [-8.433491, 41.506646], [-8.445527, 41.50034], [-8.455656, 41.491641], [-8.463519, 41.48267], [-8.469744, 41.46917], [-8.481857, 41.451944], [-8.48316, 41.455738], [-8.493762, 41.460581], [-8.497427, 41.464809], [-8.510696, 41.473873], [-8.529511, 41.484522], [-8.541458, 41.488977], [-8.553425, 41.490832], [-8.565407, 41.490501], [-8.601392, 41.482974], [-8.613361, 41.48451], [-8.673112, 41.512701], [-8.697053, 41.518279], [-8.721023, 41.518271], [-8.745017, 41.511851], [-8.757024, 41.505544], [-8.773012, 41.492705], [-8.77997, 41.483711], [-8.785127, 41.474713], [-8.790366, 41.456708], [-8.790363, 41.438693], [-8.78544, 41.420669], [-8.775113, 41.402634], [-8.758111, 41.384584], [-8.734806, 41.366517], [-8.685959, 41.33367], [-8.645987, 41.303225], [-8.628758, 41.285155], [-8.625695, 41.276137], [-8.628171, 41.267137], [-8.638551, 41.258163], [-8.650537, 41.253144], [-8.665206, 41.249235], [-8.716676, 41.240366], [-8.752309, 41.23144], [-8.774869, 41.222479], [-8.790019, 41.213499], [-8.801997, 41.202699], [-8.799695, 41.14406], [-8.67527, 41.147484], [-8.676193, 41.146567], [-8.674793, 41.146932], [-8.674213, 41.148815], [-8.686853, 41.146715], [-8.698769, 41.146803], [-8.710677, 41.148865], [-8.722576, 41.153111], [-8.734464, 41.160701], [-8.741719, 41.168361], [-8.74653, 41.17738], [-8.74835, 41.186392], [-8.74727, 41.195398], [-8.743339, 41.204397], [-8.735582, 41.213387], [-8.721823, 41.222363], [-8.710335, 41.226566], [-8.686454, 41.230262], [-8.674526, 41.229473], [-8.662609, 41.226628], [-8.652687, 41.222175], [-8.641863, 41.213134], [-8.636373, 41.204109], [-8.633915, 41.190644], [-8.632526, 41.188624], [-8.625658, 41.186628], [-8.621132, 41.178994], [-8.613374, 41.177451], [-8.608583, 41.174095], [-8.609164, 41.172066], [-8.604942, 41.164881], [-8.59422, 41.165149], [-8.589174, 41.167645], [-8.589194, 41.170572], [-8.583263, 41.174422], [-8.582094, 41.177803], [-8.578825, 41.178941], [-8.581296, 41.191762], [-8.575958, 41.195609], [-8.576894, 41.201908], [-8.574515, 41.202593], [-8.57423, 41.20462], [-8.567971, 41.204644], [-8.565895, 41.206227], [-8.567697, 41.208246], [-8.566512, 41.209376], [-8.559636, 41.206251], [-8.554271, 41.20627], [-8.549521, 41.209214], [-8.544157, 41.209458], [-8.54238, 41.211265], [-8.532257, 41.213102], [-8.52653, 41.202542], [-8.523236, 41.200077], [-8.520554, 41.200086], [-8.51163, 41.203042], [-8.510456, 41.206197], [-8.505693, 41.207113], [-8.504239, 41.213646], [-8.500076, 41.21546], [-8.50308, 41.219502], [-8.502204, 41.222656], [-8.496833, 41.221998], [-8.494827, 41.223355]], [[-8.685134, 41.504792], [-8.673155, 41.504154], [-8.661188, 41.5012], [-8.642774, 41.492374], [-8.631653, 41.483332], [-8.625689, 41.474305], [-8.613578, 41.448004], [-8.601564, 41.4549], [-8.592052, 41.465183], [-8.57829, 41.474141], [-8.565484, 41.478932], [-8.553497, 41.480308], [-8.541532, 41.478592], [-8.529593, 41.473163], [-8.520003, 41.464905], [-8.51502, 41.455877], [-8.514387, 41.446867], [-8.518026, 41.437874], [-8.529936, 41.425778], [-8.55394, 41.415711], [-8.571275, 41.411062], [-8.57323, 41.402062], [-8.563497, 41.375003], [-8.562097, 41.36599], [-8.564355, 41.347983], [-8.56836, 41.338991], [-8.578445, 41.326878], [-8.590445, 41.318893], [-8.602419, 41.314681], [-8.614374, 41.313296], [-8.626317, 41.314047], [-8.638249, 41.316863], [-8.650169, 41.321948], [-8.676797, 41.339346], [-8.693452, 41.357407], [-8.697795, 41.366426], [-8.70043, 41.375441], [-8.700633, 41.384449], [-8.692258, 41.41145], [-8.693293, 41.42046], [-8.70941, 41.435081], [-8.721322, 41.448503], [-8.725939, 41.456573], [-8.728351, 41.465586], [-8.728082, 41.474593], [-8.724786, 41.483592], [-8.717611, 41.492582], [-8.702006, 41.50155], [-8.685134, 41.504792]], [[-8.412655, 41.500437], [-8.409588, 41.499796], [-8.397351, 41.49135], [-8.39299, 41.48232], [-8.394429, 41.47332], [-8.401525, 41.46435], [-8.409958, 41.458953], [-8.421959, 41.455894], [-8.433929, 41.456305], [-8.445861, 41.461168], [-8.449607, 41.46459], [-8.453973, 41.473618], [-8.452919, 41.48262], [-8.446816, 41.491599], [-8.433551, 41.499761], [-8.421551, 41.501881], [-8.412655, 41.500437]]]]}}, {"id": "5", "type": "Feature", "properties": {"fill": "#e19f31", "value_min": -1.5, "value_max": -1.25}, "geometry": {"type": "MultiPolygon", "coordinates": [[[[-8.487673, 41.674279], [-8.484983, 41.671922], [-8.482502, 41.662903], [-8.488497, 41.644916], [-8.488636, 41.635909], [-8.486038, 41.62689], [-8.479933, 41.617856], [-8.468609, 41.607959], [-8.456656, 41.602174], [-8.444676, 41.599843], [-8.432674, 41.600148], [-8.42064, 41.603902], [-8.414215, 41.608532], [-8.409318, 41.617515], [-8.409682, 41.626524], [-8.414103, 41.635553], [-8.420295, 41.642444], [-8.446663, 41.662736], [-8.446886, 41.671745], [-8.429647, 41.680667], [-8.38506, 41.698452], [-8.370895, 41.707382], [-8.363794, 41.71635], [-8.361977, 41.725347], [-8.363284, 41.735317], [-8.368703, 41.73193], [-8.373822, 41.734846], [-8.379523, 41.732736], [-8.377439, 41.725432], [-8.378766, 41.716432], [-8.385318, 41.70746], [-8.399583, 41.698528], [-8.41985, 41.692078], [-8.431875, 41.691174], [-8.443879, 41.692572], [-8.453259, 41.696223], [-8.461659, 41.694563], [-8.471532, 41.687557], [-8.475731, 41.686644], [-8.482012, 41.682123], [-8.484371, 41.674238], [-8.487673, 41.674279]], [[-8.463426, 41.626787], [-8.460118, 41.635779], [-8.456351, 41.638589], [-8.444325, 41.640701], [-8.43236, 41.635934], [-8.427838, 41.626615], [-8.432229, 41.61763], [-8.444555, 41.613939], [-8.457728, 41.617753], [-8.463426, 41.626787]]], [[[-7.889805, 41.767927], [-7.894431, 41.757827], [-7.892654, 41.748803], [-7.89021, 41.744389], [-7.878314, 41.736906], [-7.866296, 41.736535], [-7.854242, 41.73817], [-7.842149, 41.741917], [-7.831761, 41.7482], [-7.827116, 41.75716], [-7.829959, 41.766195], [-7.841554, 41.775031], [-7.853531, 41.778135], [-7.865559, 41.778403], [-7.877633, 41.776037], [-7.889805, 41.767927]], [[-7.884873, 41.757735], [-7.881413, 41.766708], [-7.865645, 41.77349], [-7.853636, 41.772228], [-7.843399, 41.766332], [-7.840378, 41.757294], [-7.846788, 41.748352], [-7.854123, 41.74486], [-7.866176, 41.743346], [-7.878132, 41.747382], [-7.884873, 41.757735]]], [[[-7.90953, 41.712937], [-7.902856, 41.708042], [-7.890817, 41.70913], [-7.887635, 41.712727], [-7.886268, 41.721721], [-7.890495, 41.727879], [-7.902531, 41.727103], [-7.908809, 41.721937], [-7.90953, 41.712937]]], [[[-8.148229, 41.705947], [-8.143348, 41.700705], [-8.131352, 41.698975], [-8.12149, 41.705746], [-8.12074, 41.714747], [-8.131057, 41.720915], [-8.143116, 41.71818], [-8.147053, 41.714946], [-8.148229, 41.705947]]], [[[-8.059242, 41.699148], [-8.047237, 41.698208], [-8.041218, 41.705104], [-8.047024, 41.712688], [-8.059038, 41.713134], [-8.064695, 41.705298], [-8.059242, 41.699148]]], [[[-8.769271, 41.58353], [-8.792708, 41.588226], [-8.828518, 41.59057], [-8.827396, 41.580627], [-8.821576, 41.567535], [-8.821417, 41.560283], [-8.818497, 41.554794], [-8.8221, 41.547542], [-8.821965, 41.534907], [-8.815926, 41.525624], [-8.81063, 41.5101], [-8.813279, 41.503483], [-8.812976, 41.498005], [-8.804699, 41.482068], [-8.798552, 41.474753], [-8.80154, 41.446836], [-8.806115, 41.43713], [-8.807354, 41.425915], [-8.811193, 41.416638], [-8.806476, 41.316544], [-8.802258, 41.321615], [-8.789032, 41.330599], [-8.769601, 41.33758], [-8.745687, 41.340326], [-8.721795, 41.337571], [-8.697933, 41.328664], [-8.686018, 41.321385], [-8.675395, 41.312319], [-8.667987, 41.30329], [-8.664083, 41.294271], [-8.663476, 41.285262], [-8.666657, 41.276263], [-8.675728, 41.267281], [-8.695813, 41.258328], [-8.722151, 41.253607], [-8.746025, 41.253281], [-8.769885, 41.256888], [-8.781809, 41.260763], [-8.795528, 41.267556], [-8.804866, 41.27567], [-8.801997, 41.202699], [-8.790019, 41.213499], [-8.774869, 41.222479], [-8.752309, 41.23144], [-8.716676, 41.240366], [-8.665206, 41.249235], [-8.650537, 41.253144], [-8.638551, 41.258163], [-8.628171, 41.267137], [-8.625695, 41.276137], [-8.628758, 41.285155], [-8.645987, 41.303225], [-8.685959, 41.33367], [-8.734806, 41.366517], [-8.758111, 41.384584], [-8.775113, 41.402634], [-8.78544, 41.420669], [-8.790363, 41.438693], [-8.790366, 41.456708], [-8.785127, 41.474713], [-8.77997, 41.483711], [-8.773012, 41.492705], [-8.757024, 41.505544], [-8.745017, 41.511851], [-8.721023, 41.518271], [-8.697053, 41.518279], [-8.673112, 41.512701], [-8.613361, 41.48451], [-8.601392, 41.482974], [-8.565407, 41.490501], [-8.553425, 41.490832], [-8.541458, 41.488977], [-8.529511, 41.484522], [-8.510696, 41.473873], [-8.497427, 41.464809], [-8.493762, 41.460581], [-8.48316, 41.455738], [-8.481857, 41.451944], [-8.469744, 41.46917], [-8.463519, 41.48267], [-8.455656, 41.491641], [-8.445527, 41.50034], [-8.433491, 41.506646], [-8.421486, 41.509102], [-8.409501, 41.509393], [-8.397536, 41.507409], [-8.373656, 41.49852], [-8.349632, 41.504706], [-8.337658, 41.503938], [-8.32575, 41.496841], [-8.321971, 41.49093], [-8.321869, 41.481922], [-8.325971, 41.475477], [-8.338016, 41.468761], [-8.350002, 41.467699], [-8.361965, 41.469023], [-8.37397, 41.46598], [-8.387401, 41.455268], [-8.398075, 41.449203], [-8.422086, 41.441628], [-8.446033, 41.440977], [-8.469923, 41.447158], [-8.481937, 41.441856], [-8.487818, 41.428736], [-8.513844, 41.392819], [-8.52091, 41.374833], [-8.527855, 41.338832], [-8.538937, 41.302846], [-8.540847, 41.293846], [-8.540005, 41.284834], [-8.534436, 41.275804], [-8.506913, 41.248666], [-8.500856, 41.239632], [-8.494827, 41.223355], [-8.487935, 41.230354], [-8.490333, 41.232598], [-8.484411, 41.240495], [-8.476346, 41.237818], [-8.475756, 41.23917], [-8.470986, 41.23941], [-8.471604, 41.243459], [-8.469227, 41.245267], [-8.463258, 41.244384], [-8.459989, 41.246644], [-8.455512, 41.245982], [-8.455541, 41.251834], [-8.452276, 41.25522], [-8.449891, 41.255452], [-8.449304, 41.257479], [-8.447812, 41.257258], [-8.449028, 41.261982], [-8.441575, 41.262897], [-8.462074, 41.293504], [-8.473418, 41.32058], [-8.476426, 41.338609], [-8.476031, 41.356623], [-8.467826, 41.383608], [-8.454866, 41.401562], [-8.444043, 41.410518], [-8.434278, 41.416074], [-8.38624, 41.434698], [-8.326211, 41.452306], [-8.314151, 41.460582], [-8.306492, 41.472823], [-8.305006, 41.481822], [-8.306182, 41.490836], [-8.309828, 41.499866], [-8.316332, 41.508912], [-8.325538, 41.517267], [-8.337456, 41.523705], [-8.36138, 41.528537], [-8.373366, 41.528647], [-8.397368, 41.525559], [-8.433416, 41.515261], [-8.445452, 41.509165], [-8.46958, 41.489247], [-8.481606, 41.48348], [-8.493591, 41.482618], [-8.505544, 41.485922], [-8.52941, 41.498535], [-8.541356, 41.503529], [-8.55332, 41.506127], [-8.565303, 41.505963], [-8.601308, 41.496554], [-8.613292, 41.496048], [-8.62526, 41.498235], [-8.652644, 41.510419], [-8.666716, 41.519468], [-8.696925, 41.545716], [-8.720828, 41.563421], [-8.732793, 41.570212], [-8.757953, 41.580338], [-8.762327, 41.578514], [-8.764443, 41.580303], [-8.767441, 41.580286], [-8.769271, 41.58353]]]]}}, {"id": "2", "type": "Feature", "properties": {"fill": "#b11c1c", "value_min": -2.25, "value_max": -2.0}, "geometry": {"type": "MultiPolygon", "coordinates": [[[[-8.435029, 41.715131], [-8.42662, 41.707674], [-8.419725, 41.705956], [-8.410497, 41.707592], [-8.407681, 41.708589], [-8.400822, 41.716549], [-8.403077, 41.726002], [-8.404721, 41.722847], [-8.417349, 41.725067], [-8.422737, 41.720552], [-8.429643, 41.719859], [-8.430533, 41.717381], [-8.435029, 41.715131]]], [[[-8.697206, 41.485544], [-8.701649, 41.474527], [-8.698854, 41.465512], [-8.685378, 41.454305], [-8.67342, 41.451242], [-8.661444, 41.452017], [-8.649441, 41.457615], [-8.642656, 41.465351], [-8.640694, 41.474353], [-8.644101, 41.483371], [-8.649278, 41.487958], [-8.661222, 41.494557], [-8.673195, 41.49617], [-8.685185, 41.494132], [-8.697206, 41.485544]], [[-8.680474, 41.47447], [-8.678067, 41.483471], [-8.673246, 41.485885], [-8.66127, 41.485345], [-8.658237, 41.483414], [-8.655855, 41.474399], [-8.661357, 41.468692], [-8.673335, 41.468306], [-8.680474, 41.47447]]], [[[-8.443994, 41.482578], [-8.442096, 41.473561], [-8.433835, 41.467106], [-8.42187, 41.465996], [-8.408187, 41.473392], [-8.405385, 41.482385], [-8.411505, 41.491423], [-8.42161, 41.495211], [-8.433605, 41.493574], [-8.443994, 41.482578]], [[-8.433713, 41.481069], [-8.433693, 41.483368], [-8.421693, 41.485912], [-8.418066, 41.482449], [-8.421769, 41.477317], [-8.433713, 41.481069]]], [[[-8.574327, 41.456111], [-8.572472, 41.447097], [-8.565738, 41.440875], [-8.553791, 41.437383], [-8.541807, 41.439487], [-8.532547, 41.446942], [-8.530075, 41.455939], [-8.535729, 41.46497], [-8.541602, 41.468606], [-8.553563, 41.470645], [-8.568852, 41.465099], [-8.574327, 41.456111]]], [[[-8.661761, 41.391004], [-8.670186, 41.384366], [-8.676104, 41.375375], [-8.677773, 41.366372], [-8.675805, 41.357359], [-8.670323, 41.348336], [-8.660418, 41.339299], [-8.650108, 41.333363], [-8.638179, 41.32947], [-8.626236, 41.328194], [-8.614277, 41.329751], [-8.602298, 41.3346], [-8.596049, 41.339091], [-8.590274, 41.346142], [-8.585824, 41.35707], [-8.586098, 41.366079], [-8.589725, 41.375099], [-8.597024, 41.384133], [-8.613897, 41.394094], [-8.625841, 41.397277], [-8.6378, 41.397864], [-8.649773, 41.39599], [-8.661761, 41.391004]], [[-8.661249, 41.366324], [-8.655626, 41.375315], [-8.649861, 41.379508], [-8.637881, 41.383199], [-8.625924, 41.382723], [-8.610302, 41.375171], [-8.604141, 41.366142], [-8.603709, 41.357133], [-8.608951, 41.348143], [-8.614192, 41.344199], [-8.626169, 41.339993], [-8.638119, 41.340332], [-8.650046, 41.345025], [-8.654437, 41.348289], [-8.660781, 41.357315], [-8.661249, 41.366324]]], [[[-8.708713, 41.195307], [-8.702024, 41.186281], [-8.698597, 41.184302], [-8.686679, 41.183174], [-8.679011, 41.18622], [-8.674723, 41.189768], [-8.671864, 41.195207], [-8.67396, 41.204221], [-8.68655, 41.210281], [-8.698485, 41.208841], [-8.705525, 41.204306], [-8.708713, 41.195307]]]]}}, {"id": "3", "type": "Feature", "properties": {"fill": "#c93e18", "value_min": -2.0, "value_max": -1.75}, "geometry": {"type": "MultiPolygon", "coordinates": [[[[-7.856325, 41.766461], [-7.865738, 41.768246], [-7.869927, 41.766596], [-7.876223, 41.757651], [-7.866064, 41.749698], [-7.853972, 41.753356], [-7.850262, 41.757394], [-7.853769, 41.764739], [-7.856325, 41.766461]]], [[[-8.444653, 41.706539], [-8.431796, 41.700078], [-8.419789, 41.698867], [-8.407747, 41.701434], [-8.396415, 41.707519], [-8.389895, 41.716492], [-8.389737, 41.725498], [-8.39258, 41.730303], [-8.396942, 41.730518], [-8.403077, 41.726002], [-8.400822, 41.716549], [-8.407681, 41.708589], [-8.410497, 41.707592], [-8.419725, 41.705956], [-8.42662, 41.707674], [-8.435029, 41.715131], [-8.441632, 41.713975], [-8.444653, 41.706539]]], [[[-8.685134, 41.504792], [-8.702006, 41.50155], [-8.717611, 41.492582], [-8.724786, 41.483592], [-8.728082, 41.474593], [-8.728351, 41.465586], [-8.725939, 41.456573], [-8.721322, 41.448503], [-8.70941, 41.435081], [-8.693293, 41.42046], [-8.692258, 41.41145], [-8.700633, 41.384449], [-8.70043, 41.375441], [-8.697795, 41.366426], [-8.693452, 41.357407], [-8.676797, 41.339346], [-8.650169, 41.321948], [-8.638249, 41.316863], [-8.626317, 41.314047], [-8.614374, 41.313296], [-8.602419, 41.314681], [-8.590445, 41.318893], [-8.578445, 41.326878], [-8.56836, 41.338991], [-8.564355, 41.347983], [-8.562097, 41.36599], [-8.563497, 41.375003], [-8.57323, 41.402062], [-8.571275, 41.411062], [-8.55394, 41.415711], [-8.529936, 41.425778], [-8.518026, 41.437874], [-8.514387, 41.446867], [-8.51502, 41.455877], [-8.520003, 41.464905], [-8.529593, 41.473163], [-8.541532, 41.478592], [-8.553497, 41.480308], [-8.565484, 41.478932], [-8.57829, 41.474141], [-8.592052, 41.465183], [-8.601564, 41.4549], [-8.613578, 41.448004], [-8.625689, 41.474305], [-8.631653, 41.483332], [-8.642774, 41.492374], [-8.661188, 41.5012], [-8.673155, 41.504154], [-8.685134, 41.504792]], [[-8.697206, 41.485544], [-8.685185, 41.494132], [-8.673195, 41.49617], [-8.661222, 41.494557], [-8.649278, 41.487958], [-8.644101, 41.483371], [-8.640694, 41.474353], [-8.642656, 41.465351], [-8.649441, 41.457615], [-8.661444, 41.452017], [-8.67342, 41.451242], [-8.685378, 41.454305], [-8.698854, 41.465512], [-8.701649, 41.474527], [-8.697206, 41.485544]], [[-8.574327, 41.456111], [-8.568852, 41.465099], [-8.553563, 41.470645], [-8.541602, 41.468606], [-8.535729, 41.46497], [-8.530075, 41.455939], [-8.532547, 41.446942], [-8.541807, 41.439487], [-8.553791, 41.437383], [-8.565738, 41.440875], [-8.572472, 41.447097], [-8.574327, 41.456111]], [[-8.661761, 41.391004], [-8.649773, 41.39599], [-8.6378, 41.397864], [-8.625841, 41.397277], [-8.613897, 41.394094], [-8.597024, 41.384133], [-8.589725, 41.375099], [-8.586098, 41.366079], [-8.585824, 41.35707], [-8.590274, 41.346142], [-8.596049, 41.339091], [-8.602298, 41.3346], [-8.614277, 41.329751], [-8.626236, 41.328194], [-8.638179, 41.32947], [-8.650108, 41.333363], [-8.660418, 41.339299], [-8.670323, 41.348336], [-8.675805, 41.357359], [-8.677773, 41.366372], [-8.676104, 41.375375], [-8.670186, 41.384366], [-8.661761, 41.391004]]], [[[-8.412655, 41.500437], [-8.421551, 41.501881], [-8.433551, 41.499761], [-8.446816, 41.491599], [-8.452919, 41.48262], [-8.453973, 41.473618], [-8.449607, 41.46459], [-8.445861, 41.461168], [-8.433929, 41.456305], [-8.421959, 41.455894], [-8.409958, 41.458953], [-8.401525, 41.46435], [-8.394429, 41.47332], [-8.39299, 41.48232], [-8.397351, 41.49135], [-8.409588, 41.499796], [-8.412655, 41.500437]], [[-8.443994, 41.482578], [-8.433605, 41.493574], [-8.42161, 41.495211], [-8.411505, 41.491423], [-8.405385, 41.482385], [-8.408187, 41.473392], [-8.42187, 41.465996], [-8.433835, 41.467106], [-8.442096, 41.473561], [-8.443994, 41.482578]]], [[[-8.633915, 41.190644], [-8.636373, 41.204109], [-8.641863, 41.213134], [-8.652687, 41.222175], [-8.662609, 41.226628], [-8.674526, 41.229473], [-8.686454, 41.230262], [-8.710335, 41.226566], [-8.721823, 41.222363], [-8.735582, 41.213387], [-8.743339, 41.204397], [-8.74727, 41.195398], [-8.74835, 41.186392], [-8.74653, 41.17738], [-8.741719, 41.168361], [-8.734464, 41.160701], [-8.722576, 41.153111], [-8.710677, 41.148865], [-8.698769, 41.146803], [-8.686853, 41.146715], [-8.674213, 41.148815], [-8.674849, 41.153767], [-8.672489, 41.15648], [-8.66117, 41.156307], [-8.662078, 41.158104], [-8.660313, 41.160813], [-8.657033, 41.160378], [-8.654961, 41.161963], [-8.653231, 41.169174], [-8.655366, 41.175467], [-8.647955, 41.180228], [-8.647696, 41.185181], [-8.640929, 41.196241], [-8.634946, 41.193341], [-8.633915, 41.190644]], [[-8.708713, 41.195307], [-8.705525, 41.204306], [-8.698485, 41.208841], [-8.68655, 41.210281], [-8.67396, 41.204221], [-8.671864, 41.195207], [-8.674723, 41.189768], [-8.679011, 41.18622], [-8.686679, 41.183174], [-8.698597, 41.184302], [-8.702024, 41.186281], [-8.708713, 41.195307]]]]}}, {"id": "6", "type": "Feature", "properties": {"fill": "#b6a27f", "value_min": -1.25, "value_max": -1.0}, "geometry": {"type": "MultiPolygon", "coordinates": [[[[-8.769271, 41.58353], [-8.768997, 41.58613], [-8.773228, 41.589482], [-8.775371, 41.593972], [-8.78556, 41.593464], [-8.797327, 41.600599], [-8.804218, 41.600109], [-8.80456, 41.604158], [-8.808527, 41.610662], [-8.810935, 41.611548], [-8.828644, 41.609656], [-8.828518, 41.59057], [-8.792708, 41.588226], [-8.769271, 41.58353]]], [[[-8.757953, 41.580338], [-8.732793, 41.570212], [-8.720828, 41.563421], [-8.696925, 41.545716], [-8.666716, 41.519468], [-8.652644, 41.510419], [-8.62526, 41.498235], [-8.613292, 41.496048], [-8.601308, 41.496554], [-8.565303, 41.505963], [-8.55332, 41.506127], [-8.541356, 41.503529], [-8.52941, 41.498535], [-8.505544, 41.485922], [-8.493591, 41.482618], [-8.481606, 41.48348], [-8.46958, 41.489247], [-8.445452, 41.509165], [-8.433416, 41.515261], [-8.397368, 41.525559], [-8.373366, 41.528647], [-8.36138, 41.528537], [-8.337456, 41.523705], [-8.325538, 41.517267], [-8.316332, 41.508912], [-8.309828, 41.499866], [-8.306182, 41.490836], [-8.305006, 41.481822], [-8.306492, 41.472823], [-8.314151, 41.460582], [-8.326211, 41.452306], [-8.38624, 41.434698], [-8.434278, 41.416074], [-8.444043, 41.410518], [-8.454866, 41.401562], [-8.467826, 41.383608], [-8.476031, 41.356623], [-8.476426, 41.338609], [-8.473418, 41.32058], [-8.462074, 41.293504], [-8.441575, 41.262897], [-8.438004, 41.264938], [-8.438023, 41.268989], [-8.434745, 41.269673], [-8.432691, 41.277107], [-8.427032, 41.279372], [-8.429143, 41.284319], [-8.426171, 41.287028], [-8.426488, 41.291079], [-8.425013, 41.294909], [-8.422037, 41.296942], [-8.422647, 41.299867], [-8.407607, 41.305081], [-8.423162, 41.319957], [-8.430035, 41.329381], [-8.437823, 41.347435], [-8.439184, 41.365457], [-8.437256, 41.374455], [-8.427476, 41.392422], [-8.410431, 41.406697], [-8.386399, 41.417788], [-8.36241, 41.423531], [-8.315857, 41.427842], [-8.30249, 41.431372], [-8.290434, 41.439437], [-8.286097, 41.445676], [-8.283833, 41.45467], [-8.285902, 41.472697], [-8.304239, 41.526854], [-8.313097, 41.560374], [-8.324829, 41.585449], [-8.336809, 41.599105], [-8.348712, 41.60818], [-8.372471, 41.621157], [-8.396332, 41.636894], [-8.414237, 41.653568], [-8.41888, 41.662599], [-8.41776, 41.671601], [-8.408674, 41.680561], [-8.383806, 41.691398], [-8.354143, 41.698282], [-8.340282, 41.70721], [-8.337111, 41.716199], [-8.337237, 41.725207], [-8.344998, 41.761912], [-8.349267, 41.760103], [-8.352557, 41.755145], [-8.34982, 41.745922], [-8.349814, 41.744122], [-8.352516, 41.743441], [-8.352203, 41.739616], [-8.357897, 41.735103], [-8.363284, 41.735317], [-8.361977, 41.725347], [-8.363794, 41.71635], [-8.370895, 41.707382], [-8.38506, 41.698452], [-8.429647, 41.680667], [-8.446886, 41.671745], [-8.446663, 41.662736], [-8.420295, 41.642444], [-8.414103, 41.635553], [-8.409682, 41.626524], [-8.409318, 41.617515], [-8.414215, 41.608532], [-8.42064, 41.603902], [-8.432674, 41.600148], [-8.444676, 41.599843], [-8.456656, 41.602174], [-8.468609, 41.607959], [-8.479933, 41.617856], [-8.486038, 41.62689], [-8.488636, 41.635909], [-8.488497, 41.644916], [-8.482502, 41.662903], [-8.484983, 41.671922], [-8.487673, 41.674279], [-8.49308, 41.674886], [-8.499963, 41.671038], [-8.50927, 41.671233], [-8.51018, 41.672806], [-8.511967, 41.670324], [-8.509856, 41.668755], [-8.522103, 41.658811], [-8.525706, 41.659023], [-8.527769, 41.652714], [-8.534066, 41.652017], [-8.537355, 41.64998], [-8.537634, 41.646602], [-8.543876, 41.637352], [-8.543855, 41.633976], [-8.535739, 41.631529], [-8.537204, 41.625929], [-8.51652, 41.620557], [-8.504561, 41.614714], [-8.468759, 41.589652], [-8.456818, 41.582926], [-8.428572, 41.572576], [-8.416944, 41.56351], [-8.413757, 41.554486], [-8.415307, 41.545487], [-8.421531, 41.536511], [-8.432992, 41.527561], [-8.452152, 41.518646], [-8.469489, 41.500376], [-8.48151, 41.495485], [-8.493487, 41.495973], [-8.504479, 41.500869], [-8.513856, 41.509916], [-8.517301, 41.515768], [-8.529213, 41.52566], [-8.553135, 41.533067], [-8.565115, 41.534055], [-8.577143, 41.527917], [-8.584864, 41.519202], [-8.597344, 41.510239], [-8.613237, 41.505347], [-8.625217, 41.505695], [-8.63718, 41.509279], [-8.652068, 41.519425], [-8.658155, 41.528451], [-8.660279, 41.537464], [-8.65922, 41.546469], [-8.654623, 41.555462], [-8.648876, 41.562309], [-8.636835, 41.570973], [-8.61685, 41.582364], [-8.594234, 41.609309], [-8.5823, 41.618076], [-8.585766, 41.620988], [-8.591462, 41.620515], [-8.596534, 41.616668], [-8.601628, 41.615972], [-8.603996, 41.611686], [-8.613256, 41.606696], [-8.619881, 41.610269], [-8.621338, 41.604636], [-8.628833, 41.604378], [-8.6366, 41.600518], [-8.639873, 41.597352], [-8.640152, 41.59465], [-8.645536, 41.593051], [-8.646744, 41.594171], [-8.649125, 41.591909], [-8.656622, 41.5921], [-8.660788, 41.588255], [-8.663794, 41.589141], [-8.665265, 41.585758], [-8.66948, 41.587989], [-8.684455, 41.586117], [-8.685608, 41.58071], [-8.697261, 41.576376], [-8.701703, 41.570277], [-8.707704, 41.570923], [-8.712485, 41.569323], [-8.716422, 41.573805], [-8.720316, 41.57356], [-8.725151, 41.577811], [-8.726633, 41.576003], [-8.734424, 41.575737], [-8.736564, 41.580228], [-8.738354, 41.579318], [-8.740778, 41.582006], [-8.74467, 41.581535], [-8.750711, 41.58623], [-8.757953, 41.580338]]], [[[-7.960758, 41.844226], [-7.963341, 41.839531], [-7.960886, 41.8363], [-7.948914, 41.8319], [-7.940907, 41.839326], [-7.948631, 41.849206], [-7.953106, 41.848445], [-7.960758, 41.844226]]], [[[-7.961462, 41.800626], [-7.965425, 41.794516], [-7.960736, 41.785467], [-7.949739, 41.781395], [-7.937707, 41.78137], [-7.928244, 41.785168], [-7.927131, 41.794165], [-7.937328, 41.804261], [-7.949324, 41.806827], [-7.961462, 41.800626]]], [[[-7.727915, 41.80769], [-7.744673, 41.807022], [-7.761431, 41.801504], [-7.773098, 41.792623], [-7.781329, 41.778388], [-7.793563, 41.767688], [-7.817435, 41.778004], [-7.841408, 41.783116], [-7.853433, 41.783585], [-7.877534, 41.781703], [-7.898584, 41.775881], [-7.905769, 41.766943], [-7.910175, 41.748971], [-7.9143, 41.742211], [-7.933255, 41.722167], [-7.936147, 41.713187], [-7.934792, 41.704167], [-7.927115, 41.694814], [-7.915196, 41.688967], [-7.903183, 41.688796], [-7.891062, 41.694885], [-7.878788, 41.709659], [-7.873252, 41.721594], [-7.866449, 41.727826], [-7.811024, 41.738981], [-7.794903, 41.747819], [-7.793899, 41.74971], [-7.781783, 41.754417], [-7.757762, 41.744635], [-7.748417, 41.749321], [-7.747786, 41.754496], [-7.743866, 41.756509], [-7.740214, 41.763924], [-7.726937, 41.771755], [-7.7254, 41.777152], [-7.727191, 41.779184], [-7.724177, 41.780299], [-7.725372, 41.781653], [-7.722296, 41.792446], [-7.728879, 41.797871], [-7.72705, 41.801691], [-7.727915, 41.80769]], [[-7.889805, 41.767927], [-7.877633, 41.776037], [-7.865559, 41.778403], [-7.853531, 41.778135], [-7.841554, 41.775031], [-7.829959, 41.766195], [-7.827116, 41.75716], [-7.831761, 41.7482], [-7.842149, 41.741917], [-7.854242, 41.73817], [-7.866296, 41.736535], [-7.878314, 41.736906], [-7.89021, 41.744389], [-7.892654, 41.748803], [-7.894431, 41.757827], [-7.889805, 41.767927]], [[-7.90953, 41.712937], [-7.908809, 41.721937], [-7.902531, 41.727103], [-7.890495, 41.727879], [-7.886268, 41.721721], [-7.887635, 41.712727], [-7.890817, 41.70913], [-7.902856, 41.708042], [-7.90953, 41.712937]]], [[[-8.142968, 41.729271], [-8.16092, 41.715048], [-8.162734, 41.706054], [-8.155537, 41.687606], [-8.143683, 41.6754], [-8.131685, 41.674238], [-8.125978, 41.678759], [-8.119587, 41.680475], [-8.095296, 41.699152], [-8.083241, 41.701761], [-8.076626, 41.696387], [-8.059415, 41.687233], [-8.047418, 41.685975], [-8.035344, 41.689859], [-8.025437, 41.695965], [-8.02216, 41.704944], [-8.026629, 41.713989], [-8.046767, 41.730064], [-8.058717, 41.735123], [-8.07071, 41.737287], [-8.106757, 41.739356], [-8.118799, 41.738196], [-8.142968, 41.729271]], [[-8.148229, 41.705947], [-8.147053, 41.714946], [-8.143116, 41.71818], [-8.131057, 41.720915], [-8.12074, 41.714747], [-8.12149, 41.705746], [-8.131352, 41.698975], [-8.143348, 41.700705], [-8.148229, 41.705947]], [[-8.059242, 41.699148], [-8.064695, 41.705298], [-8.059038, 41.713134], [-8.047024, 41.712688], [-8.041218, 41.705104], [-8.047237, 41.698208], [-8.059242, 41.699148]]], [[[-8.167157, 41.643037], [-8.171154, 41.634058], [-8.170889, 41.625049], [-8.16842, 41.620283], [-8.165616, 41.616004], [-8.15656, 41.60925], [-8.144604, 41.605821], [-8.132595, 41.606444], [-8.120525, 41.611494], [-8.109754, 41.624592], [-8.105146, 41.633563], [-8.107533, 41.642589], [-8.11678, 41.651668], [-8.13188, 41.659724], [-8.143886, 41.660138], [-8.155971, 41.654454], [-8.167157, 41.643037]]], [[[-8.086985, 41.543963], [-8.097393, 41.548926], [-8.109381, 41.549086], [-8.12145, 41.543281], [-8.127223, 41.534654], [-8.126177, 41.525639], [-8.114037, 41.516539], [-8.097863, 41.51517], [-8.089698, 41.518282], [-8.090594, 41.522169], [-8.093588, 41.52307], [-8.09209, 41.524645], [-8.092385, 41.532749], [-8.106759, 41.543557], [-8.101666, 41.542655], [-8.094475, 41.544904], [-8.088783, 41.542876], [-8.086985, 41.543963]]], [[[-8.804866, 41.27567], [-8.795528, 41.267556], [-8.781809, 41.260763], [-8.769885, 41.256888], [-8.746025, 41.253281], [-8.722151, 41.253607], [-8.695813, 41.258328], [-8.675728, 41.267281], [-8.666657, 41.276263], [-8.663476, 41.285262], [-8.664083, 41.294271], [-8.667987, 41.30329], [-8.675395, 41.312319], [-8.686018, 41.321385], [-8.697933, 41.328664], [-8.721795, 41.337571], [-8.745687, 41.340326], [-8.769601, 41.33758], [-8.789032, 41.330599], [-8.802258, 41.321615], [-8.806476, 41.316544], [-8.804866, 41.27567]], [[-8.721856, 41.323135], [-8.709916, 41.321306], [-8.692612, 41.312366], [-8.684608, 41.303337], [-8.681984, 41.294322], [-8.683829, 41.285319], [-8.691776, 41.276333], [-8.698192, 41.272501], [-8.710149, 41.268681], [-8.722092, 41.267672], [-8.734025, 41.269175], [-8.75108, 41.276477], [-8.759429, 41.285502], [-8.762342, 41.294516], [-8.760802, 41.303521], [-8.754348, 41.312515], [-8.745774, 41.318119], [-8.736878, 41.321484], [-8.721856, 41.323135]]]]}}, {"id": "7", "type": "Feature", "properties": {"fill": "#a3a3a3", "value_min": -1.0, "value_max": -0.75}, "geometry": {"type": "MultiPolygon", "coordinates": [[[[-8.344998, 41.761912], [-8.337237, 41.725207], [-8.337111, 41.716199], [-8.340282, 41.70721], [-8.354143, 41.698282], [-8.383806, 41.691398], [-8.408674, 41.680561], [-8.41776, 41.671601], [-8.41888, 41.662599], [-8.414237, 41.653568], [-8.396332, 41.636894], [-8.372471, 41.621157], [-8.348712, 41.60818], [-8.336809, 41.599105], [-8.324829, 41.585449], [-8.313097, 41.560374], [-8.304239, 41.526854], [-8.285902, 41.472697], [-8.283833, 41.45467], [-8.286097, 41.445676], [-8.290434, 41.439437], [-8.30249, 41.431372], [-8.315857, 41.427842], [-8.36241, 41.423531], [-8.386399, 41.417788], [-8.410431, 41.406697], [-8.427476, 41.392422], [-8.437256, 41.374455], [-8.439184, 41.365457], [-8.437823, 41.347435], [-8.430035, 41.329381], [-8.423162, 41.319957], [-8.407607, 41.305081], [-8.406262, 41.307335], [-8.402979, 41.307568], [-8.401801, 41.311398], [-8.399712, 41.311628], [-8.400316, 41.313202], [-8.396738, 41.314336], [-8.398835, 41.316131], [-8.393775, 41.31997], [-8.393489, 41.323122], [-8.391105, 41.324253], [-8.386325, 41.323588], [-8.38365, 41.32695], [-8.399119, 41.335856], [-8.409573, 41.347293], [-8.414121, 41.356324], [-8.415951, 41.365341], [-8.415192, 41.374345], [-8.411547, 41.383334], [-8.404868, 41.392307], [-8.398553, 41.397435], [-8.386525, 41.404358], [-8.374524, 41.40827], [-8.362542, 41.410034], [-8.338626, 41.408717], [-8.326696, 41.405386], [-8.316828, 41.400825], [-8.305321, 41.391749], [-8.299238, 41.382705], [-8.296213, 41.373679], [-8.296566, 41.355666], [-8.303445, 41.342016], [-8.313226, 41.332506], [-8.310792, 41.327557], [-8.308701, 41.327561], [-8.307502, 41.325762], [-8.305116, 41.326891], [-8.303024, 41.325994], [-8.303615, 41.323742], [-8.301216, 41.319694], [-8.296431, 41.316774], [-8.296415, 41.310472], [-8.293133, 41.310927], [-8.292241, 41.312504], [-8.289255, 41.312508], [-8.284488, 41.316341], [-8.281801, 41.316569], [-8.281808, 41.319721], [-8.278828, 41.321976], [-8.278238, 41.325128], [-8.272266, 41.32536], [-8.265709, 41.331221], [-8.269004, 41.336169], [-8.263339, 41.340902], [-8.262751, 41.345405], [-8.256483, 41.347663], [-8.255889, 41.349689], [-8.249622, 41.353072], [-8.251123, 41.356897], [-8.248141, 41.360052], [-8.248448, 41.364328], [-8.245461, 41.364781], [-8.244272, 41.368384], [-8.241287, 41.370413], [-8.224854, 41.370878], [-8.21738, 41.368182], [-8.214399, 41.373587], [-8.208127, 41.376968], [-8.199163, 41.377423], [-8.194677, 41.374275], [-8.191691, 41.376302], [-8.189299, 41.375403], [-8.184818, 41.376756], [-8.168382, 41.377438], [-8.164499, 41.38059], [-8.152544, 41.375866], [-8.151049, 41.37339], [-8.145073, 41.374742], [-8.139694, 41.377894], [-8.133418, 41.374292], [-8.125051, 41.375193], [-8.119672, 41.376768], [-8.119672, 41.378569], [-8.116683, 41.380144], [-8.117877, 41.385771], [-8.113992, 41.386896], [-8.112795, 41.390723], [-8.110105, 41.390947], [-8.108011, 41.393648], [-8.103827, 41.392972], [-8.105321, 41.394998], [-8.10263, 41.396123], [-8.10801, 41.398825], [-8.108606, 41.403102], [-8.104419, 41.406252], [-8.104119, 41.408728], [-8.101727, 41.409403], [-8.102025, 41.411204], [-8.092756, 41.411201], [-8.092756, 41.412731], [-8.11125, 41.412494], [-8.123191, 41.414242], [-8.147024, 41.421742], [-8.170793, 41.434657], [-8.201366, 41.454127], [-8.242259, 41.464712], [-8.254178, 41.469566], [-8.266062, 41.477683], [-8.276718, 41.490655], [-8.283529, 41.508712], [-8.283603, 41.51772], [-8.277425, 41.532978], [-8.265314, 41.543885], [-8.253261, 41.549401], [-8.241247, 41.551497], [-8.229257, 41.551378], [-8.217293, 41.549193], [-8.204935, 41.544225], [-8.193458, 41.537464], [-8.169711, 41.519492], [-8.163634, 41.51691], [-8.116105, 41.507547], [-8.093, 41.504747], [-8.089698, 41.518282], [-8.097863, 41.51517], [-8.114037, 41.516539], [-8.126177, 41.525639], [-8.127223, 41.534654], [-8.12145, 41.543281], [-8.109381, 41.549086], [-8.097393, 41.548926], [-8.086985, 41.543963], [-8.083389, 41.5449], [-8.080687, 41.551651], [-8.074396, 41.549848], [-8.072897, 41.551197], [-8.076188, 41.557276], [-8.080082, 41.558854], [-8.081576, 41.565157], [-8.078879, 41.56493], [-8.075279, 41.568305], [-8.073182, 41.568079], [-8.069283, 41.570553], [-8.068081, 41.573478], [-8.056684, 41.579549], [-8.052181, 41.584498], [-8.052777, 41.587649], [-8.048277, 41.590122], [-8.047974, 41.592373], [-8.031467, 41.602938], [-8.02367, 41.603156], [-8.019174, 41.601802], [-8.015872, 41.603824], [-8.013474, 41.603372], [-8.005971, 41.60629], [-8.003562, 41.611239], [-7.998761, 41.612809], [-7.999669, 41.608759], [-7.996976, 41.605829], [-7.996684, 41.602003], [-7.984685, 41.603564], [-7.982292, 41.60086], [-7.975689, 41.603552], [-7.974482, 41.606701], [-7.970882, 41.607147], [-7.969091, 41.603768], [-7.965796, 41.602413], [-7.9541, 41.602846], [-7.952606, 41.600592], [-7.947808, 41.60081], [-7.945413, 41.599456], [-7.942725, 41.595625], [-7.936132, 41.594488], [-7.93791, 41.601694], [-7.937004, 41.603718], [-7.931604, 41.604384], [-7.930979, 41.612711], [-7.925556, 41.620354], [-7.920755, 41.620796], [-7.917748, 41.623041], [-7.915933, 41.627764], [-7.913229, 41.628885], [-7.912613, 41.63361], [-7.906014, 41.633147], [-7.906884, 41.641927], [-7.897869, 41.645511], [-7.89696, 41.647985], [-7.892759, 41.647976], [-7.892145, 41.651576], [-7.902319, 41.659925], [-7.899913, 41.66127], [-7.900198, 41.665547], [-7.898396, 41.665769], [-7.896885, 41.668692], [-7.882465, 41.671588], [-7.877044, 41.676077], [-7.876723, 41.681253], [-7.873702, 41.685973], [-7.870458, 41.685966], [-7.873998, 41.69458], [-7.87384, 41.703586], [-7.866624, 41.717857], [-7.860479, 41.721468], [-7.854493, 41.724031], [-7.84246, 41.724583], [-7.827156, 41.721133], [-7.817713, 41.714848], [-7.815291, 41.718689], [-7.808986, 41.717996], [-7.808396, 41.715744], [-7.804499, 41.714158], [-7.79939, 41.714593], [-7.79788, 41.716164], [-7.796383, 41.71526], [-7.790966, 41.717044], [-7.789449, 41.719966], [-7.78464, 41.720402], [-7.78252, 41.723546], [-7.776204, 41.724652], [-7.773786, 41.727346], [-7.770798, 41.72441], [-7.765698, 41.723044], [-7.761765, 41.727758], [-7.762933, 41.733839], [-7.759307, 41.737203], [-7.759597, 41.739005], [-7.75689, 41.739446], [-7.758687, 41.740577], [-7.757762, 41.744635], [-7.781783, 41.754417], [-7.793899, 41.74971], [-7.794903, 41.747819], [-7.811024, 41.738981], [-7.866449, 41.727826], [-7.873252, 41.721594], [-7.878788, 41.709659], [-7.891062, 41.694885], [-7.903183, 41.688796], [-7.915196, 41.688967], [-7.927115, 41.694814], [-7.934792, 41.704167], [-7.936147, 41.713187], [-7.933255, 41.722167], [-7.9143, 41.742211], [-7.910175, 41.748971], [-7.905769, 41.766943], [-7.898584, 41.775881], [-7.877534, 41.781703], [-7.853433, 41.783585], [-7.841408, 41.783116], [-7.817435, 41.778004], [-7.793563, 41.767688], [-7.781329, 41.778388], [-7.773098, 41.792623], [-7.761431, 41.801504], [-7.744673, 41.807022], [-7.727915, 41.80769], [-7.728761, 41.816776], [-7.732642, 41.821708], [-7.768573, 41.816195], [-7.791385, 41.81083], [-7.831638, 41.793233], [-7.865394, 41.787722], [-7.889464, 41.787696], [-7.901432, 41.791562], [-7.904657, 41.793952], [-7.916901, 41.812082], [-7.917938, 41.821099], [-7.902904, 41.860918], [-7.904017, 41.859794], [-7.905217, 41.860922], [-7.907309, 41.865203], [-7.906095, 41.868126], [-7.910299, 41.871285], [-7.910285, 41.875562], [-7.915391, 41.879397], [-7.921118, 41.877833], [-7.928044, 41.87807], [-7.935283, 41.874707], [-7.937389, 41.87516], [-7.941618, 41.870891], [-7.951254, 41.871132], [-7.956367, 41.87339], [-7.956362, 41.875191], [-7.960878, 41.875648], [-7.962086, 41.874074], [-7.973828, 41.875216], [-7.987996, 41.869157], [-7.990123, 41.860157], [-7.995547, 41.858138], [-7.994047, 41.855211], [-7.996162, 41.851837], [-8.003089, 41.850494], [-8.005804, 41.847346], [-8.007928, 41.838796], [-8.010941, 41.836773], [-8.013965, 41.828899], [-8.017873, 41.831379], [-8.02901, 41.829589], [-8.037134, 41.831171], [-8.041351, 41.828023], [-8.041054, 41.825097], [-8.045268, 41.824425], [-8.046775, 41.821951], [-8.056712, 41.81588], [-8.06664, 41.817012], [-8.072961, 41.813414], [-8.078678, 41.813417], [-8.082892, 41.810493], [-8.091013, 41.812521], [-8.093421, 41.811397], [-8.093723, 41.808471], [-8.101845, 41.809824], [-8.104853, 41.81185], [-8.115984, 41.812302], [-8.123807, 41.808702], [-8.138247, 41.808477], [-8.139751, 41.813203], [-8.14276, 41.812978], [-8.144866, 41.815228], [-8.149078, 41.814777], [-8.153291, 41.817703], [-8.158106, 41.818377], [-8.165326, 41.81815], [-8.173744, 41.808019], [-8.177655, 41.808242], [-8.183676, 41.812741], [-8.190291, 41.809587], [-8.197158, 41.814129], [-8.201063, 41.808724], [-8.204973, 41.807372], [-8.205872, 41.804445], [-8.213692, 41.803765], [-8.217598, 41.80016], [-8.217589, 41.793634], [-8.224207, 41.794303], [-8.229917, 41.791598], [-8.240744, 41.791588], [-8.24074, 41.789338], [-8.244347, 41.787984], [-8.245546, 41.785731], [-8.251257, 41.784375], [-8.251845, 41.777172], [-8.257551, 41.773564], [-8.261762, 41.774235], [-8.271367, 41.766704], [-8.255312, 41.760733], [-8.250857, 41.757245], [-8.23883, 41.757076], [-8.202512, 41.775704], [-8.190442, 41.778705], [-8.178399, 41.779532], [-8.166391, 41.777593], [-8.154424, 41.772536], [-8.143787, 41.759956], [-8.142228, 41.750938], [-8.144928, 41.741951], [-8.15313, 41.733005], [-8.16972, 41.724119], [-8.178112, 41.715172], [-8.175231, 41.68813], [-8.178304, 41.679145], [-8.191866, 41.665183], [-8.203944, 41.659792], [-8.215989, 41.65698], [-8.227999, 41.656977], [-8.244155, 41.661583], [-8.25852, 41.670684], [-8.26579, 41.679737], [-8.270011, 41.688771], [-8.271699, 41.697789], [-8.271449, 41.715802], [-8.274403, 41.724827], [-8.28725, 41.72954], [-8.299199, 41.736423], [-8.304137, 41.743025], [-8.305478, 41.75204], [-8.302097, 41.758383], [-8.30778, 41.758824], [-8.307785, 41.760625], [-8.311096, 41.762195], [-8.318308, 41.761283], [-8.325233, 41.765098], [-8.328234, 41.763292], [-8.336653, 41.763728], [-8.338452, 41.762149], [-8.344998, 41.761912]], [[-7.960758, 41.844226], [-7.953106, 41.848445], [-7.948631, 41.849206], [-7.940907, 41.839326], [-7.948914, 41.8319], [-7.960886, 41.8363], [-7.963341, 41.839531], [-7.960758, 41.844226]], [[-7.961462, 41.800626], [-7.949324, 41.806827], [-7.937328, 41.804261], [-7.927131, 41.794165], [-7.928244, 41.785168], [-7.937707, 41.78137], [-7.949739, 41.781395], [-7.960736, 41.785467], [-7.965425, 41.794516], [-7.961462, 41.800626]], [[-7.949895, 41.771833], [-7.937873, 41.771285], [-7.927976, 41.767152], [-7.924738, 41.758115], [-7.930193, 41.749159], [-7.938329, 41.743596], [-7.950388, 41.741615], [-7.962364, 41.744737], [-7.968886, 41.749513], [-7.971862, 41.758546], [-7.966142, 41.767502], [-7.949895, 41.771833]], [[-8.142968, 41.729271], [-8.118799, 41.738196], [-8.106757, 41.739356], [-8.07071, 41.737287], [-8.058717, 41.735123], [-8.046767, 41.730064], [-8.026629, 41.713989], [-8.02216, 41.704944], [-8.025437, 41.695965], [-8.035344, 41.689859], [-8.047418, 41.685975], [-8.059415, 41.687233], [-8.076626, 41.696387], [-8.083241, 41.701761], [-8.095296, 41.699152], [-8.119587, 41.680475], [-8.125978, 41.678759], [-8.131685, 41.674238], [-8.143683, 41.6754], [-8.155537, 41.687606], [-8.162734, 41.706054], [-8.16092, 41.715048], [-8.142968, 41.729271]], [[-8.008989, 41.731852], [-8.011859, 41.731876], [-8.010633, 41.734127], [-8.008989, 41.731852]], [[-8.081999, 41.687423], [-8.073124, 41.678345], [-8.07534, 41.669356], [-8.083765, 41.664793], [-8.09576, 41.666036], [-8.100255, 41.669554], [-8.10368, 41.678587], [-8.095461, 41.68737], [-8.081999, 41.687423]], [[-8.371862, 41.683867], [-8.359549, 41.680298], [-8.35006, 41.671238], [-8.349145, 41.662225], [-8.35432, 41.653248], [-8.360188, 41.649442], [-8.372232, 41.64581], [-8.384234, 41.646504], [-8.398298, 41.653486], [-8.40466, 41.662526], [-8.403696, 41.671529], [-8.392879, 41.680479], [-8.383881, 41.683449], [-8.371862, 41.683867]], [[-8.011489, 41.67823], [-7.999546, 41.673681], [-7.992828, 41.668662], [-7.988632, 41.659618], [-7.989019, 41.650615], [-7.994566, 41.641656], [-8.000106, 41.637504], [-8.012176, 41.633344], [-8.024183, 41.633212], [-8.036144, 41.63625], [-8.044797, 41.642085], [-8.05285, 41.651159], [-8.054588, 41.66018], [-8.047313, 41.669127], [-8.035558, 41.675536], [-8.023499, 41.67854], [-8.011489, 41.67823]], [[-8.167157, 41.643037], [-8.155971, 41.654454], [-8.143886, 41.660138], [-8.13188, 41.659724], [-8.11678, 41.651668], [-8.107533, 41.642589], [-8.105146, 41.633563], [-8.109754, 41.624592], [-8.120525, 41.611494], [-8.132595, 41.606444], [-8.144604, 41.605821], [-8.15656, 41.60925], [-8.165616, 41.616004], [-8.16842, 41.620283], [-8.170889, 41.625049], [-8.171154, 41.634058], [-8.167157, 41.643037]]], [[[-8.059855, 41.422344], [-8.069727, 41.417977], [-8.066739, 41.416142], [-8.061953, 41.417264], [-8.059855, 41.422344]]], [[[-8.5823, 41.618076], [-8.594234, 41.609309], [-8.61685, 41.582364], [-8.636835, 41.570973], [-8.648876, 41.562309], [-8.654623, 41.555462], [-8.65922, 41.546469], [-8.660279, 41.537464], [-8.658155, 41.528451], [-8.652068, 41.519425], [-8.63718, 41.509279], [-8.625217, 41.505695], [-8.613237, 41.505347], [-8.597344, 41.510239], [-8.584864, 41.519202], [-8.577143, 41.527917], [-8.565115, 41.534055], [-8.553135, 41.533067], [-8.529213, 41.52566], [-8.517301, 41.515768], [-8.513856, 41.509916], [-8.504479, 41.500869], [-8.493487, 41.495973], [-8.48151, 41.495485], [-8.469489, 41.500376], [-8.452152, 41.518646], [-8.432992, 41.527561], [-8.421531, 41.536511], [-8.415307, 41.545487], [-8.413757, 41.554486], [-8.416944, 41.56351], [-8.428572, 41.572576], [-8.456818, 41.582926], [-8.468759, 41.589652], [-8.504561, 41.614714], [-8.51652, 41.620557], [-8.537204, 41.625929], [-8.543431, 41.61462], [-8.554533, 41.615255], [-8.557244, 41.617046], [-8.562639, 41.61635], [-8.568056, 41.619031], [-8.570735, 41.616095], [-8.577321, 41.614269], [-8.581231, 41.615829], [-8.5823, 41.618076]], [[-8.516671, 41.600292], [-8.504699, 41.596706], [-8.495688, 41.590904], [-8.487723, 41.581862], [-8.485428, 41.572844], [-8.488184, 41.563849], [-8.492993, 41.559219], [-8.505038, 41.552296], [-8.517046, 41.550068], [-8.529029, 41.551131], [-8.540987, 41.555757], [-8.551212, 41.564112], [-8.555608, 41.573137], [-8.555142, 41.582142], [-8.549604, 41.591128], [-8.540693, 41.59725], [-8.530988, 41.600061], [-8.516671, 41.600292]], [[-8.445126, 41.547278], [-8.443918, 41.545629], [-8.445166, 41.542654], [-8.454828, 41.536674], [-8.458299, 41.53669], [-8.463781, 41.545723], [-8.457087, 41.550777], [-8.445126, 41.547278]], [[-8.624997, 41.543795], [-8.61302, 41.541702], [-8.607127, 41.537295], [-8.603069, 41.528274], [-8.607128, 41.51928], [-8.613175, 41.515681], [-8.62517, 41.513934], [-8.63865, 41.519384], [-8.642741, 41.528404], [-8.63701, 41.539606], [-8.624997, 41.543795]]], [[[-8.721856, 41.323135], [-8.736878, 41.321484], [-8.745774, 41.318119], [-8.754348, 41.312515], [-8.760802, 41.303521], [-8.762342, 41.294516], [-8.759429, 41.285502], [-8.75108, 41.276477], [-8.734025, 41.269175], [-8.722092, 41.267672], [-8.710149, 41.268681], [-8.698192, 41.272501], [-8.691776, 41.276333], [-8.683829, 41.285319], [-8.681984, 41.294322], [-8.684608, 41.303337], [-8.692612, 41.312366], [-8.709916, 41.321306], [-8.721856, 41.323135]], [[-8.709985, 41.305528], [-8.706556, 41.303395], [-8.702539, 41.294377], [-8.710075, 41.285375], [-8.722018, 41.285024], [-8.731846, 41.294449], [-8.727535, 41.303447], [-8.721929, 41.306127], [-8.709985, 41.305528]]]]}}, {"id": "8", "type": "Feature", "properties": {"fill": "#a3a3a3", "value_min": -0.75, "value_max": -0.5}, "geometry": {"type": "MultiPolygon", "coordinates": [[[[-7.902904, 41.860918], [-7.917938, 41.821099], [-7.916901, 41.812082], [-7.904657, 41.793952], [-7.901432, 41.791562], [-7.889464, 41.787696], [-7.865394, 41.787722], [-7.831638, 41.793233], [-7.791385, 41.81083], [-7.768573, 41.816195], [-7.732642, 41.821708], [-7.743152, 41.825154], [-7.742839, 41.827178], [-7.738919, 41.828515], [-7.741604, 41.832327], [-7.756261, 41.830251], [-7.768301, 41.830377], [-7.780309, 41.832207], [-7.797761, 41.837917], [-7.811855, 41.84707], [-7.815368, 41.856113], [-7.814157, 41.873311], [-7.818448, 41.872873], [-7.823863, 41.874013], [-7.825059, 41.875817], [-7.830479, 41.875831], [-7.830789, 41.874031], [-7.832894, 41.874712], [-7.838021, 41.872924], [-7.842528, 41.875187], [-7.841663, 41.866632], [-7.849515, 41.861475], [-7.858542, 41.862622], [-7.859456, 41.860148], [-7.864877, 41.859711], [-7.87033, 41.851395], [-7.873043, 41.850501], [-7.872754, 41.847463], [-7.8643, 41.8497], [-7.852254, 41.849695], [-7.840261, 41.846718], [-7.828805, 41.838238], [-7.825555, 41.829198], [-7.826375, 41.8202], [-7.830068, 41.811231], [-7.837728, 41.802302], [-7.853231, 41.794921], [-7.865313, 41.79231], [-7.877352, 41.792153], [-7.889332, 41.795317], [-7.899233, 41.802907], [-7.903578, 41.811956], [-7.903274, 41.82096], [-7.898822, 41.829924], [-7.888549, 41.840623], [-7.874731, 41.847129], [-7.879956, 41.853217], [-7.888076, 41.855486], [-7.891675, 41.859094], [-7.898893, 41.86136], [-7.902904, 41.860918]]], [[[-8.302097, 41.758383], [-8.305478, 41.75204], [-8.304137, 41.743025], [-8.299199, 41.736423], [-8.28725, 41.72954], [-8.274403, 41.724827], [-8.271449, 41.715802], [-8.271699, 41.697789], [-8.270011, 41.688771], [-8.26579, 41.679737], [-8.25852, 41.670684], [-8.244155, 41.661583], [-8.227999, 41.656977], [-8.215989, 41.65698], [-8.203944, 41.659792], [-8.191866, 41.665183], [-8.178304, 41.679145], [-8.175231, 41.68813], [-8.178112, 41.715172], [-8.16972, 41.724119], [-8.15313, 41.733005], [-8.144928, 41.741951], [-8.142228, 41.750938], [-8.143787, 41.759956], [-8.154424, 41.772536], [-8.166391, 41.777593], [-8.178399, 41.779532], [-8.190442, 41.778705], [-8.202512, 41.775704], [-8.23883, 41.757076], [-8.250857, 41.757245], [-8.255312, 41.760733], [-8.271367, 41.766704], [-8.277073, 41.764088], [-8.280681, 41.764083], [-8.284038, 41.761109], [-8.284931, 41.757507], [-8.287033, 41.756829], [-8.302097, 41.758383]], [[-8.166735, 41.750963], [-8.162096, 41.742077], [-8.166904, 41.737901], [-8.178905, 41.739846], [-8.181481, 41.742217], [-8.178813, 41.747073], [-8.166735, 41.750963]], [[-8.207836, 41.715381], [-8.203264, 41.714959], [-8.191343, 41.706986], [-8.187047, 41.697221], [-8.188851, 41.688227], [-8.191623, 41.684577], [-8.203732, 41.677006], [-8.215759, 41.675945], [-8.227726, 41.679878], [-8.236802, 41.688556], [-8.238498, 41.697574], [-8.234821, 41.706557], [-8.227333, 41.712667], [-8.215267, 41.716455], [-8.207836, 41.715381]]], [[[-7.949895, 41.771833], [-7.966142, 41.767502], [-7.971862, 41.758546], [-7.968886, 41.749513], [-7.962364, 41.744737], [-7.950388, 41.741615], [-7.938329, 41.743596], [-7.930193, 41.749159], [-7.924738, 41.758115], [-7.927976, 41.767152], [-7.937873, 41.771285], [-7.949895, 41.771833]]], [[[-8.008989, 41.731852], [-8.010633, 41.734127], [-8.011859, 41.731876], [-8.008989, 41.731852]]], [[[-7.817713, 41.714848], [-7.827156, 41.721133], [-7.84246, 41.724583], [-7.854493, 41.724031], [-7.860479, 41.721468], [-7.866624, 41.717857], [-7.87384, 41.703586], [-7.873998, 41.69458], [-7.870458, 41.685966], [-7.867999, 41.68551], [-7.868008, 41.68326], [-7.864403, 41.683701], [-7.864096, 41.685276], [-7.858987, 41.68639], [-7.857773, 41.689538], [-7.855076, 41.688181], [-7.852668, 41.689526], [-7.848143, 41.694424], [-7.855027, 41.693941], [-7.864807, 41.703497], [-7.861242, 41.712469], [-7.854626, 41.716548], [-7.842631, 41.715096], [-7.837553, 41.712231], [-7.836737, 41.709518], [-7.832453, 41.710407], [-7.825252, 41.708813], [-7.817713, 41.714848]]], [[[-7.835795, 41.702222], [-7.835795, 41.702222], [-7.837251, 41.700741], [-7.835795, 41.702222]]], [[[-7.837303, 41.700688], [-7.837303, 41.700688], [-7.837472, 41.700517], [-7.837303, 41.700688]]], [[[-7.837605, 41.700381], [-7.837605, 41.700381], [-7.83968, 41.698271], [-7.837605, 41.700381]]], [[[-7.839717, 41.698234], [-7.839717, 41.698234], [-7.839901, 41.698047], [-7.839717, 41.698234]]], [[[-7.840019, 41.697927], [-7.840019, 41.697927], [-7.840121, 41.697822], [-7.840019, 41.697927]]], [[[-7.84032, 41.69762], [-7.84032, 41.69762], [-7.840342, 41.697598], [-7.84032, 41.69762]]], [[[-8.081999, 41.687423], [-8.095461, 41.68737], [-8.10368, 41.678587], [-8.100255, 41.669554], [-8.09576, 41.666036], [-8.083765, 41.664793], [-8.07534, 41.669356], [-8.073124, 41.678345], [-8.081999, 41.687423]]], [[[-8.371862, 41.683867], [-8.383881, 41.683449], [-8.392879, 41.680479], [-8.403696, 41.671529], [-8.40466, 41.662526], [-8.398298, 41.653486], [-8.384234, 41.646504], [-8.372232, 41.64581], [-8.360188, 41.649442], [-8.35432, 41.653248], [-8.349145, 41.662225], [-8.35006, 41.671238], [-8.359549, 41.680298], [-8.371862, 41.683867]], [[-8.377607, 41.67139], [-8.376555, 41.662377], [-8.384099, 41.660583], [-8.387002, 41.662434], [-8.386437, 41.671438], [-8.383984, 41.672711], [-8.377607, 41.67139]]], [[[-8.011489, 41.67823], [-8.023499, 41.67854], [-8.035558, 41.675536], [-8.047313, 41.669127], [-8.054588, 41.66018], [-8.05285, 41.651159], [-8.044797, 41.642085], [-8.036144, 41.63625], [-8.024183, 41.633212], [-8.012176, 41.633344], [-8.000106, 41.637504], [-7.994566, 41.641656], [-7.989019, 41.650615], [-7.988632, 41.659618], [-7.992828, 41.668662], [-7.999546, 41.673681], [-8.011489, 41.67823]], [[-8.022091, 41.659908], [-8.023802, 41.658466], [-8.025745, 41.659939], [-8.023762, 41.66112], [-8.022091, 41.659908]]], [[[-8.516671, 41.600292], [-8.530988, 41.600061], [-8.540693, 41.59725], [-8.549604, 41.591128], [-8.555142, 41.582142], [-8.555608, 41.573137], [-8.551212, 41.564112], [-8.540987, 41.555757], [-8.529029, 41.551131], [-8.517046, 41.550068], [-8.505038, 41.552296], [-8.492993, 41.559219], [-8.488184, 41.563849], [-8.485428, 41.572844], [-8.487723, 41.581862], [-8.495688, 41.590904], [-8.504699, 41.596706], [-8.516671, 41.600292]], [[-8.516782, 41.585453], [-8.508957, 41.581954], [-8.504605, 41.572928], [-8.516936, 41.56484], [-8.528899, 41.569008], [-8.532374, 41.573045], [-8.529662, 41.582041], [-8.516782, 41.585453]]], [[[-8.445126, 41.547278], [-8.457087, 41.550777], [-8.463781, 41.545723], [-8.458299, 41.53669], [-8.454828, 41.536674], [-8.445166, 41.542654], [-8.443918, 41.545629], [-8.445126, 41.547278]]], [[[-8.093, 41.504747], [-8.116105, 41.507547], [-8.163634, 41.51691], [-8.169711, 41.519492], [-8.193458, 41.537464], [-8.204935, 41.544225], [-8.217293, 41.549193], [-8.229257, 41.551378], [-8.241247, 41.551497], [-8.253261, 41.549401], [-8.265314, 41.543885], [-8.277425, 41.532978], [-8.283603, 41.51772], [-8.283529, 41.508712], [-8.276718, 41.490655], [-8.266062, 41.477683], [-8.254178, 41.469566], [-8.242259, 41.464712], [-8.201366, 41.454127], [-8.170793, 41.434657], [-8.147024, 41.421742], [-8.123191, 41.414242], [-8.11125, 41.412494], [-8.092756, 41.412731], [-8.081986, 41.4193], [-8.078697, 41.419524], [-8.077503, 41.416597], [-8.069727, 41.417977], [-8.059855, 41.422344], [-8.059852, 41.424916], [-8.055959, 41.429415], [-8.05745, 41.432793], [-8.056549, 41.436394], [-8.069999, 41.447206], [-8.068788, 41.462286], [-8.073872, 41.46499], [-8.074468, 41.468141], [-8.073564, 41.474668], [-8.066374, 41.482318], [-8.066069, 41.48817], [-8.072054, 41.490199], [-8.07175, 41.494925], [-8.078333, 41.49898], [-8.078332, 41.500331], [-8.093, 41.504747]], [[-8.241488, 41.530865], [-8.229526, 41.528701], [-8.224766, 41.526346], [-8.21417, 41.517266], [-8.210935, 41.508237], [-8.212737, 41.499242], [-8.221743, 41.490296], [-8.230026, 41.486527], [-8.24202, 41.485232], [-8.253967, 41.488008], [-8.257822, 41.490534], [-8.267369, 41.499603], [-8.269872, 41.508626], [-8.265579, 41.520472], [-8.253497, 41.528907], [-8.241488, 41.530865]], [[-8.122025, 41.500777], [-8.110056, 41.499891], [-8.09812, 41.496599], [-8.084782, 41.489288], [-8.078545, 41.48023], [-8.078102, 41.47122], [-8.082424, 41.462247], [-8.086681, 41.458072], [-8.098748, 41.451285], [-8.110754, 41.448823], [-8.122718, 41.449395], [-8.134641, 41.453094], [-8.148381, 41.462754], [-8.153948, 41.471802], [-8.154737, 41.480816], [-8.150617, 41.489793], [-8.135987, 41.498691], [-8.122025, 41.500777]]], [[[-8.624997, 41.543795], [-8.63701, 41.539606], [-8.642741, 41.528404], [-8.63865, 41.519384], [-8.62517, 41.513934], [-8.613175, 41.515681], [-8.607128, 41.51928], [-8.603069, 41.528274], [-8.607127, 41.537295], [-8.61302, 41.541702], [-8.624997, 41.543795]]], [[[-8.313226, 41.332506], [-8.303445, 41.342016], [-8.296566, 41.355666], [-8.296213, 41.373679], [-8.299238, 41.382705], [-8.305321, 41.391749], [-8.316828, 41.400825], [-8.326696, 41.405386], [-8.338626, 41.408717], [-8.362542, 41.410034], [-8.374524, 41.40827], [-8.386525, 41.404358], [-8.398553, 41.397435], [-8.404868, 41.392307], [-8.411547, 41.383334], [-8.415192, 41.374345], [-8.415951, 41.365341], [-8.414121, 41.356324], [-8.409573, 41.347293], [-8.399119, 41.335856], [-8.38365, 41.32695], [-8.380382, 41.331254], [-8.375305, 41.33104], [-8.37201, 41.328346], [-8.361563, 41.329718], [-8.358276, 41.329049], [-8.357673, 41.327249], [-8.350207, 41.327264], [-8.346032, 41.328847], [-8.342462, 41.333131], [-8.333215, 41.336299], [-8.326363, 41.342163], [-8.324568, 41.341041], [-8.323376, 41.341943], [-8.316788, 41.335876], [-8.313802, 41.336331], [-8.313226, 41.332506]], [[-8.362645, 41.399493], [-8.350691, 41.398669], [-8.334078, 41.391919], [-8.325357, 41.382861], [-8.322009, 41.373833], [-8.32266, 41.36483], [-8.327204, 41.356142], [-8.338182, 41.346905], [-8.351252, 41.34222], [-8.363211, 41.341547], [-8.375141, 41.343838], [-8.387035, 41.350031], [-8.393345, 41.356216], [-8.398, 41.365248], [-8.398453, 41.374258], [-8.394945, 41.383248], [-8.386645, 41.391633], [-8.374628, 41.397407], [-8.362645, 41.399493]]], [[[-8.709985, 41.305528], [-8.721929, 41.306127], [-8.727535, 41.303447], [-8.731846, 41.294449], [-8.722018, 41.285024], [-8.710075, 41.285375], [-8.702539, 41.294377], [-8.706556, 41.303395], [-8.709985, 41.305528]]]]}}, {"id": "10", "type": "Feature", "properties": {"fill": "#a3a3a3", "value_min": -0.25, "value_max": -0.0}, "geometry": {"type": "MultiPolygon", "coordinates": [[[[-7.73032, 41.87215], [-7.743205, 41.882045], [-7.755215, 41.884242], [-7.767303, 41.882374], [-7.780611, 41.873763], [-7.784843, 41.864801], [-7.783637, 41.855782], [-7.774816, 41.846681], [-7.768047, 41.843625], [-7.756033, 41.842041], [-7.746351, 41.843794], [-7.750541, 41.847685], [-7.750532, 41.849261], [-7.743309, 41.849012], [-7.746901, 41.8524], [-7.746881, 41.855776], [-7.73843, 41.859348], [-7.734159, 41.868337], [-7.73032, 41.87215]]], [[[-7.888801, 41.826034], [-7.89286, 41.82086], [-7.89459, 41.81187], [-7.889205, 41.802695], [-7.877263, 41.797208], [-7.865227, 41.797207], [-7.851407, 41.802439], [-7.844407, 41.811376], [-7.844553, 41.820384], [-7.852609, 41.829812], [-7.864574, 41.834176], [-7.876634, 41.83322], [-7.888801, 41.826034]], [[-7.864754, 41.823994], [-7.859138, 41.82053], [-7.85538, 41.811486], [-7.864225, 41.802567], [-7.877175, 41.802257], [-7.885901, 41.811786], [-7.881379, 41.820748], [-7.876798, 41.823838], [-7.864754, 41.823994]]], [[[-8.215592, 41.689728], [-8.203577, 41.689549], [-8.199659, 41.69731], [-8.203426, 41.701832], [-8.215444, 41.701853], [-8.219888, 41.697449], [-8.215592, 41.689728]]], [[[-8.241825, 41.50198], [-8.235596, 41.508404], [-8.241687, 41.513819], [-8.252923, 41.508517], [-8.241825, 41.50198]]], [[[-8.133344, 41.480656], [-8.127674, 41.471606], [-8.12246, 41.468573], [-8.110489, 41.468248], [-8.104517, 41.471428], [-8.098886, 41.480392], [-8.105338, 41.489449], [-8.110172, 41.491438], [-8.122148, 41.49167], [-8.127369, 41.489619], [-8.133344, 41.480656]]], [[[-8.382739, 41.374175], [-8.379998, 41.365153], [-8.374981, 41.360545], [-8.363062, 41.356762], [-8.351085, 41.359027], [-8.343352, 41.36495], [-8.340238, 41.373939], [-8.345136, 41.382975], [-8.350811, 41.386588], [-8.362749, 41.388818], [-8.374743, 41.385446], [-8.377966, 41.383157], [-8.382739, 41.374175]]]]}}, {"id": "9", "type": "Feature", "properties": {"fill": "#a3a3a3", "value_min": -0.5, "value_max": -0.25}, "geometry": {"type": "MultiPolygon", "coordinates": [[[[-7.814157, 41.873311], [-7.815368, 41.856113], [-7.811855, 41.84707], [-7.797761, 41.837917], [-7.780309, 41.832207], [-7.768301, 41.830377], [-7.756261, 41.830251], [-7.741604, 41.832327], [-7.74729, 41.837772], [-7.746351, 41.843794], [-7.756033, 41.842041], [-7.768047, 41.843625], [-7.774816, 41.846681], [-7.783637, 41.855782], [-7.784843, 41.864801], [-7.780611, 41.873763], [-7.767303, 41.882374], [-7.755215, 41.884242], [-7.743205, 41.882045], [-7.73032, 41.87215], [-7.729293, 41.875972], [-7.720533, 41.880218], [-7.720523, 41.881793], [-7.725335, 41.882935], [-7.726208, 41.887665], [-7.737044, 41.888828], [-7.73944, 41.891087], [-7.74246, 41.889747], [-7.742785, 41.885922], [-7.756022, 41.888441], [-7.758719, 41.890926], [-7.756592, 41.89407], [-7.758076, 41.897901], [-7.763193, 41.898593], [-7.779227, 41.886264], [-7.785257, 41.885157], [-7.788886, 41.882467], [-7.794309, 41.882033], [-7.796739, 41.878214], [-7.794954, 41.873932], [-7.803381, 41.874857], [-7.804914, 41.869459], [-7.814157, 41.873311]]], [[[-7.874731, 41.847129], [-7.888549, 41.840623], [-7.898822, 41.829924], [-7.903274, 41.82096], [-7.903578, 41.811956], [-7.899233, 41.802907], [-7.889332, 41.795317], [-7.877352, 41.792153], [-7.865313, 41.79231], [-7.853231, 41.794921], [-7.837728, 41.802302], [-7.830068, 41.811231], [-7.826375, 41.8202], [-7.825555, 41.829198], [-7.828805, 41.838238], [-7.840261, 41.846718], [-7.852254, 41.849695], [-7.8643, 41.8497], [-7.872754, 41.847463], [-7.873066, 41.844875], [-7.874731, 41.847129]], [[-7.888801, 41.826034], [-7.876634, 41.83322], [-7.864574, 41.834176], [-7.852609, 41.829812], [-7.844553, 41.820384], [-7.844407, 41.811376], [-7.851407, 41.802439], [-7.865227, 41.797207], [-7.877263, 41.797208], [-7.889205, 41.802695], [-7.89459, 41.81187], [-7.89286, 41.82086], [-7.888801, 41.826034]]], [[[-8.166735, 41.750963], [-8.178813, 41.747073], [-8.181481, 41.742217], [-8.178905, 41.739846], [-8.166904, 41.737901], [-8.162096, 41.742077], [-8.166735, 41.750963]]], [[[-8.207836, 41.715381], [-8.215267, 41.716455], [-8.227333, 41.712667], [-8.234821, 41.706557], [-8.238498, 41.697574], [-8.236802, 41.688556], [-8.227726, 41.679878], [-8.215759, 41.675945], [-8.203732, 41.677006], [-8.191623, 41.684577], [-8.188851, 41.688227], [-8.187047, 41.697221], [-8.191343, 41.706986], [-8.203264, 41.714959], [-8.207836, 41.715381]], [[-8.215592, 41.689728], [-8.219888, 41.697449], [-8.215444, 41.701853], [-8.203426, 41.701832], [-8.199659, 41.69731], [-8.203577, 41.689549], [-8.215592, 41.689728]]], [[[-7.836737, 41.709518], [-7.837553, 41.712231], [-7.842631, 41.715096], [-7.854626, 41.716548], [-7.861242, 41.712469], [-7.864807, 41.703497], [-7.855027, 41.693941], [-7.848143, 41.694424], [-7.840342, 41.697598], [-7.84032, 41.69762], [-7.840121, 41.697822], [-7.840019, 41.697927], [-7.839901, 41.698047], [-7.839717, 41.698234], [-7.83968, 41.698271], [-7.837605, 41.700381], [-7.837472, 41.700517], [-7.837303, 41.700688], [-7.837251, 41.700741], [-7.835795, 41.702222], [-7.839682, 41.705924], [-7.838465, 41.709522], [-7.836737, 41.709518]]], [[[-8.377607, 41.67139], [-8.383984, 41.672711], [-8.386437, 41.671438], [-8.387002, 41.662434], [-8.384099, 41.660583], [-8.376555, 41.662377], [-8.377607, 41.67139]]], [[[-8.022091, 41.659908], [-8.023762, 41.66112], [-8.025745, 41.659939], [-8.023802, 41.658466], [-8.022091, 41.659908]]], [[[-8.516782, 41.585453], [-8.529662, 41.582041], [-8.532374, 41.573045], [-8.528899, 41.569008], [-8.516936, 41.56484], [-8.504605, 41.572928], [-8.508957, 41.581954], [-8.516782, 41.585453]]], [[[-8.241488, 41.530865], [-8.253497, 41.528907], [-8.265579, 41.520472], [-8.269872, 41.508626], [-8.267369, 41.499603], [-8.257822, 41.490534], [-8.253967, 41.488008], [-8.24202, 41.485232], [-8.230026, 41.486527], [-8.221743, 41.490296], [-8.212737, 41.499242], [-8.210935, 41.508237], [-8.21417, 41.517266], [-8.224766, 41.526346], [-8.229526, 41.528701], [-8.241488, 41.530865]], [[-8.241825, 41.50198], [-8.252923, 41.508517], [-8.241687, 41.513819], [-8.235596, 41.508404], [-8.241825, 41.50198]]], [[[-8.122025, 41.500777], [-8.135987, 41.498691], [-8.150617, 41.489793], [-8.154737, 41.480816], [-8.153948, 41.471802], [-8.148381, 41.462754], [-8.134641, 41.453094], [-8.122718, 41.449395], [-8.110754, 41.448823], [-8.098748, 41.451285], [-8.086681, 41.458072], [-8.082424, 41.462247], [-8.078102, 41.47122], [-8.078545, 41.48023], [-8.084782, 41.489288], [-8.09812, 41.496599], [-8.110056, 41.499891], [-8.122025, 41.500777]], [[-8.133344, 41.480656], [-8.127369, 41.489619], [-8.122148, 41.49167], [-8.110172, 41.491438], [-8.105338, 41.489449], [-8.098886, 41.480392], [-8.104517, 41.471428], [-8.110489, 41.468248], [-8.12246, 41.468573], [-8.127674, 41.471606], [-8.133344, 41.480656]]], [[[-8.362645, 41.399493], [-8.374628, 41.397407], [-8.386645, 41.391633], [-8.394945, 41.383248], [-8.398453, 41.374258], [-8.398, 41.365248], [-8.393345, 41.356216], [-8.387035, 41.350031], [-8.375141, 41.343838], [-8.363211, 41.341547], [-8.351252, 41.34222], [-8.338182, 41.346905], [-8.327204, 41.356142], [-8.32266, 41.36483], [-8.322009, 41.373833], [-8.325357, 41.382861], [-8.334078, 41.391919], [-8.350691, 41.398669], [-8.362645, 41.399493]], [[-8.382739, 41.374175], [-8.377966, 41.383157], [-8.374743, 41.385446], [-8.362749, 41.388818], [-8.350811, 41.386588], [-8.345136, 41.382975], [-8.340238, 41.373939], [-8.343352, 41.36495], [-8.351085, 41.359027], [-8.363062, 41.356762], [-8.374981, 41.360545], [-8.379998, 41.365153], [-8.382739, 41.374175]]]]}}, {"id": "11", "type": "Feature", "properties": {"fill": "#a3a3a3", "value_min": 0.0, "value_max": -0.25}, "geometry": {"type": "Polygon", "coordinates": [[[-7.864754, 41.823994], [-7.876798, 41.823838], [-7.881379, 41.820748], [-7.885901, 41.811786], [-7.877175, 41.802257], [-7.864225, 41.802567], [-7.85538, 41.811486], [-7.859138, 41.82053], [-7.864754, 41.823994]]]}}]}