{"type": "FeatureCollection", "features": [{"id": "5", "type": "Feature", "properties": {"fill": "#5093f6", "value_min": 1.5, "value_max": 1.75}, "geometry": {"type": "MultiPolygon", "coordinates": [[[[-8.138994, 41.480699], [-8.13441, 41.470485], [-8.122522, 41.463984], [-8.110554, 41.463487], [-8.095803, 41.47136], [-8.092661, 41.480343], [-8.098211, 41.490046], [-8.11012, 41.495215], [-8.122095, 41.495582], [-8.135123, 41.489677], [-8.138994, 41.480699]]], [[[-8.673305, 41.474284], [-8.661328, 41.474288], [-8.661212, 41.474415], [-8.6733, 41.475184], [-8.673305, 41.474284]]], [[[-8.727932, 41.29444], [-8.722006, 41.287945], [-8.710061, 41.288391], [-8.705261, 41.294384], [-8.709993, 41.303743], [-8.721937, 41.304046], [-8.727932, 41.29444]]]]}}, {"id": "4", "type": "Feature", "properties": {"fill": "#71a5e5", "value_min": 1.25, "value_max": 1.5}, "geometry": {"type": "MultiPolygon", "coordinates": [[[[-7.874869, 41.845571], [-7.888553, 41.840374], [-7.899353, 41.829929], [-7.903543, 41.820962], [-7.903434, 41.811954], [-7.899199, 41.802907], [-7.889368, 41.793264], [-7.877451, 41.786463], [-7.868056, 41.784591], [-7.868521, 41.775589], [-7.877757, 41.768884], [-7.87959, 41.757683], [-7.867553, 41.748559], [-7.857919, 41.748463], [-7.854049, 41.74903], [-7.843906, 41.75733], [-7.843954, 41.766337], [-7.852076, 41.775425], [-7.853477, 41.781129], [-7.857699, 41.784488], [-7.85341, 41.784905], [-7.841266, 41.79333], [-7.833688, 41.802261], [-7.830495, 41.811235], [-7.830435, 41.820241], [-7.833697, 41.829281], [-7.842258, 41.838374], [-7.852353, 41.844141], [-7.864359, 41.846352], [-7.873063, 41.845705], [-7.874869, 41.845571]]], [[[-8.190749, 41.754283], [-8.192953, 41.751305], [-8.194239, 41.742307], [-8.189696, 41.733268], [-8.179167, 41.719256], [-8.165256, 41.679051], [-8.164333, 41.670037], [-8.18487, 41.643164], [-8.187968, 41.634178], [-8.188343, 41.625174], [-8.186164, 41.616151], [-8.1806, 41.606353], [-8.168755, 41.594206], [-8.156838, 41.58793], [-8.14489, 41.584187], [-8.132895, 41.58399], [-8.12086, 41.586859], [-8.084672, 41.600738], [-8.078496, 41.606332], [-8.074762, 41.615309], [-8.080971, 41.624366], [-8.096187, 41.635431], [-8.100249, 41.642532], [-8.110442, 41.651619], [-8.124007, 41.66073], [-8.130253, 41.669785], [-8.122296, 41.678731], [-8.107458, 41.688748], [-8.09925, 41.696567], [-8.096582, 41.705553], [-8.100232, 41.723596], [-8.106806, 41.735808], [-8.118686, 41.746459], [-8.154557, 41.762408], [-8.166563, 41.764278], [-8.178615, 41.762584], [-8.190749, 41.754283]]], [[[-8.288101, 41.742927], [-8.284892, 41.742907], [-8.277121, 41.751865], [-8.286966, 41.755228], [-8.291633, 41.751956], [-8.288101, 41.742927]]], [[[-8.010692, 41.730264], [-8.007658, 41.73184], [-8.010596, 41.736523], [-8.013904, 41.731894], [-8.010692, 41.730264]]], [[[-8.098454, 41.543555], [-8.121348, 41.550804], [-8.133314, 41.552688], [-8.181321, 41.549264], [-8.217269, 41.551128], [-8.24127, 41.549451], [-8.253304, 41.545679], [-8.265366, 41.53929], [-8.269159, 41.535644], [-8.277531, 41.523486], [-8.279434, 41.508687], [-8.277012, 41.499664], [-8.271656, 41.490623], [-8.265994, 41.483778], [-8.254111, 41.475419], [-8.242187, 41.470948], [-8.206351, 41.463393], [-8.194451, 41.457407], [-8.158845, 41.433069], [-8.135062, 41.421357], [-8.111227, 41.414178], [-8.092756, 41.412132], [-8.088268, 41.416152], [-8.079893, 41.41975], [-8.077503, 41.416597], [-8.070923, 41.41862], [-8.066739, 41.416142], [-8.061953, 41.417264], [-8.059852, 41.424916], [-8.055959, 41.429641], [-8.057743, 41.438645], [-8.061033, 41.438872], [-8.064916, 41.444052], [-8.067908, 41.444279], [-8.069999, 41.447206], [-8.068788, 41.462286], [-8.073872, 41.46499], [-8.074468, 41.468141], [-8.073564, 41.474668], [-8.066374, 41.482318], [-8.066069, 41.48817], [-8.072054, 41.490199], [-8.07175, 41.494925], [-8.078333, 41.49898], [-8.078332, 41.500331], [-8.093, 41.504613], [-8.089398, 41.519468], [-8.090594, 41.522169], [-8.093588, 41.52307], [-8.091487, 41.531173], [-8.095978, 41.534574], [-8.096228, 41.525407], [-8.109721, 41.524366], [-8.112037, 41.525531], [-8.10954, 41.537531], [-8.102597, 41.54108], [-8.106759, 41.543557], [-8.098454, 41.543555]], [[-8.138994, 41.480699], [-8.135123, 41.489677], [-8.122095, 41.495582], [-8.11012, 41.495215], [-8.098211, 41.490046], [-8.092661, 41.480343], [-8.095803, 41.47136], [-8.110554, 41.463487], [-8.122522, 41.463984], [-8.13441, 41.470485], [-8.138994, 41.480699]]], [[[-8.44554, 41.498825], [-8.453653, 41.491631], [-8.459351, 41.482651], [-8.461404, 41.473653], [-8.458589, 41.464632], [-8.445926, 41.45347], [-8.433981, 41.450322], [-8.422001, 41.451165], [-8.40998, 41.456552], [-8.402424, 41.464354], [-8.397844, 41.474182], [-8.397212, 41.482342], [-8.399807, 41.491363], [-8.409566, 41.502211], [-8.421514, 41.50603], [-8.433505, 41.504958], [-8.44554, 41.498825]]], [[[-8.719818, 41.48358], [-8.724955, 41.474585], [-8.726521, 41.465581], [-8.724901, 41.45657], [-8.719815, 41.44755], [-8.7096, 41.438517], [-8.697451, 41.432801], [-8.685491, 41.430925], [-8.673521, 41.431174], [-8.66154, 41.433499], [-8.649541, 41.439127], [-8.637512, 41.449608], [-8.63344, 41.456315], [-8.631356, 41.465316], [-8.632816, 41.474328], [-8.638552, 41.483354], [-8.649254, 41.492318], [-8.661207, 41.49746], [-8.673175, 41.500127], [-8.685155, 41.500307], [-8.697148, 41.497939], [-8.709606, 41.492562], [-8.719818, 41.48358]], [[-8.673305, 41.474284], [-8.6733, 41.475184], [-8.661212, 41.474415], [-8.661328, 41.474288], [-8.673305, 41.474284]]], [[[-8.485654, 41.23869], [-8.502294, 41.257654], [-8.519117, 41.269726], [-8.650122, 41.330834], [-8.663645, 41.339309], [-8.69776, 41.36612], [-8.709688, 41.372596], [-8.733578, 41.378957], [-8.757493, 41.379908], [-8.781421, 41.377077], [-8.808594, 41.370257], [-8.799695, 41.14406], [-8.674793, 41.146932], [-8.674849, 41.153767], [-8.672489, 41.15648], [-8.66117, 41.156307], [-8.662078, 41.158104], [-8.660313, 41.160813], [-8.657033, 41.160378], [-8.654961, 41.161963], [-8.653231, 41.169174], [-8.655366, 41.175467], [-8.647955, 41.180228], [-8.647696, 41.185181], [-8.640929, 41.196241], [-8.634946, 41.193341], [-8.632526, 41.188624], [-8.625658, 41.186628], [-8.621132, 41.178994], [-8.613374, 41.177451], [-8.608583, 41.174095], [-8.609164, 41.172066], [-8.604942, 41.164881], [-8.59422, 41.165149], [-8.589174, 41.167645], [-8.589194, 41.170572], [-8.583263, 41.174422], [-8.582094, 41.177803], [-8.578825, 41.178941], [-8.581296, 41.191762], [-8.575958, 41.195609], [-8.577183, 41.200557], [-8.57423, 41.20462], [-8.567971, 41.204644], [-8.565895, 41.206227], [-8.567697, 41.208246], [-8.566512, 41.209376], [-8.559636, 41.206251], [-8.554271, 41.20627], [-8.549521, 41.209214], [-8.544157, 41.209458], [-8.54238, 41.211265], [-8.532257, 41.213102], [-8.52713, 41.203215], [-8.523236, 41.200077], [-8.51163, 41.203042], [-8.510456, 41.206197], [-8.505693, 41.207113], [-8.504239, 41.213646], [-8.500076, 41.21546], [-8.50308, 41.219502], [-8.502204, 41.222656], [-8.495642, 41.222227], [-8.495947, 41.223351], [-8.490894, 41.226294], [-8.487935, 41.230354], [-8.490331, 41.232373], [-8.489156, 41.235528], [-8.485654, 41.23869]], [[-8.727932, 41.29444], [-8.721937, 41.304046], [-8.709993, 41.303743], [-8.705261, 41.294384], [-8.710061, 41.288391], [-8.722006, 41.287945], [-8.727932, 41.29444]]]]}}, {"id": "3", "type": "Feature", "properties": {"fill": "#90a4bc", "value_min": 1.0, "value_max": 1.25}, "geometry": {"type": "MultiPolygon", "coordinates": [[[[-8.718154, 41.573571], [-8.720316, 41.57356], [-8.725151, 41.577811], [-8.726633, 41.576003], [-8.734424, 41.575737], [-8.736564, 41.580228], [-8.738354, 41.579318], [-8.740778, 41.582006], [-8.74467, 41.581535], [-8.750711, 41.58623], [-8.756374, 41.582823], [-8.75635, 41.580347], [-8.762327, 41.578514], [-8.764443, 41.580303], [-8.767441, 41.580286], [-8.769874, 41.583874], [-8.768997, 41.58613], [-8.773228, 41.589482], [-8.775371, 41.593972], [-8.78556, 41.593464], [-8.797327, 41.600599], [-8.804218, 41.600109], [-8.80456, 41.604158], [-8.809434, 41.611332], [-8.828644, 41.609656], [-8.82839, 41.585633], [-8.818497, 41.554794], [-8.8221, 41.547542], [-8.821965, 41.534907], [-8.815926, 41.525624], [-8.81063, 41.5101], [-8.813279, 41.503483], [-8.812636, 41.496944], [-8.804699, 41.482068], [-8.798552, 41.474753], [-8.80154, 41.446836], [-8.806115, 41.43713], [-8.807354, 41.425915], [-8.811166, 41.417099], [-8.808594, 41.370257], [-8.781421, 41.377077], [-8.757493, 41.379908], [-8.733578, 41.378957], [-8.709688, 41.372596], [-8.69776, 41.36612], [-8.663645, 41.339309], [-8.650122, 41.330834], [-8.519117, 41.269726], [-8.502294, 41.257654], [-8.485654, 41.23869], [-8.484113, 41.240496], [-8.476346, 41.237818], [-8.475756, 41.23917], [-8.470986, 41.23941], [-8.471604, 41.243459], [-8.469227, 41.245267], [-8.463258, 41.244384], [-8.459989, 41.246644], [-8.454323, 41.246886], [-8.455541, 41.251834], [-8.452276, 41.25522], [-8.449891, 41.255452], [-8.449304, 41.257479], [-8.447812, 41.257258], [-8.449028, 41.261982], [-8.439785, 41.262907], [-8.438023, 41.268989], [-8.434745, 41.269673], [-8.432691, 41.277107], [-8.427032, 41.279372], [-8.429143, 41.284319], [-8.426171, 41.287028], [-8.426488, 41.291079], [-8.425013, 41.294909], [-8.422037, 41.296942], [-8.422647, 41.299867], [-8.407744, 41.304856], [-8.406262, 41.307335], [-8.403277, 41.307342], [-8.401801, 41.311398], [-8.399712, 41.311628], [-8.400316, 41.313202], [-8.396738, 41.314336], [-8.398835, 41.316131], [-8.393775, 41.31997], [-8.393489, 41.323122], [-8.391105, 41.324253], [-8.386325, 41.323588], [-8.380382, 41.331254], [-8.375305, 41.33104], [-8.37201, 41.328346], [-8.361563, 41.329718], [-8.358276, 41.329049], [-8.357673, 41.327249], [-8.350207, 41.327264], [-8.346032, 41.328847], [-8.342462, 41.333131], [-8.333215, 41.336299], [-8.326363, 41.342163], [-8.324568, 41.341041], [-8.323376, 41.341943], [-8.320676, 41.338121], [-8.312604, 41.334983], [-8.313794, 41.333405], [-8.31139, 41.328007], [-8.307502, 41.325762], [-8.305116, 41.326891], [-8.303024, 41.325994], [-8.303615, 41.323742], [-8.301216, 41.319694], [-8.296431, 41.316774], [-8.297618, 41.313846], [-8.295817, 41.310022], [-8.281801, 41.316569], [-8.281808, 41.319721], [-8.278828, 41.321976], [-8.278238, 41.325128], [-8.273161, 41.325134], [-8.269582, 41.326939], [-8.265709, 41.331221], [-8.269004, 41.336169], [-8.263339, 41.340902], [-8.262751, 41.345405], [-8.256483, 41.347663], [-8.255889, 41.349689], [-8.249622, 41.353072], [-8.251123, 41.356897], [-8.248141, 41.360052], [-8.248448, 41.364328], [-8.245461, 41.364781], [-8.244272, 41.368384], [-8.241287, 41.370413], [-8.237242, 41.371092], [-8.240466, 41.373324], [-8.243214, 41.38235], [-8.235654, 41.391307], [-8.231126, 41.393401], [-8.21916, 41.393759], [-8.212929, 41.391154], [-8.205307, 41.382094], [-8.206403, 41.376969], [-8.199163, 41.377423], [-8.194677, 41.374275], [-8.191691, 41.376302], [-8.189299, 41.375403], [-8.184818, 41.376756], [-8.168382, 41.377438], [-8.1642, 41.38059], [-8.152544, 41.375866], [-8.151049, 41.37339], [-8.145073, 41.374742], [-8.139694, 41.377894], [-8.133418, 41.374292], [-8.119672, 41.376768], [-8.119672, 41.378569], [-8.116683, 41.380144], [-8.117578, 41.386447], [-8.113992, 41.386896], [-8.112795, 41.390723], [-8.110105, 41.390947], [-8.108011, 41.393648], [-8.103827, 41.392972], [-8.105321, 41.394998], [-8.10263, 41.396123], [-8.10801, 41.398825], [-8.108008, 41.404002], [-8.104419, 41.406252], [-8.104119, 41.408728], [-8.101727, 41.409403], [-8.102025, 41.411204], [-8.092756, 41.411201], [-8.092756, 41.412132], [-8.111227, 41.414178], [-8.135062, 41.421357], [-8.158845, 41.433069], [-8.194451, 41.457407], [-8.206351, 41.463393], [-8.242187, 41.470948], [-8.254111, 41.475419], [-8.265994, 41.483778], [-8.271656, 41.490623], [-8.277012, 41.499664], [-8.279434, 41.508687], [-8.277531, 41.523486], [-8.269159, 41.535644], [-8.265366, 41.53929], [-8.253304, 41.545679], [-8.24127, 41.549451], [-8.217269, 41.551128], [-8.181321, 41.549264], [-8.133314, 41.552688], [-8.121348, 41.550804], [-8.098454, 41.543555], [-8.094175, 41.544904], [-8.087885, 41.542876], [-8.083689, 41.544675], [-8.080687, 41.551651], [-8.074097, 41.549848], [-8.073494, 41.553449], [-8.075891, 41.554575], [-8.076188, 41.557276], [-8.079783, 41.558403], [-8.081576, 41.565157], [-8.078879, 41.56493], [-8.075279, 41.568305], [-8.073182, 41.568079], [-8.069283, 41.570553], [-8.068081, 41.573478], [-8.056684, 41.579549], [-8.052181, 41.584498], [-8.052777, 41.587649], [-8.048277, 41.590122], [-8.047974, 41.592373], [-8.031467, 41.602938], [-8.02367, 41.603156], [-8.019174, 41.601802], [-8.015872, 41.603824], [-8.013474, 41.603372], [-8.005971, 41.60629], [-8.003562, 41.611239], [-7.998761, 41.612809], [-7.999669, 41.608759], [-7.996976, 41.605829], [-7.996684, 41.602003], [-7.984685, 41.603564], [-7.982292, 41.60086], [-7.975689, 41.603552], [-7.974482, 41.606701], [-7.970882, 41.607147], [-7.969091, 41.603768], [-7.965796, 41.602413], [-7.9541, 41.602846], [-7.952606, 41.600592], [-7.947808, 41.60081], [-7.945413, 41.599456], [-7.942725, 41.595625], [-7.936132, 41.594488], [-7.93791, 41.601694], [-7.937004, 41.603718], [-7.931604, 41.604384], [-7.930979, 41.612711], [-7.925556, 41.620354], [-7.920755, 41.620796], [-7.917748, 41.623041], [-7.915933, 41.627764], [-7.913229, 41.628885], [-7.912613, 41.63361], [-7.906014, 41.633147], [-7.906884, 41.641927], [-7.897869, 41.645511], [-7.89696, 41.647985], [-7.892759, 41.647976], [-7.892145, 41.651576], [-7.897533, 41.655603], [-7.915721, 41.657693], [-7.927672, 41.661276], [-7.939587, 41.667127], [-7.952456, 41.677308], [-7.958616, 41.686371], [-7.960902, 41.695399], [-7.961555, 41.722426], [-7.963964, 41.731455], [-7.978643, 41.758607], [-7.977759, 41.767606], [-7.97396, 41.771754], [-7.961848, 41.776768], [-7.937784, 41.776646], [-7.925782, 41.774855], [-7.914527, 41.767026], [-7.908762, 41.757964], [-7.899486, 41.748869], [-7.861872, 41.730489], [-7.858694, 41.72145], [-7.8653, 41.712509], [-7.867962, 41.703528], [-7.867002, 41.696347], [-7.861342, 41.68527], [-7.858987, 41.68639], [-7.857773, 41.689538], [-7.854776, 41.68818], [-7.847538, 41.695365], [-7.837309, 41.699391], [-7.835792, 41.702763], [-7.839682, 41.705924], [-7.838465, 41.709522], [-7.832453, 41.710407], [-7.825252, 41.708813], [-7.818621, 41.713522], [-7.815291, 41.718689], [-7.808986, 41.717996], [-7.808396, 41.715744], [-7.803298, 41.714154], [-7.790966, 41.717044], [-7.789449, 41.719966], [-7.78464, 41.720402], [-7.78252, 41.723546], [-7.776204, 41.724652], [-7.773786, 41.727346], [-7.770798, 41.72441], [-7.765698, 41.723044], [-7.761765, 41.727758], [-7.762933, 41.733839], [-7.759307, 41.737203], [-7.759597, 41.739005], [-7.75689, 41.739446], [-7.758673, 41.742898], [-7.769791, 41.75252], [-7.778078, 41.765655], [-7.781074, 41.783701], [-7.778972, 41.792685], [-7.773325, 41.801632], [-7.760939, 41.810506], [-7.7445, 41.815881], [-7.729358, 41.817593], [-7.732041, 41.821514], [-7.743152, 41.825154], [-7.742839, 41.827178], [-7.738918, 41.82874], [-7.742196, 41.833928], [-7.74729, 41.837772], [-7.746349, 41.84407], [-7.750246, 41.846784], [-7.750532, 41.849261], [-7.743309, 41.849012], [-7.746901, 41.8524], [-7.746881, 41.855776], [-7.73843, 41.859348], [-7.734159, 41.868337], [-7.730228, 41.871024], [-7.729293, 41.875972], [-7.722351, 41.878424], [-7.720523, 41.881793], [-7.725335, 41.882935], [-7.726208, 41.887665], [-7.737044, 41.888828], [-7.737935, 41.890857], [-7.74246, 41.889747], [-7.742785, 41.885922], [-7.756022, 41.888441], [-7.758719, 41.890926], [-7.756592, 41.89407], [-7.758376, 41.898127], [-7.764097, 41.898595], [-7.779227, 41.886264], [-7.785257, 41.885157], [-7.788886, 41.882467], [-7.794007, 41.882257], [-7.796739, 41.878214], [-7.794349, 41.87438], [-7.797064, 41.873488], [-7.803381, 41.874857], [-7.804914, 41.869459], [-7.813032, 41.871958], [-7.814229, 41.873537], [-7.823863, 41.874013], [-7.825059, 41.875817], [-7.830479, 41.875831], [-7.830789, 41.874031], [-7.832894, 41.874712], [-7.83772, 41.872924], [-7.842528, 41.875187], [-7.841663, 41.866632], [-7.849515, 41.861475], [-7.858542, 41.862622], [-7.859456, 41.860148], [-7.864877, 41.859711], [-7.87033, 41.851395], [-7.873043, 41.850501], [-7.873063, 41.845705], [-7.864359, 41.846352], [-7.852353, 41.844141], [-7.842258, 41.838374], [-7.833697, 41.829281], [-7.830435, 41.820241], [-7.830495, 41.811235], [-7.833688, 41.802261], [-7.841266, 41.79333], [-7.85341, 41.784905], [-7.857699, 41.784488], [-7.853477, 41.781129], [-7.852076, 41.775425], [-7.843954, 41.766337], [-7.843906, 41.75733], [-7.854049, 41.74903], [-7.857919, 41.748463], [-7.867553, 41.748559], [-7.87959, 41.757683], [-7.877757, 41.768884], [-7.868521, 41.775589], [-7.868056, 41.784591], [-7.877451, 41.786463], [-7.889368, 41.793264], [-7.899199, 41.802907], [-7.903434, 41.811954], [-7.903543, 41.820962], [-7.899353, 41.829929], [-7.888553, 41.840374], [-7.874869, 41.845571], [-7.879056, 41.85254], [-7.886268, 41.855932], [-7.888076, 41.855486], [-7.891675, 41.859094], [-7.900698, 41.861588], [-7.904318, 41.859795], [-7.907309, 41.865203], [-7.906095, 41.868126], [-7.910299, 41.871285], [-7.909985, 41.875111], [-7.915391, 41.879397], [-7.921118, 41.877833], [-7.928044, 41.87807], [-7.935283, 41.874707], [-7.937389, 41.87516], [-7.941618, 41.870891], [-7.951254, 41.871132], [-7.956367, 41.87339], [-7.956362, 41.875191], [-7.960878, 41.875648], [-7.962086, 41.874074], [-7.973828, 41.875216], [-7.987996, 41.869157], [-7.990123, 41.860157], [-7.995547, 41.858138], [-7.994047, 41.855211], [-7.996162, 41.851837], [-8.003089, 41.850494], [-8.005804, 41.847346], [-8.007928, 41.838796], [-8.010941, 41.836773], [-8.013965, 41.828899], [-8.017873, 41.831379], [-8.02901, 41.829589], [-8.037134, 41.831171], [-8.041351, 41.828023], [-8.041054, 41.825097], [-8.045268, 41.824425], [-8.046775, 41.821951], [-8.056712, 41.81588], [-8.06664, 41.817012], [-8.072961, 41.813414], [-8.078678, 41.813417], [-8.082892, 41.810493], [-8.091013, 41.812521], [-8.093421, 41.811397], [-8.093723, 41.808471], [-8.101845, 41.809824], [-8.104853, 41.81185], [-8.115984, 41.812302], [-8.123807, 41.808702], [-8.138247, 41.808477], [-8.139751, 41.813203], [-8.14276, 41.812978], [-8.144866, 41.815228], [-8.149078, 41.814777], [-8.153291, 41.817703], [-8.158106, 41.818377], [-8.165326, 41.81815], [-8.173744, 41.808019], [-8.177655, 41.808242], [-8.183676, 41.812741], [-8.190291, 41.809587], [-8.197158, 41.814129], [-8.201063, 41.808724], [-8.204973, 41.807372], [-8.205872, 41.804445], [-8.213692, 41.803765], [-8.217598, 41.80016], [-8.217589, 41.793634], [-8.224207, 41.794303], [-8.229917, 41.791598], [-8.240744, 41.791588], [-8.24074, 41.789338], [-8.244347, 41.787984], [-8.245546, 41.785731], [-8.251257, 41.784375], [-8.251845, 41.777172], [-8.257551, 41.773564], [-8.261762, 41.774235], [-8.271366, 41.766346], [-8.280681, 41.764083], [-8.284038, 41.761109], [-8.284931, 41.757507], [-8.305674, 41.758152], [-8.311096, 41.762195], [-8.318308, 41.761283], [-8.325233, 41.765098], [-8.328234, 41.763292], [-8.336653, 41.763728], [-8.341756, 41.761468], [-8.344765, 41.762363], [-8.349267, 41.760103], [-8.352557, 41.755145], [-8.349814, 41.744122], [-8.352516, 41.743441], [-8.352203, 41.739616], [-8.357897, 41.735103], [-8.362407, 41.735994], [-8.368703, 41.73193], [-8.374122, 41.734845], [-8.384922, 41.73032], [-8.387032, 41.731891], [-8.390686, 41.730532], [-8.386779, 41.725482], [-8.377428, 41.698411], [-8.358111, 41.68029], [-8.353101, 41.671255], [-8.351183, 41.662237], [-8.353637, 41.635229], [-8.357754, 41.617238], [-8.36785, 41.59928], [-8.377473, 41.590325], [-8.384811, 41.58575], [-8.396138, 41.581417], [-8.40887, 41.578696], [-8.432864, 41.578371], [-8.456825, 41.582035], [-8.468791, 41.585812], [-8.504605, 41.608976], [-8.53691, 41.626931], [-8.543431, 41.61462], [-8.554533, 41.615255], [-8.557244, 41.617046], [-8.562639, 41.61635], [-8.568056, 41.619031], [-8.570735, 41.616095], [-8.577321, 41.614269], [-8.581231, 41.615829], [-8.586066, 41.620987], [-8.591462, 41.620515], [-8.596534, 41.616668], [-8.601628, 41.615972], [-8.604726, 41.611458], [-8.60062, 41.608474], [-8.588719, 41.592759], [-8.559771, 41.546131], [-8.555845, 41.537108], [-8.554491, 41.528096], [-8.555703, 41.519093], [-8.560351, 41.510104], [-8.56956, 41.501131], [-8.589368, 41.49014], [-8.601368, 41.486874], [-8.613345, 41.487112], [-8.625303, 41.490818], [-8.683714, 41.519516], [-8.697156, 41.52856], [-8.707208, 41.537593], [-8.7138, 41.546617], [-8.717465, 41.555634], [-8.718154, 41.573571]], [[-8.190749, 41.754283], [-8.178615, 41.762584], [-8.166563, 41.764278], [-8.154557, 41.762408], [-8.118686, 41.746459], [-8.106806, 41.735808], [-8.100232, 41.723596], [-8.096582, 41.705553], [-8.09925, 41.696567], [-8.107458, 41.688748], [-8.122296, 41.678731], [-8.130253, 41.669785], [-8.124007, 41.66073], [-8.110442, 41.651619], [-8.100249, 41.642532], [-8.096187, 41.635431], [-8.080971, 41.624366], [-8.074762, 41.615309], [-8.078496, 41.606332], [-8.084672, 41.600738], [-8.12086, 41.586859], [-8.132895, 41.58399], [-8.14489, 41.584187], [-8.156838, 41.58793], [-8.168755, 41.594206], [-8.1806, 41.606353], [-8.186164, 41.616151], [-8.188343, 41.625174], [-8.187968, 41.634178], [-8.18487, 41.643164], [-8.164333, 41.670037], [-8.165256, 41.679051], [-8.179167, 41.719256], [-8.189696, 41.733268], [-8.194239, 41.742307], [-8.192953, 41.751305], [-8.190749, 41.754283]], [[-8.288101, 41.742927], [-8.291633, 41.751956], [-8.286966, 41.755228], [-8.277121, 41.751865], [-8.284892, 41.742907], [-8.288101, 41.742927]], [[-8.010692, 41.730264], [-8.013904, 41.731894], [-8.010596, 41.736523], [-8.007658, 41.73184], [-8.010692, 41.730264]], [[-8.046891, 41.721641], [-8.033604, 41.714047], [-8.026044, 41.704977], [-8.023313, 41.690822], [-8.020934, 41.686919], [-7.999674, 41.677729], [-7.989883, 41.668637], [-7.988622, 41.659618], [-7.992268, 41.650643], [-7.999992, 41.644872], [-8.012073, 41.640041], [-8.024086, 41.639693], [-8.036034, 41.643604], [-8.045107, 41.651095], [-8.049184, 41.660135], [-8.045283, 41.678117], [-8.059438, 41.685646], [-8.070616, 41.696339], [-8.073109, 41.705366], [-8.069769, 41.714346], [-8.05891, 41.721892], [-8.046891, 41.721641]], [[-8.083552, 41.679801], [-8.081603, 41.678413], [-8.083591, 41.677044], [-8.09599, 41.678527], [-8.083552, 41.679801]], [[-8.349409, 41.527009], [-8.337424, 41.526927], [-8.325471, 41.523703], [-8.313574, 41.515307], [-8.302737, 41.499823], [-8.299279, 41.490794], [-8.298206, 41.472773], [-8.302152, 41.462985], [-8.31425, 41.451219], [-8.326267, 41.446891], [-8.338247, 41.446011], [-8.350203, 41.447589], [-8.36212, 41.453173], [-8.372088, 41.464193], [-8.376318, 41.473223], [-8.379159, 41.491253], [-8.374956, 41.509245], [-8.361429, 41.523534], [-8.349409, 41.527009]], [[-8.44554, 41.498825], [-8.433505, 41.504958], [-8.421514, 41.50603], [-8.409566, 41.502211], [-8.399807, 41.491363], [-8.397212, 41.482342], [-8.397844, 41.474182], [-8.402424, 41.464354], [-8.40998, 41.456552], [-8.422001, 41.451165], [-8.433981, 41.450322], [-8.445926, 41.45347], [-8.458589, 41.464632], [-8.461404, 41.473653], [-8.459351, 41.482651], [-8.453653, 41.491631], [-8.44554, 41.498825]], [[-8.719818, 41.48358], [-8.709606, 41.492562], [-8.697148, 41.497939], [-8.685155, 41.500307], [-8.673175, 41.500127], [-8.661207, 41.49746], [-8.649254, 41.492318], [-8.638552, 41.483354], [-8.632816, 41.474328], [-8.631356, 41.465316], [-8.63344, 41.456315], [-8.637512, 41.449608], [-8.649541, 41.439127], [-8.66154, 41.433499], [-8.673521, 41.431174], [-8.685491, 41.430925], [-8.697451, 41.432801], [-8.7096, 41.438517], [-8.719815, 41.44755], [-8.724901, 41.45657], [-8.726521, 41.465581], [-8.724955, 41.474585], [-8.719818, 41.48358]]], [[[-8.102597, 41.54108], [-8.10954, 41.537531], [-8.112037, 41.525531], [-8.109721, 41.524366], [-8.096228, 41.525407], [-8.095978, 41.534574], [-8.097774, 41.537927], [-8.102597, 41.54108]]]]}}, {"id": "2", "type": "Feature", "properties": {"fill": "#a3a3a3", "value_min": 0.75, "value_max": 1.0}, "geometry": {"type": "MultiPolygon", "coordinates": [[[[-7.729358, 41.817593], [-7.7445, 41.815881], [-7.760939, 41.810506], [-7.773325, 41.801632], [-7.778972, 41.792685], [-7.781074, 41.783701], [-7.778078, 41.765655], [-7.769791, 41.75252], [-7.758673, 41.742898], [-7.757456, 41.745525], [-7.747812, 41.749995], [-7.747786, 41.754496], [-7.743866, 41.756509], [-7.740214, 41.763924], [-7.726937, 41.771755], [-7.7254, 41.777152], [-7.727191, 41.779184], [-7.724177, 41.780299], [-7.725372, 41.781653], [-7.722296, 41.792446], [-7.728879, 41.797871], [-7.727026, 41.805517], [-7.729358, 41.817593]]], [[[-7.861342, 41.68527], [-7.867002, 41.696347], [-7.867962, 41.703528], [-7.8653, 41.712509], [-7.858694, 41.72145], [-7.861872, 41.730489], [-7.899486, 41.748869], [-7.908762, 41.757964], [-7.914527, 41.767026], [-7.925782, 41.774855], [-7.937784, 41.776646], [-7.961848, 41.776768], [-7.97396, 41.771754], [-7.977759, 41.767606], [-7.978643, 41.758607], [-7.963964, 41.731455], [-7.961555, 41.722426], [-7.960902, 41.695399], [-7.958616, 41.686371], [-7.952456, 41.677308], [-7.939587, 41.667127], [-7.927672, 41.661276], [-7.915721, 41.657693], [-7.897533, 41.655603], [-7.902319, 41.66015], [-7.899913, 41.66127], [-7.900198, 41.665547], [-7.898396, 41.665769], [-7.897186, 41.668467], [-7.892682, 41.668683], [-7.892377, 41.670033], [-7.888171, 41.670925], [-7.883969, 41.67069], [-7.880358, 41.673159], [-7.877044, 41.676077], [-7.876723, 41.681253], [-7.873401, 41.686198], [-7.868896, 41.686413], [-7.868008, 41.68326], [-7.861342, 41.68527]], [[-7.890417, 41.732367], [-7.87708, 41.721631], [-7.877866, 41.712632], [-7.891003, 41.698304], [-7.903044, 41.696951], [-7.917741, 41.704008], [-7.922899, 41.713063], [-7.921621, 41.722058], [-7.910839, 41.730963], [-7.90242, 41.733635], [-7.890417, 41.732367]]], [[[-8.53691, 41.626931], [-8.504605, 41.608976], [-8.468791, 41.585812], [-8.456825, 41.582035], [-8.432864, 41.578371], [-8.40887, 41.578696], [-8.396138, 41.581417], [-8.384811, 41.58575], [-8.377473, 41.590325], [-8.36785, 41.59928], [-8.357754, 41.617238], [-8.353637, 41.635229], [-8.351183, 41.662237], [-8.353101, 41.671255], [-8.358111, 41.68029], [-8.377428, 41.698411], [-8.386779, 41.725482], [-8.390686, 41.730532], [-8.396942, 41.730518], [-8.400531, 41.726683], [-8.402934, 41.726452], [-8.404721, 41.722847], [-8.417349, 41.725067], [-8.422737, 41.720552], [-8.429643, 41.719859], [-8.430533, 41.717381], [-8.435927, 41.714441], [-8.441333, 41.714201], [-8.4446, 41.70654], [-8.453868, 41.697961], [-8.453255, 41.695487], [-8.461659, 41.694563], [-8.467939, 41.689593], [-8.478124, 41.685061], [-8.482012, 41.682123], [-8.484371, 41.674238], [-8.49308, 41.674886], [-8.499963, 41.671038], [-8.50927, 41.671233], [-8.51018, 41.672806], [-8.511967, 41.670324], [-8.509856, 41.668755], [-8.512252, 41.667847], [-8.514629, 41.663788], [-8.522103, 41.658811], [-8.525706, 41.659023], [-8.527769, 41.652714], [-8.534066, 41.652017], [-8.537951, 41.649302], [-8.537634, 41.646602], [-8.543876, 41.637352], [-8.543855, 41.633976], [-8.535739, 41.631529], [-8.53691, 41.626931]], [[-8.444197, 41.655645], [-8.432216, 41.652325], [-8.420273, 41.644967], [-8.4118, 41.635542], [-8.409155, 41.626521], [-8.410802, 41.617522], [-8.418838, 41.608556], [-8.432652, 41.602579], [-8.444662, 41.601543], [-8.456646, 41.603457], [-8.468599, 41.609134], [-8.4782, 41.617848], [-8.48266, 41.626875], [-8.482765, 41.635883], [-8.477926, 41.644868], [-8.468247, 41.652033], [-8.456207, 41.655627], [-8.444197, 41.655645]]], [[[-8.046891, 41.721641], [-8.05891, 41.721892], [-8.069769, 41.714346], [-8.073109, 41.705366], [-8.070616, 41.696339], [-8.059438, 41.685646], [-8.045283, 41.678117], [-8.049184, 41.660135], [-8.045107, 41.651095], [-8.036034, 41.643604], [-8.024086, 41.639693], [-8.012073, 41.640041], [-7.999992, 41.644872], [-7.992268, 41.650643], [-7.988622, 41.659618], [-7.989883, 41.668637], [-7.999674, 41.677729], [-8.020934, 41.686919], [-8.023313, 41.690822], [-8.026044, 41.704977], [-8.033604, 41.714047], [-8.046891, 41.721641]]], [[[-8.083552, 41.679801], [-8.09599, 41.678527], [-8.083591, 41.677044], [-8.081603, 41.678413], [-8.083552, 41.679801]]], [[[-8.718154, 41.573571], [-8.717465, 41.555634], [-8.7138, 41.546617], [-8.707208, 41.537593], [-8.697156, 41.52856], [-8.683714, 41.519516], [-8.625303, 41.490818], [-8.613345, 41.487112], [-8.601368, 41.486874], [-8.589368, 41.49014], [-8.56956, 41.501131], [-8.560351, 41.510104], [-8.555703, 41.519093], [-8.554491, 41.528096], [-8.555845, 41.537108], [-8.559771, 41.546131], [-8.588719, 41.592759], [-8.60062, 41.608474], [-8.604726, 41.611458], [-8.613256, 41.606696], [-8.619881, 41.610269], [-8.621338, 41.604636], [-8.628833, 41.604378], [-8.6366, 41.600518], [-8.639873, 41.597352], [-8.640152, 41.59465], [-8.645536, 41.593051], [-8.646744, 41.594171], [-8.649125, 41.591909], [-8.656622, 41.5921], [-8.660788, 41.588255], [-8.663794, 41.589141], [-8.665265, 41.585758], [-8.66948, 41.587989], [-8.684455, 41.586117], [-8.685608, 41.58071], [-8.697261, 41.576376], [-8.701703, 41.570277], [-8.707704, 41.570923], [-8.712485, 41.569323], [-8.715818, 41.573357], [-8.718154, 41.573571]], [[-8.636885, 41.56196], [-8.62489, 41.562309], [-8.612912, 41.559913], [-8.600957, 41.553853], [-8.589045, 41.54131], [-8.584609, 41.528208], [-8.586629, 41.519208], [-8.593433, 41.510225], [-8.601256, 41.505117], [-8.613259, 41.50169], [-8.625238, 41.502043], [-8.637201, 41.505522], [-8.646826, 41.510402], [-8.658303, 41.519444], [-8.664125, 41.528468], [-8.665597, 41.53748], [-8.66094, 41.548692], [-8.648897, 41.558371], [-8.636885, 41.56196]]], [[[-8.349409, 41.527009], [-8.361429, 41.523534], [-8.374956, 41.509245], [-8.379159, 41.491253], [-8.376318, 41.473223], [-8.372088, 41.464193], [-8.36212, 41.453173], [-8.350203, 41.447589], [-8.338247, 41.446011], [-8.326267, 41.446891], [-8.31425, 41.451219], [-8.302152, 41.462985], [-8.298206, 41.472773], [-8.299279, 41.490794], [-8.302737, 41.499823], [-8.313574, 41.515307], [-8.325471, 41.523703], [-8.337424, 41.526927], [-8.349409, 41.527009]], [[-8.337671, 41.502662], [-8.325754, 41.496439], [-8.321773, 41.490929], [-8.321853, 41.481922], [-8.32596, 41.476551], [-8.337995, 41.470888], [-8.35105, 41.473083], [-8.360201, 41.482142], [-8.360577, 41.491152], [-8.349664, 41.50156], [-8.337671, 41.502662]]], [[[-8.206403, 41.376969], [-8.205307, 41.382094], [-8.212929, 41.391154], [-8.21916, 41.393759], [-8.231126, 41.393401], [-8.235654, 41.391307], [-8.243214, 41.38235], [-8.240466, 41.373324], [-8.237242, 41.371092], [-8.232024, 41.369971], [-8.224854, 41.370878], [-8.21738, 41.368182], [-8.212011, 41.375839], [-8.206403, 41.376969]]]]}}, {"id": "1", "type": "Feature", "properties": {"fill": "#a3a3a3", "value_min": 0.5, "value_max": 0.75}, "geometry": {"type": "MultiPolygon", "coordinates": [[[[-7.890417, 41.732367], [-7.90242, 41.733635], [-7.910839, 41.730963], [-7.921621, 41.722058], [-7.922899, 41.713063], [-7.917741, 41.704008], [-7.903044, 41.696951], [-7.891003, 41.698304], [-7.877866, 41.712632], [-7.87708, 41.721631], [-7.890417, 41.732367]], [[-7.890567, 41.712755], [-7.890758, 41.712561], [-7.902207, 41.712867], [-7.890705, 41.71566], [-7.890567, 41.712755]]], [[[-8.444197, 41.655645], [-8.456207, 41.655627], [-8.468247, 41.652033], [-8.477926, 41.644868], [-8.482765, 41.635883], [-8.48266, 41.626875], [-8.4782, 41.617848], [-8.468599, 41.609134], [-8.456646, 41.603457], [-8.444662, 41.601543], [-8.432652, 41.602579], [-8.418838, 41.608556], [-8.410802, 41.617522], [-8.409155, 41.626521], [-8.4118, 41.635542], [-8.420273, 41.644967], [-8.432216, 41.652325], [-8.444197, 41.655645]], [[-8.437335, 41.63567], [-8.430342, 41.626628], [-8.432476, 41.622715], [-8.43919, 41.617664], [-8.444536, 41.61613], [-8.450763, 41.61772], [-8.456497, 41.621201], [-8.45996, 41.626771], [-8.456387, 41.634296], [-8.444347, 41.638206], [-8.437335, 41.63567]]], [[[-8.636885, 41.56196], [-8.648897, 41.558371], [-8.66094, 41.548692], [-8.665597, 41.53748], [-8.664125, 41.528468], [-8.658303, 41.519444], [-8.646826, 41.510402], [-8.637201, 41.505522], [-8.625238, 41.502043], [-8.613259, 41.50169], [-8.601256, 41.505117], [-8.593433, 41.510225], [-8.586629, 41.519208], [-8.584609, 41.528208], [-8.589045, 41.54131], [-8.600957, 41.553853], [-8.612912, 41.559913], [-8.62489, 41.562309], [-8.636885, 41.56196]], [[-8.624994, 41.544305], [-8.613021, 41.541604], [-8.607224, 41.537295], [-8.602245, 41.528271], [-8.604962, 41.519273], [-8.613189, 41.513317], [-8.625184, 41.511408], [-8.637144, 41.515703], [-8.642099, 41.519394], [-8.645944, 41.528414], [-8.642179, 41.537409], [-8.637, 41.541463], [-8.624994, 41.544305]]], [[[-8.337671, 41.502662], [-8.349664, 41.50156], [-8.360577, 41.491152], [-8.360201, 41.482142], [-8.35105, 41.473083], [-8.337995, 41.470888], [-8.32596, 41.476551], [-8.321853, 41.481922], [-8.321773, 41.490929], [-8.325754, 41.496439], [-8.337671, 41.502662]]]]}}, {"id": "0", "type": "Feature", "properties": {"fill": "#a3a3a3", "value_min": 0.25, "value_max": 0.5}, "geometry": {"type": "MultiPolygon", "coordinates": [[[[-7.890567, 41.712755], [-7.890705, 41.71566], [-7.902207, 41.712867], [-7.890758, 41.712561], [-7.890567, 41.712755]]], [[[-8.437335, 41.63567], [-8.444347, 41.638206], [-8.456387, 41.634296], [-8.45996, 41.626771], [-8.456497, 41.621201], [-8.450763, 41.61772], [-8.444536, 41.61613], [-8.43919, 41.617664], [-8.432476, 41.622715], [-8.430342, 41.626628], [-8.437335, 41.63567]]], [[[-8.624994, 41.544305], [-8.637, 41.541463], [-8.642179, 41.537409], [-8.645944, 41.528414], [-8.642099, 41.519394], [-8.637144, 41.515703], [-8.625184, 41.511408], [-8.613189, 41.513317], [-8.604962, 41.519273], [-8.602245, 41.528271], [-8.607224, 41.537295], [-8.613021, 41.541604], [-8.624994, 41.544305]]]]}}]}