{"type": "FeatureCollection", "features": [{"id": "1", "type": "Feature", "properties": {"fill": "#a3a3a3", "value_min": 0.25, "value_max": -0.5}, "geometry": {"type": "MultiPolygon", "coordinates": [[[[-8.105061, 41.678598], [-8.102682, 41.669573], [-8.095791, 41.663765], [-8.083794, 41.662775], [-8.073118, 41.669338], [-8.069744, 41.678318], [-8.076388, 41.687378], [-8.083399, 41.690592], [-8.09544, 41.688848], [-8.105061, 41.678598]], [[-8.09496, 41.678519], [-8.095585, 41.678504], [-8.095598, 41.678524], [-8.095585, 41.678538], [-8.09496, 41.678519]]], [[[-8.468315, 41.643775], [-8.476579, 41.635855], [-8.478538, 41.626857], [-8.475419, 41.617835], [-8.468582, 41.611223], [-8.456633, 41.604981], [-8.444646, 41.603309], [-8.432628, 41.605325], [-8.426474, 41.608594], [-8.417779, 41.617558], [-8.416544, 41.626559], [-8.420886, 41.635588], [-8.432283, 41.644734], [-8.444258, 41.648501], [-8.456269, 41.648309], [-8.468315, 41.643775]], [[-8.439507, 41.626673], [-8.444481, 41.622645], [-8.450927, 41.626728], [-8.444408, 41.631065], [-8.439507, 41.626673]]], [[[-8.096222, 41.632981], [-8.106939, 41.62457], [-8.112508, 41.615606], [-8.112239, 41.606597], [-8.108664, 41.601316], [-8.096769, 41.593756], [-8.08479, 41.592359], [-8.072752, 41.595151], [-8.059976, 41.606182], [-8.057978, 41.615172], [-8.061791, 41.624211], [-8.072217, 41.632499], [-8.084175, 41.635871], [-8.096222, 41.632981]], [[-8.084412, 41.619157], [-8.081083, 41.615359], [-8.084518, 41.611654], [-8.096477, 41.614691], [-8.096456, 41.61618], [-8.084412, 41.619157]]], [[[-8.517263, 41.52089], [-8.521773, 41.50995], [-8.519345, 41.500932], [-8.511718, 41.491893], [-8.50553, 41.487678], [-8.493581, 41.483905], [-8.481602, 41.483883], [-8.469592, 41.487787], [-8.456111, 41.50065], [-8.453319, 41.509645], [-8.458675, 41.518677], [-8.481222, 41.531563], [-8.493197, 41.533123], [-8.505206, 41.530332], [-8.509992, 41.527915], [-8.517263, 41.52089]], [[-8.481297, 41.522104], [-8.474034, 41.518749], [-8.468463, 41.509716], [-8.481478, 41.499448], [-8.49344, 41.501906], [-8.499874, 41.509856], [-8.496173, 41.518848], [-8.493295, 41.520547], [-8.481297, 41.522104]]], [[[-8.536088, 41.212188], [-8.533188, 41.221752], [-8.537682, 41.230778], [-8.543239, 41.234841], [-8.555147, 41.238467], [-8.567092, 41.236736], [-8.576188, 41.230927], [-8.580671, 41.221935], [-8.578535, 41.212919], [-8.567983, 41.204644], [-8.565895, 41.206227], [-8.567697, 41.208246], [-8.566512, 41.209376], [-8.559636, 41.206251], [-8.554271, 41.20627], [-8.549521, 41.209214], [-8.544157, 41.209458], [-8.54238, 41.211265], [-8.536088, 41.212188]]]]}}, {"id": "2", "type": "Feature", "properties": {"fill": "#a3a3a3", "value_min": 0.5, "value_max": -0.75}, "geometry": {"type": "MultiPolygon", "coordinates": [[[[-7.728487, 41.812492], [-7.744591, 41.811195], [-7.756709, 41.807091], [-7.765145, 41.801544], [-7.77207, 41.792612], [-7.774229, 41.783628], [-7.772743, 41.774605], [-7.769485, 41.768521], [-7.757683, 41.756659], [-7.747502, 41.751577], [-7.747786, 41.754496], [-7.743866, 41.756509], [-7.740214, 41.763924], [-7.728449, 41.77041], [-7.725406, 41.776252], [-7.727191, 41.779184], [-7.724177, 41.780299], [-7.725372, 41.781653], [-7.722296, 41.792446], [-7.728879, 41.797871], [-7.72705, 41.801691], [-7.728487, 41.812492]]], [[[-7.985274, 41.603564], [-7.984131, 41.623551], [-7.985776, 41.650586], [-7.993342, 41.668667], [-8.02329, 41.692349], [-8.030023, 41.70501], [-8.038956, 41.714092], [-8.046937, 41.718524], [-8.058949, 41.719229], [-8.06899, 41.71434], [-8.07882, 41.705412], [-8.095333, 41.696511], [-8.117217, 41.678692], [-8.121841, 41.669721], [-8.123633, 41.660727], [-8.118136, 41.642671], [-8.118852, 41.633669], [-8.132412, 41.620082], [-8.141958, 41.61583], [-8.150847, 41.606889], [-8.153256, 41.597899], [-8.151949, 41.588882], [-8.147005, 41.579839], [-8.133116, 41.567511], [-8.109244, 41.559103], [-8.073495, 41.55289], [-8.075891, 41.554575], [-8.076188, 41.557276], [-8.080082, 41.558854], [-8.081576, 41.565157], [-8.078879, 41.56493], [-8.075279, 41.568305], [-8.073182, 41.568079], [-8.069283, 41.570553], [-8.068081, 41.573478], [-8.056684, 41.579549], [-8.052181, 41.584498], [-8.052777, 41.587649], [-8.037169, 41.600242], [-8.031467, 41.602938], [-8.02367, 41.603156], [-8.019174, 41.601802], [-8.015872, 41.603824], [-8.013474, 41.603372], [-8.005971, 41.60629], [-8.003562, 41.611239], [-7.99936, 41.61281], [-7.998462, 41.612359], [-7.999669, 41.608759], [-7.996976, 41.605829], [-7.996684, 41.602003], [-7.985274, 41.603564]], [[-8.105061, 41.678598], [-8.09544, 41.688848], [-8.083399, 41.690592], [-8.076388, 41.687378], [-8.069744, 41.678318], [-8.073118, 41.669338], [-8.083794, 41.662775], [-8.095791, 41.663765], [-8.102682, 41.669573], [-8.105061, 41.678598]], [[-8.096222, 41.632981], [-8.084175, 41.635871], [-8.072217, 41.632499], [-8.061791, 41.624211], [-8.057978, 41.615172], [-8.059976, 41.606182], [-8.072752, 41.595151], [-8.08479, 41.592359], [-8.096769, 41.593756], [-8.108664, 41.601316], [-8.112239, 41.606597], [-8.112508, 41.615606], [-8.106939, 41.62457], [-8.096222, 41.632981]]], [[[-8.544305, 41.614842], [-8.53903, 41.609101], [-8.504715, 41.594613], [-8.489289, 41.581869], [-8.480907, 41.57099], [-8.456895, 41.573758], [-8.420915, 41.573166], [-8.408904, 41.574977], [-8.396845, 41.581776], [-8.388926, 41.590386], [-8.385031, 41.599373], [-8.384253, 41.608376], [-8.386239, 41.617394], [-8.391147, 41.626427], [-8.409535, 41.644537], [-8.432141, 41.660857], [-8.444112, 41.665501], [-8.456102, 41.668117], [-8.480117, 41.669333], [-8.50417, 41.665793], [-8.513219, 41.663037], [-8.527187, 41.655845], [-8.527769, 41.652714], [-8.532578, 41.652022], [-8.537638, 41.64731], [-8.543876, 41.637352], [-8.543855, 41.633976], [-8.536342, 41.631977], [-8.535128, 41.62973], [-8.542257, 41.618676], [-8.542536, 41.615299], [-8.544305, 41.614842]], [[-8.468315, 41.643775], [-8.456269, 41.648309], [-8.444258, 41.648501], [-8.432283, 41.644734], [-8.420886, 41.635588], [-8.416544, 41.626559], [-8.417779, 41.617558], [-8.426474, 41.608594], [-8.432628, 41.605325], [-8.444646, 41.603309], [-8.456633, 41.604981], [-8.468582, 41.611223], [-8.475419, 41.617835], [-8.478538, 41.626857], [-8.476579, 41.635855], [-8.468315, 41.643775]]], [[[-8.577008, 41.548665], [-8.581312, 41.537204], [-8.58755, 41.492189], [-8.595903, 41.456189], [-8.5948, 41.447178], [-8.590724, 41.438156], [-8.577806, 41.42576], [-8.565881, 41.41946], [-8.541995, 41.412696], [-8.518077, 41.411032], [-8.494129, 41.413308], [-8.482143, 41.415979], [-8.458139, 41.424678], [-8.434084, 41.438444], [-8.422034, 41.447519], [-8.409956, 41.459255], [-8.40687, 41.464377], [-8.402834, 41.473364], [-8.401484, 41.482364], [-8.409462, 41.513642], [-8.412096, 41.518449], [-8.421346, 41.524836], [-8.4453, 41.526881], [-8.457261, 41.52992], [-8.470488, 41.536747], [-8.478497, 41.545791], [-8.481047, 41.553476], [-8.492965, 41.562789], [-8.516999, 41.556383], [-8.528993, 41.556052], [-8.55295, 41.559827], [-8.564947, 41.559207], [-8.571473, 41.555182], [-8.577008, 41.548665]], [[-8.517263, 41.52089], [-8.509992, 41.527915], [-8.505206, 41.530332], [-8.493197, 41.533123], [-8.481222, 41.531563], [-8.458675, 41.518677], [-8.453319, 41.509645], [-8.456111, 41.50065], [-8.469592, 41.487787], [-8.481602, 41.483883], [-8.493581, 41.483905], [-8.50553, 41.487678], [-8.511718, 41.491893], [-8.519345, 41.500932], [-8.521773, 41.50995], [-8.517263, 41.52089]]], [[[-8.468451, 41.245269], [-8.480748, 41.257559], [-8.495266, 41.26625], [-8.519087, 41.273832], [-8.531018, 41.275111], [-8.554907, 41.273883], [-8.566864, 41.271198], [-8.578834, 41.266541], [-8.590815, 41.259765], [-8.602232, 41.249035], [-8.607815, 41.240046], [-8.611287, 41.222043], [-8.610125, 41.213031], [-8.603146, 41.194654], [-8.59132, 41.178588], [-8.585303, 41.173513], [-8.582094, 41.177803], [-8.578825, 41.178941], [-8.581296, 41.191762], [-8.575958, 41.195609], [-8.576894, 41.201908], [-8.574515, 41.202593], [-8.57423, 41.20462], [-8.567983, 41.204644], [-8.578535, 41.212919], [-8.580671, 41.221935], [-8.576188, 41.230927], [-8.567092, 41.236736], [-8.555147, 41.238467], [-8.543239, 41.234841], [-8.537682, 41.230778], [-8.533188, 41.221752], [-8.536088, 41.212188], [-8.532257, 41.213102], [-8.531648, 41.211078], [-8.529858, 41.210859], [-8.52713, 41.203215], [-8.523236, 41.200077], [-8.51163, 41.203042], [-8.510456, 41.206197], [-8.505693, 41.207113], [-8.504239, 41.213646], [-8.500076, 41.21546], [-8.50308, 41.219502], [-8.502204, 41.222656], [-8.495642, 41.222227], [-8.495947, 41.223351], [-8.490894, 41.226294], [-8.487935, 41.230354], [-8.490331, 41.232373], [-8.489156, 41.235528], [-8.486181, 41.236888], [-8.484411, 41.240495], [-8.476644, 41.237817], [-8.475756, 41.23917], [-8.471283, 41.239184], [-8.471604, 41.243459], [-8.468451, 41.245269]]]]}}, {"id": "4", "type": "Feature", "properties": {"fill": "#90a4bc", "value_min": 1.0, "value_max": -1.25}, "geometry": {"type": "MultiPolygon", "coordinates": [[[[-8.02609, 41.830261], [-8.018703, 41.822004], [-8.007089, 41.812897], [-7.973578, 41.79573], [-7.961036, 41.785469], [-7.949735, 41.781666], [-7.937702, 41.781616], [-7.926408, 41.785151], [-7.913421, 41.79435], [-7.901343, 41.79678], [-7.888888, 41.793801], [-7.877408, 41.788891], [-7.865409, 41.786873], [-7.860219, 41.79352], [-7.853182, 41.797679], [-7.845919, 41.811391], [-7.846702, 41.820405], [-7.852569, 41.83203], [-7.857939, 41.838531], [-7.866018, 41.858588], [-7.87033, 41.851395], [-7.873043, 41.850501], [-7.873367, 41.844875], [-7.879056, 41.85254], [-7.886268, 41.855932], [-7.888076, 41.855486], [-7.891675, 41.859094], [-7.900698, 41.861588], [-7.904318, 41.859795], [-7.907309, 41.865203], [-7.906095, 41.868126], [-7.910299, 41.871285], [-7.909985, 41.875111], [-7.915391, 41.879397], [-7.921118, 41.877833], [-7.928044, 41.87807], [-7.935283, 41.874707], [-7.937389, 41.87516], [-7.941618, 41.870891], [-7.951254, 41.871132], [-7.956367, 41.87339], [-7.956362, 41.875191], [-7.960878, 41.875648], [-7.962086, 41.874074], [-7.973828, 41.875216], [-7.987996, 41.869157], [-7.990123, 41.860157], [-7.995547, 41.858138], [-7.994047, 41.855211], [-7.996162, 41.851837], [-8.003089, 41.850494], [-8.005804, 41.847346], [-8.007928, 41.838796], [-8.012753, 41.833624], [-8.013062, 41.829348], [-8.017873, 41.831379], [-8.02609, 41.830261]], [[-7.945617, 41.848376], [-7.938879, 41.839308], [-7.948905, 41.832452], [-7.962257, 41.839521], [-7.960776, 41.843115], [-7.95364, 41.84845], [-7.948623, 41.849709], [-7.945617, 41.848376]]], [[[-8.193, 41.810662], [-8.204971, 41.80648], [-8.205862, 41.80602], [-8.205873, 41.806015], [-8.205872, 41.804445], [-8.208825, 41.804443], [-8.217341, 41.79881], [-8.217589, 41.793634], [-8.222414, 41.79363], [-8.231391, 41.778589], [-8.239572, 41.742616], [-8.243709, 41.733636], [-8.262526, 41.706738], [-8.265072, 41.697747], [-8.263641, 41.688731], [-8.258855, 41.679693], [-8.247784, 41.670614], [-8.239895, 41.666711], [-8.227922, 41.663427], [-8.21592, 41.66265], [-8.203893, 41.663952], [-8.191836, 41.667541], [-8.165867, 41.679056], [-8.131504, 41.687701], [-8.115906, 41.696696], [-8.107483, 41.705638], [-8.103709, 41.714616], [-8.102566, 41.732621], [-8.106011, 41.759668], [-8.111833, 41.777727], [-8.117521, 41.786778], [-8.129998, 41.799377], [-8.141944, 41.806204], [-8.153924, 41.81058], [-8.170739, 41.812735], [-8.173744, 41.808019], [-8.177655, 41.808242], [-8.182773, 41.812374], [-8.185179, 41.812099], [-8.185475, 41.812065], [-8.18548, 41.812064], [-8.189991, 41.809587], [-8.193, 41.810662]], [[-8.16668, 41.755258], [-8.158648, 41.751059], [-8.154026, 41.742018], [-8.161814, 41.733068], [-8.166996, 41.730829], [-8.17899, 41.733121], [-8.186154, 41.74225], [-8.182284, 41.75123], [-8.178728, 41.753716], [-8.16668, 41.755258]], [[-8.131027, 41.723125], [-8.123069, 41.714765], [-8.126343, 41.705783], [-8.131315, 41.701723], [-8.143347, 41.70077], [-8.152451, 41.705979], [-8.153974, 41.714997], [-8.143041, 41.723789], [-8.131027, 41.723125]]], [[[-7.885025, 41.766743], [-7.884685, 41.757733], [-7.875345, 41.748635], [-7.866141, 41.745348], [-7.8541, 41.746158], [-7.848694, 41.748371], [-7.840418, 41.757295], [-7.840586, 41.766303], [-7.847835, 41.775383], [-7.853483, 41.78082], [-7.865462, 41.78388], [-7.877569, 41.779671], [-7.885025, 41.766743]]], [[[-8.452373, 41.699212], [-8.443863, 41.694409], [-8.408211, 41.680559], [-8.401349, 41.662509], [-8.396141, 41.657274], [-8.38939, 41.653439], [-8.384188, 41.651264], [-8.372182, 41.650928], [-8.364147, 41.653302], [-8.352875, 41.662247], [-8.350215, 41.671239], [-8.351801, 41.680255], [-8.35956, 41.698312], [-8.358659, 41.716321], [-8.363006, 41.735339], [-8.368703, 41.73193], [-8.374122, 41.734845], [-8.384922, 41.73032], [-8.387032, 41.731891], [-8.393033, 41.729852], [-8.396942, 41.730518], [-8.400531, 41.726683], [-8.402934, 41.726452], [-8.404721, 41.722847], [-8.417349, 41.725067], [-8.422737, 41.720552], [-8.429643, 41.719859], [-8.430533, 41.717381], [-8.435927, 41.714441], [-8.441333, 41.714201], [-8.4446, 41.70654], [-8.452373, 41.699212]]], [[[-8.253662, 41.514581], [-8.258022, 41.50855], [-8.253823, 41.500553], [-8.241873, 41.497832], [-8.238276, 41.499414], [-8.231052, 41.508373], [-8.241638, 41.518013], [-8.253662, 41.514581]]], [[[-8.361631, 41.502979], [-8.368344, 41.491194], [-8.368229, 41.482186], [-8.361948, 41.470746], [-8.350046, 41.463324], [-8.338095, 41.460967], [-8.326105, 41.462526], [-8.314069, 41.468419], [-8.308703, 41.472837], [-8.303907, 41.481815], [-8.303609, 41.490821], [-8.307673, 41.499853], [-8.313684, 41.504904], [-8.325605, 41.510786], [-8.337572, 41.512376], [-8.349578, 41.510146], [-8.361631, 41.502979]]], [[[-8.697196, 41.487685], [-8.701072, 41.483533], [-8.703222, 41.474531], [-8.70011, 41.465516], [-8.688965, 41.456478], [-8.673413, 41.45277], [-8.66143, 41.454728], [-8.649419, 41.461693], [-8.642696, 41.474359], [-8.644523, 41.483372], [-8.654623, 41.49241], [-8.661217, 41.495549], [-8.673189, 41.497332], [-8.685179, 41.495444], [-8.691916, 41.492516], [-8.697196, 41.487685]]], [[[-8.633379, 41.189746], [-8.638094, 41.213122], [-8.647356, 41.240174], [-8.646765, 41.258188], [-8.626369, 41.304884], [-8.621523, 41.312155], [-8.602321, 41.330678], [-8.59567, 41.33909], [-8.591517, 41.348083], [-8.5905, 41.357087], [-8.592544, 41.366102], [-8.598212, 41.375129], [-8.609499, 41.384176], [-8.625877, 41.390984], [-8.637827, 41.392938], [-8.649788, 41.393065], [-8.661758, 41.391564], [-8.697687, 41.381768], [-8.769479, 41.372137], [-8.793417, 41.365137], [-8.808148, 41.358943], [-8.799695, 41.14406], [-8.674793, 41.146932], [-8.674849, 41.153767], [-8.672489, 41.15648], [-8.66117, 41.156307], [-8.662078, 41.158104], [-8.660313, 41.160813], [-8.657033, 41.160378], [-8.654961, 41.161963], [-8.653231, 41.169174], [-8.655366, 41.175467], [-8.647955, 41.180228], [-8.647696, 41.185181], [-8.640929, 41.196241], [-8.634946, 41.193341], [-8.633379, 41.189746]], [[-8.712211, 41.312417], [-8.698042, 41.305012], [-8.694383, 41.294356], [-8.69824, 41.285358], [-8.710103, 41.278898], [-8.722047, 41.278214], [-8.736852, 41.285453], [-8.740928, 41.29447], [-8.738381, 41.303472], [-8.733868, 41.307666], [-8.723553, 41.312445], [-8.712211, 41.312417]], [[-8.686551, 41.210103], [-8.676425, 41.204228], [-8.674703, 41.19379], [-8.686672, 41.18473], [-8.698593, 41.185335], [-8.708755, 41.195307], [-8.706381, 41.204309], [-8.698482, 41.209443], [-8.686551, 41.210103]]]]}}, {"id": "5", "type": "Feature", "properties": {"fill": "#71a5e5", "value_min": 1.25, "value_max": -1.5}, "geometry": {"type": "MultiPolygon", "coordinates": [[[[-7.945617, 41.848376], [-7.948623, 41.849709], [-7.95364, 41.84845], [-7.960776, 41.843115], [-7.962257, 41.839521], [-7.948905, 41.832452], [-7.938879, 41.839308], [-7.945617, 41.848376]]], [[[-8.16668, 41.755258], [-8.178728, 41.753716], [-8.182284, 41.75123], [-8.186154, 41.74225], [-8.17899, 41.733121], [-8.166996, 41.730829], [-8.161814, 41.733068], [-8.154026, 41.742018], [-8.158648, 41.751059], [-8.16668, 41.755258]]], [[[-8.131027, 41.723125], [-8.143041, 41.723789], [-8.153974, 41.714997], [-8.152451, 41.705979], [-8.143347, 41.70077], [-8.131315, 41.701723], [-8.126343, 41.705783], [-8.123069, 41.714765], [-8.131027, 41.723125]]], [[[-8.712211, 41.312417], [-8.723553, 41.312445], [-8.733868, 41.307666], [-8.738381, 41.303472], [-8.740928, 41.29447], [-8.736852, 41.285453], [-8.722047, 41.278214], [-8.710103, 41.278898], [-8.69824, 41.285358], [-8.694383, 41.294356], [-8.698042, 41.305012], [-8.712211, 41.312417]]], [[[-8.686551, 41.210103], [-8.698482, 41.209443], [-8.706381, 41.204309], [-8.708755, 41.195307], [-8.698593, 41.185335], [-8.686672, 41.18473], [-8.674703, 41.19379], [-8.676425, 41.204228], [-8.686551, 41.210103]]]]}}, {"id": "3", "type": "Feature", "properties": {"fill": "#a3a3a3", "value_min": 0.75, "value_max": -1.0}, "geometry": {"type": "MultiPolygon", "coordinates": [[[[-8.544305, 41.614842], [-8.554533, 41.615255], [-8.557244, 41.617046], [-8.562639, 41.61635], [-8.568056, 41.619031], [-8.570735, 41.616095], [-8.577321, 41.614269], [-8.581231, 41.615829], [-8.585766, 41.620988], [-8.591462, 41.620515], [-8.596534, 41.616668], [-8.601628, 41.615972], [-8.603996, 41.611686], [-8.613256, 41.606696], [-8.619881, 41.610269], [-8.621338, 41.604636], [-8.628833, 41.604378], [-8.636302, 41.600744], [-8.64075, 41.594422], [-8.645536, 41.593051], [-8.646744, 41.594171], [-8.649125, 41.591909], [-8.656622, 41.5921], [-8.660788, 41.588255], [-8.663794, 41.589141], [-8.665265, 41.585758], [-8.66948, 41.587989], [-8.684455, 41.586117], [-8.685608, 41.58071], [-8.697261, 41.576376], [-8.701703, 41.570277], [-8.707704, 41.570923], [-8.711586, 41.569327], [-8.716422, 41.573805], [-8.720316, 41.57356], [-8.725151, 41.577811], [-8.726633, 41.576003], [-8.734424, 41.575737], [-8.736564, 41.580228], [-8.738354, 41.579318], [-8.740778, 41.582006], [-8.74467, 41.581535], [-8.750711, 41.58623], [-8.756374, 41.582823], [-8.75635, 41.580347], [-8.762327, 41.578514], [-8.764443, 41.580303], [-8.767441, 41.580286], [-8.769874, 41.583874], [-8.768997, 41.58613], [-8.773228, 41.589482], [-8.775371, 41.593972], [-8.78556, 41.593464], [-8.797327, 41.600599], [-8.804218, 41.600109], [-8.80456, 41.604158], [-8.809434, 41.611332], [-8.828644, 41.609656], [-8.82839, 41.585633], [-8.818497, 41.554794], [-8.8221, 41.547542], [-8.821965, 41.534907], [-8.815926, 41.525624], [-8.81063, 41.5101], [-8.813279, 41.503483], [-8.812636, 41.496944], [-8.804699, 41.482068], [-8.798552, 41.474753], [-8.80154, 41.446836], [-8.806115, 41.43713], [-8.807354, 41.425915], [-8.811166, 41.417099], [-8.808148, 41.358943], [-8.793417, 41.365137], [-8.769479, 41.372137], [-8.697687, 41.381768], [-8.661758, 41.391564], [-8.649788, 41.393065], [-8.637827, 41.392938], [-8.625877, 41.390984], [-8.609499, 41.384176], [-8.598212, 41.375129], [-8.592544, 41.366102], [-8.5905, 41.357087], [-8.591517, 41.348083], [-8.59567, 41.33909], [-8.602321, 41.330678], [-8.621523, 41.312155], [-8.626369, 41.304884], [-8.646765, 41.258188], [-8.647356, 41.240174], [-8.638094, 41.213122], [-8.633379, 41.189746], [-8.625658, 41.186628], [-8.621132, 41.178994], [-8.613374, 41.177451], [-8.608583, 41.174095], [-8.609164, 41.172066], [-8.604942, 41.164881], [-8.59422, 41.165149], [-8.589174, 41.167645], [-8.589194, 41.170572], [-8.586221, 41.171484], [-8.585303, 41.173513], [-8.59132, 41.178588], [-8.603146, 41.194654], [-8.610125, 41.213031], [-8.611287, 41.222043], [-8.607815, 41.240046], [-8.602232, 41.249035], [-8.590815, 41.259765], [-8.578834, 41.266541], [-8.566864, 41.271198], [-8.554907, 41.273883], [-8.531018, 41.275111], [-8.519087, 41.273832], [-8.495266, 41.26625], [-8.480748, 41.257559], [-8.468451, 41.245269], [-8.463258, 41.244384], [-8.459989, 41.246644], [-8.454323, 41.246886], [-8.455541, 41.251834], [-8.452276, 41.25522], [-8.449891, 41.255452], [-8.449304, 41.257479], [-8.447812, 41.257258], [-8.449028, 41.261982], [-8.439785, 41.262907], [-8.438023, 41.268989], [-8.434745, 41.269673], [-8.432691, 41.277107], [-8.427032, 41.279372], [-8.429143, 41.284319], [-8.426171, 41.287028], [-8.426488, 41.291079], [-8.425013, 41.294909], [-8.422037, 41.296942], [-8.422647, 41.299867], [-8.407744, 41.304856], [-8.406262, 41.307335], [-8.403277, 41.307342], [-8.401801, 41.311398], [-8.399712, 41.311628], [-8.400316, 41.313202], [-8.396738, 41.314336], [-8.398835, 41.316131], [-8.393775, 41.31997], [-8.393489, 41.323122], [-8.391105, 41.324253], [-8.386325, 41.323588], [-8.380382, 41.331254], [-8.375305, 41.33104], [-8.37201, 41.328346], [-8.361563, 41.329718], [-8.358276, 41.329049], [-8.357673, 41.327249], [-8.350207, 41.327264], [-8.346032, 41.328847], [-8.342462, 41.333131], [-8.333215, 41.336299], [-8.326363, 41.342163], [-8.324568, 41.341041], [-8.323376, 41.341943], [-8.320676, 41.338121], [-8.312604, 41.334983], [-8.313794, 41.333405], [-8.31139, 41.328007], [-8.307502, 41.325762], [-8.305116, 41.326891], [-8.303024, 41.325994], [-8.303615, 41.323742], [-8.301216, 41.319694], [-8.296431, 41.316774], [-8.297618, 41.313846], [-8.295817, 41.310022], [-8.281801, 41.316569], [-8.279132, 41.324451], [-8.272266, 41.32536], [-8.265709, 41.331221], [-8.269004, 41.336169], [-8.263339, 41.340902], [-8.262751, 41.345405], [-8.256483, 41.347663], [-8.255889, 41.349689], [-8.249622, 41.353072], [-8.251123, 41.356897], [-8.248141, 41.360052], [-8.248448, 41.364328], [-8.245461, 41.364781], [-8.244272, 41.368384], [-8.241287, 41.370413], [-8.224854, 41.370878], [-8.21738, 41.368182], [-8.214399, 41.373587], [-8.208127, 41.376968], [-8.199163, 41.377423], [-8.194677, 41.374275], [-8.191691, 41.376302], [-8.189299, 41.375403], [-8.184818, 41.376756], [-8.168382, 41.377438], [-8.164499, 41.38059], [-8.152544, 41.375866], [-8.151049, 41.37339], [-8.145073, 41.374742], [-8.139694, 41.377894], [-8.133418, 41.374292], [-8.125051, 41.375193], [-8.119672, 41.376768], [-8.119672, 41.378569], [-8.116683, 41.380144], [-8.117877, 41.385771], [-8.113992, 41.386896], [-8.112795, 41.390723], [-8.110105, 41.390947], [-8.108011, 41.393648], [-8.103827, 41.392972], [-8.105321, 41.394998], [-8.10263, 41.396123], [-8.10801, 41.398825], [-8.108606, 41.403102], [-8.104419, 41.406252], [-8.104119, 41.408728], [-8.101727, 41.409403], [-8.102025, 41.411204], [-8.092756, 41.411201], [-8.09126, 41.414352], [-8.079893, 41.41975], [-8.077503, 41.416597], [-8.070923, 41.41862], [-8.066739, 41.416142], [-8.061654, 41.417489], [-8.059852, 41.424916], [-8.055959, 41.429415], [-8.05745, 41.432793], [-8.056549, 41.436394], [-8.069999, 41.447206], [-8.068788, 41.462286], [-8.073872, 41.46499], [-8.074468, 41.468141], [-8.073564, 41.474668], [-8.066374, 41.482318], [-8.066069, 41.48817], [-8.072054, 41.490199], [-8.07175, 41.494925], [-8.078333, 41.49898], [-8.078332, 41.500331], [-8.093, 41.504613], [-8.089398, 41.519242], [-8.090594, 41.522169], [-8.093588, 41.52307], [-8.091487, 41.531173], [-8.097775, 41.536127], [-8.097774, 41.537927], [-8.106759, 41.543106], [-8.10616, 41.543782], [-8.101666, 41.542655], [-8.094175, 41.544904], [-8.087885, 41.542876], [-8.083389, 41.5449], [-8.081886, 41.550977], [-8.079489, 41.551876], [-8.074097, 41.549848], [-8.073495, 41.55289], [-8.109244, 41.559103], [-8.133116, 41.567511], [-8.147005, 41.579839], [-8.151949, 41.588882], [-8.153256, 41.597899], [-8.150847, 41.606889], [-8.141958, 41.61583], [-8.132412, 41.620082], [-8.118852, 41.633669], [-8.118136, 41.642671], [-8.123633, 41.660727], [-8.121841, 41.669721], [-8.117217, 41.678692], [-8.095333, 41.696511], [-8.07882, 41.705412], [-8.06899, 41.71434], [-8.058949, 41.719229], [-8.046937, 41.718524], [-8.038956, 41.714092], [-8.030023, 41.70501], [-8.02329, 41.692349], [-7.993342, 41.668667], [-7.985776, 41.650586], [-7.984131, 41.623551], [-7.985274, 41.603564], [-7.983492, 41.600861], [-7.979592, 41.601531], [-7.975689, 41.603552], [-7.974482, 41.606701], [-7.970882, 41.607147], [-7.969091, 41.603768], [-7.965796, 41.602413], [-7.9541, 41.602846], [-7.952606, 41.600592], [-7.947808, 41.60081], [-7.945413, 41.599456], [-7.942725, 41.595625], [-7.936132, 41.594488], [-7.93791, 41.601694], [-7.937004, 41.603718], [-7.931604, 41.604384], [-7.930979, 41.612711], [-7.925556, 41.620354], [-7.920755, 41.620796], [-7.917748, 41.623041], [-7.915933, 41.627764], [-7.913229, 41.628885], [-7.912613, 41.63361], [-7.906014, 41.633147], [-7.906884, 41.641927], [-7.897869, 41.645511], [-7.89696, 41.647985], [-7.892759, 41.647976], [-7.892145, 41.651576], [-7.902319, 41.659925], [-7.899913, 41.66127], [-7.900198, 41.665547], [-7.898396, 41.665769], [-7.897186, 41.668467], [-7.892682, 41.668683], [-7.892377, 41.670033], [-7.888171, 41.670925], [-7.883969, 41.67069], [-7.880358, 41.673159], [-7.877044, 41.676077], [-7.876723, 41.681253], [-7.873401, 41.686198], [-7.868896, 41.686413], [-7.868008, 41.68326], [-7.864403, 41.683701], [-7.864096, 41.685276], [-7.858987, 41.68639], [-7.857773, 41.689538], [-7.854776, 41.68818], [-7.847538, 41.695365], [-7.837912, 41.698942], [-7.835792, 41.702763], [-7.839682, 41.705924], [-7.838465, 41.709522], [-7.832453, 41.710407], [-7.825252, 41.708813], [-7.818621, 41.713522], [-7.815291, 41.718689], [-7.808986, 41.717996], [-7.808396, 41.715744], [-7.804499, 41.714158], [-7.79939, 41.714593], [-7.79788, 41.716164], [-7.796383, 41.71526], [-7.790966, 41.717044], [-7.789449, 41.719966], [-7.78464, 41.720402], [-7.78252, 41.723546], [-7.776204, 41.724652], [-7.773786, 41.727346], [-7.770798, 41.72441], [-7.765698, 41.723044], [-7.761765, 41.727758], [-7.762933, 41.733839], [-7.759307, 41.737203], [-7.759597, 41.739005], [-7.75689, 41.739446], [-7.758687, 41.740577], [-7.757758, 41.745301], [-7.749323, 41.748649], [-7.747502, 41.751577], [-7.757683, 41.756659], [-7.769485, 41.768521], [-7.772743, 41.774605], [-7.774229, 41.783628], [-7.77207, 41.792612], [-7.765145, 41.801544], [-7.756709, 41.807091], [-7.744591, 41.811195], [-7.728487, 41.812492], [-7.728761, 41.816776], [-7.732041, 41.821514], [-7.74345, 41.825605], [-7.738918, 41.82874], [-7.742196, 41.833928], [-7.74729, 41.837772], [-7.746349, 41.84407], [-7.750541, 41.847685], [-7.750532, 41.849261], [-7.743309, 41.849012], [-7.746901, 41.8524], [-7.746881, 41.855776], [-7.73843, 41.859348], [-7.734159, 41.868337], [-7.730228, 41.871024], [-7.729293, 41.875972], [-7.720533, 41.880218], [-7.720523, 41.881793], [-7.725335, 41.882935], [-7.72591, 41.887214], [-7.728913, 41.888575], [-7.737044, 41.888828], [-7.739741, 41.891088], [-7.74246, 41.889747], [-7.742785, 41.885922], [-7.756022, 41.888441], [-7.758719, 41.890926], [-7.756592, 41.89407], [-7.758076, 41.897901], [-7.764097, 41.898595], [-7.779227, 41.886264], [-7.785257, 41.885157], [-7.788886, 41.882467], [-7.794007, 41.882257], [-7.796739, 41.878214], [-7.794349, 41.87438], [-7.797064, 41.873488], [-7.803381, 41.874857], [-7.804914, 41.869459], [-7.813032, 41.871958], [-7.814229, 41.873537], [-7.823863, 41.874013], [-7.825059, 41.875817], [-7.830479, 41.875831], [-7.830789, 41.874031], [-7.832894, 41.874712], [-7.83772, 41.872924], [-7.842528, 41.875187], [-7.841663, 41.866632], [-7.845893, 41.863491], [-7.849515, 41.861475], [-7.858542, 41.862622], [-7.859456, 41.860148], [-7.866018, 41.858588], [-7.857939, 41.838531], [-7.852569, 41.83203], [-7.846702, 41.820405], [-7.845919, 41.811391], [-7.853182, 41.797679], [-7.860219, 41.79352], [-7.865409, 41.786873], [-7.877408, 41.788891], [-7.888888, 41.793801], [-7.901343, 41.79678], [-7.913421, 41.79435], [-7.926408, 41.785151], [-7.937702, 41.781616], [-7.949735, 41.781666], [-7.961036, 41.785469], [-7.973578, 41.79573], [-8.007089, 41.812897], [-8.018703, 41.822004], [-8.02609, 41.830261], [-8.030816, 41.82959], [-8.037134, 41.831171], [-8.041351, 41.828023], [-8.041054, 41.825097], [-8.045268, 41.824425], [-8.047679, 41.821276], [-8.057314, 41.815656], [-8.06664, 41.817012], [-8.072961, 41.813414], [-8.078678, 41.813417], [-8.082892, 41.810493], [-8.091013, 41.812521], [-8.093421, 41.811397], [-8.093723, 41.808471], [-8.101845, 41.809824], [-8.104853, 41.81185], [-8.115984, 41.812302], [-8.123807, 41.808702], [-8.138247, 41.808477], [-8.139751, 41.813203], [-8.14276, 41.812978], [-8.144866, 41.815228], [-8.149078, 41.814777], [-8.153291, 41.817703], [-8.158106, 41.818377], [-8.165326, 41.81815], [-8.170739, 41.812735], [-8.153924, 41.81058], [-8.141944, 41.806204], [-8.129998, 41.799377], [-8.117521, 41.786778], [-8.111833, 41.777727], [-8.106011, 41.759668], [-8.102566, 41.732621], [-8.103709, 41.714616], [-8.107483, 41.705638], [-8.115906, 41.696696], [-8.131504, 41.687701], [-8.165867, 41.679056], [-8.191836, 41.667541], [-8.203893, 41.663952], [-8.21592, 41.66265], [-8.227922, 41.663427], [-8.239895, 41.666711], [-8.247784, 41.670614], [-8.258855, 41.679693], [-8.263641, 41.688731], [-8.265072, 41.697747], [-8.262526, 41.706738], [-8.243709, 41.733636], [-8.239572, 41.742616], [-8.231391, 41.778589], [-8.222414, 41.79363], [-8.224207, 41.794303], [-8.229917, 41.791598], [-8.240744, 41.791588], [-8.24074, 41.789338], [-8.244347, 41.787984], [-8.245546, 41.785731], [-8.251257, 41.784375], [-8.251845, 41.777172], [-8.257551, 41.773564], [-8.261762, 41.774235], [-8.271366, 41.766346], [-8.280681, 41.764083], [-8.284038, 41.761109], [-8.284931, 41.757507], [-8.287033, 41.756829], [-8.298457, 41.757263], [-8.300866, 41.758835], [-8.305674, 41.758152], [-8.311096, 41.762195], [-8.318308, 41.761283], [-8.325233, 41.765098], [-8.328234, 41.763292], [-8.336653, 41.763728], [-8.341756, 41.761468], [-8.344765, 41.762363], [-8.349267, 41.760103], [-8.352557, 41.755145], [-8.34982, 41.745922], [-8.349814, 41.744122], [-8.352516, 41.743441], [-8.352203, 41.739616], [-8.357897, 41.735103], [-8.363006, 41.735339], [-8.358659, 41.716321], [-8.35956, 41.698312], [-8.351801, 41.680255], [-8.350215, 41.671239], [-8.352875, 41.662247], [-8.364147, 41.653302], [-8.372182, 41.650928], [-8.384188, 41.651264], [-8.38939, 41.653439], [-8.396141, 41.657274], [-8.401349, 41.662509], [-8.408211, 41.680559], [-8.443863, 41.694409], [-8.452373, 41.699212], [-8.453255, 41.695487], [-8.461659, 41.694563], [-8.482012, 41.682123], [-8.484371, 41.674238], [-8.49308, 41.674886], [-8.499963, 41.671038], [-8.50927, 41.671233], [-8.51018, 41.672806], [-8.511967, 41.670324], [-8.509856, 41.668755], [-8.512252, 41.667847], [-8.514629, 41.663788], [-8.522103, 41.658811], [-8.525706, 41.659023], [-8.527187, 41.655845], [-8.513219, 41.663037], [-8.50417, 41.665793], [-8.480117, 41.669333], [-8.456102, 41.668117], [-8.444112, 41.665501], [-8.432141, 41.660857], [-8.409535, 41.644537], [-8.391147, 41.626427], [-8.386239, 41.617394], [-8.384253, 41.608376], [-8.385031, 41.599373], [-8.388926, 41.590386], [-8.396845, 41.581776], [-8.408904, 41.574977], [-8.420915, 41.573166], [-8.456895, 41.573758], [-8.480907, 41.57099], [-8.489289, 41.581869], [-8.504715, 41.594613], [-8.53903, 41.609101], [-8.544305, 41.614842]], [[-7.885025, 41.766743], [-7.877569, 41.779671], [-7.865462, 41.78388], [-7.853483, 41.78082], [-7.847835, 41.775383], [-7.840586, 41.766303], [-7.840418, 41.757295], [-7.848694, 41.748371], [-7.8541, 41.746158], [-7.866141, 41.745348], [-7.875345, 41.748635], [-7.884685, 41.757733], [-7.885025, 41.766743]], [[-8.577008, 41.548665], [-8.571473, 41.555182], [-8.564947, 41.559207], [-8.55295, 41.559827], [-8.528993, 41.556052], [-8.516999, 41.556383], [-8.492965, 41.562789], [-8.481047, 41.553476], [-8.478497, 41.545791], [-8.470488, 41.536747], [-8.457261, 41.52992], [-8.4453, 41.526881], [-8.421346, 41.524836], [-8.412096, 41.518449], [-8.409462, 41.513642], [-8.401484, 41.482364], [-8.402834, 41.473364], [-8.40687, 41.464377], [-8.409956, 41.459255], [-8.422034, 41.447519], [-8.434084, 41.438444], [-8.458139, 41.424678], [-8.482143, 41.415979], [-8.494129, 41.413308], [-8.518077, 41.411032], [-8.541995, 41.412696], [-8.565881, 41.41946], [-8.577806, 41.42576], [-8.590724, 41.438156], [-8.5948, 41.447178], [-8.595903, 41.456189], [-8.58755, 41.492189], [-8.581312, 41.537204], [-8.577008, 41.548665]], [[-8.253662, 41.514581], [-8.241638, 41.518013], [-8.231052, 41.508373], [-8.238276, 41.499414], [-8.241873, 41.497832], [-8.253823, 41.500553], [-8.258022, 41.50855], [-8.253662, 41.514581]], [[-8.361631, 41.502979], [-8.349578, 41.510146], [-8.337572, 41.512376], [-8.325605, 41.510786], [-8.313684, 41.504904], [-8.307673, 41.499853], [-8.303609, 41.490821], [-8.303907, 41.481815], [-8.308703, 41.472837], [-8.314069, 41.468419], [-8.326105, 41.462526], [-8.338095, 41.460967], [-8.350046, 41.463324], [-8.361948, 41.470746], [-8.368229, 41.482186], [-8.368344, 41.491194], [-8.361631, 41.502979]], [[-8.697196, 41.487685], [-8.691916, 41.492516], [-8.685179, 41.495444], [-8.673189, 41.497332], [-8.661217, 41.495549], [-8.654623, 41.49241], [-8.644523, 41.483372], [-8.642696, 41.474359], [-8.649419, 41.461693], [-8.66143, 41.454728], [-8.673413, 41.45277], [-8.688965, 41.456478], [-8.70011, 41.465516], [-8.703222, 41.474531], [-8.701072, 41.483533], [-8.697196, 41.487685]]], [[[-8.205873, 41.806015], [-8.205873, 41.806015], [-8.205862, 41.80602], [-8.205873, 41.806015]]], [[[-8.204971, 41.80648], [-8.193, 41.810662], [-8.197158, 41.814129], [-8.19926, 41.810301], [-8.204971, 41.80648]]], [[[-8.18548, 41.812064], [-8.18548, 41.812064], [-8.185475, 41.812065], [-8.18548, 41.812064]]], [[[-8.185179, 41.812099], [-8.185179, 41.812099], [-8.182773, 41.812374], [-8.185179, 41.812099]]], [[[-8.217341, 41.79881], [-8.208825, 41.804443], [-8.213692, 41.803765], [-8.217341, 41.79881]]], [[[-8.537638, 41.64731], [-8.532578, 41.652022], [-8.537355, 41.64998], [-8.537638, 41.64731]]]]}}, {"id": "0", "type": "Feature", "properties": {"fill": "#a3a3a3", "value_min": 0.0, "value_max": -0.25}, "geometry": {"type": "MultiPolygon", "coordinates": [[[[-8.09496, 41.678519], [-8.095585, 41.678538], [-8.095598, 41.678524], [-8.095585, 41.678504], [-8.09496, 41.678519]]], [[[-8.439507, 41.626673], [-8.444408, 41.631065], [-8.450927, 41.626728], [-8.444481, 41.622645], [-8.439507, 41.626673]]], [[[-8.084412, 41.619157], [-8.096456, 41.61618], [-8.096477, 41.614691], [-8.084518, 41.611654], [-8.081083, 41.615359], [-8.084412, 41.619157]]], [[[-8.481297, 41.522104], [-8.493295, 41.520547], [-8.496173, 41.518848], [-8.499874, 41.509856], [-8.49344, 41.501906], [-8.481478, 41.499448], [-8.468463, 41.509716], [-8.474034, 41.518749], [-8.481297, 41.522104]]]]}}]}