{"type": "FeatureCollection", "features": [{"id": "3", "type": "Feature", "properties": {"fill": "#71a5e5", "value_min": 1.25, "value_max": 1.5}, "geometry": {"type": "MultiPolygon", "coordinates": [[[[-7.879521, 41.852766], [-7.888427, 41.847691], [-7.900683, 41.835403], [-7.908577, 41.82101], [-7.90958, 41.812013], [-7.907232, 41.802984], [-7.897678, 41.784879], [-7.896132, 41.757844], [-7.890201, 41.74878], [-7.878239, 41.74122], [-7.866278, 41.737525], [-7.854261, 41.737084], [-7.841351, 41.73929], [-7.830092, 41.743645], [-7.822508, 41.748106], [-7.816226, 41.757048], [-7.813894, 41.766031], [-7.811635, 41.811041], [-7.816625, 41.829106], [-7.828259, 41.844361], [-7.840153, 41.85272], [-7.852134, 41.856404], [-7.867902, 41.856213], [-7.87033, 41.851395], [-7.873043, 41.850501], [-7.873066, 41.844875], [-7.879521, 41.852766]], [[-7.876568, 41.836978], [-7.864504, 41.838154], [-7.852505, 41.835617], [-7.842855, 41.829374], [-7.836068, 41.820298], [-7.834271, 41.811273], [-7.836384, 41.802288], [-7.848656, 41.784398], [-7.836861, 41.766266], [-7.837243, 41.757263], [-7.845571, 41.74834], [-7.854121, 41.744942], [-7.866159, 41.744285], [-7.87778, 41.748659], [-7.884938, 41.757735], [-7.884148, 41.766735], [-7.873397, 41.784643], [-7.87746, 41.78593], [-7.889331, 41.795363], [-7.89549, 41.802871], [-7.898429, 41.811906], [-7.896672, 41.820896], [-7.88967, 41.829836], [-7.876568, 41.836978]]], [[[-8.14293, 41.732128], [-8.15775, 41.724032], [-8.166942, 41.715092], [-8.169338, 41.706102], [-8.16481, 41.697062], [-8.155495, 41.690867], [-8.143496, 41.689551], [-8.13138, 41.69694], [-8.119192, 41.7094], [-8.110478, 41.714668], [-8.110622, 41.723676], [-8.118879, 41.732359], [-8.130862, 41.735398], [-8.14293, 41.732128]], [[-8.130994, 41.725577], [-8.127527, 41.723806], [-8.120356, 41.714744], [-8.125387, 41.705776], [-8.131332, 41.700516], [-8.143381, 41.698173], [-8.155334, 41.706], [-8.154819, 41.715003], [-8.143036, 41.724142], [-8.130994, 41.725577]]], [[[-8.361508, 41.515505], [-8.373618, 41.502504], [-8.377399, 41.491244], [-8.377336, 41.482236], [-8.373932, 41.469933], [-8.362111, 41.454132], [-8.350208, 41.447054], [-8.338271, 41.443676], [-8.326304, 41.443321], [-8.314306, 41.445903], [-8.302284, 41.45065], [-8.285957, 41.46369], [-8.280487, 41.472664], [-8.278723, 41.490667], [-8.281358, 41.499691], [-8.290455, 41.508755], [-8.30158, 41.516257], [-8.313511, 41.521268], [-8.325472, 41.523628], [-8.337457, 41.523662], [-8.349467, 41.521203], [-8.361508, 41.515505]], [[-8.337631, 41.506604], [-8.325682, 41.503396], [-8.320466, 41.499929], [-8.314277, 41.490885], [-8.314165, 41.481877], [-8.320168, 41.472905], [-8.326038, 41.469042], [-8.338043, 41.466163], [-8.35, 41.467981], [-8.357721, 41.473121], [-8.364189, 41.482164], [-8.364242, 41.491172], [-8.357714, 41.500143], [-8.349629, 41.505069], [-8.337631, 41.506604]]], [[[-8.253805, 41.502118], [-8.241867, 41.498394], [-8.233148, 41.508387], [-8.241664, 41.515727], [-8.253694, 41.511778], [-8.256909, 41.508543], [-8.253805, 41.502118]]], [[[-8.078333, 41.499103], [-8.098025, 41.503479], [-8.133913, 41.507808], [-8.145898, 41.507589], [-8.157912, 41.505169], [-8.170852, 41.498948], [-8.180393, 41.490009], [-8.185106, 41.481035], [-8.186359, 41.472036], [-8.184175, 41.463013], [-8.179448, 41.453972], [-8.170998, 41.444904], [-8.158943, 41.43581], [-8.146927, 41.429135], [-8.123095, 41.421391], [-8.099177, 41.420257], [-8.087182, 41.422318], [-8.075152, 41.426754], [-8.063077, 41.434201], [-8.058728, 41.438646], [-8.061631, 41.439323], [-8.063721, 41.442926], [-8.067908, 41.444279], [-8.069999, 41.447206], [-8.068788, 41.462286], [-8.073872, 41.46499], [-8.074468, 41.468141], [-8.073564, 41.474668], [-8.066374, 41.482318], [-8.066069, 41.48817], [-8.072054, 41.490199], [-8.07175, 41.494925], [-8.078333, 41.499103]], [[-8.110062, 41.499436], [-8.09813, 41.495874], [-8.086547, 41.489302], [-8.080175, 41.480244], [-8.079821, 41.471233], [-8.086654, 41.45998], [-8.098731, 41.452518], [-8.110741, 41.449766], [-8.122706, 41.450321], [-8.134626, 41.454209], [-8.146297, 41.462739], [-8.151789, 41.471787], [-8.152401, 41.480798], [-8.147835, 41.489772], [-8.13404, 41.498249], [-8.122032, 41.500232], [-8.110062, 41.499436]]], [[[-8.661705, 41.401807], [-8.683708, 41.393411], [-8.695857, 41.384436], [-8.702523, 41.375446], [-8.704859, 41.366445], [-8.703419, 41.357433], [-8.697833, 41.348411], [-8.689781, 41.339382], [-8.662137, 41.318202], [-8.63831, 41.305809], [-8.626377, 41.303482], [-8.614433, 41.303394], [-8.602475, 41.305376], [-8.590502, 41.309722], [-8.573206, 41.320993], [-8.565777, 41.329973], [-8.561358, 41.338964], [-8.560658, 41.356977], [-8.5696, 41.375026], [-8.578617, 41.384067], [-8.589986, 41.392081], [-8.601911, 41.39808], [-8.613851, 41.401881], [-8.637761, 41.404906], [-8.661705, 41.401807]], [[-8.637847, 41.389429], [-8.625889, 41.388869], [-8.611156, 41.384181], [-8.59864, 41.375131], [-8.593049, 41.366104], [-8.591627, 41.357091], [-8.593858, 41.348091], [-8.600887, 41.339108], [-8.614266, 41.331587], [-8.62623, 41.329242], [-8.638176, 41.32991], [-8.650108, 41.333362], [-8.660381, 41.339299], [-8.66958, 41.348333], [-8.673615, 41.357353], [-8.673593, 41.36636], [-8.669177, 41.375355], [-8.657231, 41.384328], [-8.649819, 41.387332], [-8.637847, 41.389429]]], [[[-8.386692, 41.386582], [-8.389811, 41.383221], [-8.393349, 41.374232], [-8.392285, 41.365218], [-8.385903, 41.356177], [-8.375084, 41.349821], [-8.363151, 41.347646], [-8.351184, 41.349045], [-8.338071, 41.355912], [-8.331383, 41.364881], [-8.329633, 41.373878], [-8.332181, 41.3829], [-8.341029, 41.391959], [-8.350714, 41.396304], [-8.362667, 41.397273], [-8.374655, 41.394599], [-8.386692, 41.386582]]], [[[-8.619907, 41.178774], [-8.625486, 41.204074], [-8.63277, 41.222113], [-8.638374, 41.231139], [-8.650595, 41.242136], [-8.662507, 41.246476], [-8.686372, 41.247435], [-8.710255, 41.244692], [-8.734142, 41.240112], [-8.758036, 41.233026], [-8.779202, 41.222487], [-8.790354, 41.2135], [-8.801804, 41.197791], [-8.799729, 41.144918], [-8.79926, 41.14407], [-8.674793, 41.146932], [-8.674849, 41.153767], [-8.672489, 41.15648], [-8.66117, 41.156307], [-8.662078, 41.158104], [-8.660313, 41.160813], [-8.657033, 41.160378], [-8.654961, 41.161963], [-8.653231, 41.169174], [-8.655366, 41.175467], [-8.647955, 41.180228], [-8.647696, 41.185181], [-8.640929, 41.196241], [-8.634946, 41.193341], [-8.632526, 41.188624], [-8.625658, 41.186628], [-8.62263, 41.180113], [-8.619907, 41.178774]], [[-8.69841, 41.225168], [-8.686477, 41.225467], [-8.674558, 41.223041], [-8.662663, 41.216221], [-8.653838, 41.204163], [-8.651898, 41.195149], [-8.653198, 41.186145], [-8.662891, 41.171634], [-8.674849, 41.164311], [-8.686784, 41.161158], [-8.698705, 41.160787], [-8.710614, 41.163057], [-8.721796, 41.168315], [-8.731479, 41.177346], [-8.735859, 41.186364], [-8.73649, 41.195373], [-8.73352, 41.204375], [-8.726311, 41.213365], [-8.710699, 41.222335], [-8.69841, 41.225168]]]]}}, {"id": "2", "type": "Feature", "properties": {"fill": "#90a4bc", "value_min": 1.0, "value_max": 1.25}, "geometry": {"type": "MultiPolygon", "coordinates": [[[[-7.876568, 41.836978], [-7.88967, 41.829836], [-7.896672, 41.820896], [-7.898429, 41.811906], [-7.89549, 41.802871], [-7.889331, 41.795363], [-7.87746, 41.78593], [-7.873397, 41.784643], [-7.884148, 41.766735], [-7.884938, 41.757735], [-7.87778, 41.748659], [-7.866159, 41.744285], [-7.854121, 41.744942], [-7.845571, 41.74834], [-7.837243, 41.757263], [-7.836861, 41.766266], [-7.848656, 41.784398], [-7.836384, 41.802288], [-7.834271, 41.811273], [-7.836068, 41.820298], [-7.842855, 41.829374], [-7.852505, 41.835617], [-7.864504, 41.838154], [-7.876568, 41.836978]], [[-7.864707, 41.826661], [-7.853555, 41.820474], [-7.850141, 41.811433], [-7.855481, 41.80248], [-7.865217, 41.797751], [-7.877239, 41.798612], [-7.883427, 41.802755], [-7.889042, 41.81214], [-7.884898, 41.820783], [-7.876758, 41.82616], [-7.864707, 41.826661]], [[-7.856882, 41.766467], [-7.853783, 41.763948], [-7.851595, 41.757407], [-7.853938, 41.755257], [-7.866026, 41.751839], [-7.873962, 41.757628], [-7.869204, 41.766588], [-7.86573, 41.768696], [-7.856882, 41.766467]]], [[[-8.130994, 41.725577], [-8.143036, 41.724142], [-8.154819, 41.715003], [-8.155334, 41.706], [-8.143381, 41.698173], [-8.131332, 41.700516], [-8.125387, 41.705776], [-8.120356, 41.714744], [-8.127527, 41.723806], [-8.130994, 41.725577]], [[-8.131082, 41.719095], [-8.126623, 41.714792], [-8.129346, 41.705806], [-8.131284, 41.704091], [-8.143306, 41.703853], [-8.146483, 41.705934], [-8.146494, 41.714941], [-8.143124, 41.717545], [-8.131082, 41.719095]]], [[[-8.337631, 41.506604], [-8.349629, 41.505069], [-8.357714, 41.500143], [-8.364242, 41.491172], [-8.364189, 41.482164], [-8.357721, 41.473121], [-8.35, 41.467981], [-8.338043, 41.466163], [-8.326038, 41.469042], [-8.320168, 41.472905], [-8.314165, 41.481877], [-8.314277, 41.490885], [-8.320466, 41.499929], [-8.325682, 41.503396], [-8.337631, 41.506604]], [[-8.337767, 41.491023], [-8.337792, 41.490759], [-8.337881, 41.491023], [-8.337767, 41.491023]]], [[[-8.110062, 41.499436], [-8.122032, 41.500232], [-8.13404, 41.498249], [-8.147835, 41.489772], [-8.152401, 41.480798], [-8.151789, 41.471787], [-8.146297, 41.462739], [-8.134626, 41.454209], [-8.122706, 41.450321], [-8.110741, 41.449766], [-8.098731, 41.452518], [-8.086654, 41.45998], [-8.079821, 41.471233], [-8.080175, 41.480244], [-8.086547, 41.489302], [-8.09813, 41.495874], [-8.110062, 41.499436]], [[-8.110161, 41.492194], [-8.103462, 41.489435], [-8.097175, 41.480378], [-8.098395, 41.476802], [-8.101611, 41.471406], [-8.110511, 41.466622], [-8.122481, 41.466963], [-8.130378, 41.471627], [-8.135085, 41.48067], [-8.129307, 41.489633], [-8.122137, 41.492477], [-8.110161, 41.492194]]], [[[-8.637847, 41.389429], [-8.649819, 41.387332], [-8.657231, 41.384328], [-8.669177, 41.375355], [-8.673593, 41.36636], [-8.673615, 41.357353], [-8.66958, 41.348333], [-8.660381, 41.339299], [-8.650108, 41.333362], [-8.638176, 41.32991], [-8.62623, 41.329242], [-8.614266, 41.331587], [-8.600887, 41.339108], [-8.593858, 41.348091], [-8.591627, 41.357091], [-8.593049, 41.366104], [-8.59864, 41.375131], [-8.611156, 41.384181], [-8.625889, 41.388869], [-8.637847, 41.389429]], [[-8.63793, 41.374363], [-8.625976, 41.373578], [-8.615765, 41.366182], [-8.614442, 41.35717], [-8.626127, 41.347341], [-8.638081, 41.34708], [-8.651355, 41.357287], [-8.650647, 41.366293], [-8.63793, 41.374363]]], [[[-8.69841, 41.225168], [-8.710699, 41.222335], [-8.726311, 41.213365], [-8.73352, 41.204375], [-8.73649, 41.195373], [-8.735859, 41.186364], [-8.731479, 41.177346], [-8.721796, 41.168315], [-8.710614, 41.163057], [-8.698705, 41.160787], [-8.686784, 41.161158], [-8.674849, 41.164311], [-8.662891, 41.171634], [-8.653198, 41.186145], [-8.651898, 41.195149], [-8.653838, 41.204163], [-8.662663, 41.216221], [-8.674558, 41.223041], [-8.686477, 41.225467], [-8.69841, 41.225168]]]]}}, {"id": "4", "type": "Feature", "properties": {"fill": "#5093f6", "value_min": 1.5, "value_max": 1.75}, "geometry": {"type": "MultiPolygon", "coordinates": [[[[-7.916102, 41.879174], [-7.913319, 41.866089], [-7.913673, 41.848079], [-7.926932, 41.812176], [-7.919159, 41.79409], [-7.909141, 41.748961], [-7.897273, 41.739841], [-7.866437, 41.728521], [-7.842418, 41.726974], [-7.794446, 41.720488], [-7.782356, 41.724074], [-7.777862, 41.729626], [-7.776623, 41.738619], [-7.785617, 41.774742], [-7.786271, 41.783756], [-7.782994, 41.801735], [-7.773509, 41.828654], [-7.776536, 41.837693], [-7.787426, 41.855822], [-7.789431, 41.86485], [-7.788596, 41.873847], [-7.783445, 41.885602], [-7.787377, 41.882912], [-7.794309, 41.882033], [-7.796739, 41.878214], [-7.794349, 41.87438], [-7.797064, 41.873488], [-7.803381, 41.874857], [-7.804914, 41.869459], [-7.813032, 41.871958], [-7.814229, 41.873537], [-7.823863, 41.874013], [-7.825059, 41.875817], [-7.830479, 41.875831], [-7.830789, 41.874031], [-7.832894, 41.874712], [-7.83772, 41.872924], [-7.842528, 41.875187], [-7.841663, 41.866632], [-7.849515, 41.861475], [-7.858542, 41.862622], [-7.859456, 41.860148], [-7.864877, 41.859711], [-7.867902, 41.856213], [-7.852134, 41.856404], [-7.840153, 41.85272], [-7.828259, 41.844361], [-7.816625, 41.829106], [-7.811635, 41.811041], [-7.813894, 41.766031], [-7.816226, 41.757048], [-7.822508, 41.748106], [-7.830092, 41.743645], [-7.841351, 41.73929], [-7.854261, 41.737084], [-7.866278, 41.737525], [-7.878239, 41.74122], [-7.890201, 41.74878], [-7.896132, 41.757844], [-7.897678, 41.784879], [-7.907232, 41.802984], [-7.90958, 41.812013], [-7.908577, 41.82101], [-7.900683, 41.835403], [-7.888427, 41.847691], [-7.879521, 41.852766], [-7.886268, 41.855932], [-7.888076, 41.855486], [-7.891675, 41.859094], [-7.898893, 41.86136], [-7.902203, 41.861591], [-7.904318, 41.859795], [-7.907309, 41.865203], [-7.906095, 41.868126], [-7.910299, 41.871285], [-7.909985, 41.875111], [-7.916102, 41.879174]]], [[[-8.140007, 41.768935], [-8.148878, 41.74198], [-8.159976, 41.733055], [-8.167013, 41.729441], [-8.179065, 41.72729], [-8.215075, 41.732185], [-8.22715, 41.727992], [-8.242454, 41.715614], [-8.255237, 41.697684], [-8.257238, 41.68869], [-8.256163, 41.679675], [-8.251858, 41.670934], [-8.239968, 41.660497], [-8.228004, 41.656578], [-8.216, 41.656063], [-8.143754, 41.670045], [-8.131685, 41.674261], [-8.12604, 41.67876], [-8.120849, 41.687727], [-8.123331, 41.696753], [-8.119302, 41.70136], [-8.107269, 41.702431], [-8.095182, 41.707247], [-8.089874, 41.714507], [-8.085152, 41.732483], [-8.087311, 41.750514], [-8.094383, 41.764201], [-8.106264, 41.774933], [-8.118233, 41.779537], [-8.130272, 41.779065], [-8.140007, 41.768935]], [[-8.14293, 41.732128], [-8.130862, 41.735398], [-8.118879, 41.732359], [-8.110622, 41.723676], [-8.110478, 41.714668], [-8.119192, 41.7094], [-8.13138, 41.69694], [-8.143496, 41.689551], [-8.155495, 41.690867], [-8.16481, 41.697062], [-8.169338, 41.706102], [-8.166942, 41.715092], [-8.15775, 41.724032], [-8.14293, 41.732128]]], [[[-8.0906, 41.512391], [-8.109886, 41.51227], [-8.126174, 41.516632], [-8.139238, 41.525737], [-8.157354, 41.548192], [-8.169234, 41.556812], [-8.228819, 41.588193], [-8.252726, 41.595886], [-8.264714, 41.596823], [-8.276724, 41.595907], [-8.300795, 41.589102], [-8.324904, 41.578189], [-8.349046, 41.563214], [-8.373229, 41.542835], [-8.385397, 41.527316], [-8.393203, 41.509343], [-8.392325, 41.473309], [-8.398048, 41.452144], [-8.410153, 41.437476], [-8.4222, 41.428726], [-8.446255, 41.41486], [-8.470279, 41.403362], [-8.494252, 41.3975], [-8.51817, 41.398435], [-8.553998, 41.407178], [-8.601755, 41.423613], [-8.625668, 41.427424], [-8.811013, 41.418294], [-8.801804, 41.197791], [-8.790354, 41.2135], [-8.779202, 41.222487], [-8.758036, 41.233026], [-8.734142, 41.240112], [-8.710255, 41.244692], [-8.686372, 41.247435], [-8.662507, 41.246476], [-8.650595, 41.242136], [-8.638374, 41.231139], [-8.63277, 41.222113], [-8.625486, 41.204074], [-8.619907, 41.178774], [-8.613374, 41.177451], [-8.608583, 41.174095], [-8.609164, 41.172066], [-8.604942, 41.164881], [-8.59422, 41.165149], [-8.589174, 41.167645], [-8.589194, 41.170572], [-8.583263, 41.174422], [-8.582094, 41.177803], [-8.578825, 41.178941], [-8.581276, 41.188836], [-8.57952, 41.193541], [-8.589437, 41.203951], [-8.594005, 41.212975], [-8.595627, 41.221989], [-8.594469, 41.230992], [-8.589857, 41.239984], [-8.579565, 41.248955], [-8.566976, 41.254318], [-8.555026, 41.256367], [-8.543089, 41.256285], [-8.531168, 41.254099], [-8.519267, 41.249398], [-8.506219, 41.239656], [-8.499765, 41.23062], [-8.497201, 41.221997], [-8.493861, 41.223583], [-8.487935, 41.230354], [-8.490333, 41.232598], [-8.484411, 41.240495], [-8.476346, 41.237818], [-8.475756, 41.23917], [-8.470986, 41.23941], [-8.471604, 41.243459], [-8.469227, 41.245267], [-8.463258, 41.244384], [-8.459989, 41.246644], [-8.454323, 41.246886], [-8.455541, 41.251834], [-8.452276, 41.25522], [-8.449891, 41.255452], [-8.449304, 41.257479], [-8.447812, 41.257258], [-8.449028, 41.261982], [-8.439785, 41.262907], [-8.438023, 41.268989], [-8.434745, 41.269673], [-8.432691, 41.277107], [-8.427032, 41.279372], [-8.429143, 41.284319], [-8.426171, 41.287028], [-8.426488, 41.291079], [-8.425013, 41.294909], [-8.422037, 41.296942], [-8.422647, 41.299867], [-8.407744, 41.304856], [-8.406262, 41.307335], [-8.403277, 41.307342], [-8.401801, 41.311398], [-8.399712, 41.311628], [-8.400316, 41.313202], [-8.396738, 41.314336], [-8.398835, 41.316131], [-8.393775, 41.31997], [-8.393489, 41.323122], [-8.391105, 41.324253], [-8.386325, 41.323588], [-8.380382, 41.331254], [-8.375305, 41.33104], [-8.37201, 41.328346], [-8.361563, 41.329718], [-8.358276, 41.329049], [-8.357673, 41.327249], [-8.350207, 41.327264], [-8.346032, 41.328847], [-8.342462, 41.333131], [-8.333215, 41.336299], [-8.326363, 41.342163], [-8.324568, 41.341041], [-8.323376, 41.341943], [-8.320676, 41.338121], [-8.312604, 41.334983], [-8.313794, 41.333405], [-8.31139, 41.328007], [-8.307502, 41.325762], [-8.305116, 41.326891], [-8.303024, 41.325994], [-8.303615, 41.323742], [-8.301216, 41.319694], [-8.296431, 41.316774], [-8.297618, 41.313846], [-8.295817, 41.310022], [-8.281801, 41.316569], [-8.281808, 41.319721], [-8.278828, 41.321976], [-8.278238, 41.325128], [-8.273161, 41.325134], [-8.269582, 41.326939], [-8.265709, 41.331221], [-8.269004, 41.336169], [-8.263339, 41.340902], [-8.262751, 41.345405], [-8.256483, 41.347663], [-8.255889, 41.349689], [-8.249622, 41.353072], [-8.251123, 41.356897], [-8.248141, 41.360052], [-8.248448, 41.364328], [-8.245848, 41.364781], [-8.251231, 41.373395], [-8.25194, 41.382407], [-8.247558, 41.391386], [-8.243066, 41.395322], [-8.23104, 41.400748], [-8.219071, 41.401193], [-8.207154, 41.397404], [-8.198395, 41.391054], [-8.193194, 41.38201], [-8.193177, 41.375626], [-8.169578, 41.377212], [-8.164499, 41.38059], [-8.152544, 41.375866], [-8.151049, 41.37339], [-8.145073, 41.374742], [-8.139694, 41.377894], [-8.133418, 41.374292], [-8.119672, 41.376768], [-8.119672, 41.378569], [-8.116683, 41.380144], [-8.117578, 41.386447], [-8.113992, 41.386896], [-8.112795, 41.390723], [-8.110105, 41.390947], [-8.108011, 41.393648], [-8.103827, 41.392972], [-8.105321, 41.394998], [-8.10263, 41.396123], [-8.10801, 41.398825], [-8.108606, 41.403102], [-8.104419, 41.406252], [-8.104119, 41.408728], [-8.101727, 41.409403], [-8.102025, 41.411204], [-8.092756, 41.411201], [-8.09126, 41.414352], [-8.079893, 41.41975], [-8.077503, 41.416597], [-8.070923, 41.41862], [-8.066739, 41.416142], [-8.061654, 41.417489], [-8.059852, 41.424916], [-8.055959, 41.429415], [-8.05745, 41.432793], [-8.056549, 41.436394], [-8.058728, 41.438646], [-8.063077, 41.434201], [-8.075152, 41.426754], [-8.087182, 41.422318], [-8.099177, 41.420257], [-8.123095, 41.421391], [-8.146927, 41.429135], [-8.158943, 41.43581], [-8.170998, 41.444904], [-8.179448, 41.453972], [-8.184175, 41.463013], [-8.186359, 41.472036], [-8.185106, 41.481035], [-8.180393, 41.490009], [-8.170852, 41.498948], [-8.157912, 41.505169], [-8.145898, 41.507589], [-8.133913, 41.507808], [-8.098025, 41.503479], [-8.078333, 41.499103], [-8.078332, 41.500331], [-8.084618, 41.502809], [-8.093, 41.504613], [-8.0906, 41.512391]], [[-8.361508, 41.515505], [-8.349467, 41.521203], [-8.337457, 41.523662], [-8.325472, 41.523628], [-8.313511, 41.521268], [-8.30158, 41.516257], [-8.290455, 41.508755], [-8.281358, 41.499691], [-8.278723, 41.490667], [-8.280487, 41.472664], [-8.285957, 41.46369], [-8.302284, 41.45065], [-8.314306, 41.445903], [-8.326304, 41.443321], [-8.338271, 41.443676], [-8.350208, 41.447054], [-8.362111, 41.454132], [-8.373932, 41.469933], [-8.377336, 41.482236], [-8.377399, 41.491244], [-8.373618, 41.502504], [-8.361508, 41.515505]], [[-8.253805, 41.502118], [-8.256909, 41.508543], [-8.253694, 41.511778], [-8.241664, 41.515727], [-8.233148, 41.508387], [-8.241867, 41.498394], [-8.253805, 41.502118]], [[-8.661705, 41.401807], [-8.637761, 41.404906], [-8.613851, 41.401881], [-8.601911, 41.39808], [-8.589986, 41.392081], [-8.578617, 41.384067], [-8.5696, 41.375026], [-8.560658, 41.356977], [-8.561358, 41.338964], [-8.565777, 41.329973], [-8.573206, 41.320993], [-8.590502, 41.309722], [-8.602475, 41.305376], [-8.614433, 41.303394], [-8.626377, 41.303482], [-8.63831, 41.305809], [-8.662137, 41.318202], [-8.689781, 41.339382], [-8.697833, 41.348411], [-8.703419, 41.357433], [-8.704859, 41.366445], [-8.702523, 41.375446], [-8.695857, 41.384436], [-8.683708, 41.393411], [-8.661705, 41.401807]], [[-8.386692, 41.386582], [-8.374655, 41.394599], [-8.362667, 41.397273], [-8.350714, 41.396304], [-8.341029, 41.391959], [-8.332181, 41.3829], [-8.329633, 41.373878], [-8.331383, 41.364881], [-8.338071, 41.355912], [-8.351184, 41.349045], [-8.363151, 41.347646], [-8.375084, 41.349821], [-8.385903, 41.356177], [-8.392285, 41.365218], [-8.393349, 41.374232], [-8.389811, 41.383221], [-8.386692, 41.386582]], [[-8.721858, 41.322755], [-8.70992, 41.320337], [-8.694726, 41.312372], [-8.686409, 41.303342], [-8.683702, 41.294327], [-8.685869, 41.285325], [-8.695347, 41.276343], [-8.710137, 41.271233], [-8.72208, 41.270355], [-8.734013, 41.271988], [-8.74658, 41.276467], [-8.757506, 41.285498], [-8.762167, 41.294516], [-8.761924, 41.303523], [-8.756329, 41.312519], [-8.745769, 41.319265], [-8.738812, 41.321488], [-8.721858, 41.322755]]], [[[-8.79926, 41.14407], [-8.79926, 41.14407], [-8.799729, 41.144918], [-8.79926, 41.14407]]]]}}, {"id": "5", "type": "Feature", "properties": {"fill": "#3171ee", "value_min": 1.75, "value_max": 2.0}, "geometry": {"type": "MultiPolygon", "coordinates": [[[[-8.55321, 41.61526], [-8.557244, 41.617046], [-8.564441, 41.616794], [-8.568056, 41.619031], [-8.570735, 41.616095], [-8.577321, 41.614269], [-8.581231, 41.615829], [-8.585766, 41.620988], [-8.591462, 41.620515], [-8.596534, 41.616668], [-8.601628, 41.615972], [-8.603996, 41.611686], [-8.613256, 41.606696], [-8.619881, 41.610269], [-8.621338, 41.604636], [-8.628833, 41.604378], [-8.636302, 41.600744], [-8.64075, 41.594422], [-8.645536, 41.593051], [-8.646744, 41.594171], [-8.649125, 41.591909], [-8.656622, 41.5921], [-8.660788, 41.588255], [-8.663794, 41.589141], [-8.665265, 41.585758], [-8.66948, 41.587989], [-8.684455, 41.586117], [-8.685608, 41.58071], [-8.697261, 41.576376], [-8.701703, 41.570277], [-8.707704, 41.570923], [-8.711586, 41.569327], [-8.716422, 41.573805], [-8.720316, 41.57356], [-8.725151, 41.577811], [-8.726633, 41.576003], [-8.734424, 41.575737], [-8.736564, 41.580228], [-8.738354, 41.579318], [-8.740778, 41.582006], [-8.74467, 41.581535], [-8.750711, 41.58623], [-8.756374, 41.582823], [-8.75635, 41.580347], [-8.762327, 41.578514], [-8.764443, 41.580303], [-8.767441, 41.580286], [-8.769874, 41.583874], [-8.768997, 41.58613], [-8.773228, 41.589482], [-8.775371, 41.593972], [-8.78556, 41.593464], [-8.797327, 41.600599], [-8.804218, 41.600109], [-8.80456, 41.604158], [-8.809434, 41.611332], [-8.828644, 41.609656], [-8.82839, 41.585633], [-8.818497, 41.554794], [-8.8221, 41.547542], [-8.821965, 41.534907], [-8.815926, 41.525624], [-8.81063, 41.5101], [-8.813279, 41.503483], [-8.812636, 41.496944], [-8.804699, 41.482068], [-8.798552, 41.474753], [-8.80154, 41.446836], [-8.806115, 41.43713], [-8.807354, 41.425915], [-8.811013, 41.418294], [-8.625668, 41.427424], [-8.601755, 41.423613], [-8.553998, 41.407178], [-8.51817, 41.398435], [-8.494252, 41.3975], [-8.470279, 41.403362], [-8.446255, 41.41486], [-8.4222, 41.428726], [-8.410153, 41.437476], [-8.398048, 41.452144], [-8.392325, 41.473309], [-8.393203, 41.509343], [-8.385397, 41.527316], [-8.373229, 41.542835], [-8.349046, 41.563214], [-8.324904, 41.578189], [-8.300795, 41.589102], [-8.276724, 41.595907], [-8.264714, 41.596823], [-8.252726, 41.595886], [-8.228819, 41.588193], [-8.169234, 41.556812], [-8.157354, 41.548192], [-8.139238, 41.525737], [-8.126174, 41.516632], [-8.109886, 41.51227], [-8.0906, 41.512391], [-8.091196, 41.516767], [-8.089398, 41.519468], [-8.090594, 41.522169], [-8.093588, 41.52307], [-8.091786, 41.531848], [-8.097775, 41.536127], [-8.097774, 41.537927], [-8.106759, 41.543557], [-8.101666, 41.542655], [-8.094175, 41.544904], [-8.087885, 41.542876], [-8.083389, 41.5449], [-8.080687, 41.551651], [-8.074097, 41.549848], [-8.073494, 41.553449], [-8.075891, 41.554575], [-8.076188, 41.557276], [-8.079783, 41.558403], [-8.081576, 41.565157], [-8.078879, 41.56493], [-8.075279, 41.568305], [-8.073182, 41.568079], [-8.069283, 41.570553], [-8.068081, 41.573478], [-8.056684, 41.579549], [-8.052181, 41.584498], [-8.052777, 41.587649], [-8.048277, 41.590122], [-8.047974, 41.592373], [-8.044072, 41.595521], [-8.031467, 41.602938], [-8.02367, 41.603156], [-8.019174, 41.601802], [-8.015872, 41.603824], [-8.010473, 41.604494], [-8.005671, 41.606515], [-8.003262, 41.611464], [-7.998761, 41.612809], [-7.999669, 41.608759], [-7.996976, 41.605829], [-7.996684, 41.602003], [-7.984685, 41.603564], [-7.982292, 41.60086], [-7.975689, 41.603552], [-7.974482, 41.606701], [-7.970882, 41.607147], [-7.969091, 41.603768], [-7.965796, 41.602413], [-7.9541, 41.602846], [-7.952606, 41.600592], [-7.947808, 41.60081], [-7.945413, 41.599456], [-7.942725, 41.595625], [-7.936132, 41.594488], [-7.93791, 41.601694], [-7.937004, 41.603718], [-7.931604, 41.604384], [-7.930979, 41.612711], [-7.925556, 41.620354], [-7.920755, 41.620796], [-7.917748, 41.623041], [-7.915933, 41.627764], [-7.913229, 41.628885], [-7.912613, 41.63361], [-7.906014, 41.633147], [-7.906884, 41.641927], [-7.897869, 41.645511], [-7.89696, 41.647985], [-7.892759, 41.647976], [-7.892145, 41.651576], [-7.902319, 41.659925], [-7.899913, 41.66127], [-7.900198, 41.665547], [-7.898396, 41.665769], [-7.897186, 41.668467], [-7.892682, 41.668683], [-7.892377, 41.670033], [-7.888171, 41.670925], [-7.883969, 41.67069], [-7.880358, 41.673159], [-7.877044, 41.676077], [-7.876723, 41.681253], [-7.873401, 41.686198], [-7.868896, 41.686413], [-7.868008, 41.68326], [-7.864403, 41.683701], [-7.864096, 41.685276], [-7.858987, 41.68639], [-7.857773, 41.689538], [-7.854776, 41.68818], [-7.847538, 41.695365], [-7.837912, 41.698942], [-7.835792, 41.702763], [-7.839682, 41.705924], [-7.838465, 41.709522], [-7.832453, 41.710407], [-7.825252, 41.708813], [-7.818621, 41.713522], [-7.815291, 41.718689], [-7.808986, 41.717996], [-7.808396, 41.715744], [-7.804499, 41.714158], [-7.79939, 41.714593], [-7.79788, 41.716164], [-7.796383, 41.71526], [-7.790966, 41.717044], [-7.789449, 41.719966], [-7.78464, 41.720402], [-7.78252, 41.723546], [-7.776204, 41.724652], [-7.773786, 41.727346], [-7.770798, 41.72441], [-7.765698, 41.723044], [-7.761765, 41.727758], [-7.762933, 41.733839], [-7.759307, 41.737203], [-7.759597, 41.739005], [-7.75689, 41.739446], [-7.758687, 41.740577], [-7.757758, 41.745301], [-7.748417, 41.749321], [-7.747786, 41.754496], [-7.743866, 41.756509], [-7.743242, 41.760333], [-7.740223, 41.762458], [-7.748749, 41.76534], [-7.759603, 41.774464], [-7.762246, 41.783499], [-7.759828, 41.79248], [-7.756922, 41.796109], [-7.744739, 41.803619], [-7.732669, 41.805278], [-7.727034, 41.804305], [-7.72995, 41.819031], [-7.73594, 41.823554], [-7.74345, 41.825605], [-7.738918, 41.82874], [-7.742196, 41.833928], [-7.74729, 41.837772], [-7.746349, 41.84407], [-7.750246, 41.846784], [-7.750532, 41.849261], [-7.743309, 41.849012], [-7.746901, 41.8524], [-7.746881, 41.855776], [-7.73843, 41.859348], [-7.734159, 41.868337], [-7.730228, 41.871024], [-7.729293, 41.875972], [-7.722351, 41.878424], [-7.720523, 41.881793], [-7.725335, 41.882935], [-7.726208, 41.887665], [-7.737044, 41.888828], [-7.737935, 41.890857], [-7.74246, 41.889747], [-7.742785, 41.885922], [-7.756022, 41.888441], [-7.758719, 41.890926], [-7.756592, 41.89407], [-7.758076, 41.897901], [-7.763193, 41.898593], [-7.779227, 41.886264], [-7.783445, 41.885602], [-7.788596, 41.873847], [-7.789431, 41.86485], [-7.787426, 41.855822], [-7.776536, 41.837693], [-7.773509, 41.828654], [-7.782994, 41.801735], [-7.786271, 41.783756], [-7.785617, 41.774742], [-7.776623, 41.738619], [-7.777862, 41.729626], [-7.782356, 41.724074], [-7.794446, 41.720488], [-7.842418, 41.726974], [-7.866437, 41.728521], [-7.897273, 41.739841], [-7.909141, 41.748961], [-7.919159, 41.79409], [-7.926932, 41.812176], [-7.913673, 41.848079], [-7.913319, 41.866089], [-7.916102, 41.879174], [-7.928044, 41.87807], [-7.935283, 41.874707], [-7.937389, 41.87516], [-7.941618, 41.870891], [-7.951254, 41.871132], [-7.956367, 41.87339], [-7.956362, 41.875191], [-7.960878, 41.875648], [-7.962086, 41.874074], [-7.973828, 41.875216], [-7.985584, 41.87028], [-7.9886, 41.868258], [-7.987701, 41.866456], [-7.98951, 41.865333], [-7.990123, 41.860157], [-7.995547, 41.858138], [-7.994047, 41.855211], [-7.996162, 41.851837], [-8.003089, 41.850494], [-8.005804, 41.847346], [-8.007928, 41.838796], [-8.012753, 41.833624], [-8.013062, 41.829348], [-8.017873, 41.831379], [-8.02901, 41.829589], [-8.037134, 41.831171], [-8.041351, 41.828023], [-8.041054, 41.825097], [-8.045268, 41.824425], [-8.047679, 41.821276], [-8.057314, 41.815656], [-8.06664, 41.817012], [-8.072961, 41.813414], [-8.078678, 41.813417], [-8.082892, 41.810493], [-8.091013, 41.812521], [-8.093421, 41.811397], [-8.093723, 41.808471], [-8.101845, 41.809824], [-8.104853, 41.81185], [-8.115984, 41.812302], [-8.123807, 41.808702], [-8.138247, 41.808477], [-8.139751, 41.813203], [-8.14276, 41.812978], [-8.144866, 41.815228], [-8.149078, 41.814777], [-8.153291, 41.817703], [-8.158106, 41.818377], [-8.165326, 41.81815], [-8.173744, 41.808019], [-8.177655, 41.808242], [-8.183676, 41.812741], [-8.190291, 41.809587], [-8.197158, 41.814129], [-8.201063, 41.808724], [-8.204973, 41.807372], [-8.205872, 41.804445], [-8.213692, 41.803765], [-8.217598, 41.80016], [-8.217589, 41.793634], [-8.224207, 41.794303], [-8.229917, 41.791598], [-8.240744, 41.791588], [-8.24074, 41.789338], [-8.244347, 41.787984], [-8.245546, 41.785731], [-8.251257, 41.784375], [-8.251845, 41.777172], [-8.257551, 41.773564], [-8.261762, 41.774235], [-8.271366, 41.766346], [-8.280681, 41.764083], [-8.284038, 41.761109], [-8.284931, 41.757507], [-8.305674, 41.758152], [-8.311096, 41.762195], [-8.318308, 41.761283], [-8.325233, 41.765098], [-8.328234, 41.763292], [-8.336653, 41.763728], [-8.341756, 41.761468], [-8.344765, 41.762363], [-8.349267, 41.760103], [-8.352557, 41.755145], [-8.349814, 41.744122], [-8.352516, 41.743441], [-8.352203, 41.739616], [-8.357897, 41.735103], [-8.362407, 41.735994], [-8.368703, 41.73193], [-8.374122, 41.734845], [-8.384922, 41.73032], [-8.387032, 41.731891], [-8.393033, 41.729852], [-8.396942, 41.730518], [-8.400531, 41.726683], [-8.402934, 41.726452], [-8.404721, 41.722847], [-8.417349, 41.725067], [-8.422737, 41.720552], [-8.429643, 41.719859], [-8.430533, 41.717381], [-8.435927, 41.714441], [-8.441632, 41.713975], [-8.4446, 41.70654], [-8.453868, 41.697961], [-8.453255, 41.695487], [-8.461659, 41.694563], [-8.467939, 41.689593], [-8.478124, 41.685061], [-8.482012, 41.682123], [-8.484371, 41.674238], [-8.49308, 41.674886], [-8.499963, 41.671038], [-8.50927, 41.671233], [-8.51018, 41.672806], [-8.511967, 41.670324], [-8.509856, 41.668755], [-8.512252, 41.667847], [-8.514629, 41.663788], [-8.522103, 41.658811], [-8.525706, 41.659023], [-8.527769, 41.652714], [-8.534066, 41.652017], [-8.537951, 41.649302], [-8.537634, 41.646602], [-8.543876, 41.637352], [-8.543855, 41.633976], [-8.536342, 41.631977], [-8.535128, 41.62973], [-8.542253, 41.617906], [-8.528533, 41.619326], [-8.504554, 41.615653], [-8.492594, 41.610267], [-8.48066, 41.601815], [-8.470961, 41.590793], [-8.466777, 41.581766], [-8.462267, 41.563731], [-8.45702, 41.558822], [-8.44508, 41.552675], [-8.440702, 41.545613], [-8.442932, 41.536617], [-8.454333, 41.527664], [-8.455144, 41.509653], [-8.459664, 41.500667], [-8.469545, 41.493632], [-8.481548, 41.490737], [-8.49352, 41.491721], [-8.511673, 41.5009], [-8.529235, 41.522691], [-8.542374, 41.528048], [-8.553154, 41.530298], [-8.565138, 41.530738], [-8.577179, 41.522409], [-8.588075, 41.510206], [-8.601277, 41.501717], [-8.613287, 41.496912], [-8.63415, 41.492347], [-8.637288, 41.489902], [-8.643405, 41.474361], [-8.65355, 41.465385], [-8.661389, 41.462645], [-8.673364, 41.462543], [-8.68206, 41.465467], [-8.691221, 41.4745], [-8.692378, 41.48351], [-8.687993, 41.492506], [-8.67689, 41.501483], [-8.671305, 41.510474], [-8.672386, 41.528492], [-8.670456, 41.537494], [-8.665282, 41.546486], [-8.648891, 41.559515], [-8.636873, 41.564037], [-8.600843, 41.572322], [-8.578304, 41.600244], [-8.566427, 41.609207], [-8.55321, 41.61526]], [[-7.948592, 41.851561], [-7.942617, 41.848349], [-7.937019, 41.83929], [-7.948947, 41.829896], [-7.960935, 41.833294], [-7.966068, 41.839556], [-7.96191, 41.848525], [-7.948592, 41.851561]], [[-8.140007, 41.768935], [-8.130272, 41.779065], [-8.118233, 41.779537], [-8.106264, 41.774933], [-8.094383, 41.764201], [-8.087311, 41.750514], [-8.085152, 41.732483], [-8.089874, 41.714507], [-8.095182, 41.707247], [-8.107269, 41.702431], [-8.119302, 41.70136], [-8.123331, 41.696753], [-8.120849, 41.687727], [-8.12604, 41.67876], [-8.131685, 41.674261], [-8.143754, 41.670045], [-8.216, 41.656063], [-8.228004, 41.656578], [-8.239968, 41.660497], [-8.251858, 41.670934], [-8.256163, 41.679675], [-8.257238, 41.68869], [-8.255237, 41.697684], [-8.242454, 41.715614], [-8.22715, 41.727992], [-8.215075, 41.732185], [-8.179065, 41.72729], [-8.167013, 41.729441], [-8.159976, 41.733055], [-8.148878, 41.74198], [-8.140007, 41.768935]], [[-7.937939, 41.767257], [-7.933747, 41.758199], [-7.938191, 41.752026], [-7.950251, 41.750026], [-7.959396, 41.758434], [-7.95359, 41.767388], [-7.94994, 41.769094], [-7.937939, 41.767257]], [[-7.890536, 41.725479], [-7.883996, 41.721699], [-7.881206, 41.712665], [-7.890914, 41.703478], [-7.902937, 41.703244], [-7.913833, 41.712978], [-7.911497, 41.721963], [-7.902545, 41.726321], [-7.890536, 41.725479]], [[-8.047069, 41.709593], [-8.043051, 41.70512], [-8.047204, 41.700433], [-8.059207, 41.701517], [-8.061405, 41.705271], [-8.059105, 41.708524], [-8.047069, 41.709593]], [[-8.083537, 41.680917], [-8.080897, 41.678407], [-8.083616, 41.675333], [-8.095624, 41.675701], [-8.09715, 41.678536], [-8.095558, 41.680407], [-8.083537, 41.680917]], [[-8.132118, 41.642033], [-8.120223, 41.633707], [-8.108213, 41.63403], [-8.096153, 41.637878], [-8.084142, 41.638209], [-8.070424, 41.633288], [-8.059893, 41.624195], [-8.055896, 41.615155], [-8.057592, 41.606162], [-8.065774, 41.597222], [-8.072778, 41.593327], [-8.084814, 41.590651], [-8.096802, 41.591409], [-8.111236, 41.597582], [-8.119674, 41.606654], [-8.122933, 41.615686], [-8.129554, 41.624744], [-8.132344, 41.625144], [-8.144555, 41.633863], [-8.132118, 41.642033]], [[-8.42164, 41.491785], [-8.415155, 41.482435], [-8.420444, 41.473454], [-8.433787, 41.47259], [-8.442606, 41.482571], [-8.435689, 41.491545], [-8.42164, 41.491785]]], [[[-8.193177, 41.375626], [-8.193194, 41.38201], [-8.198395, 41.391054], [-8.207154, 41.397404], [-8.219071, 41.401193], [-8.23104, 41.400748], [-8.243066, 41.395322], [-8.247558, 41.391386], [-8.25194, 41.382407], [-8.251231, 41.373395], [-8.245848, 41.364781], [-8.244272, 41.368384], [-8.239197, 41.371315], [-8.232024, 41.369971], [-8.224854, 41.370878], [-8.21738, 41.368182], [-8.211712, 41.376065], [-8.200358, 41.377648], [-8.194976, 41.374275], [-8.193177, 41.375626]]], [[[-8.721858, 41.322755], [-8.738812, 41.321488], [-8.745769, 41.319265], [-8.756329, 41.312519], [-8.761924, 41.303523], [-8.762167, 41.294516], [-8.757506, 41.285498], [-8.74658, 41.276467], [-8.734013, 41.271988], [-8.72208, 41.270355], [-8.710137, 41.271233], [-8.695347, 41.276343], [-8.685869, 41.285325], [-8.683702, 41.294327], [-8.686409, 41.303342], [-8.694726, 41.312372], [-8.70992, 41.320337], [-8.721858, 41.322755]]], [[[-8.497201, 41.221997], [-8.499765, 41.23062], [-8.506219, 41.239656], [-8.519267, 41.249398], [-8.531168, 41.254099], [-8.543089, 41.256285], [-8.555026, 41.256367], [-8.566976, 41.254318], [-8.579565, 41.248955], [-8.589857, 41.239984], [-8.594469, 41.230992], [-8.595627, 41.221989], [-8.594005, 41.212975], [-8.589437, 41.203951], [-8.57952, 41.193541], [-8.575958, 41.195609], [-8.576894, 41.201908], [-8.574515, 41.202593], [-8.57423, 41.20462], [-8.567971, 41.204644], [-8.565895, 41.206227], [-8.567697, 41.208246], [-8.566512, 41.209376], [-8.559636, 41.206251], [-8.554271, 41.20627], [-8.549521, 41.209214], [-8.544157, 41.209458], [-8.54238, 41.211265], [-8.532257, 41.213102], [-8.52653, 41.202542], [-8.523236, 41.200077], [-8.518471, 41.200543], [-8.51163, 41.203042], [-8.510456, 41.206197], [-8.505693, 41.207113], [-8.504239, 41.213646], [-8.500076, 41.21546], [-8.50308, 41.219502], [-8.502204, 41.222656], [-8.497201, 41.221997]]]]}}, {"id": "1", "type": "Feature", "properties": {"fill": "#a3a3a3", "value_min": 0.75, "value_max": 1.0}, "geometry": {"type": "MultiPolygon", "coordinates": [[[[-7.864707, 41.826661], [-7.876758, 41.82616], [-7.884898, 41.820783], [-7.889042, 41.81214], [-7.883427, 41.802755], [-7.877239, 41.798612], [-7.865217, 41.797751], [-7.855481, 41.80248], [-7.850141, 41.811433], [-7.853555, 41.820474], [-7.864707, 41.826661]], [[-7.87095, 41.81164], [-7.877016, 41.811392], [-7.877243, 41.811701], [-7.877004, 41.812075], [-7.87095, 41.81164]]], [[[-7.856882, 41.766467], [-7.86573, 41.768696], [-7.869204, 41.766588], [-7.873962, 41.757628], [-7.866026, 41.751839], [-7.853938, 41.755257], [-7.851595, 41.757407], [-7.853783, 41.763948], [-7.856882, 41.766467]]], [[[-8.131082, 41.719095], [-8.143124, 41.717545], [-8.146494, 41.714941], [-8.146483, 41.705934], [-8.143306, 41.703853], [-8.131284, 41.704091], [-8.129346, 41.705806], [-8.126623, 41.714792], [-8.131082, 41.719095]]], [[[-8.337767, 41.491023], [-8.337881, 41.491023], [-8.337792, 41.490759], [-8.337767, 41.491023]]], [[[-8.110161, 41.492194], [-8.122137, 41.492477], [-8.129307, 41.489633], [-8.135085, 41.48067], [-8.130378, 41.471627], [-8.122481, 41.466963], [-8.110511, 41.466622], [-8.101611, 41.471406], [-8.098395, 41.476802], [-8.097175, 41.480378], [-8.103462, 41.489435], [-8.110161, 41.492194]]], [[[-8.63793, 41.374363], [-8.650647, 41.366293], [-8.651355, 41.357287], [-8.638081, 41.34708], [-8.626127, 41.347341], [-8.614442, 41.35717], [-8.615765, 41.366182], [-8.625976, 41.373578], [-8.63793, 41.374363]]]]}}, {"id": "6", "type": "Feature", "properties": {"fill": "#245ede", "value_min": 2.0, "value_max": 2.25}, "geometry": {"type": "MultiPolygon", "coordinates": [[[[-7.948592, 41.851561], [-7.96191, 41.848525], [-7.966068, 41.839556], [-7.960935, 41.833294], [-7.948947, 41.829896], [-7.937019, 41.83929], [-7.942617, 41.848349], [-7.948592, 41.851561]]], [[[-7.727034, 41.804305], [-7.732669, 41.805278], [-7.744739, 41.803619], [-7.756922, 41.796109], [-7.759828, 41.79248], [-7.762246, 41.783499], [-7.759603, 41.774464], [-7.748749, 41.76534], [-7.740223, 41.762458], [-7.739912, 41.764148], [-7.726937, 41.771755], [-7.725406, 41.776252], [-7.727191, 41.779184], [-7.724177, 41.780299], [-7.725372, 41.781653], [-7.722296, 41.792446], [-7.728879, 41.797871], [-7.727034, 41.804305]]], [[[-7.937939, 41.767257], [-7.94994, 41.769094], [-7.95359, 41.767388], [-7.959396, 41.758434], [-7.950251, 41.750026], [-7.938191, 41.752026], [-7.933747, 41.758199], [-7.937939, 41.767257]]], [[[-7.890536, 41.725479], [-7.902545, 41.726321], [-7.911497, 41.721963], [-7.913833, 41.712978], [-7.902937, 41.703244], [-7.890914, 41.703478], [-7.881206, 41.712665], [-7.883996, 41.721699], [-7.890536, 41.725479]]], [[[-8.047069, 41.709593], [-8.059105, 41.708524], [-8.061405, 41.705271], [-8.059207, 41.701517], [-8.047204, 41.700433], [-8.043051, 41.70512], [-8.047069, 41.709593]]], [[[-8.083537, 41.680917], [-8.095558, 41.680407], [-8.09715, 41.678536], [-8.095624, 41.675701], [-8.083616, 41.675333], [-8.080897, 41.678407], [-8.083537, 41.680917]]], [[[-8.132118, 41.642033], [-8.144555, 41.633863], [-8.132344, 41.625144], [-8.129554, 41.624744], [-8.122933, 41.615686], [-8.119674, 41.606654], [-8.111236, 41.597582], [-8.096802, 41.591409], [-8.084814, 41.590651], [-8.072778, 41.593327], [-8.065774, 41.597222], [-8.057592, 41.606162], [-8.055896, 41.615155], [-8.059893, 41.624195], [-8.070424, 41.633288], [-8.084142, 41.638209], [-8.096153, 41.637878], [-8.108213, 41.63403], [-8.120223, 41.633707], [-8.132118, 41.642033]]], [[[-8.55321, 41.61526], [-8.566427, 41.609207], [-8.578304, 41.600244], [-8.600843, 41.572322], [-8.636873, 41.564037], [-8.648891, 41.559515], [-8.665282, 41.546486], [-8.670456, 41.537494], [-8.672386, 41.528492], [-8.671305, 41.510474], [-8.67689, 41.501483], [-8.687993, 41.492506], [-8.692378, 41.48351], [-8.691221, 41.4745], [-8.68206, 41.465467], [-8.673364, 41.462543], [-8.661389, 41.462645], [-8.65355, 41.465385], [-8.643405, 41.474361], [-8.637288, 41.489902], [-8.63415, 41.492347], [-8.613287, 41.496912], [-8.601277, 41.501717], [-8.588075, 41.510206], [-8.577179, 41.522409], [-8.565138, 41.530738], [-8.553154, 41.530298], [-8.542374, 41.528048], [-8.529235, 41.522691], [-8.511673, 41.5009], [-8.49352, 41.491721], [-8.481548, 41.490737], [-8.469545, 41.493632], [-8.459664, 41.500667], [-8.455144, 41.509653], [-8.454333, 41.527664], [-8.442932, 41.536617], [-8.440702, 41.545613], [-8.44508, 41.552675], [-8.45702, 41.558822], [-8.462267, 41.563731], [-8.466777, 41.581766], [-8.470961, 41.590793], [-8.48066, 41.601815], [-8.492594, 41.610267], [-8.504554, 41.615653], [-8.528533, 41.619326], [-8.542253, 41.617906], [-8.543431, 41.61462], [-8.55321, 41.61526]]], [[[-8.42164, 41.491785], [-8.435689, 41.491545], [-8.442606, 41.482571], [-8.433787, 41.47259], [-8.420444, 41.473454], [-8.415155, 41.482435], [-8.42164, 41.491785]]]]}}, {"id": "0", "type": "Feature", "properties": {"fill": "#a3a3a3", "value_min": 0.5, "value_max": 0.75}, "geometry": {"type": "Polygon", "coordinates": [[[-7.87095, 41.81164], [-7.877004, 41.812075], [-7.877243, 41.811701], [-7.877016, 41.811392], [-7.87095, 41.81164]]]}}]}