{"type": "FeatureCollection", "features": [{"id": "0", "type": "Feature", "properties": {"fill": "#e19f31", "value_min": -1.5, "value_max": -1.25}, "geometry": {"type": "Polygon", "coordinates": [[[-8.733859, 41.309894], [-8.740671, 41.303477], [-8.74278, 41.294474], [-8.738293, 41.285456], [-8.733972, 41.282211], [-8.722049, 41.277843], [-8.710105, 41.278456], [-8.698138, 41.284318], [-8.693003, 41.294352], [-8.695209, 41.303366], [-8.698035, 41.306516], [-8.709951, 41.313375], [-8.721895, 41.314143], [-8.733859, 41.309894]]]}}, {"id": "1", "type": "Feature", "properties": {"fill": "#b6a27f", "value_min": -1.25, "value_max": -1.0}, "geometry": {"type": "Polygon", "coordinates": [[[-8.745768, 41.319582], [-8.755171, 41.312516], [-8.757757, 41.308568], [-8.760805, 41.303521], [-8.762056, 41.294515], [-8.759231, 41.285502], [-8.751353, 41.276477], [-8.734027, 41.268509], [-8.722095, 41.266908], [-8.710153, 41.267758], [-8.698197, 41.271361], [-8.689661, 41.276327], [-8.68174, 41.285314], [-8.679422, 41.294315], [-8.681348, 41.303328], [-8.688002, 41.312354], [-8.697976, 41.319448], [-8.709904, 41.323956], [-8.721847, 41.325394], [-8.733801, 41.324123], [-8.745768, 41.319582]], [[-8.733859, 41.309894], [-8.721895, 41.314143], [-8.709951, 41.313375], [-8.698035, 41.306516], [-8.695209, 41.303366], [-8.693003, 41.294352], [-8.698138, 41.284318], [-8.710105, 41.278456], [-8.722049, 41.277843], [-8.733972, 41.282211], [-8.738293, 41.285456], [-8.74278, 41.294474], [-8.740671, 41.303477], [-8.733859, 41.309894]]]}}, {"id": "4", "type": "Feature", "properties": {"fill": "#a3a3a3", "value_min": -0.5, "value_max": -0.25}, "geometry": {"type": "MultiPolygon", "coordinates": [[[[-7.914354, 41.739041], [-7.926287, 41.731109], [-7.934637, 41.722179], [-7.93733, 41.713197], [-7.936574, 41.704184], [-7.92719, 41.690265], [-7.915294, 41.683123], [-7.903321, 41.680663], [-7.891268, 41.682875], [-7.879042, 41.695019], [-7.868316, 41.721545], [-7.868167, 41.730551], [-7.878277, 41.739073], [-7.890222, 41.743745], [-7.902249, 41.743704], [-7.914354, 41.739041]], [[-7.890391, 41.733908], [-7.884107, 41.730707], [-7.878514, 41.725402], [-7.876538, 41.721626], [-7.878036, 41.712634], [-7.891003, 41.698334], [-7.903046, 41.69686], [-7.917545, 41.704006], [-7.922288, 41.713057], [-7.920463, 41.722047], [-7.91454, 41.727949], [-7.902412, 41.734126], [-7.890391, 41.733908]]], [[[-8.636973, 41.546293], [-8.649976, 41.537433], [-8.652719, 41.528434], [-8.648982, 41.519416], [-8.636755, 41.51037], [-8.625207, 41.507535], [-8.613214, 41.509131], [-8.600578, 41.519258], [-8.598842, 41.528259], [-8.603071, 41.537281], [-8.613002, 41.544777], [-8.624975, 41.54773], [-8.636973, 41.546293]]], [[[-8.361575, 41.508697], [-8.369977, 41.500211], [-8.373429, 41.491222], [-8.373392, 41.482215], [-8.370052, 41.473189], [-8.362011, 41.464305], [-8.350095, 41.458466], [-8.338135, 41.45711], [-8.326143, 41.458903], [-8.314104, 41.465073], [-8.306664, 41.472824], [-8.303522, 41.481813], [-8.303977, 41.490823], [-8.307943, 41.499854], [-8.313672, 41.506024], [-8.325581, 41.513127], [-8.337541, 41.515371], [-8.349537, 41.514219], [-8.361575, 41.508697]]], [[[-8.80238, 41.212446], [-8.781955, 41.216833], [-8.732914, 41.231397], [-8.662516, 41.244644], [-8.647556, 41.249183], [-8.632358, 41.258143], [-8.623304, 41.267122], [-8.617284, 41.27611], [-8.614373, 41.285108], [-8.614392, 41.294115], [-8.617818, 41.303135], [-8.626785, 41.312172], [-8.662049, 41.335345], [-8.697757, 41.366772], [-8.721606, 41.381957], [-8.745496, 41.389427], [-8.75745, 41.39148], [-8.781367, 41.393227], [-8.80944, 41.391684], [-8.807073, 41.3317], [-8.793491, 41.341749], [-8.769552, 41.351488], [-8.745631, 41.354686], [-8.721733, 41.352233], [-8.697865, 41.343374], [-8.674037, 41.32784], [-8.65649, 41.312264], [-8.650769, 41.303239], [-8.64767, 41.294222], [-8.648021, 41.285215], [-8.651695, 41.276219], [-8.659069, 41.267233], [-8.674386, 41.25766], [-8.698295, 41.250225], [-8.734122, 41.245082], [-8.757992, 41.244972], [-8.782812, 41.249517], [-8.793768, 41.25388], [-8.804258, 41.260227], [-8.80238, 41.212446]]]]}}, {"id": "3", "type": "Feature", "properties": {"fill": "#a3a3a3", "value_min": -0.75, "value_max": -0.5}, "geometry": {"type": "MultiPolygon", "coordinates": [[[[-7.890391, 41.733908], [-7.902412, 41.734126], [-7.91454, 41.727949], [-7.920463, 41.722047], [-7.922288, 41.713057], [-7.917545, 41.704006], [-7.903046, 41.69686], [-7.891003, 41.698334], [-7.878036, 41.712634], [-7.876538, 41.721626], [-7.878514, 41.725402], [-7.884107, 41.730707], [-7.890391, 41.733908]], [[-7.890521, 41.726367], [-7.885068, 41.721709], [-7.885446, 41.712706], [-7.890851, 41.70718], [-7.902881, 41.70654], [-7.910576, 41.712947], [-7.909203, 41.721941], [-7.902543, 41.726391], [-7.890521, 41.726367]]], [[[-8.804258, 41.260227], [-8.793768, 41.25388], [-8.782812, 41.249517], [-8.757992, 41.244972], [-8.734122, 41.245082], [-8.698295, 41.250225], [-8.674386, 41.25766], [-8.659069, 41.267233], [-8.651695, 41.276219], [-8.648021, 41.285215], [-8.64767, 41.294222], [-8.650769, 41.303239], [-8.65649, 41.312264], [-8.674037, 41.32784], [-8.697865, 41.343374], [-8.721733, 41.352233], [-8.745631, 41.354686], [-8.769552, 41.351488], [-8.793491, 41.341749], [-8.807073, 41.3317], [-8.804258, 41.260227]], [[-8.745706, 41.335639], [-8.733748, 41.337255], [-8.721798, 41.336957], [-8.709856, 41.334755], [-8.697926, 41.330234], [-8.686008, 41.323509], [-8.673559, 41.312314], [-8.667722, 41.303289], [-8.665617, 41.294276], [-8.666851, 41.285271], [-8.672059, 41.276279], [-8.686286, 41.265438], [-8.698246, 41.260733], [-8.710196, 41.258071], [-8.734074, 41.257066], [-8.746004, 41.258793], [-8.757928, 41.26246], [-8.767906, 41.267504], [-8.778235, 41.276532], [-8.78349, 41.28555], [-8.785626, 41.294562], [-8.784765, 41.303568], [-8.780887, 41.312568], [-8.769646, 41.324725], [-8.757671, 41.33174], [-8.745706, 41.335639]]]]}}, {"id": "2", "type": "Feature", "properties": {"fill": "#a3a3a3", "value_min": -1.0, "value_max": -0.75}, "geometry": {"type": "MultiPolygon", "coordinates": [[[[-7.890521, 41.726367], [-7.902543, 41.726391], [-7.909203, 41.721941], [-7.910576, 41.712947], [-7.902881, 41.70654], [-7.890851, 41.70718], [-7.885446, 41.712706], [-7.885068, 41.721709], [-7.890521, 41.726367]]], [[[-8.745706, 41.335639], [-8.757671, 41.33174], [-8.769646, 41.324725], [-8.780887, 41.312568], [-8.784765, 41.303568], [-8.785626, 41.294562], [-8.78349, 41.28555], [-8.778235, 41.276532], [-8.767906, 41.267504], [-8.757928, 41.26246], [-8.746004, 41.258793], [-8.734074, 41.257066], [-8.710196, 41.258071], [-8.698246, 41.260733], [-8.686286, 41.265438], [-8.672059, 41.276279], [-8.666851, 41.285271], [-8.665617, 41.294276], [-8.667722, 41.303289], [-8.673559, 41.312314], [-8.686008, 41.323509], [-8.697926, 41.330234], [-8.709856, 41.334755], [-8.721798, 41.336957], [-8.733748, 41.337255], [-8.745706, 41.335639]], [[-8.745768, 41.319582], [-8.733801, 41.324123], [-8.721847, 41.325394], [-8.709904, 41.323956], [-8.697976, 41.319448], [-8.688002, 41.312354], [-8.681348, 41.303328], [-8.679422, 41.294315], [-8.68174, 41.285314], [-8.689661, 41.276327], [-8.698197, 41.271361], [-8.710153, 41.267758], [-8.722095, 41.266908], [-8.734027, 41.268509], [-8.751353, 41.276477], [-8.759231, 41.285502], [-8.762056, 41.294515], [-8.760805, 41.303521], [-8.757757, 41.308568], [-8.755171, 41.312516], [-8.745768, 41.319582]]]]}}, {"id": "5", "type": "Feature", "properties": {"fill": "#a3a3a3", "value_min": -0.25, "value_max": -0.0}, "geometry": {"type": "MultiPolygon", "coordinates": [[[[-8.590672, 41.620293], [-8.596534, 41.616668], [-8.601628, 41.615972], [-8.603996, 41.611686], [-8.613256, 41.606696], [-8.619881, 41.610269], [-8.621338, 41.604636], [-8.628833, 41.604378], [-8.636302, 41.600744], [-8.64075, 41.594422], [-8.645536, 41.593051], [-8.646744, 41.594171], [-8.649125, 41.591909], [-8.656622, 41.5921], [-8.660788, 41.588255], [-8.663794, 41.589141], [-8.665265, 41.585758], [-8.66948, 41.587989], [-8.684455, 41.586117], [-8.685608, 41.58071], [-8.697261, 41.576376], [-8.701703, 41.570277], [-8.707704, 41.570923], [-8.711586, 41.569327], [-8.716422, 41.573805], [-8.720316, 41.57356], [-8.725151, 41.577811], [-8.726633, 41.576003], [-8.734424, 41.575737], [-8.736564, 41.580228], [-8.738354, 41.579318], [-8.740778, 41.582006], [-8.74467, 41.581535], [-8.750711, 41.58623], [-8.756374, 41.582823], [-8.75635, 41.580347], [-8.762327, 41.578514], [-8.764443, 41.580303], [-8.767441, 41.580286], [-8.769874, 41.583874], [-8.768997, 41.58613], [-8.773228, 41.589482], [-8.775371, 41.593972], [-8.78556, 41.593464], [-8.797327, 41.600599], [-8.804218, 41.600109], [-8.80456, 41.604158], [-8.809434, 41.611332], [-8.828644, 41.609656], [-8.82839, 41.585633], [-8.818497, 41.554794], [-8.8221, 41.547542], [-8.821965, 41.534907], [-8.815926, 41.525624], [-8.81063, 41.5101], [-8.813279, 41.503483], [-8.812636, 41.496944], [-8.804699, 41.482068], [-8.798552, 41.474753], [-8.80154, 41.446836], [-8.806115, 41.43713], [-8.807354, 41.425915], [-8.811035, 41.418186], [-8.80944, 41.391684], [-8.781367, 41.393227], [-8.75745, 41.39148], [-8.745496, 41.389427], [-8.721606, 41.381957], [-8.697757, 41.366772], [-8.662049, 41.335345], [-8.626785, 41.312172], [-8.617818, 41.303135], [-8.614392, 41.294115], [-8.614373, 41.285108], [-8.617284, 41.27611], [-8.623304, 41.267122], [-8.632358, 41.258143], [-8.647556, 41.249183], [-8.662516, 41.244644], [-8.732914, 41.231397], [-8.781955, 41.216833], [-8.80238, 41.212446], [-8.799695, 41.14406], [-8.724008, 41.145734], [-8.734489, 41.154327], [-8.743259, 41.168365], [-8.74507, 41.186385], [-8.742427, 41.195387], [-8.736838, 41.204382], [-8.727258, 41.213368], [-8.710355, 41.22202], [-8.698411, 41.224855], [-8.674547, 41.225276], [-8.660132, 41.222197], [-8.650724, 41.217933], [-8.641626, 41.213133], [-8.631095, 41.204092], [-8.621983, 41.186047], [-8.621907, 41.179666], [-8.613374, 41.177451], [-8.608583, 41.174095], [-8.609164, 41.172066], [-8.604942, 41.164881], [-8.59422, 41.165149], [-8.589766, 41.167193], [-8.589194, 41.170572], [-8.583263, 41.174422], [-8.582094, 41.177803], [-8.578825, 41.178941], [-8.581296, 41.191762], [-8.575958, 41.195609], [-8.577183, 41.200557], [-8.574517, 41.202936], [-8.579219, 41.206434], [-8.582936, 41.212935], [-8.583026, 41.221944], [-8.57776, 41.230932], [-8.56709, 41.237078], [-8.555143, 41.239118], [-8.543229, 41.236237], [-8.534593, 41.230766], [-8.529567, 41.221738], [-8.531559, 41.211078], [-8.529858, 41.210859], [-8.52713, 41.203215], [-8.523236, 41.200077], [-8.51163, 41.203042], [-8.510456, 41.206197], [-8.505693, 41.207113], [-8.504239, 41.213646], [-8.500076, 41.21546], [-8.50308, 41.219502], [-8.502204, 41.222656], [-8.495642, 41.222227], [-8.495947, 41.223351], [-8.490894, 41.226294], [-8.487935, 41.230354], [-8.490331, 41.232373], [-8.489156, 41.235528], [-8.486181, 41.236888], [-8.484411, 41.240495], [-8.476346, 41.237818], [-8.475756, 41.23917], [-8.470986, 41.23941], [-8.471604, 41.243459], [-8.469227, 41.245267], [-8.463258, 41.244384], [-8.459989, 41.246644], [-8.454323, 41.246886], [-8.455541, 41.251834], [-8.452276, 41.25522], [-8.449891, 41.255452], [-8.449304, 41.257479], [-8.447812, 41.257258], [-8.449028, 41.261982], [-8.439785, 41.262907], [-8.438023, 41.268989], [-8.434745, 41.269673], [-8.432691, 41.277107], [-8.427032, 41.279372], [-8.429143, 41.284319], [-8.426171, 41.287028], [-8.426488, 41.291079], [-8.425013, 41.294909], [-8.422037, 41.296942], [-8.422647, 41.299867], [-8.407744, 41.304856], [-8.406262, 41.307335], [-8.403277, 41.307342], [-8.401801, 41.311398], [-8.399712, 41.311628], [-8.400316, 41.313202], [-8.396738, 41.314336], [-8.398835, 41.316131], [-8.393775, 41.31997], [-8.393489, 41.323122], [-8.391105, 41.324253], [-8.386325, 41.323588], [-8.380382, 41.331254], [-8.375305, 41.33104], [-8.37201, 41.328346], [-8.361563, 41.329718], [-8.358276, 41.329049], [-8.357673, 41.327249], [-8.350207, 41.327264], [-8.346032, 41.328847], [-8.342462, 41.333131], [-8.333215, 41.336299], [-8.326363, 41.342163], [-8.324568, 41.341041], [-8.323376, 41.341943], [-8.320676, 41.338121], [-8.312604, 41.334983], [-8.313794, 41.333405], [-8.31139, 41.328007], [-8.307502, 41.325762], [-8.305116, 41.326891], [-8.303024, 41.325994], [-8.303615, 41.323742], [-8.301216, 41.319694], [-8.296431, 41.316774], [-8.297618, 41.313846], [-8.295817, 41.310022], [-8.281801, 41.316569], [-8.281808, 41.319721], [-8.278828, 41.321976], [-8.278238, 41.325128], [-8.273161, 41.325134], [-8.269582, 41.326939], [-8.265709, 41.331221], [-8.269004, 41.336169], [-8.265722, 41.337748], [-8.264805, 41.340225], [-8.271722, 41.346503], [-8.277503, 41.355547], [-8.27984, 41.36457], [-8.27666, 41.382565], [-8.271245, 41.391538], [-8.262477, 41.40049], [-8.242872, 41.411993], [-8.230865, 41.415531], [-8.218882, 41.416963], [-8.206921, 41.416589], [-8.194983, 41.414313], [-8.183075, 41.409757], [-8.167727, 41.399844], [-8.159745, 41.390778], [-8.15282, 41.375866], [-8.150152, 41.37339], [-8.139694, 41.377894], [-8.133418, 41.374292], [-8.119672, 41.376768], [-8.119672, 41.378569], [-8.116683, 41.380144], [-8.117578, 41.386447], [-8.113992, 41.386896], [-8.112795, 41.390723], [-8.110105, 41.390947], [-8.108011, 41.393648], [-8.103827, 41.392972], [-8.105321, 41.394998], [-8.10263, 41.396123], [-8.10801, 41.398825], [-8.108606, 41.403102], [-8.104419, 41.406252], [-8.104119, 41.408728], [-8.101727, 41.409403], [-8.102025, 41.411204], [-8.092756, 41.411201], [-8.09126, 41.414352], [-8.079893, 41.41975], [-8.077503, 41.416597], [-8.070923, 41.41862], [-8.066739, 41.416142], [-8.061953, 41.417264], [-8.059852, 41.424916], [-8.055959, 41.429415], [-8.057743, 41.438645], [-8.061033, 41.438872], [-8.064916, 41.444052], [-8.067908, 41.444279], [-8.069999, 41.447206], [-8.068788, 41.462286], [-8.073872, 41.46499], [-8.074468, 41.468141], [-8.073564, 41.474668], [-8.066374, 41.482318], [-8.066069, 41.48817], [-8.072054, 41.490199], [-8.07175, 41.494925], [-8.078333, 41.49898], [-8.078332, 41.500331], [-8.093, 41.504613], [-8.0909, 41.511554], [-8.10989, 41.512027], [-8.126226, 41.516632], [-8.138551, 41.525732], [-8.156754, 41.543882], [-8.181171, 41.56113], [-8.21689, 41.582591], [-8.240752, 41.593774], [-8.264664, 41.601226], [-8.276641, 41.603335], [-8.288632, 41.604195], [-8.312653, 41.602309], [-8.336717, 41.59604], [-8.360818, 41.585586], [-8.372885, 41.578398], [-8.3903, 41.563372], [-8.397101, 41.55423], [-8.416935, 41.518473], [-8.418816, 41.509475], [-8.415325, 41.50045], [-8.409638, 41.494267], [-8.4064, 41.48239], [-8.409856, 41.470195], [-8.421919, 41.460464], [-8.433924, 41.456899], [-8.469876, 41.452918], [-8.481873, 41.44988], [-8.49389, 41.444155], [-8.518226, 41.428868], [-8.529942, 41.424841], [-8.541922, 41.423172], [-8.553884, 41.423833], [-8.565829, 41.427284], [-8.577746, 41.435022], [-8.585263, 41.447144], [-8.585533, 41.456152], [-8.581721, 41.465146], [-8.572764, 41.474121], [-8.544022, 41.492025], [-8.540694, 41.501019], [-8.541461, 41.519037], [-8.548675, 41.53708], [-8.568826, 41.56418], [-8.578751, 41.582231], [-8.590672, 41.620293]], [[-8.636973, 41.546293], [-8.624975, 41.54773], [-8.613002, 41.544777], [-8.603071, 41.537281], [-8.598842, 41.528259], [-8.600578, 41.519258], [-8.613214, 41.509131], [-8.625207, 41.507535], [-8.636755, 41.51037], [-8.648982, 41.519416], [-8.652719, 41.528434], [-8.649976, 41.537433], [-8.636973, 41.546293]], [[-8.361575, 41.508697], [-8.349537, 41.514219], [-8.337541, 41.515371], [-8.325581, 41.513127], [-8.313672, 41.506024], [-8.307943, 41.499854], [-8.303977, 41.490823], [-8.303522, 41.481813], [-8.306664, 41.472824], [-8.314104, 41.465073], [-8.326143, 41.458903], [-8.338135, 41.45711], [-8.350095, 41.458466], [-8.362011, 41.464305], [-8.370052, 41.473189], [-8.373392, 41.482215], [-8.373429, 41.491222], [-8.369977, 41.500211], [-8.361575, 41.508697]], [[-8.362687, 41.395222], [-8.35074, 41.393729], [-8.338832, 41.388375], [-8.3312, 41.382895], [-8.325544, 41.373854], [-8.32456, 41.364841], [-8.329173, 41.35586], [-8.339238, 41.348297], [-8.35123, 41.34438], [-8.363188, 41.343861], [-8.375116, 41.346486], [-8.387006, 41.353164], [-8.395571, 41.365236], [-8.396212, 41.374247], [-8.392146, 41.383233], [-8.379271, 41.392172], [-8.362687, 41.395222]], [[-8.625924, 41.382759], [-8.613986, 41.379124], [-8.608656, 41.375165], [-8.603723, 41.366141], [-8.605012, 41.357138], [-8.614169, 41.348138], [-8.62614, 41.345009], [-8.638087, 41.34603], [-8.65, 41.353523], [-8.652943, 41.357292], [-8.654164, 41.366303], [-8.649646, 41.375297], [-8.637889, 41.381842], [-8.625924, 41.382759]]], [[[-7.765094, 41.7236], [-7.786854, 41.747735], [-7.801401, 41.774908], [-7.80625, 41.801979], [-7.804555, 41.823581], [-7.798961, 41.846936], [-7.791917, 41.855335], [-7.767971, 41.847602], [-7.755945, 41.8466], [-7.750534, 41.848857], [-7.749629, 41.849234], [-7.745404, 41.850996], [-7.746881, 41.855776], [-7.739943, 41.858003], [-7.735125, 41.864064], [-7.735088, 41.864151], [-7.735087, 41.864426], [-7.735296, 41.86519], [-7.735358, 41.865415], [-7.737519, 41.873297], [-7.743241, 41.8802], [-7.755183, 41.885846], [-7.767211, 41.887172], [-7.785562, 41.884421], [-7.788886, 41.882467], [-7.794309, 41.882033], [-7.796739, 41.878214], [-7.794349, 41.87438], [-7.797064, 41.873488], [-7.803381, 41.874857], [-7.804914, 41.869459], [-7.813032, 41.871958], [-7.814229, 41.873537], [-7.823863, 41.874013], [-7.825059, 41.875817], [-7.830479, 41.875831], [-7.830789, 41.874031], [-7.832894, 41.874712], [-7.83772, 41.872924], [-7.842528, 41.875187], [-7.841663, 41.866632], [-7.849515, 41.861475], [-7.858542, 41.862622], [-7.859456, 41.860148], [-7.864877, 41.859711], [-7.87033, 41.851395], [-7.873043, 41.850501], [-7.873066, 41.844875], [-7.879956, 41.853217], [-7.888076, 41.855486], [-7.891675, 41.859094], [-7.900965, 41.861589], [-7.906877, 41.848014], [-7.9088, 41.830019], [-7.905337, 41.811973], [-7.89848, 41.793893], [-7.898309, 41.784885], [-7.902461, 41.775918], [-7.914696, 41.75802], [-7.923639, 41.749098], [-7.938383, 41.740332], [-7.959559, 41.731415], [-7.968455, 41.722488], [-7.976063, 41.704542], [-7.977409, 41.695547], [-7.974088, 41.677504], [-7.946462, 41.599682], [-7.942725, 41.595625], [-7.935832, 41.594713], [-7.93791, 41.601694], [-7.937004, 41.603718], [-7.931604, 41.604384], [-7.930979, 41.612711], [-7.925556, 41.620354], [-7.920755, 41.620796], [-7.917748, 41.623041], [-7.915933, 41.627764], [-7.913229, 41.628885], [-7.912613, 41.63361], [-7.906014, 41.633147], [-7.906884, 41.641927], [-7.897869, 41.645511], [-7.89696, 41.647985], [-7.892759, 41.647976], [-7.892145, 41.651576], [-7.902319, 41.659925], [-7.899913, 41.66127], [-7.900198, 41.665547], [-7.898396, 41.665769], [-7.896885, 41.668692], [-7.883969, 41.67069], [-7.879755, 41.673607], [-7.877044, 41.676077], [-7.876723, 41.681253], [-7.873401, 41.686198], [-7.868896, 41.686413], [-7.868008, 41.68326], [-7.864403, 41.683701], [-7.864096, 41.685276], [-7.860493, 41.685268], [-7.858979, 41.688415], [-7.856644, 41.689085], [-7.861966, 41.694462], [-7.86709, 41.703519], [-7.863422, 41.71249], [-7.854552, 41.720686], [-7.842478, 41.72363], [-7.830491, 41.72163], [-7.818269, 41.714421], [-7.815291, 41.718689], [-7.808986, 41.717996], [-7.808396, 41.715744], [-7.804499, 41.714158], [-7.79939, 41.714593], [-7.79788, 41.716164], [-7.796383, 41.71526], [-7.790966, 41.717044], [-7.789449, 41.719966], [-7.78464, 41.720402], [-7.78252, 41.723546], [-7.776204, 41.724652], [-7.773786, 41.727346], [-7.769299, 41.72373], [-7.765094, 41.7236]], [[-7.914354, 41.739041], [-7.902249, 41.743704], [-7.890222, 41.743745], [-7.878277, 41.739073], [-7.868167, 41.730551], [-7.868316, 41.721545], [-7.879042, 41.695019], [-7.891268, 41.682875], [-7.903321, 41.680663], [-7.915294, 41.683123], [-7.92719, 41.690265], [-7.936574, 41.704184], [-7.93733, 41.713197], [-7.934637, 41.722179], [-7.926287, 41.731109], [-7.914354, 41.739041]]], [[[-7.855974, 41.688408], [-7.855974, 41.688408], [-7.856574, 41.689015], [-7.855974, 41.688408]]], [[[-7.948804, 41.838623], [-7.946961, 41.839382], [-7.948754, 41.841676], [-7.950906, 41.839418], [-7.948804, 41.838623]]], [[[-8.441676, 41.711049], [-8.438966, 41.707735], [-8.43176, 41.704222], [-8.41976, 41.702036], [-8.407722, 41.704206], [-8.401204, 41.707544], [-8.393739, 41.716512], [-8.393973, 41.72552], [-8.39726, 41.730067], [-8.400531, 41.726683], [-8.402934, 41.726452], [-8.404721, 41.722847], [-8.417349, 41.725067], [-8.422737, 41.720552], [-8.429643, 41.719859], [-8.430533, 41.717381], [-8.435927, 41.714441], [-8.441333, 41.714201], [-8.441676, 41.711049]]], [[[-8.144427, 41.705919], [-8.131249, 41.706659], [-8.129018, 41.71481], [-8.1311, 41.717718], [-8.143132, 41.716938], [-8.145951, 41.714937], [-8.144427, 41.705919]]], [[[-8.227511, 41.69783], [-8.225617, 41.688481], [-8.21568, 41.682417], [-8.203658, 41.683034], [-8.196511, 41.688281], [-8.193361, 41.697266], [-8.203357, 41.707421], [-8.215371, 41.707892], [-8.218869, 41.706449], [-8.227511, 41.69783]]]]}}, {"id": "6", "type": "Feature", "properties": {"fill": "#a3a3a3", "value_min": 0.0, "value_max": -0.25}, "geometry": {"type": "MultiPolygon", "coordinates": [[[[-8.590672, 41.620293], [-8.578751, 41.582231], [-8.568826, 41.56418], [-8.548675, 41.53708], [-8.541461, 41.519037], [-8.540694, 41.501019], [-8.544022, 41.492025], [-8.572764, 41.474121], [-8.581721, 41.465146], [-8.585533, 41.456152], [-8.585263, 41.447144], [-8.577746, 41.435022], [-8.565829, 41.427284], [-8.553884, 41.423833], [-8.541922, 41.423172], [-8.529942, 41.424841], [-8.518226, 41.428868], [-8.49389, 41.444155], [-8.481873, 41.44988], [-8.469876, 41.452918], [-8.433924, 41.456899], [-8.421919, 41.460464], [-8.409856, 41.470195], [-8.4064, 41.48239], [-8.409638, 41.494267], [-8.415325, 41.50045], [-8.418816, 41.509475], [-8.416935, 41.518473], [-8.397101, 41.55423], [-8.3903, 41.563372], [-8.372885, 41.578398], [-8.360818, 41.585586], [-8.336717, 41.59604], [-8.312653, 41.602309], [-8.288632, 41.604195], [-8.276641, 41.603335], [-8.264664, 41.601226], [-8.240752, 41.593774], [-8.21689, 41.582591], [-8.181171, 41.56113], [-8.156754, 41.543882], [-8.138551, 41.525732], [-8.126226, 41.516632], [-8.10989, 41.512027], [-8.0909, 41.511554], [-8.091196, 41.516767], [-8.089398, 41.519468], [-8.090594, 41.522169], [-8.093588, 41.52307], [-8.091786, 41.531848], [-8.097775, 41.536127], [-8.097774, 41.537927], [-8.106759, 41.543557], [-8.101666, 41.542655], [-8.094175, 41.544904], [-8.087885, 41.542876], [-8.083389, 41.5449], [-8.080687, 41.551651], [-8.074097, 41.549848], [-8.073494, 41.553449], [-8.075891, 41.554575], [-8.076188, 41.557276], [-8.079783, 41.558403], [-8.081576, 41.565157], [-8.078879, 41.56493], [-8.075279, 41.568305], [-8.073182, 41.568079], [-8.069283, 41.570553], [-8.068081, 41.573478], [-8.056684, 41.579549], [-8.052181, 41.584498], [-8.052777, 41.587649], [-8.037169, 41.600242], [-8.031467, 41.602938], [-8.02367, 41.603156], [-8.019174, 41.601802], [-8.015872, 41.603824], [-8.013474, 41.603372], [-8.005971, 41.60629], [-8.003562, 41.611239], [-7.998761, 41.612809], [-7.999669, 41.608759], [-7.996976, 41.605829], [-7.996684, 41.602003], [-7.984685, 41.603564], [-7.982292, 41.60086], [-7.975689, 41.603552], [-7.974482, 41.606701], [-7.970882, 41.607147], [-7.969091, 41.603768], [-7.965796, 41.602413], [-7.9541, 41.602846], [-7.952606, 41.600592], [-7.947808, 41.60081], [-7.946462, 41.599682], [-7.974088, 41.677504], [-7.977409, 41.695547], [-7.976063, 41.704542], [-7.968455, 41.722488], [-7.959559, 41.731415], [-7.938383, 41.740332], [-7.923639, 41.749098], [-7.914696, 41.75802], [-7.902461, 41.775918], [-7.898309, 41.784885], [-7.89848, 41.793893], [-7.905337, 41.811973], [-7.9088, 41.830019], [-7.906877, 41.848014], [-7.900965, 41.861589], [-7.904318, 41.859795], [-7.907309, 41.865203], [-7.906095, 41.868126], [-7.910299, 41.871285], [-7.909985, 41.875111], [-7.915391, 41.879397], [-7.921118, 41.877833], [-7.928044, 41.87807], [-7.935283, 41.874707], [-7.937389, 41.87516], [-7.941618, 41.870891], [-7.951254, 41.871132], [-7.956367, 41.87339], [-7.956362, 41.875191], [-7.960878, 41.875648], [-7.962086, 41.874074], [-7.973828, 41.875216], [-7.987996, 41.869157], [-7.990123, 41.860157], [-7.995547, 41.858138], [-7.994047, 41.855211], [-7.996162, 41.851837], [-8.003089, 41.850494], [-8.005804, 41.847346], [-8.007928, 41.838796], [-8.010941, 41.836773], [-8.013965, 41.828899], [-8.017873, 41.831379], [-8.02901, 41.829589], [-8.037134, 41.831171], [-8.041351, 41.828023], [-8.041054, 41.825097], [-8.045268, 41.824425], [-8.046775, 41.821951], [-8.056712, 41.81588], [-8.06664, 41.817012], [-8.072961, 41.813414], [-8.078678, 41.813417], [-8.082892, 41.810493], [-8.091013, 41.812521], [-8.093421, 41.811397], [-8.093723, 41.808471], [-8.101845, 41.809824], [-8.104853, 41.81185], [-8.115984, 41.812302], [-8.123807, 41.808702], [-8.138247, 41.808477], [-8.139751, 41.813203], [-8.14276, 41.812978], [-8.144866, 41.815228], [-8.149078, 41.814777], [-8.153291, 41.817703], [-8.158106, 41.818377], [-8.165326, 41.81815], [-8.173744, 41.808019], [-8.177655, 41.808242], [-8.183676, 41.812741], [-8.190291, 41.809587], [-8.197158, 41.814129], [-8.201063, 41.808724], [-8.204973, 41.807372], [-8.205872, 41.804445], [-8.213692, 41.803765], [-8.217598, 41.80016], [-8.217589, 41.793634], [-8.224207, 41.794303], [-8.229917, 41.791598], [-8.240744, 41.791588], [-8.24074, 41.789338], [-8.244347, 41.787984], [-8.245546, 41.785731], [-8.251257, 41.784375], [-8.251845, 41.777172], [-8.257551, 41.773564], [-8.261762, 41.774235], [-8.271366, 41.766346], [-8.280681, 41.764083], [-8.284038, 41.761109], [-8.284931, 41.757507], [-8.305674, 41.758152], [-8.311096, 41.762195], [-8.318308, 41.761283], [-8.325233, 41.765098], [-8.328234, 41.763292], [-8.336653, 41.763728], [-8.341756, 41.761468], [-8.344765, 41.762363], [-8.349267, 41.760103], [-8.352557, 41.755145], [-8.349814, 41.744122], [-8.352516, 41.743441], [-8.352203, 41.739616], [-8.357897, 41.735103], [-8.362407, 41.735994], [-8.368703, 41.73193], [-8.374122, 41.734845], [-8.384922, 41.73032], [-8.387332, 41.73189], [-8.393033, 41.729852], [-8.39726, 41.730067], [-8.393973, 41.72552], [-8.393739, 41.716512], [-8.401204, 41.707544], [-8.407722, 41.704206], [-8.41976, 41.702036], [-8.43176, 41.704222], [-8.438966, 41.707735], [-8.441676, 41.711049], [-8.453868, 41.697961], [-8.453255, 41.695487], [-8.461659, 41.694563], [-8.482012, 41.682123], [-8.484371, 41.674238], [-8.49308, 41.674886], [-8.499963, 41.671038], [-8.50927, 41.671233], [-8.51018, 41.672806], [-8.511967, 41.670324], [-8.509856, 41.668755], [-8.522103, 41.658811], [-8.525706, 41.659023], [-8.527769, 41.652714], [-8.534066, 41.652017], [-8.537355, 41.64998], [-8.537634, 41.646602], [-8.543876, 41.637352], [-8.543855, 41.633976], [-8.536342, 41.631977], [-8.535128, 41.62973], [-8.543431, 41.61462], [-8.554533, 41.615255], [-8.557244, 41.617046], [-8.562639, 41.61635], [-8.568056, 41.619031], [-8.570735, 41.616095], [-8.577321, 41.614269], [-8.581231, 41.615829], [-8.585766, 41.620988], [-8.590672, 41.620293]], [[-7.948804, 41.838623], [-7.950906, 41.839418], [-7.948754, 41.841676], [-7.946961, 41.839382], [-7.948804, 41.838623]], [[-8.144427, 41.705919], [-8.145951, 41.714937], [-8.143132, 41.716938], [-8.1311, 41.717718], [-8.129018, 41.71481], [-8.131249, 41.706659], [-8.144427, 41.705919]], [[-8.227511, 41.69783], [-8.218869, 41.706449], [-8.215371, 41.707892], [-8.203357, 41.707421], [-8.193361, 41.697266], [-8.196511, 41.688281], [-8.203658, 41.683034], [-8.21568, 41.682417], [-8.225617, 41.688481], [-8.227511, 41.69783]]], [[[-7.785562, 41.884421], [-7.767211, 41.887172], [-7.755183, 41.885846], [-7.743241, 41.8802], [-7.737519, 41.873297], [-7.735358, 41.865415], [-7.734159, 41.868337], [-7.730228, 41.871024], [-7.729293, 41.875972], [-7.720533, 41.880218], [-7.720523, 41.881793], [-7.725335, 41.882935], [-7.726208, 41.887665], [-7.737044, 41.888828], [-7.73944, 41.891087], [-7.74246, 41.889747], [-7.742785, 41.885922], [-7.756022, 41.888441], [-7.758719, 41.890926], [-7.756592, 41.89407], [-7.758076, 41.897901], [-7.764097, 41.898595], [-7.779227, 41.886264], [-7.785562, 41.884421]]], [[[-7.735296, 41.86519], [-7.735296, 41.86519], [-7.735087, 41.864426], [-7.735296, 41.86519]]], [[[-7.735088, 41.864151], [-7.735088, 41.864151], [-7.735125, 41.864064], [-7.735088, 41.864151]]], [[[-7.745404, 41.850996], [-7.749629, 41.849234], [-7.743309, 41.849012], [-7.745404, 41.850996]]], [[[-7.750534, 41.848857], [-7.755945, 41.8466], [-7.767971, 41.847602], [-7.791917, 41.855335], [-7.798961, 41.846936], [-7.804555, 41.823581], [-7.80625, 41.801979], [-7.801401, 41.774908], [-7.786854, 41.747735], [-7.765094, 41.7236], [-7.761765, 41.727758], [-7.762933, 41.733839], [-7.759307, 41.737203], [-7.759597, 41.739005], [-7.75689, 41.739446], [-7.758687, 41.740577], [-7.757758, 41.745301], [-7.748417, 41.749321], [-7.747786, 41.754496], [-7.743866, 41.756509], [-7.740214, 41.763924], [-7.726937, 41.771755], [-7.7254, 41.777152], [-7.727191, 41.779184], [-7.724177, 41.780299], [-7.725372, 41.781653], [-7.722302, 41.791546], [-7.722889, 41.793798], [-7.728879, 41.797871], [-7.727026, 41.805517], [-7.728761, 41.816776], [-7.732041, 41.821514], [-7.743152, 41.825154], [-7.742839, 41.827178], [-7.738918, 41.82874], [-7.742196, 41.833928], [-7.74729, 41.837772], [-7.746349, 41.84407], [-7.750246, 41.846784], [-7.750534, 41.848857]]], [[[-7.818269, 41.714421], [-7.830491, 41.72163], [-7.842478, 41.72363], [-7.854552, 41.720686], [-7.863422, 41.71249], [-7.86709, 41.703519], [-7.861966, 41.694462], [-7.856644, 41.689085], [-7.856574, 41.689015], [-7.855974, 41.688408], [-7.852367, 41.68975], [-7.847538, 41.695365], [-7.837309, 41.699391], [-7.835792, 41.702763], [-7.839682, 41.705924], [-7.838465, 41.709522], [-7.832453, 41.710407], [-7.825252, 41.708813], [-7.818269, 41.714421]]], [[[-8.15282, 41.375866], [-8.159745, 41.390778], [-8.167727, 41.399844], [-8.183075, 41.409757], [-8.194983, 41.414313], [-8.206921, 41.416589], [-8.218882, 41.416963], [-8.230865, 41.415531], [-8.242872, 41.411993], [-8.262477, 41.40049], [-8.271245, 41.391538], [-8.27666, 41.382565], [-8.27984, 41.36457], [-8.277503, 41.355547], [-8.271722, 41.346503], [-8.264805, 41.340225], [-8.262751, 41.345405], [-8.256483, 41.347663], [-8.255889, 41.349689], [-8.249622, 41.353072], [-8.251123, 41.356897], [-8.248141, 41.360052], [-8.248448, 41.364328], [-8.245461, 41.364781], [-8.244272, 41.368384], [-8.239197, 41.371315], [-8.232024, 41.369971], [-8.224854, 41.370878], [-8.21738, 41.368182], [-8.214399, 41.373587], [-8.208127, 41.376968], [-8.199163, 41.377423], [-8.194677, 41.374275], [-8.191691, 41.376302], [-8.189299, 41.375403], [-8.184818, 41.376756], [-8.168382, 41.377438], [-8.164499, 41.38059], [-8.15282, 41.375866]]], [[[-8.362687, 41.395222], [-8.379271, 41.392172], [-8.392146, 41.383233], [-8.396212, 41.374247], [-8.395571, 41.365236], [-8.387006, 41.353164], [-8.375116, 41.346486], [-8.363188, 41.343861], [-8.35123, 41.34438], [-8.339238, 41.348297], [-8.329173, 41.35586], [-8.32456, 41.364841], [-8.325544, 41.373854], [-8.3312, 41.382895], [-8.338832, 41.388375], [-8.35074, 41.393729], [-8.362687, 41.395222]]], [[[-8.625924, 41.382759], [-8.637889, 41.381842], [-8.649646, 41.375297], [-8.654164, 41.366303], [-8.652943, 41.357292], [-8.65, 41.353523], [-8.638087, 41.34603], [-8.62614, 41.345009], [-8.614169, 41.348138], [-8.605012, 41.357138], [-8.603723, 41.366141], [-8.608656, 41.375165], [-8.613986, 41.379124], [-8.625924, 41.382759]]], [[[-8.531559, 41.211078], [-8.529567, 41.221738], [-8.534593, 41.230766], [-8.543229, 41.236237], [-8.555143, 41.239118], [-8.56709, 41.237078], [-8.57776, 41.230932], [-8.583026, 41.221944], [-8.582936, 41.212935], [-8.579219, 41.206434], [-8.574517, 41.202936], [-8.57423, 41.20462], [-8.568566, 41.204416], [-8.565895, 41.206227], [-8.567697, 41.208246], [-8.566512, 41.209376], [-8.559636, 41.206251], [-8.554271, 41.20627], [-8.549521, 41.209214], [-8.544157, 41.209458], [-8.537023, 41.212635], [-8.532257, 41.213102], [-8.531559, 41.211078]]], [[[-8.621907, 41.179666], [-8.621983, 41.186047], [-8.631095, 41.204092], [-8.641626, 41.213133], [-8.650724, 41.217933], [-8.660132, 41.222197], [-8.674547, 41.225276], [-8.698411, 41.224855], [-8.710355, 41.22202], [-8.727258, 41.213368], [-8.736838, 41.204382], [-8.742427, 41.195387], [-8.74507, 41.186385], [-8.743259, 41.168365], [-8.734489, 41.154327], [-8.724008, 41.145734], [-8.674793, 41.146932], [-8.674849, 41.153767], [-8.672489, 41.15648], [-8.66117, 41.156307], [-8.662078, 41.158104], [-8.660313, 41.160813], [-8.657033, 41.160378], [-8.654961, 41.161963], [-8.653231, 41.169174], [-8.655366, 41.175467], [-8.647955, 41.180228], [-8.647696, 41.185181], [-8.640929, 41.196241], [-8.634946, 41.193341], [-8.632526, 41.188624], [-8.625658, 41.186628], [-8.621907, 41.179666]]]]}}]}