{"type": "FeatureCollection", "features": [{"id": "0", "type": "Feature", "properties": {"fill": "#a3a3a3", "value_min": -0.5, "value_max": -0.25}, "geometry": {"type": "Polygon", "coordinates": [[[-8.703351, 41.195293], [-8.698573, 41.189582], [-8.686659, 41.187481], [-8.67746, 41.195223], [-8.681061, 41.204241], [-8.686566, 41.206942], [-8.70057, 41.204294], [-8.703351, 41.195293]]]}}, {"id": "1", "type": "Feature", "properties": {"fill": "#a3a3a3", "value_min": -0.25, "value_max": -0.0}, "geometry": {"type": "MultiPolygon", "coordinates": [[[[-7.865937, 41.756939], [-7.864085, 41.757531], [-7.865903, 41.758861], [-7.866723, 41.757557], [-7.865937, 41.756939]]], [[[-8.349831, 41.484823], [-8.348781, 41.482078], [-8.337898, 41.480402], [-8.335202, 41.482], [-8.334329, 41.491003], [-8.337766, 41.493311], [-8.349765, 41.491485], [-8.349831, 41.484823]]], [[[-8.722353, 41.206075], [-8.726496, 41.19535], [-8.724818, 41.186338], [-8.717636, 41.177313], [-8.710572, 41.172692], [-8.698667, 41.169167], [-8.686746, 41.169176], [-8.674807, 41.172696], [-8.662835, 41.182609], [-8.658562, 41.195169], [-8.660447, 41.204182], [-8.668095, 41.213212], [-8.674588, 41.21712], [-8.686502, 41.220301], [-8.698434, 41.219878], [-8.715241, 41.213339], [-8.722353, 41.206075]], [[-8.703351, 41.195293], [-8.70057, 41.204294], [-8.686566, 41.206942], [-8.681061, 41.204241], [-8.67746, 41.195223], [-8.686659, 41.187481], [-8.698573, 41.189582], [-8.703351, 41.195293]]]]}}, {"id": "4", "type": "Feature", "properties": {"fill": "#a3a3a3", "value_min": 0.5, "value_max": -0.75}, "geometry": {"type": "MultiPolygon", "coordinates": [[[[-7.879957, 41.85313], [-7.888382, 41.850269], [-7.900617, 41.839258], [-7.911231, 41.821035], [-7.912255, 41.812038], [-7.905266, 41.784951], [-7.906418, 41.757942], [-7.901041, 41.748884], [-7.872433, 41.730593], [-7.870388, 41.721566], [-7.879819, 41.694637], [-7.881352, 41.685645], [-7.879738, 41.674057], [-7.877044, 41.676077], [-7.876723, 41.681253], [-7.873401, 41.686198], [-7.868896, 41.686413], [-7.867408, 41.683258], [-7.864403, 41.683701], [-7.864096, 41.685276], [-7.860493, 41.685268], [-7.859138, 41.687065], [-7.867067, 41.692642], [-7.87019, 41.70355], [-7.866669, 41.715308], [-7.859967, 41.721463], [-7.854638, 41.730417], [-7.885661, 41.748736], [-7.891199, 41.757796], [-7.891136, 41.766802], [-7.885171, 41.784758], [-7.897244, 41.802888], [-7.899612, 41.811918], [-7.89777, 41.820907], [-7.890756, 41.829846], [-7.876565, 41.837147], [-7.864512, 41.837672], [-7.852531, 41.834187], [-7.845316, 41.829398], [-7.836892, 41.820307], [-7.832828, 41.811259], [-7.830629, 41.793223], [-7.816885, 41.766062], [-7.815307, 41.757038], [-7.8205, 41.739078], [-7.820694, 41.730073], [-7.814198, 41.718461], [-7.808986, 41.717996], [-7.808396, 41.715744], [-7.803298, 41.714154], [-7.790966, 41.717044], [-7.789449, 41.719966], [-7.78464, 41.720402], [-7.78252, 41.723546], [-7.776204, 41.724652], [-7.773786, 41.727346], [-7.770798, 41.72441], [-7.765698, 41.723044], [-7.761765, 41.727758], [-7.762933, 41.733839], [-7.759307, 41.737203], [-7.759597, 41.739005], [-7.75689, 41.739446], [-7.758687, 41.740577], [-7.757758, 41.745301], [-7.748417, 41.749321], [-7.747786, 41.754496], [-7.743866, 41.756509], [-7.743242, 41.760333], [-7.739915, 41.763631], [-7.745512, 41.763977], [-7.757409, 41.770867], [-7.760328, 41.774472], [-7.761609, 41.783493], [-7.755398, 41.792432], [-7.744868, 41.797023], [-7.732817, 41.797748], [-7.724387, 41.794786], [-7.728879, 41.797871], [-7.72705, 41.801691], [-7.727909, 41.808626], [-7.744649, 41.808231], [-7.780922, 41.799884], [-7.792942, 41.80078], [-7.804868, 41.806782], [-7.840329, 41.842952], [-7.852245, 41.850176], [-7.864223, 41.854052], [-7.868814, 41.854178], [-7.87033, 41.851395], [-7.873043, 41.850501], [-7.873066, 41.844875], [-7.879957, 41.85313]]], [[[-7.72415, 41.794703], [-7.72415, 41.794703], [-7.724087, 41.794681], [-7.72415, 41.794703]]], [[[-8.240073, 41.791588], [-8.239742, 41.760631], [-8.24383, 41.742644], [-8.251154, 41.73167], [-8.279037, 41.706842], [-8.285465, 41.697876], [-8.287273, 41.68888], [-8.286214, 41.679866], [-8.282977, 41.670839], [-8.270687, 41.652747], [-8.252248, 41.637271], [-8.240317, 41.63085], [-8.216404, 41.622757], [-8.168514, 41.612924], [-8.156618, 41.604778], [-8.14971, 41.597873], [-8.134796, 41.588755], [-8.120907, 41.583385], [-8.104399, 41.579515], [-8.084996, 41.577804], [-8.060958, 41.581033], [-8.052181, 41.584973], [-8.052777, 41.587649], [-8.038238, 41.598893], [-8.036879, 41.60599], [-8.038818, 41.615014], [-8.044443, 41.624068], [-8.060859, 41.642217], [-8.064865, 41.651257], [-8.060185, 41.669233], [-8.060293, 41.678241], [-8.066409, 41.687298], [-8.083287, 41.698465], [-8.095344, 41.695715], [-8.107495, 41.686018], [-8.119605, 41.679134], [-8.131632, 41.678226], [-8.139478, 41.687868], [-8.136433, 41.696852], [-8.131354, 41.698847], [-8.119153, 41.712246], [-8.111231, 41.714674], [-8.107014, 41.720809], [-8.102359, 41.723612], [-8.096788, 41.741582], [-8.096184, 41.759592], [-8.099693, 41.777633], [-8.108884, 41.795718], [-8.122001, 41.810227], [-8.123807, 41.808702], [-8.138247, 41.808477], [-8.139751, 41.813203], [-8.14276, 41.812978], [-8.144866, 41.815228], [-8.149078, 41.814777], [-8.153291, 41.817703], [-8.158106, 41.818377], [-8.165326, 41.81815], [-8.173744, 41.808019], [-8.177655, 41.808242], [-8.183676, 41.812741], [-8.190291, 41.809587], [-8.197158, 41.814129], [-8.201063, 41.808724], [-8.204973, 41.807372], [-8.205872, 41.804445], [-8.213692, 41.803765], [-8.217598, 41.80016], [-8.217589, 41.793634], [-8.224207, 41.794303], [-8.229917, 41.791598], [-8.240073, 41.791588]], [[-8.178424, 41.777528], [-8.166392, 41.777501], [-8.154397, 41.774646], [-8.142463, 41.767262], [-8.135853, 41.759897], [-8.131922, 41.75086], [-8.129066, 41.732825], [-8.124239, 41.723781], [-8.122368, 41.71476], [-8.131305, 41.702502], [-8.143376, 41.698602], [-8.159145, 41.697021], [-8.167497, 41.692017], [-8.176838, 41.679135], [-8.191821, 41.668783], [-8.203878, 41.665123], [-8.215895, 41.664773], [-8.227874, 41.667506], [-8.239804, 41.674476], [-8.244929, 41.679602], [-8.249367, 41.688638], [-8.249696, 41.697648], [-8.246458, 41.706633], [-8.239403, 41.715594], [-8.220781, 41.733483], [-8.213174, 41.751445], [-8.202624, 41.76673], [-8.190494, 41.774579], [-8.178424, 41.777528]], [[-8.083399, 41.690592], [-8.078182, 41.687393], [-8.071549, 41.678332], [-8.074216, 41.669347], [-8.083804, 41.662046], [-8.095821, 41.661633], [-8.107015, 41.669606], [-8.107057, 41.678614], [-8.095429, 41.689657], [-8.083399, 41.690592]], [[-8.132056, 41.646665], [-8.125878, 41.64273], [-8.122368, 41.633696], [-8.132364, 41.623633], [-8.144392, 41.621854], [-8.152272, 41.624914], [-8.155368, 41.633943], [-8.149227, 41.642905], [-8.144078, 41.645619], [-8.132056, 41.646665]], [[-8.084237, 41.631522], [-8.070655, 41.624283], [-8.066408, 41.615241], [-8.069594, 41.60626], [-8.072632, 41.603532], [-8.084702, 41.598619], [-8.096688, 41.599601], [-8.106881, 41.606556], [-8.10921, 41.615581], [-8.103912, 41.624547], [-8.096258, 41.630372], [-8.084237, 41.631522]]], [[[-8.46158, 41.694563], [-8.443921, 41.68769], [-8.431922, 41.685805], [-8.419903, 41.686198], [-8.381659, 41.698433], [-8.36422, 41.707345], [-8.355717, 41.716305], [-8.352959, 41.725297], [-8.354933, 41.73826], [-8.357897, 41.735103], [-8.362407, 41.735994], [-8.368703, 41.73193], [-8.374122, 41.734845], [-8.383116, 41.730999], [-8.38121, 41.725452], [-8.382697, 41.716453], [-8.389107, 41.70748], [-8.405921, 41.698561], [-8.419815, 41.695886], [-8.431823, 41.697045], [-8.446992, 41.704425], [-8.453868, 41.697961], [-8.453255, 41.695487], [-8.46158, 41.694563]]], [[[-8.349417, 41.526208], [-8.36531, 41.5182], [-8.373537, 41.510925], [-8.379951, 41.500265], [-8.381737, 41.491267], [-8.378998, 41.473238], [-8.373322, 41.464199], [-8.362094, 41.455788], [-8.350162, 41.451732], [-8.338203, 41.450388], [-8.326223, 41.45117], [-8.314218, 41.454232], [-8.30218, 41.460308], [-8.297285, 41.46376], [-8.290456, 41.472726], [-8.287215, 41.481713], [-8.287417, 41.490722], [-8.290127, 41.499746], [-8.293992, 41.508777], [-8.301563, 41.517819], [-8.313466, 41.525475], [-8.325421, 41.528486], [-8.337406, 41.528644], [-8.349417, 41.526208]], [[-8.337556, 41.513911], [-8.325597, 41.511569], [-8.313694, 41.503898], [-8.306073, 41.490836], [-8.306218, 41.481829], [-8.310975, 41.47285], [-8.324485, 41.463923], [-8.338094, 41.461096], [-8.350054, 41.462526], [-8.361971, 41.468383], [-8.366675, 41.47317], [-8.371045, 41.482202], [-8.371279, 41.491211], [-8.367445, 41.500197], [-8.361599, 41.50631], [-8.349555, 41.512439], [-8.337556, 41.513911]]], [[[-8.609687, 41.174315], [-8.622276, 41.213071], [-8.632429, 41.23112], [-8.642302, 41.240159], [-8.650581, 41.244725], [-8.662499, 41.247937], [-8.674429, 41.24902], [-8.698305, 41.247985], [-8.74557, 41.240433], [-8.775663, 41.231488], [-8.793451, 41.222513], [-8.802518, 41.215973], [-8.799695, 41.14406], [-8.758915, 41.144968], [-8.770229, 41.158609], [-8.774725, 41.168431], [-8.776124, 41.186449], [-8.773679, 41.195453], [-8.761392, 41.213444], [-8.749776, 41.222427], [-8.730717, 41.231392], [-8.71029, 41.236787], [-8.698349, 41.238411], [-8.674485, 41.237814], [-8.662568, 41.234704], [-8.650669, 41.22821], [-8.63881, 41.215033], [-8.633492, 41.2041], [-8.630257, 41.187959], [-8.625658, 41.186628], [-8.621132, 41.178994], [-8.613374, 41.177451], [-8.609687, 41.174315]]]]}}, {"id": "3", "type": "Feature", "properties": {"fill": "#a3a3a3", "value_min": 0.25, "value_max": -0.5}, "geometry": {"type": "MultiPolygon", "coordinates": [[[[-7.814198, 41.718461], [-7.820694, 41.730073], [-7.8205, 41.739078], [-7.815307, 41.757038], [-7.816885, 41.766062], [-7.830629, 41.793223], [-7.832828, 41.811259], [-7.836892, 41.820307], [-7.845316, 41.829398], [-7.852531, 41.834187], [-7.864512, 41.837672], [-7.876565, 41.837147], [-7.890756, 41.829846], [-7.89777, 41.820907], [-7.899612, 41.811918], [-7.897244, 41.802888], [-7.885171, 41.784758], [-7.891136, 41.766802], [-7.891199, 41.757796], [-7.885661, 41.748736], [-7.854638, 41.730417], [-7.859967, 41.721463], [-7.866669, 41.715308], [-7.87019, 41.70355], [-7.867067, 41.692642], [-7.859138, 41.687065], [-7.857773, 41.689538], [-7.855076, 41.688181], [-7.852668, 41.689526], [-7.847538, 41.695365], [-7.837309, 41.699391], [-7.835792, 41.702763], [-7.839682, 41.705924], [-7.838465, 41.709522], [-7.832453, 41.710407], [-7.825252, 41.708813], [-7.814198, 41.718461]], [[-7.864719, 41.825974], [-7.854653, 41.820485], [-7.852832, 41.817299], [-7.850336, 41.811435], [-7.853055, 41.804817], [-7.8545, 41.80247], [-7.865234, 41.79679], [-7.87725, 41.797985], [-7.883753, 41.802758], [-7.889045, 41.811967], [-7.884526, 41.820779], [-7.876766, 41.825701], [-7.864719, 41.825974]], [[-7.865627, 41.77453], [-7.853613, 41.773529], [-7.844033, 41.766338], [-7.842255, 41.757313], [-7.849919, 41.748383], [-7.854092, 41.746595], [-7.866125, 41.746233], [-7.871236, 41.748595], [-7.880724, 41.757694], [-7.877774, 41.767912], [-7.865627, 41.77453]], [[-7.842667, 41.713074], [-7.839834, 41.703248], [-7.84289, 41.700624], [-7.854948, 41.698377], [-7.859933, 41.703449], [-7.857567, 41.712432], [-7.854653, 41.715005], [-7.842667, 41.713074]]], [[[-7.724387, 41.794786], [-7.732817, 41.797748], [-7.744868, 41.797023], [-7.755398, 41.792432], [-7.761609, 41.783493], [-7.760328, 41.774472], [-7.757409, 41.770867], [-7.745512, 41.763977], [-7.739915, 41.763631], [-7.726937, 41.771755], [-7.7254, 41.777152], [-7.727191, 41.779184], [-7.724177, 41.780299], [-7.725372, 41.781653], [-7.722302, 41.791546], [-7.724087, 41.794681], [-7.72415, 41.794703], [-7.724387, 41.794786]]], [[[-8.178424, 41.777528], [-8.190494, 41.774579], [-8.202624, 41.76673], [-8.213174, 41.751445], [-8.220781, 41.733483], [-8.239403, 41.715594], [-8.246458, 41.706633], [-8.249696, 41.697648], [-8.249367, 41.688638], [-8.244929, 41.679602], [-8.239804, 41.674476], [-8.227874, 41.667506], [-8.215895, 41.664773], [-8.203878, 41.665123], [-8.191821, 41.668783], [-8.176838, 41.679135], [-8.167497, 41.692017], [-8.159145, 41.697021], [-8.143376, 41.698602], [-8.131305, 41.702502], [-8.122368, 41.71476], [-8.124239, 41.723781], [-8.129066, 41.732825], [-8.131922, 41.75086], [-8.135853, 41.759897], [-8.142463, 41.767262], [-8.154397, 41.774646], [-8.166392, 41.777501], [-8.178424, 41.777528]], [[-8.166646, 41.757827], [-8.154703, 41.751299], [-8.151933, 41.742003], [-8.158961, 41.733047], [-8.16702, 41.728953], [-8.179033, 41.729746], [-8.184786, 41.733234], [-8.190195, 41.742279], [-8.186859, 41.751262], [-8.178689, 41.756784], [-8.166646, 41.757827]], [[-8.131106, 41.717307], [-8.129448, 41.714814], [-8.131227, 41.70833], [-8.143373, 41.705911], [-8.146026, 41.714938], [-8.14313, 41.717106], [-8.131106, 41.717307]], [[-8.203305, 41.711652], [-8.194168, 41.706279], [-8.191402, 41.702207], [-8.189257, 41.697237], [-8.191541, 41.691156], [-8.192857, 41.688255], [-8.203674, 41.681724], [-8.215689, 41.681695], [-8.226887, 41.688489], [-8.229525, 41.697514], [-8.22352, 41.706481], [-8.215331, 41.711143], [-8.203305, 41.711652]]], [[[-8.446992, 41.704425], [-8.431823, 41.697045], [-8.419815, 41.695886], [-8.405921, 41.698561], [-8.389107, 41.70748], [-8.382697, 41.716453], [-8.38121, 41.725452], [-8.383116, 41.730999], [-8.385523, 41.730319], [-8.387332, 41.73189], [-8.393033, 41.729852], [-8.396942, 41.730518], [-8.401215, 41.726682], [-8.398667, 41.716538], [-8.407695, 41.707059], [-8.419732, 41.705152], [-8.429225, 41.707687], [-8.43589, 41.714666], [-8.441632, 41.713975], [-8.441618, 41.711049], [-8.446992, 41.704425]]], [[[-8.083399, 41.690592], [-8.095429, 41.689657], [-8.107057, 41.678614], [-8.107015, 41.669606], [-8.095821, 41.661633], [-8.083804, 41.662046], [-8.074216, 41.669347], [-8.071549, 41.678332], [-8.078182, 41.687393], [-8.083399, 41.690592]], [[-8.083523, 41.681902], [-8.080553, 41.678405], [-8.083634, 41.67405], [-8.095654, 41.673581], [-8.098805, 41.678549], [-8.095537, 41.681907], [-8.083523, 41.681902]]], [[[-8.084237, 41.631522], [-8.096258, 41.630372], [-8.103912, 41.624547], [-8.10921, 41.615581], [-8.106881, 41.606556], [-8.096688, 41.599601], [-8.084702, 41.598619], [-8.072632, 41.603532], [-8.069594, 41.60626], [-8.066408, 41.615241], [-8.070655, 41.624283], [-8.084237, 41.631522]]], [[[-8.337556, 41.513911], [-8.349555, 41.512439], [-8.361599, 41.50631], [-8.367445, 41.500197], [-8.371279, 41.491211], [-8.371045, 41.482202], [-8.366675, 41.47317], [-8.361971, 41.468383], [-8.350054, 41.462526], [-8.338094, 41.461096], [-8.324485, 41.463923], [-8.310975, 41.47285], [-8.306218, 41.481829], [-8.306073, 41.490836], [-8.313694, 41.503898], [-8.325597, 41.511569], [-8.337556, 41.513911]], [[-8.337658, 41.50392], [-8.325725, 41.499261], [-8.31937, 41.490915], [-8.319733, 41.48191], [-8.325979, 41.474715], [-8.338002, 41.470168], [-8.349963, 41.471606], [-8.352541, 41.473092], [-8.361673, 41.48215], [-8.361966, 41.491159], [-8.349653, 41.502596], [-8.337658, 41.50392]]], [[[-8.630257, 41.187959], [-8.633492, 41.2041], [-8.63881, 41.215033], [-8.650669, 41.22821], [-8.662568, 41.234704], [-8.674485, 41.237814], [-8.698349, 41.238411], [-8.71029, 41.236787], [-8.730717, 41.231392], [-8.749776, 41.222427], [-8.761392, 41.213444], [-8.773679, 41.195453], [-8.776124, 41.186449], [-8.774725, 41.168431], [-8.770229, 41.158609], [-8.758915, 41.144968], [-8.67527, 41.147484], [-8.676193, 41.146567], [-8.674793, 41.146932], [-8.674204, 41.147693], [-8.67426, 41.154529], [-8.686831, 41.151367], [-8.698751, 41.150758], [-8.710662, 41.152201], [-8.722564, 41.156119], [-8.734452, 41.163621], [-8.745056, 41.177377], [-8.747439, 41.18639], [-8.746888, 41.195397], [-8.743498, 41.204397], [-8.736347, 41.213389], [-8.723269, 41.222366], [-8.710332, 41.227143], [-8.69839, 41.229434], [-8.686457, 41.229704], [-8.674535, 41.227733], [-8.662629, 41.222731], [-8.651891, 41.213165], [-8.646838, 41.204141], [-8.644987, 41.189245], [-8.640035, 41.196245], [-8.634946, 41.193341], [-8.633126, 41.189072], [-8.630257, 41.187959]]], [[[-8.65323, 41.169121], [-8.66295, 41.160219], [-8.669811, 41.156744], [-8.66117, 41.156307], [-8.662078, 41.158104], [-8.660313, 41.160813], [-8.657033, 41.160378], [-8.654961, 41.161963], [-8.65323, 41.169121]]], [[[-8.673964, 41.154677], [-8.673964, 41.154677], [-8.673973, 41.154672], [-8.673964, 41.154677]]]]}}, {"id": "2", "type": "Feature", "properties": {"fill": "#a3a3a3", "value_min": 0.0, "value_max": -0.25}, "geometry": {"type": "MultiPolygon", "coordinates": [[[[-7.864719, 41.825974], [-7.876766, 41.825701], [-7.884526, 41.820779], [-7.889045, 41.811967], [-7.883753, 41.802758], [-7.87725, 41.797985], [-7.865234, 41.79679], [-7.8545, 41.80247], [-7.853055, 41.804817], [-7.850336, 41.811435], [-7.852832, 41.817299], [-7.854653, 41.820485], [-7.864719, 41.825974]]], [[[-7.865627, 41.77453], [-7.877774, 41.767912], [-7.880724, 41.757694], [-7.871236, 41.748595], [-7.866125, 41.746233], [-7.854092, 41.746595], [-7.849919, 41.748383], [-7.842255, 41.757313], [-7.844033, 41.766338], [-7.853613, 41.773529], [-7.865627, 41.77453]], [[-7.865937, 41.756939], [-7.866723, 41.757557], [-7.865903, 41.758861], [-7.864085, 41.757531], [-7.865937, 41.756939]]], [[[-8.166646, 41.757827], [-8.178689, 41.756784], [-8.186859, 41.751262], [-8.190195, 41.742279], [-8.184786, 41.733234], [-8.179033, 41.729746], [-8.16702, 41.728953], [-8.158961, 41.733047], [-8.151933, 41.742003], [-8.154703, 41.751299], [-8.166646, 41.757827]]], [[[-8.43589, 41.714666], [-8.429225, 41.707687], [-8.419732, 41.705152], [-8.407695, 41.707059], [-8.398667, 41.716538], [-8.401215, 41.726682], [-8.402934, 41.726452], [-8.404721, 41.722847], [-8.417349, 41.725067], [-8.422737, 41.720552], [-8.429643, 41.719859], [-8.430533, 41.717381], [-8.43589, 41.714666]]], [[[-8.131106, 41.717307], [-8.14313, 41.717106], [-8.146026, 41.714938], [-8.143373, 41.705911], [-8.131227, 41.70833], [-8.129448, 41.714814], [-8.131106, 41.717307]]], [[[-7.842667, 41.713074], [-7.854653, 41.715005], [-7.857567, 41.712432], [-7.859933, 41.703449], [-7.854948, 41.698377], [-7.84289, 41.700624], [-7.839834, 41.703248], [-7.842667, 41.713074]]], [[[-8.203305, 41.711652], [-8.215331, 41.711143], [-8.22352, 41.706481], [-8.229525, 41.697514], [-8.226887, 41.688489], [-8.215689, 41.681695], [-8.203674, 41.681724], [-8.192857, 41.688255], [-8.191541, 41.691156], [-8.189257, 41.697237], [-8.191402, 41.702207], [-8.194168, 41.706279], [-8.203305, 41.711652]]], [[[-8.083523, 41.681902], [-8.095537, 41.681907], [-8.098805, 41.678549], [-8.095654, 41.673581], [-8.083634, 41.67405], [-8.080553, 41.678405], [-8.083523, 41.681902]]], [[[-8.337658, 41.50392], [-8.349653, 41.502596], [-8.361966, 41.491159], [-8.361673, 41.48215], [-8.352541, 41.473092], [-8.349963, 41.471606], [-8.338002, 41.470168], [-8.325979, 41.474715], [-8.319733, 41.48191], [-8.31937, 41.490915], [-8.325725, 41.499261], [-8.337658, 41.50392]], [[-8.349831, 41.484823], [-8.349765, 41.491485], [-8.337766, 41.493311], [-8.334329, 41.491003], [-8.335202, 41.482], [-8.337898, 41.480402], [-8.348781, 41.482078], [-8.349831, 41.484823]]], [[[-8.644987, 41.189245], [-8.646838, 41.204141], [-8.651891, 41.213165], [-8.662629, 41.222731], [-8.674535, 41.227733], [-8.686457, 41.229704], [-8.69839, 41.229434], [-8.710332, 41.227143], [-8.723269, 41.222366], [-8.736347, 41.213389], [-8.743498, 41.204397], [-8.746888, 41.195397], [-8.747439, 41.18639], [-8.745056, 41.177377], [-8.734452, 41.163621], [-8.722564, 41.156119], [-8.710662, 41.152201], [-8.698751, 41.150758], [-8.686831, 41.151367], [-8.67426, 41.154529], [-8.673973, 41.154672], [-8.673964, 41.154677], [-8.669811, 41.156744], [-8.66295, 41.160219], [-8.65323, 41.169121], [-8.655366, 41.175467], [-8.647955, 41.180228], [-8.647696, 41.185181], [-8.644987, 41.189245]], [[-8.722353, 41.206075], [-8.715241, 41.213339], [-8.698434, 41.219878], [-8.686502, 41.220301], [-8.674588, 41.21712], [-8.668095, 41.213212], [-8.660447, 41.204182], [-8.658562, 41.195169], [-8.662835, 41.182609], [-8.674807, 41.172696], [-8.686746, 41.169176], [-8.698667, 41.169167], [-8.710572, 41.172692], [-8.717636, 41.177313], [-8.724818, 41.186338], [-8.726496, 41.19535], [-8.722353, 41.206075]]]]}}, {"id": "5", "type": "Feature", "properties": {"fill": "#a3a3a3", "value_min": 0.75, "value_max": -1.0}, "geometry": {"type": "MultiPolygon", "coordinates": [[[[-8.484084, 41.676761], [-8.444062, 41.671307], [-8.420037, 41.671213], [-8.407988, 41.67514], [-8.395915, 41.681537], [-8.383869, 41.684756], [-8.371848, 41.685351], [-8.354958, 41.680272], [-8.345975, 41.671215], [-8.342406, 41.662187], [-8.341662, 41.653176], [-8.34271, 41.635167], [-8.340805, 41.599128], [-8.343588, 41.581129], [-8.353622, 41.563171], [-8.385372, 41.526575], [-8.394927, 41.509352], [-8.396007, 41.50035], [-8.393157, 41.464306], [-8.389463, 41.455279], [-8.374177, 41.444404], [-8.350295, 41.438398], [-8.326372, 41.436749], [-8.302413, 41.438569], [-8.276592, 41.445617], [-8.239135, 41.46339], [-8.218158, 41.477302], [-8.206019, 41.490608], [-8.191051, 41.517106], [-8.183374, 41.526059], [-8.169932, 41.53497], [-8.14737, 41.543812], [-8.121359, 41.550055], [-8.09737, 41.550593], [-8.082788, 41.547428], [-8.080687, 41.551651], [-8.074396, 41.549848], [-8.072897, 41.551197], [-8.076188, 41.557276], [-8.080082, 41.558854], [-8.081576, 41.565157], [-8.078879, 41.56493], [-8.077678, 41.566956], [-8.069883, 41.570103], [-8.069281, 41.572579], [-8.058484, 41.578199], [-8.052181, 41.584973], [-8.060958, 41.581033], [-8.084996, 41.577804], [-8.104399, 41.579515], [-8.120907, 41.583385], [-8.134796, 41.588755], [-8.14971, 41.597873], [-8.156618, 41.604778], [-8.168514, 41.612924], [-8.216404, 41.622757], [-8.240317, 41.63085], [-8.252248, 41.637271], [-8.270687, 41.652747], [-8.282977, 41.670839], [-8.286214, 41.679866], [-8.287273, 41.68888], [-8.285465, 41.697876], [-8.279037, 41.706842], [-8.251154, 41.73167], [-8.24383, 41.742644], [-8.239742, 41.760631], [-8.240073, 41.791588], [-8.245546, 41.785731], [-8.251257, 41.784375], [-8.251845, 41.777172], [-8.257551, 41.773564], [-8.261762, 41.774235], [-8.269568, 41.76905], [-8.269565, 41.767474], [-8.274371, 41.765902], [-8.268415, 41.760817], [-8.263851, 41.751781], [-8.266392, 41.742791], [-8.275167, 41.734879], [-8.287226, 41.731722], [-8.299784, 41.733992], [-8.310294, 41.743062], [-8.312189, 41.752081], [-8.308131, 41.760624], [-8.311096, 41.762195], [-8.318308, 41.761283], [-8.325233, 41.765098], [-8.328234, 41.763292], [-8.336653, 41.763728], [-8.341756, 41.761468], [-8.344765, 41.762363], [-8.349267, 41.760103], [-8.352557, 41.755145], [-8.349814, 41.744122], [-8.352516, 41.743441], [-8.352203, 41.739616], [-8.354933, 41.73826], [-8.352959, 41.725297], [-8.355717, 41.716305], [-8.36422, 41.707345], [-8.381659, 41.698433], [-8.419903, 41.686198], [-8.431922, 41.685805], [-8.443921, 41.68769], [-8.46158, 41.694563], [-8.482012, 41.682123], [-8.484084, 41.676761]], [[-8.349417, 41.526208], [-8.337406, 41.528644], [-8.325421, 41.528486], [-8.313466, 41.525475], [-8.301563, 41.517819], [-8.293992, 41.508777], [-8.290127, 41.499746], [-8.287417, 41.490722], [-8.287215, 41.481713], [-8.290456, 41.472726], [-8.297285, 41.46376], [-8.30218, 41.460308], [-8.314218, 41.454232], [-8.326223, 41.45117], [-8.338203, 41.450388], [-8.350162, 41.451732], [-8.362094, 41.455788], [-8.373322, 41.464199], [-8.378998, 41.473238], [-8.381737, 41.491267], [-8.379951, 41.500265], [-8.373537, 41.510925], [-8.36531, 41.5182], [-8.349417, 41.526208]]], [[[-7.72936, 41.817161], [-7.768618, 41.813849], [-7.780643, 41.814587], [-7.79261, 41.818463], [-7.807958, 41.829017], [-7.841804, 41.866632], [-7.849515, 41.861475], [-7.858542, 41.862622], [-7.859456, 41.860148], [-7.864877, 41.859711], [-7.868814, 41.854178], [-7.864223, 41.854052], [-7.852245, 41.850176], [-7.840329, 41.842952], [-7.804868, 41.806782], [-7.792942, 41.80078], [-7.780922, 41.799884], [-7.744649, 41.808231], [-7.727909, 41.808626], [-7.72936, 41.817161]]], [[[-7.934077, 41.875208], [-7.924266, 41.865461], [-7.92066, 41.857151], [-7.919432, 41.848133], [-7.920904, 41.83914], [-7.92504, 41.830172], [-7.932436, 41.821234], [-7.935372, 41.812255], [-7.925386, 41.798566], [-7.923501, 41.794131], [-7.923776, 41.785126], [-7.92567, 41.78155], [-7.937854, 41.77242], [-7.961935, 41.771366], [-7.973946, 41.772613], [-7.982472, 41.776654], [-7.987058, 41.785702], [-7.991939, 41.812765], [-8.001265, 41.83086], [-8.003387, 41.839885], [-8.002553, 41.850494], [-8.005804, 41.847346], [-8.007928, 41.838796], [-8.010941, 41.836773], [-8.013965, 41.828899], [-8.017873, 41.831379], [-8.02901, 41.829589], [-8.037134, 41.831171], [-8.041351, 41.828023], [-8.041054, 41.825097], [-8.045268, 41.824425], [-8.046775, 41.821951], [-8.056712, 41.81588], [-8.06664, 41.817012], [-8.072961, 41.813414], [-8.078678, 41.813417], [-8.082892, 41.810493], [-8.091013, 41.812521], [-8.093421, 41.811397], [-8.093723, 41.808471], [-8.101845, 41.809824], [-8.104853, 41.81185], [-8.117188, 41.812302], [-8.122001, 41.810227], [-8.108884, 41.795718], [-8.099693, 41.777633], [-8.096184, 41.759592], [-8.096788, 41.741582], [-8.102359, 41.723612], [-8.107014, 41.720809], [-8.111231, 41.714674], [-8.119153, 41.712246], [-8.131354, 41.698847], [-8.136433, 41.696852], [-8.139478, 41.687868], [-8.131632, 41.678226], [-8.119605, 41.679134], [-8.107495, 41.686018], [-8.095344, 41.695715], [-8.083287, 41.698465], [-8.066409, 41.687298], [-8.060293, 41.678241], [-8.060185, 41.669233], [-8.064865, 41.651257], [-8.060859, 41.642217], [-8.044443, 41.624068], [-8.038818, 41.615014], [-8.036879, 41.60599], [-8.038238, 41.598893], [-8.031467, 41.602938], [-8.02367, 41.603156], [-8.019174, 41.601802], [-8.015872, 41.603824], [-8.013474, 41.603372], [-8.005971, 41.60629], [-8.003562, 41.611239], [-7.998761, 41.612809], [-7.999669, 41.608759], [-7.996976, 41.605829], [-7.996684, 41.602003], [-7.984685, 41.603564], [-7.982292, 41.60086], [-7.975689, 41.603552], [-7.974482, 41.606701], [-7.970882, 41.607147], [-7.969091, 41.603768], [-7.965796, 41.602413], [-7.9541, 41.602846], [-7.952606, 41.600592], [-7.947808, 41.60081], [-7.945413, 41.599456], [-7.942725, 41.595625], [-7.936132, 41.594488], [-7.93791, 41.601694], [-7.937004, 41.603718], [-7.931604, 41.604384], [-7.930979, 41.612711], [-7.925556, 41.620354], [-7.920755, 41.620796], [-7.917748, 41.623041], [-7.915933, 41.627764], [-7.913229, 41.628885], [-7.912613, 41.63361], [-7.906014, 41.633147], [-7.906884, 41.641927], [-7.897869, 41.645511], [-7.89696, 41.647985], [-7.892759, 41.647976], [-7.892145, 41.651576], [-7.902319, 41.659925], [-7.899913, 41.66127], [-7.900198, 41.665547], [-7.898396, 41.665769], [-7.896885, 41.668692], [-7.883969, 41.67069], [-7.879738, 41.674057], [-7.881352, 41.685645], [-7.879819, 41.694637], [-7.870388, 41.721566], [-7.872433, 41.730593], [-7.901041, 41.748884], [-7.906418, 41.757942], [-7.905266, 41.784951], [-7.912255, 41.812038], [-7.911231, 41.821035], [-7.900617, 41.839258], [-7.888382, 41.850269], [-7.879957, 41.85313], [-7.886268, 41.855932], [-7.888076, 41.855486], [-7.891675, 41.859094], [-7.898893, 41.86136], [-7.902203, 41.861591], [-7.904318, 41.859795], [-7.907309, 41.865203], [-7.906095, 41.868126], [-7.910299, 41.871285], [-7.909985, 41.875111], [-7.91479, 41.879171], [-7.928044, 41.87807], [-7.934077, 41.875208]], [[-7.998025, 41.77164], [-7.986067, 41.766934], [-7.979593, 41.758615], [-7.968353, 41.740501], [-7.965318, 41.731467], [-7.964898, 41.722456], [-7.968284, 41.71348], [-7.989486, 41.695654], [-7.995276, 41.686698], [-7.987829, 41.668618], [-7.987514, 41.659609], [-7.990909, 41.650631], [-8.003409, 41.641733], [-8.012086, 41.639209], [-8.024089, 41.639476], [-8.036026, 41.644172], [-8.043028, 41.651077], [-8.045753, 41.660107], [-8.042823, 41.66909], [-8.037193, 41.67805], [-8.045425, 41.687125], [-8.059352, 41.691598], [-8.065591, 41.696298], [-8.073513, 41.705369], [-8.073272, 41.714374], [-8.057256, 41.732258], [-8.045785, 41.750177], [-8.034267, 41.761793], [-8.022148, 41.767687], [-8.010065, 41.771076], [-7.998025, 41.77164]], [[-7.914408, 41.735801], [-7.902373, 41.736395], [-7.890396, 41.733643], [-7.885508, 41.73072], [-7.877728, 41.721638], [-7.87902, 41.712643], [-7.89102, 41.697334], [-7.90312, 41.692492], [-7.915145, 41.692009], [-7.927098, 41.69585], [-7.938014, 41.704197], [-7.942564, 41.713246], [-7.938264, 41.722213], [-7.927252, 41.731118], [-7.914408, 41.735801]], [[-8.10719, 41.708108], [-8.102804, 41.705602], [-8.102253, 41.69659], [-8.107404, 41.692631], [-8.119495, 41.687202], [-8.128957, 41.696796], [-8.119216, 41.707644], [-8.10719, 41.708108]]], [[[-8.132056, 41.646665], [-8.144078, 41.645619], [-8.149227, 41.642905], [-8.155368, 41.633943], [-8.152272, 41.624914], [-8.144392, 41.621854], [-8.132364, 41.623633], [-8.122368, 41.633696], [-8.125878, 41.64273], [-8.132056, 41.646665]]], [[[-8.802518, 41.215973], [-8.793451, 41.222513], [-8.775663, 41.231488], [-8.74557, 41.240433], [-8.698305, 41.247985], [-8.674429, 41.24902], [-8.662499, 41.247937], [-8.650581, 41.244725], [-8.642302, 41.240159], [-8.632429, 41.23112], [-8.622276, 41.213071], [-8.609687, 41.174315], [-8.604942, 41.164881], [-8.600767, 41.164222], [-8.589766, 41.167193], [-8.589194, 41.170572], [-8.585925, 41.17171], [-8.580621, 41.178259], [-8.591251, 41.189769], [-8.603051, 41.210355], [-8.614736, 41.251778], [-8.61985, 41.258102], [-8.626609, 41.262882], [-8.638527, 41.266442], [-8.650462, 41.267036], [-8.704259, 41.25835], [-8.734077, 41.256175], [-8.769881, 41.25798], [-8.804339, 41.262285], [-8.802518, 41.215973]]]]}}, {"id": "6", "type": "Feature", "properties": {"fill": "#90a4bc", "value_min": 1.0, "value_max": -1.25}, "geometry": {"type": "MultiPolygon", "coordinates": [[[[-7.841804, 41.866632], [-7.807958, 41.829017], [-7.79261, 41.818463], [-7.780643, 41.814587], [-7.768618, 41.813849], [-7.72936, 41.817161], [-7.732041, 41.821514], [-7.73594, 41.823511], [-7.768464, 41.821894], [-7.780462, 41.824143], [-7.792399, 41.829687], [-7.803111, 41.837973], [-7.811374, 41.847065], [-7.821507, 41.865183], [-7.824118, 41.874464], [-7.825059, 41.875817], [-7.830479, 41.875831], [-7.830789, 41.874031], [-7.832894, 41.874712], [-7.838021, 41.872924], [-7.842528, 41.875187], [-7.841804, 41.866632]]], [[[-8.002553, 41.850494], [-8.003387, 41.839885], [-8.001265, 41.83086], [-7.991939, 41.812765], [-7.987058, 41.785702], [-7.982472, 41.776654], [-7.973946, 41.772613], [-7.961935, 41.771366], [-7.937854, 41.77242], [-7.92567, 41.78155], [-7.923776, 41.785126], [-7.923501, 41.794131], [-7.925386, 41.798566], [-7.935372, 41.812255], [-7.932436, 41.821234], [-7.92504, 41.830172], [-7.920904, 41.83914], [-7.919432, 41.848133], [-7.92066, 41.857151], [-7.924266, 41.865461], [-7.934077, 41.875208], [-7.937389, 41.87516], [-7.941618, 41.870891], [-7.951254, 41.871132], [-7.956367, 41.87339], [-7.956362, 41.875191], [-7.960878, 41.875648], [-7.962086, 41.874074], [-7.973828, 41.875216], [-7.987996, 41.869157], [-7.990123, 41.860157], [-7.995547, 41.858138], [-7.994047, 41.855211], [-7.996162, 41.851837], [-8.002553, 41.850494]]], [[[-8.484084, 41.676761], [-8.484371, 41.674238], [-8.49308, 41.674886], [-8.499963, 41.671038], [-8.50927, 41.671233], [-8.51018, 41.672806], [-8.511967, 41.670324], [-8.509856, 41.668755], [-8.522103, 41.658811], [-8.525706, 41.659023], [-8.527769, 41.652714], [-8.534066, 41.652017], [-8.537355, 41.64998], [-8.537634, 41.646602], [-8.543876, 41.637352], [-8.543855, 41.633976], [-8.536342, 41.631977], [-8.535128, 41.62973], [-8.543431, 41.61462], [-8.554533, 41.615255], [-8.557244, 41.617046], [-8.562639, 41.61635], [-8.568056, 41.619031], [-8.570735, 41.616095], [-8.577321, 41.614269], [-8.581231, 41.615829], [-8.585766, 41.620988], [-8.591462, 41.620515], [-8.596534, 41.616668], [-8.601628, 41.615972], [-8.603996, 41.611686], [-8.613256, 41.606696], [-8.619881, 41.610269], [-8.621338, 41.604636], [-8.628833, 41.604378], [-8.636302, 41.600744], [-8.64075, 41.594422], [-8.645536, 41.593051], [-8.646744, 41.594171], [-8.649125, 41.591909], [-8.656622, 41.5921], [-8.660788, 41.588255], [-8.663794, 41.589141], [-8.665265, 41.585758], [-8.66948, 41.587989], [-8.684455, 41.586117], [-8.685608, 41.58071], [-8.697261, 41.576376], [-8.701703, 41.570277], [-8.707704, 41.570923], [-8.712485, 41.569323], [-8.716422, 41.573805], [-8.720316, 41.57356], [-8.725151, 41.577811], [-8.726633, 41.576003], [-8.734424, 41.575737], [-8.736564, 41.580228], [-8.738354, 41.579318], [-8.740778, 41.582006], [-8.74467, 41.581535], [-8.750711, 41.58623], [-8.756374, 41.582823], [-8.75635, 41.580347], [-8.762327, 41.578514], [-8.764443, 41.580303], [-8.767441, 41.580286], [-8.769874, 41.583874], [-8.768997, 41.58613], [-8.773228, 41.589482], [-8.775371, 41.593972], [-8.78556, 41.593464], [-8.797327, 41.600599], [-8.804218, 41.600109], [-8.80456, 41.604158], [-8.809434, 41.611332], [-8.828644, 41.609656], [-8.82839, 41.585633], [-8.818497, 41.554794], [-8.8221, 41.547542], [-8.821965, 41.534907], [-8.815926, 41.525624], [-8.81063, 41.5101], [-8.813279, 41.503483], [-8.812636, 41.496944], [-8.804699, 41.482068], [-8.798552, 41.474753], [-8.80154, 41.446836], [-8.806115, 41.43713], [-8.807354, 41.425915], [-8.811202, 41.416419], [-8.804339, 41.262285], [-8.769881, 41.25798], [-8.734077, 41.256175], [-8.704259, 41.25835], [-8.650462, 41.267036], [-8.638527, 41.266442], [-8.626609, 41.262882], [-8.61985, 41.258102], [-8.614736, 41.251778], [-8.603051, 41.210355], [-8.591251, 41.189769], [-8.580621, 41.178259], [-8.578828, 41.179391], [-8.580327, 41.180736], [-8.581296, 41.191762], [-8.575958, 41.195609], [-8.577183, 41.200557], [-8.57423, 41.20462], [-8.567971, 41.204644], [-8.565895, 41.206227], [-8.567697, 41.208246], [-8.566512, 41.209376], [-8.559636, 41.206251], [-8.554271, 41.20627], [-8.549521, 41.209214], [-8.544157, 41.209458], [-8.54238, 41.211265], [-8.532257, 41.213102], [-8.52713, 41.203215], [-8.523236, 41.200077], [-8.51163, 41.203042], [-8.510456, 41.206197], [-8.505693, 41.207113], [-8.504239, 41.213646], [-8.500076, 41.21546], [-8.50308, 41.219502], [-8.502204, 41.222656], [-8.495642, 41.222227], [-8.495947, 41.223351], [-8.490894, 41.226294], [-8.487935, 41.230354], [-8.490331, 41.232373], [-8.489156, 41.235528], [-8.486181, 41.236888], [-8.484411, 41.240495], [-8.476346, 41.237818], [-8.475756, 41.23917], [-8.470986, 41.23941], [-8.471604, 41.243459], [-8.469227, 41.245267], [-8.463258, 41.244384], [-8.459989, 41.246644], [-8.455512, 41.245982], [-8.455541, 41.251834], [-8.452276, 41.25522], [-8.449891, 41.255452], [-8.449304, 41.257479], [-8.447812, 41.257258], [-8.449028, 41.261982], [-8.439785, 41.262907], [-8.438023, 41.268989], [-8.434745, 41.269673], [-8.434762, 41.2735], [-8.432682, 41.275309], [-8.458986, 41.29349], [-8.477417, 41.311591], [-8.490537, 41.329665], [-8.507337, 41.365768], [-8.518301, 41.380742], [-8.530222, 41.386057], [-8.566041, 41.395425], [-8.589905, 41.404939], [-8.616302, 41.420229], [-8.626394, 41.42927], [-8.633501, 41.4383], [-8.636669, 41.447318], [-8.63699, 41.474341], [-8.641251, 41.483362], [-8.65139, 41.492401], [-8.669811, 41.501462], [-8.682725, 41.510506], [-8.6879, 41.519528], [-8.689196, 41.528539], [-8.687356, 41.537541], [-8.682677, 41.546536], [-8.674352, 41.55552], [-8.660859, 41.564146], [-8.648841, 41.568803], [-8.624832, 41.572329], [-8.576884, 41.567696], [-8.564839, 41.575291], [-8.560644, 41.582163], [-8.551701, 41.591136], [-8.540685, 41.598278], [-8.511901, 41.608989], [-8.504564, 41.614392], [-8.498264, 41.626944], [-8.491387, 41.635921], [-8.480322, 41.644879], [-8.468263, 41.650073], [-8.456233, 41.652529], [-8.444224, 41.6525], [-8.432237, 41.649969], [-8.421364, 41.644597], [-8.411499, 41.63554], [-8.407584, 41.626513], [-8.407206, 41.617504], [-8.410244, 41.608512], [-8.422518, 41.59056], [-8.423001, 41.581555], [-8.41318, 41.563491], [-8.410617, 41.55447], [-8.410629, 41.545463], [-8.41331, 41.53647], [-8.421342, 41.525311], [-8.433402, 41.516805], [-8.445412, 41.51387], [-8.457363, 41.517694], [-8.481233, 41.530112], [-8.493188, 41.534297], [-8.51713, 41.538686], [-8.538525, 41.53704], [-8.541127, 41.535929], [-8.546636, 41.528065], [-8.546093, 41.519056], [-8.541071, 41.510028], [-8.533016, 41.500988], [-8.499844, 41.473827], [-8.492802, 41.464788], [-8.487486, 41.455757], [-8.481968, 41.438018], [-8.477059, 41.428688], [-8.47012, 41.42296], [-8.458167, 41.421232], [-8.398286, 41.426373], [-8.362391, 41.425475], [-8.338484, 41.42273], [-8.290715, 41.413555], [-8.278761, 41.412595], [-8.266784, 41.413621], [-8.230805, 41.420607], [-8.206869, 41.420903], [-8.194924, 41.419082], [-8.182999, 41.415833], [-8.171104, 41.410227], [-8.159385, 41.399783], [-8.153564, 41.390733], [-8.149853, 41.373678], [-8.139694, 41.377894], [-8.133418, 41.374292], [-8.119074, 41.377218], [-8.119672, 41.378569], [-8.116683, 41.380144], [-8.117578, 41.386447], [-8.113992, 41.386896], [-8.112795, 41.390723], [-8.110105, 41.390947], [-8.108011, 41.393648], [-8.103827, 41.392972], [-8.105321, 41.394998], [-8.10263, 41.396123], [-8.10801, 41.398825], [-8.108606, 41.403102], [-8.101128, 41.411654], [-8.092756, 41.411201], [-8.09126, 41.414352], [-8.079893, 41.41975], [-8.077503, 41.416597], [-8.070923, 41.41862], [-8.066739, 41.416142], [-8.061654, 41.417489], [-8.059852, 41.424916], [-8.055959, 41.429415], [-8.05745, 41.432793], [-8.056549, 41.436394], [-8.057743, 41.438645], [-8.061033, 41.438872], [-8.063424, 41.4409], [-8.064916, 41.444052], [-8.068505, 41.444729], [-8.069999, 41.447206], [-8.068796, 41.453374], [-8.074872, 41.44651], [-8.086962, 41.438026], [-8.098996, 41.4334], [-8.110997, 41.431008], [-8.122967, 41.430916], [-8.134902, 41.433457], [-8.146793, 41.439373], [-8.15232, 41.444768], [-8.158898, 41.453824], [-8.164127, 41.471877], [-8.163205, 41.480878], [-8.159447, 41.489858], [-8.152021, 41.49881], [-8.145959, 41.502934], [-8.133924, 41.50694], [-8.121935, 41.507429], [-8.098008, 41.504686], [-8.079256, 41.498251], [-8.072052, 41.49237], [-8.07175, 41.494925], [-8.078333, 41.49898], [-8.078332, 41.500331], [-8.093, 41.504613], [-8.089398, 41.519242], [-8.090594, 41.522169], [-8.093588, 41.52307], [-8.091487, 41.531173], [-8.097775, 41.536127], [-8.097774, 41.537927], [-8.106759, 41.543106], [-8.10616, 41.543782], [-8.101666, 41.542655], [-8.094175, 41.544904], [-8.087885, 41.542876], [-8.083389, 41.5449], [-8.082788, 41.547428], [-8.09737, 41.550593], [-8.121359, 41.550055], [-8.14737, 41.543812], [-8.169932, 41.53497], [-8.183374, 41.526059], [-8.191051, 41.517106], [-8.206019, 41.490608], [-8.218158, 41.477302], [-8.239135, 41.46339], [-8.276592, 41.445617], [-8.302413, 41.438569], [-8.326372, 41.436749], [-8.350295, 41.438398], [-8.374177, 41.444404], [-8.389463, 41.455279], [-8.393157, 41.464306], [-8.396007, 41.50035], [-8.394927, 41.509352], [-8.385372, 41.526575], [-8.353622, 41.563171], [-8.343588, 41.581129], [-8.340805, 41.599128], [-8.34271, 41.635167], [-8.341662, 41.653176], [-8.342406, 41.662187], [-8.345975, 41.671215], [-8.354958, 41.680272], [-8.371848, 41.685351], [-8.383869, 41.684756], [-8.395915, 41.681537], [-8.407988, 41.67514], [-8.420037, 41.671213], [-8.444062, 41.671307], [-8.484084, 41.676761]], [[-8.733756, 41.335265], [-8.721799, 41.336704], [-8.709852, 41.335665], [-8.697919, 41.331707], [-8.686003, 41.324562], [-8.676043, 41.312321], [-8.674039, 41.303308], [-8.675695, 41.294304], [-8.681647, 41.285313], [-8.69818, 41.275161], [-8.710133, 41.27231], [-8.722075, 41.27176], [-8.734007, 41.27356], [-8.742849, 41.276459], [-8.755926, 41.285495], [-8.762054, 41.294515], [-8.764037, 41.303527], [-8.762533, 41.312532], [-8.757712, 41.320742], [-8.745726, 41.330517], [-8.733756, 41.335265]], [[-8.555178, 41.233948], [-8.545899, 41.230811], [-8.54002, 41.22178], [-8.544518, 41.21279], [-8.555346, 41.209163], [-8.567258, 41.211474], [-8.57273, 41.221906], [-8.567125, 41.231695], [-8.555178, 41.233948]]], [[[-8.071891, 41.492224], [-8.071891, 41.492224], [-8.071753, 41.4921], [-8.071891, 41.492224]]], [[[-8.069394, 41.489972], [-8.066371, 41.484946], [-8.066069, 41.48817], [-8.069394, 41.489972]]], [[[-7.998025, 41.77164], [-8.010065, 41.771076], [-8.022148, 41.767687], [-8.034267, 41.761793], [-8.045785, 41.750177], [-8.057256, 41.732258], [-8.073272, 41.714374], [-8.073513, 41.705369], [-8.065591, 41.696298], [-8.059352, 41.691598], [-8.045425, 41.687125], [-8.037193, 41.67805], [-8.042823, 41.66909], [-8.045753, 41.660107], [-8.043028, 41.651077], [-8.036026, 41.644172], [-8.024089, 41.639476], [-8.012086, 41.639209], [-8.003409, 41.641733], [-7.990909, 41.650631], [-7.987514, 41.659609], [-7.987829, 41.668618], [-7.995276, 41.686698], [-7.989486, 41.695654], [-7.968284, 41.71348], [-7.964898, 41.722456], [-7.965318, 41.731467], [-7.968353, 41.740501], [-7.979593, 41.758615], [-7.986067, 41.766934], [-7.998025, 41.77164]], [[-8.006593, 41.731831], [-8.010704, 41.729515], [-8.015093, 41.731904], [-8.01058, 41.737569], [-8.006593, 41.731831]], [[-8.04623, 41.705146], [-8.047147, 41.704353], [-8.057846, 41.705242], [-8.04712, 41.706181], [-8.04623, 41.705146]]], [[[-8.308131, 41.760624], [-8.312189, 41.752081], [-8.310294, 41.743062], [-8.299784, 41.733992], [-8.287226, 41.731722], [-8.275167, 41.734879], [-8.266392, 41.742791], [-8.263851, 41.751781], [-8.268415, 41.760817], [-8.274371, 41.765902], [-8.277073, 41.764088], [-8.280681, 41.764083], [-8.284038, 41.761109], [-8.284931, 41.757507], [-8.287033, 41.756829], [-8.298457, 41.757263], [-8.300866, 41.758835], [-8.305674, 41.758152], [-8.308131, 41.760624]]], [[[-7.914408, 41.735801], [-7.927252, 41.731118], [-7.938264, 41.722213], [-7.942564, 41.713246], [-7.938014, 41.704197], [-7.927098, 41.69585], [-7.915145, 41.692009], [-7.90312, 41.692492], [-7.89102, 41.697334], [-7.87902, 41.712643], [-7.877728, 41.721638], [-7.885508, 41.73072], [-7.890396, 41.733643], [-7.902373, 41.736395], [-7.914408, 41.735801]], [[-7.890529, 41.725868], [-7.886101, 41.721719], [-7.88642, 41.712715], [-7.890844, 41.707585], [-7.902891, 41.705933], [-7.912697, 41.712967], [-7.9113, 41.721961], [-7.902535, 41.726873], [-7.890529, 41.725868]]], [[[-8.10719, 41.708108], [-8.119216, 41.707644], [-8.128957, 41.696796], [-8.119495, 41.687202], [-8.107404, 41.692631], [-8.102253, 41.69659], [-8.102804, 41.705602], [-8.10719, 41.708108]], [[-8.111249, 41.69666], [-8.11942, 41.692699], [-8.123495, 41.696754], [-8.119296, 41.701806], [-8.111249, 41.69666]]]]}}, {"id": "7", "type": "Feature", "properties": {"fill": "#71a5e5", "value_min": 1.25, "value_max": -1.5}, "geometry": {"type": "MultiPolygon", "coordinates": [[[[-7.824118, 41.874464], [-7.821507, 41.865183], [-7.811374, 41.847065], [-7.803111, 41.837973], [-7.792399, 41.829687], [-7.780462, 41.824143], [-7.768464, 41.821894], [-7.73594, 41.823511], [-7.74345, 41.825605], [-7.739516, 41.829233], [-7.756314, 41.827535], [-7.768336, 41.828539], [-7.780316, 41.831812], [-7.79072, 41.837843], [-7.800217, 41.846949], [-7.805619, 41.856012], [-7.809059, 41.870596], [-7.814229, 41.873537], [-7.818448, 41.872873], [-7.824118, 41.874464]]], [[[-8.006593, 41.731831], [-8.01058, 41.737569], [-8.015093, 41.731904], [-8.010704, 41.729515], [-8.006593, 41.731831]]], [[[-7.890529, 41.725868], [-7.902535, 41.726873], [-7.9113, 41.721961], [-7.912697, 41.712967], [-7.902891, 41.705933], [-7.890844, 41.707585], [-7.88642, 41.712715], [-7.886101, 41.721719], [-7.890529, 41.725868]]], [[[-8.04623, 41.705146], [-8.04712, 41.706181], [-8.057846, 41.705242], [-8.047147, 41.704353], [-8.04623, 41.705146]]], [[[-8.111249, 41.69666], [-8.119296, 41.701806], [-8.123495, 41.696754], [-8.11942, 41.692699], [-8.111249, 41.69666]]], [[[-8.149853, 41.373678], [-8.153564, 41.390733], [-8.159385, 41.399783], [-8.171104, 41.410227], [-8.182999, 41.415833], [-8.194924, 41.419082], [-8.206869, 41.420903], [-8.230805, 41.420607], [-8.266784, 41.413621], [-8.278761, 41.412595], [-8.290715, 41.413555], [-8.338484, 41.42273], [-8.362391, 41.425475], [-8.398286, 41.426373], [-8.458167, 41.421232], [-8.47012, 41.42296], [-8.477059, 41.428688], [-8.481968, 41.438018], [-8.487486, 41.455757], [-8.492802, 41.464788], [-8.499844, 41.473827], [-8.533016, 41.500988], [-8.541071, 41.510028], [-8.546093, 41.519056], [-8.546636, 41.528065], [-8.541127, 41.535929], [-8.538525, 41.53704], [-8.51713, 41.538686], [-8.493188, 41.534297], [-8.481233, 41.530112], [-8.457363, 41.517694], [-8.445412, 41.51387], [-8.433402, 41.516805], [-8.421342, 41.525311], [-8.41331, 41.53647], [-8.410629, 41.545463], [-8.410617, 41.55447], [-8.41318, 41.563491], [-8.423001, 41.581555], [-8.422518, 41.59056], [-8.410244, 41.608512], [-8.407206, 41.617504], [-8.407584, 41.626513], [-8.411499, 41.63554], [-8.421364, 41.644597], [-8.432237, 41.649969], [-8.444224, 41.6525], [-8.456233, 41.652529], [-8.468263, 41.650073], [-8.480322, 41.644879], [-8.491387, 41.635921], [-8.498264, 41.626944], [-8.504564, 41.614392], [-8.511901, 41.608989], [-8.540685, 41.598278], [-8.551701, 41.591136], [-8.560644, 41.582163], [-8.564839, 41.575291], [-8.576884, 41.567696], [-8.624832, 41.572329], [-8.648841, 41.568803], [-8.660859, 41.564146], [-8.674352, 41.55552], [-8.682677, 41.546536], [-8.687356, 41.537541], [-8.689196, 41.528539], [-8.6879, 41.519528], [-8.682725, 41.510506], [-8.669811, 41.501462], [-8.65139, 41.492401], [-8.641251, 41.483362], [-8.63699, 41.474341], [-8.636669, 41.447318], [-8.633501, 41.4383], [-8.626394, 41.42927], [-8.616302, 41.420229], [-8.589905, 41.404939], [-8.566041, 41.395425], [-8.530222, 41.386057], [-8.518301, 41.380742], [-8.507337, 41.365768], [-8.490537, 41.329665], [-8.477417, 41.311591], [-8.458986, 41.29349], [-8.432682, 41.275309], [-8.432691, 41.277107], [-8.427032, 41.279372], [-8.429143, 41.284319], [-8.426171, 41.287028], [-8.426488, 41.291079], [-8.425013, 41.294909], [-8.422037, 41.296942], [-8.422647, 41.299867], [-8.407744, 41.304856], [-8.406262, 41.307335], [-8.403277, 41.307342], [-8.401801, 41.311398], [-8.399712, 41.311628], [-8.400316, 41.313202], [-8.396738, 41.314336], [-8.398835, 41.316131], [-8.39616, 41.318955], [-8.413517, 41.329298], [-8.422437, 41.338351], [-8.428383, 41.347388], [-8.431541, 41.356411], [-8.431204, 41.374425], [-8.42749, 41.383414], [-8.420506, 41.392387], [-8.409133, 41.401336], [-8.398467, 41.406726], [-8.374482, 41.412594], [-8.350557, 41.412063], [-8.326696, 41.405422], [-8.317558, 41.40083], [-8.305679, 41.391751], [-8.298277, 41.382699], [-8.294228, 41.373666], [-8.293139, 41.355645], [-8.295603, 41.346652], [-8.300867, 41.337677], [-8.310778, 41.327557], [-8.308701, 41.327561], [-8.307502, 41.325762], [-8.305116, 41.326891], [-8.303024, 41.325994], [-8.303615, 41.323742], [-8.301216, 41.319694], [-8.296431, 41.316774], [-8.297618, 41.313846], [-8.296116, 41.310022], [-8.281801, 41.316569], [-8.279132, 41.324451], [-8.272266, 41.32536], [-8.265709, 41.331221], [-8.269004, 41.336169], [-8.263339, 41.340902], [-8.262751, 41.345405], [-8.256483, 41.347663], [-8.255889, 41.349689], [-8.249622, 41.353072], [-8.251123, 41.356897], [-8.248141, 41.360052], [-8.248448, 41.364328], [-8.245461, 41.364781], [-8.244272, 41.368384], [-8.239197, 41.371315], [-8.232024, 41.369971], [-8.224854, 41.370878], [-8.21738, 41.368182], [-8.214399, 41.373587], [-8.208127, 41.376968], [-8.199163, 41.377423], [-8.194677, 41.374275], [-8.191691, 41.376302], [-8.189299, 41.375403], [-8.184818, 41.376756], [-8.168382, 41.377438], [-8.164499, 41.38059], [-8.158223, 41.378791], [-8.149853, 41.373678]], [[-8.439248, 41.626672], [-8.444484, 41.622255], [-8.451322, 41.62673], [-8.444408, 41.631149], [-8.439248, 41.626672]], [[-8.449615, 41.554664], [-8.445069, 41.553909], [-8.438103, 41.545601], [-8.441646, 41.536611], [-8.445236, 41.534443], [-8.45723, 41.533647], [-8.463253, 41.536713], [-8.468343, 41.545744], [-8.458876, 41.554708], [-8.449615, 41.554664]], [[-8.541681, 41.457354], [-8.541703, 41.454303], [-8.553713, 41.448806], [-8.560324, 41.456059], [-8.55362, 41.462471], [-8.541681, 41.457354]]], [[[-8.072052, 41.49237], [-8.079256, 41.498251], [-8.098008, 41.504686], [-8.121935, 41.507429], [-8.133924, 41.50694], [-8.145959, 41.502934], [-8.152021, 41.49881], [-8.159447, 41.489858], [-8.163205, 41.480878], [-8.164127, 41.471877], [-8.158898, 41.453824], [-8.15232, 41.444768], [-8.146793, 41.439373], [-8.134902, 41.433457], [-8.122967, 41.430916], [-8.110997, 41.431008], [-8.098996, 41.4334], [-8.086962, 41.438026], [-8.074872, 41.44651], [-8.068796, 41.453374], [-8.070288, 41.457335], [-8.068788, 41.462286], [-8.073872, 41.46499], [-8.074164, 41.473543], [-8.067273, 41.480743], [-8.066371, 41.484946], [-8.069394, 41.489972], [-8.072054, 41.490199], [-8.071753, 41.4921], [-8.071891, 41.492224], [-8.072052, 41.49237]], [[-8.110132, 41.494339], [-8.098235, 41.488305], [-8.094024, 41.480353], [-8.097125, 41.47137], [-8.110546, 41.464055], [-8.122515, 41.464493], [-8.134406, 41.471657], [-8.13752, 41.480688], [-8.133051, 41.489662], [-8.122109, 41.494581], [-8.110132, 41.494339]]], [[[-8.733756, 41.335265], [-8.745726, 41.330517], [-8.757712, 41.320742], [-8.762533, 41.312532], [-8.764037, 41.303527], [-8.762054, 41.294515], [-8.755926, 41.285495], [-8.742849, 41.276459], [-8.734007, 41.27356], [-8.722075, 41.27176], [-8.710133, 41.27231], [-8.69818, 41.275161], [-8.681647, 41.285313], [-8.675695, 41.294304], [-8.674039, 41.303308], [-8.676043, 41.312321], [-8.686003, 41.324562], [-8.697919, 41.331707], [-8.709852, 41.335665], [-8.721799, 41.336704], [-8.733756, 41.335265]]], [[[-8.555178, 41.233948], [-8.567125, 41.231695], [-8.57273, 41.221906], [-8.567258, 41.211474], [-8.555346, 41.209163], [-8.544518, 41.21279], [-8.54002, 41.22178], [-8.545899, 41.230811], [-8.555178, 41.233948]]]]}}, {"id": "8", "type": "Feature", "properties": {"fill": "#5093f6", "value_min": 1.5, "value_max": -1.75}, "geometry": {"type": "MultiPolygon", "coordinates": [[[[-7.809059, 41.870596], [-7.805619, 41.856012], [-7.800217, 41.846949], [-7.79072, 41.837843], [-7.780316, 41.831812], [-7.768336, 41.828539], [-7.756314, 41.827535], [-7.739516, 41.829233], [-7.742797, 41.834174], [-7.756212, 41.832796], [-7.768229, 41.834134], [-7.780185, 41.838756], [-7.790452, 41.846847], [-7.796375, 41.855916], [-7.798505, 41.864945], [-7.797561, 41.87394], [-7.803381, 41.874857], [-7.804612, 41.869684], [-7.809059, 41.870596]]], [[[-7.796143, 41.876972], [-7.796143, 41.876972], [-7.79367, 41.882256], [-7.796143, 41.876972]]], [[[-8.439248, 41.626672], [-8.444408, 41.631149], [-8.451322, 41.62673], [-8.444484, 41.622255], [-8.439248, 41.626672]]], [[[-8.449615, 41.554664], [-8.458876, 41.554708], [-8.468343, 41.545744], [-8.463253, 41.536713], [-8.45723, 41.533647], [-8.445236, 41.534443], [-8.441646, 41.536611], [-8.438103, 41.545601], [-8.445069, 41.553909], [-8.449615, 41.554664]]], [[[-8.110132, 41.494339], [-8.122109, 41.494581], [-8.133051, 41.489662], [-8.13752, 41.480688], [-8.134406, 41.471657], [-8.122515, 41.464493], [-8.110546, 41.464055], [-8.097125, 41.47137], [-8.094024, 41.480353], [-8.098235, 41.488305], [-8.110132, 41.494339]]], [[[-8.541681, 41.457354], [-8.55362, 41.462471], [-8.560324, 41.456059], [-8.553713, 41.448806], [-8.541703, 41.454303], [-8.541681, 41.457354]]], [[[-8.310778, 41.327557], [-8.300867, 41.337677], [-8.295603, 41.346652], [-8.293139, 41.355645], [-8.294228, 41.373666], [-8.298277, 41.382699], [-8.305679, 41.391751], [-8.317558, 41.40083], [-8.326696, 41.405422], [-8.350557, 41.412063], [-8.374482, 41.412594], [-8.398467, 41.406726], [-8.409133, 41.401336], [-8.420506, 41.392387], [-8.42749, 41.383414], [-8.431204, 41.374425], [-8.431541, 41.356411], [-8.428383, 41.347388], [-8.422437, 41.338351], [-8.413517, 41.329298], [-8.39616, 41.318955], [-8.393775, 41.31997], [-8.393489, 41.323122], [-8.391701, 41.324026], [-8.386027, 41.323814], [-8.380382, 41.331254], [-8.375305, 41.33104], [-8.37201, 41.328346], [-8.361563, 41.329718], [-8.358276, 41.329049], [-8.357673, 41.327249], [-8.350207, 41.327264], [-8.346032, 41.328847], [-8.342462, 41.333131], [-8.333215, 41.336299], [-8.326363, 41.342163], [-8.324568, 41.341041], [-8.323376, 41.341943], [-8.316788, 41.335876], [-8.313802, 41.336331], [-8.310778, 41.327557]], [[-8.362611, 41.402946], [-8.348282, 41.401008], [-8.338737, 41.397758], [-8.329146, 41.39189], [-8.321072, 41.382835], [-8.317831, 41.373809], [-8.317845, 41.364801], [-8.321042, 41.355813], [-8.328565, 41.346849], [-8.339323, 41.339842], [-8.351313, 41.336033], [-8.363275, 41.334974], [-8.375211, 41.336516], [-8.387122, 41.340755], [-8.396646, 41.347226], [-8.404325, 41.356274], [-8.407576, 41.365298], [-8.407483, 41.374305], [-8.403996, 41.383295], [-8.395703, 41.392259], [-8.386587, 41.397733], [-8.376503, 41.401164], [-8.362611, 41.402946]]]]}}, {"id": "9", "type": "Feature", "properties": {"fill": "#3171ee", "value_min": 1.75, "value_max": -2.0}, "geometry": {"type": "MultiPolygon", "coordinates": [[[[-7.79367, 41.882256], [-7.796143, 41.876972], [-7.794349, 41.87438], [-7.797561, 41.87394], [-7.798505, 41.864945], [-7.796375, 41.855916], [-7.790452, 41.846847], [-7.780185, 41.838756], [-7.768229, 41.834134], [-7.756212, 41.832796], [-7.742797, 41.834174], [-7.74729, 41.837772], [-7.746679, 41.839158], [-7.756112, 41.83797], [-7.76812, 41.839809], [-7.781192, 41.846749], [-7.787789, 41.855826], [-7.789378, 41.864849], [-7.786783, 41.873828], [-7.77935, 41.882676], [-7.767175, 41.889054], [-7.758119, 41.890524], [-7.756585, 41.895195], [-7.758076, 41.897901], [-7.764097, 41.898595], [-7.779227, 41.886264], [-7.785257, 41.885157], [-7.788886, 41.882467], [-7.79367, 41.882256]]], [[[-7.742461, 41.889718], [-7.73109, 41.885202], [-7.723859, 41.878222], [-7.720523, 41.881793], [-7.725335, 41.882935], [-7.726208, 41.887665], [-7.737044, 41.888828], [-7.73944, 41.891087], [-7.742461, 41.889718]]], [[[-8.362611, 41.402946], [-8.376503, 41.401164], [-8.386587, 41.397733], [-8.395703, 41.392259], [-8.403996, 41.383295], [-8.407483, 41.374305], [-8.407576, 41.365298], [-8.404325, 41.356274], [-8.396646, 41.347226], [-8.387122, 41.340755], [-8.375211, 41.336516], [-8.363275, 41.334974], [-8.351313, 41.336033], [-8.339323, 41.339842], [-8.328565, 41.346849], [-8.321042, 41.355813], [-8.317845, 41.364801], [-8.317831, 41.373809], [-8.321072, 41.382835], [-8.329146, 41.39189], [-8.338737, 41.397758], [-8.348282, 41.401008], [-8.362611, 41.402946]], [[-8.351416, 41.392018], [-8.337416, 41.382931], [-8.333686, 41.373902], [-8.335273, 41.364903], [-8.343706, 41.355944], [-8.351154, 41.352063], [-8.363125, 41.350364], [-8.375056, 41.352688], [-8.38114, 41.356151], [-8.38948, 41.365204], [-8.390892, 41.374219], [-8.386914, 41.383205], [-8.374685, 41.391469], [-8.362702, 41.393648], [-8.351416, 41.392018]]]]}}, {"id": "10", "type": "Feature", "properties": {"fill": "#245ede", "value_min": 2.0, "value_max": -2.25}, "geometry": {"type": "MultiPolygon", "coordinates": [[[[-7.758119, 41.890524], [-7.767175, 41.889054], [-7.77935, 41.882676], [-7.786783, 41.873828], [-7.789378, 41.864849], [-7.787789, 41.855826], [-7.781192, 41.846749], [-7.76812, 41.839809], [-7.756112, 41.83797], [-7.746679, 41.839158], [-7.747548, 41.844966], [-7.756005, 41.843505], [-7.769931, 41.846629], [-7.779446, 41.855737], [-7.779648, 41.866964], [-7.774978, 41.873703], [-7.76737, 41.878909], [-7.755272, 41.881278], [-7.743265, 41.878969], [-7.734791, 41.873267], [-7.732488, 41.869456], [-7.730228, 41.871024], [-7.729293, 41.875972], [-7.723859, 41.878222], [-7.73109, 41.885202], [-7.742461, 41.889718], [-7.741573, 41.887043], [-7.745495, 41.885931], [-7.750001, 41.887971], [-7.756022, 41.888441], [-7.758119, 41.890524]]], [[[-8.351416, 41.392018], [-8.362702, 41.393648], [-8.374685, 41.391469], [-8.386914, 41.383205], [-8.390892, 41.374219], [-8.38948, 41.365204], [-8.38114, 41.356151], [-8.375056, 41.352688], [-8.363125, 41.350364], [-8.351154, 41.352063], [-8.343706, 41.355944], [-8.335273, 41.364903], [-8.333686, 41.373902], [-8.337416, 41.382931], [-8.351416, 41.392018]], [[-8.350932, 41.374402], [-8.36298, 41.365173], [-8.372505, 41.37412], [-8.36282, 41.381604], [-8.350932, 41.374402]]]]}}, {"id": "11", "type": "Feature", "properties": {"fill": "#2253c5", "value_min": 2.25, "value_max": -2.5}, "geometry": {"type": "MultiPolygon", "coordinates": [[[[-7.732488, 41.869456], [-7.734791, 41.873267], [-7.743265, 41.878969], [-7.755272, 41.881278], [-7.76737, 41.878909], [-7.774978, 41.873703], [-7.779648, 41.866964], [-7.779446, 41.855737], [-7.769931, 41.846629], [-7.756005, 41.843505], [-7.747548, 41.844966], [-7.750246, 41.846784], [-7.750532, 41.849261], [-7.743309, 41.849012], [-7.746901, 41.8524], [-7.746588, 41.854344], [-7.755863, 41.850826], [-7.767839, 41.854488], [-7.769555, 41.864638], [-7.767598, 41.866997], [-7.755468, 41.871154], [-7.743534, 41.865255], [-7.743722, 41.856441], [-7.736611, 41.861368], [-7.732488, 41.869456]]], [[[-8.350932, 41.374402], [-8.36282, 41.381604], [-8.372505, 41.37412], [-8.36298, 41.365173], [-8.350932, 41.374402]]]]}}, {"id": "12", "type": "Feature", "properties": {"fill": "#2048ac", "value_min": 2.5, "value_max": -2.75}, "geometry": {"type": "Polygon", "coordinates": [[[-7.743722, 41.856441], [-7.743534, 41.865255], [-7.755468, 41.871154], [-7.767598, 41.866997], [-7.769555, 41.864638], [-7.767839, 41.854488], [-7.755863, 41.850826], [-7.746588, 41.854344], [-7.746578, 41.856], [-7.743722, 41.856441]]]}}]}