{"type": "FeatureCollection", "features": [{"id": "1", "type": "Feature", "properties": {"fill": "#a3a3a3", "value_min": -1.0, "value_max": -0.75}, "geometry": {"type": "MultiPolygon", "coordinates": [[[[-7.96204, 41.764819], [-7.970484, 41.758534], [-7.974398, 41.744273], [-7.975908, 41.749575], [-7.998236, 41.758102], [-8.010231, 41.760292], [-8.022474, 41.758988], [-8.037033, 41.750104], [-8.040259, 41.741124], [-8.037212, 41.732092], [-8.022896, 41.718355], [-8.010959, 41.712882], [-7.998962, 41.711333], [-7.986874, 41.715654], [-7.979043, 41.722583], [-7.972858, 41.740541], [-7.962383, 41.743513], [-7.950384, 41.74185], [-7.938319, 41.7442], [-7.931211, 41.749168], [-7.926311, 41.75813], [-7.932173, 41.767191], [-7.937909, 41.769114], [-7.94993, 41.769715], [-7.959488, 41.767442], [-7.96204, 41.764819]], [[-8.007852, 41.731842], [-8.010689, 41.730476], [-8.01327, 41.731889], [-8.010607, 41.735806], [-8.007852, 41.731842]]], [[[-8.463269, 41.693208], [-8.45593, 41.688588], [-8.443953, 41.683968], [-8.431955, 41.682049], [-8.419937, 41.682338], [-8.407899, 41.684854], [-8.38377, 41.695168], [-8.378471, 41.698416], [-8.371644, 41.70625], [-8.367955, 41.716373], [-8.368641, 41.725384], [-8.371881, 41.734399], [-8.376825, 41.734389], [-8.384922, 41.73032], [-8.387032, 41.731891], [-8.393033, 41.729852], [-8.396942, 41.730518], [-8.402932, 41.726028], [-8.400237, 41.716546], [-8.407691, 41.707544], [-8.419729, 41.705512], [-8.427325, 41.707677], [-8.435029, 41.715249], [-8.441632, 41.713975], [-8.4446, 41.70654], [-8.453868, 41.697961], [-8.453255, 41.695487], [-8.458061, 41.695698], [-8.463269, 41.693208]]], [[[-8.155168, 41.715828], [-8.162128, 41.70605], [-8.16071, 41.697032], [-8.155481, 41.691954], [-8.143509, 41.688555], [-8.131437, 41.692729], [-8.111772, 41.714678], [-8.118114, 41.723734], [-8.130972, 41.727232], [-8.143035, 41.724258], [-8.155168, 41.715828]]], [[[-7.830429, 41.710177], [-7.830999, 41.712165], [-7.842559, 41.719089], [-7.854577, 41.719328], [-7.864237, 41.712498], [-7.867592, 41.703524], [-7.86692, 41.701039], [-7.86155, 41.694458], [-7.855102, 41.689722], [-7.852668, 41.689679], [-7.847538, 41.695365], [-7.837309, 41.699391], [-7.835792, 41.702763], [-7.839682, 41.705924], [-7.838465, 41.709522], [-7.830429, 41.710177]]], [[[-8.227468, 41.701407], [-8.230323, 41.697519], [-8.229486, 41.688507], [-8.215732, 41.678154], [-8.203728, 41.677364], [-8.191648, 41.682621], [-8.185766, 41.688205], [-8.185287, 41.697209], [-8.195799, 41.70629], [-8.203335, 41.709207], [-8.215352, 41.709398], [-8.222376, 41.706473], [-8.227468, 41.701407]]], [[[-8.047782, 41.661246], [-8.054172, 41.651169], [-8.060002, 41.646886], [-8.096001, 41.648749], [-8.120057, 41.645942], [-8.132058, 41.646446], [-8.144232, 41.642868], [-8.148195, 41.633891], [-8.144352, 41.624899], [-8.131511, 41.606744], [-8.121956, 41.597665], [-8.108802, 41.591236], [-8.096846, 41.588206], [-8.084861, 41.587339], [-8.072848, 41.588447], [-8.060799, 41.592021], [-8.050949, 41.5971], [-8.041742, 41.606031], [-8.035921, 41.623997], [-8.027232, 41.63293], [-8.01211, 41.637641], [-8.006484, 41.64176], [-7.998866, 41.650701], [-7.997669, 41.659698], [-8.002914, 41.66875], [-8.011562, 41.673477], [-8.023555, 41.674847], [-8.041041, 41.669075], [-8.047782, 41.661246]], [[-8.08359, 41.615379], [-8.084478, 41.614446], [-8.088719, 41.61542], [-8.08445, 41.616414], [-8.08359, 41.615379]]], [[[-8.657495, 41.537456], [-8.657646, 41.528449], [-8.65284, 41.519427], [-8.641034, 41.510384], [-8.625223, 41.504701], [-8.613242, 41.504418], [-8.601234, 41.508652], [-8.592184, 41.519228], [-8.591254, 41.528232], [-8.594613, 41.537252], [-8.601014, 41.544489], [-8.612961, 41.551698], [-8.624937, 41.554284], [-8.636932, 41.553595], [-8.648951, 41.548524], [-8.657495, 41.537456]]], [[[-8.14367, 41.480734], [-8.142988, 41.471721], [-8.13647, 41.462665], [-8.122633, 41.455691], [-8.110668, 41.455132], [-8.098644, 41.458823], [-8.094023, 41.462339], [-8.088092, 41.471299], [-8.08846, 41.480309], [-8.095423, 41.489372], [-8.110125, 41.494867], [-8.122096, 41.495532], [-8.134124, 41.491941], [-8.138246, 41.489701], [-8.14367, 41.480734]]], [[[-8.564466, 41.456074], [-8.556633, 41.447037], [-8.553734, 41.445831], [-8.541737, 41.449351], [-8.538305, 41.455972], [-8.541651, 41.461682], [-8.553597, 41.465819], [-8.564466, 41.456074]]], [[[-8.180749, 41.376532], [-8.180734, 41.381922], [-8.184697, 41.390958], [-8.194048, 41.400031], [-8.207052, 41.405803], [-8.218994, 41.407682], [-8.230968, 41.406799], [-8.246858, 41.400389], [-8.256046, 41.391441], [-8.259546, 41.382456], [-8.259209, 41.373446], [-8.255195, 41.364413], [-8.249212, 41.3587], [-8.248448, 41.364328], [-8.245461, 41.364781], [-8.244272, 41.368384], [-8.239197, 41.371315], [-8.232024, 41.369971], [-8.224854, 41.370878], [-8.21738, 41.368182], [-8.214399, 41.373587], [-8.208127, 41.376968], [-8.199163, 41.377423], [-8.194976, 41.374275], [-8.191691, 41.376302], [-8.189299, 41.375403], [-8.180749, 41.376532]]], [[[-8.745772, 41.318531], [-8.753851, 41.312514], [-8.757765, 41.306417], [-8.760561, 41.294512], [-8.757289, 41.285498], [-8.748495, 41.276471], [-8.73402, 41.270287], [-8.722088, 41.268567], [-8.710145, 41.269472], [-8.692738, 41.276336], [-8.68388, 41.285319], [-8.681245, 41.29432], [-8.683081, 41.303333], [-8.690015, 41.312359], [-8.697982, 41.318132], [-8.709908, 41.322917], [-8.721851, 41.324474], [-8.733805, 41.323238], [-8.745772, 41.318531]]]]}}, {"id": "2", "type": "Feature", "properties": {"fill": "#a3a3a3", "value_min": -0.75, "value_max": -0.5}, "geometry": {"type": "MultiPolygon", "coordinates": [[[[-8.581839, 41.616991], [-8.585766, 41.620988], [-8.591462, 41.620515], [-8.596534, 41.616668], [-8.601628, 41.615972], [-8.603996, 41.611686], [-8.613256, 41.606696], [-8.619881, 41.610269], [-8.621338, 41.604636], [-8.628833, 41.604378], [-8.636302, 41.600744], [-8.639873, 41.597352], [-8.640152, 41.59465], [-8.645536, 41.593051], [-8.646744, 41.594171], [-8.649125, 41.591909], [-8.656622, 41.5921], [-8.660788, 41.588255], [-8.663794, 41.589141], [-8.665265, 41.585758], [-8.66948, 41.587989], [-8.684455, 41.586117], [-8.685608, 41.58071], [-8.697261, 41.576376], [-8.701703, 41.570277], [-8.707704, 41.570923], [-8.711586, 41.569327], [-8.716422, 41.573805], [-8.720316, 41.57356], [-8.725151, 41.577811], [-8.726633, 41.576003], [-8.734424, 41.575737], [-8.736564, 41.580228], [-8.738354, 41.579318], [-8.740778, 41.582006], [-8.74467, 41.581535], [-8.750711, 41.58623], [-8.756374, 41.582823], [-8.75635, 41.580347], [-8.762327, 41.578514], [-8.764443, 41.580303], [-8.767441, 41.580286], [-8.769874, 41.583874], [-8.768997, 41.58613], [-8.773228, 41.589482], [-8.775371, 41.593972], [-8.78556, 41.593464], [-8.797327, 41.600599], [-8.804218, 41.600109], [-8.80456, 41.604158], [-8.809434, 41.611332], [-8.828644, 41.609656], [-8.82839, 41.585633], [-8.818497, 41.554794], [-8.8221, 41.547542], [-8.821965, 41.534907], [-8.815926, 41.525624], [-8.81063, 41.5101], [-8.813279, 41.503483], [-8.812636, 41.496944], [-8.804699, 41.482068], [-8.798552, 41.474753], [-8.80154, 41.446836], [-8.806115, 41.43713], [-8.807354, 41.425915], [-8.811211, 41.415789], [-8.80198, 41.202267], [-8.783541, 41.213487], [-8.764614, 41.222458], [-8.739263, 41.231411], [-8.662501, 41.24762], [-8.650543, 41.251941], [-8.639519, 41.258166], [-8.628467, 41.267138], [-8.619781, 41.276118], [-8.609313, 41.294098], [-8.610509, 41.30311], [-8.620301, 41.312151], [-8.650142, 41.327118], [-8.667773, 41.33932], [-8.677692, 41.348356], [-8.690605, 41.366407], [-8.70139, 41.393459], [-8.708552, 41.402484], [-8.7493, 41.429603], [-8.764738, 41.447651], [-8.769436, 41.465675], [-8.765153, 41.483682], [-8.758211, 41.492675], [-8.746784, 41.501658], [-8.733051, 41.507744], [-8.721857, 41.510608], [-8.697082, 41.511967], [-8.673136, 41.507842], [-8.661174, 41.503859], [-8.639005, 41.492362], [-8.62831, 41.483321], [-8.623368, 41.474297], [-8.622342, 41.465287], [-8.624041, 41.456285], [-8.634268, 41.429295], [-8.633921, 41.420286], [-8.625753, 41.412551], [-8.576273, 41.384058], [-8.555753, 41.365966], [-8.542427, 41.351093], [-8.530542, 41.341497], [-8.506709, 41.331976], [-8.47092, 41.3243], [-8.447081, 41.317266], [-8.435222, 41.307041], [-8.425541, 41.291756], [-8.425013, 41.294909], [-8.422037, 41.296942], [-8.421756, 41.30077], [-8.416982, 41.301232], [-8.407744, 41.304856], [-8.406262, 41.307335], [-8.402979, 41.307568], [-8.401801, 41.311398], [-8.399712, 41.311628], [-8.400316, 41.313202], [-8.396738, 41.314336], [-8.398835, 41.316131], [-8.393775, 41.31997], [-8.393488, 41.322864], [-8.411183, 41.323419], [-8.423108, 41.326063], [-8.429226, 41.329377], [-8.434979, 41.335199], [-8.44041, 41.347447], [-8.445265, 41.401516], [-8.469922, 41.447313], [-8.475916, 41.464713], [-8.476391, 41.473722], [-8.472923, 41.482714], [-8.458204, 41.50066], [-8.454769, 41.509651], [-8.459776, 41.518682], [-8.48123, 41.530562], [-8.493202, 41.532436], [-8.517203, 41.528907], [-8.529192, 41.528643], [-8.541156, 41.531785], [-8.55309, 41.539527], [-8.575127, 41.564203], [-8.58548, 41.582256], [-8.588868, 41.600282], [-8.586978, 41.609283], [-8.581839, 41.616991]], [[-8.657495, 41.537456], [-8.648951, 41.548524], [-8.636932, 41.553595], [-8.624937, 41.554284], [-8.612961, 41.551698], [-8.601014, 41.544489], [-8.594613, 41.537252], [-8.591254, 41.528232], [-8.592184, 41.519228], [-8.601234, 41.508652], [-8.613242, 41.504418], [-8.625223, 41.504701], [-8.641034, 41.510384], [-8.65284, 41.519427], [-8.657646, 41.528449], [-8.657495, 41.537456]], [[-8.564466, 41.456074], [-8.553597, 41.465819], [-8.541651, 41.461682], [-8.538305, 41.455972], [-8.541737, 41.449351], [-8.553734, 41.445831], [-8.556633, 41.447037], [-8.564466, 41.456074]], [[-8.745772, 41.318531], [-8.733805, 41.323238], [-8.721851, 41.324474], [-8.709908, 41.322917], [-8.697982, 41.318132], [-8.690015, 41.312359], [-8.683081, 41.303333], [-8.681245, 41.29432], [-8.68388, 41.285319], [-8.692738, 41.276336], [-8.710145, 41.269472], [-8.722088, 41.268567], [-8.73402, 41.270287], [-8.748495, 41.276471], [-8.757289, 41.285498], [-8.760561, 41.294512], [-8.757765, 41.306417], [-8.753851, 41.312514], [-8.745772, 41.318531]]], [[[-7.749238, 41.748874], [-7.769685, 41.758045], [-7.791283, 41.774802], [-7.798561, 41.783885], [-7.806882, 41.810992], [-7.817717, 41.829118], [-7.840113, 41.854922], [-7.849263, 41.861699], [-7.858542, 41.862622], [-7.859456, 41.860148], [-7.864877, 41.859711], [-7.87033, 41.851395], [-7.873043, 41.850501], [-7.873066, 41.844875], [-7.879056, 41.85254], [-7.88206, 41.85402], [-7.900076, 41.829936], [-7.903788, 41.820965], [-7.904352, 41.811963], [-7.8999, 41.793907], [-7.902413, 41.784924], [-7.925727, 41.778118], [-7.94981, 41.777097], [-7.961806, 41.779354], [-7.975886, 41.785603], [-7.984208, 41.794683], [-8.001876, 41.821859], [-8.009735, 41.837853], [-8.013965, 41.828899], [-8.017873, 41.831379], [-8.02901, 41.829589], [-8.037134, 41.831171], [-8.041351, 41.828023], [-8.041054, 41.825097], [-8.045268, 41.824425], [-8.046775, 41.821951], [-8.056712, 41.81588], [-8.06664, 41.817012], [-8.072961, 41.813414], [-8.078678, 41.813417], [-8.082892, 41.810493], [-8.091013, 41.812521], [-8.093421, 41.811397], [-8.093723, 41.808471], [-8.101845, 41.809824], [-8.104853, 41.81185], [-8.115984, 41.812302], [-8.123807, 41.808702], [-8.138247, 41.808477], [-8.139751, 41.813203], [-8.14276, 41.812978], [-8.144866, 41.815228], [-8.149078, 41.814777], [-8.153291, 41.817703], [-8.158106, 41.818377], [-8.165326, 41.81815], [-8.173744, 41.808019], [-8.177655, 41.808242], [-8.183676, 41.812741], [-8.190291, 41.809587], [-8.197158, 41.814129], [-8.201063, 41.808724], [-8.204973, 41.807372], [-8.205872, 41.804445], [-8.213692, 41.803765], [-8.217598, 41.80016], [-8.217589, 41.793634], [-8.224207, 41.794303], [-8.229917, 41.791598], [-8.240744, 41.791588], [-8.24074, 41.789338], [-8.243145, 41.788798], [-8.231734, 41.778592], [-8.223128, 41.76052], [-8.226773, 41.75943], [-8.229566, 41.751556], [-8.246107, 41.733652], [-8.263295, 41.721437], [-8.275373, 41.716547], [-8.287418, 41.714372], [-8.299427, 41.715474], [-8.311403, 41.719686], [-8.31888, 41.7251], [-8.327287, 41.734156], [-8.332088, 41.743191], [-8.334407, 41.752212], [-8.33438, 41.763282], [-8.336653, 41.763728], [-8.341756, 41.761468], [-8.344765, 41.762363], [-8.349267, 41.760103], [-8.352557, 41.755145], [-8.349814, 41.744122], [-8.352516, 41.743441], [-8.352203, 41.739616], [-8.356398, 41.736231], [-8.357897, 41.735103], [-8.362407, 41.735994], [-8.368703, 41.73193], [-8.371881, 41.734399], [-8.368641, 41.725384], [-8.367955, 41.716373], [-8.371644, 41.70625], [-8.378471, 41.698416], [-8.38377, 41.695168], [-8.407899, 41.684854], [-8.419937, 41.682338], [-8.431955, 41.682049], [-8.443953, 41.683968], [-8.45593, 41.688588], [-8.463269, 41.693208], [-8.482012, 41.682123], [-8.484371, 41.674238], [-8.49308, 41.674886], [-8.499963, 41.671038], [-8.50927, 41.671233], [-8.51018, 41.672806], [-8.511967, 41.670324], [-8.509856, 41.668755], [-8.522103, 41.658811], [-8.525706, 41.659023], [-8.527769, 41.652714], [-8.534066, 41.652017], [-8.537355, 41.64998], [-8.537634, 41.646602], [-8.543876, 41.637352], [-8.543855, 41.633976], [-8.535436, 41.631017], [-8.516473, 41.626873], [-8.504505, 41.622027], [-8.468688, 41.598278], [-8.456739, 41.592297], [-8.414931, 41.581514], [-8.361024, 41.56469], [-8.337053, 41.56326], [-8.289001, 41.570547], [-8.264994, 41.572153], [-8.229053, 41.568575], [-8.181226, 41.556773], [-8.16923, 41.557085], [-8.121143, 41.565962], [-8.097163, 41.565459], [-8.081578, 41.562833], [-8.081276, 41.565382], [-8.078879, 41.56493], [-8.075279, 41.568305], [-8.073182, 41.568079], [-8.069283, 41.570553], [-8.068081, 41.573478], [-8.056684, 41.579549], [-8.052181, 41.584498], [-8.052777, 41.587649], [-8.037169, 41.600242], [-8.031467, 41.602938], [-8.02367, 41.603156], [-8.019174, 41.601802], [-8.015872, 41.603824], [-8.013474, 41.603372], [-8.005971, 41.60629], [-8.003562, 41.611239], [-7.99936, 41.61281], [-7.998462, 41.612359], [-7.999669, 41.608759], [-7.996976, 41.605829], [-7.996684, 41.602003], [-7.984685, 41.603564], [-7.982292, 41.60086], [-7.975689, 41.603552], [-7.974482, 41.606701], [-7.970882, 41.607147], [-7.969091, 41.603768], [-7.965796, 41.602413], [-7.9541, 41.602846], [-7.952606, 41.600592], [-7.947808, 41.60081], [-7.945413, 41.599456], [-7.942725, 41.595625], [-7.936132, 41.594488], [-7.93791, 41.601694], [-7.937004, 41.603718], [-7.931604, 41.604384], [-7.930979, 41.612711], [-7.925556, 41.620354], [-7.920755, 41.620796], [-7.917748, 41.623041], [-7.915933, 41.627764], [-7.913229, 41.628885], [-7.912613, 41.63361], [-7.906014, 41.633147], [-7.906884, 41.641927], [-7.897869, 41.645511], [-7.89696, 41.647985], [-7.892759, 41.647976], [-7.892145, 41.651576], [-7.902319, 41.659925], [-7.899913, 41.66127], [-7.900198, 41.665547], [-7.898396, 41.665769], [-7.896885, 41.668692], [-7.883969, 41.67069], [-7.879755, 41.673607], [-7.877044, 41.676077], [-7.876723, 41.681253], [-7.873401, 41.686198], [-7.868896, 41.686413], [-7.868008, 41.68326], [-7.864403, 41.683701], [-7.864096, 41.685276], [-7.858987, 41.68639], [-7.857773, 41.689538], [-7.854776, 41.68818], [-7.852668, 41.689679], [-7.855102, 41.689722], [-7.86155, 41.694458], [-7.86692, 41.701039], [-7.867592, 41.703524], [-7.864237, 41.712498], [-7.854577, 41.719328], [-7.842559, 41.719089], [-7.830999, 41.712165], [-7.830429, 41.710177], [-7.825252, 41.708813], [-7.818621, 41.713522], [-7.815291, 41.718689], [-7.808986, 41.717996], [-7.808396, 41.715744], [-7.804499, 41.714158], [-7.79939, 41.714593], [-7.79788, 41.716164], [-7.796383, 41.71526], [-7.790966, 41.717044], [-7.789449, 41.719966], [-7.78464, 41.720402], [-7.78252, 41.723546], [-7.776204, 41.724652], [-7.773786, 41.727346], [-7.770798, 41.72441], [-7.765698, 41.723044], [-7.761765, 41.727758], [-7.762933, 41.733839], [-7.759307, 41.737203], [-7.759597, 41.739005], [-7.75689, 41.739446], [-7.758687, 41.740577], [-7.757758, 41.745301], [-7.749238, 41.748874]], [[-7.847742, 41.784389], [-7.829427, 41.780226], [-7.822291, 41.775124], [-7.821229, 41.766106], [-7.825709, 41.757145], [-7.835785, 41.748241], [-7.866287, 41.737052], [-7.871687, 41.730585], [-7.878812, 41.708267], [-7.891065, 41.694683], [-7.903154, 41.690502], [-7.915127, 41.693088], [-7.927093, 41.704095], [-7.929581, 41.713126], [-7.926879, 41.722107], [-7.919631, 41.731046], [-7.894207, 41.748818], [-7.892419, 41.766815], [-7.889668, 41.775845], [-7.877516, 41.782716], [-7.847742, 41.784389]], [[-8.190484, 41.775358], [-8.178434, 41.776742], [-8.166418, 41.775455], [-8.154458, 41.769959], [-8.145199, 41.759967], [-8.143046, 41.750944], [-8.145327, 41.741954], [-8.153957, 41.733011], [-8.167046, 41.72695], [-8.179075, 41.726457], [-8.196479, 41.733316], [-8.206412, 41.742392], [-8.212205, 41.751439], [-8.213309, 41.760453], [-8.205092, 41.769404], [-8.190484, 41.775358]], [[-7.96204, 41.764819], [-7.959488, 41.767442], [-7.94993, 41.769715], [-7.937909, 41.769114], [-7.932173, 41.767191], [-7.926311, 41.75813], [-7.931211, 41.749168], [-7.938319, 41.7442], [-7.950384, 41.74185], [-7.962383, 41.743513], [-7.972858, 41.740541], [-7.979043, 41.722583], [-7.986874, 41.715654], [-7.998962, 41.711333], [-8.010959, 41.712882], [-8.022896, 41.718355], [-8.037212, 41.732092], [-8.040259, 41.741124], [-8.037033, 41.750104], [-8.022474, 41.758988], [-8.010231, 41.760292], [-7.998236, 41.758102], [-7.975908, 41.749575], [-7.974398, 41.744273], [-7.970484, 41.758534], [-7.96204, 41.764819]], [[-8.155168, 41.715828], [-8.143035, 41.724258], [-8.130972, 41.727232], [-8.118114, 41.723734], [-8.111772, 41.714678], [-8.131437, 41.692729], [-8.143509, 41.688555], [-8.155481, 41.691954], [-8.16071, 41.697032], [-8.162128, 41.70605], [-8.155168, 41.715828]], [[-8.058915, 41.721532], [-8.046915, 41.720006], [-8.037954, 41.714084], [-8.031577, 41.705023], [-8.034974, 41.696045], [-8.047361, 41.689798], [-8.059367, 41.690565], [-8.068157, 41.696319], [-8.073752, 41.705371], [-8.07104, 41.714436], [-8.058915, 41.721532]], [[-8.227468, 41.701407], [-8.222376, 41.706473], [-8.215352, 41.709398], [-8.203335, 41.709207], [-8.195799, 41.70629], [-8.185287, 41.697209], [-8.185766, 41.688205], [-8.191648, 41.682621], [-8.203728, 41.677364], [-8.215732, 41.678154], [-8.229486, 41.688507], [-8.230323, 41.697519], [-8.227468, 41.701407]], [[-8.047782, 41.661246], [-8.041041, 41.669075], [-8.023555, 41.674847], [-8.011562, 41.673477], [-8.002914, 41.66875], [-7.997669, 41.659698], [-7.998866, 41.650701], [-8.006484, 41.64176], [-8.01211, 41.637641], [-8.027232, 41.63293], [-8.035921, 41.623997], [-8.041742, 41.606031], [-8.050949, 41.5971], [-8.060799, 41.592021], [-8.072848, 41.588447], [-8.084861, 41.587339], [-8.096846, 41.588206], [-8.108802, 41.591236], [-8.121956, 41.597665], [-8.131511, 41.606744], [-8.144352, 41.624899], [-8.148195, 41.633891], [-8.144232, 41.642868], [-8.132058, 41.646446], [-8.120057, 41.645942], [-8.096001, 41.648749], [-8.060002, 41.646886], [-8.054172, 41.651169], [-8.047782, 41.661246]]], [[[-8.078333, 41.499188], [-8.133934, 41.506214], [-8.157895, 41.506476], [-8.169951, 41.500704], [-8.194327, 41.467349], [-8.206416, 41.458091], [-8.230462, 41.449727], [-8.290435, 41.439354], [-8.302443, 41.435737], [-8.318948, 41.427861], [-8.32804, 41.418907], [-8.330693, 41.409914], [-8.323348, 41.382849], [-8.322644, 41.373837], [-8.327094, 41.355848], [-8.339313, 41.340855], [-8.351345, 41.332831], [-8.360713, 41.329269], [-8.358276, 41.329049], [-8.357673, 41.327249], [-8.347523, 41.328169], [-8.342462, 41.333131], [-8.333215, 41.336299], [-8.326363, 41.342163], [-8.324568, 41.341041], [-8.323376, 41.341943], [-8.320676, 41.338121], [-8.312604, 41.334983], [-8.313794, 41.333405], [-8.31139, 41.328007], [-8.307502, 41.325762], [-8.305116, 41.326891], [-8.303024, 41.325994], [-8.303615, 41.323742], [-8.301216, 41.319694], [-8.296431, 41.316774], [-8.297618, 41.313846], [-8.295817, 41.310022], [-8.281801, 41.316569], [-8.281808, 41.319721], [-8.278828, 41.321976], [-8.278238, 41.325128], [-8.273161, 41.325134], [-8.269582, 41.326939], [-8.265709, 41.331221], [-8.269004, 41.336169], [-8.263339, 41.340902], [-8.262751, 41.345405], [-8.256483, 41.347663], [-8.255889, 41.349689], [-8.249622, 41.353072], [-8.251123, 41.356897], [-8.249212, 41.3587], [-8.255195, 41.364413], [-8.259209, 41.373446], [-8.259546, 41.382456], [-8.256046, 41.391441], [-8.246858, 41.400389], [-8.230968, 41.406799], [-8.218994, 41.407682], [-8.207052, 41.405803], [-8.194048, 41.400031], [-8.184697, 41.390958], [-8.180734, 41.381922], [-8.180749, 41.376532], [-8.168382, 41.377438], [-8.164499, 41.38059], [-8.152544, 41.375866], [-8.151049, 41.37339], [-8.145073, 41.374742], [-8.139694, 41.377894], [-8.133418, 41.374292], [-8.119672, 41.376768], [-8.119672, 41.378569], [-8.116683, 41.380144], [-8.117578, 41.386447], [-8.113992, 41.386896], [-8.112795, 41.390723], [-8.110105, 41.390947], [-8.108011, 41.393648], [-8.103827, 41.392972], [-8.105321, 41.394998], [-8.10263, 41.396123], [-8.10801, 41.398825], [-8.108606, 41.403102], [-8.104419, 41.406252], [-8.104119, 41.408728], [-8.101727, 41.409403], [-8.102025, 41.411204], [-8.092756, 41.411201], [-8.09126, 41.414352], [-8.079893, 41.41975], [-8.077503, 41.416597], [-8.070923, 41.41862], [-8.066739, 41.416142], [-8.061654, 41.417489], [-8.059852, 41.424916], [-8.055959, 41.429415], [-8.05745, 41.432793], [-8.056549, 41.436394], [-8.069999, 41.447206], [-8.068788, 41.462286], [-8.073872, 41.46499], [-8.074468, 41.468141], [-8.073564, 41.474668], [-8.066374, 41.482318], [-8.066069, 41.48817], [-8.072054, 41.490199], [-8.07175, 41.494925], [-8.078333, 41.499188]], [[-8.14367, 41.480734], [-8.138246, 41.489701], [-8.134124, 41.491941], [-8.122096, 41.495532], [-8.110125, 41.494867], [-8.095423, 41.489372], [-8.08846, 41.480309], [-8.088092, 41.471299], [-8.094023, 41.462339], [-8.098644, 41.458823], [-8.110668, 41.455132], [-8.122633, 41.455691], [-8.13647, 41.462665], [-8.142988, 41.471721], [-8.14367, 41.480734]]]]}}, {"id": "3", "type": "Feature", "properties": {"fill": "#a3a3a3", "value_min": -0.5, "value_max": -0.25}, "geometry": {"type": "MultiPolygon", "coordinates": [[[[-8.009735, 41.837853], [-8.001876, 41.821859], [-7.984208, 41.794683], [-7.975886, 41.785603], [-7.961806, 41.779354], [-7.94981, 41.777097], [-7.925727, 41.778118], [-7.902413, 41.784924], [-7.8999, 41.793907], [-7.904352, 41.811963], [-7.903788, 41.820965], [-7.900076, 41.829936], [-7.88206, 41.85402], [-7.888076, 41.855486], [-7.891675, 41.859094], [-7.898893, 41.86136], [-7.902203, 41.861591], [-7.904318, 41.859795], [-7.907309, 41.865203], [-7.906095, 41.868126], [-7.910299, 41.871285], [-7.909985, 41.875111], [-7.915391, 41.879397], [-7.921118, 41.877833], [-7.928044, 41.87807], [-7.935283, 41.874707], [-7.937389, 41.87516], [-7.941618, 41.870891], [-7.951254, 41.871132], [-7.956367, 41.87339], [-7.956362, 41.875191], [-7.960878, 41.875648], [-7.96299, 41.874075], [-7.972322, 41.875439], [-7.987996, 41.869157], [-7.990123, 41.860157], [-7.995547, 41.858138], [-7.994047, 41.855211], [-7.996765, 41.851162], [-8.00339, 41.85027], [-8.007618, 41.843072], [-8.007928, 41.838796], [-8.009735, 41.837853]], [[-7.937482, 41.794997], [-7.937543, 41.79128], [-7.949621, 41.788657], [-7.950986, 41.794385], [-7.949506, 41.795696], [-7.937482, 41.794997]]], [[[-7.849263, 41.861699], [-7.840113, 41.854922], [-7.817717, 41.829118], [-7.806882, 41.810992], [-7.798561, 41.783885], [-7.791283, 41.774802], [-7.769685, 41.758045], [-7.749238, 41.748874], [-7.746897, 41.752242], [-7.747786, 41.754496], [-7.743866, 41.756509], [-7.740214, 41.763924], [-7.726937, 41.771755], [-7.7254, 41.777152], [-7.727191, 41.779184], [-7.724177, 41.780299], [-7.725372, 41.781653], [-7.722296, 41.792446], [-7.728879, 41.797871], [-7.727026, 41.805517], [-7.728761, 41.816776], [-7.732041, 41.821514], [-7.743152, 41.825154], [-7.742839, 41.827178], [-7.738918, 41.82874], [-7.742196, 41.833928], [-7.74729, 41.837772], [-7.746349, 41.84407], [-7.750246, 41.846784], [-7.750532, 41.849261], [-7.743309, 41.849012], [-7.746901, 41.8524], [-7.746881, 41.855776], [-7.73843, 41.859348], [-7.734159, 41.868337], [-7.730228, 41.871024], [-7.729293, 41.875972], [-7.722351, 41.878424], [-7.720523, 41.881793], [-7.725335, 41.882935], [-7.726208, 41.887665], [-7.737044, 41.888828], [-7.737935, 41.890857], [-7.74246, 41.889747], [-7.742785, 41.885922], [-7.756022, 41.888441], [-7.758719, 41.890926], [-7.756592, 41.89407], [-7.758076, 41.897901], [-7.764097, 41.898595], [-7.779227, 41.886264], [-7.785257, 41.885157], [-7.788886, 41.882467], [-7.794007, 41.882257], [-7.796739, 41.878214], [-7.794349, 41.87438], [-7.797064, 41.873488], [-7.803381, 41.874857], [-7.804914, 41.869459], [-7.813032, 41.871958], [-7.814229, 41.873537], [-7.823863, 41.874013], [-7.825059, 41.875817], [-7.830479, 41.875831], [-7.830789, 41.874031], [-7.832894, 41.874712], [-7.83772, 41.872924], [-7.842528, 41.875187], [-7.841663, 41.866632], [-7.849263, 41.861699]]], [[[-8.33438, 41.763282], [-8.334407, 41.752212], [-8.332088, 41.743191], [-8.327287, 41.734156], [-8.31888, 41.7251], [-8.311403, 41.719686], [-8.299427, 41.715474], [-8.287418, 41.714372], [-8.275373, 41.716547], [-8.263295, 41.721437], [-8.246107, 41.733652], [-8.229566, 41.751556], [-8.226773, 41.75943], [-8.223128, 41.76052], [-8.231734, 41.778592], [-8.243145, 41.788798], [-8.245546, 41.785731], [-8.251257, 41.784375], [-8.251845, 41.777172], [-8.257551, 41.773564], [-8.261762, 41.774235], [-8.271366, 41.766346], [-8.280681, 41.764083], [-8.284038, 41.761109], [-8.284931, 41.757507], [-8.287033, 41.756829], [-8.298457, 41.757263], [-8.300866, 41.758835], [-8.305674, 41.758152], [-8.311096, 41.762195], [-8.318308, 41.761283], [-8.325233, 41.765098], [-8.328234, 41.763292], [-8.33438, 41.763282]], [[-8.277772, 41.75187], [-8.284864, 41.742907], [-8.288416, 41.742929], [-8.292178, 41.751959], [-8.286965, 41.755315], [-8.277772, 41.75187]]], [[[-7.847742, 41.784389], [-7.877516, 41.782716], [-7.889668, 41.775845], [-7.892419, 41.766815], [-7.894207, 41.748818], [-7.919631, 41.731046], [-7.926879, 41.722107], [-7.929581, 41.713126], [-7.927093, 41.704095], [-7.915127, 41.693088], [-7.903154, 41.690502], [-7.891065, 41.694683], [-7.878812, 41.708267], [-7.871687, 41.730585], [-7.866287, 41.737052], [-7.835785, 41.748241], [-7.825709, 41.757145], [-7.821229, 41.766106], [-7.822291, 41.775124], [-7.829427, 41.780226], [-7.847742, 41.784389]]], [[[-8.190484, 41.775358], [-8.205092, 41.769404], [-8.213309, 41.760453], [-8.212205, 41.751439], [-8.206412, 41.742392], [-8.196479, 41.733316], [-8.179075, 41.726457], [-8.167046, 41.72695], [-8.153957, 41.733011], [-8.145327, 41.741954], [-8.143046, 41.750944], [-8.145199, 41.759967], [-8.154458, 41.769959], [-8.166418, 41.775455], [-8.178434, 41.776742], [-8.190484, 41.775358]]], [[[-8.058915, 41.721532], [-8.07104, 41.714436], [-8.073752, 41.705371], [-8.068157, 41.696319], [-8.059367, 41.690565], [-8.047361, 41.689798], [-8.034974, 41.696045], [-8.031577, 41.705023], [-8.037954, 41.714084], [-8.046915, 41.720006], [-8.058915, 41.721532]]], [[[-8.581839, 41.616991], [-8.586978, 41.609283], [-8.588868, 41.600282], [-8.58548, 41.582256], [-8.575127, 41.564203], [-8.55309, 41.539527], [-8.541156, 41.531785], [-8.529192, 41.528643], [-8.517203, 41.528907], [-8.493202, 41.532436], [-8.48123, 41.530562], [-8.459776, 41.518682], [-8.454769, 41.509651], [-8.458204, 41.50066], [-8.472923, 41.482714], [-8.476391, 41.473722], [-8.475916, 41.464713], [-8.469922, 41.447313], [-8.445265, 41.401516], [-8.44041, 41.347447], [-8.434979, 41.335199], [-8.429226, 41.329377], [-8.423108, 41.326063], [-8.411183, 41.323419], [-8.393488, 41.322864], [-8.391105, 41.324253], [-8.386325, 41.323588], [-8.380382, 41.331254], [-8.375305, 41.33104], [-8.37201, 41.328346], [-8.360713, 41.329269], [-8.351345, 41.332831], [-8.339313, 41.340855], [-8.327094, 41.355848], [-8.322644, 41.373837], [-8.323348, 41.382849], [-8.330693, 41.409914], [-8.32804, 41.418907], [-8.318948, 41.427861], [-8.302443, 41.435737], [-8.290435, 41.439354], [-8.230462, 41.449727], [-8.206416, 41.458091], [-8.194327, 41.467349], [-8.169951, 41.500704], [-8.157895, 41.506476], [-8.133934, 41.506214], [-8.078333, 41.499188], [-8.078332, 41.500331], [-8.084618, 41.502809], [-8.093, 41.504613], [-8.0909, 41.5118], [-8.097931, 41.51025], [-8.109905, 41.510874], [-8.127243, 41.51664], [-8.134586, 41.525702], [-8.134276, 41.534707], [-8.126471, 41.543656], [-8.121408, 41.546395], [-8.109376, 41.549476], [-8.097392, 41.548999], [-8.084694, 41.54445], [-8.081886, 41.550977], [-8.079489, 41.551876], [-8.074097, 41.549848], [-8.072897, 41.551197], [-8.076188, 41.557276], [-8.079783, 41.558403], [-8.081578, 41.562833], [-8.097163, 41.565459], [-8.121143, 41.565962], [-8.16923, 41.557085], [-8.181226, 41.556773], [-8.229053, 41.568575], [-8.264994, 41.572153], [-8.289001, 41.570547], [-8.337053, 41.56326], [-8.361024, 41.56469], [-8.414931, 41.581514], [-8.456739, 41.592297], [-8.468688, 41.598278], [-8.504505, 41.622027], [-8.516473, 41.626873], [-8.535436, 41.631017], [-8.543431, 41.61462], [-8.554533, 41.615255], [-8.557244, 41.617046], [-8.562639, 41.61635], [-8.567756, 41.619032], [-8.570735, 41.616095], [-8.576721, 41.614271], [-8.581839, 41.616991]], [[-8.512882, 41.590978], [-8.504767, 41.587837], [-8.498575, 41.58191], [-8.496824, 41.572895], [-8.504958, 41.562788], [-8.516977, 41.559259], [-8.528956, 41.561146], [-8.533954, 41.564044], [-8.540712, 41.573078], [-8.539435, 41.58208], [-8.528741, 41.590686], [-8.516732, 41.592157], [-8.512882, 41.590978]], [[-8.241475, 41.531985], [-8.22952, 41.529212], [-8.224394, 41.526343], [-8.215072, 41.517273], [-8.212634, 41.508249], [-8.215026, 41.499258], [-8.22358, 41.490308], [-8.230026, 41.486568], [-8.242035, 41.483934], [-8.254, 41.485094], [-8.265912, 41.490972], [-8.273311, 41.499641], [-8.275442, 41.508661], [-8.273091, 41.517654], [-8.26552, 41.525664], [-8.253472, 41.531077], [-8.241475, 41.531985]]], [[[-8.425541, 41.291756], [-8.435222, 41.307041], [-8.447081, 41.317266], [-8.47092, 41.3243], [-8.506709, 41.331976], [-8.530542, 41.341497], [-8.542427, 41.351093], [-8.555753, 41.365966], [-8.576273, 41.384058], [-8.625753, 41.412551], [-8.633921, 41.420286], [-8.634268, 41.429295], [-8.624041, 41.456285], [-8.622342, 41.465287], [-8.623368, 41.474297], [-8.62831, 41.483321], [-8.639005, 41.492362], [-8.661174, 41.503859], [-8.673136, 41.507842], [-8.697082, 41.511967], [-8.721857, 41.510608], [-8.733051, 41.507744], [-8.746784, 41.501658], [-8.758211, 41.492675], [-8.765153, 41.483682], [-8.769436, 41.465675], [-8.764738, 41.447651], [-8.7493, 41.429603], [-8.708552, 41.402484], [-8.70139, 41.393459], [-8.690605, 41.366407], [-8.677692, 41.348356], [-8.667773, 41.33932], [-8.650142, 41.327118], [-8.620301, 41.312151], [-8.610509, 41.30311], [-8.609313, 41.294098], [-8.619781, 41.276118], [-8.628467, 41.267138], [-8.639519, 41.258166], [-8.650543, 41.251941], [-8.662501, 41.24762], [-8.739263, 41.231411], [-8.764614, 41.222458], [-8.783541, 41.213487], [-8.80198, 41.202267], [-8.799695, 41.14406], [-8.674793, 41.146932], [-8.674849, 41.153767], [-8.672489, 41.15648], [-8.66117, 41.156307], [-8.662078, 41.158104], [-8.660313, 41.160813], [-8.657033, 41.160378], [-8.654961, 41.161963], [-8.653231, 41.169174], [-8.655366, 41.175467], [-8.647955, 41.180228], [-8.647696, 41.185181], [-8.640929, 41.196241], [-8.634946, 41.193341], [-8.632526, 41.188624], [-8.625658, 41.186628], [-8.621132, 41.178994], [-8.613374, 41.177451], [-8.608583, 41.174095], [-8.609164, 41.172066], [-8.604942, 41.164881], [-8.59422, 41.165149], [-8.589174, 41.167645], [-8.589194, 41.170572], [-8.583263, 41.174422], [-8.582094, 41.177803], [-8.578825, 41.178941], [-8.581296, 41.191762], [-8.575958, 41.195609], [-8.576894, 41.201908], [-8.574515, 41.202593], [-8.57423, 41.20462], [-8.567971, 41.204644], [-8.565895, 41.206227], [-8.567697, 41.208246], [-8.566512, 41.209376], [-8.559636, 41.206251], [-8.554271, 41.20627], [-8.549521, 41.209214], [-8.544157, 41.209458], [-8.54238, 41.211265], [-8.532257, 41.213102], [-8.52713, 41.203215], [-8.523236, 41.200077], [-8.51163, 41.203042], [-8.510456, 41.206197], [-8.506583, 41.206435], [-8.504239, 41.213646], [-8.500076, 41.21546], [-8.50308, 41.219502], [-8.502204, 41.222656], [-8.495642, 41.222227], [-8.495947, 41.223351], [-8.490894, 41.226294], [-8.487935, 41.230354], [-8.490331, 41.232373], [-8.489156, 41.235528], [-8.486181, 41.236888], [-8.484411, 41.240495], [-8.476346, 41.237818], [-8.475756, 41.23917], [-8.470986, 41.23941], [-8.471604, 41.243459], [-8.469227, 41.245267], [-8.463258, 41.244384], [-8.459989, 41.246644], [-8.454323, 41.246886], [-8.455541, 41.251834], [-8.452276, 41.25522], [-8.449891, 41.255452], [-8.449304, 41.257479], [-8.447812, 41.257258], [-8.449028, 41.261982], [-8.439785, 41.262907], [-8.438023, 41.268989], [-8.434745, 41.269673], [-8.432691, 41.277107], [-8.427032, 41.279372], [-8.429143, 41.284319], [-8.426171, 41.287028], [-8.425541, 41.291756]]]]}}, {"id": "5", "type": "Feature", "properties": {"fill": "#a3a3a3", "value_min": 0.0, "value_max": 0.25}, "geometry": {"type": "Polygon", "coordinates": [[[-8.114182, 41.525547], [-8.109753, 41.522015], [-8.097754, 41.522959], [-8.094945, 41.525397], [-8.097631, 41.531818], [-8.109581, 41.534555], [-8.114182, 41.525547]]]}}, {"id": "4", "type": "Feature", "properties": {"fill": "#a3a3a3", "value_min": -0.25, "value_max": 0.0}, "geometry": {"type": "MultiPolygon", "coordinates": [[[[-7.937482, 41.794997], [-7.949506, 41.795696], [-7.950986, 41.794385], [-7.949621, 41.788657], [-7.937543, 41.79128], [-7.937482, 41.794997]]], [[[-8.277772, 41.75187], [-8.286965, 41.755315], [-8.292178, 41.751959], [-8.288416, 41.742929], [-8.284864, 41.742907], [-8.277772, 41.75187]]], [[[-8.512882, 41.590978], [-8.516732, 41.592157], [-8.528741, 41.590686], [-8.539435, 41.58208], [-8.540712, 41.573078], [-8.533954, 41.564044], [-8.528956, 41.561146], [-8.516977, 41.559259], [-8.504958, 41.562788], [-8.496824, 41.572895], [-8.498575, 41.58191], [-8.504767, 41.587837], [-8.512882, 41.590978]]], [[[-8.084694, 41.54445], [-8.097392, 41.548999], [-8.109376, 41.549476], [-8.121408, 41.546395], [-8.126471, 41.543656], [-8.134276, 41.534707], [-8.134586, 41.525702], [-8.127243, 41.51664], [-8.109905, 41.510874], [-8.097931, 41.51025], [-8.0909, 41.5118], [-8.091196, 41.516767], [-8.089398, 41.519468], [-8.090594, 41.522169], [-8.093588, 41.52307], [-8.091786, 41.531848], [-8.097775, 41.536127], [-8.097774, 41.537927], [-8.106759, 41.543557], [-8.101666, 41.542655], [-8.094175, 41.544904], [-8.087885, 41.542876], [-8.084694, 41.54445]], [[-8.114182, 41.525547], [-8.109581, 41.534555], [-8.097631, 41.531818], [-8.094945, 41.525397], [-8.097754, 41.522959], [-8.109753, 41.522015], [-8.114182, 41.525547]]], [[[-8.241475, 41.531985], [-8.253472, 41.531077], [-8.26552, 41.525664], [-8.273091, 41.517654], [-8.275442, 41.508661], [-8.273311, 41.499641], [-8.265912, 41.490972], [-8.254, 41.485094], [-8.242035, 41.483934], [-8.230026, 41.486568], [-8.22358, 41.490308], [-8.215026, 41.499258], [-8.212634, 41.508249], [-8.215072, 41.517273], [-8.224394, 41.526343], [-8.22952, 41.529212], [-8.241475, 41.531985]]]]}}, {"id": "0", "type": "Feature", "properties": {"fill": "#b6a27f", "value_min": -1.25, "value_max": -1.0}, "geometry": {"type": "MultiPolygon", "coordinates": [[[[-8.007852, 41.731842], [-8.010607, 41.735806], [-8.01327, 41.731889], [-8.010689, 41.730476], [-8.007852, 41.731842]]], [[[-8.435029, 41.715249], [-8.427325, 41.707677], [-8.419729, 41.705512], [-8.407691, 41.707544], [-8.400237, 41.716546], [-8.402932, 41.726028], [-8.404721, 41.722847], [-8.417349, 41.725067], [-8.422737, 41.720552], [-8.429643, 41.719859], [-8.430533, 41.717381], [-8.435029, 41.715249]]], [[[-8.08359, 41.615379], [-8.08445, 41.616414], [-8.088719, 41.61542], [-8.084478, 41.614446], [-8.08359, 41.615379]]]]}}]}