{"type": "FeatureCollection", "features": [{"id": "9", "type": "Feature", "properties": {"fill": "#a3a3a3", "value_min": -0.25, "value_max": -0.0}, "geometry": {"type": "MultiPolygon", "coordinates": [[[[-7.875611, 41.757645], [-7.866077, 41.748949], [-7.853992, 41.752196], [-7.849776, 41.757389], [-7.853769, 41.764771], [-7.865741, 41.768046], [-7.869036, 41.766587], [-7.875611, 41.757645]]], [[[-8.095485, 41.685673], [-8.101537, 41.678571], [-8.095707, 41.669825], [-8.082222, 41.669411], [-8.074472, 41.678356], [-8.083442, 41.687576], [-8.095485, 41.685673]], [[-8.086665, 41.678453], [-8.095587, 41.678332], [-8.095717, 41.678525], [-8.095583, 41.678682], [-8.086665, 41.678453]]], [[[-8.04411, 41.660093], [-8.039712, 41.65105], [-8.035967, 41.648108], [-8.024014, 41.644468], [-8.011969, 41.646882], [-8.006166, 41.650764], [-8.002324, 41.659738], [-8.006775, 41.668784], [-8.011585, 41.672007], [-8.023555, 41.674853], [-8.035613, 41.671834], [-8.039743, 41.669064], [-8.04411, 41.660093]], [[-8.018365, 41.659876], [-8.023847, 41.655524], [-8.03017, 41.659977], [-8.023717, 41.664108], [-8.018365, 41.659876]]], [[[-8.468379, 41.636026], [-8.470556, 41.62682], [-8.465601, 41.61779], [-8.456573, 41.612133], [-8.44459, 41.609838], [-8.432566, 41.612445], [-8.424772, 41.617593], [-8.420412, 41.626578], [-8.422794, 41.635597], [-8.432293, 41.643552], [-8.444274, 41.646679], [-8.456297, 41.644973], [-8.468379, 41.636026]]], [[[-8.660989, 41.539386], [-8.66459, 41.52847], [-8.661784, 41.519454], [-8.654019, 41.510423], [-8.637218, 41.502375], [-8.625245, 41.500865], [-8.613252, 41.502717], [-8.601232, 41.508984], [-8.593042, 41.519231], [-8.591574, 41.528233], [-8.594374, 41.537251], [-8.601011, 41.54507], [-8.612958, 41.55214], [-8.624934, 41.554661], [-8.636929, 41.554193], [-8.648941, 41.550268], [-8.654952, 41.546456], [-8.660989, 41.539386]], [[-8.614684, 41.528313], [-8.622016, 41.51933], [-8.625144, 41.518466], [-8.627634, 41.519348], [-8.633319, 41.528374], [-8.625058, 41.533273], [-8.614684, 41.528313]]], [[[-8.481427, 41.505926], [-8.476901, 41.509754], [-8.48134, 41.516787], [-8.491248, 41.509819], [-8.481427, 41.505926]]], [[[-8.193384, 41.375401], [-8.192892, 41.382008], [-8.197521, 41.391048], [-8.207146, 41.398068], [-8.219068, 41.401505], [-8.231038, 41.40088], [-8.243065, 41.395375], [-8.247631, 41.391386], [-8.251988, 41.382407], [-8.251145, 41.373394], [-8.245461, 41.365041], [-8.244272, 41.368384], [-8.239197, 41.371315], [-8.232024, 41.369971], [-8.224854, 41.370878], [-8.21738, 41.368182], [-8.211712, 41.376065], [-8.200358, 41.377648], [-8.194976, 41.374275], [-8.193384, 41.375401]]], [[[-8.541385, 41.211044], [-8.537447, 41.22177], [-8.542186, 41.230796], [-8.555164, 41.235902], [-8.567105, 41.234727], [-8.57398, 41.230918], [-8.579917, 41.221932], [-8.577468, 41.212916], [-8.567082, 41.205425], [-8.566512, 41.209376], [-8.559636, 41.206251], [-8.554271, 41.20627], [-8.549521, 41.209214], [-8.544157, 41.209458], [-8.541385, 41.211044]]]]}}, {"id": "7", "type": "Feature", "properties": {"fill": "#a3a3a3", "value_min": -0.75, "value_max": -0.5}, "geometry": {"type": "MultiPolygon", "coordinates": [[[[-7.953609, 41.872035], [-7.960315, 41.87154], [-7.972454, 41.866013], [-7.98051, 41.857698], [-7.983105, 41.848714], [-7.981103, 41.83969], [-7.971458, 41.830597], [-7.961037, 41.826968], [-7.949012, 41.82592], [-7.936931, 41.828294], [-7.931736, 41.830235], [-7.922521, 41.839155], [-7.919918, 41.848138], [-7.92236, 41.857167], [-7.931251, 41.866257], [-7.936248, 41.86954], [-7.941856, 41.870891], [-7.94222, 41.870979], [-7.944026, 41.871414], [-7.953609, 41.872035]], [[-7.948678, 41.839398], [-7.948793, 41.83933], [-7.94897, 41.8394], [-7.948789, 41.839547], [-7.948678, 41.839398]]], [[[-8.70999, 41.569561], [-8.712485, 41.569323], [-8.716422, 41.573805], [-8.720316, 41.57356], [-8.725151, 41.577811], [-8.726633, 41.576003], [-8.734424, 41.575737], [-8.736564, 41.580228], [-8.738354, 41.579318], [-8.740778, 41.582006], [-8.74467, 41.581535], [-8.750711, 41.58623], [-8.756374, 41.582823], [-8.75635, 41.580347], [-8.762327, 41.578514], [-8.764443, 41.580303], [-8.767441, 41.580286], [-8.769874, 41.583874], [-8.768997, 41.58613], [-8.773228, 41.589482], [-8.775371, 41.593972], [-8.78556, 41.593464], [-8.797327, 41.600599], [-8.804218, 41.600109], [-8.80456, 41.604158], [-8.809434, 41.611332], [-8.828644, 41.609656], [-8.82839, 41.585633], [-8.818497, 41.554794], [-8.8221, 41.547542], [-8.821965, 41.534907], [-8.815926, 41.525624], [-8.81063, 41.5101], [-8.813279, 41.503483], [-8.812636, 41.496944], [-8.804699, 41.482068], [-8.798552, 41.474753], [-8.80154, 41.446836], [-8.806115, 41.43713], [-8.807354, 41.425915], [-8.811166, 41.417099], [-8.80783, 41.350889], [-8.782407, 41.366617], [-8.76252, 41.375586], [-8.716649, 41.393497], [-8.689342, 41.402434], [-8.661667, 41.409059], [-8.637718, 41.412676], [-8.577874, 41.415369], [-8.552293, 41.419998], [-8.550457, 41.428998], [-8.553845, 41.42955], [-8.56575, 41.439127], [-8.569981, 41.447088], [-8.570511, 41.456097], [-8.564565, 41.465082], [-8.553574, 41.469137], [-8.541606, 41.467999], [-8.535216, 41.464968], [-8.527114, 41.455927], [-8.525069, 41.446911], [-8.526356, 41.437909], [-8.520141, 41.428876], [-8.517946, 41.428693], [-8.493967, 41.434173], [-8.445911, 41.455269], [-8.421899, 41.462669], [-8.409834, 41.472625], [-8.407561, 41.482396], [-8.410822, 41.49142], [-8.421566, 41.500153], [-8.445414, 41.513553], [-8.45066, 41.518639], [-8.485084, 41.536813], [-8.49306, 41.545856], [-8.49348, 41.554865], [-8.488505, 41.563851], [-8.480903, 41.571429], [-8.468857, 41.577667], [-8.456845, 41.579703], [-8.408855, 41.580265], [-8.396842, 41.582162], [-8.37466, 41.59031], [-8.346541, 41.608168], [-8.326688, 41.626067], [-8.319414, 41.635032], [-8.314085, 41.644007], [-8.308258, 41.661987], [-8.308178, 41.670993], [-8.315244, 41.68905], [-8.335553, 41.709406], [-8.36944, 41.731929], [-8.369604, 41.732024], [-8.369827, 41.732153], [-8.369906, 41.732198], [-8.375198, 41.734392], [-8.384922, 41.73032], [-8.387032, 41.731891], [-8.393033, 41.729852], [-8.396942, 41.730518], [-8.400531, 41.726683], [-8.402934, 41.726452], [-8.404721, 41.722847], [-8.407259, 41.723066], [-8.406604, 41.716579], [-8.419663, 41.712806], [-8.427149, 41.716683], [-8.426237, 41.720093], [-8.429643, 41.719859], [-8.430533, 41.717381], [-8.435927, 41.714441], [-8.441632, 41.713975], [-8.4446, 41.70654], [-8.453868, 41.697961], [-8.453255, 41.695487], [-8.461659, 41.694563], [-8.482012, 41.682123], [-8.484371, 41.674238], [-8.49308, 41.674886], [-8.499963, 41.671038], [-8.50927, 41.671233], [-8.51018, 41.672806], [-8.511967, 41.670324], [-8.509856, 41.668755], [-8.522103, 41.658811], [-8.525706, 41.659023], [-8.527769, 41.652714], [-8.534066, 41.652017], [-8.537355, 41.64998], [-8.537634, 41.646602], [-8.543876, 41.637352], [-8.543855, 41.633976], [-8.536342, 41.631977], [-8.535128, 41.62973], [-8.543431, 41.61462], [-8.554533, 41.615255], [-8.557244, 41.617046], [-8.562639, 41.61635], [-8.568056, 41.619031], [-8.570735, 41.616095], [-8.577321, 41.614269], [-8.581231, 41.615829], [-8.585766, 41.620988], [-8.591462, 41.620515], [-8.596534, 41.616668], [-8.601628, 41.615972], [-8.603996, 41.611686], [-8.609369, 41.608287], [-8.614156, 41.606692], [-8.619881, 41.610269], [-8.621338, 41.604636], [-8.628833, 41.604378], [-8.636302, 41.600744], [-8.639873, 41.597352], [-8.640152, 41.59465], [-8.645536, 41.593051], [-8.646744, 41.594171], [-8.649125, 41.591909], [-8.656622, 41.5921], [-8.658705, 41.590171], [-8.636725, 41.590453], [-8.624738, 41.588688], [-8.612761, 41.585094], [-8.600799, 41.579456], [-8.588857, 41.570923], [-8.57434, 41.555193], [-8.568418, 41.546164], [-8.562433, 41.528126], [-8.563241, 41.519122], [-8.567356, 41.51013], [-8.575349, 41.501152], [-8.612576, 41.474262], [-8.633813, 41.456316], [-8.649491, 41.448418], [-8.661478, 41.445483], [-8.673454, 41.444612], [-8.68542, 41.445591], [-8.697378, 41.448511], [-8.714169, 41.456544], [-8.724791, 41.465577], [-8.73148, 41.474601], [-8.735867, 41.483618], [-8.739781, 41.501642], [-8.737237, 41.528659], [-8.729921, 41.546656], [-8.723958, 41.55565], [-8.70999, 41.569561]], [[-8.380903, 41.689422], [-8.371813, 41.688903], [-8.359848, 41.683777], [-8.355616, 41.680276], [-8.350124, 41.671238], [-8.349612, 41.662228], [-8.353451, 41.653243], [-8.360221, 41.646065], [-8.384372, 41.631957], [-8.405866, 41.60849], [-8.42067, 41.600598], [-8.432697, 41.597471], [-8.444705, 41.596528], [-8.456695, 41.597504], [-8.46867, 41.600527], [-8.4855, 41.608874], [-8.495165, 41.617924], [-8.500692, 41.626955], [-8.50217, 41.635969], [-8.500379, 41.644968], [-8.492237, 41.655664], [-8.481582, 41.662899], [-8.468117, 41.667886], [-8.432045, 41.671828], [-8.42, 41.675381], [-8.411657, 41.680577], [-8.395863, 41.68707], [-8.380903, 41.689422]], [[-8.492127, 41.527837], [-8.481262, 41.526525], [-8.469323, 41.520726], [-8.466048, 41.518712], [-8.46077, 41.50968], [-8.463107, 41.500683], [-8.469539, 41.494263], [-8.481559, 41.489368], [-8.493537, 41.489477], [-8.505481, 41.494188], [-8.513964, 41.500909], [-8.517211, 41.509931], [-8.514782, 41.518928], [-8.505245, 41.525128], [-8.492127, 41.527837]]], [[[-8.685632, 41.583575], [-8.685632, 41.583575], [-8.684302, 41.584092], [-8.685632, 41.583575]]], [[[-8.684138, 41.584145], [-8.676365, 41.586638], [-8.684455, 41.586117], [-8.684138, 41.584145]]], [[[-8.675767, 41.58683], [-8.675767, 41.58683], [-8.675754, 41.586834], [-8.675767, 41.58683]]], [[[-7.757557, 41.7453], [-7.76973, 41.755711], [-7.793294, 41.782015], [-7.805188, 41.789526], [-7.817172, 41.792316], [-7.829203, 41.792561], [-7.86539, 41.787966], [-7.877483, 41.78459], [-7.88964, 41.777489], [-7.914219, 41.747001], [-7.926395, 41.738105], [-7.950663, 41.724708], [-7.962718, 41.722699], [-7.974681, 41.726435], [-7.986667, 41.740664], [-7.998369, 41.749513], [-8.010337, 41.753388], [-8.022366, 41.753326], [-8.032373, 41.750065], [-8.070984, 41.718296], [-8.08264, 41.705442], [-8.115612, 41.67868], [-8.115072, 41.669669], [-8.107812, 41.663136], [-8.095895, 41.65636], [-8.071986, 41.648585], [-8.048215, 41.631879], [-8.0244, 41.618826], [-8.012446, 41.615607], [-7.988484, 41.612869], [-7.928269, 41.616165], [-7.925255, 41.620579], [-7.920755, 41.620796], [-7.917748, 41.623041], [-7.915933, 41.627764], [-7.913229, 41.628885], [-7.912613, 41.63361], [-7.906014, 41.633147], [-7.906884, 41.641927], [-7.897869, 41.645511], [-7.89696, 41.647985], [-7.892759, 41.647976], [-7.892145, 41.651576], [-7.902319, 41.659925], [-7.899913, 41.66127], [-7.900198, 41.665547], [-7.898396, 41.665769], [-7.896885, 41.668692], [-7.883969, 41.67069], [-7.879755, 41.673607], [-7.877044, 41.676077], [-7.876723, 41.681253], [-7.873401, 41.686198], [-7.868896, 41.686413], [-7.867408, 41.683258], [-7.864403, 41.683701], [-7.864096, 41.685276], [-7.860493, 41.685268], [-7.858981, 41.687952], [-7.903074, 41.69522], [-7.91496, 41.703029], [-7.919384, 41.71303], [-7.91689, 41.722014], [-7.914601, 41.724351], [-7.902425, 41.733338], [-7.889505, 41.739766], [-7.889062, 41.757775], [-7.885163, 41.766744], [-7.877683, 41.773164], [-7.865575, 41.777468], [-7.853542, 41.777504], [-7.841576, 41.773786], [-7.831408, 41.76621], [-7.827115, 41.75716], [-7.827246, 41.748154], [-7.83493, 41.730219], [-7.82767, 41.708819], [-7.825252, 41.708813], [-7.818621, 41.713522], [-7.815291, 41.718689], [-7.808986, 41.717996], [-7.808396, 41.715744], [-7.803298, 41.714154], [-7.790966, 41.717044], [-7.789449, 41.719966], [-7.78464, 41.720402], [-7.78252, 41.723546], [-7.776204, 41.724652], [-7.773786, 41.727346], [-7.770798, 41.72441], [-7.765698, 41.723044], [-7.761765, 41.727758], [-7.762933, 41.733839], [-7.759307, 41.737203], [-7.759597, 41.739005], [-7.75689, 41.739446], [-7.758687, 41.740577], [-7.757557, 41.7453]], [[-8.083351, 41.693995], [-8.065909, 41.687294], [-8.059522, 41.679896], [-8.047509, 41.679811], [-8.035431, 41.68402], [-8.023387, 41.685923], [-8.011379, 41.685449], [-7.999421, 41.681751], [-7.992731, 41.677669], [-7.98452, 41.668589], [-7.981832, 41.659558], [-7.984017, 41.650571], [-7.991812, 41.641632], [-8.000113, 41.637028], [-8.012165, 41.634043], [-8.024167, 41.63432], [-8.036122, 41.637715], [-8.043241, 41.642072], [-8.053877, 41.651167], [-8.059794, 41.66124], [-8.071778, 41.663116], [-8.08381, 41.661615], [-8.095795, 41.663483], [-8.104878, 41.66959], [-8.107357, 41.678616], [-8.095407, 41.691211], [-8.083351, 41.693995]]], [[[-8.2273, 41.715475], [-8.2448, 41.706623], [-8.25031, 41.697652], [-8.250727, 41.688647], [-8.245637, 41.679607], [-8.22783, 41.671153], [-8.215829, 41.670136], [-8.203795, 41.671886], [-8.189954, 41.679228], [-8.183261, 41.688188], [-8.18279, 41.697191], [-8.188422, 41.706238], [-8.203271, 41.714379], [-8.215265, 41.716608], [-8.2273, 41.715475]], [[-8.203384, 41.705242], [-8.195857, 41.697283], [-8.199384, 41.688301], [-8.203629, 41.685335], [-8.215649, 41.685002], [-8.221779, 41.688455], [-8.225226, 41.697485], [-8.215393, 41.706099], [-8.203384, 41.705242]]], [[[-8.131674, 41.480644], [-8.127117, 41.471602], [-8.122462, 41.46838], [-8.11049, 41.468186], [-8.105607, 41.471437], [-8.101088, 41.480409], [-8.108671, 41.489475], [-8.122168, 41.490202], [-8.131674, 41.480644]]], [[[-8.126755, 41.375193], [-8.12961, 41.381547], [-8.14359, 41.399666], [-8.15912, 41.411734], [-8.18291, 41.422906], [-8.19484, 41.425895], [-8.21875, 41.428026], [-8.242719, 41.425188], [-8.254729, 41.421474], [-8.27531, 41.409579], [-8.28353, 41.400623], [-8.288039, 41.391643], [-8.290887, 41.373646], [-8.290187, 41.355626], [-8.287144, 41.337592], [-8.281228, 41.320172], [-8.278238, 41.325128], [-8.272266, 41.32536], [-8.265709, 41.331221], [-8.269004, 41.336169], [-8.263339, 41.340902], [-8.262751, 41.345405], [-8.256186, 41.348674], [-8.262279, 41.355451], [-8.267251, 41.36449], [-8.269526, 41.373512], [-8.269194, 41.382518], [-8.265957, 41.391505], [-8.258987, 41.400467], [-8.242895, 41.410026], [-8.230894, 41.413119], [-8.218921, 41.413748], [-8.206975, 41.412156], [-8.19506, 41.408075], [-8.182114, 41.399947], [-8.17407, 41.390882], [-8.169367, 41.377437], [-8.1642, 41.38059], [-8.152544, 41.375866], [-8.151049, 41.37339], [-8.145073, 41.374742], [-8.139694, 41.377894], [-8.133418, 41.374292], [-8.126755, 41.375193]]], [[[-8.434762, 41.273418], [-8.471137, 41.297406], [-8.494934, 41.309288], [-8.51878, 41.315689], [-8.530724, 41.316161], [-8.54268, 41.314908], [-8.566613, 41.309222], [-8.626446, 41.291516], [-8.650382, 41.282128], [-8.678786, 41.26729], [-8.710193, 41.258544], [-8.734074, 41.256965], [-8.75794, 41.258994], [-8.788767, 41.267544], [-8.804889, 41.276263], [-8.799695, 41.14406], [-8.67527, 41.147484], [-8.676193, 41.146567], [-8.674793, 41.146932], [-8.674204, 41.147693], [-8.673673, 41.155574], [-8.670708, 41.157163], [-8.66117, 41.156307], [-8.662078, 41.158104], [-8.660313, 41.160813], [-8.656143, 41.160832], [-8.654686, 41.16489], [-8.67487, 41.160101], [-8.686792, 41.159567], [-8.698704, 41.161024], [-8.715881, 41.168301], [-8.725728, 41.177332], [-8.729989, 41.18635], [-8.730466, 41.195359], [-8.727216, 41.20436], [-8.718919, 41.213348], [-8.710372, 41.218141], [-8.69849, 41.222304], [-8.686487, 41.223374], [-8.67304, 41.222234], [-8.650733, 41.216312], [-8.638793, 41.218167], [-8.618849, 41.240084], [-8.6084, 41.249056], [-8.590819, 41.259095], [-8.566901, 41.265614], [-8.543025, 41.265492], [-8.531105, 41.262946], [-8.519201, 41.258303], [-8.504278, 41.248655], [-8.495735, 41.23961], [-8.48943, 41.228999], [-8.487935, 41.230354], [-8.490331, 41.232373], [-8.489156, 41.235528], [-8.486181, 41.236888], [-8.484411, 41.240495], [-8.476346, 41.237818], [-8.475756, 41.23917], [-8.470986, 41.23941], [-8.471604, 41.243459], [-8.469227, 41.245267], [-8.463258, 41.244384], [-8.459989, 41.246644], [-8.454323, 41.246886], [-8.455541, 41.251834], [-8.452276, 41.25522], [-8.449891, 41.255452], [-8.449304, 41.257479], [-8.447812, 41.257258], [-8.449028, 41.261982], [-8.439785, 41.262907], [-8.438023, 41.268989], [-8.434745, 41.269673], [-8.434762, 41.273418]]], [[[-8.654389, 41.164979], [-8.654389, 41.164979], [-8.654685, 41.164891], [-8.654389, 41.164979]]]]}}, {"id": "8", "type": "Feature", "properties": {"fill": "#a3a3a3", "value_min": -0.5, "value_max": -0.25}, "geometry": {"type": "MultiPolygon", "coordinates": [[[[-7.948678, 41.839398], [-7.948789, 41.839547], [-7.94897, 41.8394], [-7.948793, 41.83933], [-7.948678, 41.839398]]], [[[-7.82767, 41.708819], [-7.83493, 41.730219], [-7.827246, 41.748154], [-7.827115, 41.75716], [-7.831408, 41.76621], [-7.841576, 41.773786], [-7.853542, 41.777504], [-7.865575, 41.777468], [-7.877683, 41.773164], [-7.885163, 41.766744], [-7.889062, 41.757775], [-7.889505, 41.739766], [-7.902425, 41.733338], [-7.914601, 41.724351], [-7.91689, 41.722014], [-7.919384, 41.71303], [-7.91496, 41.703029], [-7.903074, 41.69522], [-7.858981, 41.687952], [-7.857773, 41.689538], [-7.854776, 41.68818], [-7.847538, 41.695365], [-7.837309, 41.699391], [-7.835792, 41.702763], [-7.839682, 41.705924], [-7.838465, 41.709522], [-7.832453, 41.710407], [-7.82767, 41.708819]], [[-7.875611, 41.757645], [-7.869036, 41.766587], [-7.865741, 41.768046], [-7.853769, 41.764771], [-7.849776, 41.757389], [-7.853992, 41.752196], [-7.866077, 41.748949], [-7.875611, 41.757645]]], [[[-8.203384, 41.705242], [-8.215393, 41.706099], [-8.225226, 41.697485], [-8.221779, 41.688455], [-8.215649, 41.685002], [-8.203629, 41.685335], [-8.199384, 41.688301], [-8.195857, 41.697283], [-8.203384, 41.705242]]], [[[-8.380903, 41.689422], [-8.395863, 41.68707], [-8.411657, 41.680577], [-8.42, 41.675381], [-8.432045, 41.671828], [-8.468117, 41.667886], [-8.481582, 41.662899], [-8.492237, 41.655664], [-8.500379, 41.644968], [-8.50217, 41.635969], [-8.500692, 41.626955], [-8.495165, 41.617924], [-8.4855, 41.608874], [-8.46867, 41.600527], [-8.456695, 41.597504], [-8.444705, 41.596528], [-8.432697, 41.597471], [-8.42067, 41.600598], [-8.405866, 41.60849], [-8.384372, 41.631957], [-8.360221, 41.646065], [-8.353451, 41.653243], [-8.349612, 41.662228], [-8.350124, 41.671238], [-8.355616, 41.680276], [-8.359848, 41.683777], [-8.371813, 41.688903], [-8.380903, 41.689422]], [[-8.468379, 41.636026], [-8.456297, 41.644973], [-8.444274, 41.646679], [-8.432293, 41.643552], [-8.422794, 41.635597], [-8.420412, 41.626578], [-8.424772, 41.617593], [-8.432566, 41.612445], [-8.44459, 41.609838], [-8.456573, 41.612133], [-8.465601, 41.61779], [-8.470556, 41.62682], [-8.468379, 41.636026]]], [[[-8.083351, 41.693995], [-8.095407, 41.691211], [-8.107357, 41.678616], [-8.104878, 41.66959], [-8.095795, 41.663483], [-8.08381, 41.661615], [-8.071778, 41.663116], [-8.059794, 41.66124], [-8.053877, 41.651167], [-8.043241, 41.642072], [-8.036122, 41.637715], [-8.024167, 41.63432], [-8.012165, 41.634043], [-8.000113, 41.637028], [-7.991812, 41.641632], [-7.984017, 41.650571], [-7.981832, 41.659558], [-7.98452, 41.668589], [-7.992731, 41.677669], [-7.999421, 41.681751], [-8.011379, 41.685449], [-8.023387, 41.685923], [-8.035431, 41.68402], [-8.047509, 41.679811], [-8.059522, 41.679896], [-8.065909, 41.687294], [-8.083351, 41.693995]], [[-8.095485, 41.685673], [-8.083442, 41.687576], [-8.074472, 41.678356], [-8.082222, 41.669411], [-8.095707, 41.669825], [-8.101537, 41.678571], [-8.095485, 41.685673]], [[-8.04411, 41.660093], [-8.039743, 41.669064], [-8.035613, 41.671834], [-8.023555, 41.674853], [-8.011585, 41.672007], [-8.006775, 41.668784], [-8.002324, 41.659738], [-8.006166, 41.650764], [-8.011969, 41.646882], [-8.024014, 41.644468], [-8.035967, 41.648108], [-8.039712, 41.65105], [-8.04411, 41.660093]]], [[[-8.684302, 41.584092], [-8.685632, 41.583575], [-8.685608, 41.58071], [-8.697261, 41.576376], [-8.701703, 41.570277], [-8.707704, 41.570923], [-8.70999, 41.569561], [-8.723958, 41.55565], [-8.729921, 41.546656], [-8.737237, 41.528659], [-8.739781, 41.501642], [-8.735867, 41.483618], [-8.73148, 41.474601], [-8.724791, 41.465577], [-8.714169, 41.456544], [-8.697378, 41.448511], [-8.68542, 41.445591], [-8.673454, 41.444612], [-8.661478, 41.445483], [-8.649491, 41.448418], [-8.633813, 41.456316], [-8.612576, 41.474262], [-8.575349, 41.501152], [-8.567356, 41.51013], [-8.563241, 41.519122], [-8.562433, 41.528126], [-8.568418, 41.546164], [-8.57434, 41.555193], [-8.588857, 41.570923], [-8.600799, 41.579456], [-8.612761, 41.585094], [-8.624738, 41.588688], [-8.636725, 41.590453], [-8.658705, 41.590171], [-8.660788, 41.588255], [-8.663794, 41.589141], [-8.665265, 41.585758], [-8.66948, 41.587989], [-8.675754, 41.586834], [-8.675767, 41.58683], [-8.676365, 41.586638], [-8.684138, 41.584145], [-8.684302, 41.584092]], [[-8.660989, 41.539386], [-8.654952, 41.546456], [-8.648941, 41.550268], [-8.636929, 41.554193], [-8.624934, 41.554661], [-8.612958, 41.55214], [-8.601011, 41.54507], [-8.594374, 41.537251], [-8.591574, 41.528233], [-8.593042, 41.519231], [-8.601232, 41.508984], [-8.613252, 41.502717], [-8.625245, 41.500865], [-8.637218, 41.502375], [-8.654019, 41.510423], [-8.661784, 41.519454], [-8.66459, 41.52847], [-8.660989, 41.539386]]], [[[-8.492127, 41.527837], [-8.505245, 41.525128], [-8.514782, 41.518928], [-8.517211, 41.509931], [-8.513964, 41.500909], [-8.505481, 41.494188], [-8.493537, 41.489477], [-8.481559, 41.489368], [-8.469539, 41.494263], [-8.463107, 41.500683], [-8.46077, 41.50968], [-8.466048, 41.518712], [-8.469323, 41.520726], [-8.481262, 41.526525], [-8.492127, 41.527837]], [[-8.481427, 41.505926], [-8.491248, 41.509819], [-8.48134, 41.516787], [-8.476901, 41.509754], [-8.481427, 41.505926]]], [[[-8.169367, 41.377437], [-8.17407, 41.390882], [-8.182114, 41.399947], [-8.19506, 41.408075], [-8.206975, 41.412156], [-8.218921, 41.413748], [-8.230894, 41.413119], [-8.242895, 41.410026], [-8.258987, 41.400467], [-8.265957, 41.391505], [-8.269194, 41.382518], [-8.269526, 41.373512], [-8.267251, 41.36449], [-8.262279, 41.355451], [-8.256186, 41.348674], [-8.249622, 41.353072], [-8.251123, 41.356897], [-8.248141, 41.360052], [-8.248448, 41.364328], [-8.245461, 41.365041], [-8.251145, 41.373394], [-8.251988, 41.382407], [-8.247631, 41.391386], [-8.243065, 41.395375], [-8.231038, 41.40088], [-8.219068, 41.401505], [-8.207146, 41.398068], [-8.197521, 41.391048], [-8.192892, 41.382008], [-8.193384, 41.375401], [-8.169367, 41.377437]]], [[[-8.48943, 41.228999], [-8.495735, 41.23961], [-8.504278, 41.248655], [-8.519201, 41.258303], [-8.531105, 41.262946], [-8.543025, 41.265492], [-8.566901, 41.265614], [-8.590819, 41.259095], [-8.6084, 41.249056], [-8.618849, 41.240084], [-8.638793, 41.218167], [-8.650733, 41.216312], [-8.67304, 41.222234], [-8.686487, 41.223374], [-8.69849, 41.222304], [-8.710372, 41.218141], [-8.718919, 41.213348], [-8.727216, 41.20436], [-8.730466, 41.195359], [-8.729989, 41.18635], [-8.725728, 41.177332], [-8.715881, 41.168301], [-8.698704, 41.161024], [-8.686792, 41.159567], [-8.67487, 41.160101], [-8.654686, 41.16489], [-8.654685, 41.164891], [-8.654389, 41.164979], [-8.653231, 41.169174], [-8.655366, 41.175467], [-8.647955, 41.180228], [-8.647696, 41.185181], [-8.640929, 41.196241], [-8.634946, 41.193341], [-8.632526, 41.188624], [-8.625658, 41.186628], [-8.621132, 41.178994], [-8.613374, 41.177451], [-8.608583, 41.174095], [-8.609164, 41.172066], [-8.604942, 41.164881], [-8.59422, 41.165149], [-8.589766, 41.167193], [-8.589194, 41.170572], [-8.583263, 41.174422], [-8.582094, 41.177803], [-8.578825, 41.178941], [-8.581296, 41.191762], [-8.575958, 41.195609], [-8.576894, 41.201908], [-8.574515, 41.202593], [-8.57423, 41.20462], [-8.567082, 41.205425], [-8.577468, 41.212916], [-8.579917, 41.221932], [-8.57398, 41.230918], [-8.567105, 41.234727], [-8.555164, 41.235902], [-8.542186, 41.230796], [-8.537447, 41.22177], [-8.541385, 41.211044], [-8.532257, 41.213102], [-8.52653, 41.202542], [-8.523236, 41.200077], [-8.518471, 41.200543], [-8.51163, 41.203042], [-8.510456, 41.206197], [-8.505693, 41.207113], [-8.504239, 41.213646], [-8.500076, 41.21546], [-8.50308, 41.219502], [-8.502204, 41.222656], [-8.495642, 41.222227], [-8.48943, 41.228999]]]]}}, {"id": "6", "type": "Feature", "properties": {"fill": "#a3a3a3", "value_min": -1.0, "value_max": -0.75}, "geometry": {"type": "MultiPolygon", "coordinates": [[[[-8.375198, 41.734392], [-8.369906, 41.732198], [-8.371416, 41.7344], [-8.375198, 41.734392]]], [[[-8.369827, 41.732153], [-8.369827, 41.732153], [-8.369604, 41.732024], [-8.369827, 41.732153]]], [[[-8.36944, 41.731929], [-8.335553, 41.709406], [-8.315244, 41.68905], [-8.308178, 41.670993], [-8.308258, 41.661987], [-8.314085, 41.644007], [-8.319414, 41.635032], [-8.326688, 41.626067], [-8.346541, 41.608168], [-8.37466, 41.59031], [-8.396842, 41.582162], [-8.408855, 41.580265], [-8.456845, 41.579703], [-8.468857, 41.577667], [-8.480903, 41.571429], [-8.488505, 41.563851], [-8.49348, 41.554865], [-8.49306, 41.545856], [-8.485084, 41.536813], [-8.45066, 41.518639], [-8.445414, 41.513553], [-8.421566, 41.500153], [-8.410822, 41.49142], [-8.407561, 41.482396], [-8.409834, 41.472625], [-8.421899, 41.462669], [-8.445911, 41.455269], [-8.493967, 41.434173], [-8.517946, 41.428693], [-8.520141, 41.428876], [-8.526356, 41.437909], [-8.525069, 41.446911], [-8.527114, 41.455927], [-8.535216, 41.464968], [-8.541606, 41.467999], [-8.553574, 41.469137], [-8.564565, 41.465082], [-8.570511, 41.456097], [-8.569981, 41.447088], [-8.56575, 41.439127], [-8.553845, 41.42955], [-8.550457, 41.428998], [-8.552293, 41.419998], [-8.577874, 41.415369], [-8.637718, 41.412676], [-8.661667, 41.409059], [-8.689342, 41.402434], [-8.716649, 41.393497], [-8.76252, 41.375586], [-8.782407, 41.366617], [-8.80783, 41.350889], [-8.804889, 41.276263], [-8.788767, 41.267544], [-8.75794, 41.258994], [-8.734074, 41.256965], [-8.710193, 41.258544], [-8.678786, 41.26729], [-8.650382, 41.282128], [-8.626446, 41.291516], [-8.566613, 41.309222], [-8.54268, 41.314908], [-8.530724, 41.316161], [-8.51878, 41.315689], [-8.494934, 41.309288], [-8.471137, 41.297406], [-8.434762, 41.273418], [-8.432691, 41.277107], [-8.427032, 41.279372], [-8.429143, 41.284319], [-8.426171, 41.287028], [-8.426488, 41.291079], [-8.425013, 41.294909], [-8.422037, 41.296942], [-8.422647, 41.299867], [-8.407744, 41.304856], [-8.406262, 41.307335], [-8.403277, 41.307342], [-8.401801, 41.311398], [-8.399712, 41.311628], [-8.400316, 41.313202], [-8.396738, 41.314336], [-8.398835, 41.316131], [-8.393775, 41.31997], [-8.393489, 41.323122], [-8.391105, 41.324253], [-8.386325, 41.323588], [-8.380382, 41.331254], [-8.375305, 41.33104], [-8.37201, 41.328346], [-8.361563, 41.329718], [-8.358276, 41.329049], [-8.357673, 41.327249], [-8.350207, 41.327264], [-8.346032, 41.328847], [-8.342462, 41.333131], [-8.333215, 41.336299], [-8.326363, 41.342163], [-8.324568, 41.341041], [-8.323376, 41.341943], [-8.320676, 41.338121], [-8.312604, 41.334983], [-8.313794, 41.333405], [-8.31139, 41.328007], [-8.307502, 41.325762], [-8.305116, 41.326891], [-8.303024, 41.325994], [-8.303615, 41.323742], [-8.301216, 41.319694], [-8.296431, 41.316774], [-8.297618, 41.313846], [-8.296116, 41.310022], [-8.281801, 41.316569], [-8.281228, 41.320172], [-8.287144, 41.337592], [-8.290187, 41.355626], [-8.290887, 41.373646], [-8.288039, 41.391643], [-8.28353, 41.400623], [-8.27531, 41.409579], [-8.254729, 41.421474], [-8.242719, 41.425188], [-8.21875, 41.428026], [-8.19484, 41.425895], [-8.18291, 41.422906], [-8.15912, 41.411734], [-8.14359, 41.399666], [-8.12961, 41.381547], [-8.126755, 41.375193], [-8.119074, 41.377218], [-8.119672, 41.378569], [-8.116683, 41.380144], [-8.117578, 41.386447], [-8.113992, 41.386896], [-8.112795, 41.390723], [-8.110105, 41.390947], [-8.108011, 41.393648], [-8.103827, 41.392972], [-8.105321, 41.394998], [-8.10263, 41.396123], [-8.10801, 41.398825], [-8.108606, 41.403102], [-8.104419, 41.406252], [-8.104119, 41.408728], [-8.101727, 41.409403], [-8.102025, 41.411204], [-8.092756, 41.411201], [-8.09126, 41.414352], [-8.079893, 41.41975], [-8.077503, 41.416597], [-8.070923, 41.41862], [-8.066739, 41.416142], [-8.061654, 41.417489], [-8.059852, 41.424916], [-8.055959, 41.429415], [-8.05745, 41.432793], [-8.056549, 41.436394], [-8.069999, 41.447206], [-8.068788, 41.462286], [-8.073872, 41.46499], [-8.073566, 41.47257], [-8.073654, 41.472643], [-8.073865, 41.47282], [-8.07856, 41.480231], [-8.089506, 41.489325], [-8.098172, 41.492864], [-8.1101, 41.496648], [-8.122067, 41.497679], [-8.134076, 41.495565], [-8.14779, 41.489772], [-8.156524, 41.480829], [-8.167791, 41.462896], [-8.182512, 41.454601], [-8.266484, 41.440257], [-8.300551, 41.42775], [-8.318648, 41.418851], [-8.326548, 41.40989], [-8.326132, 41.40088], [-8.321382, 41.382837], [-8.322275, 41.364827], [-8.327225, 41.354117], [-8.339295, 41.342664], [-8.351297, 41.337632], [-8.363268, 41.335697], [-8.37521, 41.336601], [-8.387127, 41.340219], [-8.398595, 41.347236], [-8.406739, 41.356286], [-8.410562, 41.365314], [-8.411459, 41.374326], [-8.409575, 41.383324], [-8.404925, 41.392307], [-8.39853, 41.399862], [-8.377772, 41.419186], [-8.377155, 41.42819], [-8.386041, 41.455788], [-8.390172, 41.50032], [-8.387649, 41.518321], [-8.382988, 41.527303], [-8.374031, 41.536262], [-8.361223, 41.544486], [-8.30711, 41.571908], [-8.277006, 41.589737], [-8.253578, 41.607602], [-8.225727, 41.634439], [-8.159403, 41.679009], [-8.156967, 41.687998], [-8.159062, 41.69702], [-8.168356, 41.706095], [-8.184481, 41.715217], [-8.224206, 41.733506], [-8.235485, 41.742589], [-8.240388, 41.751629], [-8.244523, 41.76967], [-8.241217, 41.789337], [-8.245546, 41.785731], [-8.251257, 41.784375], [-8.251845, 41.777172], [-8.257551, 41.773564], [-8.261762, 41.774235], [-8.271366, 41.766346], [-8.280681, 41.764083], [-8.284038, 41.761109], [-8.284931, 41.757507], [-8.287033, 41.756829], [-8.298457, 41.757263], [-8.300866, 41.758835], [-8.305674, 41.758152], [-8.311096, 41.762195], [-8.318308, 41.761283], [-8.325233, 41.765098], [-8.328234, 41.763292], [-8.336653, 41.763728], [-8.341756, 41.761468], [-8.344765, 41.762363], [-8.349267, 41.760103], [-8.352557, 41.755145], [-8.34982, 41.745922], [-8.349814, 41.744122], [-8.352516, 41.743441], [-8.352203, 41.739616], [-8.357897, 41.735103], [-8.362407, 41.735994], [-8.36944, 41.731929]], [[-8.2273, 41.715475], [-8.215265, 41.716608], [-8.203271, 41.714379], [-8.188422, 41.706238], [-8.18279, 41.697191], [-8.183261, 41.688188], [-8.189954, 41.679228], [-8.203795, 41.671886], [-8.215829, 41.670136], [-8.22783, 41.671153], [-8.245637, 41.679607], [-8.250727, 41.688647], [-8.25031, 41.697652], [-8.2448, 41.706623], [-8.2273, 41.715475]], [[-8.456983, 41.563176], [-8.444987, 41.56351], [-8.433027, 41.559787], [-8.4248, 41.554542], [-8.420337, 41.545512], [-8.422851, 41.536518], [-8.433287, 41.529986], [-8.445296, 41.527412], [-8.457266, 41.52935], [-8.470789, 41.536748], [-8.475684, 41.545778], [-8.47225, 41.55477], [-8.46902, 41.55784], [-8.456983, 41.563176]], [[-8.131674, 41.480644], [-8.122168, 41.490202], [-8.108671, 41.489475], [-8.101088, 41.480409], [-8.105607, 41.471437], [-8.11049, 41.468186], [-8.122462, 41.46838], [-8.127117, 41.471602], [-8.131674, 41.480644]], [[-8.63789, 41.381551], [-8.625933, 41.38115], [-8.614, 41.37673], [-8.604398, 41.366143], [-8.60337, 41.357132], [-8.608001, 41.34814], [-8.614198, 41.343154], [-8.626177, 41.338626], [-8.638129, 41.33842], [-8.65006, 41.342285], [-8.658025, 41.3483], [-8.662874, 41.357322], [-8.661935, 41.366326], [-8.654479, 41.375312], [-8.63789, 41.381551]]], [[[-7.941856, 41.870891], [-7.936248, 41.86954], [-7.931251, 41.866257], [-7.92236, 41.857167], [-7.919918, 41.848138], [-7.922521, 41.839155], [-7.931736, 41.830235], [-7.936931, 41.828294], [-7.949012, 41.82592], [-7.961037, 41.826968], [-7.971458, 41.830597], [-7.981103, 41.83969], [-7.983105, 41.848714], [-7.98051, 41.857698], [-7.972454, 41.866013], [-7.960315, 41.87154], [-7.953609, 41.872035], [-7.956367, 41.87339], [-7.956362, 41.875191], [-7.960878, 41.875648], [-7.96299, 41.874075], [-7.972322, 41.875439], [-7.987996, 41.869157], [-7.990123, 41.860157], [-7.995547, 41.858138], [-7.994047, 41.855211], [-7.996162, 41.851837], [-8.003089, 41.850494], [-8.005804, 41.847346], [-8.007928, 41.838796], [-8.010941, 41.836773], [-8.013965, 41.828899], [-8.017873, 41.831379], [-8.02901, 41.829589], [-8.037134, 41.831171], [-8.041351, 41.828023], [-8.041054, 41.825097], [-8.045268, 41.824425], [-8.047679, 41.821276], [-8.057314, 41.815656], [-8.06664, 41.817012], [-8.072961, 41.813414], [-8.078678, 41.813417], [-8.082892, 41.810493], [-8.091013, 41.812521], [-8.093421, 41.811397], [-8.093723, 41.808471], [-8.101845, 41.809824], [-8.104853, 41.81185], [-8.115984, 41.812302], [-8.123414, 41.808927], [-8.110431, 41.79573], [-8.10277, 41.777657], [-8.101527, 41.759633], [-8.106586, 41.732652], [-8.105946, 41.72364], [-8.099456, 41.705575], [-8.102362, 41.696591], [-8.107407, 41.69242], [-8.11954, 41.683907], [-8.132522, 41.678809], [-8.130476, 41.669786], [-8.096022, 41.647288], [-8.071156, 41.633294], [-8.060461, 41.6242], [-8.039931, 41.597543], [-8.031467, 41.602938], [-8.02367, 41.603156], [-8.019174, 41.601802], [-8.015872, 41.603824], [-8.013474, 41.603372], [-8.005971, 41.60629], [-8.003562, 41.611239], [-7.998761, 41.612809], [-7.999669, 41.608759], [-7.996976, 41.605829], [-7.996684, 41.602003], [-7.984685, 41.603564], [-7.982292, 41.60086], [-7.975689, 41.603552], [-7.974482, 41.606701], [-7.970882, 41.607147], [-7.969091, 41.603768], [-7.965796, 41.602413], [-7.9541, 41.602846], [-7.952606, 41.600592], [-7.947808, 41.60081], [-7.945413, 41.599456], [-7.942725, 41.595625], [-7.936733, 41.594264], [-7.93791, 41.601694], [-7.937004, 41.603718], [-7.931604, 41.604384], [-7.930979, 41.612711], [-7.928269, 41.616165], [-7.988484, 41.612869], [-8.012446, 41.615607], [-8.0244, 41.618826], [-8.048215, 41.631879], [-8.071986, 41.648585], [-8.095895, 41.65636], [-8.107812, 41.663136], [-8.115072, 41.669669], [-8.115612, 41.67868], [-8.08264, 41.705442], [-8.070984, 41.718296], [-8.032373, 41.750065], [-8.022366, 41.753326], [-8.010337, 41.753388], [-7.998369, 41.749513], [-7.986667, 41.740664], [-7.974681, 41.726435], [-7.962718, 41.722699], [-7.950663, 41.724708], [-7.926395, 41.738105], [-7.914219, 41.747001], [-7.88964, 41.777489], [-7.877483, 41.78459], [-7.86539, 41.787966], [-7.829203, 41.792561], [-7.817172, 41.792316], [-7.805188, 41.789526], [-7.793294, 41.782015], [-7.76973, 41.755711], [-7.757557, 41.7453], [-7.748417, 41.749321], [-7.747786, 41.754496], [-7.743866, 41.756509], [-7.740214, 41.763924], [-7.726937, 41.771755], [-7.7254, 41.777152], [-7.727191, 41.779184], [-7.724177, 41.780299], [-7.725372, 41.781653], [-7.722296, 41.792446], [-7.728879, 41.797871], [-7.727026, 41.805517], [-7.728761, 41.816776], [-7.732041, 41.821514], [-7.743152, 41.825154], [-7.742839, 41.827178], [-7.738918, 41.82874], [-7.742196, 41.833928], [-7.74729, 41.837772], [-7.746349, 41.84407], [-7.750541, 41.847685], [-7.750532, 41.849261], [-7.743309, 41.849012], [-7.746901, 41.8524], [-7.746881, 41.855776], [-7.73843, 41.859348], [-7.734159, 41.868337], [-7.730228, 41.871024], [-7.729293, 41.875972], [-7.720533, 41.880218], [-7.720523, 41.881793], [-7.725335, 41.882935], [-7.726208, 41.887665], [-7.737044, 41.888828], [-7.73944, 41.891087], [-7.74246, 41.889747], [-7.742785, 41.885922], [-7.756022, 41.888441], [-7.758719, 41.890926], [-7.756592, 41.89407], [-7.758076, 41.897901], [-7.764097, 41.898595], [-7.779227, 41.886264], [-7.785257, 41.885157], [-7.788886, 41.882467], [-7.794007, 41.882257], [-7.796739, 41.878214], [-7.794349, 41.87438], [-7.797064, 41.873488], [-7.803381, 41.874857], [-7.804914, 41.869459], [-7.813032, 41.871958], [-7.814229, 41.873537], [-7.823863, 41.874013], [-7.825059, 41.875817], [-7.830479, 41.875831], [-7.830789, 41.874031], [-7.832894, 41.874712], [-7.83772, 41.872924], [-7.842528, 41.875187], [-7.841663, 41.866632], [-7.849515, 41.861475], [-7.858542, 41.862622], [-7.859456, 41.860148], [-7.864877, 41.859711], [-7.87033, 41.851395], [-7.873043, 41.850501], [-7.873066, 41.844875], [-7.879056, 41.85254], [-7.886268, 41.855932], [-7.888076, 41.855486], [-7.891675, 41.859094], [-7.900698, 41.861588], [-7.904318, 41.859795], [-7.907309, 41.865203], [-7.906095, 41.868126], [-7.910299, 41.871285], [-7.909985, 41.875111], [-7.91479, 41.879171], [-7.928949, 41.877847], [-7.935283, 41.874707], [-7.937389, 41.87516], [-7.941856, 41.870891]], [[-7.985267, 41.817722], [-7.912972, 41.82087], [-7.900992, 41.817322], [-7.891765, 41.811842], [-7.891804, 41.802836], [-7.894899, 41.793859], [-7.90691, 41.77596], [-7.913847, 41.769066], [-7.925981, 41.762943], [-7.949988, 41.766143], [-7.9621, 41.761123], [-7.974117, 41.761923], [-7.986093, 41.76768], [-7.999077, 41.7768], [-8.007635, 41.785881], [-8.011676, 41.794923], [-8.011063, 41.803925], [-8.003243, 41.812864], [-7.985267, 41.817722]], [[-7.864934, 41.813823], [-7.864992, 41.810533], [-7.877057, 41.809046], [-7.883531, 41.811763], [-7.876928, 41.816422], [-7.864934, 41.813823]]], [[[-7.944026, 41.871414], [-7.944026, 41.871414], [-7.94222, 41.870979], [-7.944026, 41.871414]]], [[[-8.240887, 41.790012], [-8.240887, 41.790012], [-8.240116, 41.791588], [-8.240887, 41.790012]]], [[[-8.426237, 41.720093], [-8.427149, 41.716683], [-8.419663, 41.712806], [-8.406604, 41.716579], [-8.407259, 41.723066], [-8.417349, 41.725067], [-8.41974, 41.722135], [-8.426237, 41.720093]]]]}}, {"id": "5", "type": "Feature", "properties": {"fill": "#b6a27f", "value_min": -1.25, "value_max": -1.0}, "geometry": {"type": "MultiPolygon", "coordinates": [[[[-8.240116, 41.791588], [-8.240887, 41.790012], [-8.241217, 41.789337], [-8.244523, 41.76967], [-8.240388, 41.751629], [-8.235485, 41.742589], [-8.224206, 41.733506], [-8.184481, 41.715217], [-8.168356, 41.706095], [-8.159062, 41.69702], [-8.156967, 41.687998], [-8.159403, 41.679009], [-8.225727, 41.634439], [-8.253578, 41.607602], [-8.277006, 41.589737], [-8.30711, 41.571908], [-8.361223, 41.544486], [-8.374031, 41.536262], [-8.382988, 41.527303], [-8.387649, 41.518321], [-8.390172, 41.50032], [-8.386041, 41.455788], [-8.377155, 41.42819], [-8.377772, 41.419186], [-8.39853, 41.399862], [-8.404925, 41.392307], [-8.409575, 41.383324], [-8.411459, 41.374326], [-8.410562, 41.365314], [-8.406739, 41.356286], [-8.398595, 41.347236], [-8.387127, 41.340219], [-8.37521, 41.336601], [-8.363268, 41.335697], [-8.351297, 41.337632], [-8.339295, 41.342664], [-8.327225, 41.354117], [-8.322275, 41.364827], [-8.321382, 41.382837], [-8.326132, 41.40088], [-8.326548, 41.40989], [-8.318648, 41.418851], [-8.300551, 41.42775], [-8.266484, 41.440257], [-8.182512, 41.454601], [-8.167791, 41.462896], [-8.156524, 41.480829], [-8.14779, 41.489772], [-8.134076, 41.495565], [-8.122067, 41.497679], [-8.1101, 41.496648], [-8.098172, 41.492864], [-8.089506, 41.489325], [-8.07856, 41.480231], [-8.073865, 41.47282], [-8.066074, 41.483218], [-8.066069, 41.48817], [-8.072054, 41.490199], [-8.072348, 41.495379], [-8.121995, 41.502969], [-8.16988, 41.506262], [-8.181913, 41.502257], [-8.205215, 41.481176], [-8.218193, 41.474404], [-8.24221, 41.468893], [-8.278141, 41.468497], [-8.29015, 41.465481], [-8.314208, 41.455208], [-8.326211, 41.452288], [-8.338189, 41.451771], [-8.350137, 41.454215], [-8.362053, 41.460054], [-8.37251, 41.473202], [-8.37538, 41.482226], [-8.375644, 41.491234], [-8.373032, 41.500228], [-8.361525, 41.513779], [-8.349483, 41.519645], [-8.337466, 41.522738], [-8.313475, 41.524679], [-8.301456, 41.52771], [-8.277331, 41.541404], [-8.253255, 41.549916], [-8.229249, 41.552031], [-8.205272, 41.55165], [-8.193247, 41.554471], [-8.182587, 41.562083], [-8.174117, 41.571029], [-8.169021, 41.58], [-8.170395, 41.589017], [-8.180605, 41.605945], [-8.184433, 41.616139], [-8.185211, 41.625152], [-8.183129, 41.634144], [-8.178024, 41.643115], [-8.168346, 41.652052], [-8.155917, 41.658524], [-8.143883, 41.660321], [-8.131888, 41.659151], [-8.119939, 41.654649], [-8.10337, 41.642557], [-8.097896, 41.633507], [-8.096541, 41.624489], [-8.098812, 41.606493], [-8.102963, 41.597518], [-8.101883, 41.588502], [-8.086425, 41.579373], [-8.068982, 41.571567], [-8.065682, 41.575053], [-8.062384, 41.575501], [-8.056684, 41.579549], [-8.052181, 41.584498], [-8.052777, 41.587649], [-8.039931, 41.597543], [-8.060461, 41.6242], [-8.071156, 41.633294], [-8.096022, 41.647288], [-8.130476, 41.669786], [-8.132522, 41.678809], [-8.11954, 41.683907], [-8.107407, 41.69242], [-8.102362, 41.696591], [-8.099456, 41.705575], [-8.105946, 41.72364], [-8.106586, 41.732652], [-8.101527, 41.759633], [-8.10277, 41.777657], [-8.110431, 41.79573], [-8.123414, 41.808927], [-8.138247, 41.808477], [-8.139751, 41.813203], [-8.14276, 41.812978], [-8.144866, 41.815228], [-8.149078, 41.814777], [-8.153291, 41.817703], [-8.158106, 41.818377], [-8.165326, 41.81815], [-8.173744, 41.808019], [-8.177655, 41.808242], [-8.183676, 41.812741], [-8.190291, 41.809587], [-8.197158, 41.814129], [-8.201063, 41.808724], [-8.204973, 41.807372], [-8.205872, 41.804445], [-8.213692, 41.803765], [-8.217598, 41.80016], [-8.217589, 41.793634], [-8.224207, 41.794303], [-8.229917, 41.791598], [-8.240116, 41.791588]], [[-8.166372, 41.779031], [-8.154376, 41.776246], [-8.142443, 41.768741], [-8.135411, 41.759893], [-8.13313, 41.750869], [-8.134631, 41.741874], [-8.14228, 41.732924], [-8.155051, 41.724735], [-8.167129, 41.720536], [-8.179133, 41.721898], [-8.19109, 41.727112], [-8.200459, 41.733344], [-8.207451, 41.742399], [-8.209182, 41.751418], [-8.206741, 41.760408], [-8.20263, 41.766218], [-8.190482, 41.775509], [-8.178408, 41.778785], [-8.166372, 41.779031]], [[-8.112093, 41.696667], [-8.119421, 41.692635], [-8.126589, 41.696778], [-8.119244, 41.705612], [-8.112093, 41.696667]]], [[[-8.073654, 41.472643], [-8.073654, 41.472643], [-8.073566, 41.47257], [-8.073654, 41.472643]]], [[[-7.985267, 41.817722], [-8.003243, 41.812864], [-8.011063, 41.803925], [-8.011676, 41.794923], [-8.007635, 41.785881], [-7.999077, 41.7768], [-7.986093, 41.76768], [-7.974117, 41.761923], [-7.9621, 41.761123], [-7.949988, 41.766143], [-7.925981, 41.762943], [-7.913847, 41.769066], [-7.90691, 41.77596], [-7.894899, 41.793859], [-7.891804, 41.802836], [-7.891765, 41.811842], [-7.900992, 41.817322], [-7.912972, 41.82087], [-7.985267, 41.817722]], [[-7.937183, 41.813085], [-7.925184, 41.810669], [-7.914865, 41.803056], [-7.911316, 41.794016], [-7.913579, 41.784943], [-7.925796, 41.774018], [-7.937862, 41.771943], [-7.961908, 41.772987], [-7.971278, 41.776555], [-7.981176, 41.78565], [-7.98276, 41.794671], [-7.977867, 41.803634], [-7.961293, 41.811098], [-7.937183, 41.813085]]], [[[-7.864934, 41.813823], [-7.876928, 41.816422], [-7.883531, 41.811763], [-7.877057, 41.809046], [-7.864992, 41.810533], [-7.864934, 41.813823]]], [[[-8.456983, 41.563176], [-8.46902, 41.55784], [-8.47225, 41.55477], [-8.475684, 41.545778], [-8.470789, 41.536748], [-8.457266, 41.52935], [-8.445296, 41.527412], [-8.433287, 41.529986], [-8.422851, 41.536518], [-8.420337, 41.545512], [-8.4248, 41.554542], [-8.433027, 41.559787], [-8.444987, 41.56351], [-8.456983, 41.563176]], [[-8.44513, 41.54681], [-8.445161, 41.543222], [-8.457189, 41.538535], [-8.460769, 41.545709], [-8.4571, 41.549213], [-8.44513, 41.54681]]], [[[-8.63789, 41.381551], [-8.654479, 41.375312], [-8.661935, 41.366326], [-8.662874, 41.357322], [-8.658025, 41.3483], [-8.65006, 41.342285], [-8.638129, 41.33842], [-8.626177, 41.338626], [-8.614198, 41.343154], [-8.608001, 41.34814], [-8.60337, 41.357132], [-8.604398, 41.366143], [-8.614, 41.37673], [-8.625933, 41.38115], [-8.63789, 41.381551]]]]}}, {"id": "10", "type": "Feature", "properties": {"fill": "#a3a3a3", "value_min": 0.0, "value_max": -0.25}, "geometry": {"type": "MultiPolygon", "coordinates": [[[[-8.086665, 41.678453], [-8.095583, 41.678682], [-8.095717, 41.678525], [-8.095587, 41.678332], [-8.086665, 41.678453]]], [[[-8.018365, 41.659876], [-8.023717, 41.664108], [-8.03017, 41.659977], [-8.023847, 41.655524], [-8.018365, 41.659876]]], [[[-8.614684, 41.528313], [-8.625058, 41.533273], [-8.633319, 41.528374], [-8.627634, 41.519348], [-8.625144, 41.518466], [-8.622016, 41.51933], [-8.614684, 41.528313]]]]}}, {"id": "0", "type": "Feature", "properties": {"fill": "#a21c1c", "value_min": -2.5, "value_max": -2.25}, "geometry": {"type": "Polygon", "coordinates": [[[-8.109752, 41.522068], [-8.097753, 41.52303], [-8.095051, 41.525398], [-8.097633, 41.531672], [-8.109582, 41.534491], [-8.114053, 41.525546], [-8.109752, 41.522068]]]}}, {"id": "4", "type": "Feature", "properties": {"fill": "#e19f31", "value_min": -1.5, "value_max": -1.25}, "geometry": {"type": "MultiPolygon", "coordinates": [[[[-7.937183, 41.813085], [-7.961293, 41.811098], [-7.977867, 41.803634], [-7.98276, 41.794671], [-7.981176, 41.78565], [-7.971278, 41.776555], [-7.961908, 41.772987], [-7.937862, 41.771943], [-7.925796, 41.774018], [-7.913579, 41.784943], [-7.911316, 41.794016], [-7.914865, 41.803056], [-7.925184, 41.810669], [-7.937183, 41.813085]], [[-7.949312, 41.807574], [-7.937278, 41.807334], [-7.927624, 41.803176], [-7.920464, 41.794102], [-7.922171, 41.785111], [-7.925662, 41.782044], [-7.93778, 41.776888], [-7.949814, 41.7768], [-7.961786, 41.780611], [-7.968385, 41.785536], [-7.969857, 41.794556], [-7.961892, 41.803491], [-7.949312, 41.807574]]], [[[-8.166372, 41.779031], [-8.178408, 41.778785], [-8.190482, 41.775509], [-8.20263, 41.766218], [-8.206741, 41.760408], [-8.209182, 41.751418], [-8.207451, 41.742399], [-8.200459, 41.733344], [-8.19109, 41.727112], [-8.179133, 41.721898], [-8.167129, 41.720536], [-8.155051, 41.724735], [-8.14228, 41.732924], [-8.134631, 41.741874], [-8.13313, 41.750869], [-8.135411, 41.759893], [-8.142443, 41.768741], [-8.154376, 41.776246], [-8.166372, 41.779031]], [[-8.16657, 41.763707], [-8.154606, 41.758667], [-8.148225, 41.750982], [-8.147818, 41.741972], [-8.155603, 41.733023], [-8.16703, 41.72819], [-8.17904, 41.729264], [-8.186672, 41.733247], [-8.193943, 41.742305], [-8.193267, 41.751307], [-8.190743, 41.754815], [-8.178611, 41.762894], [-8.16657, 41.763707]]], [[[-8.112093, 41.696667], [-8.119244, 41.705612], [-8.126589, 41.696778], [-8.119421, 41.692635], [-8.112093, 41.696667]]], [[[-8.068982, 41.571567], [-8.086425, 41.579373], [-8.101883, 41.588502], [-8.102963, 41.597518], [-8.098812, 41.606493], [-8.096541, 41.624489], [-8.097896, 41.633507], [-8.10337, 41.642557], [-8.119939, 41.654649], [-8.131888, 41.659151], [-8.143883, 41.660321], [-8.155917, 41.658524], [-8.168346, 41.652052], [-8.178024, 41.643115], [-8.183129, 41.634144], [-8.185211, 41.625152], [-8.184433, 41.616139], [-8.180605, 41.605945], [-8.170395, 41.589017], [-8.169021, 41.58], [-8.174117, 41.571029], [-8.182587, 41.562083], [-8.193247, 41.554471], [-8.205272, 41.55165], [-8.229249, 41.552031], [-8.253255, 41.549916], [-8.277331, 41.541404], [-8.301456, 41.52771], [-8.313475, 41.524679], [-8.337466, 41.522738], [-8.349483, 41.519645], [-8.361525, 41.513779], [-8.373032, 41.500228], [-8.375644, 41.491234], [-8.37538, 41.482226], [-8.37251, 41.473202], [-8.362053, 41.460054], [-8.350137, 41.454215], [-8.338189, 41.451771], [-8.326211, 41.452288], [-8.314208, 41.455208], [-8.29015, 41.465481], [-8.278141, 41.468497], [-8.24221, 41.468893], [-8.218193, 41.474404], [-8.205215, 41.481176], [-8.181913, 41.502257], [-8.16988, 41.506262], [-8.121995, 41.502969], [-8.072348, 41.495379], [-8.078333, 41.49898], [-8.078332, 41.500331], [-8.092701, 41.504533], [-8.121928, 41.507993], [-8.143437, 41.516761], [-8.150784, 41.525823], [-8.151914, 41.534839], [-8.148287, 41.543819], [-8.139539, 41.552761], [-8.133261, 41.556668], [-8.121214, 41.560717], [-8.109203, 41.562078], [-8.097221, 41.561284], [-8.085265, 41.558723], [-8.074693, 41.553689], [-8.076188, 41.557276], [-8.079783, 41.558403], [-8.082176, 41.564032], [-8.068982, 41.571567]], [[-8.131977, 41.652545], [-8.120031, 41.647869], [-8.113416, 41.642635], [-8.110147, 41.633602], [-8.113209, 41.624619], [-8.120452, 41.616893], [-8.132538, 41.610669], [-8.144541, 41.610567], [-8.156472, 41.615987], [-8.164284, 41.625001], [-8.165486, 41.634017], [-8.161395, 41.642995], [-8.156065, 41.647206], [-8.143987, 41.652451], [-8.131977, 41.652545]], [[-8.241514, 41.528592], [-8.229562, 41.525671], [-8.219217, 41.517301], [-8.216434, 41.508275], [-8.219638, 41.499289], [-8.229974, 41.490909], [-8.24199, 41.487844], [-8.253955, 41.489055], [-8.265857, 41.495891], [-8.269552, 41.499617], [-8.271849, 41.508639], [-8.265584, 41.52008], [-8.253517, 41.527155], [-8.241514, 41.528592]], [[-8.337633, 41.506383], [-8.32568, 41.503579], [-8.319521, 41.499923], [-8.313597, 41.490881], [-8.314236, 41.481877], [-8.321647, 41.472914], [-8.326024, 41.470413], [-8.338029, 41.46748], [-8.349986, 41.469294], [-8.355927, 41.473111], [-8.363327, 41.482159], [-8.36352, 41.491168], [-8.356758, 41.500138], [-8.349633, 41.504614], [-8.337633, 41.506383]]], [[[-8.074662, 41.553674], [-8.074662, 41.553674], [-8.073495, 41.553118], [-8.074662, 41.553674]]], [[[-8.44513, 41.54681], [-8.4571, 41.549213], [-8.460769, 41.545709], [-8.457189, 41.538535], [-8.445161, 41.543222], [-8.44513, 41.54681]]]]}}, {"id": "3", "type": "Feature", "properties": {"fill": "#e57b10", "value_min": -1.75, "value_max": -1.5}, "geometry": {"type": "MultiPolygon", "coordinates": [[[[-7.949312, 41.807574], [-7.961892, 41.803491], [-7.969857, 41.794556], [-7.968385, 41.785536], [-7.961786, 41.780611], [-7.949814, 41.7768], [-7.93778, 41.776888], [-7.925662, 41.782044], [-7.922171, 41.785111], [-7.920464, 41.794102], [-7.927624, 41.803176], [-7.937278, 41.807334], [-7.949312, 41.807574]], [[-7.937373, 41.801572], [-7.928499, 41.794177], [-7.93003, 41.785185], [-7.937713, 41.780995], [-7.949749, 41.780807], [-7.958993, 41.785451], [-7.960491, 41.794471], [-7.949401, 41.802128], [-7.937373, 41.801572]]], [[[-8.16657, 41.763707], [-8.178611, 41.762894], [-8.190743, 41.754815], [-8.193267, 41.751307], [-8.193943, 41.742305], [-8.186672, 41.733247], [-8.17904, 41.729264], [-8.16703, 41.72819], [-8.155603, 41.733023], [-8.147818, 41.741972], [-8.148225, 41.750982], [-8.154606, 41.758667], [-8.16657, 41.763707]], [[-8.166705, 41.753291], [-8.162942, 41.75109], [-8.158489, 41.742051], [-8.166938, 41.735267], [-8.178928, 41.738005], [-8.182857, 41.742227], [-8.178758, 41.751355], [-8.166705, 41.753291]]], [[[-8.131977, 41.652545], [-8.143987, 41.652451], [-8.156065, 41.647206], [-8.161395, 41.642995], [-8.165486, 41.634017], [-8.164284, 41.625001], [-8.156472, 41.615987], [-8.144541, 41.610567], [-8.132538, 41.610669], [-8.120452, 41.616893], [-8.113209, 41.624619], [-8.110147, 41.633602], [-8.113416, 41.642635], [-8.120031, 41.647869], [-8.131977, 41.652545]], [[-8.132049, 41.647179], [-8.122416, 41.642704], [-8.11755, 41.633659], [-8.124342, 41.624704], [-8.132409, 41.620313], [-8.144394, 41.621675], [-8.149224, 41.624891], [-8.153926, 41.633933], [-8.149121, 41.642905], [-8.144076, 41.64576], [-8.132049, 41.647179]]], [[[-8.074693, 41.553689], [-8.085265, 41.558723], [-8.097221, 41.561284], [-8.109203, 41.562078], [-8.121214, 41.560717], [-8.133261, 41.556668], [-8.139539, 41.552761], [-8.148287, 41.543819], [-8.151914, 41.534839], [-8.150784, 41.525823], [-8.143437, 41.516761], [-8.121928, 41.507993], [-8.092701, 41.504533], [-8.0912, 41.510825], [-8.097942, 41.509419], [-8.109916, 41.510092], [-8.128569, 41.51665], [-8.135621, 41.52571], [-8.13561, 41.534717], [-8.129039, 41.543675], [-8.12138, 41.54844], [-8.10935, 41.551391], [-8.097365, 41.550937], [-8.083389, 41.545584], [-8.082186, 41.550752], [-8.079489, 41.551876], [-8.074097, 41.549848], [-8.073495, 41.553118], [-8.074662, 41.553674], [-8.074693, 41.553689]]], [[[-8.241514, 41.528592], [-8.253517, 41.527155], [-8.265584, 41.52008], [-8.271849, 41.508639], [-8.269552, 41.499617], [-8.265857, 41.495891], [-8.253955, 41.489055], [-8.24199, 41.487844], [-8.229974, 41.490909], [-8.219638, 41.499289], [-8.216434, 41.508275], [-8.219217, 41.517301], [-8.229562, 41.525671], [-8.241514, 41.528592]]], [[[-8.337633, 41.506383], [-8.349633, 41.504614], [-8.356758, 41.500138], [-8.36352, 41.491168], [-8.363327, 41.482159], [-8.355927, 41.473111], [-8.349986, 41.469294], [-8.338029, 41.46748], [-8.326024, 41.470413], [-8.321647, 41.472914], [-8.314236, 41.481877], [-8.313597, 41.490881], [-8.319521, 41.499923], [-8.32568, 41.503579], [-8.337633, 41.506383]], [[-8.337259, 41.49102], [-8.337845, 41.485601], [-8.339749, 41.491034], [-8.337259, 41.49102]]]]}}, {"id": "2", "type": "Feature", "properties": {"fill": "#c93e18", "value_min": -2.0, "value_max": -1.75}, "geometry": {"type": "MultiPolygon", "coordinates": [[[[-7.937373, 41.801572], [-7.949401, 41.802128], [-7.960491, 41.794471], [-7.958993, 41.785451], [-7.949749, 41.780807], [-7.937713, 41.780995], [-7.93003, 41.785185], [-7.928499, 41.794177], [-7.937373, 41.801572]], [[-7.937474, 41.795436], [-7.936048, 41.794248], [-7.937369, 41.785253], [-7.950807, 41.785376], [-7.951951, 41.794394], [-7.9495, 41.796086], [-7.937474, 41.795436]]], [[[-8.166705, 41.753291], [-8.178758, 41.751355], [-8.182857, 41.742227], [-8.178928, 41.738005], [-8.166938, 41.735267], [-8.158489, 41.742051], [-8.162942, 41.75109], [-8.166705, 41.753291]]], [[[-8.132049, 41.647179], [-8.144076, 41.64576], [-8.149121, 41.642905], [-8.153926, 41.633933], [-8.149224, 41.624891], [-8.144394, 41.621675], [-8.132409, 41.620313], [-8.124342, 41.624704], [-8.11755, 41.633659], [-8.122416, 41.642704], [-8.132049, 41.647179]], [[-8.126616, 41.633729], [-8.132298, 41.628581], [-8.14422, 41.633861], [-8.132134, 41.640835], [-8.126616, 41.633729]]], [[[-8.083389, 41.545584], [-8.097365, 41.550937], [-8.10935, 41.551391], [-8.12138, 41.54844], [-8.129039, 41.543675], [-8.13561, 41.534717], [-8.135621, 41.52571], [-8.128569, 41.51665], [-8.109916, 41.510092], [-8.097942, 41.509419], [-8.0912, 41.510825], [-8.089698, 41.518647], [-8.097872, 41.514511], [-8.109854, 41.514591], [-8.115757, 41.516552], [-8.125353, 41.525633], [-8.12388, 41.534629], [-8.121535, 41.537054], [-8.109464, 41.543077], [-8.10646, 41.542924], [-8.103464, 41.542771], [-8.101666, 41.54268], [-8.094475, 41.544904], [-8.087885, 41.542876], [-8.083389, 41.545584]]], [[[-8.337259, 41.49102], [-8.339749, 41.491034], [-8.337845, 41.485601], [-8.337259, 41.49102]]]]}}, {"id": "1", "type": "Feature", "properties": {"fill": "#b11c1c", "value_min": -2.25, "value_max": -2.0}, "geometry": {"type": "MultiPolygon", "coordinates": [[[[-7.937474, 41.795436], [-7.9495, 41.796086], [-7.951951, 41.794394], [-7.950807, 41.785376], [-7.937369, 41.785253], [-7.936048, 41.794248], [-7.937474, 41.795436]]], [[[-8.126616, 41.633729], [-8.132134, 41.640835], [-8.14422, 41.633861], [-8.132298, 41.628581], [-8.126616, 41.633729]]], [[[-8.10646, 41.542924], [-8.109464, 41.543077], [-8.121535, 41.537054], [-8.12388, 41.534629], [-8.125353, 41.525633], [-8.115757, 41.516552], [-8.109854, 41.514591], [-8.097872, 41.514511], [-8.089698, 41.518647], [-8.090594, 41.522169], [-8.093588, 41.52307], [-8.09209, 41.524645], [-8.092385, 41.532749], [-8.095978, 41.534325], [-8.098073, 41.538152], [-8.10646, 41.542924]], [[-8.109752, 41.522068], [-8.114053, 41.525546], [-8.109582, 41.534491], [-8.097633, 41.531672], [-8.095051, 41.525398], [-8.097753, 41.52303], [-8.109752, 41.522068]]], [[[-8.101666, 41.54268], [-8.101666, 41.54268], [-8.103464, 41.542771], [-8.101666, 41.54268]]]]}}]}