{"type": "FeatureCollection", "features": [{"id": "6", "type": "Feature", "properties": {"fill": "#a3a3a3", "value_min": -0.5, "value_max": -0.25}, "geometry": {"type": "MultiPolygon", "coordinates": [[[[-8.38375, 41.69718], [-8.404743, 41.689548], [-8.421563, 41.680627], [-8.429356, 41.671659], [-8.429629, 41.662653], [-8.424443, 41.65362], [-8.415246, 41.644566], [-8.396393, 41.630313], [-8.384426, 41.626273], [-8.372439, 41.624422], [-8.360425, 41.625465], [-8.348386, 41.628821], [-8.337287, 41.635136], [-8.327846, 41.644089], [-8.323145, 41.653068], [-8.321056, 41.662063], [-8.322092, 41.671076], [-8.325923, 41.680106], [-8.333798, 41.689159], [-8.347695, 41.697322], [-8.359685, 41.700179], [-8.371707, 41.699829], [-8.38375, 41.69718]], [[-8.371759, 41.694461], [-8.359757, 41.692919], [-8.347798, 41.687171], [-8.340035, 41.680188], [-8.335944, 41.671157], [-8.335128, 41.662145], [-8.337886, 41.653154], [-8.345215, 41.644189], [-8.36032, 41.636052], [-8.372348, 41.633849], [-8.384344, 41.634855], [-8.396316, 41.638591], [-8.415389, 41.653574], [-8.419909, 41.662604], [-8.41951, 41.67161], [-8.412709, 41.680582], [-8.395842, 41.689306], [-8.38379, 41.693078], [-8.371759, 41.694461]]], [[[-8.215529, 41.694847], [-8.203522, 41.694002], [-8.201901, 41.697326], [-8.203459, 41.69914], [-8.215481, 41.698793], [-8.216937, 41.697429], [-8.215529, 41.694847]]], [[[-8.177735, 41.376309], [-8.17799, 41.381902], [-8.181959, 41.390938], [-8.195121, 41.403163], [-8.207022, 41.408289], [-8.218962, 41.41035], [-8.230934, 41.409732], [-8.242938, 41.406322], [-8.254991, 41.398563], [-8.261122, 41.391474], [-8.264493, 41.382488], [-8.264562, 41.373481], [-8.261467, 41.364453], [-8.255471, 41.356431], [-8.250643, 41.352846], [-8.249625, 41.354648], [-8.251123, 41.356897], [-8.248141, 41.360052], [-8.248448, 41.364328], [-8.245461, 41.364781], [-8.244272, 41.368384], [-8.241029, 41.370413], [-8.244266, 41.373349], [-8.245738, 41.382366], [-8.239934, 41.391336], [-8.231097, 41.395849], [-8.219127, 41.396574], [-8.20722, 41.392003], [-8.200851, 41.382063], [-8.201764, 41.377197], [-8.19707, 41.376524], [-8.194976, 41.374275], [-8.191691, 41.376302], [-8.177735, 41.376309]]], [[[-8.649892, 41.373692], [-8.655469, 41.366307], [-8.655428, 41.3573], [-8.6481, 41.34827], [-8.638098, 41.344066], [-8.626147, 41.343859], [-8.615614, 41.348166], [-8.609066, 41.357151], [-8.609687, 41.366161], [-8.614029, 41.371788], [-8.62595, 41.378283], [-8.637906, 41.378722], [-8.649892, 41.373692]]], [[[-8.612659, 41.176779], [-8.623646, 41.213076], [-8.63444, 41.231126], [-8.646057, 41.24017], [-8.662511, 41.245615], [-8.674441, 41.246598], [-8.698317, 41.245262], [-8.728028, 41.240393], [-8.746093, 41.235827], [-8.759433, 41.231455], [-8.778198, 41.222485], [-8.790556, 41.2135], [-8.801905, 41.200372], [-8.799695, 41.14406], [-8.743838, 41.1453], [-8.758312, 41.158181], [-8.764519, 41.16841], [-8.767099, 41.177424], [-8.765603, 41.195436], [-8.76117, 41.204435], [-8.753778, 41.213427], [-8.741869, 41.222409], [-8.722247, 41.231039], [-8.69836, 41.236035], [-8.686424, 41.236587], [-8.674496, 41.235566], [-8.660191, 41.231205], [-8.646837, 41.222157], [-8.639893, 41.213128], [-8.635658, 41.204106], [-8.63281, 41.189073], [-8.625658, 41.186628], [-8.621132, 41.178994], [-8.612659, 41.176779]]]]}}, {"id": "7", "type": "Feature", "properties": {"fill": "#a3a3a3", "value_min": -0.25, "value_max": -0.0}, "geometry": {"type": "MultiPolygon", "coordinates": [[[[-8.227334, 41.71264], [-8.236009, 41.706564], [-8.241207, 41.697592], [-8.240748, 41.688582], [-8.233285, 41.679525], [-8.227766, 41.676537], [-8.215784, 41.673879], [-8.203752, 41.675359], [-8.191643, 41.682978], [-8.187859, 41.68822], [-8.186523, 41.697218], [-8.190794, 41.706255], [-8.20327, 41.71448], [-8.215273, 41.715903], [-8.227334, 41.71264]], [[-8.215529, 41.694847], [-8.216937, 41.697429], [-8.215481, 41.698793], [-8.203459, 41.69914], [-8.201901, 41.697326], [-8.203522, 41.694002], [-8.215529, 41.694847]]], [[[-8.37164, 41.706684], [-8.436709, 41.680702], [-8.445014, 41.671735], [-8.444991, 41.662728], [-8.438585, 41.65369], [-8.396524, 41.616224], [-8.384571, 41.611032], [-8.360589, 41.608851], [-8.348573, 41.610292], [-8.336536, 41.613713], [-8.324474, 41.61946], [-8.315042, 41.625999], [-8.306079, 41.634952], [-8.300723, 41.643927], [-8.295808, 41.661911], [-8.297043, 41.670926], [-8.301079, 41.679957], [-8.307865, 41.689006], [-8.323622, 41.700918], [-8.335581, 41.706717], [-8.347568, 41.709944], [-8.359589, 41.709851], [-8.37164, 41.706684]], [[-8.38375, 41.69718], [-8.371707, 41.699829], [-8.359685, 41.700179], [-8.347695, 41.697322], [-8.333798, 41.689159], [-8.325923, 41.680106], [-8.322092, 41.671076], [-8.321056, 41.662063], [-8.323145, 41.653068], [-8.327846, 41.644089], [-8.337287, 41.635136], [-8.348386, 41.628821], [-8.360425, 41.625465], [-8.372439, 41.624422], [-8.384426, 41.626273], [-8.396393, 41.630313], [-8.415246, 41.644566], [-8.424443, 41.65362], [-8.429629, 41.662653], [-8.429356, 41.671659], [-8.421563, 41.680627], [-8.404743, 41.689548], [-8.38375, 41.69718]]], [[[-8.023835, 41.65629], [-8.019547, 41.659886], [-8.023729, 41.663297], [-8.029062, 41.659967], [-8.023835, 41.65629]]], [[[-8.69719, 41.488805], [-8.702609, 41.483537], [-8.705571, 41.474537], [-8.704187, 41.465526], [-8.697344, 41.455705], [-8.685408, 41.448061], [-8.673454, 41.444599], [-8.661478, 41.445365], [-8.649479, 41.45052], [-8.643578, 41.456347], [-8.638678, 41.465339], [-8.638347, 41.474345], [-8.642425, 41.483366], [-8.649271, 41.489279], [-8.661218, 41.49538], [-8.67319, 41.497145], [-8.685179, 41.495505], [-8.692699, 41.492518], [-8.69719, 41.488805]]], [[[-8.445647, 41.486252], [-8.448263, 41.482598], [-8.447465, 41.473587], [-8.433863, 41.463846], [-8.421887, 41.464074], [-8.408533, 41.473393], [-8.406503, 41.48239], [-8.409678, 41.489852], [-8.421597, 41.496714], [-8.433585, 41.495852], [-8.441416, 41.491573], [-8.445647, 41.486252]]], [[[-8.577519, 41.470091], [-8.584295, 41.465155], [-8.589761, 41.456167], [-8.592302, 41.447169], [-8.590652, 41.438156], [-8.585597, 41.42913], [-8.577825, 41.422919], [-8.565871, 41.420921], [-8.553901, 41.421451], [-8.541913, 41.424365], [-8.529896, 41.431224], [-8.523496, 41.437897], [-8.519264, 41.446887], [-8.519345, 41.455895], [-8.523851, 41.464921], [-8.536559, 41.47398], [-8.541549, 41.476139], [-8.553514, 41.477854], [-8.565503, 41.47609], [-8.577519, 41.470091]]], [[[-8.144273, 41.375417], [-8.15049, 41.39071], [-8.157559, 41.39977], [-8.167634, 41.40885], [-8.183423, 41.417971], [-8.194884, 41.422388], [-8.218777, 41.425758], [-8.242747, 41.422749], [-8.254284, 41.418452], [-8.269545, 41.409542], [-8.278524, 41.400592], [-8.284406, 41.391621], [-8.287327, 41.382631], [-8.28835, 41.37363], [-8.28641, 41.355603], [-8.279568, 41.339477], [-8.269582, 41.327152], [-8.265709, 41.331221], [-8.269004, 41.336169], [-8.263339, 41.340902], [-8.262751, 41.345405], [-8.256483, 41.347663], [-8.255889, 41.349689], [-8.250643, 41.352846], [-8.255471, 41.356431], [-8.261467, 41.364453], [-8.264562, 41.373481], [-8.264493, 41.382488], [-8.261122, 41.391474], [-8.254991, 41.398563], [-8.242938, 41.406322], [-8.230934, 41.409732], [-8.218962, 41.41035], [-8.207022, 41.408289], [-8.195121, 41.403163], [-8.181959, 41.390938], [-8.17799, 41.381902], [-8.177735, 41.376309], [-8.168382, 41.377438], [-8.1642, 41.38059], [-8.152544, 41.375866], [-8.151049, 41.37339], [-8.144273, 41.375417]]], [[[-8.685615, 41.40521], [-8.695473, 41.393443], [-8.698857, 41.384444], [-8.699307, 41.375438], [-8.692369, 41.357404], [-8.675503, 41.339343], [-8.662081, 41.329043], [-8.63826, 41.314882], [-8.626341, 41.309926], [-8.614411, 41.307055], [-8.602463, 41.307394], [-8.590494, 41.311106], [-8.578504, 41.317782], [-8.566476, 41.329836], [-8.561024, 41.338963], [-8.557283, 41.356964], [-8.560324, 41.374991], [-8.569871, 41.393042], [-8.577953, 41.403162], [-8.589856, 41.412665], [-8.601796, 41.416826], [-8.637676, 41.420151], [-8.661621, 41.417923], [-8.673611, 41.41314], [-8.685615, 41.40521]], [[-8.649892, 41.373692], [-8.637906, 41.378722], [-8.62595, 41.378283], [-8.614029, 41.371788], [-8.609687, 41.366161], [-8.609066, 41.357151], [-8.615614, 41.348166], [-8.626147, 41.343859], [-8.638098, 41.344066], [-8.6481, 41.34827], [-8.655428, 41.3573], [-8.655469, 41.366307], [-8.649892, 41.373692]]], [[[-8.581396, 41.178031], [-8.591254, 41.18925], [-8.603051, 41.210317], [-8.614713, 41.255792], [-8.626595, 41.265289], [-8.638527, 41.266397], [-8.650473, 41.26511], [-8.68175, 41.25829], [-8.722157, 41.252263], [-8.803833, 41.249421], [-8.801905, 41.200372], [-8.790556, 41.2135], [-8.778198, 41.222485], [-8.759433, 41.231455], [-8.746093, 41.235827], [-8.728028, 41.240393], [-8.698317, 41.245262], [-8.674441, 41.246598], [-8.662511, 41.245615], [-8.646057, 41.24017], [-8.63444, 41.231126], [-8.623646, 41.213076], [-8.612659, 41.176779], [-8.608583, 41.174095], [-8.609164, 41.172066], [-8.604942, 41.164881], [-8.600767, 41.164222], [-8.589766, 41.167193], [-8.589194, 41.170572], [-8.585925, 41.17171], [-8.581396, 41.178031]]]]}}, {"id": "5", "type": "Feature", "properties": {"fill": "#a3a3a3", "value_min": -0.75, "value_max": -0.5}, "geometry": {"type": "MultiPolygon", "coordinates": [[[[-8.371759, 41.694461], [-8.38379, 41.693078], [-8.395842, 41.689306], [-8.412709, 41.680582], [-8.41951, 41.67161], [-8.419909, 41.662604], [-8.415389, 41.653574], [-8.396316, 41.638591], [-8.384344, 41.634855], [-8.372348, 41.633849], [-8.36032, 41.636052], [-8.345215, 41.644189], [-8.337886, 41.653154], [-8.335128, 41.662145], [-8.335944, 41.671157], [-8.340035, 41.680188], [-8.347798, 41.687171], [-8.359757, 41.692919], [-8.371759, 41.694461]], [[-8.371229, 41.68937], [-8.359823, 41.686279], [-8.350956, 41.68025], [-8.345357, 41.671211], [-8.344778, 41.662201], [-8.34905, 41.653218], [-8.360238, 41.644345], [-8.372282, 41.640613], [-8.384288, 41.640823], [-8.396256, 41.644987], [-8.407719, 41.653535], [-8.413383, 41.662571], [-8.412882, 41.671576], [-8.404965, 41.680542], [-8.395878, 41.68545], [-8.383828, 41.689021], [-8.371229, 41.68937]]], [[[-8.201764, 41.377197], [-8.200851, 41.382063], [-8.20722, 41.392003], [-8.219127, 41.396574], [-8.231097, 41.395849], [-8.239934, 41.391336], [-8.245738, 41.382366], [-8.244266, 41.373349], [-8.241029, 41.370413], [-8.224854, 41.370878], [-8.21738, 41.368182], [-8.211712, 41.376065], [-8.201764, 41.377197]]], [[[-8.63281, 41.189073], [-8.635658, 41.204106], [-8.639893, 41.213128], [-8.646837, 41.222157], [-8.660191, 41.231205], [-8.674496, 41.235566], [-8.686424, 41.236587], [-8.69836, 41.236035], [-8.722247, 41.231039], [-8.741869, 41.222409], [-8.753778, 41.213427], [-8.76117, 41.204435], [-8.765603, 41.195436], [-8.767099, 41.177424], [-8.764519, 41.16841], [-8.758312, 41.158181], [-8.743838, 41.1453], [-8.674793, 41.146932], [-8.674849, 41.153767], [-8.672489, 41.15648], [-8.66117, 41.156307], [-8.662078, 41.158104], [-8.660313, 41.160813], [-8.657033, 41.160378], [-8.654961, 41.161963], [-8.653222, 41.168049], [-8.655053, 41.173627], [-8.662923, 41.16537], [-8.674874, 41.159218], [-8.686808, 41.15621], [-8.698728, 41.155807], [-8.710637, 41.157837], [-8.722536, 41.162695], [-8.730377, 41.168335], [-8.737853, 41.177361], [-8.74112, 41.186376], [-8.741124, 41.195384], [-8.737853, 41.204384], [-8.730504, 41.213375], [-8.722298, 41.218987], [-8.710344, 41.224398], [-8.698402, 41.22696], [-8.686468, 41.227341], [-8.674547, 41.225296], [-8.662645, 41.219709], [-8.655238, 41.213175], [-8.649713, 41.20415], [-8.647689, 41.195136], [-8.648415, 41.18613], [-8.651448, 41.178411], [-8.647955, 41.180228], [-8.647696, 41.185181], [-8.640929, 41.196241], [-8.634946, 41.193341], [-8.63281, 41.189073]]], [[[-8.651515, 41.178274], [-8.651515, 41.178274], [-8.651558, 41.178186], [-8.651515, 41.178274]]]]}}, {"id": "4", "type": "Feature", "properties": {"fill": "#a3a3a3", "value_min": -1.0, "value_max": -0.75}, "geometry": {"type": "MultiPolygon", "coordinates": [[[[-8.371229, 41.68937], [-8.383828, 41.689021], [-8.395878, 41.68545], [-8.404965, 41.680542], [-8.412882, 41.671576], [-8.413383, 41.662571], [-8.407719, 41.653535], [-8.396256, 41.644987], [-8.384288, 41.640823], [-8.372282, 41.640613], [-8.360238, 41.644345], [-8.34905, 41.653218], [-8.344778, 41.662201], [-8.345357, 41.671211], [-8.350956, 41.68025], [-8.359823, 41.686279], [-8.371229, 41.68937]], [[-8.383863, 41.685325], [-8.371851, 41.685042], [-8.360629, 41.680304], [-8.35326, 41.671256], [-8.35285, 41.662246], [-8.35861, 41.653272], [-8.372225, 41.646549], [-8.384237, 41.64618], [-8.396207, 41.650276], [-8.400528, 41.653498], [-8.407011, 41.662539], [-8.406509, 41.671543], [-8.397928, 41.680506], [-8.383863, 41.685325]]], [[[-8.651448, 41.178411], [-8.648415, 41.18613], [-8.647689, 41.195136], [-8.649713, 41.20415], [-8.655238, 41.213175], [-8.662645, 41.219709], [-8.674547, 41.225296], [-8.686468, 41.227341], [-8.698402, 41.22696], [-8.710344, 41.224398], [-8.722298, 41.218987], [-8.730504, 41.213375], [-8.737853, 41.204384], [-8.741124, 41.195384], [-8.74112, 41.186376], [-8.737853, 41.177361], [-8.730377, 41.168335], [-8.722536, 41.162695], [-8.710637, 41.157837], [-8.698728, 41.155807], [-8.686808, 41.15621], [-8.674874, 41.159218], [-8.662923, 41.16537], [-8.655053, 41.173627], [-8.655366, 41.175467], [-8.651558, 41.178186], [-8.651515, 41.178274], [-8.651448, 41.178411]], [[-8.686517, 41.217224], [-8.673429, 41.213228], [-8.664685, 41.204195], [-8.662777, 41.19395], [-8.665779, 41.186182], [-8.674783, 41.177685], [-8.686724, 41.173842], [-8.698644, 41.174125], [-8.710545, 41.178809], [-8.717941, 41.186322], [-8.720669, 41.195336], [-8.718001, 41.204338], [-8.710399, 41.211909], [-8.698449, 41.216665], [-8.686517, 41.217224]]]]}}, {"id": "3", "type": "Feature", "properties": {"fill": "#b6a27f", "value_min": -1.25, "value_max": -1.0}, "geometry": {"type": "MultiPolygon", "coordinates": [[[[-8.383863, 41.685325], [-8.397928, 41.680506], [-8.406509, 41.671543], [-8.407011, 41.662539], [-8.400528, 41.653498], [-8.396207, 41.650276], [-8.384237, 41.64618], [-8.372225, 41.646549], [-8.35861, 41.653272], [-8.35285, 41.662246], [-8.35326, 41.671256], [-8.360629, 41.680304], [-8.371851, 41.685042], [-8.383863, 41.685325]], [[-8.371894, 41.680604], [-8.360597, 41.671297], [-8.360221, 41.662288], [-8.372173, 41.651902], [-8.384192, 41.650831], [-8.396151, 41.656211], [-8.401283, 41.662509], [-8.40083, 41.671514], [-8.395963, 41.676377], [-8.387656, 41.680451], [-8.383899, 41.681629], [-8.371894, 41.680604]]], [[[-8.686517, 41.217224], [-8.698449, 41.216665], [-8.710399, 41.211909], [-8.718001, 41.204338], [-8.720669, 41.195336], [-8.717941, 41.186322], [-8.710545, 41.178809], [-8.698644, 41.174125], [-8.686724, 41.173842], [-8.674783, 41.177685], [-8.665779, 41.186182], [-8.662777, 41.19395], [-8.664685, 41.204195], [-8.673429, 41.213228], [-8.686517, 41.217224]]]]}}, {"id": "2", "type": "Feature", "properties": {"fill": "#e19f31", "value_min": -1.5, "value_max": -1.25}, "geometry": {"type": "Polygon", "coordinates": [[[-8.371894, 41.680604], [-8.383899, 41.681629], [-8.387656, 41.680451], [-8.395963, 41.676377], [-8.40083, 41.671514], [-8.401283, 41.662509], [-8.396151, 41.656211], [-8.384192, 41.650831], [-8.372173, 41.651902], [-8.360221, 41.662288], [-8.360597, 41.671297], [-8.371894, 41.680604]], [[-8.371952, 41.674581], [-8.368053, 41.671338], [-8.367798, 41.66233], [-8.372109, 41.658427], [-8.384143, 41.656004], [-8.395146, 41.662477], [-8.394531, 41.671481], [-8.383943, 41.676957], [-8.371952, 41.674581]]]}}, {"id": "1", "type": "Feature", "properties": {"fill": "#e57b10", "value_min": -1.75, "value_max": -1.5}, "geometry": {"type": "Polygon", "coordinates": [[[-8.371952, 41.674581], [-8.383943, 41.676957], [-8.394531, 41.671481], [-8.395146, 41.662477], [-8.384143, 41.656004], [-8.372109, 41.658427], [-8.367798, 41.66233], [-8.368053, 41.671338], [-8.371952, 41.674581]], [[-8.382322, 41.671416], [-8.381821, 41.662406], [-8.384088, 41.66183], [-8.384746, 41.671429], [-8.382322, 41.671416]]]}}, {"id": "0", "type": "Feature", "properties": {"fill": "#c93e18", "value_min": -2.0, "value_max": -1.75}, "geometry": {"type": "Polygon", "coordinates": [[[-8.382322, 41.671416], [-8.384746, 41.671429], [-8.384088, 41.66183], [-8.381821, 41.662406], [-8.382322, 41.671416]]]}}, {"id": "8", "type": "Feature", "properties": {"fill": "#a3a3a3", "value_min": 0.0, "value_max": -0.25}, "geometry": {"type": "MultiPolygon", "coordinates": [[[[-7.722592, 41.79317], [-7.732829, 41.797165], [-7.744887, 41.796016], [-7.750966, 41.792384], [-7.755661, 41.783428], [-7.750509, 41.774366], [-7.74538, 41.770765], [-7.73146, 41.769729], [-7.731416, 41.769745], [-7.731158, 41.76984], [-7.730807, 41.769968], [-7.730254, 41.77017], [-7.730197, 41.770191], [-7.728446, 41.770832], [-7.728368, 41.77086], [-7.728145, 41.770942], [-7.725406, 41.776252], [-7.727191, 41.779184], [-7.724177, 41.780299], [-7.725372, 41.781653], [-7.722592, 41.79317]]], [[[-8.508887, 41.671459], [-8.506073, 41.663007], [-8.498987, 41.653969], [-8.480342, 41.641392], [-8.468354, 41.638989], [-8.44434, 41.638962], [-8.437284, 41.635669], [-8.429627, 41.626624], [-8.431991, 41.608622], [-8.428461, 41.599597], [-8.408803, 41.586052], [-8.384896, 41.576812], [-8.372921, 41.574721], [-8.348934, 41.574372], [-8.312897, 41.579314], [-8.288835, 41.58565], [-8.258495, 41.598626], [-8.24055, 41.610939], [-8.179901, 41.661467], [-8.173009, 41.6701], [-8.170017, 41.679086], [-8.17156, 41.697111], [-8.176631, 41.715161], [-8.174653, 41.724154], [-8.154893, 41.736827], [-8.149852, 41.741987], [-8.14836, 41.750983], [-8.154563, 41.76199], [-8.166509, 41.768491], [-8.178514, 41.770508], [-8.190561, 41.769276], [-8.202643, 41.76518], [-8.210546, 41.760434], [-8.244197, 41.73364], [-8.263296, 41.721346], [-8.275367, 41.717016], [-8.2874, 41.716008], [-8.299403, 41.71773], [-8.335315, 41.73251], [-8.347329, 41.733576], [-8.359403, 41.728602], [-8.384956, 41.707458], [-8.407791, 41.696598], [-8.431874, 41.691195], [-8.469439, 41.689293], [-8.482012, 41.682123], [-8.484371, 41.674238], [-8.49308, 41.674886], [-8.499963, 41.671038], [-8.508887, 41.671459]], [[-8.227334, 41.71264], [-8.215273, 41.715903], [-8.20327, 41.71448], [-8.190794, 41.706255], [-8.186523, 41.697218], [-8.187859, 41.68822], [-8.191643, 41.682978], [-8.203752, 41.675359], [-8.215784, 41.673879], [-8.227766, 41.676537], [-8.233285, 41.679525], [-8.240748, 41.688582], [-8.241207, 41.697592], [-8.236009, 41.706564], [-8.227334, 41.71264]], [[-8.37164, 41.706684], [-8.359589, 41.709851], [-8.347568, 41.709944], [-8.335581, 41.706717], [-8.323622, 41.700918], [-8.307865, 41.689006], [-8.301079, 41.679957], [-8.297043, 41.670926], [-8.295808, 41.661911], [-8.300723, 41.643927], [-8.306079, 41.634952], [-8.315042, 41.625999], [-8.324474, 41.61946], [-8.336536, 41.613713], [-8.348573, 41.610292], [-8.360589, 41.608851], [-8.384571, 41.611032], [-8.396524, 41.616224], [-8.438585, 41.65369], [-8.444991, 41.662728], [-8.445014, 41.671735], [-8.436709, 41.680702], [-8.37164, 41.706684]]], [[[-8.07598, 41.705389], [-8.07416, 41.696367], [-8.061247, 41.678249], [-8.062458, 41.660244], [-8.058633, 41.651206], [-8.050654, 41.642133], [-8.036189, 41.633229], [-8.024238, 41.629575], [-8.01223, 41.629812], [-8.000154, 41.634346], [-7.991795, 41.641632], [-7.987369, 41.6506], [-7.986865, 41.659603], [-7.989921, 41.668637], [-7.997819, 41.677713], [-8.023299, 41.691737], [-8.027242, 41.69598], [-8.03007, 41.705011], [-8.03503, 41.710908], [-8.046919, 41.71974], [-8.058921, 41.721107], [-8.071032, 41.714971], [-8.07598, 41.705389]], [[-8.023835, 41.65629], [-8.029062, 41.659967], [-8.023729, 41.663297], [-8.019547, 41.659886], [-8.023835, 41.65629]]], [[[-8.696362, 41.576467], [-8.701703, 41.570277], [-8.707704, 41.570923], [-8.712485, 41.569323], [-8.716422, 41.573805], [-8.720316, 41.57356], [-8.725151, 41.577811], [-8.726633, 41.576003], [-8.734424, 41.575737], [-8.736564, 41.580228], [-8.738354, 41.579318], [-8.740778, 41.582006], [-8.74467, 41.581535], [-8.750711, 41.58623], [-8.756374, 41.582823], [-8.75635, 41.580347], [-8.762327, 41.578514], [-8.764443, 41.580303], [-8.767441, 41.580286], [-8.769874, 41.583874], [-8.768997, 41.58613], [-8.773228, 41.589482], [-8.775371, 41.593972], [-8.78556, 41.593464], [-8.797327, 41.600599], [-8.804218, 41.600109], [-8.80456, 41.604158], [-8.809434, 41.611332], [-8.828644, 41.609656], [-8.82839, 41.585633], [-8.818497, 41.554794], [-8.8221, 41.547542], [-8.821965, 41.534907], [-8.815926, 41.525624], [-8.81063, 41.5101], [-8.813279, 41.503483], [-8.812636, 41.496944], [-8.804699, 41.482068], [-8.798552, 41.474753], [-8.80154, 41.446836], [-8.806115, 41.43713], [-8.807354, 41.425915], [-8.811202, 41.416419], [-8.803833, 41.249421], [-8.722157, 41.252263], [-8.68175, 41.25829], [-8.650473, 41.26511], [-8.638527, 41.266397], [-8.626595, 41.265289], [-8.614713, 41.255792], [-8.603051, 41.210317], [-8.591254, 41.18925], [-8.581396, 41.178031], [-8.578825, 41.178941], [-8.581296, 41.191762], [-8.575958, 41.195609], [-8.576894, 41.201908], [-8.574515, 41.202593], [-8.57423, 41.20462], [-8.567971, 41.204644], [-8.565895, 41.206227], [-8.567697, 41.208246], [-8.566512, 41.209376], [-8.559636, 41.206251], [-8.554271, 41.20627], [-8.549521, 41.209214], [-8.544157, 41.209458], [-8.54238, 41.211265], [-8.532257, 41.213102], [-8.52713, 41.203215], [-8.523236, 41.200077], [-8.51163, 41.203042], [-8.510456, 41.206197], [-8.505693, 41.207113], [-8.504239, 41.213646], [-8.500076, 41.21546], [-8.50308, 41.219502], [-8.502204, 41.222656], [-8.495642, 41.222227], [-8.495947, 41.223351], [-8.490894, 41.226294], [-8.487935, 41.230354], [-8.490331, 41.232373], [-8.489156, 41.235528], [-8.486181, 41.236888], [-8.484411, 41.240495], [-8.476346, 41.237818], [-8.475756, 41.23917], [-8.470986, 41.23941], [-8.471604, 41.243459], [-8.469227, 41.245267], [-8.463258, 41.244384], [-8.459989, 41.246644], [-8.454323, 41.246886], [-8.455541, 41.251834], [-8.452276, 41.25522], [-8.449891, 41.255452], [-8.449304, 41.257479], [-8.447812, 41.257258], [-8.449028, 41.261982], [-8.439785, 41.262907], [-8.438023, 41.268989], [-8.434745, 41.269673], [-8.432691, 41.277107], [-8.427032, 41.279372], [-8.429143, 41.284319], [-8.426171, 41.287028], [-8.426488, 41.291079], [-8.425013, 41.294909], [-8.422037, 41.296942], [-8.422647, 41.299867], [-8.407744, 41.304856], [-8.406262, 41.307335], [-8.403277, 41.307342], [-8.401801, 41.311398], [-8.399712, 41.311628], [-8.400316, 41.313202], [-8.396738, 41.314336], [-8.398835, 41.316131], [-8.393775, 41.31997], [-8.393489, 41.323122], [-8.391105, 41.324253], [-8.386325, 41.323588], [-8.380382, 41.331254], [-8.375305, 41.33104], [-8.37201, 41.328346], [-8.361563, 41.329718], [-8.358276, 41.329049], [-8.357673, 41.327249], [-8.350207, 41.327264], [-8.346032, 41.328847], [-8.342462, 41.333131], [-8.333215, 41.336299], [-8.326363, 41.342163], [-8.324568, 41.341041], [-8.323376, 41.341943], [-8.320676, 41.338121], [-8.312604, 41.334983], [-8.313794, 41.333405], [-8.31139, 41.328007], [-8.307502, 41.325762], [-8.305116, 41.326891], [-8.303024, 41.325994], [-8.303615, 41.323742], [-8.301216, 41.319694], [-8.296431, 41.316774], [-8.297618, 41.313846], [-8.296116, 41.310022], [-8.281801, 41.316569], [-8.281808, 41.319721], [-8.278828, 41.321976], [-8.278238, 41.325128], [-8.273161, 41.325134], [-8.269582, 41.327152], [-8.279568, 41.339477], [-8.28641, 41.355603], [-8.28835, 41.37363], [-8.287327, 41.382631], [-8.284406, 41.391621], [-8.278524, 41.400592], [-8.269545, 41.409542], [-8.254284, 41.418452], [-8.242747, 41.422749], [-8.218777, 41.425758], [-8.194884, 41.422388], [-8.183423, 41.417971], [-8.167634, 41.40885], [-8.157559, 41.39977], [-8.15049, 41.39071], [-8.144273, 41.375417], [-8.139694, 41.377894], [-8.133418, 41.374292], [-8.119672, 41.376768], [-8.119672, 41.378569], [-8.116683, 41.380144], [-8.117578, 41.386447], [-8.113992, 41.386896], [-8.112795, 41.390723], [-8.110105, 41.390947], [-8.108011, 41.393648], [-8.103827, 41.392972], [-8.105321, 41.394998], [-8.10263, 41.396123], [-8.107412, 41.39815], [-8.108606, 41.401976], [-8.104419, 41.406252], [-8.104119, 41.408728], [-8.101727, 41.409403], [-8.101128, 41.411654], [-8.092756, 41.411201], [-8.09126, 41.414352], [-8.087037, 41.416151], [-8.170596, 41.450205], [-8.194494, 41.453936], [-8.230449, 41.450757], [-8.266493, 41.439504], [-8.314632, 41.414938], [-8.338678, 41.403605], [-8.347669, 41.401004], [-8.350718, 41.39589], [-8.355791, 41.392043], [-8.350785, 41.389183], [-8.346171, 41.373973], [-8.350355, 41.364989], [-8.363022, 41.360873], [-8.374952, 41.36357], [-8.382641, 41.374175], [-8.38103, 41.383174], [-8.375713, 41.392152], [-8.379449, 41.40118], [-8.386515, 41.405412], [-8.396316, 41.419285], [-8.398844, 41.428306], [-8.39872, 41.437313], [-8.392065, 41.473307], [-8.394022, 41.491333], [-8.397598, 41.500668], [-8.409473, 41.512384], [-8.421435, 41.514803], [-8.433432, 41.513426], [-8.445446, 41.509785], [-8.457478, 41.503936], [-8.469529, 41.495574], [-8.48155, 41.490401], [-8.493533, 41.490053], [-8.505485, 41.49363], [-8.529369, 41.504112], [-8.553295, 41.509739], [-8.565272, 41.510611], [-8.577262, 41.509574], [-8.601268, 41.503195], [-8.613259, 41.501664], [-8.625234, 41.50285], [-8.644644, 41.510395], [-8.657625, 41.519442], [-8.666212, 41.528474], [-8.696362, 41.576467]], [[-8.69719, 41.488805], [-8.692699, 41.492518], [-8.685179, 41.495505], [-8.67319, 41.497145], [-8.661218, 41.49538], [-8.649271, 41.489279], [-8.642425, 41.483366], [-8.638347, 41.474345], [-8.638678, 41.465339], [-8.643578, 41.456347], [-8.649479, 41.45052], [-8.661478, 41.445365], [-8.673454, 41.444599], [-8.685408, 41.448061], [-8.697344, 41.455705], [-8.704187, 41.465526], [-8.705571, 41.474537], [-8.702609, 41.483537], [-8.69719, 41.488805]], [[-8.445647, 41.486252], [-8.441416, 41.491573], [-8.433585, 41.495852], [-8.421597, 41.496714], [-8.409678, 41.489852], [-8.406503, 41.48239], [-8.408533, 41.473393], [-8.421887, 41.464074], [-8.433863, 41.463846], [-8.447465, 41.473587], [-8.448263, 41.482598], [-8.445647, 41.486252]], [[-8.577519, 41.470091], [-8.565503, 41.47609], [-8.553514, 41.477854], [-8.541549, 41.476139], [-8.536559, 41.47398], [-8.523851, 41.464921], [-8.519345, 41.455895], [-8.519264, 41.446887], [-8.523496, 41.437897], [-8.529896, 41.431224], [-8.541913, 41.424365], [-8.553901, 41.421451], [-8.565871, 41.420921], [-8.577825, 41.422919], [-8.585597, 41.42913], [-8.590652, 41.438156], [-8.592302, 41.447169], [-8.589761, 41.456167], [-8.584295, 41.465155], [-8.577519, 41.470091]], [[-8.685615, 41.40521], [-8.673611, 41.41314], [-8.661621, 41.417923], [-8.637676, 41.420151], [-8.601796, 41.416826], [-8.589856, 41.412665], [-8.577953, 41.403162], [-8.569871, 41.393042], [-8.560324, 41.374991], [-8.557283, 41.356964], [-8.561024, 41.338963], [-8.566476, 41.329836], [-8.578504, 41.317782], [-8.590494, 41.311106], [-8.602463, 41.307394], [-8.614411, 41.307055], [-8.626341, 41.309926], [-8.63826, 41.314882], [-8.662081, 41.329043], [-8.675503, 41.339343], [-8.692369, 41.357404], [-8.699307, 41.375438], [-8.698857, 41.384444], [-8.695473, 41.393443], [-8.685615, 41.40521]], [[-8.745694, 41.338516], [-8.721794, 41.337899], [-8.709855, 41.334903], [-8.686013, 41.322349], [-8.675195, 41.312319], [-8.669459, 41.303294], [-8.667904, 41.294282], [-8.670819, 41.285283], [-8.679362, 41.276299], [-8.686253, 41.272457], [-8.698215, 41.267428], [-8.710165, 41.265028], [-8.734042, 41.264817], [-8.747786, 41.267462], [-8.757894, 41.271479], [-8.767541, 41.276511], [-8.777651, 41.285539], [-8.78282, 41.294556], [-8.784973, 41.303568], [-8.783695, 41.312574], [-8.778931, 41.321572], [-8.768669, 41.33056], [-8.757656, 41.335801], [-8.745694, 41.338516]], [[-8.553585, 41.221833], [-8.555274, 41.219756], [-8.560206, 41.221859], [-8.555249, 41.223349], [-8.553585, 41.221833]]]]}}, {"id": "9", "type": "Feature", "properties": {"fill": "#a3a3a3", "value_min": 0.25, "value_max": -0.5}, "geometry": {"type": "MultiPolygon", "coordinates": [[[[-8.696362, 41.576467], [-8.666212, 41.528474], [-8.657625, 41.519442], [-8.644644, 41.510395], [-8.625234, 41.50285], [-8.613259, 41.501664], [-8.601268, 41.503195], [-8.577262, 41.509574], [-8.565272, 41.510611], [-8.553295, 41.509739], [-8.529369, 41.504112], [-8.505485, 41.49363], [-8.493533, 41.490053], [-8.48155, 41.490401], [-8.469529, 41.495574], [-8.457478, 41.503936], [-8.445446, 41.509785], [-8.433432, 41.513426], [-8.421435, 41.514803], [-8.409473, 41.512384], [-8.397598, 41.500668], [-8.394022, 41.491333], [-8.392065, 41.473307], [-8.39872, 41.437313], [-8.398844, 41.428306], [-8.396316, 41.419285], [-8.386515, 41.405412], [-8.379449, 41.40118], [-8.375713, 41.392152], [-8.38103, 41.383174], [-8.382641, 41.374175], [-8.374952, 41.36357], [-8.363022, 41.360873], [-8.350355, 41.364989], [-8.346171, 41.373973], [-8.350785, 41.389183], [-8.355791, 41.392043], [-8.350718, 41.39589], [-8.347669, 41.401004], [-8.338678, 41.403605], [-8.314632, 41.414938], [-8.266493, 41.439504], [-8.230449, 41.450757], [-8.194494, 41.453936], [-8.170596, 41.450205], [-8.087037, 41.416151], [-8.079893, 41.41975], [-8.077503, 41.416597], [-8.070923, 41.41862], [-8.066739, 41.416142], [-8.061953, 41.417264], [-8.059852, 41.424916], [-8.055959, 41.429415], [-8.05745, 41.432793], [-8.056549, 41.436394], [-8.069999, 41.447206], [-8.068788, 41.462286], [-8.073872, 41.46499], [-8.074468, 41.468141], [-8.073564, 41.474668], [-8.066374, 41.482318], [-8.066069, 41.48817], [-8.072054, 41.490199], [-8.07175, 41.494925], [-8.078333, 41.49898], [-8.078332, 41.500331], [-8.093, 41.504613], [-8.089398, 41.519242], [-8.090594, 41.522169], [-8.093588, 41.52307], [-8.091487, 41.531173], [-8.097775, 41.536127], [-8.097774, 41.537927], [-8.106759, 41.543557], [-8.101666, 41.542655], [-8.094175, 41.544904], [-8.087885, 41.542876], [-8.083389, 41.5449], [-8.080687, 41.551651], [-8.074097, 41.549848], [-8.073494, 41.553449], [-8.075891, 41.554575], [-8.076188, 41.557276], [-8.079783, 41.558403], [-8.081576, 41.565157], [-8.078879, 41.56493], [-8.075279, 41.568305], [-8.073182, 41.568079], [-8.069283, 41.570553], [-8.068081, 41.573478], [-8.056684, 41.579549], [-8.052181, 41.584498], [-8.052777, 41.587649], [-8.037169, 41.600242], [-8.031467, 41.602938], [-8.02367, 41.603156], [-8.019174, 41.601802], [-8.015872, 41.603824], [-8.013474, 41.603372], [-8.005971, 41.60629], [-8.003562, 41.611239], [-7.99936, 41.61281], [-7.998462, 41.612359], [-7.999669, 41.608759], [-7.996976, 41.605829], [-7.996684, 41.602003], [-7.984685, 41.603564], [-7.982292, 41.60086], [-7.975689, 41.603552], [-7.974482, 41.606701], [-7.970882, 41.607147], [-7.969091, 41.603768], [-7.965796, 41.602413], [-7.9541, 41.602846], [-7.952606, 41.600592], [-7.947808, 41.60081], [-7.945413, 41.599456], [-7.942725, 41.595625], [-7.936132, 41.594488], [-7.938214, 41.600344], [-7.937004, 41.603718], [-7.931604, 41.604384], [-7.930073, 41.614735], [-7.925255, 41.620579], [-7.920755, 41.620796], [-7.917748, 41.623041], [-7.915933, 41.627764], [-7.913229, 41.628885], [-7.912614, 41.633423], [-7.927815, 41.652633], [-7.949445, 41.686288], [-7.958662, 41.704386], [-7.961178, 41.713416], [-7.960911, 41.72242], [-7.952853, 41.731354], [-7.938416, 41.738363], [-7.926212, 41.74909], [-7.922543, 41.758094], [-7.923567, 41.776118], [-7.921362, 41.794111], [-7.925327, 41.802103], [-7.937244, 41.809378], [-7.949262, 41.810643], [-7.985412, 41.808535], [-7.997409, 41.811209], [-8.009342, 41.818064], [-8.021262, 41.831157], [-8.030816, 41.82959], [-8.037134, 41.831171], [-8.041351, 41.828023], [-8.041054, 41.825097], [-8.045268, 41.824425], [-8.046775, 41.821951], [-8.056712, 41.81588], [-8.06664, 41.817012], [-8.072961, 41.813414], [-8.078678, 41.813417], [-8.082892, 41.810493], [-8.091013, 41.812521], [-8.093421, 41.811397], [-8.093723, 41.808471], [-8.101845, 41.809824], [-8.104853, 41.81185], [-8.115984, 41.812302], [-8.123807, 41.808702], [-8.138247, 41.808477], [-8.139751, 41.813203], [-8.14276, 41.812978], [-8.144866, 41.815228], [-8.149078, 41.814777], [-8.153291, 41.817703], [-8.158106, 41.818377], [-8.165326, 41.81815], [-8.173744, 41.808019], [-8.177655, 41.808242], [-8.183676, 41.812741], [-8.190291, 41.809587], [-8.197158, 41.814129], [-8.201063, 41.808724], [-8.204973, 41.807372], [-8.205872, 41.804445], [-8.213692, 41.803765], [-8.217598, 41.80016], [-8.217589, 41.793634], [-8.224207, 41.794303], [-8.229917, 41.791598], [-8.240744, 41.791588], [-8.24074, 41.789338], [-8.244347, 41.787984], [-8.245546, 41.785731], [-8.251257, 41.784375], [-8.251845, 41.777172], [-8.257551, 41.773564], [-8.261762, 41.774235], [-8.271366, 41.766346], [-8.280681, 41.764083], [-8.284038, 41.761109], [-8.284931, 41.757507], [-8.305674, 41.758152], [-8.311096, 41.762195], [-8.318308, 41.761283], [-8.325233, 41.765098], [-8.328234, 41.763292], [-8.336653, 41.763728], [-8.341756, 41.761468], [-8.344765, 41.762363], [-8.349267, 41.760103], [-8.352557, 41.755145], [-8.34982, 41.745922], [-8.349814, 41.744122], [-8.352516, 41.743441], [-8.352203, 41.739616], [-8.357897, 41.735103], [-8.362407, 41.735994], [-8.368703, 41.73193], [-8.374122, 41.734845], [-8.383396, 41.730999], [-8.383105, 41.725462], [-8.386385, 41.716473], [-8.395046, 41.707512], [-8.407747, 41.701381], [-8.419793, 41.698382], [-8.431811, 41.698413], [-8.448191, 41.703821], [-8.453868, 41.697961], [-8.453255, 41.695487], [-8.461659, 41.694563], [-8.469439, 41.689293], [-8.431874, 41.691195], [-8.407791, 41.696598], [-8.384956, 41.707458], [-8.359403, 41.728602], [-8.347329, 41.733576], [-8.335315, 41.73251], [-8.299403, 41.71773], [-8.2874, 41.716008], [-8.275367, 41.717016], [-8.263296, 41.721346], [-8.244197, 41.73364], [-8.210546, 41.760434], [-8.202643, 41.76518], [-8.190561, 41.769276], [-8.178514, 41.770508], [-8.166509, 41.768491], [-8.154563, 41.76199], [-8.14836, 41.750983], [-8.149852, 41.741987], [-8.154893, 41.736827], [-8.174653, 41.724154], [-8.176631, 41.715161], [-8.17156, 41.697111], [-8.170017, 41.679086], [-8.173009, 41.6701], [-8.179901, 41.661467], [-8.24055, 41.610939], [-8.258495, 41.598626], [-8.288835, 41.58565], [-8.312897, 41.579314], [-8.348934, 41.574372], [-8.372921, 41.574721], [-8.384896, 41.576812], [-8.408803, 41.586052], [-8.428461, 41.599597], [-8.431991, 41.608622], [-8.429627, 41.626624], [-8.437284, 41.635669], [-8.44434, 41.638962], [-8.468354, 41.638989], [-8.480342, 41.641392], [-8.498987, 41.653969], [-8.506073, 41.663007], [-8.508887, 41.671459], [-8.51018, 41.672806], [-8.511967, 41.670324], [-8.509856, 41.668755], [-8.51702, 41.661979], [-8.522103, 41.658811], [-8.525706, 41.659023], [-8.527769, 41.652714], [-8.534066, 41.652017], [-8.537951, 41.649302], [-8.537634, 41.646602], [-8.543876, 41.637352], [-8.543855, 41.633976], [-8.536342, 41.631977], [-8.535128, 41.62973], [-8.543431, 41.61462], [-8.554533, 41.615255], [-8.557244, 41.617046], [-8.562639, 41.61635], [-8.568056, 41.619031], [-8.570735, 41.616095], [-8.577321, 41.614269], [-8.581231, 41.615829], [-8.585766, 41.620988], [-8.591462, 41.620515], [-8.596534, 41.616668], [-8.601628, 41.615972], [-8.603996, 41.611686], [-8.613256, 41.606696], [-8.619881, 41.610269], [-8.621338, 41.604636], [-8.628833, 41.604378], [-8.636302, 41.600744], [-8.639873, 41.597352], [-8.640152, 41.59465], [-8.645536, 41.593051], [-8.646744, 41.594171], [-8.649125, 41.591909], [-8.656622, 41.5921], [-8.660788, 41.588255], [-8.663794, 41.589141], [-8.665265, 41.585758], [-8.66948, 41.587989], [-8.684455, 41.586117], [-8.685608, 41.58071], [-8.696362, 41.576467]], [[-7.998479, 41.742427], [-7.996475, 41.74075], [-7.994223, 41.731723], [-7.998692, 41.728705], [-8.010765, 41.725487], [-8.022515, 41.731968], [-8.020592, 41.740958], [-8.010445, 41.746374], [-7.998479, 41.742427]], [[-8.130947, 41.729055], [-8.118431, 41.723737], [-8.115066, 41.714704], [-8.119154, 41.712223], [-8.123028, 41.705758], [-8.131359, 41.698467], [-8.143425, 41.694857], [-8.155333, 41.703233], [-8.156928, 41.706011], [-8.156404, 41.715015], [-8.143006, 41.726395], [-8.130947, 41.729055]], [[-8.07598, 41.705389], [-8.071032, 41.714971], [-8.058921, 41.721107], [-8.046919, 41.71974], [-8.03503, 41.710908], [-8.03007, 41.705011], [-8.027242, 41.69598], [-8.023299, 41.691737], [-7.997819, 41.677713], [-7.989921, 41.668637], [-7.986865, 41.659603], [-7.987369, 41.6506], [-7.991795, 41.641632], [-8.000154, 41.634346], [-8.01223, 41.629812], [-8.024238, 41.629575], [-8.036189, 41.633229], [-8.050654, 41.642133], [-8.058633, 41.651206], [-8.062458, 41.660244], [-8.061247, 41.678249], [-8.07416, 41.696367], [-8.07598, 41.705389]], [[-8.083662, 41.624387], [-8.076117, 41.61532], [-8.084604, 41.605562], [-8.096584, 41.607042], [-8.102083, 41.615525], [-8.09636, 41.623064], [-8.083662, 41.624387]], [[-8.528593, 41.610982], [-8.5166, 41.609907], [-8.504623, 41.606584], [-8.492674, 41.599983], [-8.482378, 41.590845], [-8.476608, 41.581812], [-8.4749, 41.572797], [-8.477638, 41.563802], [-8.485946, 41.554832], [-8.505082, 41.546607], [-8.517089, 41.544308], [-8.529077, 41.544447], [-8.541047, 41.547237], [-8.552995, 41.553367], [-8.563726, 41.564161], [-8.568024, 41.573184], [-8.568859, 41.582195], [-8.566028, 41.591191], [-8.559017, 41.600172], [-8.552641, 41.604655], [-8.541163, 41.609109], [-8.528593, 41.610982]], [[-8.454187, 41.545678], [-8.457142, 41.544176], [-8.45821, 41.545697], [-8.457122, 41.54662], [-8.454187, 41.545678]], [[-8.337381, 41.531149], [-8.325399, 41.530582], [-8.313442, 41.527753], [-8.294301, 41.517786], [-8.285956, 41.508727], [-8.281406, 41.499692], [-8.279843, 41.490674], [-8.280457, 41.481671], [-8.2839, 41.472685], [-8.291274, 41.463723], [-8.302235, 41.455235], [-8.31427, 41.449333], [-8.326272, 41.44637], [-8.338252, 41.445596], [-8.350208, 41.447102], [-8.362133, 41.451813], [-8.366134, 41.455153], [-8.373989, 41.463937], [-8.378124, 41.473233], [-8.380926, 41.491263], [-8.377339, 41.509258], [-8.370697, 41.51823], [-8.361413, 41.525168], [-8.349384, 41.529472], [-8.337381, 41.531149]]], [[[-7.727882, 41.812981], [-7.744582, 41.811677], [-7.756687, 41.80826], [-7.768353, 41.801579], [-7.775008, 41.792643], [-7.776505, 41.783652], [-7.774646, 41.774626], [-7.76969, 41.765566], [-7.75774, 41.753719], [-7.74902, 41.749034], [-7.746897, 41.752242], [-7.747786, 41.754496], [-7.743866, 41.756509], [-7.740214, 41.763924], [-7.73146, 41.769729], [-7.74538, 41.770765], [-7.750509, 41.774366], [-7.755661, 41.783428], [-7.750966, 41.792384], [-7.744887, 41.796016], [-7.732829, 41.797165], [-7.722592, 41.79317], [-7.728879, 41.797871], [-7.72705, 41.801691], [-7.727882, 41.812981]]], [[[-7.728145, 41.770942], [-7.728145, 41.770942], [-7.728368, 41.77086], [-7.728145, 41.770942]]], [[[-7.728446, 41.770832], [-7.728446, 41.770832], [-7.730197, 41.770191], [-7.728446, 41.770832]]], [[[-7.730254, 41.77017], [-7.730254, 41.77017], [-7.730807, 41.769968], [-7.730254, 41.77017]]], [[[-7.731158, 41.76984], [-7.731158, 41.76984], [-7.731416, 41.769745], [-7.731158, 41.76984]]], [[[-8.745694, 41.338516], [-8.757656, 41.335801], [-8.768669, 41.33056], [-8.778931, 41.321572], [-8.783695, 41.312574], [-8.784973, 41.303568], [-8.78282, 41.294556], [-8.777651, 41.285539], [-8.767541, 41.276511], [-8.757894, 41.271479], [-8.747786, 41.267462], [-8.734042, 41.264817], [-8.710165, 41.265028], [-8.698215, 41.267428], [-8.686253, 41.272457], [-8.679362, 41.276299], [-8.670819, 41.285283], [-8.667904, 41.294282], [-8.669459, 41.303294], [-8.675195, 41.312319], [-8.686013, 41.322349], [-8.709855, 41.334903], [-8.721794, 41.337899], [-8.745694, 41.338516]], [[-8.709952, 41.313014], [-8.696027, 41.303368], [-8.694154, 41.294355], [-8.699374, 41.285361], [-8.710096, 41.280524], [-8.722039, 41.280027], [-8.735733, 41.28545], [-8.741261, 41.294471], [-8.739715, 41.303475], [-8.733862, 41.309299], [-8.727107, 41.312453], [-8.721896, 41.313855], [-8.709952, 41.313014]]], [[[-8.553585, 41.221833], [-8.555249, 41.223349], [-8.560206, 41.221859], [-8.555274, 41.219756], [-8.553585, 41.221833]]]]}}, {"id": "10", "type": "Feature", "properties": {"fill": "#a3a3a3", "value_min": 0.5, "value_max": -0.75}, "geometry": {"type": "MultiPolygon", "coordinates": [[[[-8.021262, 41.831157], [-8.009342, 41.818064], [-7.997409, 41.811209], [-7.985412, 41.808535], [-7.949262, 41.810643], [-7.937244, 41.809378], [-7.925327, 41.802103], [-7.921362, 41.794111], [-7.923567, 41.776118], [-7.922543, 41.758094], [-7.926212, 41.74909], [-7.938416, 41.738363], [-7.952853, 41.731354], [-7.960911, 41.72242], [-7.961178, 41.713416], [-7.958662, 41.704386], [-7.949445, 41.686288], [-7.927815, 41.652633], [-7.912614, 41.633423], [-7.906014, 41.633147], [-7.907486, 41.641253], [-7.897869, 41.645511], [-7.89696, 41.647985], [-7.892759, 41.647976], [-7.892145, 41.651576], [-7.902319, 41.659925], [-7.899913, 41.66127], [-7.900198, 41.665547], [-7.898396, 41.665769], [-7.896885, 41.668692], [-7.882465, 41.671588], [-7.877044, 41.676077], [-7.876729, 41.67981], [-7.884447, 41.685675], [-7.890653, 41.694742], [-7.8913, 41.703756], [-7.88785, 41.712729], [-7.888868, 41.721746], [-7.902501, 41.728897], [-7.907526, 41.739939], [-7.90637, 41.766948], [-7.901661, 41.778198], [-7.896616, 41.784869], [-7.889416, 41.790477], [-7.865271, 41.794714], [-7.836416, 41.802288], [-7.828966, 41.805568], [-7.816927, 41.80564], [-7.805145, 41.791872], [-7.787799, 41.747745], [-7.782057, 41.723545], [-7.776204, 41.724652], [-7.773786, 41.727346], [-7.7678, 41.723276], [-7.763888, 41.724389], [-7.761765, 41.727758], [-7.762933, 41.733839], [-7.759307, 41.737203], [-7.759597, 41.739005], [-7.75689, 41.739446], [-7.758687, 41.740577], [-7.757758, 41.745301], [-7.74902, 41.749034], [-7.75774, 41.753719], [-7.76969, 41.765566], [-7.774646, 41.774626], [-7.776505, 41.783652], [-7.775008, 41.792643], [-7.768353, 41.801579], [-7.756687, 41.80826], [-7.744582, 41.811677], [-7.727882, 41.812981], [-7.732041, 41.821514], [-7.742551, 41.825054], [-7.78053, 41.820584], [-7.804595, 41.821416], [-7.816458, 41.831087], [-7.826531, 41.847221], [-7.832886, 41.865299], [-7.83356, 41.874263], [-7.838021, 41.872924], [-7.842528, 41.875187], [-7.841663, 41.866632], [-7.848912, 41.861698], [-7.858542, 41.862622], [-7.859456, 41.860148], [-7.864877, 41.859711], [-7.87033, 41.851395], [-7.873043, 41.850501], [-7.873367, 41.844875], [-7.879056, 41.85254], [-7.886268, 41.855932], [-7.888076, 41.855486], [-7.891675, 41.859094], [-7.900698, 41.861588], [-7.904318, 41.859795], [-7.907309, 41.865203], [-7.906095, 41.868126], [-7.910299, 41.871285], [-7.909985, 41.875111], [-7.915391, 41.879397], [-7.921118, 41.877833], [-7.928044, 41.87807], [-7.935283, 41.874707], [-7.937389, 41.87516], [-7.941618, 41.870891], [-7.951254, 41.871132], [-7.956367, 41.87339], [-7.956362, 41.875191], [-7.960878, 41.875648], [-7.962086, 41.874074], [-7.973828, 41.875216], [-7.987996, 41.869157], [-7.990123, 41.860157], [-7.995547, 41.858138], [-7.994047, 41.855211], [-7.996162, 41.851837], [-8.003089, 41.850494], [-8.005804, 41.847346], [-8.007928, 41.838796], [-8.012753, 41.833624], [-8.013062, 41.829348], [-8.017873, 41.831379], [-8.021262, 41.831157]]], [[[-8.448191, 41.703821], [-8.431811, 41.698413], [-8.419793, 41.698382], [-8.407747, 41.701381], [-8.395046, 41.707512], [-8.386385, 41.716473], [-8.383105, 41.725462], [-8.383396, 41.730999], [-8.385523, 41.730319], [-8.387332, 41.73189], [-8.393033, 41.729852], [-8.396942, 41.730518], [-8.398828, 41.728263], [-8.39649, 41.725533], [-8.396991, 41.716529], [-8.407699, 41.706662], [-8.419739, 41.70441], [-8.431739, 41.70656], [-8.440385, 41.714429], [-8.4446, 41.70654], [-8.448191, 41.703821]]], [[[-7.998479, 41.742427], [-8.010445, 41.746374], [-8.020592, 41.740958], [-8.022515, 41.731968], [-8.010765, 41.725487], [-7.998692, 41.728705], [-7.994223, 41.731723], [-7.996475, 41.74075], [-7.998479, 41.742427]]], [[[-8.130947, 41.729055], [-8.143006, 41.726395], [-8.156404, 41.715015], [-8.156928, 41.706011], [-8.155333, 41.703233], [-8.143425, 41.694857], [-8.131359, 41.698467], [-8.123028, 41.705758], [-8.119154, 41.712223], [-8.115066, 41.714704], [-8.118431, 41.723737], [-8.130947, 41.729055]], [[-8.130465, 41.714821], [-8.131197, 41.710504], [-8.134493, 41.714852], [-8.130465, 41.714821]]], [[[-8.083662, 41.624387], [-8.09636, 41.623064], [-8.102083, 41.615525], [-8.096584, 41.607042], [-8.084604, 41.605562], [-8.076117, 41.61532], [-8.083662, 41.624387]]], [[[-8.528593, 41.610982], [-8.541163, 41.609109], [-8.552641, 41.604655], [-8.559017, 41.600172], [-8.566028, 41.591191], [-8.568859, 41.582195], [-8.568024, 41.573184], [-8.563726, 41.564161], [-8.552995, 41.553367], [-8.541047, 41.547237], [-8.529077, 41.544447], [-8.517089, 41.544308], [-8.505082, 41.546607], [-8.485946, 41.554832], [-8.477638, 41.563802], [-8.4749, 41.572797], [-8.476608, 41.581812], [-8.482378, 41.590845], [-8.492674, 41.599983], [-8.504623, 41.606584], [-8.5166, 41.609907], [-8.528593, 41.610982]], [[-8.516743, 41.590678], [-8.504782, 41.585797], [-8.500976, 41.58192], [-8.499358, 41.572906], [-8.504938, 41.565374], [-8.516967, 41.560679], [-8.531816, 41.564035], [-8.539151, 41.573072], [-8.537546, 41.582073], [-8.528754, 41.58894], [-8.516743, 41.590678]]], [[[-8.454187, 41.545678], [-8.457122, 41.54662], [-8.45821, 41.545697], [-8.457142, 41.544176], [-8.454187, 41.545678]]], [[[-8.337381, 41.531149], [-8.349384, 41.529472], [-8.361413, 41.525168], [-8.370697, 41.51823], [-8.377339, 41.509258], [-8.380926, 41.491263], [-8.378124, 41.473233], [-8.373989, 41.463937], [-8.366134, 41.455153], [-8.362133, 41.451813], [-8.350208, 41.447102], [-8.338252, 41.445596], [-8.326272, 41.44637], [-8.31427, 41.449333], [-8.302235, 41.455235], [-8.291274, 41.463723], [-8.2839, 41.472685], [-8.280457, 41.481671], [-8.279843, 41.490674], [-8.281406, 41.499692], [-8.285956, 41.508727], [-8.294301, 41.517786], [-8.313442, 41.527753], [-8.325399, 41.530582], [-8.337381, 41.531149]], [[-8.337571, 41.512465], [-8.325615, 41.509778], [-8.313718, 41.501704], [-8.307485, 41.490844], [-8.307581, 41.481837], [-8.312548, 41.47286], [-8.32609, 41.464023], [-8.338088, 41.461669], [-8.350045, 41.463401], [-8.361954, 41.470124], [-8.369036, 41.482191], [-8.369393, 41.4912], [-8.365561, 41.500187], [-8.361615, 41.504635], [-8.349569, 41.51105], [-8.337571, 41.512465]]], [[[-8.709952, 41.313014], [-8.721896, 41.313855], [-8.727107, 41.312453], [-8.733862, 41.309299], [-8.739715, 41.303475], [-8.741261, 41.294471], [-8.735733, 41.28545], [-8.722039, 41.280027], [-8.710096, 41.280524], [-8.699374, 41.285361], [-8.694154, 41.294355], [-8.696027, 41.303368], [-8.709952, 41.313014]]]]}}, {"id": "12", "type": "Feature", "properties": {"fill": "#90a4bc", "value_min": 1.0, "value_max": -1.25}, "geometry": {"type": "MultiPolygon", "coordinates": [[[[-7.756589, 41.894642], [-7.767097, 41.893109], [-7.774387, 41.890098], [-7.77444, 41.890075], [-7.774689, 41.889969], [-7.774964, 41.889852], [-7.77499, 41.889841], [-7.779227, 41.886264], [-7.781749, 41.886047], [-7.791539, 41.875392], [-7.794752, 41.864906], [-7.793186, 41.855882], [-7.787242, 41.846813], [-7.78013, 41.841633], [-7.768172, 41.837096], [-7.756147, 41.836136], [-7.74669, 41.837363], [-7.746349, 41.84407], [-7.750541, 41.847685], [-7.750532, 41.849261], [-7.743309, 41.849012], [-7.746901, 41.8524], [-7.746881, 41.855776], [-7.73843, 41.859348], [-7.734159, 41.868337], [-7.730228, 41.871024], [-7.729293, 41.875972], [-7.722351, 41.878424], [-7.720527, 41.881094], [-7.720545, 41.881118], [-7.720826, 41.881494], [-7.72105, 41.881795], [-7.721125, 41.881894], [-7.721219, 41.882021], [-7.721424, 41.88222], [-7.721458, 41.882246], [-7.725035, 41.882709], [-7.72532, 41.885155], [-7.725362, 41.885186], [-7.725662, 41.885412], [-7.729866, 41.888578], [-7.737044, 41.888828], [-7.739741, 41.891088], [-7.74246, 41.889747], [-7.742785, 41.885922], [-7.748203, 41.88639], [-7.750001, 41.887971], [-7.756022, 41.888441], [-7.758719, 41.890926], [-7.756589, 41.894642]], [[-7.749797, 41.864425], [-7.750869, 41.85543], [-7.75581, 41.853517], [-7.762698, 41.855558], [-7.763692, 41.864575], [-7.755541, 41.867396], [-7.749797, 41.864425]]], [[[-7.877521, 41.782443], [-7.888481, 41.775783], [-7.895012, 41.76684], [-7.896736, 41.757849], [-7.89443, 41.74882], [-7.890222, 41.743699], [-7.878344, 41.735177], [-7.854411, 41.728655], [-7.842364, 41.729951], [-7.830273, 41.733656], [-7.823264, 41.739107], [-7.817995, 41.747497], [-7.816222, 41.757048], [-7.818207, 41.766075], [-7.82383, 41.77514], [-7.829438, 41.779647], [-7.841385, 41.7844], [-7.853394, 41.785796], [-7.877521, 41.782443]], [[-7.853533, 41.777997], [-7.841589, 41.77307], [-7.834394, 41.766241], [-7.832504, 41.757215], [-7.836668, 41.74825], [-7.842108, 41.7442], [-7.85421, 41.739952], [-7.866234, 41.740033], [-7.878188, 41.744154], [-7.883872, 41.748718], [-7.88801, 41.757765], [-7.885913, 41.766752], [-7.877662, 41.774348], [-7.874175, 41.775644], [-7.865559, 41.778351], [-7.853533, 41.777997]]], [[[-8.420076, 41.722134], [-8.423595, 41.716666], [-8.41965, 41.714307], [-8.412159, 41.716608], [-8.419742, 41.722652], [-8.420076, 41.722134]]], [[[-8.349693, 41.498664], [-8.357223, 41.491133], [-8.356803, 41.482123], [-8.349924, 41.475513], [-8.337967, 41.473579], [-8.324518, 41.481938], [-8.324111, 41.490943], [-8.337694, 41.500383], [-8.349693, 41.498664]]]]}}, {"id": "11", "type": "Feature", "properties": {"fill": "#a3a3a3", "value_min": 0.75, "value_max": -1.0}, "geometry": {"type": "MultiPolygon", "coordinates": [[[[-7.83356, 41.874263], [-7.832886, 41.865299], [-7.826531, 41.847221], [-7.816458, 41.831087], [-7.804595, 41.821416], [-7.78053, 41.820584], [-7.742551, 41.825054], [-7.742839, 41.827178], [-7.738918, 41.82874], [-7.74669, 41.837363], [-7.756147, 41.836136], [-7.768172, 41.837096], [-7.78013, 41.841633], [-7.787242, 41.846813], [-7.793186, 41.855882], [-7.794752, 41.864906], [-7.791539, 41.875392], [-7.781749, 41.886047], [-7.787377, 41.882912], [-7.794007, 41.882257], [-7.796739, 41.878214], [-7.794349, 41.87438], [-7.797064, 41.873488], [-7.803381, 41.874857], [-7.804914, 41.869459], [-7.813032, 41.871958], [-7.814229, 41.873537], [-7.823863, 41.874013], [-7.825059, 41.875817], [-7.830479, 41.875831], [-7.830789, 41.874031], [-7.83356, 41.874263]]], [[[-7.774387, 41.890098], [-7.767097, 41.893109], [-7.756589, 41.894642], [-7.758376, 41.898127], [-7.764097, 41.898595], [-7.774387, 41.890098]]], [[[-7.729866, 41.888578], [-7.725662, 41.885412], [-7.726208, 41.887665], [-7.729866, 41.888578]]], [[[-7.725362, 41.885186], [-7.725362, 41.885186], [-7.72532, 41.885155], [-7.725362, 41.885186]]], [[[-7.721458, 41.882246], [-7.721458, 41.882246], [-7.721424, 41.88222], [-7.721458, 41.882246]]], [[[-7.721219, 41.882021], [-7.721219, 41.882021], [-7.721125, 41.881894], [-7.721219, 41.882021]]], [[[-7.72105, 41.881795], [-7.72105, 41.881795], [-7.720826, 41.881494], [-7.72105, 41.881795]]], [[[-7.720545, 41.881118], [-7.720545, 41.881118], [-7.720527, 41.881094], [-7.720545, 41.881118]]], [[[-7.77499, 41.889841], [-7.77499, 41.889841], [-7.774964, 41.889852], [-7.77499, 41.889841]]], [[[-7.774689, 41.889969], [-7.774689, 41.889969], [-7.77444, 41.890075], [-7.774689, 41.889969]]], [[[-7.782057, 41.723545], [-7.787799, 41.747745], [-7.805145, 41.791872], [-7.816927, 41.80564], [-7.828966, 41.805568], [-7.836416, 41.802288], [-7.865271, 41.794714], [-7.889416, 41.790477], [-7.896616, 41.784869], [-7.901661, 41.778198], [-7.90637, 41.766948], [-7.907526, 41.739939], [-7.902501, 41.728897], [-7.888868, 41.721746], [-7.88785, 41.712729], [-7.8913, 41.703756], [-7.890653, 41.694742], [-7.884447, 41.685675], [-7.876729, 41.67981], [-7.873401, 41.686198], [-7.868896, 41.686413], [-7.868008, 41.68326], [-7.864403, 41.683701], [-7.864096, 41.685276], [-7.858987, 41.68639], [-7.857773, 41.689538], [-7.854776, 41.68818], [-7.847538, 41.695365], [-7.837309, 41.699391], [-7.835792, 41.702763], [-7.839682, 41.705924], [-7.838465, 41.709522], [-7.832453, 41.710407], [-7.825252, 41.708813], [-7.818621, 41.713522], [-7.815291, 41.718689], [-7.808986, 41.717996], [-7.808396, 41.715744], [-7.804499, 41.714158], [-7.79939, 41.714593], [-7.79788, 41.716164], [-7.796383, 41.71526], [-7.790966, 41.717044], [-7.789449, 41.719966], [-7.78464, 41.720402], [-7.782057, 41.723545]], [[-7.877521, 41.782443], [-7.853394, 41.785796], [-7.841385, 41.7844], [-7.829438, 41.779647], [-7.82383, 41.77514], [-7.818207, 41.766075], [-7.816222, 41.757048], [-7.817995, 41.747497], [-7.823264, 41.739107], [-7.830273, 41.733656], [-7.842364, 41.729951], [-7.854411, 41.728655], [-7.878344, 41.735177], [-7.890222, 41.743699], [-7.89443, 41.74882], [-7.896736, 41.757849], [-7.895012, 41.76684], [-7.888481, 41.775783], [-7.877521, 41.782443]]], [[[-8.440385, 41.714429], [-8.431739, 41.70656], [-8.419739, 41.70441], [-8.407699, 41.706662], [-8.396991, 41.716529], [-8.39649, 41.725533], [-8.398828, 41.728263], [-8.402934, 41.726452], [-8.404721, 41.722847], [-8.417349, 41.725067], [-8.419742, 41.722652], [-8.412159, 41.716608], [-8.41965, 41.714307], [-8.423595, 41.716666], [-8.420076, 41.722134], [-8.422737, 41.720552], [-8.429643, 41.719859], [-8.430533, 41.717381], [-8.435927, 41.714441], [-8.440385, 41.714429]]], [[[-8.130465, 41.714821], [-8.134493, 41.714852], [-8.131197, 41.710504], [-8.130465, 41.714821]]], [[[-8.516743, 41.590678], [-8.528754, 41.58894], [-8.537546, 41.582073], [-8.539151, 41.573072], [-8.531816, 41.564035], [-8.516967, 41.560679], [-8.504938, 41.565374], [-8.499358, 41.572906], [-8.500976, 41.58192], [-8.504782, 41.585797], [-8.516743, 41.590678]]], [[[-8.337571, 41.512465], [-8.349569, 41.51105], [-8.361615, 41.504635], [-8.365561, 41.500187], [-8.369393, 41.4912], [-8.369036, 41.482191], [-8.361954, 41.470124], [-8.350045, 41.463401], [-8.338088, 41.461669], [-8.32609, 41.464023], [-8.312548, 41.47286], [-8.307581, 41.481837], [-8.307485, 41.490844], [-8.313718, 41.501704], [-8.325615, 41.509778], [-8.337571, 41.512465]], [[-8.349693, 41.498664], [-8.337694, 41.500383], [-8.324111, 41.490943], [-8.324518, 41.481938], [-8.337967, 41.473579], [-8.349924, 41.475513], [-8.356803, 41.482123], [-8.357223, 41.491133], [-8.349693, 41.498664]]]]}}, {"id": "14", "type": "Feature", "properties": {"fill": "#5093f6", "value_min": 1.5, "value_max": -1.75}, "geometry": {"type": "Polygon", "coordinates": [[[-7.880993, 41.757697], [-7.872656, 41.748609], [-7.866133, 41.745779], [-7.851267, 41.748397], [-7.843854, 41.757329], [-7.846779, 41.766366], [-7.853662, 41.770775], [-7.865666, 41.772313], [-7.877869, 41.766673], [-7.880993, 41.757697]], [[-7.865564, 41.766553], [-7.853351, 41.757425], [-7.866012, 41.752673], [-7.872173, 41.757611], [-7.865564, 41.766553]]]}}, {"id": "15", "type": "Feature", "properties": {"fill": "#3171ee", "value_min": 1.75, "value_max": -2.0}, "geometry": {"type": "Polygon", "coordinates": [[[-7.865564, 41.766553], [-7.872173, 41.757611], [-7.866012, 41.752673], [-7.853351, 41.757425], [-7.865564, 41.766553]]]}}, {"id": "13", "type": "Feature", "properties": {"fill": "#71a5e5", "value_min": 1.25, "value_max": -1.5}, "geometry": {"type": "MultiPolygon", "coordinates": [[[[-7.749797, 41.864425], [-7.755541, 41.867396], [-7.763692, 41.864575], [-7.762698, 41.855558], [-7.75581, 41.853517], [-7.750869, 41.85543], [-7.749797, 41.864425]]], [[[-7.853533, 41.777997], [-7.865559, 41.778351], [-7.874175, 41.775644], [-7.877662, 41.774348], [-7.885913, 41.766752], [-7.88801, 41.757765], [-7.883872, 41.748718], [-7.878188, 41.744154], [-7.866234, 41.740033], [-7.85421, 41.739952], [-7.842108, 41.7442], [-7.836668, 41.74825], [-7.832504, 41.757215], [-7.834394, 41.766241], [-7.841589, 41.77307], [-7.853533, 41.777997]], [[-7.880993, 41.757697], [-7.877869, 41.766673], [-7.865666, 41.772313], [-7.853662, 41.770775], [-7.846779, 41.766366], [-7.843854, 41.757329], [-7.851267, 41.748397], [-7.866133, 41.745779], [-7.872656, 41.748609], [-7.880993, 41.757697]]]]}}]}