{"type": "FeatureCollection", "features": [{"id": "0", "type": "Feature", "properties": {"fill": "#c93e18", "value_min": -2.0, "value_max": -1.75}, "geometry": {"type": "Polygon", "coordinates": [[[-8.374804, 41.379016], [-8.377477, 41.374147], [-8.372374, 41.365112], [-8.363012, 41.361904], [-8.350924, 41.364993], [-8.346857, 41.373977], [-8.350864, 41.381209], [-8.353858, 41.383024], [-8.362786, 41.385051], [-8.369595, 41.383112], [-8.374804, 41.379016]]]}}, {"id": "6", "type": "Feature", "properties": {"fill": "#a3a3a3", "value_min": -0.5, "value_max": -0.25}, "geometry": {"type": "MultiPolygon", "coordinates": [[[[-8.330213, 41.764189], [-8.330341, 41.763971], [-8.330345, 41.763964], [-8.3343, 41.752211], [-8.336304, 41.734209], [-8.340767, 41.725227], [-8.35335, 41.716292], [-8.390544, 41.698481], [-8.442398, 41.68073], [-8.46355, 41.671824], [-8.473983, 41.662865], [-8.47793, 41.653875], [-8.478014, 41.644869], [-8.471325, 41.626824], [-8.462588, 41.617776], [-8.444579, 41.611188], [-8.408647, 41.603156], [-8.373844, 41.590305], [-8.358155, 41.581211], [-8.349225, 41.572154], [-8.33101, 41.53602], [-8.313609, 41.511951], [-8.307484, 41.499852], [-8.302831, 41.481809], [-8.30377, 41.472807], [-8.308147, 41.463826], [-8.320143, 41.45489], [-8.338206, 41.450065], [-8.374146, 41.447674], [-8.434119, 41.434387], [-8.458082, 41.431445], [-8.47005, 41.431521], [-8.481997, 41.434304], [-8.486865, 41.43774], [-8.493886, 41.444582], [-8.507251, 41.464851], [-8.516223, 41.473897], [-8.52952, 41.483284], [-8.541455, 41.489376], [-8.553411, 41.492804], [-8.565381, 41.494315], [-8.577372, 41.492643], [-8.589382, 41.487921], [-8.59561, 41.483211], [-8.603201, 41.47423], [-8.610411, 41.456239], [-8.610956, 41.447234], [-8.608943, 41.438219], [-8.603088, 41.429192], [-8.589824, 41.417866], [-8.544499, 41.392944], [-8.535325, 41.3839], [-8.530129, 41.374871], [-8.516705, 41.338785], [-8.506566, 41.320727], [-8.491788, 41.302647], [-8.44854, 41.261983], [-8.439785, 41.262907], [-8.438023, 41.268989], [-8.434745, 41.269673], [-8.432691, 41.277107], [-8.427032, 41.279372], [-8.429143, 41.284319], [-8.426171, 41.287028], [-8.425606, 41.294007], [-8.422037, 41.296942], [-8.42174, 41.30077], [-8.443793, 41.320441], [-8.455231, 41.338511], [-8.459755, 41.356547], [-8.457895, 41.374554], [-8.4545, 41.383545], [-8.439694, 41.401489], [-8.42687, 41.410434], [-8.410325, 41.418434], [-8.38632, 41.426173], [-8.362352, 41.429528], [-8.338416, 41.429406], [-8.314511, 41.4264], [-8.302581, 41.422933], [-8.294842, 41.418708], [-8.28651, 41.409649], [-8.282829, 41.400619], [-8.273102, 41.346512], [-8.271922, 41.326711], [-8.269582, 41.326939], [-8.265709, 41.331221], [-8.269004, 41.336169], [-8.263339, 41.340902], [-8.262751, 41.345405], [-8.256483, 41.347663], [-8.255889, 41.349689], [-8.249622, 41.353072], [-8.251123, 41.356897], [-8.248141, 41.360052], [-8.248448, 41.364328], [-8.244772, 41.366133], [-8.249221, 41.373382], [-8.250748, 41.382399], [-8.247934, 41.391388], [-8.238808, 41.400336], [-8.230997, 41.404363], [-8.219009, 41.406366], [-8.207056, 41.405459], [-8.191497, 41.400013], [-8.181136, 41.390932], [-8.177257, 41.381897], [-8.177908, 41.376309], [-8.168382, 41.377438], [-8.164499, 41.38059], [-8.152544, 41.375866], [-8.151049, 41.37339], [-8.145073, 41.374742], [-8.139694, 41.377894], [-8.133418, 41.374292], [-8.119672, 41.376768], [-8.119672, 41.378569], [-8.116683, 41.380144], [-8.117578, 41.386447], [-8.113992, 41.386896], [-8.112795, 41.390723], [-8.110105, 41.390947], [-8.108011, 41.393648], [-8.103827, 41.392972], [-8.105321, 41.394998], [-8.10263, 41.396123], [-8.10801, 41.398825], [-8.108606, 41.403102], [-8.104419, 41.406252], [-8.104119, 41.408728], [-8.101727, 41.409403], [-8.102025, 41.411175], [-8.123152, 41.417191], [-8.135042, 41.422865], [-8.146885, 41.432363], [-8.156105, 41.444796], [-8.160439, 41.453835], [-8.163361, 41.471871], [-8.161928, 41.480868], [-8.157955, 41.489847], [-8.149192, 41.498789], [-8.133968, 41.503625], [-8.121985, 41.503745], [-8.098066, 41.500534], [-8.072051, 41.493321], [-8.072348, 41.495601], [-8.078333, 41.49898], [-8.078332, 41.500331], [-8.093, 41.504613], [-8.0906, 41.513093], [-8.097915, 41.511378], [-8.109891, 41.5119], [-8.125811, 41.516629], [-8.134855, 41.525704], [-8.135577, 41.534717], [-8.127789, 41.543666], [-8.121402, 41.546839], [-8.109376, 41.54951], [-8.097395, 41.54878], [-8.085101, 41.544225], [-8.083389, 41.5449], [-8.081886, 41.550977], [-8.079489, 41.551876], [-8.074097, 41.549848], [-8.072897, 41.551197], [-8.076188, 41.557276], [-8.079783, 41.558403], [-8.082176, 41.564032], [-8.072581, 41.569118], [-8.097069, 41.572237], [-8.120975, 41.578376], [-8.134976, 41.588756], [-8.136325, 41.597773], [-8.131062, 41.606741], [-8.096005, 41.648501], [-8.083956, 41.651363], [-8.071955, 41.650752], [-8.060031, 41.644877], [-8.006975, 41.606291], [-8.003562, 41.611239], [-7.998761, 41.612809], [-7.999669, 41.608759], [-7.996976, 41.605829], [-7.996684, 41.602003], [-7.984685, 41.603564], [-7.982292, 41.60086], [-7.975689, 41.603552], [-7.974482, 41.606701], [-7.970882, 41.607147], [-7.969091, 41.603768], [-7.965796, 41.602413], [-7.9541, 41.602846], [-7.952606, 41.600592], [-7.947808, 41.60081], [-7.945413, 41.599456], [-7.942725, 41.595625], [-7.936132, 41.594488], [-7.93791, 41.601694], [-7.937004, 41.603718], [-7.931604, 41.604384], [-7.930979, 41.612711], [-7.925556, 41.620354], [-7.920755, 41.620796], [-7.917748, 41.623041], [-7.915933, 41.627764], [-7.913229, 41.628885], [-7.912613, 41.63361], [-7.906014, 41.633147], [-7.906884, 41.641927], [-7.897869, 41.645511], [-7.89696, 41.647985], [-7.892759, 41.647976], [-7.892145, 41.651576], [-7.902319, 41.659925], [-7.899913, 41.66127], [-7.900198, 41.665547], [-7.898396, 41.665769], [-7.896885, 41.668692], [-7.883969, 41.67069], [-7.879755, 41.673607], [-7.877044, 41.676077], [-7.876723, 41.681253], [-7.873401, 41.686198], [-7.868896, 41.686413], [-7.868008, 41.68326], [-7.86264, 41.684823], [-7.867105, 41.690454], [-7.869338, 41.703542], [-7.866699, 41.713602], [-7.859147, 41.721455], [-7.855262, 41.730423], [-7.866752, 41.739544], [-7.890102, 41.750713], [-7.902067, 41.75439], [-7.914124, 41.752642], [-7.952877, 41.731354], [-7.960504, 41.722416], [-7.975127, 41.69839], [-7.987265, 41.690714], [-8.023379, 41.686473], [-8.047505, 41.680041], [-8.059531, 41.679251], [-8.071436, 41.686919], [-8.081436, 41.696426], [-8.094942, 41.724343], [-8.106862, 41.731765], [-8.118874, 41.732706], [-8.13093, 41.730336], [-8.143019, 41.725479], [-8.158696, 41.715031], [-8.165392, 41.706073], [-8.174202, 41.679116], [-8.17976, 41.672632], [-8.191889, 41.663343], [-8.203977, 41.657109], [-8.216032, 41.653416], [-8.22806, 41.651904], [-8.240059, 41.652806], [-8.252026, 41.65647], [-8.263945, 41.664449], [-8.276172, 41.679803], [-8.283843, 41.697865], [-8.283901, 41.706873], [-8.277548, 41.71584], [-8.263221, 41.727981], [-8.254408, 41.742713], [-8.253299, 41.751713], [-8.255426, 41.760734], [-8.26329, 41.772207], [-8.268367, 41.769951], [-8.271366, 41.766346], [-8.280681, 41.764083], [-8.284038, 41.761109], [-8.284931, 41.757507], [-8.287033, 41.756829], [-8.298457, 41.757263], [-8.300866, 41.758835], [-8.305674, 41.758152], [-8.311096, 41.762195], [-8.318308, 41.761283], [-8.325233, 41.765098], [-8.328234, 41.763292], [-8.330213, 41.764189]], [[-7.902241, 41.744126], [-7.890243, 41.742497], [-7.878305, 41.737444], [-7.868862, 41.730558], [-7.867828, 41.721541], [-7.879131, 41.689928], [-7.891355, 41.677817], [-7.903421, 41.674766], [-7.915412, 41.676118], [-7.927344, 41.681008], [-7.939148, 41.693869], [-7.942957, 41.704242], [-7.942667, 41.713247], [-7.938601, 41.722216], [-7.931422, 41.731157], [-7.914319, 41.741109], [-7.902241, 41.744126]], [[-8.118766, 41.696718], [-8.11937, 41.696395], [-8.119857, 41.696727], [-8.119357, 41.697336], [-8.118766, 41.696718]], [[-8.383832, 41.688625], [-8.371809, 41.689322], [-8.35982, 41.686587], [-8.349802, 41.680243], [-8.343783, 41.671202], [-8.34289, 41.66219], [-8.348158, 41.651486], [-8.360258, 41.64232], [-8.372297, 41.639077], [-8.384301, 41.639409], [-8.39627, 41.643459], [-8.409436, 41.653544], [-8.414324, 41.662576], [-8.413065, 41.671577], [-8.404332, 41.680539], [-8.395883, 41.684918], [-8.383832, 41.688625]], [[-8.018759, 41.668887], [-8.008721, 41.659794], [-8.015363, 41.650844], [-8.023955, 41.648339], [-8.031488, 41.650981], [-8.035876, 41.654237], [-8.038722, 41.660048], [-8.035726, 41.664308], [-8.027938, 41.668965], [-8.023626, 41.670135], [-8.018759, 41.668887]], [[-8.132039, 41.647928], [-8.1236, 41.642713], [-8.120666, 41.633683], [-8.132366, 41.62353], [-8.144363, 41.624019], [-8.153531, 41.63393], [-8.149643, 41.642908], [-8.144067, 41.646458], [-8.132039, 41.647928]], [[-8.24118, 41.557199], [-8.229201, 41.556098], [-8.217248, 41.552897], [-8.19958, 41.544188], [-8.189413, 41.535109], [-8.184241, 41.526065], [-8.182753, 41.517048], [-8.183398, 41.508045], [-8.189399, 41.490073], [-8.202516, 41.472149], [-8.218346, 41.461724], [-8.230364, 41.457953], [-8.24235, 41.456883], [-8.254307, 41.458304], [-8.266216, 41.464024], [-8.278066, 41.475343], [-8.290065, 41.499745], [-8.293375, 41.51778], [-8.291999, 41.526779], [-8.287807, 41.535761], [-8.277272, 41.546699], [-8.265212, 41.552912], [-8.253183, 41.556236], [-8.24118, 41.557199]], [[-8.541668, 41.459193], [-8.53963, 41.455978], [-8.541722, 41.451607], [-8.553728, 41.446693], [-8.562345, 41.456066], [-8.553607, 41.464227], [-8.541668, 41.459193]]], [[[-8.271983, 41.326261], [-8.271983, 41.326261], [-8.272073, 41.325586], [-8.271983, 41.326261]]]]}}, {"id": "9", "type": "Feature", "properties": {"fill": "#a3a3a3", "value_min": 0.25, "value_max": -0.5}, "geometry": {"type": "MultiPolygon", "coordinates": [[[[-7.730849, 41.81963], [-7.744454, 41.818238], [-7.756564, 41.814614], [-7.768763, 41.806275], [-7.777013, 41.792664], [-7.77761, 41.783664], [-7.775026, 41.77463], [-7.769517, 41.766848], [-7.757672, 41.757261], [-7.747494, 41.752943], [-7.740214, 41.763924], [-7.726937, 41.771755], [-7.725401, 41.777031], [-7.728133, 41.77412], [-7.73332, 41.772188], [-7.745327, 41.773483], [-7.752639, 41.783395], [-7.748242, 41.792354], [-7.744917, 41.794521], [-7.73286, 41.795561], [-7.72524, 41.792101], [-7.723222, 41.788718], [-7.722591, 41.793347], [-7.728879, 41.797871], [-7.727026, 41.805517], [-7.728171, 41.814974], [-7.730849, 41.81963]]], [[[-7.747438, 41.752919], [-7.747438, 41.752919], [-7.746895, 41.75269], [-7.747438, 41.752919]]], [[[-8.166885, 41.739406], [-8.163597, 41.742088], [-8.166778, 41.747684], [-8.177956, 41.742192], [-8.166885, 41.739406]]], [[[-8.096554, 41.609149], [-8.084594, 41.606261], [-8.076256, 41.615321], [-8.08434, 41.624202], [-8.096394, 41.620661], [-8.099813, 41.615508], [-8.096554, 41.609149]]], [[[-8.686623, 41.195002], [-8.686314, 41.195248], [-8.686617, 41.1961], [-8.687772, 41.195252], [-8.686623, 41.195002]]]]}}, {"id": "5", "type": "Feature", "properties": {"fill": "#a3a3a3", "value_min": -0.75, "value_max": -0.5}, "geometry": {"type": "MultiPolygon", "coordinates": [[[[-7.902241, 41.744126], [-7.914319, 41.741109], [-7.931422, 41.731157], [-7.938601, 41.722216], [-7.942667, 41.713247], [-7.942957, 41.704242], [-7.939148, 41.693869], [-7.927344, 41.681008], [-7.915412, 41.676118], [-7.903421, 41.674766], [-7.891355, 41.677817], [-7.879131, 41.689928], [-7.867828, 41.721541], [-7.868862, 41.730558], [-7.878305, 41.737444], [-7.890243, 41.742497], [-7.902241, 41.744126]], [[-7.902349, 41.737793], [-7.890338, 41.736983], [-7.878415, 41.731112], [-7.872736, 41.721589], [-7.874847, 41.712603], [-7.879635, 41.703642], [-7.89111, 41.692073], [-7.903171, 41.689457], [-7.91514, 41.692298], [-7.919293, 41.695015], [-7.927801, 41.704102], [-7.930239, 41.713132], [-7.92734, 41.722112], [-7.919315, 41.731043], [-7.914438, 41.734045], [-7.902349, 41.737793]]], [[[-8.118766, 41.696718], [-8.119357, 41.697336], [-8.119857, 41.696727], [-8.11937, 41.696395], [-8.118766, 41.696718]]], [[[-8.383832, 41.688625], [-8.395883, 41.684918], [-8.404332, 41.680539], [-8.413065, 41.671577], [-8.414324, 41.662576], [-8.409436, 41.653544], [-8.39627, 41.643459], [-8.384301, 41.639409], [-8.372297, 41.639077], [-8.360258, 41.64232], [-8.348158, 41.651486], [-8.34289, 41.66219], [-8.343783, 41.671202], [-8.349802, 41.680243], [-8.35982, 41.686587], [-8.371809, 41.689322], [-8.383832, 41.688625]], [[-8.371971, 41.672639], [-8.370369, 41.671351], [-8.370057, 41.662342], [-8.372089, 41.660486], [-8.384127, 41.657705], [-8.392081, 41.662461], [-8.391346, 41.671464], [-8.38396, 41.675227], [-8.371971, 41.672639]]], [[[-8.018759, 41.668887], [-8.023626, 41.670135], [-8.027938, 41.668965], [-8.035726, 41.664308], [-8.038722, 41.660048], [-8.035876, 41.654237], [-8.031488, 41.650981], [-8.023955, 41.648339], [-8.015363, 41.650844], [-8.008721, 41.659794], [-8.018759, 41.668887]]], [[[-8.132039, 41.647928], [-8.144067, 41.646458], [-8.149643, 41.642908], [-8.153531, 41.63393], [-8.144363, 41.624019], [-8.132366, 41.62353], [-8.120666, 41.633683], [-8.1236, 41.642713], [-8.132039, 41.647928]]], [[[-8.24118, 41.557199], [-8.253183, 41.556236], [-8.265212, 41.552912], [-8.277272, 41.546699], [-8.287807, 41.535761], [-8.291999, 41.526779], [-8.293375, 41.51778], [-8.290065, 41.499745], [-8.278066, 41.475343], [-8.266216, 41.464024], [-8.254307, 41.458304], [-8.24235, 41.456883], [-8.230364, 41.457953], [-8.218346, 41.461724], [-8.202516, 41.472149], [-8.189399, 41.490073], [-8.183398, 41.508045], [-8.182753, 41.517048], [-8.184241, 41.526065], [-8.189413, 41.535109], [-8.19958, 41.544188], [-8.217248, 41.552897], [-8.229201, 41.556098], [-8.24118, 41.557199]], [[-8.233639, 41.535412], [-8.229455, 41.534721], [-8.214535, 41.526276], [-8.208046, 41.517224], [-8.206314, 41.508205], [-8.20803, 41.49921], [-8.218045, 41.486693], [-8.230095, 41.480744], [-8.242094, 41.478877], [-8.254049, 41.480868], [-8.265957, 41.486985], [-8.275638, 41.499655], [-8.277687, 41.508676], [-8.276259, 41.517674], [-8.270213, 41.526643], [-8.265464, 41.53061], [-8.253421, 41.535517], [-8.241418, 41.536826], [-8.233639, 41.535412]]], [[[-8.085101, 41.544225], [-8.097395, 41.54878], [-8.109376, 41.54951], [-8.121402, 41.546839], [-8.127789, 41.543666], [-8.135577, 41.534717], [-8.134855, 41.525704], [-8.125811, 41.516629], [-8.109891, 41.5119], [-8.097915, 41.511378], [-8.0906, 41.513093], [-8.091196, 41.516767], [-8.089398, 41.519468], [-8.090594, 41.522169], [-8.093588, 41.52307], [-8.091786, 41.531848], [-8.097775, 41.536127], [-8.097774, 41.537927], [-8.106759, 41.543557], [-8.101666, 41.542655], [-8.094175, 41.544904], [-8.087885, 41.542876], [-8.085101, 41.544225]]], [[[-8.541668, 41.459193], [-8.553607, 41.464227], [-8.562345, 41.456066], [-8.553728, 41.446693], [-8.541722, 41.451607], [-8.53963, 41.455978], [-8.541668, 41.459193]]], [[[-8.271922, 41.326711], [-8.273102, 41.346512], [-8.282829, 41.400619], [-8.28651, 41.409649], [-8.294842, 41.418708], [-8.302581, 41.422933], [-8.314511, 41.4264], [-8.338416, 41.429406], [-8.362352, 41.429528], [-8.38632, 41.426173], [-8.410325, 41.418434], [-8.42687, 41.410434], [-8.439694, 41.401489], [-8.4545, 41.383545], [-8.457895, 41.374554], [-8.459755, 41.356547], [-8.455231, 41.338511], [-8.443793, 41.320441], [-8.42174, 41.30077], [-8.416982, 41.301232], [-8.407744, 41.304856], [-8.406262, 41.307335], [-8.403277, 41.307342], [-8.401801, 41.311398], [-8.399712, 41.311628], [-8.400316, 41.313202], [-8.396738, 41.314336], [-8.398835, 41.316131], [-8.396284, 41.318838], [-8.413045, 41.329296], [-8.42179, 41.338348], [-8.427583, 41.347384], [-8.430789, 41.356408], [-8.430668, 41.374422], [-8.427217, 41.383413], [-8.420839, 41.392388], [-8.410843, 41.401345], [-8.394481, 41.410268], [-8.374449, 41.416104], [-8.350509, 41.416933], [-8.338561, 41.415143], [-8.326635, 41.4113], [-8.310209, 41.400786], [-8.303491, 41.391738], [-8.297441, 41.373686], [-8.297493, 41.355671], [-8.303481, 41.338618], [-8.311391, 41.328247], [-8.307502, 41.325762], [-8.305116, 41.326891], [-8.303024, 41.325994], [-8.303615, 41.323742], [-8.301216, 41.319694], [-8.296431, 41.316774], [-8.297618, 41.313846], [-8.296116, 41.310022], [-8.281801, 41.316569], [-8.281808, 41.319721], [-8.278828, 41.321976], [-8.278238, 41.325128], [-8.272073, 41.325586], [-8.271983, 41.326261], [-8.271922, 41.326711]]]]}}, {"id": "7", "type": "Feature", "properties": {"fill": "#a3a3a3", "value_min": -0.25, "value_max": -0.0}, "geometry": {"type": "MultiPolygon", "coordinates": [[[[-8.441992, 41.710823], [-8.453868, 41.697961], [-8.453255, 41.695487], [-8.461659, 41.694563], [-8.482012, 41.682123], [-8.484371, 41.674238], [-8.49308, 41.674886], [-8.499963, 41.671038], [-8.50927, 41.671233], [-8.51018, 41.672806], [-8.511967, 41.670324], [-8.509856, 41.668755], [-8.522103, 41.658811], [-8.525706, 41.659023], [-8.527769, 41.652714], [-8.534066, 41.652017], [-8.537355, 41.64998], [-8.537634, 41.646602], [-8.543876, 41.637352], [-8.543855, 41.633976], [-8.536342, 41.631977], [-8.535128, 41.62973], [-8.543431, 41.61462], [-8.554533, 41.615255], [-8.557244, 41.617046], [-8.562639, 41.61635], [-8.568056, 41.619031], [-8.570735, 41.616095], [-8.577321, 41.614269], [-8.581231, 41.615829], [-8.585766, 41.620988], [-8.591462, 41.620515], [-8.596534, 41.616668], [-8.601628, 41.615972], [-8.603996, 41.611686], [-8.613256, 41.606696], [-8.619881, 41.610269], [-8.621338, 41.604636], [-8.628833, 41.604378], [-8.636302, 41.600744], [-8.64075, 41.594422], [-8.645536, 41.593051], [-8.646744, 41.594171], [-8.649125, 41.591909], [-8.656622, 41.5921], [-8.660788, 41.588255], [-8.663794, 41.589141], [-8.665265, 41.585758], [-8.66948, 41.587989], [-8.684455, 41.586117], [-8.685608, 41.58071], [-8.697261, 41.576376], [-8.701703, 41.570277], [-8.707704, 41.570923], [-8.712485, 41.569323], [-8.716422, 41.573805], [-8.720316, 41.57356], [-8.725151, 41.577811], [-8.726633, 41.576003], [-8.734424, 41.575737], [-8.736564, 41.580228], [-8.738354, 41.579318], [-8.740778, 41.582006], [-8.74467, 41.581535], [-8.750711, 41.58623], [-8.756374, 41.582823], [-8.75635, 41.580347], [-8.762327, 41.578514], [-8.764443, 41.580303], [-8.767441, 41.580286], [-8.769874, 41.583874], [-8.768997, 41.58613], [-8.773228, 41.589482], [-8.775371, 41.593972], [-8.78556, 41.593464], [-8.797327, 41.600599], [-8.804218, 41.600109], [-8.80456, 41.604158], [-8.809434, 41.611332], [-8.828644, 41.609656], [-8.82839, 41.585633], [-8.818497, 41.554794], [-8.8221, 41.547542], [-8.821965, 41.534907], [-8.815926, 41.525624], [-8.81063, 41.5101], [-8.813279, 41.503483], [-8.812636, 41.496944], [-8.804699, 41.482068], [-8.798552, 41.474753], [-8.80154, 41.446836], [-8.806115, 41.43713], [-8.807354, 41.425915], [-8.811202, 41.416419], [-8.805452, 41.290547], [-8.798314, 41.303592], [-8.781647, 41.321577], [-8.769629, 41.329594], [-8.757659, 41.335127], [-8.733734, 41.340722], [-8.721779, 41.341275], [-8.69789, 41.337972], [-8.678626, 41.330344], [-8.665481, 41.321298], [-8.638394, 41.290554], [-8.626497, 41.282454], [-8.61458, 41.278345], [-8.602652, 41.276269], [-8.554924, 41.271312], [-8.531101, 41.26349], [-8.520633, 41.257732], [-8.508769, 41.248674], [-8.500676, 41.239632], [-8.493274, 41.225363], [-8.487935, 41.230354], [-8.490333, 41.232598], [-8.484411, 41.240495], [-8.476346, 41.237818], [-8.475756, 41.23917], [-8.470986, 41.23941], [-8.471604, 41.243459], [-8.469227, 41.245267], [-8.463258, 41.244384], [-8.459989, 41.246644], [-8.454323, 41.246886], [-8.455541, 41.251834], [-8.452276, 41.25522], [-8.449891, 41.255452], [-8.449304, 41.257479], [-8.447812, 41.257258], [-8.44854, 41.261983], [-8.491788, 41.302647], [-8.506566, 41.320727], [-8.516705, 41.338785], [-8.530129, 41.374871], [-8.535325, 41.3839], [-8.544499, 41.392944], [-8.589824, 41.417866], [-8.603088, 41.429192], [-8.608943, 41.438219], [-8.610956, 41.447234], [-8.610411, 41.456239], [-8.603201, 41.47423], [-8.59561, 41.483211], [-8.589382, 41.487921], [-8.577372, 41.492643], [-8.565381, 41.494315], [-8.553411, 41.492804], [-8.541455, 41.489376], [-8.52952, 41.483284], [-8.516223, 41.473897], [-8.507251, 41.464851], [-8.493886, 41.444582], [-8.486865, 41.43774], [-8.481997, 41.434304], [-8.47005, 41.431521], [-8.458082, 41.431445], [-8.434119, 41.434387], [-8.374146, 41.447674], [-8.338206, 41.450065], [-8.320143, 41.45489], [-8.308147, 41.463826], [-8.30377, 41.472807], [-8.302831, 41.481809], [-8.307484, 41.499852], [-8.313609, 41.511951], [-8.33101, 41.53602], [-8.349225, 41.572154], [-8.358155, 41.581211], [-8.373844, 41.590305], [-8.408647, 41.603156], [-8.444579, 41.611188], [-8.462588, 41.617776], [-8.471325, 41.626824], [-8.478014, 41.644869], [-8.47793, 41.653875], [-8.473983, 41.662865], [-8.46355, 41.671824], [-8.442398, 41.68073], [-8.390544, 41.698481], [-8.35335, 41.716292], [-8.340767, 41.725227], [-8.336304, 41.734209], [-8.3343, 41.752211], [-8.330345, 41.763964], [-8.332141, 41.762835], [-8.336653, 41.763728], [-8.341756, 41.761468], [-8.344765, 41.762363], [-8.349267, 41.760103], [-8.352557, 41.755145], [-8.349814, 41.744122], [-8.352516, 41.743441], [-8.352203, 41.739616], [-8.357897, 41.735103], [-8.362407, 41.735994], [-8.368703, 41.73193], [-8.374122, 41.734845], [-8.384922, 41.73032], [-8.387032, 41.731891], [-8.393033, 41.729852], [-8.395651, 41.730296], [-8.393125, 41.725516], [-8.393741, 41.716512], [-8.402066, 41.707548], [-8.407717, 41.704743], [-8.419758, 41.702323], [-8.431761, 41.704101], [-8.439514, 41.707737], [-8.441992, 41.710823]], [[-8.456995, 41.561747], [-8.445007, 41.561219], [-8.431548, 41.554576], [-8.425519, 41.545538], [-8.425169, 41.536529], [-8.434657, 41.518562], [-8.432943, 41.509546], [-8.42151, 41.506438], [-8.409585, 41.500154], [-8.400975, 41.491369], [-8.399186, 41.482352], [-8.403172, 41.473366], [-8.409874, 41.468267], [-8.42189, 41.463751], [-8.433861, 41.464058], [-8.44579, 41.469513], [-8.451117, 41.473604], [-8.45763, 41.485725], [-8.469572, 41.49032], [-8.481546, 41.490946], [-8.4935, 41.494221], [-8.503346, 41.500864], [-8.50893, 41.509895], [-8.508242, 41.5189], [-8.500759, 41.527875], [-8.487595, 41.536825], [-8.472925, 41.554773], [-8.456995, 41.561747]], [[-8.337684, 41.501357], [-8.325796, 41.492369], [-8.325205, 41.481942], [-8.337975, 41.472802], [-8.349949, 41.473004], [-8.363491, 41.48216], [-8.364499, 41.491173], [-8.354198, 41.500123], [-8.349662, 41.501747], [-8.337684, 41.501357]], [[-8.626007, 41.368313], [-8.623148, 41.366206], [-8.621566, 41.357193], [-8.6261, 41.352031], [-8.638064, 41.350285], [-8.646924, 41.357274], [-8.644325, 41.366273], [-8.637958, 41.369427], [-8.626007, 41.368313]]], [[[-8.330341, 41.763971], [-8.330341, 41.763971], [-8.330213, 41.764189], [-8.330341, 41.763971]]], [[[-8.26329, 41.772207], [-8.255426, 41.760734], [-8.253299, 41.751713], [-8.254408, 41.742713], [-8.263221, 41.727981], [-8.277548, 41.71584], [-8.283901, 41.706873], [-8.283843, 41.697865], [-8.276172, 41.679803], [-8.263945, 41.664449], [-8.252026, 41.65647], [-8.240059, 41.652806], [-8.22806, 41.651904], [-8.216032, 41.653416], [-8.203977, 41.657109], [-8.191889, 41.663343], [-8.17976, 41.672632], [-8.174202, 41.679116], [-8.165392, 41.706073], [-8.158696, 41.715031], [-8.143019, 41.725479], [-8.13093, 41.730336], [-8.118874, 41.732706], [-8.106862, 41.731765], [-8.094942, 41.724343], [-8.081436, 41.696426], [-8.071436, 41.686919], [-8.059531, 41.679251], [-8.047505, 41.680041], [-8.023379, 41.686473], [-7.987265, 41.690714], [-7.975127, 41.69839], [-7.960504, 41.722416], [-7.952877, 41.731354], [-7.914124, 41.752642], [-7.902067, 41.75439], [-7.890102, 41.750713], [-7.866752, 41.739544], [-7.855262, 41.730423], [-7.859147, 41.721455], [-7.866699, 41.713602], [-7.869338, 41.703542], [-7.867105, 41.690454], [-7.86264, 41.684823], [-7.858987, 41.68639], [-7.857773, 41.689538], [-7.854776, 41.68818], [-7.848141, 41.694916], [-7.844832, 41.696142], [-7.854988, 41.696149], [-7.860988, 41.703459], [-7.858355, 41.71244], [-7.854632, 41.716201], [-7.842611, 41.7162], [-7.83534, 41.712209], [-7.834939, 41.709963], [-7.825252, 41.708813], [-7.818621, 41.713522], [-7.815291, 41.718689], [-7.808986, 41.717996], [-7.808396, 41.715744], [-7.804499, 41.714158], [-7.79939, 41.714593], [-7.79788, 41.716164], [-7.796383, 41.71526], [-7.790966, 41.717044], [-7.789449, 41.719966], [-7.78464, 41.720402], [-7.78252, 41.723546], [-7.776204, 41.724652], [-7.773786, 41.727346], [-7.766599, 41.723047], [-7.762974, 41.726579], [-7.782072, 41.739152], [-7.817579, 41.770179], [-7.829532, 41.774429], [-7.841768, 41.763119], [-7.843426, 41.757325], [-7.854013, 41.75103], [-7.866057, 41.75008], [-7.877967, 41.757668], [-7.878803, 41.766683], [-7.874746, 41.77565], [-7.889525, 41.784166], [-7.901531, 41.785787], [-7.913626, 41.782167], [-7.925758, 41.776282], [-7.937839, 41.773362], [-7.961879, 41.774809], [-7.973832, 41.77978], [-7.9817, 41.785654], [-7.986357, 41.794702], [-7.999111, 41.830842], [-8.001007, 41.839865], [-8.000185, 41.850716], [-8.003089, 41.850494], [-8.005804, 41.847346], [-8.007928, 41.838796], [-8.012753, 41.833624], [-8.013363, 41.829124], [-8.017873, 41.831379], [-8.02901, 41.829589], [-8.037134, 41.831171], [-8.041351, 41.828023], [-8.041054, 41.825097], [-8.045268, 41.824425], [-8.046775, 41.821951], [-8.056712, 41.81588], [-8.06664, 41.817012], [-8.072961, 41.813414], [-8.078678, 41.813417], [-8.082892, 41.810493], [-8.091013, 41.812521], [-8.093421, 41.811397], [-8.093723, 41.808471], [-8.101845, 41.809824], [-8.104853, 41.81185], [-8.115984, 41.812302], [-8.123807, 41.808702], [-8.138247, 41.808477], [-8.139751, 41.813203], [-8.14276, 41.812978], [-8.144866, 41.815228], [-8.149078, 41.814777], [-8.153291, 41.817703], [-8.158106, 41.818377], [-8.165326, 41.81815], [-8.173744, 41.808019], [-8.177655, 41.808242], [-8.183676, 41.812741], [-8.190291, 41.809587], [-8.197158, 41.814129], [-8.201063, 41.808724], [-8.204973, 41.807372], [-8.205872, 41.804445], [-8.213692, 41.803765], [-8.217598, 41.80016], [-8.217589, 41.793634], [-8.224207, 41.794303], [-8.229917, 41.791598], [-8.240744, 41.791588], [-8.24074, 41.789338], [-8.244347, 41.787984], [-8.245546, 41.785731], [-8.251257, 41.784375], [-8.251845, 41.777172], [-8.257551, 41.773564], [-8.261762, 41.774235], [-8.26329, 41.772207]], [[-8.166467, 41.771672], [-8.15449, 41.767534], [-8.146318, 41.759975], [-8.143231, 41.750945], [-8.145051, 41.741952], [-8.154959, 41.731778], [-8.167055, 41.726225], [-8.179089, 41.725353], [-8.191067, 41.729002], [-8.197425, 41.733322], [-8.20242, 41.742364], [-8.202446, 41.751371], [-8.19791, 41.760347], [-8.190593, 41.766743], [-8.178503, 41.771366], [-8.166467, 41.771672]], [[-8.010293, 41.756247], [-7.99832, 41.752695], [-7.995151, 41.749745], [-7.988598, 41.740681], [-7.988302, 41.731671], [-7.994599, 41.72272], [-7.99883, 41.719816], [-8.010899, 41.716756], [-8.022896, 41.718409], [-8.031099, 41.723033], [-8.036335, 41.732084], [-8.035708, 41.741086], [-8.028683, 41.750034], [-8.022352, 41.754266], [-8.010293, 41.756247]], [[-8.045918, 41.71415], [-8.040019, 41.705094], [-8.047227, 41.698898], [-8.059224, 41.700325], [-8.063058, 41.705284], [-8.059046, 41.712584], [-8.045918, 41.71415]]], [[[-8.39585, 41.73052], [-8.39585, 41.73052], [-8.395739, 41.730396], [-8.39585, 41.73052]]], [[[-7.836099, 41.701379], [-7.836099, 41.701379], [-7.836349, 41.701189], [-7.836099, 41.701379]]], [[[-7.8364, 41.70115], [-7.8364, 41.70115], [-7.836643, 41.700965], [-7.8364, 41.70115]]], [[[-7.837606, 41.700231], [-7.837606, 41.700231], [-7.841645, 41.697151], [-7.837606, 41.700231]]], [[[-8.006975, 41.606291], [-8.060031, 41.644877], [-8.071955, 41.650752], [-8.083956, 41.651363], [-8.096005, 41.648501], [-8.131062, 41.606741], [-8.136325, 41.597773], [-8.134976, 41.588756], [-8.120975, 41.578376], [-8.097069, 41.572237], [-8.072581, 41.569118], [-8.069283, 41.570553], [-8.068081, 41.573478], [-8.056684, 41.579549], [-8.052181, 41.584498], [-8.052777, 41.587649], [-8.037169, 41.600242], [-8.031467, 41.602938], [-8.02367, 41.603156], [-8.019174, 41.601802], [-8.006975, 41.606291]], [[-8.082283, 41.633383], [-8.072241, 41.630822], [-8.063201, 41.624222], [-8.058556, 41.615177], [-8.059657, 41.606179], [-8.06792, 41.597239], [-8.072759, 41.594638], [-8.084794, 41.592112], [-8.09677, 41.593688], [-8.103613, 41.597523], [-8.111253, 41.606589], [-8.110985, 41.615595], [-8.105022, 41.624555], [-8.096241, 41.631621], [-8.082283, 41.633383]]], [[[-8.072051, 41.493321], [-8.098066, 41.500534], [-8.121985, 41.503745], [-8.133968, 41.503625], [-8.149192, 41.498789], [-8.157955, 41.489847], [-8.161928, 41.480868], [-8.163361, 41.471871], [-8.160439, 41.453835], [-8.156105, 41.444796], [-8.146885, 41.432363], [-8.135042, 41.422865], [-8.123152, 41.417191], [-8.102025, 41.411175], [-8.094849, 41.412102], [-8.092756, 41.411201], [-8.09126, 41.414352], [-8.079893, 41.41975], [-8.077503, 41.416597], [-8.070923, 41.41862], [-8.066739, 41.416142], [-8.061953, 41.417264], [-8.059852, 41.424916], [-8.055959, 41.429415], [-8.057743, 41.438645], [-8.061033, 41.438872], [-8.064916, 41.444052], [-8.067908, 41.444279], [-8.069999, 41.447206], [-8.068788, 41.462286], [-8.073872, 41.46499], [-8.074164, 41.473543], [-8.066374, 41.482318], [-8.066069, 41.48817], [-8.072054, 41.490199], [-8.072051, 41.493321]], [[-8.110163, 41.492051], [-8.103334, 41.489434], [-8.096556, 41.480373], [-8.098427, 41.47445], [-8.100115, 41.471394], [-8.110522, 41.465827], [-8.122488, 41.466444], [-8.130563, 41.471628], [-8.13489, 41.480668], [-8.12893, 41.48963], [-8.12214, 41.492291], [-8.110163, 41.492051]]], [[[-8.177908, 41.376309], [-8.177257, 41.381897], [-8.181136, 41.390932], [-8.191497, 41.400013], [-8.207056, 41.405459], [-8.219009, 41.406366], [-8.230997, 41.404363], [-8.238808, 41.400336], [-8.247934, 41.391388], [-8.250748, 41.382399], [-8.249221, 41.373382], [-8.244772, 41.366133], [-8.244272, 41.368384], [-8.239197, 41.371315], [-8.232024, 41.369971], [-8.224854, 41.370878], [-8.21738, 41.368182], [-8.214399, 41.373587], [-8.208127, 41.376968], [-8.199163, 41.377423], [-8.194976, 41.374275], [-8.191691, 41.376302], [-8.177908, 41.376309]]]]}}, {"id": "8", "type": "Feature", "properties": {"fill": "#a3a3a3", "value_min": 0.0, "value_max": -0.25}, "geometry": {"type": "MultiPolygon", "coordinates": [[[[-8.000185, 41.850716], [-8.001007, 41.839865], [-7.999111, 41.830842], [-7.986357, 41.794702], [-7.9817, 41.785654], [-7.973832, 41.77978], [-7.961879, 41.774809], [-7.937839, 41.773362], [-7.925758, 41.776282], [-7.913626, 41.782167], [-7.901531, 41.785787], [-7.889525, 41.784166], [-7.874746, 41.77565], [-7.878803, 41.766683], [-7.877967, 41.757668], [-7.866057, 41.75008], [-7.854013, 41.75103], [-7.843426, 41.757325], [-7.841768, 41.763119], [-7.829532, 41.774429], [-7.817579, 41.770179], [-7.782072, 41.739152], [-7.762974, 41.726579], [-7.762933, 41.733839], [-7.759307, 41.737203], [-7.759597, 41.739005], [-7.75689, 41.739446], [-7.758687, 41.740577], [-7.757758, 41.745301], [-7.749323, 41.748649], [-7.746895, 41.75269], [-7.747438, 41.752919], [-7.747494, 41.752943], [-7.757672, 41.757261], [-7.769517, 41.766848], [-7.775026, 41.77463], [-7.77761, 41.783664], [-7.777013, 41.792664], [-7.768763, 41.806275], [-7.756564, 41.814614], [-7.744454, 41.818238], [-7.730849, 41.81963], [-7.73594, 41.823554], [-7.743152, 41.825154], [-7.742839, 41.827178], [-7.738918, 41.82874], [-7.742196, 41.833928], [-7.74729, 41.837772], [-7.746349, 41.84407], [-7.750246, 41.846784], [-7.750532, 41.849261], [-7.743309, 41.849012], [-7.746901, 41.8524], [-7.746881, 41.855776], [-7.73843, 41.859348], [-7.734159, 41.868337], [-7.730228, 41.871024], [-7.729293, 41.875972], [-7.722351, 41.878424], [-7.720523, 41.881793], [-7.725335, 41.882935], [-7.726208, 41.887665], [-7.737044, 41.888828], [-7.737935, 41.890857], [-7.74246, 41.889747], [-7.742785, 41.885922], [-7.756022, 41.888441], [-7.758719, 41.890926], [-7.756592, 41.89407], [-7.758376, 41.898127], [-7.764097, 41.898595], [-7.779227, 41.886264], [-7.785257, 41.885157], [-7.788886, 41.882467], [-7.794007, 41.882257], [-7.796739, 41.878214], [-7.794349, 41.87438], [-7.797064, 41.873488], [-7.803381, 41.874857], [-7.804914, 41.869459], [-7.813032, 41.871958], [-7.814229, 41.873537], [-7.823863, 41.874013], [-7.825059, 41.875817], [-7.830479, 41.875831], [-7.830789, 41.874031], [-7.832894, 41.874712], [-7.83772, 41.872924], [-7.842528, 41.875187], [-7.841663, 41.866632], [-7.849515, 41.861475], [-7.858542, 41.862622], [-7.859456, 41.860148], [-7.864877, 41.859711], [-7.87033, 41.851395], [-7.873043, 41.850501], [-7.873066, 41.844875], [-7.879056, 41.85254], [-7.886268, 41.855932], [-7.888076, 41.855486], [-7.891675, 41.859094], [-7.900698, 41.861588], [-7.904318, 41.859795], [-7.907309, 41.865203], [-7.906095, 41.868126], [-7.910299, 41.871285], [-7.909985, 41.875111], [-7.915391, 41.879397], [-7.921118, 41.877833], [-7.928044, 41.87807], [-7.935283, 41.874707], [-7.937389, 41.87516], [-7.941618, 41.870891], [-7.951254, 41.871132], [-7.956367, 41.87339], [-7.956362, 41.875191], [-7.960878, 41.875648], [-7.962086, 41.874074], [-7.973828, 41.875216], [-7.987996, 41.869157], [-7.990123, 41.860157], [-7.995547, 41.858138], [-7.994044, 41.856786], [-7.994652, 41.853861], [-7.996765, 41.851162], [-8.000185, 41.850716]]], [[[-8.166467, 41.771672], [-8.178503, 41.771366], [-8.190593, 41.766743], [-8.19791, 41.760347], [-8.202446, 41.751371], [-8.20242, 41.742364], [-8.197425, 41.733322], [-8.191067, 41.729002], [-8.179089, 41.725353], [-8.167055, 41.726225], [-8.154959, 41.731778], [-8.145051, 41.741952], [-8.143231, 41.750945], [-8.146318, 41.759975], [-8.15449, 41.767534], [-8.166467, 41.771672]], [[-8.166885, 41.739406], [-8.177956, 41.742192], [-8.166778, 41.747684], [-8.163597, 41.742088], [-8.166885, 41.739406]]], [[[-8.010293, 41.756247], [-8.022352, 41.754266], [-8.028683, 41.750034], [-8.035708, 41.741086], [-8.036335, 41.732084], [-8.031099, 41.723033], [-8.022896, 41.718409], [-8.010899, 41.716756], [-7.99883, 41.719816], [-7.994599, 41.72272], [-7.988302, 41.731671], [-7.988598, 41.740681], [-7.995151, 41.749745], [-7.99832, 41.752695], [-8.010293, 41.756247]]], [[[-8.441992, 41.710823], [-8.439514, 41.707737], [-8.431761, 41.704101], [-8.419758, 41.702323], [-8.407717, 41.704743], [-8.402066, 41.707548], [-8.393741, 41.716512], [-8.393125, 41.725516], [-8.395651, 41.730296], [-8.395739, 41.730396], [-8.39585, 41.73052], [-8.400531, 41.726683], [-8.402934, 41.726452], [-8.404721, 41.722847], [-8.417349, 41.725067], [-8.422737, 41.720552], [-8.429643, 41.719859], [-8.430533, 41.717381], [-8.435927, 41.714441], [-8.441333, 41.714201], [-8.441992, 41.710823]]], [[[-8.045918, 41.71415], [-8.059046, 41.712584], [-8.063058, 41.705284], [-8.059224, 41.700325], [-8.047227, 41.698898], [-8.040019, 41.705094], [-8.045918, 41.71415]]], [[[-7.834939, 41.709963], [-7.83534, 41.712209], [-7.842611, 41.7162], [-7.854632, 41.716201], [-7.858355, 41.71244], [-7.860988, 41.703459], [-7.854988, 41.696149], [-7.844832, 41.696142], [-7.841645, 41.697151], [-7.837606, 41.700231], [-7.836643, 41.700965], [-7.8364, 41.70115], [-7.836349, 41.701189], [-7.836099, 41.701379], [-7.839679, 41.706599], [-7.838465, 41.709522], [-7.834939, 41.709963]]], [[[-8.082283, 41.633383], [-8.096241, 41.631621], [-8.105022, 41.624555], [-8.110985, 41.615595], [-8.111253, 41.606589], [-8.103613, 41.597523], [-8.09677, 41.593688], [-8.084794, 41.592112], [-8.072759, 41.594638], [-8.06792, 41.597239], [-8.059657, 41.606179], [-8.058556, 41.615177], [-8.063201, 41.624222], [-8.072241, 41.630822], [-8.082283, 41.633383]], [[-8.096554, 41.609149], [-8.099813, 41.615508], [-8.096394, 41.620661], [-8.08434, 41.624202], [-8.076256, 41.615321], [-8.084594, 41.606261], [-8.096554, 41.609149]]], [[[-8.456995, 41.561747], [-8.472925, 41.554773], [-8.487595, 41.536825], [-8.500759, 41.527875], [-8.508242, 41.5189], [-8.50893, 41.509895], [-8.503346, 41.500864], [-8.4935, 41.494221], [-8.481546, 41.490946], [-8.469572, 41.49032], [-8.45763, 41.485725], [-8.451117, 41.473604], [-8.44579, 41.469513], [-8.433861, 41.464058], [-8.42189, 41.463751], [-8.409874, 41.468267], [-8.403172, 41.473366], [-8.399186, 41.482352], [-8.400975, 41.491369], [-8.409585, 41.500154], [-8.42151, 41.506438], [-8.432943, 41.509546], [-8.434657, 41.518562], [-8.425169, 41.536529], [-8.425519, 41.545538], [-8.431548, 41.554576], [-8.445007, 41.561219], [-8.456995, 41.561747]]], [[[-8.337684, 41.501357], [-8.349662, 41.501747], [-8.354198, 41.500123], [-8.364499, 41.491173], [-8.363491, 41.48216], [-8.349949, 41.473004], [-8.337975, 41.472802], [-8.325205, 41.481942], [-8.325796, 41.492369], [-8.337684, 41.501357]]], [[[-8.110163, 41.492051], [-8.12214, 41.492291], [-8.12893, 41.48963], [-8.13489, 41.480668], [-8.130563, 41.471628], [-8.122488, 41.466444], [-8.110522, 41.465827], [-8.100115, 41.471394], [-8.098427, 41.47445], [-8.096556, 41.480373], [-8.103334, 41.489434], [-8.110163, 41.492051]]], [[[-8.626007, 41.368313], [-8.637958, 41.369427], [-8.644325, 41.366273], [-8.646924, 41.357274], [-8.638064, 41.350285], [-8.6261, 41.352031], [-8.621566, 41.357193], [-8.623148, 41.366206], [-8.626007, 41.368313]]], [[[-8.493274, 41.225363], [-8.500676, 41.239632], [-8.508769, 41.248674], [-8.520633, 41.257732], [-8.531101, 41.26349], [-8.554924, 41.271312], [-8.602652, 41.276269], [-8.61458, 41.278345], [-8.626497, 41.282454], [-8.638394, 41.290554], [-8.665481, 41.321298], [-8.678626, 41.330344], [-8.69789, 41.337972], [-8.721779, 41.341275], [-8.733734, 41.340722], [-8.757659, 41.335127], [-8.769629, 41.329594], [-8.781647, 41.321577], [-8.798314, 41.303592], [-8.805452, 41.290547], [-8.799695, 41.14406], [-8.674793, 41.146932], [-8.674849, 41.153767], [-8.672489, 41.15648], [-8.66117, 41.156307], [-8.662078, 41.158104], [-8.660313, 41.160813], [-8.657033, 41.160378], [-8.654961, 41.161963], [-8.653231, 41.169174], [-8.655366, 41.175467], [-8.647955, 41.180228], [-8.647696, 41.185181], [-8.640929, 41.196241], [-8.634946, 41.193341], [-8.632526, 41.188624], [-8.625658, 41.186628], [-8.621132, 41.178994], [-8.613374, 41.177451], [-8.608583, 41.174095], [-8.609164, 41.172066], [-8.604942, 41.164881], [-8.59422, 41.165149], [-8.589174, 41.167645], [-8.589194, 41.170572], [-8.583263, 41.174422], [-8.582094, 41.177803], [-8.578825, 41.178941], [-8.581296, 41.191762], [-8.575958, 41.195609], [-8.576894, 41.201908], [-8.574515, 41.202593], [-8.57423, 41.20462], [-8.567971, 41.204644], [-8.565895, 41.206227], [-8.567697, 41.208246], [-8.566512, 41.209376], [-8.559636, 41.206251], [-8.554271, 41.20627], [-8.549521, 41.209214], [-8.544157, 41.209458], [-8.54238, 41.211265], [-8.532257, 41.213102], [-8.52653, 41.202542], [-8.523236, 41.200077], [-8.520554, 41.200086], [-8.51163, 41.203042], [-8.510456, 41.206197], [-8.505693, 41.207113], [-8.504239, 41.213646], [-8.500076, 41.21546], [-8.50308, 41.219502], [-8.502204, 41.222656], [-8.495642, 41.222227], [-8.493274, 41.225363]], [[-8.686623, 41.195002], [-8.687772, 41.195252], [-8.686617, 41.1961], [-8.686314, 41.195248], [-8.686623, 41.195002]]]]}}, {"id": "4", "type": "Feature", "properties": {"fill": "#a3a3a3", "value_min": -1.0, "value_max": -0.75}, "geometry": {"type": "MultiPolygon", "coordinates": [[[[-7.902349, 41.737793], [-7.914438, 41.734045], [-7.919315, 41.731043], [-7.92734, 41.722112], [-7.930239, 41.713132], [-7.927801, 41.704102], [-7.919293, 41.695015], [-7.91514, 41.692298], [-7.903171, 41.689457], [-7.89111, 41.692073], [-7.879635, 41.703642], [-7.874847, 41.712603], [-7.872736, 41.721589], [-7.878415, 41.731112], [-7.890338, 41.736983], [-7.902349, 41.737793]], [[-7.890415, 41.732507], [-7.878553, 41.723182], [-7.878716, 41.71264], [-7.890989, 41.69914], [-7.903034, 41.697528], [-7.916616, 41.703997], [-7.921687, 41.713052], [-7.919811, 41.722041], [-7.914555, 41.727083], [-7.902429, 41.733116], [-7.890415, 41.732507]]], [[[-8.371971, 41.672639], [-8.38396, 41.675227], [-8.391346, 41.671464], [-8.392081, 41.662461], [-8.384127, 41.657705], [-8.372089, 41.660486], [-8.370057, 41.662342], [-8.370369, 41.671351], [-8.371971, 41.672639]]], [[[-8.233639, 41.535412], [-8.241418, 41.536826], [-8.253421, 41.535517], [-8.265464, 41.53061], [-8.270213, 41.526643], [-8.276259, 41.517674], [-8.277687, 41.508676], [-8.275638, 41.499655], [-8.265957, 41.486985], [-8.254049, 41.480868], [-8.242094, 41.478877], [-8.230095, 41.480744], [-8.218045, 41.486693], [-8.20803, 41.49921], [-8.206314, 41.508205], [-8.208046, 41.517224], [-8.214535, 41.526276], [-8.229455, 41.534721], [-8.233639, 41.535412]], [[-8.241567, 41.524063], [-8.229629, 41.520009], [-8.226423, 41.51735], [-8.222456, 41.508315], [-8.225782, 41.499331], [-8.229917, 41.495791], [-8.241943, 41.491872], [-8.253896, 41.494195], [-8.260729, 41.499561], [-8.264377, 41.508591], [-8.26005, 41.517571], [-8.253575, 41.522146], [-8.241567, 41.524063]]], [[[-8.311391, 41.328247], [-8.303481, 41.338618], [-8.297493, 41.355671], [-8.297441, 41.373686], [-8.303491, 41.391738], [-8.310209, 41.400786], [-8.326635, 41.4113], [-8.338561, 41.415143], [-8.350509, 41.416933], [-8.374449, 41.416104], [-8.394481, 41.410268], [-8.410843, 41.401345], [-8.420839, 41.392388], [-8.427217, 41.383413], [-8.430668, 41.374422], [-8.430789, 41.356408], [-8.427583, 41.347384], [-8.42179, 41.338348], [-8.413045, 41.329296], [-8.396284, 41.318838], [-8.393775, 41.31997], [-8.393489, 41.323122], [-8.391701, 41.324026], [-8.386325, 41.323588], [-8.38068, 41.331028], [-8.378957, 41.331257], [-8.395051, 41.33821], [-8.405834, 41.347274], [-8.411515, 41.356311], [-8.414149, 41.365332], [-8.413769, 41.374337], [-8.410245, 41.383327], [-8.403544, 41.3923], [-8.390469, 41.401239], [-8.374538, 41.406814], [-8.362561, 41.408104], [-8.350604, 41.407365], [-8.338671, 41.404293], [-8.326774, 41.397812], [-8.320055, 41.391837], [-8.314581, 41.382797], [-8.311979, 41.373774], [-8.312034, 41.364767], [-8.315266, 41.354525], [-8.325167, 41.341725], [-8.323376, 41.341943], [-8.316788, 41.335876], [-8.313802, 41.336331], [-8.311391, 41.328247]]], [[[-8.344846, 41.331319], [-8.358874, 41.329146], [-8.357673, 41.327249], [-8.350207, 41.327264], [-8.346032, 41.328847], [-8.344846, 41.331319]]], [[[-8.364547, 41.328988], [-8.374405, 41.330037], [-8.37201, 41.328346], [-8.364547, 41.328988]]]]}}, {"id": "3", "type": "Feature", "properties": {"fill": "#b6a27f", "value_min": -1.25, "value_max": -1.0}, "geometry": {"type": "MultiPolygon", "coordinates": [[[[-7.890415, 41.732507], [-7.902429, 41.733116], [-7.914555, 41.727083], [-7.919811, 41.722041], [-7.921687, 41.713052], [-7.916616, 41.703997], [-7.903034, 41.697528], [-7.890989, 41.69914], [-7.878716, 41.71264], [-7.878553, 41.723182], [-7.890415, 41.732507]], [[-7.890489, 41.728221], [-7.882703, 41.721686], [-7.883232, 41.712684], [-7.890892, 41.704772], [-7.902931, 41.703587], [-7.914274, 41.712982], [-7.912675, 41.721974], [-7.902507, 41.728542], [-7.890489, 41.728221]]], [[[-8.241567, 41.524063], [-8.253575, 41.522146], [-8.26005, 41.517571], [-8.264377, 41.508591], [-8.260729, 41.499561], [-8.253896, 41.494195], [-8.241943, 41.491872], [-8.229917, 41.495791], [-8.225782, 41.499331], [-8.222456, 41.508315], [-8.226423, 41.51735], [-8.229629, 41.520009], [-8.241567, 41.524063]]], [[[-8.325167, 41.341725], [-8.315266, 41.354525], [-8.312034, 41.364767], [-8.311979, 41.373774], [-8.314581, 41.382797], [-8.320055, 41.391837], [-8.326774, 41.397812], [-8.338671, 41.404293], [-8.350604, 41.407365], [-8.362561, 41.408104], [-8.374538, 41.406814], [-8.390469, 41.401239], [-8.403544, 41.3923], [-8.410245, 41.383327], [-8.413769, 41.374337], [-8.414149, 41.365332], [-8.411515, 41.356311], [-8.405834, 41.347274], [-8.395051, 41.33821], [-8.378957, 41.331257], [-8.374405, 41.330037], [-8.364547, 41.328988], [-8.358874, 41.329146], [-8.344846, 41.331319], [-8.338885, 41.334938], [-8.333215, 41.336299], [-8.326363, 41.342163], [-8.325167, 41.341725]], [[-8.374615, 41.39879], [-8.362636, 41.40045], [-8.350685, 41.399256], [-8.334679, 41.391923], [-8.326768, 41.382869], [-8.323808, 41.373844], [-8.324637, 41.364841], [-8.329341, 41.355861], [-8.339249, 41.347223], [-8.35125, 41.342393], [-8.363214, 41.341176], [-8.37515, 41.342884], [-8.385021, 41.347165], [-8.395893, 41.35623], [-8.400478, 41.365261], [-8.400983, 41.374272], [-8.397493, 41.383261], [-8.388894, 41.392223], [-8.374615, 41.39879]]]]}}, {"id": "2", "type": "Feature", "properties": {"fill": "#e19f31", "value_min": -1.5, "value_max": -1.25}, "geometry": {"type": "MultiPolygon", "coordinates": [[[[-7.890489, 41.728221], [-7.902507, 41.728542], [-7.912675, 41.721974], [-7.914274, 41.712982], [-7.902931, 41.703587], [-7.890892, 41.704772], [-7.883232, 41.712684], [-7.882703, 41.721686], [-7.890489, 41.728221]], [[-7.89056, 41.724055], [-7.887797, 41.721736], [-7.887753, 41.712728], [-7.89081, 41.70957], [-7.902834, 41.70931], [-7.907194, 41.712915], [-7.905919, 41.72191], [-7.902583, 41.724064], [-7.89056, 41.724055]]], [[[-8.374615, 41.39879], [-8.388894, 41.392223], [-8.397493, 41.383261], [-8.400983, 41.374272], [-8.400478, 41.365261], [-8.395893, 41.35623], [-8.385021, 41.347165], [-8.37515, 41.342884], [-8.363214, 41.341176], [-8.35125, 41.342393], [-8.339249, 41.347223], [-8.329341, 41.355861], [-8.324637, 41.364841], [-8.323808, 41.373844], [-8.326768, 41.382869], [-8.334679, 41.391923], [-8.350685, 41.399256], [-8.362636, 41.40045], [-8.374615, 41.39879]], [[-8.353237, 41.392028], [-8.338148, 41.382935], [-8.334679, 41.373907], [-8.336549, 41.364911], [-8.345902, 41.355957], [-8.351142, 41.353226], [-8.363114, 41.35145], [-8.375045, 41.353892], [-8.388122, 41.365196], [-8.389735, 41.374213], [-8.385765, 41.383199], [-8.37469, 41.390917], [-8.362705, 41.393387], [-8.353237, 41.392028]]]]}}, {"id": "1", "type": "Feature", "properties": {"fill": "#e57b10", "value_min": -1.75, "value_max": -1.5}, "geometry": {"type": "MultiPolygon", "coordinates": [[[[-7.89056, 41.724055], [-7.902583, 41.724064], [-7.905919, 41.72191], [-7.907194, 41.712915], [-7.902834, 41.70931], [-7.89081, 41.70957], [-7.887753, 41.712728], [-7.887797, 41.721736], [-7.89056, 41.724055]]], [[[-8.353237, 41.392028], [-8.362705, 41.393387], [-8.37469, 41.390917], [-8.385765, 41.383199], [-8.389735, 41.374213], [-8.388122, 41.365196], [-8.375045, 41.353892], [-8.363114, 41.35145], [-8.351142, 41.353226], [-8.345902, 41.355957], [-8.336549, 41.364911], [-8.334679, 41.373907], [-8.338148, 41.382935], [-8.353237, 41.392028]], [[-8.374804, 41.379016], [-8.369595, 41.383112], [-8.362786, 41.385051], [-8.353858, 41.383024], [-8.350864, 41.381209], [-8.346857, 41.373977], [-8.350924, 41.364993], [-8.363012, 41.361904], [-8.372374, 41.365112], [-8.377477, 41.374147], [-8.374804, 41.379016]]]]}}, {"id": "10", "type": "Feature", "properties": {"fill": "#a3a3a3", "value_min": 0.5, "value_max": -0.75}, "geometry": {"type": "Polygon", "coordinates": [[[-7.723222, 41.788718], [-7.72524, 41.792101], [-7.73286, 41.795561], [-7.744917, 41.794521], [-7.748242, 41.792354], [-7.752639, 41.783395], [-7.745327, 41.773483], [-7.73332, 41.772188], [-7.728133, 41.77412], [-7.725401, 41.777031], [-7.727191, 41.779184], [-7.724177, 41.780299], [-7.725372, 41.781653], [-7.723222, 41.788718]]]}}]}