{"type": "FeatureCollection", "features": [{"id": "4", "type": "Feature", "properties": {"fill": "#71a5e5", "value_min": 1.25, "value_max": 1.5}, "geometry": {"type": "MultiPolygon", "coordinates": [[[[-7.903198, 41.860693], [-7.90559, 41.848002], [-7.921562, 41.812126], [-7.916091, 41.785054], [-7.916662, 41.758039], [-7.919078, 41.749055], [-7.924477, 41.740099], [-7.939821, 41.722227], [-7.943518, 41.713255], [-7.943793, 41.70425], [-7.939202, 41.690559], [-7.927461, 41.673998], [-7.897263, 41.647174], [-7.892759, 41.647976], [-7.892145, 41.651576], [-7.901724, 41.658573], [-7.902017, 41.660599], [-7.899913, 41.66127], [-7.900198, 41.665547], [-7.898396, 41.665769], [-7.896885, 41.668692], [-7.882465, 41.671588], [-7.877044, 41.676077], [-7.876723, 41.681253], [-7.873702, 41.685973], [-7.868615, 41.685962], [-7.872962, 41.69457], [-7.873229, 41.70358], [-7.869331, 41.712548], [-7.866678, 41.71479], [-7.854565, 41.719987], [-7.842558, 41.719159], [-7.827697, 41.712131], [-7.825586, 41.708814], [-7.818621, 41.713522], [-7.815291, 41.718689], [-7.808986, 41.717996], [-7.808396, 41.715744], [-7.803298, 41.714154], [-7.790966, 41.717044], [-7.789449, 41.719966], [-7.78464, 41.720402], [-7.78252, 41.723546], [-7.776204, 41.724652], [-7.773786, 41.727346], [-7.770798, 41.72441], [-7.765698, 41.723044], [-7.761765, 41.727758], [-7.762933, 41.733839], [-7.758563, 41.739451], [-7.769817, 41.751168], [-7.778197, 41.765657], [-7.781939, 41.78371], [-7.780282, 41.792699], [-7.775341, 41.801653], [-7.763508, 41.810533], [-7.744487, 41.816547], [-7.729954, 41.818416], [-7.73594, 41.823554], [-7.743152, 41.825154], [-7.742839, 41.827178], [-7.738919, 41.828515], [-7.741508, 41.832125], [-7.780402, 41.827332], [-7.792498, 41.824442], [-7.798167, 41.819908], [-7.803014, 41.810952], [-7.806434, 41.792974], [-7.804702, 41.756929], [-7.807525, 41.747951], [-7.81684, 41.739041], [-7.83026, 41.734402], [-7.842318, 41.732517], [-7.866396, 41.730837], [-7.878401, 41.731903], [-7.890346, 41.73651], [-7.900343, 41.748877], [-7.901648, 41.757896], [-7.898351, 41.784885], [-7.905876, 41.811978], [-7.904015, 41.820967], [-7.898872, 41.829924], [-7.88853, 41.84172], [-7.877052, 41.84961], [-7.879956, 41.853217], [-7.888076, 41.855486], [-7.891675, 41.859094], [-7.898893, 41.86136], [-7.903198, 41.860693]]], [[[-8.090599, 41.513908], [-8.097894, 41.512873], [-8.109868, 41.513582], [-8.120599, 41.516589], [-8.13169, 41.525681], [-8.141943, 41.543772], [-8.151141, 41.552848], [-8.181004, 41.574406], [-8.204824, 41.58824], [-8.216758, 41.593515], [-8.24067, 41.600737], [-8.276614, 41.605729], [-8.300625, 41.604888], [-8.324672, 41.600501], [-8.348743, 41.593425], [-8.372832, 41.583923], [-8.411975, 41.563485], [-8.421561, 41.554526], [-8.432802, 41.536567], [-8.445284, 41.528778], [-8.457277, 41.528044], [-8.481203, 41.533947], [-8.493206, 41.531894], [-8.505241, 41.52568], [-8.511929, 41.518916], [-8.513668, 41.509916], [-8.509856, 41.500892], [-8.491013, 41.482795], [-8.484549, 41.473759], [-8.482252, 41.464741], [-8.48324, 41.446731], [-8.486174, 41.437736], [-8.49722, 41.41977], [-8.518173, 41.398088], [-8.535164, 41.383899], [-8.550256, 41.365944], [-8.559284, 41.338956], [-8.559538, 41.320942], [-8.556354, 41.311922], [-8.549599, 41.302888], [-8.495281, 41.26435], [-8.48011, 41.248548], [-8.473558, 41.239177], [-8.470986, 41.23941], [-8.471604, 41.243459], [-8.469227, 41.245267], [-8.463258, 41.244384], [-8.459989, 41.246644], [-8.455512, 41.245982], [-8.455541, 41.251834], [-8.452276, 41.25522], [-8.449891, 41.255452], [-8.449304, 41.257479], [-8.447812, 41.257258], [-8.449028, 41.261982], [-8.443657, 41.261771], [-8.438004, 41.264938], [-8.438023, 41.268989], [-8.434745, 41.269673], [-8.432691, 41.277107], [-8.427032, 41.279372], [-8.429143, 41.284319], [-8.426171, 41.287028], [-8.425606, 41.294007], [-8.422037, 41.296942], [-8.422222, 41.300093], [-8.443739, 41.32044], [-8.454141, 41.338506], [-8.457868, 41.356538], [-8.456135, 41.374546], [-8.453177, 41.383539], [-8.442432, 41.401503], [-8.423977, 41.419427], [-8.398988, 41.437314], [-8.390812, 41.446278], [-8.387436, 41.455268], [-8.386617, 41.464271], [-8.387035, 41.491296], [-8.38207, 41.509284], [-8.37346, 41.518889], [-8.361401, 41.52648], [-8.34937, 41.530889], [-8.337364, 41.532808], [-8.325376, 41.532863], [-8.313405, 41.53127], [-8.277551, 41.521679], [-8.253522, 41.526713], [-8.241538, 41.52658], [-8.229606, 41.522004], [-8.224024, 41.517333], [-8.21968, 41.508297], [-8.221173, 41.499299], [-8.228194, 41.490339], [-8.243308, 41.481432], [-8.254395, 41.472497], [-8.266403, 41.447506], [-8.273699, 41.427584], [-8.276878, 41.409589], [-8.277669, 41.382571], [-8.270907, 41.337491], [-8.270917, 41.326938], [-8.265709, 41.331221], [-8.269004, 41.336169], [-8.263339, 41.340902], [-8.262751, 41.345405], [-8.256483, 41.347663], [-8.255889, 41.349689], [-8.249622, 41.353072], [-8.251123, 41.356897], [-8.248141, 41.360052], [-8.248448, 41.364328], [-8.245461, 41.364781], [-8.244272, 41.368384], [-8.241287, 41.370413], [-8.224854, 41.370878], [-8.21738, 41.368182], [-8.214399, 41.373587], [-8.208127, 41.376968], [-8.199163, 41.377423], [-8.194677, 41.374275], [-8.191691, 41.376302], [-8.189299, 41.375403], [-8.184818, 41.376756], [-8.168382, 41.377438], [-8.164499, 41.38059], [-8.152544, 41.375866], [-8.151049, 41.37339], [-8.145073, 41.374742], [-8.139694, 41.377894], [-8.133418, 41.374292], [-8.125051, 41.375193], [-8.119672, 41.376768], [-8.119672, 41.378569], [-8.116683, 41.380144], [-8.117877, 41.385771], [-8.113992, 41.386896], [-8.112795, 41.390723], [-8.110105, 41.390947], [-8.108011, 41.393648], [-8.103827, 41.392972], [-8.105321, 41.394998], [-8.10263, 41.396123], [-8.10801, 41.398825], [-8.108606, 41.403102], [-8.104419, 41.406252], [-8.104119, 41.408728], [-8.101727, 41.409403], [-8.102025, 41.411204], [-8.092756, 41.411201], [-8.09126, 41.414352], [-8.079893, 41.41975], [-8.077503, 41.416597], [-8.070923, 41.41862], [-8.066739, 41.416142], [-8.061654, 41.417489], [-8.059852, 41.424916], [-8.055959, 41.429415], [-8.05745, 41.432793], [-8.056549, 41.436394], [-8.069999, 41.447206], [-8.068788, 41.462286], [-8.073872, 41.46499], [-8.074468, 41.468141], [-8.073564, 41.474668], [-8.066374, 41.482318], [-8.066069, 41.48817], [-8.072054, 41.490199], [-8.07175, 41.494925], [-8.078333, 41.49898], [-8.078332, 41.500331], [-8.093, 41.504613], [-8.090599, 41.513908]]], [[[-8.589188, 41.169651], [-8.606811, 41.195004], [-8.626694, 41.247892], [-8.638579, 41.256967], [-8.650507, 41.258767], [-8.662447, 41.258174], [-8.710225, 41.251425], [-8.746045, 41.248285], [-8.803831, 41.249366], [-8.799695, 41.14406], [-8.721741, 41.145783], [-8.7345, 41.151681], [-8.746379, 41.161716], [-8.754871, 41.177398], [-8.755775, 41.186408], [-8.754229, 41.195413], [-8.749865, 41.204411], [-8.742059, 41.213402], [-8.728818, 41.222379], [-8.710323, 41.229108], [-8.698382, 41.231259], [-8.686448, 41.231598], [-8.674524, 41.229912], [-8.662615, 41.22543], [-8.650736, 41.215656], [-8.644033, 41.204133], [-8.641779, 41.194661], [-8.640929, 41.196241], [-8.638841, 41.196025], [-8.638231, 41.194227], [-8.634946, 41.193341], [-8.632526, 41.188624], [-8.625658, 41.186628], [-8.621132, 41.178994], [-8.613374, 41.177451], [-8.608583, 41.174095], [-8.609164, 41.172066], [-8.604942, 41.164881], [-8.59422, 41.165149], [-8.589174, 41.167645], [-8.589188, 41.169651]]], [[[-7.870023, 41.853065], [-7.837858, 41.86535], [-7.82625, 41.87582], [-7.830479, 41.875831], [-7.830789, 41.874031], [-7.832894, 41.874712], [-7.83772, 41.872924], [-7.842528, 41.875187], [-7.841663, 41.866632], [-7.849515, 41.861475], [-7.858542, 41.862622], [-7.859456, 41.860148], [-7.864877, 41.859711], [-7.870023, 41.853065]]], [[[-7.866842, 41.683482], [-7.866842, 41.683482], [-7.868001, 41.684908], [-7.866842, 41.683482]]], [[[-7.868386, 41.685511], [-7.868386, 41.685511], [-7.868598, 41.685928], [-7.868386, 41.685511]]], [[[-8.130098, 41.696805], [-8.119429, 41.692071], [-8.110938, 41.696658], [-8.113912, 41.705688], [-8.119195, 41.709179], [-8.127049, 41.705788], [-8.130098, 41.696805]]], [[[-8.161607, 41.633989], [-8.15721, 41.62495], [-8.144426, 41.619321], [-8.132406, 41.620558], [-8.118507, 41.633667], [-8.120218, 41.642687], [-8.132014, 41.64978], [-8.144022, 41.649834], [-8.156112, 41.643589], [-8.161607, 41.633989]]]]}}, {"id": "3", "type": "Feature", "properties": {"fill": "#90a4bc", "value_min": 1.0, "value_max": 1.25}, "geometry": {"type": "MultiPolygon", "coordinates": [[[[-7.82625, 41.87582], [-7.837858, 41.86535], [-7.870023, 41.853065], [-7.87033, 41.851395], [-7.873043, 41.850501], [-7.873066, 41.844875], [-7.877052, 41.84961], [-7.88853, 41.84172], [-7.898872, 41.829924], [-7.904015, 41.820967], [-7.905876, 41.811978], [-7.898351, 41.784885], [-7.901648, 41.757896], [-7.900343, 41.748877], [-7.890346, 41.73651], [-7.878401, 41.731903], [-7.866396, 41.730837], [-7.842318, 41.732517], [-7.83026, 41.734402], [-7.81684, 41.739041], [-7.807525, 41.747951], [-7.804702, 41.756929], [-7.806434, 41.792974], [-7.803014, 41.810952], [-7.798167, 41.819908], [-7.792498, 41.824442], [-7.780402, 41.827332], [-7.741508, 41.832125], [-7.74729, 41.837772], [-7.746349, 41.84407], [-7.750541, 41.847685], [-7.750532, 41.849261], [-7.743309, 41.849012], [-7.746679, 41.852399], [-7.755901, 41.84883], [-7.767888, 41.851922], [-7.772318, 41.855661], [-7.773027, 41.864675], [-7.767526, 41.870771], [-7.755413, 41.874038], [-7.743467, 41.868689], [-7.740319, 41.864321], [-7.741313, 41.857558], [-7.736611, 41.861368], [-7.734159, 41.868337], [-7.730228, 41.871024], [-7.729293, 41.875972], [-7.722351, 41.878424], [-7.720523, 41.881793], [-7.725335, 41.882935], [-7.726208, 41.887665], [-7.737044, 41.888828], [-7.737935, 41.890857], [-7.74246, 41.889747], [-7.742785, 41.885922], [-7.756022, 41.888441], [-7.758719, 41.890926], [-7.756592, 41.89407], [-7.758376, 41.898127], [-7.764097, 41.898595], [-7.779227, 41.886264], [-7.785257, 41.885157], [-7.788886, 41.882467], [-7.794007, 41.882257], [-7.796739, 41.878214], [-7.794349, 41.87438], [-7.797064, 41.873488], [-7.803381, 41.874857], [-7.804914, 41.869459], [-7.813032, 41.871958], [-7.814229, 41.873537], [-7.818448, 41.872873], [-7.82625, 41.87582]], [[-7.86458, 41.833839], [-7.849539, 41.829441], [-7.840318, 41.820341], [-7.837662, 41.811308], [-7.842314, 41.793341], [-7.838873, 41.7843], [-7.831678, 41.77522], [-7.828027, 41.766176], [-7.828525, 41.757174], [-7.834207, 41.748225], [-7.842119, 41.743616], [-7.854211, 41.739895], [-7.866242, 41.739601], [-7.878212, 41.742793], [-7.88631, 41.748742], [-7.890384, 41.757788], [-7.889403, 41.766786], [-7.877792, 41.784686], [-7.882025, 41.793734], [-7.891225, 41.80283], [-7.894096, 41.811865], [-7.891469, 41.820846], [-7.888833, 41.824203], [-7.876654, 41.832085], [-7.86458, 41.833839]]], [[[-8.270917, 41.326938], [-8.270907, 41.337491], [-8.277669, 41.382571], [-8.276878, 41.409589], [-8.273699, 41.427584], [-8.266403, 41.447506], [-8.254395, 41.472497], [-8.243308, 41.481432], [-8.228194, 41.490339], [-8.221173, 41.499299], [-8.21968, 41.508297], [-8.224024, 41.517333], [-8.229606, 41.522004], [-8.241538, 41.52658], [-8.253522, 41.526713], [-8.277551, 41.521679], [-8.313405, 41.53127], [-8.325376, 41.532863], [-8.337364, 41.532808], [-8.34937, 41.530889], [-8.361401, 41.52648], [-8.37346, 41.518889], [-8.38207, 41.509284], [-8.387035, 41.491296], [-8.386617, 41.464271], [-8.387436, 41.455268], [-8.390812, 41.446278], [-8.398988, 41.437314], [-8.423977, 41.419427], [-8.442432, 41.401503], [-8.453177, 41.383539], [-8.456135, 41.374546], [-8.457868, 41.356538], [-8.454141, 41.338506], [-8.443739, 41.32044], [-8.422222, 41.300093], [-8.407744, 41.304856], [-8.406262, 41.307335], [-8.403277, 41.307342], [-8.401801, 41.311398], [-8.399712, 41.311628], [-8.400316, 41.313202], [-8.396738, 41.314336], [-8.398835, 41.316131], [-8.393775, 41.31997], [-8.393489, 41.323122], [-8.386029, 41.324367], [-8.399168, 41.330613], [-8.409064, 41.338283], [-8.416676, 41.347329], [-8.420942, 41.356359], [-8.422152, 41.37438], [-8.419518, 41.383374], [-8.414006, 41.392354], [-8.404953, 41.401315], [-8.386453, 41.412017], [-8.37445, 41.415986], [-8.350501, 41.417756], [-8.338556, 41.415645], [-8.326648, 41.410019], [-8.314787, 41.400122], [-8.308921, 41.391771], [-8.305407, 41.382742], [-8.303872, 41.364718], [-8.309138, 41.346734], [-8.317387, 41.336503], [-8.314699, 41.33678], [-8.312604, 41.334983], [-8.313794, 41.333405], [-8.310792, 41.327557], [-8.308701, 41.327561], [-8.307502, 41.325762], [-8.305116, 41.326891], [-8.303024, 41.325994], [-8.303615, 41.323742], [-8.301216, 41.319694], [-8.296431, 41.316774], [-8.297618, 41.313846], [-8.296116, 41.310022], [-8.281801, 41.316569], [-8.281808, 41.319721], [-8.278828, 41.321976], [-8.278238, 41.325128], [-8.273161, 41.325134], [-8.270917, 41.326938]], [[-8.337588, 41.510778], [-8.325633, 41.508084], [-8.313695, 41.499889], [-8.308263, 41.490849], [-8.307636, 41.481838], [-8.314055, 41.469742], [-8.326116, 41.461503], [-8.338115, 41.459043], [-8.35007, 41.460939], [-8.361972, 41.46832], [-8.36959, 41.482194], [-8.369423, 41.4912], [-8.361629, 41.503252], [-8.349586, 41.509383], [-8.337588, 41.510778]]], [[[-8.641779, 41.194661], [-8.644033, 41.204133], [-8.650736, 41.215656], [-8.662615, 41.22543], [-8.674524, 41.229912], [-8.686448, 41.231598], [-8.698382, 41.231259], [-8.710323, 41.229108], [-8.728818, 41.222379], [-8.742059, 41.213402], [-8.749865, 41.204411], [-8.754229, 41.195413], [-8.755775, 41.186408], [-8.754871, 41.177398], [-8.746379, 41.161716], [-8.7345, 41.151681], [-8.721741, 41.145783], [-8.674793, 41.146932], [-8.674849, 41.153767], [-8.672489, 41.15648], [-8.66117, 41.156307], [-8.662078, 41.158104], [-8.660313, 41.160813], [-8.657033, 41.160378], [-8.654961, 41.161963], [-8.653231, 41.169174], [-8.655366, 41.175467], [-8.647955, 41.180228], [-8.647696, 41.185181], [-8.641779, 41.194661]]]]}}, {"id": "5", "type": "Feature", "properties": {"fill": "#5093f6", "value_min": 1.5, "value_max": 1.75}, "geometry": {"type": "MultiPolygon", "coordinates": [[[[-7.903198, 41.860693], [-7.904318, 41.859795], [-7.907309, 41.865203], [-7.906095, 41.868126], [-7.910299, 41.871285], [-7.909985, 41.875111], [-7.915391, 41.879397], [-7.921118, 41.877833], [-7.928044, 41.87807], [-7.935283, 41.874707], [-7.937389, 41.87516], [-7.941618, 41.870891], [-7.951254, 41.871132], [-7.956367, 41.87339], [-7.956362, 41.875191], [-7.960878, 41.875648], [-7.962086, 41.874074], [-7.973828, 41.875216], [-7.987996, 41.869157], [-7.990123, 41.860157], [-7.995547, 41.858138], [-7.994047, 41.855211], [-7.996162, 41.851837], [-8.003089, 41.850494], [-8.005804, 41.847346], [-8.007928, 41.838796], [-8.012753, 41.833624], [-8.013363, 41.829124], [-8.017873, 41.831379], [-8.02901, 41.829589], [-8.037134, 41.831171], [-8.041351, 41.828023], [-8.041054, 41.825097], [-8.045268, 41.824425], [-8.047679, 41.821276], [-8.057314, 41.815656], [-8.06664, 41.817012], [-8.072961, 41.813414], [-8.078678, 41.813417], [-8.082892, 41.810493], [-8.091013, 41.812521], [-8.093421, 41.811397], [-8.093723, 41.808471], [-8.101845, 41.809824], [-8.104853, 41.81185], [-8.115984, 41.812302], [-8.123807, 41.808702], [-8.138247, 41.808477], [-8.139751, 41.813203], [-8.14276, 41.812978], [-8.144866, 41.815228], [-8.149078, 41.814777], [-8.153291, 41.817703], [-8.158106, 41.818377], [-8.165326, 41.81815], [-8.173744, 41.808019], [-8.177655, 41.808242], [-8.183676, 41.812741], [-8.190291, 41.809587], [-8.197158, 41.814129], [-8.201063, 41.808724], [-8.204973, 41.807372], [-8.205872, 41.804445], [-8.213692, 41.803765], [-8.217598, 41.80016], [-8.217589, 41.793634], [-8.224207, 41.794303], [-8.229917, 41.791598], [-8.240744, 41.791588], [-8.24074, 41.789338], [-8.244347, 41.787984], [-8.245546, 41.785731], [-8.251257, 41.784375], [-8.251845, 41.777172], [-8.257551, 41.773564], [-8.261762, 41.774235], [-8.271366, 41.766346], [-8.280681, 41.764083], [-8.284038, 41.761109], [-8.284931, 41.757507], [-8.305674, 41.758152], [-8.311096, 41.762195], [-8.318308, 41.761283], [-8.325233, 41.765098], [-8.328234, 41.763292], [-8.336653, 41.763728], [-8.341756, 41.761468], [-8.344765, 41.762363], [-8.349267, 41.760103], [-8.352557, 41.755145], [-8.349814, 41.744122], [-8.352516, 41.743441], [-8.352203, 41.739616], [-8.357897, 41.735103], [-8.362407, 41.735994], [-8.368703, 41.73193], [-8.374122, 41.734845], [-8.384922, 41.73032], [-8.387032, 41.731891], [-8.393033, 41.729852], [-8.396942, 41.730518], [-8.400531, 41.726683], [-8.402934, 41.726452], [-8.404721, 41.722847], [-8.417349, 41.725067], [-8.422737, 41.720552], [-8.429643, 41.719859], [-8.430533, 41.717381], [-8.435927, 41.714441], [-8.441632, 41.713975], [-8.4446, 41.70654], [-8.453868, 41.697961], [-8.453255, 41.695487], [-8.461659, 41.694563], [-8.467939, 41.689593], [-8.478124, 41.685061], [-8.482012, 41.682123], [-8.484371, 41.674238], [-8.49308, 41.674886], [-8.499963, 41.671038], [-8.50927, 41.671233], [-8.51018, 41.672806], [-8.511967, 41.670324], [-8.509856, 41.668755], [-8.512252, 41.667847], [-8.514629, 41.663788], [-8.522103, 41.658811], [-8.525706, 41.659023], [-8.527769, 41.652714], [-8.534066, 41.652017], [-8.537951, 41.649302], [-8.537634, 41.646602], [-8.543876, 41.637352], [-8.543855, 41.633976], [-8.536342, 41.631977], [-8.535128, 41.62973], [-8.543431, 41.61462], [-8.554533, 41.615255], [-8.557244, 41.617046], [-8.562639, 41.61635], [-8.568056, 41.619031], [-8.570735, 41.616095], [-8.577321, 41.614269], [-8.581231, 41.615829], [-8.585766, 41.620988], [-8.591462, 41.620515], [-8.596534, 41.616668], [-8.601628, 41.615972], [-8.603996, 41.611686], [-8.613256, 41.606696], [-8.619881, 41.610269], [-8.621338, 41.604636], [-8.628833, 41.604378], [-8.636302, 41.600744], [-8.64075, 41.594422], [-8.645536, 41.593051], [-8.646744, 41.594171], [-8.649125, 41.591909], [-8.656622, 41.5921], [-8.660788, 41.588255], [-8.663794, 41.589141], [-8.665265, 41.585758], [-8.66948, 41.587989], [-8.684455, 41.586117], [-8.685608, 41.58071], [-8.697261, 41.576376], [-8.701703, 41.570277], [-8.707704, 41.570923], [-8.712485, 41.569323], [-8.716422, 41.573805], [-8.720316, 41.57356], [-8.725151, 41.577811], [-8.726633, 41.576003], [-8.734424, 41.575737], [-8.736564, 41.580228], [-8.738354, 41.579318], [-8.740778, 41.582006], [-8.74467, 41.581535], [-8.750711, 41.58623], [-8.756374, 41.582823], [-8.75635, 41.580347], [-8.762327, 41.578514], [-8.764443, 41.580303], [-8.767441, 41.580286], [-8.769874, 41.583874], [-8.768997, 41.58613], [-8.773228, 41.589482], [-8.775371, 41.593972], [-8.78556, 41.593464], [-8.797327, 41.600599], [-8.804218, 41.600109], [-8.80456, 41.604158], [-8.809434, 41.611332], [-8.828644, 41.609656], [-8.82839, 41.585633], [-8.818497, 41.554794], [-8.8221, 41.547542], [-8.821965, 41.534907], [-8.815926, 41.525624], [-8.81063, 41.5101], [-8.813279, 41.503483], [-8.812636, 41.496944], [-8.804699, 41.482068], [-8.798552, 41.474753], [-8.80154, 41.446836], [-8.806115, 41.43713], [-8.807354, 41.425915], [-8.811202, 41.416419], [-8.803831, 41.249366], [-8.746045, 41.248285], [-8.710225, 41.251425], [-8.662447, 41.258174], [-8.650507, 41.258767], [-8.638579, 41.256967], [-8.626694, 41.247892], [-8.606811, 41.195004], [-8.589188, 41.169651], [-8.583263, 41.174422], [-8.582094, 41.177803], [-8.578825, 41.178941], [-8.581296, 41.191762], [-8.575958, 41.195609], [-8.576894, 41.201908], [-8.574515, 41.202593], [-8.57423, 41.20462], [-8.567971, 41.204644], [-8.565895, 41.206227], [-8.567697, 41.208246], [-8.566512, 41.209376], [-8.559636, 41.206251], [-8.554271, 41.20627], [-8.549521, 41.209214], [-8.544157, 41.209458], [-8.54238, 41.211265], [-8.532257, 41.213102], [-8.52653, 41.202542], [-8.523236, 41.200077], [-8.518471, 41.200543], [-8.51163, 41.203042], [-8.510456, 41.206197], [-8.505693, 41.207113], [-8.504239, 41.213646], [-8.500076, 41.21546], [-8.50308, 41.219502], [-8.502204, 41.222656], [-8.495642, 41.222227], [-8.495947, 41.223351], [-8.490894, 41.226294], [-8.487935, 41.230354], [-8.490331, 41.232373], [-8.489156, 41.235528], [-8.486181, 41.236888], [-8.484411, 41.240495], [-8.476644, 41.237817], [-8.473558, 41.239177], [-8.48011, 41.248548], [-8.495281, 41.26435], [-8.549599, 41.302888], [-8.556354, 41.311922], [-8.559538, 41.320942], [-8.559284, 41.338956], [-8.550256, 41.365944], [-8.535164, 41.383899], [-8.518173, 41.398088], [-8.49722, 41.41977], [-8.486174, 41.437736], [-8.48324, 41.446731], [-8.482252, 41.464741], [-8.484549, 41.473759], [-8.491013, 41.482795], [-8.509856, 41.500892], [-8.513668, 41.509916], [-8.511929, 41.518916], [-8.505241, 41.52568], [-8.493206, 41.531894], [-8.481203, 41.533947], [-8.457277, 41.528044], [-8.445284, 41.528778], [-8.432802, 41.536567], [-8.421561, 41.554526], [-8.411975, 41.563485], [-8.372832, 41.583923], [-8.348743, 41.593425], [-8.324672, 41.600501], [-8.300625, 41.604888], [-8.276614, 41.605729], [-8.24067, 41.600737], [-8.216758, 41.593515], [-8.204824, 41.58824], [-8.181004, 41.574406], [-8.151141, 41.552848], [-8.141943, 41.543772], [-8.13169, 41.525681], [-8.120599, 41.516589], [-8.109868, 41.513582], [-8.097894, 41.512873], [-8.090599, 41.513908], [-8.091196, 41.516767], [-8.089398, 41.519468], [-8.090594, 41.522169], [-8.093588, 41.52307], [-8.091786, 41.531848], [-8.097775, 41.536127], [-8.097774, 41.537927], [-8.106759, 41.543557], [-8.101666, 41.542655], [-8.094175, 41.544904], [-8.087885, 41.542876], [-8.083389, 41.5449], [-8.080687, 41.551651], [-8.074097, 41.549848], [-8.073494, 41.553449], [-8.075891, 41.554575], [-8.076188, 41.557276], [-8.079783, 41.558403], [-8.081576, 41.565157], [-8.078879, 41.56493], [-8.075279, 41.568305], [-8.073182, 41.568079], [-8.069283, 41.570553], [-8.068081, 41.573478], [-8.056684, 41.579549], [-8.052181, 41.584498], [-8.052777, 41.587649], [-8.048277, 41.590122], [-8.047974, 41.592373], [-8.044072, 41.595521], [-8.031467, 41.602938], [-8.02367, 41.603156], [-8.019174, 41.601802], [-8.015872, 41.603824], [-8.010473, 41.604494], [-8.005671, 41.606515], [-8.003262, 41.611464], [-7.998761, 41.612809], [-7.999669, 41.608759], [-7.996976, 41.605829], [-7.996684, 41.602003], [-7.984685, 41.603564], [-7.982292, 41.60086], [-7.975689, 41.603552], [-7.974482, 41.606701], [-7.970882, 41.607147], [-7.969091, 41.603768], [-7.965796, 41.602413], [-7.9541, 41.602846], [-7.952606, 41.600592], [-7.947808, 41.60081], [-7.945413, 41.599456], [-7.942725, 41.595625], [-7.936733, 41.594264], [-7.93791, 41.601694], [-7.937004, 41.603718], [-7.931604, 41.604384], [-7.930073, 41.614735], [-7.925255, 41.620579], [-7.920755, 41.620796], [-7.917748, 41.623041], [-7.915933, 41.627764], [-7.913229, 41.628885], [-7.912613, 41.63361], [-7.906014, 41.633147], [-7.905699, 41.637648], [-7.907788, 41.640804], [-7.897869, 41.645511], [-7.897263, 41.647174], [-7.927461, 41.673998], [-7.939202, 41.690559], [-7.943793, 41.70425], [-7.943518, 41.713255], [-7.939821, 41.722227], [-7.924477, 41.740099], [-7.919078, 41.749055], [-7.916662, 41.758039], [-7.916091, 41.785054], [-7.921562, 41.812126], [-7.90559, 41.848002], [-7.903198, 41.860693]], [[-7.948327, 41.867739], [-7.93635, 41.863408], [-7.929596, 41.857235], [-7.924492, 41.848181], [-7.924606, 41.839175], [-7.929587, 41.830215], [-7.93701, 41.823501], [-7.949134, 41.81845], [-7.96118, 41.81814], [-7.973156, 41.822113], [-7.984382, 41.830712], [-7.988955, 41.839759], [-7.988414, 41.848761], [-7.982865, 41.857719], [-7.972471, 41.864941], [-7.960369, 41.86823], [-7.948327, 41.867739]], [[-7.948859, 41.767345], [-7.938001, 41.763546], [-7.936096, 41.758221], [-7.938131, 41.755654], [-7.950193, 41.753609], [-7.956224, 41.758405], [-7.950363, 41.767359], [-7.948859, 41.767345]], [[-8.130098, 41.696805], [-8.127049, 41.705788], [-8.119195, 41.709179], [-8.113912, 41.705688], [-8.110938, 41.696658], [-8.119429, 41.692071], [-8.130098, 41.696805]], [[-8.080474, 41.687411], [-8.072986, 41.678344], [-8.078176, 41.669379], [-8.083743, 41.666376], [-8.095739, 41.667476], [-8.102826, 41.678581], [-8.095467, 41.686946], [-8.083426, 41.688734], [-8.080474, 41.687411]], [[-8.161607, 41.633989], [-8.156112, 41.643589], [-8.144022, 41.649834], [-8.132014, 41.64978], [-8.120218, 41.642687], [-8.118507, 41.633667], [-8.132406, 41.620558], [-8.144426, 41.619321], [-8.15721, 41.62495], [-8.161607, 41.633989]], [[-8.084223, 41.632474], [-8.072259, 41.629546], [-8.065389, 41.62424], [-8.062115, 41.615206], [-8.065182, 41.606224], [-8.072677, 41.600367], [-8.084725, 41.596994], [-8.0967, 41.598693], [-8.106237, 41.606551], [-8.107759, 41.61557], [-8.102083, 41.624532], [-8.096267, 41.629749], [-8.084223, 41.632474]], [[-8.553554, 41.472034], [-8.541593, 41.469852], [-8.53457, 41.464965], [-8.529847, 41.455938], [-8.533149, 41.446944], [-8.5418, 41.440445], [-8.553784, 41.438462], [-8.565729, 41.442235], [-8.571379, 41.447093], [-8.574287, 41.456111], [-8.57009, 41.465103], [-8.565554, 41.468501], [-8.553554, 41.472034]], [[-8.709949, 41.313667], [-8.698034, 41.306778], [-8.695167, 41.303365], [-8.69354, 41.294353], [-8.698688, 41.285359], [-8.710097, 41.280307], [-8.72204, 41.27988], [-8.735758, 41.28545], [-8.741186, 41.29447], [-8.739717, 41.303475], [-8.73386, 41.309597], [-8.728127, 41.312456], [-8.721894, 41.314318], [-8.709949, 41.313667]]], [[[-7.729954, 41.818416], [-7.744487, 41.816547], [-7.763508, 41.810533], [-7.775341, 41.801653], [-7.780282, 41.792699], [-7.781939, 41.78371], [-7.778197, 41.765657], [-7.769817, 41.751168], [-7.758563, 41.739451], [-7.75689, 41.739446], [-7.758687, 41.740577], [-7.757758, 41.745301], [-7.748417, 41.749321], [-7.747786, 41.754496], [-7.743866, 41.756509], [-7.741426, 41.7623], [-7.749637, 41.765349], [-7.760219, 41.774471], [-7.762717, 41.783504], [-7.759815, 41.79248], [-7.744766, 41.80224], [-7.732705, 41.803426], [-7.727046, 41.802361], [-7.729954, 41.818416]]], [[[-7.825586, 41.708814], [-7.827697, 41.712131], [-7.842558, 41.719159], [-7.854565, 41.719987], [-7.866678, 41.71479], [-7.869331, 41.712548], [-7.873229, 41.70358], [-7.872962, 41.69457], [-7.868615, 41.685962], [-7.868598, 41.685928], [-7.868386, 41.685511], [-7.868001, 41.684908], [-7.866842, 41.683482], [-7.864403, 41.683701], [-7.864096, 41.685276], [-7.860493, 41.685268], [-7.857773, 41.689538], [-7.854776, 41.68818], [-7.847538, 41.695365], [-7.837309, 41.699391], [-7.835792, 41.702763], [-7.839682, 41.705924], [-7.838465, 41.709522], [-7.832453, 41.710407], [-7.825586, 41.708814]]]]}}, {"id": "0", "type": "Feature", "properties": {"fill": "#a3a3a3", "value_min": 0.25, "value_max": 0.5}, "geometry": {"type": "MultiPolygon", "coordinates": [[[[-7.865984, 41.754278], [-7.856581, 41.757457], [-7.865805, 41.764436], [-7.870334, 41.757593], [-7.865984, 41.754278]]], [[[-8.383883, 41.374181], [-8.381031, 41.365158], [-8.374987, 41.359881], [-8.363066, 41.356425], [-8.351086, 41.358904], [-8.343382, 41.36495], [-8.340132, 41.373939], [-8.344634, 41.382972], [-8.350804, 41.387254], [-8.362741, 41.389689], [-8.374733, 41.386473], [-8.379328, 41.383164], [-8.383883, 41.374181]]]]}}, {"id": "6", "type": "Feature", "properties": {"fill": "#3171ee", "value_min": 1.75, "value_max": 2.0}, "geometry": {"type": "MultiPolygon", "coordinates": [[[[-7.948327, 41.867739], [-7.960369, 41.86823], [-7.972471, 41.864941], [-7.982865, 41.857719], [-7.988414, 41.848761], [-7.988955, 41.839759], [-7.984382, 41.830712], [-7.973156, 41.822113], [-7.96118, 41.81814], [-7.949134, 41.81845], [-7.93701, 41.823501], [-7.929587, 41.830215], [-7.924606, 41.839175], [-7.924492, 41.848181], [-7.929596, 41.857235], [-7.93635, 41.863408], [-7.948327, 41.867739]], [[-7.945994, 41.839373], [-7.948828, 41.837197], [-7.953858, 41.839445], [-7.948733, 41.842956], [-7.945994, 41.839373]]], [[[-7.727046, 41.802361], [-7.732705, 41.803426], [-7.744766, 41.80224], [-7.759815, 41.79248], [-7.762717, 41.783504], [-7.760219, 41.774471], [-7.749637, 41.765349], [-7.741426, 41.7623], [-7.726937, 41.771755], [-7.7254, 41.777152], [-7.727191, 41.779184], [-7.724177, 41.780299], [-7.725372, 41.781653], [-7.722296, 41.792446], [-7.728879, 41.797871], [-7.727046, 41.802361]]], [[[-7.948859, 41.767345], [-7.950363, 41.767359], [-7.956224, 41.758405], [-7.950193, 41.753609], [-7.938131, 41.755654], [-7.936096, 41.758221], [-7.938001, 41.763546], [-7.948859, 41.767345]]], [[[-8.080474, 41.687411], [-8.083426, 41.688734], [-8.095467, 41.686946], [-8.102826, 41.678581], [-8.095739, 41.667476], [-8.083743, 41.666376], [-8.078176, 41.669379], [-8.072986, 41.678344], [-8.080474, 41.687411]]], [[[-8.084223, 41.632474], [-8.096267, 41.629749], [-8.102083, 41.624532], [-8.107759, 41.61557], [-8.106237, 41.606551], [-8.0967, 41.598693], [-8.084725, 41.596994], [-8.072677, 41.600367], [-8.065182, 41.606224], [-8.062115, 41.615206], [-8.065389, 41.62424], [-8.072259, 41.629546], [-8.084223, 41.632474]]], [[[-8.553554, 41.472034], [-8.565554, 41.468501], [-8.57009, 41.465103], [-8.574287, 41.456111], [-8.571379, 41.447093], [-8.565729, 41.442235], [-8.553784, 41.438462], [-8.5418, 41.440445], [-8.533149, 41.446944], [-8.529847, 41.455938], [-8.53457, 41.464965], [-8.541593, 41.469852], [-8.553554, 41.472034]]], [[[-8.709949, 41.313667], [-8.721894, 41.314318], [-8.728127, 41.312456], [-8.73386, 41.309597], [-8.739717, 41.303475], [-8.741186, 41.29447], [-8.735758, 41.28545], [-8.72204, 41.27988], [-8.710097, 41.280307], [-8.698688, 41.285359], [-8.69354, 41.294353], [-8.695167, 41.303365], [-8.698034, 41.306778], [-8.709949, 41.313667]]]]}}, {"id": "1", "type": "Feature", "properties": {"fill": "#a3a3a3", "value_min": 0.5, "value_max": 0.75}, "geometry": {"type": "MultiPolygon", "coordinates": [[[[-7.877107, 41.806152], [-7.865078, 41.805635], [-7.859989, 41.811531], [-7.864856, 41.818208], [-7.8769, 41.81799], [-7.880842, 41.811736], [-7.877107, 41.806152]]], [[[-7.881537, 41.757702], [-7.878042, 41.752546], [-7.86613, 41.745984], [-7.85408, 41.747292], [-7.843193, 41.757323], [-7.844714, 41.766345], [-7.853618, 41.773238], [-7.865628, 41.774439], [-7.877766, 41.768405], [-7.881537, 41.757702]], [[-7.865984, 41.754278], [-7.870334, 41.757593], [-7.865805, 41.764436], [-7.856581, 41.757457], [-7.865984, 41.754278]]], [[[-8.351102, 41.482091], [-8.337913, 41.478923], [-8.332972, 41.481987], [-8.3324, 41.490991], [-8.337754, 41.494473], [-8.349753, 41.49269], [-8.351416, 41.4911], [-8.351102, 41.482091]]], [[[-8.374601, 41.400205], [-8.390586, 41.392232], [-8.398402, 41.383266], [-8.401603, 41.374275], [-8.400941, 41.365264], [-8.396298, 41.356232], [-8.38563, 41.347168], [-8.375152, 41.342636], [-8.363217, 41.340933], [-8.351253, 41.342107], [-8.339253, 41.346814], [-8.32874, 41.355858], [-8.323997, 41.364838], [-8.323003, 41.373839], [-8.325551, 41.382862], [-8.332622, 41.391911], [-8.338751, 41.396354], [-8.350669, 41.400825], [-8.362621, 41.402017], [-8.374601, 41.400205]], [[-8.383883, 41.374181], [-8.379328, 41.383164], [-8.374733, 41.386473], [-8.362741, 41.389689], [-8.350804, 41.387254], [-8.344634, 41.382972], [-8.340132, 41.373939], [-8.343382, 41.36495], [-8.351086, 41.358904], [-8.363066, 41.356425], [-8.374987, 41.359881], [-8.381031, 41.365158], [-8.383883, 41.374181]]]]}}, {"id": "2", "type": "Feature", "properties": {"fill": "#a3a3a3", "value_min": 0.75, "value_max": 1.0}, "geometry": {"type": "MultiPolygon", "coordinates": [[[[-7.741313, 41.857558], [-7.740319, 41.864321], [-7.743467, 41.868689], [-7.755413, 41.874038], [-7.767526, 41.870771], [-7.773027, 41.864675], [-7.772318, 41.855661], [-7.767888, 41.851922], [-7.755901, 41.84883], [-7.746679, 41.852399], [-7.746881, 41.855776], [-7.741313, 41.857558]]], [[[-7.86458, 41.833839], [-7.876654, 41.832085], [-7.888833, 41.824203], [-7.891469, 41.820846], [-7.894096, 41.811865], [-7.891225, 41.80283], [-7.882025, 41.793734], [-7.877792, 41.784686], [-7.889403, 41.766786], [-7.890384, 41.757788], [-7.88631, 41.748742], [-7.878212, 41.742793], [-7.866242, 41.739601], [-7.854211, 41.739895], [-7.842119, 41.743616], [-7.834207, 41.748225], [-7.828525, 41.757174], [-7.828027, 41.766176], [-7.831678, 41.77522], [-7.838873, 41.7843], [-7.842314, 41.793341], [-7.837662, 41.811308], [-7.840318, 41.820341], [-7.849539, 41.829441], [-7.86458, 41.833839]], [[-7.877107, 41.806152], [-7.880842, 41.811736], [-7.8769, 41.81799], [-7.864856, 41.818208], [-7.859989, 41.811531], [-7.865078, 41.805635], [-7.877107, 41.806152]], [[-7.881537, 41.757702], [-7.877766, 41.768405], [-7.865628, 41.774439], [-7.853618, 41.773238], [-7.844714, 41.766345], [-7.843193, 41.757323], [-7.85408, 41.747292], [-7.86613, 41.745984], [-7.878042, 41.752546], [-7.881537, 41.757702]]], [[[-8.337588, 41.510778], [-8.349586, 41.509383], [-8.361629, 41.503252], [-8.369423, 41.4912], [-8.36959, 41.482194], [-8.361972, 41.46832], [-8.35007, 41.460939], [-8.338115, 41.459043], [-8.326116, 41.461503], [-8.314055, 41.469742], [-8.307636, 41.481838], [-8.308263, 41.490849], [-8.313695, 41.499889], [-8.325633, 41.508084], [-8.337588, 41.510778]], [[-8.351102, 41.482091], [-8.351416, 41.4911], [-8.349753, 41.49269], [-8.337754, 41.494473], [-8.3324, 41.490991], [-8.332972, 41.481987], [-8.337913, 41.478923], [-8.351102, 41.482091]]], [[[-8.317387, 41.336503], [-8.309138, 41.346734], [-8.303872, 41.364718], [-8.305407, 41.382742], [-8.308921, 41.391771], [-8.314787, 41.400122], [-8.326648, 41.410019], [-8.338556, 41.415645], [-8.350501, 41.417756], [-8.37445, 41.415986], [-8.386453, 41.412017], [-8.404953, 41.401315], [-8.414006, 41.392354], [-8.419518, 41.383374], [-8.422152, 41.37438], [-8.420942, 41.356359], [-8.416676, 41.347329], [-8.409064, 41.338283], [-8.399168, 41.330613], [-8.386029, 41.324367], [-8.380382, 41.331254], [-8.375305, 41.33104], [-8.37201, 41.328346], [-8.361563, 41.329718], [-8.358276, 41.329049], [-8.357673, 41.327249], [-8.350207, 41.327264], [-8.346032, 41.328847], [-8.342462, 41.333131], [-8.333215, 41.336299], [-8.326363, 41.342163], [-8.324568, 41.341041], [-8.323376, 41.341943], [-8.317387, 41.336503]], [[-8.374601, 41.400205], [-8.362621, 41.402017], [-8.350669, 41.400825], [-8.338751, 41.396354], [-8.332622, 41.391911], [-8.325551, 41.382862], [-8.323003, 41.373839], [-8.323997, 41.364838], [-8.32874, 41.355858], [-8.339253, 41.346814], [-8.351253, 41.342107], [-8.363217, 41.340933], [-8.375152, 41.342636], [-8.38563, 41.347168], [-8.396298, 41.356232], [-8.400941, 41.365264], [-8.401603, 41.374275], [-8.398402, 41.383266], [-8.390586, 41.392232], [-8.374601, 41.400205]]]]}}, {"id": "7", "type": "Feature", "properties": {"fill": "#245ede", "value_min": 2.0, "value_max": 2.25}, "geometry": {"type": "Polygon", "coordinates": [[[-7.945994, 41.839373], [-7.948733, 41.842956], [-7.953858, 41.839445], [-7.948828, 41.837197], [-7.945994, 41.839373]]]}}]}