{"type": "FeatureCollection", "features": [{"id": "5", "type": "Feature", "properties": {"fill": "#a3a3a3", "value_min": 0.0, "value_max": 0.25}, "geometry": {"type": "MultiPolygon", "coordinates": [[[[-8.227437, 41.704019], [-8.231833, 41.69753], [-8.230255, 41.688512], [-8.227655, 41.685773], [-8.215712, 41.679785], [-8.20369, 41.680438], [-8.192153, 41.68825], [-8.189794, 41.697241], [-8.196097, 41.706292], [-8.203318, 41.710553], [-8.215333, 41.710993], [-8.225151, 41.706492], [-8.227437, 41.704019]]], [[[-8.395785, 41.695388], [-8.427695, 41.680658], [-8.434174, 41.671683], [-8.433091, 41.66267], [-8.427156, 41.653634], [-8.396422, 41.627212], [-8.384476, 41.621041], [-8.372497, 41.618466], [-8.360498, 41.618089], [-8.348477, 41.61978], [-8.336427, 41.624324], [-8.321793, 41.635046], [-8.315219, 41.644014], [-8.311419, 41.662006], [-8.313098, 41.671023], [-8.317359, 41.680055], [-8.325682, 41.689112], [-8.335688, 41.696304], [-8.34765, 41.701859], [-8.359647, 41.704036], [-8.371674, 41.703183], [-8.395785, 41.695388]], [[-8.383778, 41.694233], [-8.371747, 41.695716], [-8.359742, 41.694431], [-8.347777, 41.68926], [-8.337589, 41.680174], [-8.332876, 41.671139], [-8.331838, 41.662126], [-8.334482, 41.653134], [-8.340901, 41.644164], [-8.348288, 41.638604], [-8.360344, 41.633625], [-8.372366, 41.631937], [-8.384358, 41.633397], [-8.396323, 41.637822], [-8.416062, 41.653578], [-8.421126, 41.662611], [-8.421183, 41.671618], [-8.414782, 41.680593], [-8.398083, 41.689514], [-8.383778, 41.694233]]], [[[-8.119367, 41.696582], [-8.119073, 41.696721], [-8.119363, 41.696879], [-8.119494, 41.696724], [-8.119367, 41.696582]]], [[[-8.045969, 41.660109], [-8.042576, 41.651073], [-8.036004, 41.645639], [-8.024046, 41.642337], [-8.012007, 41.644404], [-8.003627, 41.650742], [-8.000862, 41.659725], [-8.005089, 41.668769], [-8.011563, 41.673447], [-8.023531, 41.676446], [-8.035579, 41.674147], [-8.042178, 41.669084], [-8.045969, 41.660109]], [[-8.021291, 41.659901], [-8.023812, 41.657818], [-8.026813, 41.659948], [-8.023751, 41.661881], [-8.021291, 41.659901]]], [[[-8.685219, 41.487158], [-8.688664, 41.4835], [-8.689569, 41.474495], [-8.681479, 41.465465], [-8.673364, 41.462367], [-8.661388, 41.462784], [-8.656002, 41.465392], [-8.649365, 41.471687], [-8.647795, 41.474375], [-8.649009, 41.483386], [-8.661235, 41.492136], [-8.67321, 41.493075], [-8.685219, 41.487158]]], [[[-8.445623, 41.489108], [-8.449922, 41.482606], [-8.45044, 41.473601], [-8.445829, 41.46495], [-8.433922, 41.457119], [-8.421962, 41.455645], [-8.409966, 41.458164], [-8.402082, 41.464353], [-8.396895, 41.473333], [-8.396358, 41.482338], [-8.400386, 41.491366], [-8.409604, 41.498002], [-8.421564, 41.500324], [-8.433565, 41.498091], [-8.445623, 41.489108]], [[-8.42169, 41.486154], [-8.417718, 41.482448], [-8.421774, 41.476747], [-8.433716, 41.480731], [-8.433692, 41.483515], [-8.42169, 41.486154]]], [[[-8.145174, 41.374742], [-8.15078, 41.390712], [-8.166317, 41.408841], [-8.182949, 41.419809], [-8.206778, 41.428328], [-8.218723, 41.430243], [-8.242671, 41.429288], [-8.266679, 41.422913], [-8.290719, 41.413201], [-8.302715, 41.410387], [-8.314679, 41.410457], [-8.350522, 41.41557], [-8.374464, 41.41456], [-8.38646, 41.411254], [-8.404234, 41.401311], [-8.412787, 41.392348], [-8.417931, 41.383366], [-8.420243, 41.37437], [-8.41818, 41.356345], [-8.413451, 41.347313], [-8.399148, 41.332702], [-8.386032, 41.325148], [-8.380382, 41.331254], [-8.375305, 41.33104], [-8.37201, 41.328346], [-8.361563, 41.329718], [-8.358276, 41.329049], [-8.357673, 41.327249], [-8.350207, 41.327264], [-8.346032, 41.328847], [-8.342462, 41.333131], [-8.333215, 41.336299], [-8.326363, 41.342163], [-8.324568, 41.341041], [-8.323376, 41.341943], [-8.320676, 41.338121], [-8.312604, 41.334983], [-8.313794, 41.333405], [-8.31139, 41.328007], [-8.307502, 41.325762], [-8.305116, 41.326891], [-8.303024, 41.325994], [-8.303615, 41.323742], [-8.301216, 41.319694], [-8.296431, 41.316774], [-8.297023, 41.314633], [-8.288063, 41.313369], [-8.284488, 41.316341], [-8.281801, 41.316569], [-8.281808, 41.319721], [-8.278828, 41.321976], [-8.278238, 41.325128], [-8.273161, 41.325134], [-8.269582, 41.326939], [-8.265709, 41.331221], [-8.269004, 41.336169], [-8.263339, 41.340902], [-8.262751, 41.345405], [-8.256483, 41.347663], [-8.249625, 41.354304], [-8.250221, 41.354647], [-8.250223, 41.354648], [-8.250612, 41.354872], [-8.250821, 41.354992], [-8.260804, 41.364449], [-8.264467, 41.37348], [-8.264358, 41.382487], [-8.260528, 41.39147], [-8.251143, 41.400417], [-8.242955, 41.404824], [-8.230954, 41.407998], [-8.218987, 41.408226], [-8.207055, 41.405609], [-8.196189, 41.400046], [-8.187224, 41.390975], [-8.183577, 41.381942], [-8.183592, 41.376081], [-8.168382, 41.377438], [-8.1642, 41.38059], [-8.152544, 41.375866], [-8.151049, 41.37339], [-8.145174, 41.374742]], [[-8.362736, 41.390244], [-8.350795, 41.388173], [-8.342409, 41.382959], [-8.337742, 41.373925], [-8.340431, 41.364933], [-8.351103, 41.357202], [-8.363075, 41.355437], [-8.374995, 41.359066], [-8.381714, 41.365162], [-8.38441, 41.374184], [-8.379912, 41.383168], [-8.374728, 41.386939], [-8.362736, 41.390244]]], [[[-8.647224, 41.185633], [-8.646836, 41.195133], [-8.650788, 41.205919], [-8.656256, 41.213178], [-8.662655, 41.217774], [-8.674559, 41.222928], [-8.686482, 41.224528], [-8.698416, 41.223849], [-8.710361, 41.220704], [-8.724343, 41.213361], [-8.732929, 41.204373], [-8.737182, 41.195375], [-8.737997, 41.186369], [-8.735548, 41.177355], [-8.729129, 41.168333], [-8.722536, 41.162769], [-8.710641, 41.157065], [-8.698734, 41.154553], [-8.686815, 41.154591], [-8.674884, 41.157215], [-8.662935, 41.163036], [-8.654393, 41.17142], [-8.655366, 41.175467], [-8.649073, 41.180223], [-8.647689, 41.184273], [-8.647224, 41.185633]], [[-8.68657, 41.206141], [-8.682377, 41.204245], [-8.678543, 41.195226], [-8.686654, 41.188395], [-8.698568, 41.190796], [-8.702098, 41.19529], [-8.699227, 41.20429], [-8.68657, 41.206141]]]]}}, {"id": "6", "type": "Feature", "properties": {"fill": "#a3a3a3", "value_min": 0.25, "value_max": 0.5}, "geometry": {"type": "MultiPolygon", "coordinates": [[[[-7.962083, 41.762135], [-7.963788, 41.758474], [-7.962184, 41.755866], [-7.956342, 41.749399], [-7.950308, 41.74651], [-7.938259, 41.747878], [-7.929442, 41.758159], [-7.933259, 41.767201], [-7.937894, 41.770011], [-7.949909, 41.770979], [-7.959174, 41.767439], [-7.962083, 41.762135]]], [[[-8.082209, 41.549176], [-8.09733, 41.553485], [-8.109312, 41.554152], [-8.121321, 41.552863], [-8.133358, 41.549416], [-8.146258, 41.543804], [-8.157506, 41.536524], [-8.169544, 41.532611], [-8.181485, 41.53626], [-8.231953, 41.562423], [-8.247152, 41.571531], [-8.254096, 41.580583], [-8.255722, 41.589601], [-8.251876, 41.607591], [-8.243062, 41.625547], [-8.235523, 41.634504], [-8.22277, 41.643426], [-8.191948, 41.65865], [-8.175164, 41.670116], [-8.167279, 41.679066], [-8.164367, 41.688052], [-8.173068, 41.715136], [-8.172047, 41.724135], [-8.158752, 41.733046], [-8.150041, 41.741989], [-8.150247, 41.750997], [-8.154636, 41.756414], [-8.166591, 41.762084], [-8.178625, 41.761761], [-8.190729, 41.755926], [-8.204189, 41.742377], [-8.227122, 41.730311], [-8.2635, 41.70353], [-8.275578, 41.698251], [-8.287602, 41.697674], [-8.299592, 41.700307], [-8.335487, 41.715797], [-8.347473, 41.719337], [-8.359498, 41.718982], [-8.407798, 41.695883], [-8.459738, 41.680813], [-8.465791, 41.671834], [-8.462081, 41.662809], [-8.448645, 41.653739], [-8.432278, 41.645245], [-8.421252, 41.63559], [-8.414917, 41.62655], [-8.408563, 41.612309], [-8.396703, 41.597065], [-8.345517, 41.563126], [-8.336094, 41.554064], [-8.308169, 41.508863], [-8.302497, 41.490814], [-8.303538, 41.481813], [-8.308908, 41.472838], [-8.314064, 41.468845], [-8.326099, 41.46311], [-8.33809, 41.461478], [-8.350045, 41.463404], [-8.361949, 41.470643], [-8.368322, 41.482187], [-8.369793, 41.509217], [-8.373492, 41.515514], [-8.385438, 41.519646], [-8.397425, 41.519336], [-8.421434, 41.514916], [-8.43346, 41.510205], [-8.445503, 41.503187], [-8.465776, 41.482681], [-8.477773, 41.464721], [-8.487847, 41.437744], [-8.495425, 41.401747], [-8.495855, 41.383734], [-8.49218, 41.356695], [-8.487065, 41.338657], [-8.474373, 41.311577], [-8.459255, 41.289879], [-8.438304, 41.265225], [-8.438023, 41.268989], [-8.434745, 41.269673], [-8.432691, 41.277107], [-8.427032, 41.279372], [-8.429143, 41.284319], [-8.426171, 41.287028], [-8.426488, 41.291079], [-8.425013, 41.294909], [-8.422037, 41.296942], [-8.422647, 41.299867], [-8.407744, 41.304856], [-8.406262, 41.307335], [-8.403277, 41.307342], [-8.401801, 41.311398], [-8.399712, 41.311628], [-8.400316, 41.313202], [-8.396738, 41.314336], [-8.398835, 41.316131], [-8.393775, 41.31997], [-8.393489, 41.323122], [-8.391105, 41.324253], [-8.386325, 41.323588], [-8.386032, 41.325148], [-8.399148, 41.332702], [-8.413451, 41.347313], [-8.41818, 41.356345], [-8.420243, 41.37437], [-8.417931, 41.383366], [-8.412787, 41.392348], [-8.404234, 41.401311], [-8.38646, 41.411254], [-8.374464, 41.41456], [-8.350522, 41.41557], [-8.314679, 41.410457], [-8.302715, 41.410387], [-8.290719, 41.413201], [-8.266679, 41.422913], [-8.242671, 41.429288], [-8.218723, 41.430243], [-8.206778, 41.428328], [-8.182949, 41.419809], [-8.166317, 41.408841], [-8.15078, 41.390712], [-8.145174, 41.374742], [-8.139694, 41.377894], [-8.133418, 41.374292], [-8.119074, 41.377218], [-8.119672, 41.378569], [-8.116683, 41.380144], [-8.117578, 41.386447], [-8.113992, 41.386896], [-8.112795, 41.390723], [-8.110105, 41.390947], [-8.108011, 41.393648], [-8.103827, 41.392972], [-8.105321, 41.394998], [-8.10263, 41.396123], [-8.10801, 41.398825], [-8.108606, 41.403102], [-8.104419, 41.406252], [-8.104119, 41.408728], [-8.101727, 41.409403], [-8.102025, 41.411204], [-8.092756, 41.411201], [-8.09126, 41.414352], [-8.079893, 41.41975], [-8.077503, 41.416597], [-8.070325, 41.41862], [-8.065543, 41.416141], [-8.061354, 41.418671], [-8.075883, 41.426165], [-8.122831, 41.441015], [-8.146616, 41.452895], [-8.158215, 41.462826], [-8.164732, 41.471881], [-8.167739, 41.48091], [-8.167971, 41.48992], [-8.165402, 41.498908], [-8.157883, 41.507389], [-8.145883, 41.508737], [-8.098041, 41.502323], [-8.08372, 41.502001], [-8.093, 41.504613], [-8.089398, 41.519242], [-8.090594, 41.522169], [-8.093588, 41.52307], [-8.091786, 41.531848], [-8.097775, 41.536127], [-8.097774, 41.537927], [-8.106759, 41.543557], [-8.101666, 41.542655], [-8.094175, 41.544904], [-8.087885, 41.542876], [-8.083389, 41.5449], [-8.082209, 41.549176]], [[-8.227437, 41.704019], [-8.225151, 41.706492], [-8.215333, 41.710993], [-8.203318, 41.710553], [-8.196097, 41.706292], [-8.189794, 41.697241], [-8.192153, 41.68825], [-8.20369, 41.680438], [-8.215712, 41.679785], [-8.227655, 41.685773], [-8.230255, 41.688512], [-8.231833, 41.69753], [-8.227437, 41.704019]], [[-8.395785, 41.695388], [-8.371674, 41.703183], [-8.359647, 41.704036], [-8.34765, 41.701859], [-8.335688, 41.696304], [-8.325682, 41.689112], [-8.317359, 41.680055], [-8.313098, 41.671023], [-8.311419, 41.662006], [-8.315219, 41.644014], [-8.321793, 41.635046], [-8.336427, 41.624324], [-8.348477, 41.61978], [-8.360498, 41.618089], [-8.372497, 41.618466], [-8.384476, 41.621041], [-8.396422, 41.627212], [-8.427156, 41.653634], [-8.433091, 41.66267], [-8.434174, 41.671683], [-8.427695, 41.680658], [-8.395785, 41.695388]], [[-8.445623, 41.489108], [-8.433565, 41.498091], [-8.421564, 41.500324], [-8.409604, 41.498002], [-8.400386, 41.491366], [-8.396358, 41.482338], [-8.396895, 41.473333], [-8.402082, 41.464353], [-8.409966, 41.458164], [-8.421962, 41.455645], [-8.433922, 41.457119], [-8.445829, 41.46495], [-8.45044, 41.473601], [-8.449922, 41.482606], [-8.445623, 41.489108]]], [[[-8.438251, 41.265162], [-8.438251, 41.265162], [-8.43806, 41.264938], [-8.438251, 41.265162]]], [[[-8.288063, 41.313369], [-8.297023, 41.314633], [-8.296116, 41.310022], [-8.288063, 41.313369]]], [[[-8.082962, 41.721368], [-8.119172, 41.710897], [-8.131368, 41.697847], [-8.134404, 41.696837], [-8.138018, 41.687857], [-8.13159, 41.681281], [-8.119617, 41.678248], [-8.10757, 41.680612], [-8.095426, 41.689859], [-8.083387, 41.691456], [-8.077667, 41.687389], [-8.07021, 41.678322], [-8.069257, 41.6603], [-8.064387, 41.651253], [-8.055665, 41.642175], [-8.036261, 41.628391], [-8.02432, 41.624182], [-8.012343, 41.62239], [-8.00031, 41.62425], [-7.988207, 41.630592], [-7.979544, 41.641524], [-7.97709, 41.650509], [-7.977425, 41.659519], [-7.980551, 41.668554], [-7.987722, 41.677625], [-7.999354, 41.686075], [-8.023192, 41.69886], [-8.035468, 41.714063], [-8.046893, 41.721551], [-8.058862, 41.725181], [-8.070887, 41.725008], [-8.082962, 41.721368]], [[-8.119367, 41.696582], [-8.119494, 41.696724], [-8.119363, 41.696879], [-8.119073, 41.696721], [-8.119367, 41.696582]], [[-8.045969, 41.660109], [-8.042178, 41.669084], [-8.035579, 41.674147], [-8.023531, 41.676446], [-8.011563, 41.673447], [-8.005089, 41.668769], [-8.000862, 41.659725], [-8.003627, 41.650742], [-8.012007, 41.644404], [-8.024046, 41.642337], [-8.036004, 41.645639], [-8.042576, 41.651073], [-8.045969, 41.660109]]], [[[-8.708912, 41.5464], [-8.732924, 41.538565], [-8.744941, 41.531241], [-8.756553, 41.519694], [-8.762034, 41.510698], [-8.764967, 41.501696], [-8.764736, 41.483681], [-8.756292, 41.465648], [-8.748751, 41.456625], [-8.733308, 41.444921], [-8.721357, 41.438546], [-8.697459, 41.430997], [-8.673534, 41.428564], [-8.661563, 41.429035], [-8.637603, 41.433293], [-8.624484, 41.438271], [-8.611415, 41.447235], [-8.604639, 41.45622], [-8.599464, 41.474217], [-8.601256, 41.501245], [-8.599163, 41.519253], [-8.599967, 41.528263], [-8.605971, 41.537291], [-8.613013, 41.542969], [-8.621688, 41.546351], [-8.636957, 41.549045], [-8.684919, 41.548998], [-8.708912, 41.5464]], [[-8.685219, 41.487158], [-8.67321, 41.493075], [-8.661235, 41.492136], [-8.649009, 41.483386], [-8.647795, 41.474375], [-8.649365, 41.471687], [-8.656002, 41.465392], [-8.661388, 41.462784], [-8.673364, 41.462367], [-8.681479, 41.465465], [-8.689569, 41.474495], [-8.688664, 41.4835], [-8.685219, 41.487158]]], [[[-8.606889, 41.1696], [-8.619558, 41.204054], [-8.632113, 41.222111], [-8.638745, 41.226963], [-8.650647, 41.232485], [-8.662565, 41.235256], [-8.674492, 41.236398], [-8.698364, 41.235206], [-8.717943, 41.231361], [-8.742594, 41.222411], [-8.757985, 41.213436], [-8.769423, 41.204452], [-8.778218, 41.195461], [-8.789177, 41.177466], [-8.793498, 41.159458], [-8.792809, 41.144214], [-8.67527, 41.147484], [-8.676193, 41.146567], [-8.674793, 41.146932], [-8.674204, 41.147693], [-8.674849, 41.153767], [-8.672489, 41.15648], [-8.66117, 41.156307], [-8.662078, 41.158104], [-8.660313, 41.160813], [-8.657033, 41.160378], [-8.654961, 41.161963], [-8.653222, 41.168049], [-8.654393, 41.17142], [-8.662935, 41.163036], [-8.674884, 41.157215], [-8.686815, 41.154591], [-8.698734, 41.154553], [-8.710641, 41.157065], [-8.722536, 41.162769], [-8.729129, 41.168333], [-8.735548, 41.177355], [-8.737997, 41.186369], [-8.737182, 41.195375], [-8.732929, 41.204373], [-8.724343, 41.213361], [-8.710361, 41.220704], [-8.698416, 41.223849], [-8.686482, 41.224528], [-8.674559, 41.222928], [-8.662655, 41.217774], [-8.656256, 41.213178], [-8.650788, 41.205919], [-8.646836, 41.195133], [-8.647224, 41.185633], [-8.641225, 41.196014], [-8.638841, 41.196025], [-8.638231, 41.194227], [-8.634946, 41.193341], [-8.632526, 41.188624], [-8.625658, 41.186628], [-8.621132, 41.178994], [-8.613374, 41.177451], [-8.608583, 41.174095], [-8.609164, 41.172066], [-8.606889, 41.1696]]], [[[-8.606586, 41.168475], [-8.606586, 41.168475], [-8.60676, 41.16912], [-8.606586, 41.168475]]], [[[-8.647689, 41.184273], [-8.647689, 41.184273], [-8.649073, 41.180223], [-8.647689, 41.184273]]]]}}, {"id": "4", "type": "Feature", "properties": {"fill": "#a3a3a3", "value_min": -0.25, "value_max": 0.0}, "geometry": {"type": "MultiPolygon", "coordinates": [[[[-8.383778, 41.694233], [-8.398083, 41.689514], [-8.414782, 41.680593], [-8.421183, 41.671618], [-8.421126, 41.662611], [-8.416062, 41.653578], [-8.396323, 41.637822], [-8.384358, 41.633397], [-8.372366, 41.631937], [-8.360344, 41.633625], [-8.348288, 41.638604], [-8.340901, 41.644164], [-8.334482, 41.653134], [-8.331838, 41.662126], [-8.332876, 41.671139], [-8.337589, 41.680174], [-8.347777, 41.68926], [-8.359742, 41.694431], [-8.371747, 41.695716], [-8.383778, 41.694233]], [[-8.370863, 41.689368], [-8.359823, 41.68628], [-8.35099, 41.68025], [-8.345319, 41.671211], [-8.34465, 41.6622], [-8.34887, 41.653217], [-8.360215, 41.644273], [-8.372282, 41.640677], [-8.384285, 41.641058], [-8.396253, 41.645368], [-8.407129, 41.653532], [-8.413, 41.662569], [-8.412761, 41.671575], [-8.405121, 41.680543], [-8.395877, 41.685605], [-8.383827, 41.689143], [-8.370863, 41.689368]]], [[[-8.021291, 41.659901], [-8.023751, 41.661881], [-8.026813, 41.659948], [-8.023812, 41.657818], [-8.021291, 41.659901]]], [[[-8.42169, 41.486154], [-8.433692, 41.483515], [-8.433716, 41.480731], [-8.421774, 41.476747], [-8.417718, 41.482448], [-8.42169, 41.486154]]], [[[-8.183592, 41.376081], [-8.183577, 41.381942], [-8.187224, 41.390975], [-8.196189, 41.400046], [-8.207055, 41.405609], [-8.218987, 41.408226], [-8.230954, 41.407998], [-8.242955, 41.404824], [-8.251143, 41.400417], [-8.260528, 41.39147], [-8.264358, 41.382487], [-8.264467, 41.37348], [-8.260804, 41.364449], [-8.250821, 41.354992], [-8.249635, 41.359825], [-8.248141, 41.360052], [-8.248448, 41.364328], [-8.245461, 41.364781], [-8.244272, 41.368384], [-8.239197, 41.371315], [-8.232024, 41.369971], [-8.224854, 41.370878], [-8.21738, 41.368182], [-8.214399, 41.373587], [-8.208127, 41.376968], [-8.199163, 41.377423], [-8.194976, 41.374275], [-8.191691, 41.376302], [-8.183592, 41.376081]], [[-8.219263, 41.385151], [-8.216198, 41.382169], [-8.219368, 41.3764], [-8.231291, 41.379429], [-8.232458, 41.382279], [-8.231241, 41.383689], [-8.219263, 41.385151]]], [[[-8.250612, 41.354872], [-8.250612, 41.354872], [-8.250223, 41.354648], [-8.250612, 41.354872]]], [[[-8.250221, 41.354647], [-8.250221, 41.354647], [-8.249625, 41.354304], [-8.250221, 41.354647]]], [[[-8.362736, 41.390244], [-8.374728, 41.386939], [-8.379912, 41.383168], [-8.38441, 41.374184], [-8.381714, 41.365162], [-8.374995, 41.359066], [-8.363075, 41.355437], [-8.351103, 41.357202], [-8.340431, 41.364933], [-8.337742, 41.373925], [-8.342409, 41.382959], [-8.350795, 41.388173], [-8.362736, 41.390244]]], [[[-8.68657, 41.206141], [-8.699227, 41.20429], [-8.702098, 41.19529], [-8.698568, 41.190796], [-8.686654, 41.188395], [-8.678543, 41.195226], [-8.682377, 41.204245], [-8.68657, 41.206141]]]]}}, {"id": "3", "type": "Feature", "properties": {"fill": "#a3a3a3", "value_min": -0.5, "value_max": -0.25}, "geometry": {"type": "MultiPolygon", "coordinates": [[[[-8.370863, 41.689368], [-8.383827, 41.689143], [-8.395877, 41.685605], [-8.405121, 41.680543], [-8.412761, 41.671575], [-8.413, 41.662569], [-8.407129, 41.653532], [-8.396253, 41.645368], [-8.384285, 41.641058], [-8.372282, 41.640677], [-8.360215, 41.644273], [-8.34887, 41.653217], [-8.34465, 41.6622], [-8.345319, 41.671211], [-8.35099, 41.68025], [-8.359823, 41.68628], [-8.370863, 41.689368]], [[-8.383871, 41.684565], [-8.37186, 41.684085], [-8.363011, 41.680317], [-8.354889, 41.671265], [-8.35446, 41.662255], [-8.360143, 41.653929], [-8.372213, 41.647793], [-8.384225, 41.647349], [-8.396193, 41.651692], [-8.40553, 41.662531], [-8.405181, 41.671536], [-8.396452, 41.680498], [-8.383871, 41.684565]]], [[[-8.219263, 41.385151], [-8.231241, 41.383689], [-8.232458, 41.382279], [-8.231291, 41.379429], [-8.219368, 41.3764], [-8.216198, 41.382169], [-8.219263, 41.385151]]]]}}, {"id": "2", "type": "Feature", "properties": {"fill": "#a3a3a3", "value_min": -0.75, "value_max": -0.5}, "geometry": {"type": "Polygon", "coordinates": [[[-8.383871, 41.684565], [-8.396452, 41.680498], [-8.405181, 41.671536], [-8.40553, 41.662531], [-8.396193, 41.651692], [-8.384225, 41.647349], [-8.372213, 41.647793], [-8.360143, 41.653929], [-8.35446, 41.662255], [-8.354889, 41.671265], [-8.363011, 41.680317], [-8.37186, 41.684085], [-8.383871, 41.684565]], [[-8.383916, 41.679818], [-8.371919, 41.677964], [-8.363944, 41.671315], [-8.363619, 41.662307], [-8.372146, 41.654626], [-8.384172, 41.652984], [-8.396121, 41.659454], [-8.398609, 41.662495], [-8.398254, 41.6715], [-8.383916, 41.679818]]]}}, {"id": "1", "type": "Feature", "properties": {"fill": "#a3a3a3", "value_min": -1.0, "value_max": -0.75}, "geometry": {"type": "Polygon", "coordinates": [[[-8.383916, 41.679818], [-8.398254, 41.6715], [-8.398609, 41.662495], [-8.396121, 41.659454], [-8.384172, 41.652984], [-8.372146, 41.654626], [-8.363619, 41.662307], [-8.363944, 41.671315], [-8.371919, 41.677964], [-8.383916, 41.679818]], [[-8.37522, 41.671377], [-8.374579, 41.662367], [-8.384105, 41.659962], [-8.388317, 41.662441], [-8.387916, 41.671446], [-8.383976, 41.673494], [-8.37522, 41.671377]]]}}, {"id": "0", "type": "Feature", "properties": {"fill": "#b6a27f", "value_min": -1.25, "value_max": -1.0}, "geometry": {"type": "Polygon", "coordinates": [[[-8.37522, 41.671377], [-8.383976, 41.673494], [-8.387916, 41.671446], [-8.388317, 41.662441], [-8.384105, 41.659962], [-8.374579, 41.662367], [-8.37522, 41.671377]]]}}, {"id": "10", "type": "Feature", "properties": {"fill": "#71a5e5", "value_min": 1.25, "value_max": 1.5}, "geometry": {"type": "MultiPolygon", "coordinates": [[[[-7.804967, 41.714609], [-7.811703, 41.757001], [-7.814999, 41.766042], [-7.821099, 41.775112], [-7.8294, 41.781734], [-7.841349, 41.786418], [-7.85336, 41.78769], [-7.865413, 41.786687], [-7.877502, 41.783547], [-7.889688, 41.774698], [-7.894375, 41.766833], [-7.895777, 41.75784], [-7.893435, 41.748811], [-7.890209, 41.7445], [-7.872629, 41.730595], [-7.870762, 41.721569], [-7.876834, 41.703615], [-7.876579, 41.694606], [-7.870698, 41.685967], [-7.868896, 41.686413], [-7.867984, 41.683485], [-7.867718, 41.683259], [-7.864403, 41.683701], [-7.864096, 41.685276], [-7.860493, 41.685268], [-7.857773, 41.689538], [-7.854776, 41.68818], [-7.848445, 41.693987], [-7.855034, 41.69357], [-7.866512, 41.703514], [-7.863717, 41.712493], [-7.854567, 41.719889], [-7.842552, 41.719463], [-7.833779, 41.712193], [-7.833632, 41.710185], [-7.825252, 41.708813], [-7.818621, 41.713522], [-7.815291, 41.718689], [-7.808986, 41.717996], [-7.808396, 41.715744], [-7.804967, 41.714609]], [[-7.853534, 41.777952], [-7.841591, 41.772949], [-7.834352, 41.76624], [-7.831976, 41.757209], [-7.834842, 41.748231], [-7.842156, 41.741516], [-7.854253, 41.737535], [-7.866242, 41.739595], [-7.878181, 41.744588], [-7.882879, 41.748709], [-7.887102, 41.757756], [-7.885036, 41.766743], [-7.877669, 41.773938], [-7.865561, 41.778284], [-7.853534, 41.777952]]], [[[-7.837309, 41.699441], [-7.837309, 41.699441], [-7.837365, 41.699391], [-7.837309, 41.699441]]], [[[-7.837611, 41.699172], [-7.837611, 41.699172], [-7.837616, 41.699167], [-7.837611, 41.699172]]], [[[-8.757692, 41.32609], [-8.764235, 41.321543], [-8.77208, 41.312551], [-8.775902, 41.303551], [-8.776374, 41.294544], [-8.773568, 41.285531], [-8.769802, 41.280529], [-8.757899, 41.270236], [-8.74598, 41.265001], [-8.734052, 41.262415], [-8.722117, 41.261684], [-8.698225, 41.265335], [-8.686261, 41.270609], [-8.67813, 41.276296], [-8.671279, 41.285284], [-8.668886, 41.294285], [-8.670258, 41.303297], [-8.675468, 41.312319], [-8.686014, 41.32223], [-8.697932, 41.328946], [-8.709864, 41.332954], [-8.721807, 41.334646], [-8.73376, 41.334205], [-8.745722, 41.331526], [-8.757692, 41.32609]], [[-8.721864, 41.321285], [-8.70992, 41.320213], [-8.697994, 41.315532], [-8.686148, 41.303341], [-8.684534, 41.294329], [-8.687989, 41.285331], [-8.698173, 41.276582], [-8.710131, 41.272752], [-8.722073, 41.272122], [-8.738618, 41.276449], [-8.749742, 41.285481], [-8.753302, 41.294497], [-8.752092, 41.303502], [-8.745534, 41.312496], [-8.733822, 41.318956], [-8.721864, 41.321285]]]]}}, {"id": "11", "type": "Feature", "properties": {"fill": "#5093f6", "value_min": 1.5, "value_max": 1.75}, "geometry": {"type": "MultiPolygon", "coordinates": [[[[-7.853534, 41.777952], [-7.865561, 41.778284], [-7.877669, 41.773938], [-7.885036, 41.766743], [-7.887102, 41.757756], [-7.882879, 41.748709], [-7.878181, 41.744588], [-7.866242, 41.739595], [-7.854253, 41.737535], [-7.842156, 41.741516], [-7.834842, 41.748231], [-7.831976, 41.757209], [-7.834352, 41.76624], [-7.841591, 41.772949], [-7.853534, 41.777952]], [[-7.853681, 41.769679], [-7.84848, 41.766383], [-7.845056, 41.757341], [-7.854072, 41.74769], [-7.86612, 41.746503], [-7.877999, 41.75502], [-7.879588, 41.757683], [-7.877863, 41.762839], [-7.875649, 41.766652], [-7.865682, 41.771385], [-7.853681, 41.769679]]], [[[-7.833632, 41.710185], [-7.833779, 41.712193], [-7.842552, 41.719463], [-7.854567, 41.719889], [-7.863717, 41.712493], [-7.866512, 41.703514], [-7.855034, 41.69357], [-7.848445, 41.693987], [-7.837616, 41.699167], [-7.837611, 41.699172], [-7.837365, 41.699391], [-7.837309, 41.699441], [-7.835792, 41.702763], [-7.839679, 41.706599], [-7.838465, 41.709522], [-7.833632, 41.710185]]], [[[-8.721864, 41.321285], [-8.733822, 41.318956], [-8.745534, 41.312496], [-8.752092, 41.303502], [-8.753302, 41.294497], [-8.749742, 41.285481], [-8.738618, 41.276449], [-8.722073, 41.272122], [-8.710131, 41.272752], [-8.698173, 41.276582], [-8.687989, 41.285331], [-8.684534, 41.294329], [-8.686148, 41.303341], [-8.697994, 41.315532], [-8.70992, 41.320213], [-8.721864, 41.321285]], [[-8.709985, 41.305675], [-8.706346, 41.303394], [-8.702621, 41.294377], [-8.710072, 41.286028], [-8.722016, 41.285484], [-8.730977, 41.294447], [-8.726987, 41.303445], [-8.721929, 41.306087], [-8.709985, 41.305675]]]]}}, {"id": "7", "type": "Feature", "properties": {"fill": "#a3a3a3", "value_min": 0.5, "value_max": 0.75}, "geometry": {"type": "MultiPolygon", "coordinates": [[[[-8.447215, 41.704057], [-8.453868, 41.697961], [-8.453255, 41.695487], [-8.461659, 41.694563], [-8.482012, 41.682123], [-8.484371, 41.674238], [-8.49308, 41.674886], [-8.499963, 41.671038], [-8.50927, 41.671233], [-8.51018, 41.672806], [-8.511967, 41.670324], [-8.509856, 41.668755], [-8.522103, 41.658811], [-8.525706, 41.659023], [-8.527769, 41.652714], [-8.534066, 41.652017], [-8.537355, 41.64998], [-8.537634, 41.646602], [-8.543876, 41.637352], [-8.543855, 41.633976], [-8.536342, 41.631977], [-8.535128, 41.62973], [-8.543431, 41.61462], [-8.554533, 41.615255], [-8.557244, 41.617046], [-8.562639, 41.61635], [-8.568056, 41.619031], [-8.570735, 41.616095], [-8.577321, 41.614269], [-8.581231, 41.615829], [-8.585766, 41.620988], [-8.591462, 41.620515], [-8.596534, 41.616668], [-8.601628, 41.615972], [-8.603996, 41.611686], [-8.613256, 41.606696], [-8.619881, 41.610269], [-8.621338, 41.604636], [-8.628833, 41.604378], [-8.636302, 41.600744], [-8.64075, 41.594422], [-8.645536, 41.593051], [-8.646744, 41.594171], [-8.649125, 41.591909], [-8.656622, 41.5921], [-8.660788, 41.588255], [-8.663794, 41.589141], [-8.665265, 41.585758], [-8.66948, 41.587989], [-8.684455, 41.586117], [-8.685608, 41.58071], [-8.697261, 41.576376], [-8.701703, 41.570277], [-8.707704, 41.570923], [-8.712485, 41.569323], [-8.716422, 41.573805], [-8.720316, 41.57356], [-8.725151, 41.577811], [-8.726633, 41.576003], [-8.734424, 41.575737], [-8.736564, 41.580228], [-8.738354, 41.579318], [-8.740778, 41.582006], [-8.74467, 41.581535], [-8.750711, 41.58623], [-8.756374, 41.582823], [-8.75635, 41.580347], [-8.762327, 41.578514], [-8.764443, 41.580303], [-8.767441, 41.580286], [-8.769874, 41.583874], [-8.768997, 41.58613], [-8.773228, 41.589482], [-8.775371, 41.593972], [-8.78556, 41.593464], [-8.797327, 41.600599], [-8.804218, 41.600109], [-8.80456, 41.604158], [-8.809434, 41.611332], [-8.828644, 41.609656], [-8.82839, 41.585633], [-8.818497, 41.554794], [-8.8221, 41.547542], [-8.821965, 41.534907], [-8.815926, 41.525624], [-8.81063, 41.5101], [-8.813279, 41.503483], [-8.812636, 41.496944], [-8.804699, 41.482068], [-8.798552, 41.474753], [-8.80154, 41.446836], [-8.806115, 41.43713], [-8.807354, 41.425915], [-8.811166, 41.417099], [-8.809112, 41.383377], [-8.781387, 41.387149], [-8.745505, 41.387255], [-8.709641, 41.383203], [-8.661856, 41.372676], [-8.649904, 41.371474], [-8.63794, 41.372695], [-8.625994, 41.370499], [-8.619665, 41.366195], [-8.615245, 41.357172], [-8.614911, 41.348163], [-8.604546, 41.321105], [-8.601471, 41.303079], [-8.605441, 41.285077], [-8.611288, 41.276089], [-8.620892, 41.267114], [-8.638314, 41.258162], [-8.674457, 41.249262], [-8.746086, 41.237571], [-8.781901, 41.233005], [-8.803153, 41.232129], [-8.799695, 41.14406], [-8.792809, 41.144214], [-8.793498, 41.159458], [-8.789177, 41.177466], [-8.778218, 41.195461], [-8.769423, 41.204452], [-8.757985, 41.213436], [-8.742594, 41.222411], [-8.717943, 41.231361], [-8.698364, 41.235206], [-8.674492, 41.236398], [-8.662565, 41.235256], [-8.650647, 41.232485], [-8.638745, 41.226963], [-8.632113, 41.222111], [-8.619558, 41.204054], [-8.606889, 41.1696], [-8.60676, 41.16912], [-8.606586, 41.168475], [-8.604942, 41.164881], [-8.602852, 41.164214], [-8.59422, 41.165149], [-8.589174, 41.167645], [-8.589194, 41.170572], [-8.583263, 41.174422], [-8.582094, 41.177803], [-8.578825, 41.178941], [-8.581296, 41.191762], [-8.575958, 41.195609], [-8.576894, 41.201908], [-8.574515, 41.202593], [-8.57423, 41.20462], [-8.567971, 41.204644], [-8.565895, 41.206227], [-8.567697, 41.208246], [-8.566512, 41.209376], [-8.559636, 41.206251], [-8.554271, 41.20627], [-8.549521, 41.209214], [-8.544157, 41.209458], [-8.54238, 41.211265], [-8.532257, 41.213102], [-8.52713, 41.203215], [-8.523236, 41.200077], [-8.51163, 41.203042], [-8.510456, 41.206197], [-8.505693, 41.207113], [-8.504239, 41.213646], [-8.500076, 41.21546], [-8.50308, 41.219502], [-8.502204, 41.222656], [-8.495642, 41.222227], [-8.495947, 41.223351], [-8.490894, 41.226294], [-8.487935, 41.230354], [-8.490331, 41.232373], [-8.489156, 41.235528], [-8.486181, 41.236888], [-8.484411, 41.240495], [-8.476346, 41.237818], [-8.475756, 41.23917], [-8.470986, 41.23941], [-8.471604, 41.243459], [-8.469227, 41.245267], [-8.463258, 41.244384], [-8.459989, 41.246644], [-8.455512, 41.245982], [-8.455541, 41.251834], [-8.452276, 41.25522], [-8.449891, 41.255452], [-8.449304, 41.257479], [-8.447812, 41.257258], [-8.449028, 41.261982], [-8.443657, 41.261771], [-8.43806, 41.264938], [-8.438251, 41.265162], [-8.438304, 41.265225], [-8.459255, 41.289879], [-8.474373, 41.311577], [-8.487065, 41.338657], [-8.49218, 41.356695], [-8.495855, 41.383734], [-8.495425, 41.401747], [-8.487847, 41.437744], [-8.477773, 41.464721], [-8.465776, 41.482681], [-8.445503, 41.503187], [-8.43346, 41.510205], [-8.421434, 41.514916], [-8.397425, 41.519336], [-8.385438, 41.519646], [-8.373492, 41.515514], [-8.369793, 41.509217], [-8.368322, 41.482187], [-8.361949, 41.470643], [-8.350045, 41.463404], [-8.33809, 41.461478], [-8.326099, 41.46311], [-8.314064, 41.468845], [-8.308908, 41.472838], [-8.303538, 41.481813], [-8.302497, 41.490814], [-8.308169, 41.508863], [-8.336094, 41.554064], [-8.345517, 41.563126], [-8.396703, 41.597065], [-8.408563, 41.612309], [-8.414917, 41.62655], [-8.421252, 41.63559], [-8.432278, 41.645245], [-8.448645, 41.653739], [-8.462081, 41.662809], [-8.465791, 41.671834], [-8.459738, 41.680813], [-8.407798, 41.695883], [-8.359498, 41.718982], [-8.347473, 41.719337], [-8.335487, 41.715797], [-8.299592, 41.700307], [-8.287602, 41.697674], [-8.275578, 41.698251], [-8.2635, 41.70353], [-8.227122, 41.730311], [-8.204189, 41.742377], [-8.190729, 41.755926], [-8.178625, 41.761761], [-8.166591, 41.762084], [-8.154636, 41.756414], [-8.150247, 41.750997], [-8.150041, 41.741989], [-8.158752, 41.733046], [-8.172047, 41.724135], [-8.173068, 41.715136], [-8.164367, 41.688052], [-8.167279, 41.679066], [-8.175164, 41.670116], [-8.191948, 41.65865], [-8.22277, 41.643426], [-8.235523, 41.634504], [-8.243062, 41.625547], [-8.251876, 41.607591], [-8.255722, 41.589601], [-8.254096, 41.580583], [-8.247152, 41.571531], [-8.231953, 41.562423], [-8.181485, 41.53626], [-8.169544, 41.532611], [-8.157506, 41.536524], [-8.146258, 41.543804], [-8.133358, 41.549416], [-8.121321, 41.552863], [-8.109312, 41.554152], [-8.09733, 41.553485], [-8.082209, 41.549176], [-8.079788, 41.551876], [-8.074396, 41.549848], [-8.072897, 41.551197], [-8.076188, 41.557276], [-8.080082, 41.558854], [-8.081576, 41.565157], [-8.078879, 41.56493], [-8.075279, 41.568305], [-8.073182, 41.568079], [-8.069283, 41.570553], [-8.068081, 41.573478], [-8.056684, 41.579549], [-8.052181, 41.584498], [-8.052777, 41.587649], [-8.048277, 41.590122], [-8.047974, 41.592373], [-8.031467, 41.602938], [-8.02367, 41.603156], [-8.019174, 41.601802], [-8.015872, 41.603824], [-8.013474, 41.603372], [-8.005971, 41.60629], [-8.003562, 41.611239], [-7.998761, 41.612809], [-7.999669, 41.608759], [-7.996976, 41.605829], [-7.996684, 41.602003], [-7.984685, 41.603564], [-7.982292, 41.60086], [-7.975689, 41.603552], [-7.974482, 41.606701], [-7.970882, 41.607147], [-7.969091, 41.603768], [-7.965796, 41.602413], [-7.9541, 41.602846], [-7.952606, 41.600592], [-7.947808, 41.60081], [-7.945413, 41.599456], [-7.942725, 41.595625], [-7.936733, 41.594264], [-7.93791, 41.601694], [-7.937004, 41.603718], [-7.931604, 41.604384], [-7.930073, 41.614735], [-7.925556, 41.620354], [-7.920755, 41.620796], [-7.91624, 41.625633], [-7.951278, 41.686868], [-7.963025, 41.703602], [-7.974939, 41.710216], [-7.99898, 41.710184], [-8.010968, 41.712251], [-8.02291, 41.717474], [-8.039221, 41.732109], [-8.043098, 41.741148], [-8.043351, 41.750157], [-8.040581, 41.759141], [-8.034141, 41.770254], [-8.027595, 41.777045], [-8.024766, 41.786028], [-8.028354, 41.795065], [-8.046774, 41.822757], [-8.057314, 41.815656], [-8.06664, 41.817012], [-8.072961, 41.813414], [-8.078678, 41.813417], [-8.082892, 41.810493], [-8.091013, 41.812521], [-8.093421, 41.811397], [-8.093723, 41.808471], [-8.101845, 41.809824], [-8.104853, 41.81185], [-8.115984, 41.812302], [-8.123807, 41.808702], [-8.138247, 41.808477], [-8.139751, 41.813203], [-8.14276, 41.812978], [-8.144866, 41.815228], [-8.149078, 41.814777], [-8.153291, 41.817703], [-8.158106, 41.818377], [-8.165326, 41.81815], [-8.173744, 41.808019], [-8.177655, 41.808242], [-8.183676, 41.812741], [-8.190291, 41.809587], [-8.197158, 41.814129], [-8.201063, 41.808724], [-8.204973, 41.807372], [-8.205872, 41.804445], [-8.213692, 41.803765], [-8.217598, 41.80016], [-8.217589, 41.793634], [-8.224207, 41.794303], [-8.229917, 41.791598], [-8.240744, 41.791588], [-8.24074, 41.789338], [-8.244347, 41.787984], [-8.245546, 41.785731], [-8.251257, 41.784375], [-8.251845, 41.777172], [-8.254338, 41.776269], [-8.249567, 41.769703], [-8.246433, 41.760675], [-8.24641, 41.751668], [-8.249772, 41.742683], [-8.256823, 41.733722], [-8.263211, 41.728831], [-8.275297, 41.72326], [-8.28734, 41.721425], [-8.299346, 41.722945], [-8.311317, 41.727736], [-8.32097, 41.734119], [-8.329549, 41.743176], [-8.333613, 41.752207], [-8.334084, 41.763057], [-8.336653, 41.763728], [-8.341756, 41.761468], [-8.344765, 41.762363], [-8.349267, 41.760103], [-8.352557, 41.755145], [-8.349814, 41.744122], [-8.352516, 41.743441], [-8.352203, 41.739616], [-8.357897, 41.735103], [-8.362407, 41.735994], [-8.368703, 41.73193], [-8.374122, 41.734845], [-8.383517, 41.730998], [-8.383622, 41.725465], [-8.387154, 41.716477], [-8.396189, 41.707518], [-8.407742, 41.702026], [-8.419787, 41.699004], [-8.431805, 41.699111], [-8.447215, 41.704057]], [[-8.082962, 41.721368], [-8.070887, 41.725008], [-8.058862, 41.725181], [-8.046893, 41.721551], [-8.035468, 41.714063], [-8.023192, 41.69886], [-7.999354, 41.686075], [-7.987722, 41.677625], [-7.980551, 41.668554], [-7.977425, 41.659519], [-7.97709, 41.650509], [-7.979544, 41.641524], [-7.988207, 41.630592], [-8.00031, 41.62425], [-8.012343, 41.62239], [-8.02432, 41.624182], [-8.036261, 41.628391], [-8.055665, 41.642175], [-8.064387, 41.651253], [-8.069257, 41.6603], [-8.07021, 41.678322], [-8.077667, 41.687389], [-8.083387, 41.691456], [-8.095426, 41.689859], [-8.10757, 41.680612], [-8.119617, 41.678248], [-8.13159, 41.681281], [-8.138018, 41.687857], [-8.134404, 41.696837], [-8.131368, 41.697847], [-8.119172, 41.710897], [-8.082962, 41.721368]], [[-8.131115, 41.716627], [-8.129607, 41.714815], [-8.131227, 41.708302], [-8.14316, 41.71487], [-8.131115, 41.716627]], [[-8.144017, 41.650243], [-8.131991, 41.651453], [-8.120025, 41.648297], [-8.1081, 41.642253], [-8.084152, 41.637488], [-8.072219, 41.632358], [-8.0623, 41.624215], [-8.056943, 41.615164], [-8.056351, 41.606152], [-8.061348, 41.597186], [-8.072828, 41.589861], [-8.084861, 41.587389], [-8.096853, 41.58772], [-8.108813, 41.590461], [-8.120736, 41.595992], [-8.144548, 41.610052], [-8.156422, 41.619824], [-8.159797, 41.624969], [-8.161101, 41.633985], [-8.156358, 41.642958], [-8.144017, 41.650243]], [[-8.442395, 41.626687], [-8.444466, 41.624279], [-8.448381, 41.626716], [-8.44443, 41.628578], [-8.442395, 41.626687]], [[-8.540569, 41.614677], [-8.528556, 41.616076], [-8.516559, 41.61538], [-8.504578, 41.61257], [-8.492617, 41.607259], [-8.481892, 41.59985], [-8.472828, 41.590802], [-8.456943, 41.567995], [-8.445005, 41.561388], [-8.437092, 41.554603], [-8.43314, 41.546872], [-8.435912, 41.536583], [-8.445686, 41.527623], [-8.464064, 41.500688], [-8.469526, 41.49596], [-8.481551, 41.490347], [-8.49354, 41.489162], [-8.504039, 41.49186], [-8.517971, 41.500926], [-8.524711, 41.509962], [-8.531705, 41.528005], [-8.553036, 41.54736], [-8.566716, 41.564172], [-8.570729, 41.573194], [-8.572077, 41.582207], [-8.570625, 41.591208], [-8.565464, 41.600196], [-8.554621, 41.609162], [-8.540569, 41.614677]], [[-8.708912, 41.5464], [-8.684919, 41.548998], [-8.636957, 41.549045], [-8.621688, 41.546351], [-8.613013, 41.542969], [-8.605971, 41.537291], [-8.599967, 41.528263], [-8.599163, 41.519253], [-8.601256, 41.501245], [-8.599464, 41.474217], [-8.604639, 41.45622], [-8.611415, 41.447235], [-8.624484, 41.438271], [-8.637603, 41.433293], [-8.661563, 41.429035], [-8.673534, 41.428564], [-8.697459, 41.430997], [-8.721357, 41.438546], [-8.733308, 41.444921], [-8.748751, 41.456625], [-8.756292, 41.465648], [-8.764736, 41.483681], [-8.764967, 41.501696], [-8.762034, 41.510698], [-8.756553, 41.519694], [-8.744941, 41.531241], [-8.732924, 41.538565], [-8.708912, 41.5464]]], [[[-8.08372, 41.502001], [-8.098041, 41.502323], [-8.145883, 41.508737], [-8.157883, 41.507389], [-8.165402, 41.498908], [-8.167971, 41.48992], [-8.167739, 41.48091], [-8.164732, 41.471881], [-8.158215, 41.462826], [-8.146616, 41.452895], [-8.122831, 41.441015], [-8.075883, 41.426165], [-8.061354, 41.418671], [-8.059852, 41.424916], [-8.055959, 41.429415], [-8.05745, 41.432793], [-8.056549, 41.436394], [-8.069999, 41.447206], [-8.068788, 41.462286], [-8.073872, 41.46499], [-8.074468, 41.468141], [-8.073564, 41.474668], [-8.066374, 41.482318], [-8.066069, 41.48817], [-8.072054, 41.490199], [-8.072348, 41.495601], [-8.078333, 41.49898], [-8.078332, 41.500331], [-8.08372, 41.502001]]], [[[-7.728498, 41.810729], [-7.744636, 41.808917], [-7.756794, 41.80273], [-7.764252, 41.792528], [-7.765471, 41.783534], [-7.762209, 41.774492], [-7.75745, 41.768758], [-7.742338, 41.760675], [-7.739912, 41.764148], [-7.726937, 41.771755], [-7.7254, 41.777152], [-7.727191, 41.779184], [-7.724177, 41.780299], [-7.725372, 41.781653], [-7.722296, 41.792446], [-7.728879, 41.797871], [-7.72705, 41.801691], [-7.728498, 41.810729]]], [[[-7.985787, 41.78471], [-7.996436, 41.776777], [-7.994332, 41.767752], [-7.974461, 41.740276], [-7.962639, 41.727649], [-7.950622, 41.727259], [-7.938515, 41.7323], [-7.926347, 41.740983], [-7.920282, 41.749066], [-7.917525, 41.758047], [-7.918419, 41.767062], [-7.925717, 41.778744], [-7.937687, 41.78256], [-7.97372, 41.786801], [-7.985787, 41.78471]], [[-7.962083, 41.762135], [-7.959174, 41.767439], [-7.949909, 41.770979], [-7.937894, 41.770011], [-7.933259, 41.767201], [-7.929442, 41.758159], [-7.938259, 41.747878], [-7.950308, 41.74651], [-7.956342, 41.749399], [-7.962184, 41.755866], [-7.963788, 41.758474], [-7.962083, 41.762135]]]]}}, {"id": "12", "type": "Feature", "properties": {"fill": "#3171ee", "value_min": 1.75, "value_max": 2.0}, "geometry": {"type": "MultiPolygon", "coordinates": [[[[-7.853681, 41.769679], [-7.865682, 41.771385], [-7.875649, 41.766652], [-7.877863, 41.762839], [-7.879588, 41.757683], [-7.877999, 41.75502], [-7.86612, 41.746503], [-7.854072, 41.74769], [-7.845056, 41.757341], [-7.84848, 41.766383], [-7.853681, 41.769679]], [[-7.858934, 41.75748], [-7.865971, 41.754988], [-7.869096, 41.757581], [-7.865843, 41.762245], [-7.858934, 41.75748]]], [[[-8.709985, 41.305675], [-8.721929, 41.306087], [-8.726987, 41.303445], [-8.730977, 41.294447], [-8.722016, 41.285484], [-8.710072, 41.286028], [-8.702621, 41.294377], [-8.706346, 41.303394], [-8.709985, 41.305675]]]]}}, {"id": "9", "type": "Feature", "properties": {"fill": "#90a4bc", "value_min": 1.0, "value_max": 1.25}, "geometry": {"type": "MultiPolygon", "coordinates": [[[[-7.965169, 41.839547], [-7.96092, 41.834188], [-7.948951, 41.82964], [-7.936814, 41.835369], [-7.932977, 41.839253], [-7.935781, 41.848286], [-7.948563, 41.853357], [-7.960666, 41.849912], [-7.965169, 41.839547]]], [[[-7.763245, 41.731814], [-7.781739, 41.756727], [-7.804979, 41.800802], [-7.816801, 41.812491], [-7.828723, 41.818905], [-7.840709, 41.821902], [-7.859614, 41.820534], [-7.865041, 41.811581], [-7.877028, 41.810682], [-7.889164, 41.805042], [-7.900627, 41.784907], [-7.903671, 41.775929], [-7.905909, 41.757937], [-7.904924, 41.739914], [-7.902389, 41.735449], [-7.897082, 41.730832], [-7.890496, 41.727825], [-7.88536, 41.721712], [-7.886006, 41.712711], [-7.890888, 41.704997], [-7.901345, 41.694845], [-7.901261, 41.685837], [-7.896893, 41.676789], [-7.890863, 41.669805], [-7.883969, 41.67069], [-7.879755, 41.673607], [-7.877044, 41.676077], [-7.876723, 41.681253], [-7.873702, 41.685973], [-7.870698, 41.685967], [-7.876579, 41.694606], [-7.876834, 41.703615], [-7.870762, 41.721569], [-7.872629, 41.730595], [-7.890209, 41.7445], [-7.893435, 41.748811], [-7.895777, 41.75784], [-7.894375, 41.766833], [-7.889688, 41.774698], [-7.877502, 41.783547], [-7.865413, 41.786687], [-7.85336, 41.78769], [-7.841349, 41.786418], [-7.8294, 41.781734], [-7.821099, 41.775112], [-7.814999, 41.766042], [-7.811703, 41.757001], [-7.804967, 41.714609], [-7.79939, 41.714593], [-7.79788, 41.716164], [-7.796383, 41.71526], [-7.790966, 41.717044], [-7.789449, 41.719966], [-7.78464, 41.720402], [-7.78252, 41.723546], [-7.776204, 41.724652], [-7.773786, 41.727346], [-7.770798, 41.72441], [-7.765698, 41.723044], [-7.761765, 41.727758], [-7.763245, 41.731814]]], [[[-7.867718, 41.683259], [-7.867718, 41.683259], [-7.867984, 41.683485], [-7.867718, 41.683259]]], [[[-8.297159, 41.75749], [-8.297255, 41.757432], [-8.297536, 41.757264], [-8.301868, 41.752019], [-8.299132, 41.742635], [-8.287158, 41.737888], [-8.275101, 41.740695], [-8.272441, 41.742829], [-8.269961, 41.75182], [-8.274896, 41.758881], [-8.283137, 41.761484], [-8.284931, 41.757507], [-8.287033, 41.756829], [-8.297159, 41.75749]]], [[[-8.022591, 41.738535], [-8.023606, 41.731977], [-8.01078, 41.724565], [-7.998684, 41.72925], [-7.996356, 41.731742], [-7.999189, 41.740774], [-8.010458, 41.745517], [-8.021629, 41.740967], [-8.022591, 41.738535]]], [[[-8.434691, 41.715569], [-8.423104, 41.707656], [-8.41611, 41.707621], [-8.407662, 41.710705], [-8.401922, 41.716555], [-8.403205, 41.726002], [-8.404721, 41.722847], [-8.417349, 41.725067], [-8.41974, 41.722135], [-8.429643, 41.719859], [-8.430533, 41.717381], [-8.434691, 41.715569]]], [[[-8.084491, 41.613504], [-8.082931, 41.615374], [-8.084439, 41.617219], [-8.093591, 41.615459], [-8.084491, 41.613504]]], [[[-8.534941, 41.573055], [-8.528923, 41.565734], [-8.516952, 41.562631], [-8.50491, 41.569094], [-8.502231, 41.572918], [-8.504367, 41.581935], [-8.516766, 41.587621], [-8.528782, 41.585121], [-8.532656, 41.582053], [-8.534941, 41.573055]]], [[[-8.481416, 41.507243], [-8.477857, 41.509759], [-8.481338, 41.517014], [-8.489035, 41.509809], [-8.481416, 41.507243]]], [[[-8.804993, 41.278902], [-8.794593, 41.267555], [-8.781812, 41.259974], [-8.76989, 41.255556], [-8.746032, 41.251545], [-8.722159, 41.251768], [-8.686521, 41.258303], [-8.666315, 41.267254], [-8.655728, 41.276231], [-8.650555, 41.285223], [-8.648348, 41.294224], [-8.649672, 41.303236], [-8.65371, 41.312256], [-8.672255, 41.330326], [-8.697854, 41.345712], [-8.721732, 41.35225], [-8.74564, 41.352592], [-8.769567, 41.347138], [-8.781539, 41.341818], [-8.793517, 41.333697], [-8.806532, 41.317959], [-8.804993, 41.278902]], [[-8.757692, 41.32609], [-8.745722, 41.331526], [-8.73376, 41.334205], [-8.721807, 41.334646], [-8.709864, 41.332954], [-8.697932, 41.328946], [-8.686014, 41.32223], [-8.675468, 41.312319], [-8.670258, 41.303297], [-8.668886, 41.294285], [-8.671279, 41.285284], [-8.67813, 41.276296], [-8.686261, 41.270609], [-8.698225, 41.265335], [-8.722117, 41.261684], [-8.734052, 41.262415], [-8.74598, 41.265001], [-8.757899, 41.270236], [-8.769802, 41.280529], [-8.773568, 41.285531], [-8.776374, 41.294544], [-8.775902, 41.303551], [-8.77208, 41.312551], [-8.764235, 41.321543], [-8.757692, 41.32609]]]]}}, {"id": "8", "type": "Feature", "properties": {"fill": "#a3a3a3", "value_min": 0.75, "value_max": 1.0}, "geometry": {"type": "MultiPolygon", "coordinates": [[[[-8.046774, 41.822757], [-8.028354, 41.795065], [-8.024766, 41.786028], [-8.027595, 41.777045], [-8.034141, 41.770254], [-8.040581, 41.759141], [-8.043351, 41.750157], [-8.043098, 41.741148], [-8.039221, 41.732109], [-8.02291, 41.717474], [-8.010968, 41.712251], [-7.99898, 41.710184], [-7.974939, 41.710216], [-7.963025, 41.703602], [-7.951278, 41.686868], [-7.91624, 41.625633], [-7.915933, 41.627764], [-7.913229, 41.628885], [-7.912613, 41.63361], [-7.906014, 41.633147], [-7.906884, 41.641927], [-7.897869, 41.645511], [-7.89696, 41.647985], [-7.892759, 41.647976], [-7.892145, 41.651576], [-7.900827, 41.657446], [-7.902319, 41.66015], [-7.899913, 41.66127], [-7.900198, 41.665547], [-7.898396, 41.665769], [-7.897186, 41.668467], [-7.890863, 41.669805], [-7.896893, 41.676789], [-7.901261, 41.685837], [-7.901345, 41.694845], [-7.890888, 41.704997], [-7.886006, 41.712711], [-7.88536, 41.721712], [-7.890496, 41.727825], [-7.897082, 41.730832], [-7.902389, 41.735449], [-7.904924, 41.739914], [-7.905909, 41.757937], [-7.903671, 41.775929], [-7.900627, 41.784907], [-7.889164, 41.805042], [-7.877028, 41.810682], [-7.865041, 41.811581], [-7.859614, 41.820534], [-7.840709, 41.821902], [-7.828723, 41.818905], [-7.816801, 41.812491], [-7.804979, 41.800802], [-7.781739, 41.756727], [-7.763245, 41.731814], [-7.759597, 41.739005], [-7.75689, 41.739446], [-7.758687, 41.740577], [-7.757758, 41.745301], [-7.748417, 41.749321], [-7.747786, 41.754496], [-7.743866, 41.756509], [-7.742338, 41.760675], [-7.75745, 41.768758], [-7.762209, 41.774492], [-7.765471, 41.783534], [-7.764252, 41.792528], [-7.756794, 41.80273], [-7.744636, 41.808917], [-7.728498, 41.810729], [-7.728761, 41.816776], [-7.732041, 41.821514], [-7.74345, 41.825605], [-7.738918, 41.82874], [-7.742196, 41.833928], [-7.74729, 41.837772], [-7.746349, 41.84407], [-7.750246, 41.846784], [-7.750532, 41.849261], [-7.743309, 41.849012], [-7.746901, 41.8524], [-7.746881, 41.855776], [-7.73843, 41.859348], [-7.734159, 41.868337], [-7.730228, 41.871024], [-7.729293, 41.875972], [-7.722351, 41.878424], [-7.720523, 41.881793], [-7.725335, 41.882935], [-7.726208, 41.887665], [-7.737044, 41.888828], [-7.737935, 41.890857], [-7.74246, 41.889747], [-7.742785, 41.885922], [-7.756022, 41.888441], [-7.758719, 41.890926], [-7.756592, 41.89407], [-7.758076, 41.897901], [-7.763193, 41.898593], [-7.779227, 41.886264], [-7.785257, 41.885157], [-7.788886, 41.882467], [-7.794007, 41.882257], [-7.796739, 41.878214], [-7.794349, 41.87438], [-7.797064, 41.873488], [-7.803381, 41.874857], [-7.804914, 41.869459], [-7.813032, 41.871958], [-7.814229, 41.873537], [-7.823863, 41.874013], [-7.825059, 41.875817], [-7.830479, 41.875831], [-7.830789, 41.874031], [-7.832894, 41.874712], [-7.83772, 41.872924], [-7.842528, 41.875187], [-7.841663, 41.866632], [-7.849515, 41.861475], [-7.858542, 41.862622], [-7.859456, 41.860148], [-7.864877, 41.859711], [-7.87033, 41.851395], [-7.873043, 41.850501], [-7.873066, 41.844875], [-7.879056, 41.85254], [-7.886268, 41.855932], [-7.888076, 41.855486], [-7.891675, 41.859094], [-7.900698, 41.861588], [-7.904318, 41.859795], [-7.907309, 41.865203], [-7.906095, 41.868126], [-7.910299, 41.871285], [-7.909985, 41.875111], [-7.915391, 41.879397], [-7.921118, 41.877833], [-7.928044, 41.87807], [-7.935283, 41.874707], [-7.937389, 41.87516], [-7.941618, 41.870891], [-7.951254, 41.871132], [-7.956367, 41.87339], [-7.956362, 41.875191], [-7.960878, 41.875648], [-7.962086, 41.874074], [-7.973828, 41.875216], [-7.987996, 41.869157], [-7.990123, 41.860157], [-7.995547, 41.858138], [-7.994047, 41.855211], [-7.996162, 41.851837], [-8.003089, 41.850494], [-8.005804, 41.847346], [-8.007928, 41.838796], [-8.012753, 41.833624], [-8.013363, 41.829124], [-8.017873, 41.831379], [-8.02901, 41.829589], [-8.037134, 41.831171], [-8.041351, 41.828023], [-8.041054, 41.825097], [-8.045268, 41.824425], [-8.046774, 41.822757]], [[-7.965169, 41.839547], [-7.960666, 41.849912], [-7.948563, 41.853357], [-7.935781, 41.848286], [-7.932977, 41.839253], [-7.936814, 41.835369], [-7.948951, 41.82964], [-7.96092, 41.834188], [-7.965169, 41.839547]], [[-7.985787, 41.78471], [-7.97372, 41.786801], [-7.937687, 41.78256], [-7.925717, 41.778744], [-7.918419, 41.767062], [-7.917525, 41.758047], [-7.920282, 41.749066], [-7.926347, 41.740983], [-7.938515, 41.7323], [-7.950622, 41.727259], [-7.962639, 41.727649], [-7.974461, 41.740276], [-7.994332, 41.767752], [-7.996436, 41.776777], [-7.985787, 41.78471]], [[-8.022591, 41.738535], [-8.021629, 41.740967], [-8.010458, 41.745517], [-7.999189, 41.740774], [-7.996356, 41.731742], [-7.998684, 41.72925], [-8.01078, 41.724565], [-8.023606, 41.731977], [-8.022591, 41.738535]]], [[[-8.334084, 41.763057], [-8.333613, 41.752207], [-8.329549, 41.743176], [-8.32097, 41.734119], [-8.311317, 41.727736], [-8.299346, 41.722945], [-8.28734, 41.721425], [-8.275297, 41.72326], [-8.263211, 41.728831], [-8.256823, 41.733722], [-8.249772, 41.742683], [-8.24641, 41.751668], [-8.246433, 41.760675], [-8.249567, 41.769703], [-8.254338, 41.776269], [-8.257551, 41.773564], [-8.261762, 41.774235], [-8.271366, 41.766346], [-8.280681, 41.764083], [-8.283137, 41.761484], [-8.274896, 41.758881], [-8.269961, 41.75182], [-8.272441, 41.742829], [-8.275101, 41.740695], [-8.287158, 41.737888], [-8.299132, 41.742635], [-8.301868, 41.752019], [-8.297536, 41.757264], [-8.300866, 41.758835], [-8.30778, 41.758824], [-8.307785, 41.760625], [-8.311096, 41.762195], [-8.318308, 41.761283], [-8.325233, 41.765098], [-8.328234, 41.763292], [-8.330341, 41.764189], [-8.334084, 41.763057]]], [[[-8.297255, 41.757432], [-8.297255, 41.757432], [-8.297159, 41.75749], [-8.297255, 41.757432]]], [[[-8.447215, 41.704057], [-8.431805, 41.699111], [-8.419787, 41.699004], [-8.407742, 41.702026], [-8.396189, 41.707518], [-8.387154, 41.716477], [-8.383622, 41.725465], [-8.383517, 41.730998], [-8.385523, 41.730319], [-8.387332, 41.73189], [-8.393033, 41.729852], [-8.396942, 41.730518], [-8.403205, 41.726002], [-8.401922, 41.716555], [-8.407662, 41.710705], [-8.41611, 41.707621], [-8.423104, 41.707656], [-8.434691, 41.715569], [-8.441632, 41.713975], [-8.441618, 41.711049], [-8.447215, 41.704057]]], [[[-8.131115, 41.716627], [-8.14316, 41.71487], [-8.131227, 41.708302], [-8.129607, 41.714815], [-8.131115, 41.716627]]], [[[-8.144017, 41.650243], [-8.156358, 41.642958], [-8.161101, 41.633985], [-8.159797, 41.624969], [-8.156422, 41.619824], [-8.144548, 41.610052], [-8.120736, 41.595992], [-8.108813, 41.590461], [-8.096853, 41.58772], [-8.084861, 41.587389], [-8.072828, 41.589861], [-8.061348, 41.597186], [-8.056351, 41.606152], [-8.056943, 41.615164], [-8.0623, 41.624215], [-8.072219, 41.632358], [-8.084152, 41.637488], [-8.1081, 41.642253], [-8.120025, 41.648297], [-8.131991, 41.651453], [-8.144017, 41.650243]], [[-8.084491, 41.613504], [-8.093591, 41.615459], [-8.084439, 41.617219], [-8.082931, 41.615374], [-8.084491, 41.613504]]], [[[-8.442395, 41.626687], [-8.44443, 41.628578], [-8.448381, 41.626716], [-8.444466, 41.624279], [-8.442395, 41.626687]]], [[[-8.540569, 41.614677], [-8.554621, 41.609162], [-8.565464, 41.600196], [-8.570625, 41.591208], [-8.572077, 41.582207], [-8.570729, 41.573194], [-8.566716, 41.564172], [-8.553036, 41.54736], [-8.531705, 41.528005], [-8.524711, 41.509962], [-8.517971, 41.500926], [-8.504039, 41.49186], [-8.49354, 41.489162], [-8.481551, 41.490347], [-8.469526, 41.49596], [-8.464064, 41.500688], [-8.445686, 41.527623], [-8.435912, 41.536583], [-8.43314, 41.546872], [-8.437092, 41.554603], [-8.445005, 41.561388], [-8.456943, 41.567995], [-8.472828, 41.590802], [-8.481892, 41.59985], [-8.492617, 41.607259], [-8.504578, 41.61257], [-8.516559, 41.61538], [-8.528556, 41.616076], [-8.540569, 41.614677]], [[-8.534941, 41.573055], [-8.532656, 41.582053], [-8.528782, 41.585121], [-8.516766, 41.587621], [-8.504367, 41.581935], [-8.502231, 41.572918], [-8.50491, 41.569094], [-8.516952, 41.562631], [-8.528923, 41.565734], [-8.534941, 41.573055]], [[-8.481416, 41.507243], [-8.489035, 41.509809], [-8.481338, 41.517014], [-8.477857, 41.509759], [-8.481416, 41.507243]]], [[[-8.803153, 41.232129], [-8.781901, 41.233005], [-8.746086, 41.237571], [-8.674457, 41.249262], [-8.638314, 41.258162], [-8.620892, 41.267114], [-8.611288, 41.276089], [-8.605441, 41.285077], [-8.601471, 41.303079], [-8.604546, 41.321105], [-8.614911, 41.348163], [-8.615245, 41.357172], [-8.619665, 41.366195], [-8.625994, 41.370499], [-8.63794, 41.372695], [-8.649904, 41.371474], [-8.661856, 41.372676], [-8.709641, 41.383203], [-8.745505, 41.387255], [-8.781387, 41.387149], [-8.809112, 41.383377], [-8.806532, 41.317959], [-8.793517, 41.333697], [-8.781539, 41.341818], [-8.769567, 41.347138], [-8.74564, 41.352592], [-8.721732, 41.35225], [-8.697854, 41.345712], [-8.672255, 41.330326], [-8.65371, 41.312256], [-8.649672, 41.303236], [-8.648348, 41.294224], [-8.650555, 41.285223], [-8.655728, 41.276231], [-8.666315, 41.267254], [-8.686521, 41.258303], [-8.722159, 41.251768], [-8.746032, 41.251545], [-8.76989, 41.255556], [-8.781812, 41.259974], [-8.794593, 41.267555], [-8.804993, 41.278902], [-8.803153, 41.232129]]]]}}, {"id": "13", "type": "Feature", "properties": {"fill": "#245ede", "value_min": 2.0, "value_max": 2.25}, "geometry": {"type": "Polygon", "coordinates": [[[-7.858934, 41.75748], [-7.865843, 41.762245], [-7.869096, 41.757581], [-7.865971, 41.754988], [-7.858934, 41.75748]]]}}]}