{"type": "FeatureCollection", "features": [{"id": "2", "type": "Feature", "properties": {"fill": "#90a4bc", "value_min": 1.0, "value_max": -1.25}, "geometry": {"type": "MultiPolygon", "coordinates": [[[[-7.888806, 41.825759], [-7.893888, 41.82087], [-7.89752, 41.811898], [-7.892546, 41.802843], [-7.877247, 41.798116], [-7.865199, 41.798797], [-7.8553, 41.802478], [-7.847653, 41.811408], [-7.848702, 41.820426], [-7.852689, 41.825303], [-7.864618, 41.831669], [-7.876661, 41.831709], [-7.888806, 41.825759]]], [[[-7.973496, 41.800829], [-7.997779, 41.787423], [-8.009881, 41.783042], [-8.021944, 41.781114], [-8.046031, 41.779791], [-8.070083, 41.78078], [-8.082083, 41.783106], [-8.129986, 41.800223], [-8.154018, 41.803446], [-8.166066, 41.802636], [-8.178141, 41.799725], [-8.19025, 41.79401], [-8.202411, 41.783902], [-8.211494, 41.769448], [-8.216269, 41.751467], [-8.21594, 41.742457], [-8.212696, 41.733428], [-8.202691, 41.724352], [-8.17244, 41.706124], [-8.167391, 41.700227], [-8.155471, 41.692648], [-8.143412, 41.695816], [-8.131314, 41.701825], [-8.119103, 41.715931], [-8.106994, 41.722231], [-8.095069, 41.7153], [-8.091901, 41.705516], [-8.09605, 41.696542], [-8.107494, 41.686125], [-8.119615, 41.678379], [-8.131696, 41.673429], [-8.143722, 41.672454], [-8.155783, 41.668848], [-8.175603, 41.652105], [-8.181031, 41.643136], [-8.183325, 41.634145], [-8.180387, 41.623149], [-8.175807, 41.616078], [-8.168548, 41.610282], [-8.156605, 41.605766], [-8.1446, 41.606108], [-8.132543, 41.610307], [-8.120408, 41.620115], [-8.108177, 41.636617], [-8.09606, 41.644571], [-8.084034, 41.645801], [-8.072045, 41.644517], [-8.060097, 41.640348], [-8.036288, 41.626577], [-8.024358, 41.621611], [-8.012387, 41.619496], [-8.000356, 41.621282], [-7.988249, 41.627914], [-7.978166, 41.641512], [-7.975632, 41.650496], [-7.976518, 41.668518], [-7.982262, 41.69559], [-7.980595, 41.704582], [-7.971529, 41.722516], [-7.962843, 41.731444], [-7.93838, 41.740523], [-7.926207, 41.749389], [-7.921584, 41.758085], [-7.915284, 41.794053], [-7.920742, 41.803112], [-7.937269, 41.807849], [-7.949309, 41.807746], [-7.961383, 41.805523], [-7.973496, 41.800829]], [[-7.93805, 41.760564], [-7.938104, 41.757302], [-7.950161, 41.755575], [-7.953788, 41.758383], [-7.950014, 41.764574], [-7.93805, 41.760564]], [[-8.166639, 41.758413], [-8.153428, 41.751021], [-8.151614, 41.742], [-8.160911, 41.733062], [-8.166998, 41.730603], [-8.179001, 41.73225], [-8.188159, 41.742264], [-8.185744, 41.751254], [-8.178688, 41.756836], [-8.166639, 41.758413]], [[-8.08351, 41.682786], [-8.079131, 41.678393], [-8.083639, 41.673698], [-8.095646, 41.674118], [-8.09823, 41.678545], [-8.095542, 41.681562], [-8.08351, 41.682786]]], [[[-7.727318, 41.80693], [-7.744684, 41.806444], [-7.756799, 41.802475], [-7.76791, 41.792567], [-7.770372, 41.783587], [-7.768208, 41.774557], [-7.757578, 41.762106], [-7.744771, 41.755973], [-7.740214, 41.763924], [-7.726937, 41.771755], [-7.7254, 41.777152], [-7.727191, 41.779184], [-7.724177, 41.780299], [-7.725372, 41.781653], [-7.722296, 41.792446], [-7.728879, 41.797871], [-7.727318, 41.80693]], [[-7.732937, 41.791662], [-7.726533, 41.783109], [-7.733242, 41.776191], [-7.745228, 41.778573], [-7.748238, 41.783348], [-7.745024, 41.789034], [-7.732937, 41.791662]]], [[[-8.383753, 41.696897], [-8.403769, 41.689543], [-8.421082, 41.680625], [-8.429501, 41.67166], [-8.429747, 41.662654], [-8.424237, 41.653619], [-8.396402, 41.629304], [-8.384451, 41.623655], [-8.372474, 41.620858], [-8.360473, 41.620542], [-8.348452, 41.622339], [-8.336405, 41.626547], [-8.324325, 41.63376], [-8.314724, 41.644011], [-8.311398, 41.652998], [-8.310934, 41.662003], [-8.313308, 41.671024], [-8.318504, 41.680062], [-8.327972, 41.689125], [-8.345664, 41.698234], [-8.359678, 41.700872], [-8.371706, 41.699855], [-8.383753, 41.696897]], [[-8.383838, 41.688031], [-8.371817, 41.688503], [-8.359833, 41.685232], [-8.352042, 41.680256], [-8.34597, 41.671215], [-8.345129, 41.662203], [-8.34937, 41.65322], [-8.360233, 41.644808], [-8.372276, 41.641252], [-8.384279, 41.641682], [-8.396246, 41.646034], [-8.406075, 41.653527], [-8.411839, 41.662563], [-8.411236, 41.671567], [-8.403016, 41.680532], [-8.383838, 41.688031]]], [[[-8.078579, 41.565244], [-8.097132, 41.567716], [-8.121108, 41.568577], [-8.133123, 41.566994], [-8.145191, 41.561305], [-8.153537, 41.552865], [-8.160684, 41.534903], [-8.166349, 41.4809], [-8.164588, 41.462873], [-8.161483, 41.453843], [-8.146889, 41.432095], [-8.135042, 41.42288], [-8.123144, 41.417728], [-8.111226, 41.414263], [-8.092456, 41.413029], [-8.079893, 41.41975], [-8.077503, 41.416597], [-8.070923, 41.41862], [-8.068035, 41.416818], [-8.061354, 41.418819], [-8.059852, 41.424916], [-8.055959, 41.429415], [-8.05745, 41.432793], [-8.056549, 41.436394], [-8.069999, 41.447206], [-8.068788, 41.462286], [-8.073872, 41.46499], [-8.074468, 41.468141], [-8.073564, 41.474668], [-8.066374, 41.482318], [-8.066069, 41.48817], [-8.072054, 41.490199], [-8.07175, 41.494925], [-8.078333, 41.49898], [-8.078332, 41.500331], [-8.093, 41.504613], [-8.089398, 41.519242], [-8.090594, 41.522169], [-8.093588, 41.52307], [-8.091487, 41.531173], [-8.097775, 41.536127], [-8.097774, 41.537927], [-8.106759, 41.543106], [-8.10616, 41.543782], [-8.101666, 41.542655], [-8.094175, 41.544904], [-8.087885, 41.542876], [-8.083389, 41.5449], [-8.080687, 41.551651], [-8.074097, 41.549848], [-8.073494, 41.553449], [-8.075891, 41.554575], [-8.076188, 41.557276], [-8.079783, 41.558403], [-8.082177, 41.563131], [-8.081276, 41.565382], [-8.078579, 41.565244]], [[-8.100303, 41.525439], [-8.109722, 41.524294], [-8.110889, 41.525522], [-8.109675, 41.527661], [-8.100303, 41.525439]]], [[[-8.167199, 41.378789], [-8.172455, 41.39087], [-8.182888, 41.399952], [-8.195093, 41.405421], [-8.207022, 41.408276], [-8.218977, 41.409036], [-8.230958, 41.407681], [-8.250349, 41.400412], [-8.279146, 41.377714], [-8.291079, 41.380108], [-8.307954, 41.391765], [-8.325607, 41.400877], [-8.338659, 41.405446], [-8.362547, 41.409495], [-8.386486, 41.408526], [-8.398471, 41.406289], [-8.415326, 41.401368], [-8.446488, 41.3874], [-8.458472, 41.384557], [-8.470409, 41.38736], [-8.475686, 41.392651], [-8.482224, 41.405696], [-8.483785, 41.446733], [-8.485955, 41.45575], [-8.502314, 41.473837], [-8.517544, 41.482984], [-8.529486, 41.48801], [-8.541448, 41.490452], [-8.553425, 41.490881], [-8.565414, 41.489347], [-8.601428, 41.476968], [-8.613408, 41.476587], [-8.625353, 41.482191], [-8.640063, 41.492366], [-8.661181, 41.502523], [-8.673145, 41.506036], [-8.697099, 41.508308], [-8.709087, 41.50734], [-8.732882, 41.501626], [-8.798555, 41.474074], [-8.80154, 41.446836], [-8.806115, 41.43713], [-8.807354, 41.425915], [-8.811211, 41.415789], [-8.799695, 41.14406], [-8.674793, 41.146932], [-8.674849, 41.153767], [-8.672489, 41.15648], [-8.66117, 41.156307], [-8.662078, 41.158104], [-8.660313, 41.160813], [-8.657033, 41.160378], [-8.654961, 41.161963], [-8.653231, 41.169174], [-8.655366, 41.175467], [-8.647955, 41.180228], [-8.647696, 41.185181], [-8.640929, 41.196241], [-8.634946, 41.193341], [-8.632526, 41.188624], [-8.625658, 41.186628], [-8.621132, 41.178994], [-8.613374, 41.177451], [-8.608583, 41.174095], [-8.609164, 41.172066], [-8.604942, 41.164881], [-8.59422, 41.165149], [-8.589174, 41.167645], [-8.589194, 41.170572], [-8.586816, 41.171257], [-8.603146, 41.194655], [-8.609547, 41.213029], [-8.610619, 41.22204], [-8.607002, 41.240044], [-8.601332, 41.249032], [-8.590819, 41.259109], [-8.566861, 41.271725], [-8.530977, 41.280909], [-8.471194, 41.290462], [-8.447308, 41.290492], [-8.426409, 41.287027], [-8.425606, 41.294007], [-8.422037, 41.296942], [-8.421756, 41.30077], [-8.416982, 41.301232], [-8.407744, 41.304856], [-8.406262, 41.307335], [-8.403277, 41.307342], [-8.401801, 41.311398], [-8.399712, 41.311628], [-8.400316, 41.313202], [-8.396738, 41.314336], [-8.398835, 41.316131], [-8.393775, 41.31997], [-8.393489, 41.323122], [-8.391105, 41.324253], [-8.386325, 41.323588], [-8.380382, 41.331254], [-8.375305, 41.33104], [-8.37201, 41.328346], [-8.361563, 41.329718], [-8.358276, 41.329049], [-8.357673, 41.327249], [-8.350207, 41.327264], [-8.346032, 41.328847], [-8.342462, 41.333131], [-8.333215, 41.336299], [-8.326363, 41.342163], [-8.324568, 41.341041], [-8.323376, 41.341943], [-8.316788, 41.335876], [-8.313802, 41.336331], [-8.310792, 41.327557], [-8.308701, 41.327561], [-8.307502, 41.325762], [-8.305116, 41.326891], [-8.303024, 41.325994], [-8.303615, 41.323742], [-8.301216, 41.319694], [-8.296431, 41.316774], [-8.297618, 41.313846], [-8.296116, 41.310022], [-8.29045, 41.312517], [-8.281808, 41.319374], [-8.278828, 41.321976], [-8.278238, 41.325128], [-8.273767, 41.325133], [-8.27199, 41.326261], [-8.27128, 41.326712], [-8.271075, 41.326842], [-8.270924, 41.326938], [-8.269147, 41.328065], [-8.265709, 41.331221], [-8.269004, 41.336169], [-8.263339, 41.340902], [-8.262751, 41.345405], [-8.256483, 41.347663], [-8.255889, 41.349689], [-8.249622, 41.353072], [-8.251123, 41.356897], [-8.248141, 41.360052], [-8.248448, 41.364328], [-8.245461, 41.364781], [-8.244272, 41.368384], [-8.241287, 41.370413], [-8.224854, 41.370878], [-8.21738, 41.368182], [-8.214399, 41.373587], [-8.208127, 41.376968], [-8.199163, 41.377423], [-8.194677, 41.374275], [-8.191691, 41.376302], [-8.175853, 41.376309], [-8.173463, 41.377661], [-8.168382, 41.377438], [-8.167199, 41.378789]], [[-8.637893, 41.381098], [-8.625938, 41.38034], [-8.6139, 41.375183], [-8.606857, 41.366152], [-8.605828, 41.35714], [-8.61031, 41.348148], [-8.61419, 41.344522], [-8.626175, 41.338867], [-8.638133, 41.337795], [-8.650069, 41.3407], [-8.660222, 41.348306], [-8.664052, 41.357325], [-8.662385, 41.366328], [-8.654392, 41.375312], [-8.637893, 41.381098]], [[-8.72185, 41.32467], [-8.709902, 41.324441], [-8.697968, 41.321082], [-8.686059, 41.312818], [-8.680496, 41.303326], [-8.679666, 41.294316], [-8.682518, 41.285316], [-8.686215, 41.280236], [-8.6982, 41.270699], [-8.710158, 41.266655], [-8.7221, 41.265777], [-8.734029, 41.268077], [-8.745944, 41.27418], [-8.755339, 41.285494], [-8.757379, 41.294506], [-8.755651, 41.30351], [-8.749549, 41.312504], [-8.735259, 41.32148], [-8.72185, 41.32467]], [[-8.68652, 41.216579], [-8.674617, 41.21108], [-8.669281, 41.204208], [-8.66778, 41.195196], [-8.674754, 41.183558], [-8.686702, 41.178418], [-8.698624, 41.178508], [-8.713523, 41.186311], [-8.718076, 41.19533], [-8.716759, 41.204334], [-8.707948, 41.21332], [-8.698448, 41.216759], [-8.68652, 41.216579]]], [[[-8.445553, 41.497266], [-8.4551, 41.491638], [-8.462644, 41.482666], [-8.465087, 41.47367], [-8.462627, 41.464651], [-8.45784, 41.460555], [-8.445911, 41.455265], [-8.433946, 41.454339], [-8.421949, 41.457059], [-8.409901, 41.465312], [-8.405194, 41.473376], [-8.403843, 41.482377], [-8.407078, 41.491401], [-8.409634, 41.49471], [-8.421561, 41.500725], [-8.43354, 41.50101], [-8.445553, 41.497266]]]]}}, {"id": "1", "type": "Feature", "properties": {"fill": "#a3a3a3", "value_min": 0.75, "value_max": -1.0}, "geometry": {"type": "MultiPolygon", "coordinates": [[[[-7.732937, 41.791662], [-7.745024, 41.789034], [-7.748238, 41.783348], [-7.745228, 41.778573], [-7.733242, 41.776191], [-7.726533, 41.783109], [-7.732937, 41.791662]]], [[[-7.93805, 41.760564], [-7.950014, 41.764574], [-7.953788, 41.758383], [-7.950161, 41.755575], [-7.938104, 41.757302], [-7.93805, 41.760564]]], [[[-8.166639, 41.758413], [-8.178688, 41.756836], [-8.185744, 41.751254], [-8.188159, 41.742264], [-8.179001, 41.73225], [-8.166998, 41.730603], [-8.160911, 41.733062], [-8.151614, 41.742], [-8.153428, 41.751021], [-8.166639, 41.758413]]], [[[-8.383838, 41.688031], [-8.403016, 41.680532], [-8.411236, 41.671567], [-8.411839, 41.662563], [-8.406075, 41.653527], [-8.396246, 41.646034], [-8.384279, 41.641682], [-8.372276, 41.641252], [-8.360233, 41.644808], [-8.34937, 41.65322], [-8.345129, 41.662203], [-8.34597, 41.671215], [-8.352042, 41.680256], [-8.359833, 41.685232], [-8.371817, 41.688503], [-8.383838, 41.688031]], [[-8.38392, 41.679414], [-8.371923, 41.677625], [-8.364136, 41.671316], [-8.363733, 41.662307], [-8.372145, 41.654756], [-8.384171, 41.65311], [-8.396118, 41.659739], [-8.39833, 41.662493], [-8.397857, 41.671498], [-8.38392, 41.679414]]], [[[-8.08351, 41.682786], [-8.095542, 41.681562], [-8.09823, 41.678545], [-8.095646, 41.674118], [-8.083639, 41.673698], [-8.079131, 41.678393], [-8.08351, 41.682786]]], [[[-8.100303, 41.525439], [-8.109675, 41.527661], [-8.110889, 41.525522], [-8.109722, 41.524294], [-8.100303, 41.525439]]], [[[-8.637893, 41.381098], [-8.654392, 41.375312], [-8.662385, 41.366328], [-8.664052, 41.357325], [-8.660222, 41.348306], [-8.650069, 41.3407], [-8.638133, 41.337795], [-8.626175, 41.338867], [-8.61419, 41.344522], [-8.61031, 41.348148], [-8.605828, 41.35714], [-8.606857, 41.366152], [-8.6139, 41.375183], [-8.625938, 41.38034], [-8.637893, 41.381098]]], [[[-8.72185, 41.32467], [-8.735259, 41.32148], [-8.749549, 41.312504], [-8.755651, 41.30351], [-8.757379, 41.294506], [-8.755339, 41.285494], [-8.745944, 41.27418], [-8.734029, 41.268077], [-8.7221, 41.265777], [-8.710158, 41.266655], [-8.6982, 41.270699], [-8.686215, 41.280236], [-8.682518, 41.285316], [-8.679666, 41.294316], [-8.680496, 41.303326], [-8.686059, 41.312818], [-8.697968, 41.321082], [-8.709902, 41.324441], [-8.72185, 41.32467]]], [[[-8.68652, 41.216579], [-8.698448, 41.216759], [-8.707948, 41.21332], [-8.716759, 41.204334], [-8.718076, 41.19533], [-8.713523, 41.186311], [-8.698624, 41.178508], [-8.686702, 41.178418], [-8.674754, 41.183558], [-8.66778, 41.195196], [-8.669281, 41.204208], [-8.674617, 41.21108], [-8.68652, 41.216579]]]]}}, {"id": "3", "type": "Feature", "properties": {"fill": "#71a5e5", "value_min": 1.25, "value_max": -1.5}, "geometry": {"type": "MultiPolygon", "coordinates": [[[[-8.553969, 41.615257], [-8.555743, 41.616826], [-8.564441, 41.616794], [-8.568056, 41.619031], [-8.570735, 41.616095], [-8.577321, 41.614269], [-8.581231, 41.615829], [-8.585766, 41.620988], [-8.591462, 41.620515], [-8.596534, 41.616668], [-8.601628, 41.615972], [-8.603996, 41.611686], [-8.613256, 41.606696], [-8.619881, 41.610269], [-8.621338, 41.604636], [-8.628833, 41.604378], [-8.636302, 41.600744], [-8.64075, 41.594422], [-8.645536, 41.593051], [-8.646744, 41.594171], [-8.649125, 41.591909], [-8.656622, 41.5921], [-8.660788, 41.588255], [-8.663794, 41.589141], [-8.665265, 41.585758], [-8.66948, 41.587989], [-8.684455, 41.586117], [-8.685608, 41.58071], [-8.697261, 41.576376], [-8.701703, 41.570277], [-8.707704, 41.570923], [-8.711586, 41.569327], [-8.716422, 41.573805], [-8.720316, 41.57356], [-8.725151, 41.577811], [-8.726633, 41.576003], [-8.734424, 41.575737], [-8.736564, 41.580228], [-8.738354, 41.579318], [-8.740778, 41.582006], [-8.74467, 41.581535], [-8.750711, 41.58623], [-8.756374, 41.582823], [-8.75635, 41.580347], [-8.762327, 41.578514], [-8.764443, 41.580303], [-8.767441, 41.580286], [-8.769874, 41.583874], [-8.768997, 41.58613], [-8.773228, 41.589482], [-8.775371, 41.593972], [-8.78556, 41.593464], [-8.797327, 41.600599], [-8.804218, 41.600109], [-8.80456, 41.604158], [-8.809434, 41.611332], [-8.828644, 41.609656], [-8.82839, 41.585633], [-8.818497, 41.554794], [-8.8221, 41.547542], [-8.821965, 41.534907], [-8.815926, 41.525624], [-8.81063, 41.5101], [-8.813279, 41.503483], [-8.812636, 41.496944], [-8.798555, 41.474074], [-8.732882, 41.501626], [-8.709087, 41.50734], [-8.697099, 41.508308], [-8.673145, 41.506036], [-8.661181, 41.502523], [-8.640063, 41.492366], [-8.625353, 41.482191], [-8.613408, 41.476587], [-8.601428, 41.476968], [-8.565414, 41.489347], [-8.553425, 41.490881], [-8.541448, 41.490452], [-8.529486, 41.48801], [-8.517544, 41.482984], [-8.502314, 41.473837], [-8.485955, 41.45575], [-8.483785, 41.446733], [-8.482224, 41.405696], [-8.475686, 41.392651], [-8.470409, 41.38736], [-8.458472, 41.384557], [-8.446488, 41.3874], [-8.415326, 41.401368], [-8.398471, 41.406289], [-8.386486, 41.408526], [-8.362547, 41.409495], [-8.338659, 41.405446], [-8.325607, 41.400877], [-8.307954, 41.391765], [-8.291079, 41.380108], [-8.279146, 41.377714], [-8.250349, 41.400412], [-8.230958, 41.407681], [-8.218977, 41.409036], [-8.207022, 41.408276], [-8.195093, 41.405421], [-8.182888, 41.399952], [-8.172455, 41.39087], [-8.167199, 41.378789], [-8.164499, 41.38059], [-8.160016, 41.379466], [-8.152544, 41.375866], [-8.151049, 41.37339], [-8.145073, 41.374742], [-8.139694, 41.377894], [-8.133418, 41.374292], [-8.119672, 41.376768], [-8.119672, 41.378569], [-8.116683, 41.380144], [-8.117578, 41.386447], [-8.113992, 41.386896], [-8.112795, 41.390723], [-8.110105, 41.390947], [-8.108011, 41.393648], [-8.103827, 41.392972], [-8.105321, 41.394998], [-8.10263, 41.396123], [-8.10801, 41.398825], [-8.108008, 41.404002], [-8.104419, 41.406252], [-8.104119, 41.408728], [-8.101727, 41.409403], [-8.102025, 41.411204], [-8.092756, 41.411201], [-8.092456, 41.413029], [-8.111226, 41.414263], [-8.123144, 41.417728], [-8.135042, 41.42288], [-8.146889, 41.432095], [-8.161483, 41.453843], [-8.164588, 41.462873], [-8.166349, 41.4809], [-8.160684, 41.534903], [-8.153537, 41.552865], [-8.145191, 41.561305], [-8.133123, 41.566994], [-8.121108, 41.568577], [-8.097132, 41.567716], [-8.078579, 41.565244], [-8.077678, 41.566956], [-8.069283, 41.570553], [-8.069281, 41.572579], [-8.065682, 41.575053], [-8.062384, 41.575501], [-8.056684, 41.579549], [-8.052181, 41.584498], [-8.052777, 41.587649], [-8.037169, 41.600242], [-8.031467, 41.602938], [-8.02367, 41.603156], [-8.019174, 41.601802], [-8.015872, 41.603824], [-8.013474, 41.603372], [-8.005971, 41.60629], [-8.003562, 41.611239], [-7.99936, 41.61281], [-7.998462, 41.612359], [-7.999669, 41.608759], [-7.996976, 41.605829], [-7.996684, 41.602003], [-7.984685, 41.603564], [-7.982292, 41.60086], [-7.975689, 41.603552], [-7.974482, 41.606701], [-7.970882, 41.607147], [-7.969091, 41.603768], [-7.965796, 41.602413], [-7.9541, 41.602846], [-7.952606, 41.600592], [-7.947808, 41.60081], [-7.945413, 41.599456], [-7.942725, 41.595625], [-7.936132, 41.594488], [-7.93791, 41.601694], [-7.937004, 41.603718], [-7.931604, 41.604384], [-7.930073, 41.614735], [-7.925255, 41.620579], [-7.920755, 41.620796], [-7.917748, 41.623041], [-7.915933, 41.627764], [-7.913229, 41.628885], [-7.912613, 41.63361], [-7.906014, 41.633147], [-7.906884, 41.641927], [-7.897869, 41.645511], [-7.89696, 41.647985], [-7.893683, 41.647753], [-7.915559, 41.66732], [-7.92732, 41.682456], [-7.933811, 41.695151], [-7.936046, 41.704179], [-7.935801, 41.713183], [-7.932549, 41.72216], [-7.917108, 41.740029], [-7.911501, 41.748983], [-7.90203, 41.775914], [-7.892898, 41.784833], [-7.877406, 41.789032], [-7.848242, 41.793401], [-7.823752, 41.802159], [-7.816486, 41.811091], [-7.817701, 41.820111], [-7.829157, 41.838241], [-7.840197, 41.85026], [-7.852074, 41.859745], [-7.858045, 41.86262], [-7.859456, 41.860148], [-7.865481, 41.859262], [-7.87033, 41.851395], [-7.873043, 41.850501], [-7.873066, 41.844875], [-7.879956, 41.853217], [-7.888076, 41.855486], [-7.891565, 41.858644], [-7.913593, 41.830064], [-7.924991, 41.822169], [-7.93709, 41.818668], [-7.961194, 41.817252], [-7.983302, 41.821696], [-7.998581, 41.830837], [-8.007319, 41.842376], [-8.007928, 41.838796], [-8.012753, 41.833624], [-8.013363, 41.829124], [-8.017873, 41.831379], [-8.02901, 41.829589], [-8.037134, 41.831171], [-8.041351, 41.828023], [-8.041054, 41.825097], [-8.045268, 41.824425], [-8.046775, 41.821951], [-8.056712, 41.81588], [-8.06664, 41.817012], [-8.072961, 41.813414], [-8.078678, 41.813417], [-8.082892, 41.810493], [-8.091013, 41.812521], [-8.093421, 41.811397], [-8.093723, 41.808471], [-8.101845, 41.809824], [-8.104853, 41.81185], [-8.115984, 41.812302], [-8.123807, 41.808702], [-8.138247, 41.808477], [-8.139751, 41.813203], [-8.14276, 41.812978], [-8.144866, 41.815228], [-8.149078, 41.814777], [-8.153291, 41.817703], [-8.158106, 41.818377], [-8.165326, 41.81815], [-8.173744, 41.808019], [-8.177655, 41.808242], [-8.183676, 41.812741], [-8.190291, 41.809587], [-8.197158, 41.814129], [-8.201063, 41.808724], [-8.204973, 41.807372], [-8.205872, 41.804445], [-8.213692, 41.803765], [-8.217598, 41.80016], [-8.217589, 41.793634], [-8.224207, 41.794303], [-8.229917, 41.791598], [-8.240744, 41.791588], [-8.24074, 41.789338], [-8.244347, 41.787984], [-8.245546, 41.785731], [-8.251257, 41.784375], [-8.251845, 41.777172], [-8.257251, 41.773929], [-8.249152, 41.760693], [-8.247746, 41.751677], [-8.249156, 41.742679], [-8.253697, 41.733702], [-8.263025, 41.724755], [-8.275348, 41.718735], [-8.287388, 41.717092], [-8.299399, 41.718058], [-8.311382, 41.72166], [-8.33363, 41.734193], [-8.347215, 41.744785], [-8.349814, 41.744225], [-8.350295, 41.744121], [-8.350415, 41.744095], [-8.351348, 41.743894], [-8.351917, 41.743771], [-8.352203, 41.739616], [-8.356398, 41.736231], [-8.357897, 41.735103], [-8.361806, 41.73599], [-8.374838, 41.716411], [-8.385485, 41.707461], [-8.40265, 41.698544], [-8.419839, 41.69331], [-8.431869, 41.691761], [-8.443886, 41.691769], [-8.459825, 41.694793], [-8.482012, 41.682123], [-8.484371, 41.674238], [-8.49308, 41.674886], [-8.499963, 41.671038], [-8.50927, 41.671233], [-8.51018, 41.672806], [-8.511967, 41.670324], [-8.509856, 41.668755], [-8.522103, 41.658811], [-8.525706, 41.659023], [-8.527769, 41.652714], [-8.534066, 41.652017], [-8.537355, 41.64998], [-8.537634, 41.646602], [-8.543876, 41.637352], [-8.543855, 41.633976], [-8.536342, 41.631977], [-8.535132, 41.630406], [-8.540468, 41.620301], [-8.528512, 41.622227], [-8.516508, 41.62223], [-8.48054, 41.616692], [-8.474719, 41.626839], [-8.466314, 41.635808], [-8.45634, 41.639791], [-8.444332, 41.639981], [-8.434408, 41.635655], [-8.428478, 41.626619], [-8.43012, 41.61762], [-8.432553, 41.613876], [-8.444615, 41.606986], [-8.456644, 41.603688], [-8.461871, 41.599758], [-8.458376, 41.590734], [-8.45071, 41.581691], [-8.422758, 41.563539], [-8.41507, 41.554493], [-8.413453, 41.545478], [-8.4214, 41.536511], [-8.433285, 41.530238], [-8.442418, 41.527607], [-8.457274, 41.528415], [-8.474468, 41.536765], [-8.481124, 41.543768], [-8.493084, 41.547573], [-8.529078, 41.544305], [-8.541056, 41.545959], [-8.553021, 41.549485], [-8.564515, 41.555156], [-8.57494, 41.564203], [-8.578791, 41.573224], [-8.579453, 41.582234], [-8.572612, 41.600223], [-8.563749, 41.609197], [-8.553969, 41.615257]], [[-7.888806, 41.825759], [-7.876661, 41.831709], [-7.864618, 41.831669], [-7.852689, 41.825303], [-7.848702, 41.820426], [-7.847653, 41.811408], [-7.8553, 41.802478], [-7.865199, 41.798797], [-7.877247, 41.798116], [-7.892546, 41.802843], [-7.89752, 41.811898], [-7.893888, 41.82087], [-7.888806, 41.825759]], [[-7.973496, 41.800829], [-7.961383, 41.805523], [-7.949309, 41.807746], [-7.937269, 41.807849], [-7.920742, 41.803112], [-7.915284, 41.794053], [-7.921584, 41.758085], [-7.926207, 41.749389], [-7.93838, 41.740523], [-7.962843, 41.731444], [-7.971529, 41.722516], [-7.980595, 41.704582], [-7.982262, 41.69559], [-7.976518, 41.668518], [-7.975632, 41.650496], [-7.978166, 41.641512], [-7.988249, 41.627914], [-8.000356, 41.621282], [-8.012387, 41.619496], [-8.024358, 41.621611], [-8.036288, 41.626577], [-8.060097, 41.640348], [-8.072045, 41.644517], [-8.084034, 41.645801], [-8.09606, 41.644571], [-8.108177, 41.636617], [-8.120408, 41.620115], [-8.132543, 41.610307], [-8.1446, 41.606108], [-8.156605, 41.605766], [-8.168548, 41.610282], [-8.175807, 41.616078], [-8.180387, 41.623149], [-8.183325, 41.634145], [-8.181031, 41.643136], [-8.175603, 41.652105], [-8.155783, 41.668848], [-8.143722, 41.672454], [-8.131696, 41.673429], [-8.119615, 41.678379], [-8.107494, 41.686125], [-8.09605, 41.696542], [-8.091901, 41.705516], [-8.095069, 41.7153], [-8.106994, 41.722231], [-8.119103, 41.715931], [-8.131314, 41.701825], [-8.143412, 41.695816], [-8.155471, 41.692648], [-8.167391, 41.700227], [-8.17244, 41.706124], [-8.202691, 41.724352], [-8.212696, 41.733428], [-8.21594, 41.742457], [-8.216269, 41.751467], [-8.211494, 41.769448], [-8.202411, 41.783902], [-8.19025, 41.79401], [-8.178141, 41.799725], [-8.166066, 41.802636], [-8.154018, 41.803446], [-8.129986, 41.800223], [-8.082083, 41.783106], [-8.070083, 41.78078], [-8.046031, 41.779791], [-8.021944, 41.781114], [-8.009881, 41.783042], [-7.997779, 41.787423], [-7.973496, 41.800829]], [[-8.383753, 41.696897], [-8.371706, 41.699855], [-8.359678, 41.700872], [-8.345664, 41.698234], [-8.327972, 41.689125], [-8.318504, 41.680062], [-8.313308, 41.671024], [-8.310934, 41.662003], [-8.311398, 41.652998], [-8.314724, 41.644011], [-8.324325, 41.63376], [-8.336405, 41.626547], [-8.348452, 41.622339], [-8.360473, 41.620542], [-8.372474, 41.620858], [-8.384451, 41.623655], [-8.396402, 41.629304], [-8.424237, 41.653619], [-8.429747, 41.662654], [-8.429501, 41.67166], [-8.421082, 41.680625], [-8.403769, 41.689543], [-8.383753, 41.696897]], [[-8.111774, 41.696664], [-8.119419, 41.692739], [-8.124131, 41.696759], [-8.119286, 41.70251], [-8.111774, 41.696664]], [[-8.084307, 41.626559], [-8.078949, 41.624349], [-8.071603, 41.615283], [-8.072497, 41.612936], [-8.076652, 41.606317], [-8.084648, 41.602451], [-8.096624, 41.604163], [-8.099409, 41.606497], [-8.103015, 41.615533], [-8.096335, 41.624869], [-8.084307, 41.626559]], [[-8.612929, 41.557003], [-8.600963, 41.552873], [-8.59371, 41.546256], [-8.590428, 41.537237], [-8.590824, 41.528231], [-8.595044, 41.519238], [-8.607511, 41.510274], [-8.613219, 41.508298], [-8.625205, 41.507753], [-8.637168, 41.511269], [-8.648479, 41.519414], [-8.653601, 41.528437], [-8.653566, 41.537444], [-8.648468, 41.546436], [-8.636928, 41.554366], [-8.624918, 41.557428], [-8.612929, 41.557003]], [[-8.337124, 41.556269], [-8.301165, 41.554825], [-8.253255, 41.549931], [-8.241294, 41.547411], [-8.229356, 41.543073], [-8.217454, 41.535844], [-8.208514, 41.526235], [-8.204052, 41.517197], [-8.202533, 41.508179], [-8.203661, 41.49918], [-8.207369, 41.490198], [-8.218163, 41.476903], [-8.230241, 41.468372], [-8.274847, 41.445606], [-8.290438, 41.439077], [-8.314436, 41.433562], [-8.338375, 41.433412], [-8.362267, 41.438185], [-8.376802, 41.446203], [-8.383636, 41.455248], [-8.386395, 41.46427], [-8.39387, 41.518354], [-8.392084, 41.536359], [-8.382437, 41.545315], [-8.373163, 41.549623], [-8.361139, 41.553074], [-8.337124, 41.556269]], [[-8.445553, 41.497266], [-8.43354, 41.50101], [-8.421561, 41.500725], [-8.409634, 41.49471], [-8.407078, 41.491401], [-8.403843, 41.482377], [-8.405194, 41.473376], [-8.409901, 41.465312], [-8.421949, 41.457059], [-8.433946, 41.454339], [-8.445911, 41.455265], [-8.45784, 41.460555], [-8.462627, 41.464651], [-8.465087, 41.47367], [-8.462644, 41.482666], [-8.4551, 41.491638], [-8.445553, 41.497266]]], [[[-8.269147, 41.328065], [-8.269147, 41.328065], [-8.270924, 41.326938], [-8.269147, 41.328065]]], [[[-8.271075, 41.326842], [-8.271075, 41.326842], [-8.27128, 41.326712], [-8.271075, 41.326842]]], [[[-8.27199, 41.326261], [-8.27199, 41.326261], [-8.273767, 41.325133], [-8.27199, 41.326261]]], [[[-8.281808, 41.319374], [-8.29045, 41.312517], [-8.281801, 41.316569], [-8.281808, 41.319374]]], [[[-8.426409, 41.287027], [-8.447308, 41.290492], [-8.471194, 41.290462], [-8.530977, 41.280909], [-8.566861, 41.271725], [-8.590819, 41.259109], [-8.601332, 41.249032], [-8.607002, 41.240044], [-8.610619, 41.22204], [-8.609547, 41.213029], [-8.603146, 41.194655], [-8.586816, 41.171257], [-8.582094, 41.177803], [-8.578825, 41.178941], [-8.581296, 41.191762], [-8.575958, 41.195609], [-8.577183, 41.200557], [-8.57423, 41.20462], [-8.567971, 41.204644], [-8.565895, 41.206227], [-8.567697, 41.208246], [-8.566512, 41.209376], [-8.559636, 41.206251], [-8.554271, 41.20627], [-8.549521, 41.209214], [-8.544157, 41.209458], [-8.54238, 41.211265], [-8.532257, 41.213102], [-8.52713, 41.203215], [-8.523236, 41.200077], [-8.51163, 41.203042], [-8.510456, 41.206197], [-8.505693, 41.207113], [-8.504239, 41.213646], [-8.500076, 41.21546], [-8.50308, 41.219502], [-8.502204, 41.222656], [-8.495642, 41.222227], [-8.495947, 41.223351], [-8.490894, 41.226294], [-8.487935, 41.230354], [-8.490331, 41.232373], [-8.489156, 41.235528], [-8.486181, 41.236888], [-8.484411, 41.240495], [-8.476346, 41.237818], [-8.475756, 41.23917], [-8.470986, 41.23941], [-8.471604, 41.243459], [-8.469227, 41.245267], [-8.463258, 41.244384], [-8.459989, 41.246644], [-8.454323, 41.246886], [-8.455541, 41.251834], [-8.452276, 41.25522], [-8.449891, 41.255452], [-8.449304, 41.257479], [-8.447812, 41.257258], [-8.449028, 41.261982], [-8.439785, 41.262907], [-8.438023, 41.268989], [-8.434745, 41.269673], [-8.432691, 41.277107], [-8.427032, 41.279372], [-8.429143, 41.284319], [-8.426409, 41.287027]]], [[[-7.73085, 41.819503], [-7.75654, 41.815866], [-7.7786, 41.810695], [-7.794429, 41.801855], [-7.796373, 41.792869], [-7.786636, 41.765746], [-7.77412, 41.7476], [-7.761725, 41.734749], [-7.759597, 41.739005], [-7.75689, 41.739446], [-7.758687, 41.740577], [-7.757758, 41.745301], [-7.748417, 41.749321], [-7.747786, 41.754496], [-7.744771, 41.755973], [-7.757578, 41.762106], [-7.768208, 41.774557], [-7.770372, 41.783587], [-7.76791, 41.792567], [-7.756799, 41.802475], [-7.744684, 41.806444], [-7.727318, 41.80693], [-7.728171, 41.814974], [-7.73085, 41.819503]]], [[[-8.007499, 41.842847], [-8.007499, 41.842847], [-8.007585, 41.843072], [-8.007499, 41.842847]]], [[[-8.061354, 41.418819], [-8.068035, 41.416818], [-8.063748, 41.41659], [-8.061354, 41.418819]]]]}}, {"id": "0", "type": "Feature", "properties": {"fill": "#a3a3a3", "value_min": 0.5, "value_max": -0.75}, "geometry": {"type": "Polygon", "coordinates": [[[-8.38392, 41.679414], [-8.397857, 41.671498], [-8.39833, 41.662493], [-8.396118, 41.659739], [-8.384171, 41.65311], [-8.372145, 41.654756], [-8.363733, 41.662307], [-8.364136, 41.671316], [-8.371923, 41.677625], [-8.38392, 41.679414]]]}}, {"id": "7", "type": "Feature", "properties": {"fill": "#2253c5", "value_min": 2.25, "value_max": -2.5}, "geometry": {"type": "MultiPolygon", "coordinates": [[[[-7.741821, 41.85756], [-7.740934, 41.864328], [-7.743486, 41.867707], [-7.755429, 41.873186], [-7.767555, 41.869261], [-7.771427, 41.864658], [-7.770779, 41.855645], [-7.767868, 41.852963], [-7.75589, 41.849424], [-7.746899, 41.852778], [-7.746706, 41.85285], [-7.746597, 41.85289], [-7.746881, 41.855776], [-7.741821, 41.85756]]], [[[-7.877798, 41.76654], [-7.881224, 41.757699], [-7.87425, 41.748624], [-7.86615, 41.744793], [-7.854104, 41.74593], [-7.849532, 41.748379], [-7.843206, 41.757323], [-7.84661, 41.766364], [-7.853666, 41.770541], [-7.865672, 41.771985], [-7.877798, 41.76654]], [[-7.853893, 41.757769], [-7.866009, 41.752822], [-7.871698, 41.757606], [-7.865782, 41.7657], [-7.853893, 41.757769]]], [[[-8.353451, 41.482104], [-8.349892, 41.478726], [-8.337934, 41.476833], [-8.329273, 41.481966], [-8.328575, 41.490969], [-8.337728, 41.497075], [-8.349727, 41.495253], [-8.353897, 41.491114], [-8.353451, 41.482104]]]]}}, {"id": "6", "type": "Feature", "properties": {"fill": "#245ede", "value_min": 2.0, "value_max": -2.25}, "geometry": {"type": "MultiPolygon", "coordinates": [[[[-7.757804, 41.8928], [-7.767132, 41.89127], [-7.782695, 41.882792], [-7.789598, 41.873858], [-7.791838, 41.864875], [-7.79021, 41.855851], [-7.78388, 41.846778], [-7.768145, 41.838527], [-7.756128, 41.837107], [-7.746985, 41.838334], [-7.746349, 41.84407], [-7.750246, 41.846784], [-7.750532, 41.849261], [-7.746624, 41.848348], [-7.743304, 41.849912], [-7.746899, 41.852778], [-7.75589, 41.849424], [-7.767868, 41.852963], [-7.770779, 41.855645], [-7.771427, 41.864658], [-7.767555, 41.869261], [-7.755429, 41.873186], [-7.743486, 41.867707], [-7.740934, 41.864328], [-7.741821, 41.85756], [-7.736611, 41.861368], [-7.734159, 41.868337], [-7.730228, 41.871024], [-7.729293, 41.875972], [-7.721484, 41.879321], [-7.724032, 41.882481], [-7.725331, 41.883455], [-7.733914, 41.888817], [-7.737044, 41.888828], [-7.737338, 41.890107], [-7.739341, 41.890861], [-7.739441, 41.890899], [-7.739742, 41.891012], [-7.74246, 41.889747], [-7.742482, 41.886146], [-7.745495, 41.885931], [-7.750001, 41.887971], [-7.756022, 41.888441], [-7.758719, 41.890926], [-7.757804, 41.8928]]], [[[-7.746597, 41.85289], [-7.746597, 41.85289], [-7.746706, 41.85285], [-7.746597, 41.85289]]], [[[-7.877668, 41.774005], [-7.886062, 41.766753], [-7.888713, 41.757772], [-7.886034, 41.748739], [-7.878238, 41.741262], [-7.866303, 41.736112], [-7.854288, 41.735543], [-7.842186, 41.739841], [-7.832615, 41.748209], [-7.830367, 41.757193], [-7.832964, 41.766226], [-7.841584, 41.773362], [-7.853541, 41.777556], [-7.86557, 41.777774], [-7.877668, 41.774005]], [[-7.877798, 41.76654], [-7.865672, 41.771985], [-7.853666, 41.770541], [-7.84661, 41.766364], [-7.843206, 41.757323], [-7.849532, 41.748379], [-7.854104, 41.74593], [-7.86615, 41.744793], [-7.87425, 41.748624], [-7.881224, 41.757699], [-7.877798, 41.76654]]], [[[-8.361661, 41.499972], [-8.36638, 41.491184], [-8.366066, 41.482175], [-8.3602, 41.473135], [-8.35001, 41.466971], [-8.33805, 41.465484], [-8.326045, 41.468329], [-8.318958, 41.472898], [-8.312852, 41.481869], [-8.312636, 41.490875], [-8.317997, 41.499914], [-8.325661, 41.505417], [-8.337611, 41.508516], [-8.349606, 41.507291], [-8.361661, 41.499972]], [[-8.353451, 41.482104], [-8.353897, 41.491114], [-8.349727, 41.495253], [-8.337728, 41.497075], [-8.328575, 41.490969], [-8.329273, 41.481966], [-8.337934, 41.476833], [-8.349892, 41.478726], [-8.353451, 41.482104]]]]}}, {"id": "5", "type": "Feature", "properties": {"fill": "#3171ee", "value_min": 1.75, "value_max": -2.0}, "geometry": {"type": "MultiPolygon", "coordinates": [[[[-7.814292, 41.873537], [-7.810696, 41.856065], [-7.805241, 41.847002], [-7.792309, 41.83446], [-7.780366, 41.829184], [-7.768365, 41.827059], [-7.756324, 41.827028], [-7.739516, 41.829261], [-7.746985, 41.838334], [-7.756128, 41.837107], [-7.768145, 41.838527], [-7.78388, 41.846778], [-7.79021, 41.855851], [-7.791838, 41.864875], [-7.789598, 41.873858], [-7.782695, 41.882792], [-7.767132, 41.89127], [-7.757804, 41.8928], [-7.756585, 41.895195], [-7.758076, 41.897901], [-7.764097, 41.898595], [-7.779227, 41.886264], [-7.785257, 41.885157], [-7.788886, 41.882467], [-7.794309, 41.882033], [-7.796739, 41.878214], [-7.794954, 41.873932], [-7.803381, 41.874857], [-7.804914, 41.869459], [-7.814292, 41.873537]]], [[[-7.739742, 41.891012], [-7.739742, 41.891012], [-7.739441, 41.890899], [-7.739742, 41.891012]]], [[[-7.739341, 41.890861], [-7.739341, 41.890861], [-7.737338, 41.890107], [-7.739341, 41.890861]]], [[[-7.733914, 41.888817], [-7.725331, 41.883455], [-7.726208, 41.887665], [-7.733914, 41.888817]]], [[[-7.724032, 41.882481], [-7.721484, 41.879321], [-7.720523, 41.881793], [-7.724032, 41.882481]]], [[[-7.972689, 41.851371], [-7.974449, 41.848637], [-7.974827, 41.839634], [-7.967344, 41.83056], [-7.961024, 41.827752], [-7.949007, 41.826236], [-7.936915, 41.829278], [-7.927728, 41.839204], [-7.927743, 41.848211], [-7.934851, 41.857284], [-7.948417, 41.862286], [-7.96049, 41.860753], [-7.972689, 41.851371]]], [[[-7.808328, 41.715744], [-7.808106, 41.747957], [-7.809635, 41.75698], [-7.813254, 41.766024], [-7.820403, 41.775105], [-7.82942, 41.780605], [-7.841397, 41.783718], [-7.865466, 41.783639], [-7.877542, 41.78126], [-7.887931, 41.775778], [-7.89533, 41.766843], [-7.897863, 41.75786], [-7.896311, 41.739832], [-7.897663, 41.730838], [-7.906986, 41.72192], [-7.90813, 41.712924], [-7.90289, 41.70604], [-7.890972, 41.700145], [-7.872815, 41.686196], [-7.8728, 41.686186], [-7.872493, 41.685971], [-7.868896, 41.686413], [-7.867959, 41.683484], [-7.867528, 41.683258], [-7.864403, 41.683701], [-7.864096, 41.685276], [-7.860493, 41.685268], [-7.857773, 41.689538], [-7.854776, 41.68818], [-7.847538, 41.695365], [-7.837309, 41.699391], [-7.835792, 41.702763], [-7.839682, 41.705924], [-7.838465, 41.709522], [-7.832453, 41.710407], [-7.825252, 41.708813], [-7.818621, 41.713522], [-7.815291, 41.718689], [-7.808986, 41.717996], [-7.808328, 41.715744]], [[-7.877668, 41.774005], [-7.86557, 41.777774], [-7.853541, 41.777556], [-7.841584, 41.773362], [-7.832964, 41.766226], [-7.830367, 41.757193], [-7.832615, 41.748209], [-7.842186, 41.739841], [-7.854288, 41.735543], [-7.866303, 41.736112], [-7.878238, 41.741262], [-7.886034, 41.748739], [-7.888713, 41.757772], [-7.886062, 41.766753], [-7.877668, 41.774005]]], [[[-8.28967, 41.742937], [-8.287114, 41.741904], [-8.283218, 41.742897], [-8.276537, 41.751862], [-8.286959, 41.755926], [-8.293519, 41.751967], [-8.28967, 41.742937]]], [[[-8.439229, 41.714432], [-8.431736, 41.706877], [-8.419738, 41.704464], [-8.407699, 41.706678], [-8.397348, 41.716531], [-8.397379, 41.725538], [-8.399635, 41.727844], [-8.402934, 41.726452], [-8.404721, 41.722847], [-8.417349, 41.725067], [-8.422737, 41.720552], [-8.429643, 41.719859], [-8.430833, 41.717155], [-8.436526, 41.714214], [-8.439229, 41.714432]]], [[[-8.361499, 41.516482], [-8.373605, 41.503838], [-8.377389, 41.491244], [-8.373916, 41.47321], [-8.367425, 41.464167], [-8.362058, 41.45946], [-8.350134, 41.45456], [-8.338179, 41.452769], [-8.326195, 41.453843], [-8.314183, 41.457584], [-8.304024, 41.463801], [-8.295671, 41.472758], [-8.292163, 41.481743], [-8.291778, 41.490749], [-8.294171, 41.499771], [-8.301391, 41.508822], [-8.313552, 41.517416], [-8.325491, 41.521764], [-8.337463, 41.523028], [-8.349464, 41.521516], [-8.361499, 41.516482]], [[-8.361661, 41.499972], [-8.349606, 41.507291], [-8.337611, 41.508516], [-8.325661, 41.505417], [-8.317997, 41.499914], [-8.312636, 41.490875], [-8.312852, 41.481869], [-8.318958, 41.472898], [-8.326045, 41.468329], [-8.33805, 41.465484], [-8.35001, 41.466971], [-8.3602, 41.473135], [-8.366066, 41.482175], [-8.36638, 41.491184], [-8.361661, 41.499972]]]]}}, {"id": "4", "type": "Feature", "properties": {"fill": "#5093f6", "value_min": 1.5, "value_max": -1.75}, "geometry": {"type": "MultiPolygon", "coordinates": [[[[-8.007585, 41.843072], [-8.007499, 41.842847], [-8.007319, 41.842376], [-7.998581, 41.830837], [-7.983302, 41.821696], [-7.961194, 41.817252], [-7.93709, 41.818668], [-7.924991, 41.822169], [-7.913593, 41.830064], [-7.891565, 41.858644], [-7.900698, 41.861588], [-7.904318, 41.859795], [-7.907309, 41.865203], [-7.906095, 41.868126], [-7.910299, 41.871285], [-7.909985, 41.875111], [-7.915391, 41.879397], [-7.921118, 41.877833], [-7.928044, 41.87807], [-7.935283, 41.874707], [-7.937389, 41.87516], [-7.941618, 41.870891], [-7.951254, 41.871132], [-7.956367, 41.87339], [-7.956362, 41.875191], [-7.960878, 41.875648], [-7.96299, 41.874075], [-7.972322, 41.875439], [-7.987996, 41.869157], [-7.990123, 41.860157], [-7.995547, 41.858138], [-7.994044, 41.856786], [-7.994954, 41.853411], [-7.996765, 41.851162], [-8.00339, 41.85027], [-8.007585, 41.843072]], [[-7.972689, 41.851371], [-7.96049, 41.860753], [-7.948417, 41.862286], [-7.934851, 41.857284], [-7.927743, 41.848211], [-7.927728, 41.839204], [-7.936915, 41.829278], [-7.949007, 41.826236], [-7.961024, 41.827752], [-7.967344, 41.83056], [-7.974827, 41.839634], [-7.974449, 41.848637], [-7.972689, 41.851371]]], [[[-7.858045, 41.86262], [-7.852074, 41.859745], [-7.840197, 41.85026], [-7.829157, 41.838241], [-7.817701, 41.820111], [-7.816486, 41.811091], [-7.823752, 41.802159], [-7.848242, 41.793401], [-7.877406, 41.789032], [-7.892898, 41.784833], [-7.90203, 41.775914], [-7.911501, 41.748983], [-7.917108, 41.740029], [-7.932549, 41.72216], [-7.935801, 41.713183], [-7.936046, 41.704179], [-7.933811, 41.695151], [-7.92732, 41.682456], [-7.915559, 41.66732], [-7.893683, 41.647753], [-7.892145, 41.651576], [-7.902319, 41.659925], [-7.899913, 41.66127], [-7.900198, 41.665547], [-7.898396, 41.665769], [-7.896885, 41.668692], [-7.883969, 41.67069], [-7.879755, 41.673607], [-7.877044, 41.676077], [-7.876723, 41.681253], [-7.872815, 41.686196], [-7.890972, 41.700145], [-7.90289, 41.70604], [-7.90813, 41.712924], [-7.906986, 41.72192], [-7.897663, 41.730838], [-7.896311, 41.739832], [-7.897863, 41.75786], [-7.89533, 41.766843], [-7.887931, 41.775778], [-7.877542, 41.78126], [-7.865466, 41.783639], [-7.841397, 41.783718], [-7.82942, 41.780605], [-7.820403, 41.775105], [-7.813254, 41.766024], [-7.809635, 41.75698], [-7.808106, 41.747957], [-7.808328, 41.715744], [-7.803298, 41.714154], [-7.790966, 41.717044], [-7.789449, 41.719966], [-7.78464, 41.720402], [-7.78252, 41.723546], [-7.776204, 41.724652], [-7.773786, 41.727346], [-7.770798, 41.72441], [-7.765698, 41.723044], [-7.761765, 41.727758], [-7.763239, 41.732714], [-7.761725, 41.734749], [-7.77412, 41.7476], [-7.786636, 41.765746], [-7.796373, 41.792869], [-7.794429, 41.801855], [-7.7786, 41.810695], [-7.75654, 41.815866], [-7.73085, 41.819503], [-7.73594, 41.823554], [-7.743152, 41.825154], [-7.742839, 41.827178], [-7.739516, 41.829261], [-7.756324, 41.827028], [-7.768365, 41.827059], [-7.780366, 41.829184], [-7.792309, 41.83446], [-7.805241, 41.847002], [-7.810696, 41.856065], [-7.814292, 41.873537], [-7.818448, 41.872873], [-7.823863, 41.874013], [-7.825059, 41.875817], [-7.830479, 41.875831], [-7.830789, 41.874031], [-7.832894, 41.874712], [-7.838021, 41.872924], [-7.842528, 41.875187], [-7.841663, 41.866632], [-7.849515, 41.861475], [-7.858045, 41.86262]]], [[[-7.867528, 41.683258], [-7.867528, 41.683258], [-7.867959, 41.683484], [-7.867528, 41.683258]]], [[[-7.872493, 41.685971], [-7.872493, 41.685971], [-7.8728, 41.686186], [-7.872493, 41.685971]]], [[[-8.459825, 41.694793], [-8.443886, 41.691769], [-8.431869, 41.691761], [-8.419839, 41.69331], [-8.40265, 41.698544], [-8.385485, 41.707461], [-8.374838, 41.716411], [-8.361806, 41.73599], [-8.368703, 41.73193], [-8.374122, 41.734845], [-8.384922, 41.73032], [-8.387032, 41.731891], [-8.393033, 41.729852], [-8.396942, 41.730518], [-8.399635, 41.727844], [-8.397379, 41.725538], [-8.397348, 41.716531], [-8.407699, 41.706678], [-8.419738, 41.704464], [-8.431736, 41.706877], [-8.439229, 41.714432], [-8.441632, 41.713975], [-8.4446, 41.70654], [-8.453868, 41.697961], [-8.453255, 41.695487], [-8.459825, 41.694793]]], [[[-8.351917, 41.743771], [-8.351917, 41.743771], [-8.351348, 41.743894], [-8.351917, 41.743771]]], [[[-8.350415, 41.744095], [-8.350415, 41.744095], [-8.350295, 41.744121], [-8.350415, 41.744095]]], [[[-8.349814, 41.744225], [-8.347215, 41.744785], [-8.33363, 41.734193], [-8.311382, 41.72166], [-8.299399, 41.718058], [-8.287388, 41.717092], [-8.275348, 41.718735], [-8.263025, 41.724755], [-8.253697, 41.733702], [-8.249156, 41.742679], [-8.247746, 41.751677], [-8.249152, 41.760693], [-8.257251, 41.773929], [-8.261762, 41.774235], [-8.271366, 41.766346], [-8.280681, 41.764083], [-8.284038, 41.761109], [-8.284931, 41.757507], [-8.287033, 41.756829], [-8.298457, 41.757263], [-8.300866, 41.758835], [-8.305674, 41.758152], [-8.311096, 41.762195], [-8.318308, 41.761283], [-8.325233, 41.765098], [-8.328234, 41.763292], [-8.336653, 41.763728], [-8.341756, 41.761468], [-8.344765, 41.762363], [-8.349267, 41.760103], [-8.352557, 41.755145], [-8.349814, 41.744225]], [[-8.28967, 41.742937], [-8.293519, 41.751967], [-8.286959, 41.755926], [-8.276537, 41.751862], [-8.283218, 41.742897], [-8.287114, 41.741904], [-8.28967, 41.742937]]], [[[-8.111774, 41.696664], [-8.119286, 41.70251], [-8.124131, 41.696759], [-8.119419, 41.692739], [-8.111774, 41.696664]]], [[[-8.553969, 41.615257], [-8.563749, 41.609197], [-8.572612, 41.600223], [-8.579453, 41.582234], [-8.578791, 41.573224], [-8.57494, 41.564203], [-8.564515, 41.555156], [-8.553021, 41.549485], [-8.541056, 41.545959], [-8.529078, 41.544305], [-8.493084, 41.547573], [-8.481124, 41.543768], [-8.474468, 41.536765], [-8.457274, 41.528415], [-8.442418, 41.527607], [-8.433285, 41.530238], [-8.4214, 41.536511], [-8.413453, 41.545478], [-8.41507, 41.554493], [-8.422758, 41.563539], [-8.45071, 41.581691], [-8.458376, 41.590734], [-8.461871, 41.599758], [-8.456644, 41.603688], [-8.444615, 41.606986], [-8.432553, 41.613876], [-8.43012, 41.61762], [-8.428478, 41.626619], [-8.434408, 41.635655], [-8.444332, 41.639981], [-8.45634, 41.639791], [-8.466314, 41.635808], [-8.474719, 41.626839], [-8.48054, 41.616692], [-8.516508, 41.62223], [-8.528512, 41.622227], [-8.540468, 41.620301], [-8.543431, 41.61462], [-8.553969, 41.615257]]], [[[-8.084307, 41.626559], [-8.096335, 41.624869], [-8.103015, 41.615533], [-8.099409, 41.606497], [-8.096624, 41.604163], [-8.084648, 41.602451], [-8.076652, 41.606317], [-8.072497, 41.612936], [-8.071603, 41.615283], [-8.078949, 41.624349], [-8.084307, 41.626559]]], [[[-8.612929, 41.557003], [-8.624918, 41.557428], [-8.636928, 41.554366], [-8.648468, 41.546436], [-8.653566, 41.537444], [-8.653601, 41.528437], [-8.648479, 41.519414], [-8.637168, 41.511269], [-8.625205, 41.507753], [-8.613219, 41.508298], [-8.607511, 41.510274], [-8.595044, 41.519238], [-8.590824, 41.528231], [-8.590428, 41.537237], [-8.59371, 41.546256], [-8.600963, 41.552873], [-8.612929, 41.557003]]], [[[-8.337124, 41.556269], [-8.361139, 41.553074], [-8.373163, 41.549623], [-8.382437, 41.545315], [-8.392084, 41.536359], [-8.39387, 41.518354], [-8.386395, 41.46427], [-8.383636, 41.455248], [-8.376802, 41.446203], [-8.362267, 41.438185], [-8.338375, 41.433412], [-8.314436, 41.433562], [-8.290438, 41.439077], [-8.274847, 41.445606], [-8.230241, 41.468372], [-8.218163, 41.476903], [-8.207369, 41.490198], [-8.203661, 41.49918], [-8.202533, 41.508179], [-8.204052, 41.517197], [-8.208514, 41.526235], [-8.217454, 41.535844], [-8.229356, 41.543073], [-8.241294, 41.547411], [-8.253255, 41.549931], [-8.301165, 41.554825], [-8.337124, 41.556269]], [[-8.361499, 41.516482], [-8.349464, 41.521516], [-8.337463, 41.523028], [-8.325491, 41.521764], [-8.313552, 41.517416], [-8.301391, 41.508822], [-8.294171, 41.499771], [-8.291778, 41.490749], [-8.292163, 41.481743], [-8.295671, 41.472758], [-8.304024, 41.463801], [-8.314183, 41.457584], [-8.326195, 41.453843], [-8.338179, 41.452769], [-8.350134, 41.45456], [-8.362058, 41.45946], [-8.367425, 41.464167], [-8.373916, 41.47321], [-8.377389, 41.491244], [-8.373605, 41.503838], [-8.361499, 41.516482]]]]}}, {"id": "8", "type": "Feature", "properties": {"fill": "#2048ac", "value_min": 2.5, "value_max": -2.75}, "geometry": {"type": "Polygon", "coordinates": [[[-7.853893, 41.757769], [-7.865782, 41.7657], [-7.871698, 41.757606], [-7.866009, 41.752822], [-7.853893, 41.757769]]]}}]}