{"type": "FeatureCollection", "features": [{"id": "7", "type": "Feature", "properties": {"fill": "#a3a3a3", "value_min": -0.5, "value_max": -0.25}, "geometry": {"type": "MultiPolygon", "coordinates": [[[[-7.889453, 41.766786], [-7.896078, 41.748836], [-7.921309, 41.731062], [-7.928416, 41.722122], [-7.930652, 41.713136], [-7.927846, 41.704102], [-7.919383, 41.695016], [-7.915145, 41.692006], [-7.903187, 41.688556], [-7.891141, 41.690306], [-7.886187, 41.694699], [-7.878912, 41.702529], [-7.86641, 41.730043], [-7.842161, 41.741267], [-7.832469, 41.748207], [-7.829027, 41.757179], [-7.831251, 41.766209], [-7.841553, 41.775051], [-7.853519, 41.778765], [-7.865547, 41.779063], [-7.877631, 41.776105], [-7.889453, 41.766786]], [[-7.853735, 41.766637], [-7.84915, 41.757382], [-7.854002, 41.751653], [-7.866094, 41.748009], [-7.87781, 41.757666], [-7.871345, 41.76661], [-7.865726, 41.768928], [-7.853735, 41.766637]], [[-7.8904, 41.733402], [-7.885765, 41.730723], [-7.878664, 41.721647], [-7.880537, 41.712658], [-7.890943, 41.701806], [-7.902984, 41.700498], [-7.914875, 41.708072], [-7.917941, 41.713017], [-7.916547, 41.72201], [-7.90244, 41.732475], [-7.8904, 41.733402]]], [[[-8.451477, 41.700301], [-8.443844, 41.696707], [-8.43185, 41.694022], [-8.419832, 41.694066], [-8.403047, 41.698546], [-8.387509, 41.707472], [-8.381024, 41.716444], [-8.379698, 41.725444], [-8.38177, 41.731677], [-8.384922, 41.73032], [-8.387032, 41.731891], [-8.393033, 41.729852], [-8.396942, 41.730518], [-8.400531, 41.726683], [-8.402934, 41.726452], [-8.404721, 41.722847], [-8.417349, 41.725067], [-8.422737, 41.720552], [-8.429643, 41.719859], [-8.430533, 41.717381], [-8.435927, 41.714441], [-8.441632, 41.713975], [-8.4446, 41.70654], [-8.451477, 41.700301]]], [[[-8.131348, 41.699322], [-8.134622, 41.696839], [-8.131422, 41.693816], [-8.119465, 41.689381], [-8.106915, 41.696627], [-8.10769, 41.70564], [-8.119169, 41.711065], [-8.126358, 41.705783], [-8.131348, 41.699322]], [[-8.117999, 41.696712], [-8.119376, 41.695943], [-8.120819, 41.696734], [-8.119341, 41.698486], [-8.117999, 41.696712]]], [[[-8.167929, 41.658451], [-8.179342, 41.652131], [-8.188699, 41.643191], [-8.192457, 41.63421], [-8.193656, 41.625211], [-8.191476, 41.616189], [-8.185925, 41.607142], [-8.174807, 41.598056], [-8.156812, 41.589872], [-8.120914, 41.582852], [-8.096934, 41.581961], [-8.084911, 41.583822], [-8.072838, 41.589125], [-8.064078, 41.597208], [-8.060144, 41.606183], [-8.060825, 41.615196], [-8.066073, 41.624246], [-8.072264, 41.629237], [-8.096137, 41.63903], [-8.119941, 41.654485], [-8.131885, 41.659339], [-8.143866, 41.661602], [-8.155881, 41.661314], [-8.167929, 41.658451]], [[-8.131986, 41.651851], [-8.12004, 41.647159], [-8.11371, 41.642637], [-8.108238, 41.63224], [-8.096315, 41.626294], [-8.082358, 41.624377], [-8.075355, 41.615313], [-8.080907, 41.606351], [-8.084626, 41.604022], [-8.096626, 41.603998], [-8.103067, 41.606526], [-8.108519, 41.611812], [-8.132552, 41.609632], [-8.144538, 41.610851], [-8.156464, 41.616647], [-8.164038, 41.625], [-8.165565, 41.634018], [-8.161573, 41.642996], [-8.156066, 41.647119], [-8.144348, 41.651876], [-8.131986, 41.651851]]], [[[-8.280748, 41.321298], [-8.286779, 41.37362], [-8.286664, 41.400642], [-8.282256, 41.41863], [-8.270779, 41.44558], [-8.269637, 41.463588], [-8.283879, 41.499707], [-8.294951, 41.535805], [-8.299758, 41.544841], [-8.313127, 41.55753], [-8.325065, 41.562741], [-8.337027, 41.565794], [-8.349008, 41.566964], [-8.373014, 41.565107], [-8.385035, 41.562202], [-8.401156, 41.554422], [-8.418833, 41.536498], [-8.431443, 41.527553], [-8.445331, 41.523272], [-8.457309, 41.524189], [-8.481453, 41.536797], [-8.487925, 41.545833], [-8.473596, 41.572791], [-8.474565, 41.581802], [-8.48135, 41.59084], [-8.49267, 41.600461], [-8.504617, 41.607488], [-8.516584, 41.612037], [-8.528572, 41.613953], [-8.540581, 41.612998], [-8.552618, 41.608035], [-8.560841, 41.600179], [-8.564705, 41.591186], [-8.565221, 41.582181], [-8.563216, 41.573166], [-8.552976, 41.55612], [-8.531929, 41.537014], [-8.52649, 41.527984], [-8.522534, 41.509953], [-8.517485, 41.500924], [-8.499251, 41.482831], [-8.486778, 41.464762], [-8.481846, 41.446725], [-8.48238, 41.428712], [-8.485199, 41.419717], [-8.494198, 41.404397], [-8.506264, 41.390941], [-8.518299, 41.381013], [-8.530312, 41.373526], [-8.566298, 41.356648], [-8.596312, 41.339092], [-8.614251, 41.334146], [-8.626205, 41.333617], [-8.638146, 41.335486], [-8.650072, 41.3401], [-8.661977, 41.349241], [-8.667636, 41.357335], [-8.670214, 41.366351], [-8.669161, 41.375355], [-8.663993, 41.384348], [-8.637763, 41.404479], [-8.632207, 41.411273], [-8.625684, 41.424534], [-8.615179, 41.465263], [-8.615989, 41.474273], [-8.620917, 41.483297], [-8.632024, 41.49234], [-8.661155, 41.507594], [-8.685074, 41.517187], [-8.709011, 41.524212], [-8.732966, 41.528298], [-8.756933, 41.530037], [-8.784157, 41.528756], [-8.815948, 41.523654], [-8.81063, 41.5101], [-8.813279, 41.503483], [-8.812636, 41.496944], [-8.804699, 41.482068], [-8.798552, 41.474753], [-8.798251, 41.469014], [-8.801548, 41.4468], [-8.806115, 41.43713], [-8.807354, 41.425915], [-8.811202, 41.416419], [-8.805414, 41.28958], [-8.802948, 41.3036], [-8.798509, 41.3126], [-8.791289, 41.321595], [-8.781579, 41.329625], [-8.769606, 41.336321], [-8.757639, 41.340455], [-8.733724, 41.343165], [-8.721777, 41.341859], [-8.697908, 41.334118], [-8.677524, 41.321333], [-8.667188, 41.312296], [-8.659871, 41.303267], [-8.654889, 41.294244], [-8.652388, 41.276221], [-8.654455, 41.267219], [-8.659372, 41.258226], [-8.674453, 41.244182], [-8.698367, 41.234582], [-8.734181, 41.230547], [-8.758033, 41.233994], [-8.769949, 41.238608], [-8.781859, 41.245601], [-8.793759, 41.256719], [-8.801011, 41.267566], [-8.805127, 41.282298], [-8.799695, 41.14406], [-8.67527, 41.147484], [-8.676193, 41.146567], [-8.674793, 41.146932], [-8.674204, 41.147693], [-8.674849, 41.153767], [-8.672489, 41.15648], [-8.66117, 41.156307], [-8.662078, 41.158104], [-8.660313, 41.160813], [-8.657033, 41.160378], [-8.654961, 41.161963], [-8.653231, 41.169174], [-8.655366, 41.175467], [-8.647955, 41.180228], [-8.647696, 41.185181], [-8.640929, 41.196241], [-8.634946, 41.193341], [-8.632526, 41.188624], [-8.625658, 41.186628], [-8.621132, 41.178994], [-8.613374, 41.177451], [-8.608583, 41.174095], [-8.609164, 41.172066], [-8.604942, 41.164881], [-8.600767, 41.164222], [-8.589766, 41.167193], [-8.589194, 41.170572], [-8.583263, 41.174422], [-8.582094, 41.177803], [-8.578825, 41.178941], [-8.581296, 41.191762], [-8.575958, 41.195609], [-8.576894, 41.201908], [-8.574515, 41.202593], [-8.57423, 41.20462], [-8.567971, 41.204644], [-8.565895, 41.206227], [-8.567697, 41.208246], [-8.566512, 41.209376], [-8.559636, 41.206251], [-8.554271, 41.20627], [-8.549521, 41.209214], [-8.544157, 41.209458], [-8.54238, 41.211265], [-8.532257, 41.213102], [-8.52713, 41.203215], [-8.523236, 41.200077], [-8.51163, 41.203042], [-8.510456, 41.206197], [-8.505693, 41.207113], [-8.504239, 41.213646], [-8.500076, 41.21546], [-8.50308, 41.219502], [-8.502204, 41.222656], [-8.495642, 41.222227], [-8.495947, 41.223351], [-8.490894, 41.226294], [-8.487935, 41.230354], [-8.490331, 41.232373], [-8.489156, 41.235528], [-8.486181, 41.236888], [-8.484411, 41.240495], [-8.476346, 41.237818], [-8.475756, 41.23917], [-8.470986, 41.23941], [-8.471604, 41.243459], [-8.469227, 41.245267], [-8.463258, 41.244384], [-8.459989, 41.246644], [-8.454323, 41.246886], [-8.455541, 41.251834], [-8.452276, 41.25522], [-8.449891, 41.255452], [-8.449304, 41.257479], [-8.447812, 41.257258], [-8.449028, 41.261982], [-8.439785, 41.262907], [-8.438023, 41.268989], [-8.434745, 41.269673], [-8.432691, 41.277107], [-8.427032, 41.279372], [-8.429143, 41.284319], [-8.426171, 41.287028], [-8.426488, 41.291079], [-8.425013, 41.294909], [-8.422037, 41.296942], [-8.422647, 41.299867], [-8.407744, 41.304856], [-8.402092, 41.309551], [-8.411275, 41.313185], [-8.423156, 41.320644], [-8.435, 41.332724], [-8.442911, 41.347459], [-8.4454, 41.365487], [-8.442256, 41.383487], [-8.433547, 41.401459], [-8.417008, 41.428399], [-8.415978, 41.437402], [-8.420108, 41.44643], [-8.445798, 41.468547], [-8.448672, 41.473593], [-8.449686, 41.482605], [-8.444508, 41.491588], [-8.433562, 41.498434], [-8.409549, 41.504087], [-8.373387, 41.526475], [-8.361359, 41.530748], [-8.349354, 41.53249], [-8.337373, 41.531916], [-8.32542, 41.528553], [-8.313504, 41.521882], [-8.301669, 41.507932], [-8.293991, 41.490762], [-8.292139, 41.481743], [-8.293747, 41.463738], [-8.298, 41.454757], [-8.317007, 41.427849], [-8.317072, 41.418842], [-8.307018, 41.391759], [-8.303955, 41.373726], [-8.305144, 41.355718], [-8.313203, 41.335607], [-8.31139, 41.328007], [-8.307502, 41.325762], [-8.305116, 41.326891], [-8.303024, 41.325994], [-8.303615, 41.323742], [-8.301216, 41.319694], [-8.296431, 41.316774], [-8.297618, 41.313846], [-8.296116, 41.310022], [-8.281801, 41.316569], [-8.280748, 41.321298]], [[-8.515033, 41.58198], [-8.509972, 41.572951], [-8.516909, 41.568435], [-8.527969, 41.573027], [-8.519917, 41.582001], [-8.515033, 41.58198]], [[-8.685134, 41.504648], [-8.673157, 41.503743], [-8.661191, 41.500616], [-8.649239, 41.495149], [-8.634941, 41.483342], [-8.631219, 41.474323], [-8.63197, 41.465318], [-8.636446, 41.456324], [-8.645535, 41.447345], [-8.649513, 41.44419], [-8.661511, 41.439145], [-8.673494, 41.436588], [-8.685465, 41.436254], [-8.697426, 41.438204], [-8.709377, 41.442406], [-8.72131, 41.45123], [-8.725966, 41.456573], [-8.729734, 41.465589], [-8.730092, 41.474597], [-8.727222, 41.483598], [-8.719754, 41.492588], [-8.703689, 41.501555], [-8.685134, 41.504648]], [[-8.555214, 41.228523], [-8.548506, 41.221814], [-8.555324, 41.2123], [-8.567234, 41.215162], [-8.570307, 41.221897], [-8.567163, 41.225996], [-8.555214, 41.228523]]], [[[-8.101068, 41.539681], [-8.109503, 41.540236], [-8.117172, 41.534577], [-8.11815, 41.525578], [-8.109778, 41.520142], [-8.097787, 41.52058], [-8.093588, 41.52335], [-8.09333, 41.52352], [-8.093289, 41.523548], [-8.091786, 41.531848], [-8.101068, 41.539681]]]]}}, {"id": "11", "type": "Feature", "properties": {"fill": "#a3a3a3", "value_min": 0.5, "value_max": -0.75}, "geometry": {"type": "Polygon", "coordinates": [[[-8.3561, 41.482119], [-8.349914, 41.476525], [-8.337952, 41.475095], [-8.327507, 41.481956], [-8.327194, 41.490961], [-8.337716, 41.49829], [-8.34971, 41.496981], [-8.356289, 41.491128], [-8.3561, 41.482119]]]}}, {"id": "8", "type": "Feature", "properties": {"fill": "#a3a3a3", "value_min": -0.25, "value_max": -0.0}, "geometry": {"type": "MultiPolygon", "coordinates": [[[[-7.853735, 41.766637], [-7.865726, 41.768928], [-7.871345, 41.76661], [-7.87781, 41.757666], [-7.866094, 41.748009], [-7.854002, 41.751653], [-7.84915, 41.757382], [-7.853735, 41.766637]]], [[[-7.8904, 41.733402], [-7.90244, 41.732475], [-7.916547, 41.72201], [-7.917941, 41.713017], [-7.914875, 41.708072], [-7.902984, 41.700498], [-7.890943, 41.701806], [-7.880537, 41.712658], [-7.878664, 41.721647], [-7.885765, 41.730723], [-7.8904, 41.733402]], [[-7.89056, 41.724056], [-7.888085, 41.721738], [-7.888334, 41.712734], [-7.890798, 41.710233], [-7.90282, 41.710158], [-7.906131, 41.712905], [-7.905135, 41.721902], [-7.902588, 41.723753], [-7.89056, 41.724056]]], [[[-8.117999, 41.696712], [-8.119341, 41.698486], [-8.120819, 41.696734], [-8.119376, 41.695943], [-8.117999, 41.696712]]], [[[-8.131986, 41.651851], [-8.144348, 41.651876], [-8.156066, 41.647119], [-8.161573, 41.642996], [-8.165565, 41.634018], [-8.164038, 41.625], [-8.156464, 41.616647], [-8.144538, 41.610851], [-8.132552, 41.609632], [-8.108519, 41.611812], [-8.103067, 41.606526], [-8.096626, 41.603998], [-8.084626, 41.604022], [-8.080907, 41.606351], [-8.075355, 41.615313], [-8.082358, 41.624377], [-8.096315, 41.626294], [-8.108238, 41.63224], [-8.11371, 41.642637], [-8.12004, 41.647159], [-8.131986, 41.651851]], [[-8.132067, 41.645792], [-8.125246, 41.642725], [-8.118676, 41.633668], [-8.125882, 41.624716], [-8.132392, 41.621584], [-8.144367, 41.623734], [-8.151722, 41.633917], [-8.146411, 41.642884], [-8.132067, 41.645792]]], [[[-8.515033, 41.58198], [-8.519917, 41.582001], [-8.527969, 41.573027], [-8.516909, 41.568435], [-8.509972, 41.572951], [-8.515033, 41.58198]]], [[[-8.313203, 41.335607], [-8.305144, 41.355718], [-8.303955, 41.373726], [-8.307018, 41.391759], [-8.317072, 41.418842], [-8.317007, 41.427849], [-8.298, 41.454757], [-8.293747, 41.463738], [-8.292139, 41.481743], [-8.293991, 41.490762], [-8.301669, 41.507932], [-8.313504, 41.521882], [-8.32542, 41.528553], [-8.337373, 41.531916], [-8.349354, 41.53249], [-8.361359, 41.530748], [-8.373387, 41.526475], [-8.409549, 41.504087], [-8.433562, 41.498434], [-8.444508, 41.491588], [-8.449686, 41.482605], [-8.448672, 41.473593], [-8.445798, 41.468547], [-8.420108, 41.44643], [-8.415978, 41.437402], [-8.417008, 41.428399], [-8.433547, 41.401459], [-8.442256, 41.383487], [-8.4454, 41.365487], [-8.442911, 41.347459], [-8.435, 41.332724], [-8.423156, 41.320644], [-8.411275, 41.313185], [-8.402092, 41.309551], [-8.401801, 41.311398], [-8.399712, 41.311628], [-8.400316, 41.313202], [-8.396738, 41.314336], [-8.398835, 41.316131], [-8.393775, 41.31997], [-8.393489, 41.323122], [-8.391105, 41.324253], [-8.386325, 41.323588], [-8.380382, 41.331254], [-8.375305, 41.33104], [-8.37201, 41.328346], [-8.361563, 41.329718], [-8.358276, 41.329049], [-8.357673, 41.327249], [-8.350207, 41.327264], [-8.346032, 41.328847], [-8.342462, 41.333131], [-8.333215, 41.336299], [-8.326363, 41.342163], [-8.324568, 41.341041], [-8.323376, 41.341943], [-8.316788, 41.335876], [-8.314699, 41.33678], [-8.313203, 41.335607]], [[-8.349509, 41.516985], [-8.337525, 41.51701], [-8.325573, 41.51382], [-8.313682, 41.505113], [-8.30555, 41.490832], [-8.304677, 41.48182], [-8.306923, 41.472826], [-8.313243, 41.463856], [-8.326181, 41.455201], [-8.338193, 41.451391], [-8.350167, 41.45117], [-8.362513, 41.455133], [-8.374791, 41.464207], [-8.38066, 41.473247], [-8.382678, 41.482265], [-8.382124, 41.491269], [-8.378287, 41.500256], [-8.373591, 41.505277], [-8.361526, 41.513758], [-8.349509, 41.516985]], [[-8.37452, 41.408629], [-8.362547, 41.409564], [-8.350597, 41.408055], [-8.338684, 41.402992], [-8.326505, 41.391875], [-8.321667, 41.382839], [-8.319855, 41.373821], [-8.320678, 41.364818], [-8.324282, 41.355832], [-8.33177, 41.346868], [-8.339311, 41.341101], [-8.351311, 41.336249], [-8.363281, 41.334357], [-8.375224, 41.335115], [-8.387142, 41.338649], [-8.399029, 41.345675], [-8.408136, 41.356293], [-8.411375, 41.365318], [-8.411739, 41.374327], [-8.409235, 41.383322], [-8.403528, 41.3923], [-8.386521, 41.404834], [-8.37452, 41.408629]]], [[[-8.685134, 41.504648], [-8.703689, 41.501555], [-8.719754, 41.492588], [-8.727222, 41.483598], [-8.730092, 41.474597], [-8.729734, 41.465589], [-8.725966, 41.456573], [-8.72131, 41.45123], [-8.709377, 41.442406], [-8.697426, 41.438204], [-8.685465, 41.436254], [-8.673494, 41.436588], [-8.661511, 41.439145], [-8.649513, 41.44419], [-8.645535, 41.447345], [-8.636446, 41.456324], [-8.63197, 41.465318], [-8.631219, 41.474323], [-8.634941, 41.483342], [-8.649239, 41.495149], [-8.661191, 41.500616], [-8.673157, 41.503743], [-8.685134, 41.504648]], [[-8.673199, 41.495383], [-8.661227, 41.493767], [-8.649286, 41.486469], [-8.646049, 41.483377], [-8.643551, 41.474362], [-8.649414, 41.462725], [-8.661422, 41.456204], [-8.673402, 41.45486], [-8.685361, 41.45771], [-8.695968, 41.465505], [-8.699765, 41.474522], [-8.697475, 41.483524], [-8.68704, 41.492503], [-8.673199, 41.495383]]], [[[-8.805127, 41.282298], [-8.801011, 41.267566], [-8.793759, 41.256719], [-8.781859, 41.245601], [-8.769949, 41.238608], [-8.758033, 41.233994], [-8.734181, 41.230547], [-8.698367, 41.234582], [-8.674453, 41.244182], [-8.659372, 41.258226], [-8.654455, 41.267219], [-8.652388, 41.276221], [-8.654889, 41.294244], [-8.659871, 41.303267], [-8.667188, 41.312296], [-8.677524, 41.321333], [-8.697908, 41.334118], [-8.721777, 41.341859], [-8.733724, 41.343165], [-8.757639, 41.340455], [-8.769606, 41.336321], [-8.781579, 41.329625], [-8.791289, 41.321595], [-8.798509, 41.3126], [-8.802948, 41.3036], [-8.805414, 41.28958], [-8.805127, 41.282298]], [[-8.721914, 41.309498], [-8.709971, 41.308756], [-8.701098, 41.303381], [-8.698079, 41.296986], [-8.6981, 41.292478], [-8.703564, 41.285372], [-8.71009, 41.281901], [-8.722033, 41.281464], [-8.731157, 41.28544], [-8.736846, 41.294461], [-8.734102, 41.303462], [-8.721914, 41.309498]]], [[[-8.555214, 41.228523], [-8.567163, 41.225996], [-8.570307, 41.221897], [-8.567234, 41.215162], [-8.555324, 41.2123], [-8.548506, 41.221814], [-8.555214, 41.228523]]]]}}, {"id": "10", "type": "Feature", "properties": {"fill": "#a3a3a3", "value_min": 0.25, "value_max": -0.5}, "geometry": {"type": "MultiPolygon", "coordinates": [[[[-8.132244, 41.63264], [-8.131002, 41.633762], [-8.132209, 41.635227], [-8.134742, 41.63379], [-8.132244, 41.63264]]], [[[-8.368469, 41.491195], [-8.368662, 41.482189], [-8.363488, 41.473153], [-8.350024, 41.465555], [-8.338055, 41.464916], [-8.326039, 41.468895], [-8.321177, 41.472911], [-8.315814, 41.481887], [-8.316108, 41.490896], [-8.322054, 41.499938], [-8.325687, 41.502917], [-8.337624, 41.507257], [-8.349612, 41.506777], [-8.361651, 41.500941], [-8.368469, 41.491195]], [[-8.3561, 41.482119], [-8.356289, 41.491128], [-8.34971, 41.496981], [-8.337716, 41.49829], [-8.327194, 41.490961], [-8.327507, 41.481956], [-8.337952, 41.475095], [-8.349914, 41.476525], [-8.3561, 41.482119]]], [[[-8.676936, 41.47446], [-8.673319, 41.471491], [-8.661341, 41.471762], [-8.65878, 41.474408], [-8.660604, 41.483421], [-8.674731, 41.483462], [-8.676936, 41.47446]]], [[[-8.386717, 41.383897], [-8.390814, 41.374218], [-8.388963, 41.365201], [-8.379611, 41.356143], [-8.375046, 41.353719], [-8.363112, 41.351614], [-8.351137, 41.35373], [-8.339092, 41.362688], [-8.335451, 41.373912], [-8.338364, 41.382936], [-8.350754, 41.392312], [-8.362694, 41.394454], [-8.374677, 41.392349], [-8.386717, 41.383897]]]]}}, {"id": "9", "type": "Feature", "properties": {"fill": "#a3a3a3", "value_min": 0.0, "value_max": -0.25}, "geometry": {"type": "MultiPolygon", "coordinates": [[[[-7.89056, 41.724056], [-7.902588, 41.723753], [-7.905135, 41.721902], [-7.906131, 41.712905], [-7.90282, 41.710158], [-7.890798, 41.710233], [-7.888334, 41.712734], [-7.888085, 41.721738], [-7.89056, 41.724056]]], [[[-8.132067, 41.645792], [-8.146411, 41.642884], [-8.151722, 41.633917], [-8.144367, 41.623734], [-8.132392, 41.621584], [-8.125882, 41.624716], [-8.118676, 41.633668], [-8.125246, 41.642725], [-8.132067, 41.645792]], [[-8.132244, 41.63264], [-8.134742, 41.63379], [-8.132209, 41.635227], [-8.131002, 41.633762], [-8.132244, 41.63264]]], [[[-8.349509, 41.516985], [-8.361526, 41.513758], [-8.373591, 41.505277], [-8.378287, 41.500256], [-8.382124, 41.491269], [-8.382678, 41.482265], [-8.38066, 41.473247], [-8.374791, 41.464207], [-8.362513, 41.455133], [-8.350167, 41.45117], [-8.338193, 41.451391], [-8.326181, 41.455201], [-8.313243, 41.463856], [-8.306923, 41.472826], [-8.304677, 41.48182], [-8.30555, 41.490832], [-8.313682, 41.505113], [-8.325573, 41.51382], [-8.337525, 41.51701], [-8.349509, 41.516985]], [[-8.368469, 41.491195], [-8.361651, 41.500941], [-8.349612, 41.506777], [-8.337624, 41.507257], [-8.325687, 41.502917], [-8.322054, 41.499938], [-8.316108, 41.490896], [-8.315814, 41.481887], [-8.321177, 41.472911], [-8.326039, 41.468895], [-8.338055, 41.464916], [-8.350024, 41.465555], [-8.363488, 41.473153], [-8.368662, 41.482189], [-8.368469, 41.491195]]], [[[-8.673199, 41.495383], [-8.68704, 41.492503], [-8.697475, 41.483524], [-8.699765, 41.474522], [-8.695968, 41.465505], [-8.685361, 41.45771], [-8.673402, 41.45486], [-8.661422, 41.456204], [-8.649414, 41.462725], [-8.643551, 41.474362], [-8.646049, 41.483377], [-8.649286, 41.486469], [-8.661227, 41.493767], [-8.673199, 41.495383]], [[-8.676936, 41.47446], [-8.674731, 41.483462], [-8.660604, 41.483421], [-8.65878, 41.474408], [-8.661341, 41.471762], [-8.673319, 41.471491], [-8.676936, 41.47446]]], [[[-8.37452, 41.408629], [-8.386521, 41.404834], [-8.403528, 41.3923], [-8.409235, 41.383322], [-8.411739, 41.374327], [-8.411375, 41.365318], [-8.408136, 41.356293], [-8.399029, 41.345675], [-8.387142, 41.338649], [-8.375224, 41.335115], [-8.363281, 41.334357], [-8.351311, 41.336249], [-8.339311, 41.341101], [-8.33177, 41.346868], [-8.324282, 41.355832], [-8.320678, 41.364818], [-8.319855, 41.373821], [-8.321667, 41.382839], [-8.326505, 41.391875], [-8.338684, 41.402992], [-8.350597, 41.408055], [-8.362547, 41.409564], [-8.37452, 41.408629]], [[-8.386717, 41.383897], [-8.374677, 41.392349], [-8.362694, 41.394454], [-8.350754, 41.392312], [-8.338364, 41.382936], [-8.335451, 41.373912], [-8.339092, 41.362688], [-8.351137, 41.35373], [-8.363112, 41.351614], [-8.375046, 41.353719], [-8.379611, 41.356143], [-8.388963, 41.365201], [-8.390814, 41.374218], [-8.386717, 41.383897]]], [[[-8.721914, 41.309498], [-8.734102, 41.303462], [-8.736846, 41.294461], [-8.731157, 41.28544], [-8.722033, 41.281464], [-8.71009, 41.281901], [-8.703564, 41.285372], [-8.6981, 41.292478], [-8.698079, 41.296986], [-8.701098, 41.303381], [-8.709971, 41.308756], [-8.721914, 41.309498]]]]}}, {"id": "6", "type": "Feature", "properties": {"fill": "#a3a3a3", "value_min": -0.75, "value_max": -0.5}, "geometry": {"type": "MultiPolygon", "coordinates": [[[[-8.451477, 41.700301], [-8.453868, 41.697961], [-8.453255, 41.695487], [-8.461659, 41.694563], [-8.482012, 41.682123], [-8.484371, 41.674238], [-8.49308, 41.674886], [-8.499963, 41.671038], [-8.50927, 41.671233], [-8.51018, 41.672806], [-8.511967, 41.670324], [-8.509856, 41.668755], [-8.522103, 41.658811], [-8.525706, 41.659023], [-8.527769, 41.652714], [-8.534066, 41.652017], [-8.537355, 41.64998], [-8.537634, 41.646602], [-8.543876, 41.637352], [-8.543855, 41.633976], [-8.536342, 41.631977], [-8.535128, 41.62973], [-8.543431, 41.61462], [-8.554533, 41.615255], [-8.557244, 41.617046], [-8.562639, 41.61635], [-8.568056, 41.619031], [-8.570735, 41.616095], [-8.577321, 41.614269], [-8.581231, 41.615829], [-8.585766, 41.620988], [-8.591462, 41.620515], [-8.596534, 41.616668], [-8.601628, 41.615972], [-8.603996, 41.611686], [-8.613256, 41.606696], [-8.619881, 41.610269], [-8.621338, 41.604636], [-8.628833, 41.604378], [-8.636302, 41.600744], [-8.64075, 41.594422], [-8.645536, 41.593051], [-8.646744, 41.594171], [-8.649125, 41.591909], [-8.656622, 41.5921], [-8.660788, 41.588255], [-8.663794, 41.589141], [-8.665265, 41.585758], [-8.66948, 41.587989], [-8.684455, 41.586117], [-8.685608, 41.58071], [-8.697261, 41.576376], [-8.701703, 41.570277], [-8.707704, 41.570923], [-8.712485, 41.569323], [-8.716422, 41.573805], [-8.720316, 41.57356], [-8.725151, 41.577811], [-8.726633, 41.576003], [-8.734424, 41.575737], [-8.736564, 41.580228], [-8.738354, 41.579318], [-8.740778, 41.582006], [-8.74467, 41.581535], [-8.750711, 41.58623], [-8.756374, 41.582823], [-8.75635, 41.580347], [-8.762327, 41.578514], [-8.764443, 41.580303], [-8.767441, 41.580286], [-8.769874, 41.583874], [-8.768997, 41.58613], [-8.773228, 41.589482], [-8.775371, 41.593972], [-8.78556, 41.593464], [-8.797327, 41.600599], [-8.804218, 41.600109], [-8.80456, 41.604158], [-8.809434, 41.611332], [-8.828644, 41.609656], [-8.82839, 41.585633], [-8.818497, 41.554794], [-8.8221, 41.547542], [-8.821965, 41.534907], [-8.815948, 41.523654], [-8.784157, 41.528756], [-8.756933, 41.530037], [-8.732966, 41.528298], [-8.709011, 41.524212], [-8.685074, 41.517187], [-8.661155, 41.507594], [-8.632024, 41.49234], [-8.620917, 41.483297], [-8.615989, 41.474273], [-8.615179, 41.465263], [-8.625684, 41.424534], [-8.632207, 41.411273], [-8.637763, 41.404479], [-8.663993, 41.384348], [-8.669161, 41.375355], [-8.670214, 41.366351], [-8.667636, 41.357335], [-8.661977, 41.349241], [-8.650072, 41.3401], [-8.638146, 41.335486], [-8.626205, 41.333617], [-8.614251, 41.334146], [-8.596312, 41.339092], [-8.566298, 41.356648], [-8.530312, 41.373526], [-8.518299, 41.381013], [-8.506264, 41.390941], [-8.494198, 41.404397], [-8.485199, 41.419717], [-8.48238, 41.428712], [-8.481846, 41.446725], [-8.486778, 41.464762], [-8.499251, 41.482831], [-8.517485, 41.500924], [-8.522534, 41.509953], [-8.52649, 41.527984], [-8.531929, 41.537014], [-8.552976, 41.55612], [-8.563216, 41.573166], [-8.565221, 41.582181], [-8.564705, 41.591186], [-8.560841, 41.600179], [-8.552618, 41.608035], [-8.540581, 41.612998], [-8.528572, 41.613953], [-8.516584, 41.612037], [-8.504617, 41.607488], [-8.49267, 41.600461], [-8.48135, 41.59084], [-8.474565, 41.581802], [-8.473596, 41.572791], [-8.487925, 41.545833], [-8.481453, 41.536797], [-8.457309, 41.524189], [-8.445331, 41.523272], [-8.431443, 41.527553], [-8.418833, 41.536498], [-8.401156, 41.554422], [-8.385035, 41.562202], [-8.373014, 41.565107], [-8.349008, 41.566964], [-8.337027, 41.565794], [-8.325065, 41.562741], [-8.313127, 41.55753], [-8.299758, 41.544841], [-8.294951, 41.535805], [-8.283879, 41.499707], [-8.269637, 41.463588], [-8.270779, 41.44558], [-8.282256, 41.41863], [-8.286664, 41.400642], [-8.286779, 41.37362], [-8.280748, 41.321298], [-8.278828, 41.321976], [-8.278238, 41.325128], [-8.273161, 41.325134], [-8.269582, 41.326939], [-8.265709, 41.331221], [-8.269004, 41.336169], [-8.263339, 41.340902], [-8.262751, 41.345405], [-8.256483, 41.347732], [-8.267306, 41.367132], [-8.269322, 41.382519], [-8.267774, 41.391516], [-8.263863, 41.400499], [-8.254833, 41.412404], [-8.227813, 41.436292], [-8.223607, 41.445272], [-8.222858, 41.454274], [-8.224679, 41.463294], [-8.230486, 41.47234], [-8.253995, 41.485512], [-8.267484, 41.499604], [-8.27, 41.508627], [-8.268833, 41.517627], [-8.263023, 41.526597], [-8.253439, 41.533983], [-8.241404, 41.538036], [-8.229403, 41.53912], [-8.169506, 41.535592], [-8.157547, 41.533348], [-8.14563, 41.527965], [-8.127663, 41.516643], [-8.109888, 41.512121], [-8.0906, 41.512224], [-8.091196, 41.516767], [-8.089398, 41.519468], [-8.090594, 41.522169], [-8.093588, 41.52335], [-8.097787, 41.52058], [-8.109778, 41.520142], [-8.11815, 41.525578], [-8.117172, 41.534577], [-8.109503, 41.540236], [-8.101068, 41.539681], [-8.106759, 41.543557], [-8.101666, 41.542655], [-8.094175, 41.544904], [-8.087885, 41.542876], [-8.083389, 41.5449], [-8.080687, 41.551651], [-8.074097, 41.549848], [-8.073494, 41.553449], [-8.075891, 41.554575], [-8.076188, 41.557276], [-8.079783, 41.558403], [-8.081576, 41.565157], [-8.078879, 41.56493], [-8.075279, 41.568305], [-8.073182, 41.568079], [-8.069283, 41.570553], [-8.068081, 41.573478], [-8.056684, 41.579549], [-8.052181, 41.584498], [-8.052777, 41.587649], [-8.048277, 41.590122], [-8.047974, 41.592373], [-8.037169, 41.600242], [-8.03417, 41.600777], [-8.043221, 41.61505], [-8.062297, 41.633222], [-8.072119, 41.639363], [-8.096002, 41.648736], [-8.107924, 41.655008], [-8.117403, 41.66068], [-8.128029, 41.669768], [-8.126905, 41.678766], [-8.119571, 41.681651], [-8.100926, 41.69658], [-8.098244, 41.705566], [-8.100828, 41.714593], [-8.106948, 41.725592], [-8.118833, 41.735692], [-8.130811, 41.739146], [-8.142874, 41.736338], [-8.154989, 41.729464], [-8.167068, 41.72519], [-8.17909, 41.725288], [-8.198179, 41.733328], [-8.210369, 41.742419], [-8.214886, 41.747718], [-8.226852, 41.752808], [-8.238928, 41.74875], [-8.244113, 41.742646], [-8.263212, 41.72874], [-8.275291, 41.723776], [-8.287332, 41.722125], [-8.299333, 41.724152], [-8.31459, 41.734081], [-8.320255, 41.743122], [-8.322267, 41.752141], [-8.320717, 41.762612], [-8.326436, 41.765096], [-8.328234, 41.763292], [-8.336653, 41.763728], [-8.338452, 41.762149], [-8.344765, 41.762363], [-8.349267, 41.760103], [-8.352557, 41.755145], [-8.34982, 41.745922], [-8.349814, 41.744122], [-8.352516, 41.743441], [-8.352203, 41.739616], [-8.357897, 41.735103], [-8.362407, 41.735994], [-8.368703, 41.73193], [-8.374122, 41.734845], [-8.38177, 41.731677], [-8.379698, 41.725444], [-8.381024, 41.716444], [-8.387509, 41.707472], [-8.403047, 41.698546], [-8.419832, 41.694066], [-8.43185, 41.694022], [-8.443844, 41.696707], [-8.451477, 41.700301]], [[-8.131348, 41.699322], [-8.126358, 41.705783], [-8.119169, 41.711065], [-8.10769, 41.70564], [-8.106915, 41.696627], [-8.119465, 41.689381], [-8.131422, 41.693816], [-8.134622, 41.696839], [-8.131348, 41.699322]], [[-8.383858, 41.685862], [-8.371835, 41.686666], [-8.359845, 41.684076], [-8.352435, 41.680258], [-8.345663, 41.671213], [-8.344932, 41.662202], [-8.349336, 41.653219], [-8.360238, 41.644309], [-8.372291, 41.639676], [-8.39632, 41.638166], [-8.405519, 41.635509], [-8.415997, 41.617549], [-8.431967, 41.608621], [-8.444613, 41.607236], [-8.45659, 41.610105], [-8.467892, 41.617801], [-8.472913, 41.626831], [-8.472438, 41.635836], [-8.468328, 41.642126], [-8.456255, 41.649954], [-8.444227, 41.652216], [-8.420201, 41.652913], [-8.410624, 41.671564], [-8.399369, 41.680513], [-8.383858, 41.685862]], [[-8.167929, 41.658451], [-8.155881, 41.661314], [-8.143866, 41.661602], [-8.131885, 41.659339], [-8.119941, 41.654485], [-8.096137, 41.63903], [-8.072264, 41.629237], [-8.066073, 41.624246], [-8.060825, 41.615196], [-8.060144, 41.606183], [-8.064078, 41.597208], [-8.072838, 41.589125], [-8.084911, 41.583822], [-8.096934, 41.581961], [-8.120914, 41.582852], [-8.156812, 41.589872], [-8.174807, 41.598056], [-8.185925, 41.607142], [-8.191476, 41.616189], [-8.193656, 41.625211], [-8.192457, 41.63421], [-8.188699, 41.643191], [-8.179342, 41.652131], [-8.167929, 41.658451]], [[-8.648774, 41.58115], [-8.636774, 41.581843], [-8.624785, 41.58054], [-8.61281, 41.576901], [-8.600854, 41.570561], [-8.58892, 41.561058], [-8.576571, 41.546194], [-8.571358, 41.537167], [-8.567887, 41.519139], [-8.569565, 41.501131], [-8.565374, 41.495453], [-8.560126, 41.492088], [-8.541474, 41.486756], [-8.529543, 41.480186], [-8.521858, 41.47392], [-8.514608, 41.464882], [-8.511366, 41.455861], [-8.511553, 41.446855], [-8.517904, 41.434356], [-8.529944, 41.424654], [-8.541939, 41.420662], [-8.553912, 41.419728], [-8.565868, 41.421405], [-8.577802, 41.426489], [-8.589494, 41.438152], [-8.593182, 41.447172], [-8.593995, 41.456183], [-8.58941, 41.48358], [-8.606684, 41.492256], [-8.625269, 41.496778], [-8.653565, 41.510422], [-8.666458, 41.519468], [-8.67497, 41.528499], [-8.680617, 41.537523], [-8.68278, 41.546536], [-8.682093, 41.555541], [-8.67789, 41.564537], [-8.672822, 41.570152], [-8.660788, 41.577828], [-8.648774, 41.58115]]], [[[-8.093289, 41.523548], [-8.093289, 41.523548], [-8.09333, 41.52352], [-8.093289, 41.523548]]], [[[-7.961525, 41.796773], [-7.964201, 41.794505], [-7.962038, 41.785478], [-7.949754, 41.780514], [-7.937725, 41.780229], [-7.919901, 41.78509], [-7.920397, 41.794101], [-7.935561, 41.80325], [-7.950274, 41.803385], [-7.961525, 41.796773]]], [[[-7.769596, 41.723956], [-7.767283, 41.729513], [-7.767753, 41.738525], [-7.775324, 41.756619], [-7.788349, 41.774771], [-7.805225, 41.787536], [-7.817176, 41.792065], [-7.829183, 41.793633], [-7.889463, 41.787744], [-7.900787, 41.784909], [-7.908977, 41.77598], [-7.911566, 41.757991], [-7.91676, 41.749033], [-7.939455, 41.731231], [-7.948127, 41.722304], [-7.95041, 41.713318], [-7.949558, 41.704303], [-7.945975, 41.695263], [-7.939287, 41.685401], [-7.927479, 41.672917], [-7.915611, 41.664218], [-7.900528, 41.657333], [-7.902319, 41.66015], [-7.899913, 41.66127], [-7.900198, 41.665547], [-7.898396, 41.665769], [-7.897186, 41.668467], [-7.892682, 41.668683], [-7.892377, 41.670033], [-7.888171, 41.670925], [-7.883969, 41.67069], [-7.880358, 41.673159], [-7.877044, 41.676077], [-7.876723, 41.681253], [-7.873401, 41.686198], [-7.868896, 41.686413], [-7.868008, 41.68326], [-7.866793, 41.683707], [-7.870204, 41.694543], [-7.870578, 41.703554], [-7.86668, 41.714663], [-7.854496, 41.72384], [-7.842442, 41.725613], [-7.830435, 41.724714], [-7.811941, 41.720976], [-7.795479, 41.715786], [-7.790966, 41.717044], [-7.789449, 41.719966], [-7.78464, 41.720402], [-7.78252, 41.723546], [-7.776204, 41.724652], [-7.773786, 41.727346], [-7.769596, 41.723956]], [[-7.889453, 41.766786], [-7.877631, 41.776105], [-7.865547, 41.779063], [-7.853519, 41.778765], [-7.841553, 41.775051], [-7.831251, 41.766209], [-7.829027, 41.757179], [-7.832469, 41.748207], [-7.842161, 41.741267], [-7.86641, 41.730043], [-7.878912, 41.702529], [-7.886187, 41.694699], [-7.891141, 41.690306], [-7.903187, 41.688556], [-7.915145, 41.692006], [-7.919383, 41.695016], [-7.927846, 41.704102], [-7.930652, 41.713136], [-7.928416, 41.722122], [-7.921309, 41.731062], [-7.896078, 41.748836], [-7.889453, 41.766786]]]]}}, {"id": "0", "type": "Feature", "properties": {"fill": "#b11c1c", "value_min": -2.25, "value_max": -2.0}, "geometry": {"type": "Polygon", "coordinates": [[[-8.122318, 41.479067], [-8.110348, 41.478532], [-8.108738, 41.480468], [-8.11029, 41.482756], [-8.122273, 41.482391], [-8.122318, 41.479067]]]}}, {"id": "1", "type": "Feature", "properties": {"fill": "#c93e18", "value_min": -2.0, "value_max": -1.75}, "geometry": {"type": "MultiPolygon", "coordinates": [[[[-8.095614, 41.676465], [-8.083604, 41.676167], [-8.081255, 41.67841], [-8.08354, 41.680705], [-8.095561, 41.680209], [-8.096955, 41.678535], [-8.095614, 41.676465]]], [[[-8.035803, 41.659133], [-8.023912, 41.65117], [-8.013033, 41.659831], [-8.023648, 41.668676], [-8.035775, 41.661002], [-8.035803, 41.659133]]], [[[-8.13422, 41.484705], [-8.136264, 41.480678], [-8.132277, 41.471641], [-8.122497, 41.465793], [-8.110529, 41.465336], [-8.09899, 41.471385], [-8.095571, 41.480366], [-8.101475, 41.489419], [-8.11015, 41.493007], [-8.122126, 41.493302], [-8.131023, 41.489646], [-8.13422, 41.484705]], [[-8.122318, 41.479067], [-8.122273, 41.482391], [-8.11029, 41.482756], [-8.108738, 41.480468], [-8.110348, 41.478532], [-8.122318, 41.479067]]]]}}, {"id": "2", "type": "Feature", "properties": {"fill": "#e57b10", "value_min": -1.75, "value_max": -1.5}, "geometry": {"type": "MultiPolygon", "coordinates": [[[[-8.059276, 41.696776], [-8.046874, 41.696144], [-8.040973, 41.705102], [-8.047037, 41.711749], [-8.05906, 41.71159], [-8.064144, 41.705293], [-8.059276, 41.696776]]], [[[-8.09547, 41.686711], [-8.102245, 41.678576], [-8.096806, 41.669527], [-8.083726, 41.667594], [-8.078625, 41.669382], [-8.071694, 41.678334], [-8.077521, 41.687387], [-8.083416, 41.689376], [-8.09547, 41.686711]], [[-8.095614, 41.676465], [-8.096955, 41.678535], [-8.095561, 41.680209], [-8.08354, 41.680705], [-8.081255, 41.67841], [-8.083604, 41.676167], [-8.095614, 41.676465]]], [[[-8.046494, 41.660113], [-8.041943, 41.651068], [-8.03599, 41.646566], [-8.024033, 41.643163], [-8.011994, 41.64521], [-8.003997, 41.650746], [-8.00064, 41.659724], [-8.004219, 41.668762], [-8.011548, 41.674439], [-8.023516, 41.677431], [-8.035556, 41.675691], [-8.044165, 41.669101], [-8.046494, 41.660113]], [[-8.035803, 41.659133], [-8.035775, 41.661002], [-8.023648, 41.668676], [-8.013033, 41.659831], [-8.023912, 41.65117], [-8.035803, 41.659133]]], [[[-8.134073, 41.495765], [-8.14304, 41.489736], [-8.147006, 41.480759], [-8.145709, 41.471742], [-8.138699, 41.462682], [-8.134555, 41.459525], [-8.122642, 41.455053], [-8.110678, 41.454431], [-8.098664, 41.457359], [-8.090967, 41.462315], [-8.084418, 41.47127], [-8.083978, 41.480274], [-8.089569, 41.489326], [-8.098153, 41.494234], [-8.110077, 41.498326], [-8.12205, 41.49895], [-8.134073, 41.495765]], [[-8.13422, 41.484705], [-8.131023, 41.489646], [-8.122126, 41.493302], [-8.11015, 41.493007], [-8.101475, 41.489419], [-8.095571, 41.480366], [-8.09899, 41.471385], [-8.110529, 41.465336], [-8.122497, 41.465793], [-8.132277, 41.471641], [-8.136264, 41.480678], [-8.13422, 41.484705]]]]}}, {"id": "5", "type": "Feature", "properties": {"fill": "#a3a3a3", "value_min": -1.0, "value_max": -0.75}, "geometry": {"type": "MultiPolygon", "coordinates": [[[[-8.320717, 41.762612], [-8.322267, 41.752141], [-8.320255, 41.743122], [-8.31459, 41.734081], [-8.299333, 41.724152], [-8.287332, 41.722125], [-8.275291, 41.723776], [-8.263212, 41.72874], [-8.244113, 41.742646], [-8.238928, 41.74875], [-8.226852, 41.752808], [-8.214886, 41.747718], [-8.210369, 41.742419], [-8.198179, 41.733328], [-8.17909, 41.725288], [-8.167068, 41.72519], [-8.154989, 41.729464], [-8.142874, 41.736338], [-8.130811, 41.739146], [-8.118833, 41.735692], [-8.106948, 41.725592], [-8.100828, 41.714593], [-8.098244, 41.705566], [-8.100926, 41.69658], [-8.119571, 41.681651], [-8.126905, 41.678766], [-8.128029, 41.669768], [-8.117403, 41.66068], [-8.107924, 41.655008], [-8.096002, 41.648736], [-8.072119, 41.639363], [-8.062297, 41.633222], [-8.043221, 41.61505], [-8.03417, 41.600777], [-8.031467, 41.602938], [-8.02367, 41.603156], [-8.019174, 41.601802], [-8.015872, 41.603824], [-8.013474, 41.603372], [-8.005971, 41.60629], [-8.003562, 41.611239], [-7.998761, 41.612809], [-7.999669, 41.608759], [-7.996976, 41.605829], [-7.996684, 41.602003], [-7.984685, 41.603564], [-7.982292, 41.60086], [-7.975689, 41.603552], [-7.974482, 41.606701], [-7.970882, 41.607147], [-7.969091, 41.603768], [-7.965796, 41.602413], [-7.9541, 41.602846], [-7.952606, 41.600592], [-7.947808, 41.60081], [-7.945413, 41.599456], [-7.942725, 41.595625], [-7.936132, 41.594488], [-7.93791, 41.601694], [-7.937004, 41.603718], [-7.931604, 41.604384], [-7.930979, 41.612711], [-7.925556, 41.620354], [-7.920755, 41.620796], [-7.917748, 41.623041], [-7.915933, 41.627764], [-7.913229, 41.628885], [-7.912613, 41.63361], [-7.906014, 41.633147], [-7.906884, 41.641927], [-7.897869, 41.645511], [-7.89696, 41.647985], [-7.892759, 41.647976], [-7.892145, 41.651576], [-7.900528, 41.657333], [-7.915611, 41.664218], [-7.927479, 41.672917], [-7.939287, 41.685401], [-7.945975, 41.695263], [-7.949558, 41.704303], [-7.95041, 41.713318], [-7.948127, 41.722304], [-7.939455, 41.731231], [-7.91676, 41.749033], [-7.911566, 41.757991], [-7.908977, 41.77598], [-7.900787, 41.784909], [-7.889463, 41.787744], [-7.829183, 41.793633], [-7.817176, 41.792065], [-7.805225, 41.787536], [-7.788349, 41.774771], [-7.775324, 41.756619], [-7.767753, 41.738525], [-7.767283, 41.729513], [-7.769596, 41.723956], [-7.765698, 41.723044], [-7.763888, 41.724389], [-7.761765, 41.727758], [-7.762933, 41.733839], [-7.759307, 41.737203], [-7.759597, 41.739005], [-7.75689, 41.739446], [-7.758687, 41.740577], [-7.757758, 41.745301], [-7.748417, 41.749321], [-7.747786, 41.754496], [-7.743866, 41.756509], [-7.740214, 41.763924], [-7.726937, 41.771755], [-7.7254, 41.777152], [-7.727191, 41.779184], [-7.724177, 41.780299], [-7.725372, 41.781653], [-7.722296, 41.792446], [-7.728879, 41.797871], [-7.727026, 41.805517], [-7.728761, 41.816776], [-7.732041, 41.821514], [-7.743152, 41.825154], [-7.742839, 41.827178], [-7.740729, 41.827712], [-7.756339, 41.826245], [-7.768364, 41.827106], [-7.78035, 41.830041], [-7.792289, 41.83555], [-7.806682, 41.847017], [-7.813282, 41.856092], [-7.818168, 41.872872], [-7.823863, 41.874013], [-7.825059, 41.875817], [-7.830479, 41.875831], [-7.830789, 41.874031], [-7.832894, 41.874712], [-7.83772, 41.872924], [-7.842528, 41.875187], [-7.841663, 41.866632], [-7.849515, 41.861475], [-7.858542, 41.862622], [-7.859456, 41.860148], [-7.864877, 41.859711], [-7.87033, 41.851395], [-7.873043, 41.850501], [-7.873066, 41.844875], [-7.879956, 41.853217], [-7.888076, 41.855486], [-7.891023, 41.858193], [-7.892488, 41.847876], [-7.896802, 41.838911], [-7.904388, 41.829977], [-7.919548, 41.821114], [-7.937121, 41.816796], [-7.96123, 41.815009], [-7.985266, 41.817748], [-7.997222, 41.823147], [-8.0068, 41.830908], [-8.010566, 41.837223], [-8.013965, 41.828899], [-8.017873, 41.831379], [-8.02901, 41.829589], [-8.037134, 41.831171], [-8.041351, 41.828023], [-8.041054, 41.825097], [-8.045268, 41.824425], [-8.046775, 41.821951], [-8.056712, 41.81588], [-8.06664, 41.817012], [-8.072961, 41.813414], [-8.078678, 41.813417], [-8.082892, 41.810493], [-8.091013, 41.812521], [-8.093421, 41.811397], [-8.093723, 41.808471], [-8.101845, 41.809824], [-8.104853, 41.81185], [-8.115984, 41.812302], [-8.123807, 41.808702], [-8.138247, 41.808477], [-8.139751, 41.813203], [-8.14276, 41.812978], [-8.144866, 41.815228], [-8.149078, 41.814777], [-8.153291, 41.817703], [-8.158106, 41.818377], [-8.165326, 41.81815], [-8.173744, 41.808019], [-8.177655, 41.808242], [-8.183676, 41.812741], [-8.190291, 41.809587], [-8.197158, 41.814129], [-8.201063, 41.808724], [-8.204973, 41.807372], [-8.205872, 41.804445], [-8.213692, 41.803765], [-8.217598, 41.80016], [-8.217589, 41.793634], [-8.224207, 41.794303], [-8.229917, 41.791598], [-8.240744, 41.791588], [-8.24074, 41.789338], [-8.244347, 41.787984], [-8.245546, 41.785731], [-8.251257, 41.784375], [-8.251845, 41.777172], [-8.257551, 41.773564], [-8.261762, 41.774235], [-8.271366, 41.766346], [-8.280681, 41.764083], [-8.284038, 41.761109], [-8.284931, 41.757507], [-8.305674, 41.758152], [-8.311096, 41.762195], [-8.318308, 41.761283], [-8.320717, 41.762612]], [[-7.872832, 41.811658], [-7.877014, 41.811466], [-7.877312, 41.811702], [-7.877, 41.812282], [-7.872832, 41.811658]], [[-7.961525, 41.796773], [-7.950274, 41.803385], [-7.935561, 41.80325], [-7.920397, 41.794101], [-7.919901, 41.78509], [-7.937725, 41.780229], [-7.949754, 41.780514], [-7.962038, 41.785478], [-7.964201, 41.794505], [-7.961525, 41.796773]], [[-7.94991, 41.770944], [-7.937891, 41.770193], [-7.931276, 41.767183], [-7.927713, 41.758143], [-7.938275, 41.746891], [-7.950338, 41.744693], [-7.963013, 41.74946], [-7.968675, 41.758518], [-7.96219, 41.767466], [-7.94991, 41.770944]], [[-8.0583, 41.741273], [-8.046627, 41.739487], [-8.022869, 41.72015], [-7.991389, 41.704678], [-7.981156, 41.69558], [-7.96747, 41.677444], [-7.960107, 41.659364], [-7.959236, 41.650349], [-7.960925, 41.641357], [-7.965922, 41.632395], [-7.976311, 41.623688], [-7.988392, 41.618787], [-8.000418, 41.617268], [-8.012408, 41.618113], [-8.024363, 41.621316], [-8.036287, 41.62667], [-8.071969, 41.649763], [-8.095894, 41.656426], [-8.103996, 41.660576], [-8.114802, 41.669667], [-8.114897, 41.678674], [-8.094567, 41.69653], [-8.087976, 41.705485], [-8.083122, 41.72346], [-8.076913, 41.732418], [-8.070697, 41.738196], [-8.0583, 41.741273]]], [[[-8.0906, 41.512224], [-8.109888, 41.512121], [-8.127663, 41.516643], [-8.14563, 41.527965], [-8.157547, 41.533348], [-8.169506, 41.535592], [-8.229403, 41.53912], [-8.241404, 41.538036], [-8.253439, 41.533983], [-8.263023, 41.526597], [-8.268833, 41.517627], [-8.27, 41.508627], [-8.267484, 41.499604], [-8.253995, 41.485512], [-8.230486, 41.47234], [-8.224679, 41.463294], [-8.222858, 41.454274], [-8.223607, 41.445272], [-8.227813, 41.436292], [-8.254833, 41.412404], [-8.263863, 41.400499], [-8.267774, 41.391516], [-8.269322, 41.382519], [-8.267306, 41.367132], [-8.256483, 41.347732], [-8.255889, 41.349689], [-8.249622, 41.353072], [-8.251123, 41.356897], [-8.248141, 41.360052], [-8.248448, 41.364328], [-8.245461, 41.364781], [-8.244301, 41.367033], [-8.248518, 41.373377], [-8.249864, 41.382393], [-8.246364, 41.391378], [-8.243068, 41.395082], [-8.231024, 41.40204], [-8.219038, 41.403961], [-8.207093, 41.40247], [-8.195204, 41.396385], [-8.189526, 41.390992], [-8.186585, 41.381963], [-8.187853, 41.375629], [-8.168382, 41.377438], [-8.164499, 41.38059], [-8.152544, 41.375866], [-8.151049, 41.37339], [-8.145073, 41.374742], [-8.139694, 41.377894], [-8.133418, 41.374292], [-8.119672, 41.376768], [-8.119672, 41.378569], [-8.116683, 41.380144], [-8.117578, 41.386447], [-8.113992, 41.386896], [-8.112795, 41.390723], [-8.110105, 41.390947], [-8.108011, 41.393648], [-8.103827, 41.392972], [-8.105321, 41.394998], [-8.10263, 41.396123], [-8.10801, 41.398825], [-8.108008, 41.404002], [-8.104419, 41.406252], [-8.104119, 41.408728], [-8.101727, 41.409403], [-8.102025, 41.411204], [-8.092756, 41.411201], [-8.09126, 41.414116], [-8.111239, 41.413282], [-8.123183, 41.414845], [-8.14701, 41.422854], [-8.158875, 41.430734], [-8.170677, 41.443776], [-8.17665, 41.453952], [-8.180691, 41.471996], [-8.177154, 41.489986], [-8.170421, 41.498945], [-8.157885, 41.507288], [-8.145863, 41.510305], [-8.13388, 41.510265], [-8.093, 41.504747], [-8.0906, 41.512224]]], [[[-7.795479, 41.715786], [-7.811941, 41.720976], [-7.830435, 41.724714], [-7.842442, 41.725613], [-7.854496, 41.72384], [-7.86668, 41.714663], [-7.870578, 41.703554], [-7.870204, 41.694543], [-7.866793, 41.683707], [-7.860493, 41.685268], [-7.857773, 41.689538], [-7.854776, 41.68818], [-7.847538, 41.695365], [-7.837309, 41.699391], [-7.835792, 41.702763], [-7.839682, 41.705924], [-7.838465, 41.709522], [-7.832453, 41.710407], [-7.825252, 41.708813], [-7.818621, 41.713522], [-7.815291, 41.718689], [-7.808986, 41.717996], [-7.808396, 41.715744], [-7.804499, 41.714158], [-7.795479, 41.715786]], [[-7.848592, 41.712343], [-7.842313, 41.703273], [-7.854926, 41.699667], [-7.858234, 41.703432], [-7.855851, 41.712415], [-7.848592, 41.712343]]], [[[-8.059853, 41.424241], [-8.077802, 41.41698], [-8.070923, 41.41862], [-8.066739, 41.416142], [-8.061953, 41.417264], [-8.059853, 41.424241]]], [[[-8.383858, 41.685862], [-8.399369, 41.680513], [-8.410624, 41.671564], [-8.420201, 41.652913], [-8.444227, 41.652216], [-8.456255, 41.649954], [-8.468328, 41.642126], [-8.472438, 41.635836], [-8.472913, 41.626831], [-8.467892, 41.617801], [-8.45659, 41.610105], [-8.444613, 41.607236], [-8.431967, 41.608621], [-8.415997, 41.617549], [-8.405519, 41.635509], [-8.39632, 41.638166], [-8.372291, 41.639676], [-8.360238, 41.644309], [-8.349336, 41.653219], [-8.344932, 41.662202], [-8.345663, 41.671213], [-8.352435, 41.680258], [-8.359845, 41.684076], [-8.371835, 41.686666], [-8.383858, 41.685862]]], [[[-8.648774, 41.58115], [-8.660788, 41.577828], [-8.672822, 41.570152], [-8.67789, 41.564537], [-8.682093, 41.555541], [-8.68278, 41.546536], [-8.680617, 41.537523], [-8.67497, 41.528499], [-8.666458, 41.519468], [-8.653565, 41.510422], [-8.625269, 41.496778], [-8.606684, 41.492256], [-8.58941, 41.48358], [-8.593995, 41.456183], [-8.593182, 41.447172], [-8.589494, 41.438152], [-8.577802, 41.426489], [-8.565868, 41.421405], [-8.553912, 41.419728], [-8.541939, 41.420662], [-8.529944, 41.424654], [-8.517904, 41.434356], [-8.511553, 41.446855], [-8.511366, 41.455861], [-8.514608, 41.464882], [-8.521858, 41.47392], [-8.529543, 41.480186], [-8.541474, 41.486756], [-8.560126, 41.492088], [-8.565374, 41.495453], [-8.569565, 41.501131], [-8.567887, 41.519139], [-8.571358, 41.537167], [-8.576571, 41.546194], [-8.58892, 41.561058], [-8.600854, 41.570561], [-8.61281, 41.576901], [-8.624785, 41.58054], [-8.636774, 41.581843], [-8.648774, 41.58115]], [[-8.62492, 41.557147], [-8.612943, 41.55469], [-8.600989, 41.548535], [-8.591124, 41.537239], [-8.588496, 41.528222], [-8.589854, 41.51922], [-8.596507, 41.510236], [-8.601243, 41.507257], [-8.613245, 41.503938], [-8.625223, 41.504602], [-8.640922, 41.510383], [-8.652885, 41.519427], [-8.658056, 41.52845], [-8.65857, 41.537459], [-8.654067, 41.546453], [-8.648937, 41.551084], [-8.636918, 41.556129], [-8.62492, 41.557147]], [[-8.553559, 41.471325], [-8.541599, 41.469058], [-8.535756, 41.46497], [-8.530852, 41.455942], [-8.534225, 41.446949], [-8.541794, 41.441318], [-8.553777, 41.439513], [-8.565718, 41.443919], [-8.569162, 41.447085], [-8.572363, 41.456104], [-8.568403, 41.465097], [-8.565561, 41.467464], [-8.553559, 41.471325]]]]}}, {"id": "4", "type": "Feature", "properties": {"fill": "#b6a27f", "value_min": -1.25, "value_max": -1.0}, "geometry": {"type": "MultiPolygon", "coordinates": [[[[-7.818168, 41.872872], [-7.813282, 41.856092], [-7.806682, 41.847017], [-7.792289, 41.83555], [-7.78035, 41.830041], [-7.768364, 41.827106], [-7.756339, 41.826245], [-7.740729, 41.827712], [-7.738919, 41.828515], [-7.739805, 41.831219], [-7.74729, 41.837772], [-7.746349, 41.84407], [-7.750541, 41.847685], [-7.750532, 41.849261], [-7.743309, 41.849012], [-7.746901, 41.8524], [-7.746884, 41.855176], [-7.755845, 41.851735], [-7.767822, 41.855353], [-7.768537, 41.864627], [-7.755494, 41.86986], [-7.744825, 41.864371], [-7.746245, 41.855999], [-7.73843, 41.859348], [-7.734159, 41.868337], [-7.730228, 41.871024], [-7.729293, 41.875972], [-7.722351, 41.878424], [-7.720523, 41.881793], [-7.725335, 41.882935], [-7.726208, 41.887665], [-7.737044, 41.888828], [-7.737935, 41.890857], [-7.74246, 41.889747], [-7.742785, 41.885922], [-7.756022, 41.888441], [-7.758719, 41.890926], [-7.756592, 41.89407], [-7.758376, 41.898127], [-7.764097, 41.898595], [-7.779227, 41.886264], [-7.785257, 41.885157], [-7.788886, 41.882467], [-7.794007, 41.882257], [-7.796739, 41.878214], [-7.794349, 41.87438], [-7.797064, 41.873488], [-7.803381, 41.874857], [-7.804914, 41.869459], [-7.813032, 41.871958], [-7.814229, 41.873537], [-7.818168, 41.872872]]], [[[-8.010566, 41.837223], [-8.0068, 41.830908], [-7.997222, 41.823147], [-7.985266, 41.817748], [-7.96123, 41.815009], [-7.937121, 41.816796], [-7.919548, 41.821114], [-7.904388, 41.829977], [-7.896802, 41.838911], [-7.892488, 41.847876], [-7.891023, 41.858193], [-7.900698, 41.861588], [-7.904318, 41.859795], [-7.907309, 41.865203], [-7.906095, 41.868126], [-7.910299, 41.871285], [-7.909985, 41.875111], [-7.915391, 41.879397], [-7.921118, 41.877833], [-7.928044, 41.87807], [-7.935283, 41.874707], [-7.937389, 41.87516], [-7.941618, 41.870891], [-7.951254, 41.871132], [-7.956367, 41.87339], [-7.956362, 41.875191], [-7.960878, 41.875648], [-7.962086, 41.874074], [-7.973828, 41.875216], [-7.987996, 41.869157], [-7.990123, 41.860157], [-7.995547, 41.858138], [-7.994047, 41.855211], [-7.996765, 41.851162], [-8.00339, 41.85027], [-8.007618, 41.843072], [-8.007928, 41.838796], [-8.010566, 41.837223]], [[-7.948416, 41.862313], [-7.934425, 41.85728], [-7.926912, 41.848203], [-7.926678, 41.839194], [-7.933583, 41.830252], [-7.94902, 41.825449], [-7.961039, 41.826829], [-7.969188, 41.830577], [-7.976127, 41.839646], [-7.975446, 41.848646], [-7.966933, 41.857577], [-7.960487, 41.860947], [-7.948416, 41.862313]]], [[[-7.872832, 41.811658], [-7.877, 41.812282], [-7.877312, 41.811702], [-7.877014, 41.811466], [-7.872832, 41.811658]]], [[[-7.94991, 41.770944], [-7.96219, 41.767466], [-7.968675, 41.758518], [-7.963013, 41.74946], [-7.950338, 41.744693], [-7.938275, 41.746891], [-7.927713, 41.758143], [-7.931276, 41.767183], [-7.937891, 41.770193], [-7.94991, 41.770944]]], [[[-8.0583, 41.741273], [-8.070697, 41.738196], [-8.076913, 41.732418], [-8.083122, 41.72346], [-8.087976, 41.705485], [-8.094567, 41.69653], [-8.114897, 41.678674], [-8.114802, 41.669667], [-8.103996, 41.660576], [-8.095894, 41.656426], [-8.071969, 41.649763], [-8.036287, 41.62667], [-8.024363, 41.621316], [-8.012408, 41.618113], [-8.000418, 41.617268], [-7.988392, 41.618787], [-7.976311, 41.623688], [-7.965922, 41.632395], [-7.960925, 41.641357], [-7.959236, 41.650349], [-7.960107, 41.659364], [-7.96747, 41.677444], [-7.981156, 41.69558], [-7.991389, 41.704678], [-8.022869, 41.72015], [-8.046627, 41.739487], [-8.0583, 41.741273]], [[-8.058897, 41.72277], [-8.046883, 41.722221], [-8.032688, 41.71404], [-8.020585, 41.695923], [-7.999415, 41.682109], [-7.987803, 41.668618], [-7.985203, 41.659588], [-7.986961, 41.650597], [-7.993631, 41.641648], [-8.000105, 41.637516], [-8.012165, 41.634037], [-8.024168, 41.63422], [-8.036124, 41.637599], [-8.054898, 41.651175], [-8.059843, 41.657849], [-8.071802, 41.661414], [-8.083819, 41.661001], [-8.095802, 41.662986], [-8.105495, 41.669595], [-8.107534, 41.678617], [-8.100076, 41.687566], [-8.095402, 41.691588], [-8.082557, 41.696435], [-8.071018, 41.715944], [-8.058897, 41.72277]]], [[[-7.848592, 41.712343], [-7.855851, 41.712415], [-7.858234, 41.703432], [-7.854926, 41.699667], [-7.842313, 41.703273], [-7.848592, 41.712343]]], [[[-8.62492, 41.557147], [-8.636918, 41.556129], [-8.648937, 41.551084], [-8.654067, 41.546453], [-8.65857, 41.537459], [-8.658056, 41.52845], [-8.652885, 41.519427], [-8.640922, 41.510383], [-8.625223, 41.504602], [-8.613245, 41.503938], [-8.601243, 41.507257], [-8.596507, 41.510236], [-8.589854, 41.51922], [-8.588496, 41.528222], [-8.591124, 41.537239], [-8.600989, 41.548535], [-8.612943, 41.55469], [-8.62492, 41.557147]], [[-8.624999, 41.543441], [-8.613026, 41.540753], [-8.60828, 41.537299], [-8.602915, 41.528273], [-8.605516, 41.519275], [-8.613186, 41.51389], [-8.625179, 41.512228], [-8.640644, 41.51939], [-8.644504, 41.528409], [-8.640545, 41.537404], [-8.637006, 41.540272], [-8.624999, 41.543441]]], [[[-8.093, 41.504747], [-8.13388, 41.510265], [-8.145863, 41.510305], [-8.157885, 41.507288], [-8.170421, 41.498945], [-8.177154, 41.489986], [-8.180691, 41.471996], [-8.17665, 41.453952], [-8.170677, 41.443776], [-8.158875, 41.430734], [-8.14701, 41.422854], [-8.123183, 41.414845], [-8.111239, 41.413282], [-8.09126, 41.414116], [-8.079893, 41.41975], [-8.077802, 41.41698], [-8.059853, 41.424241], [-8.055959, 41.429415], [-8.05745, 41.432793], [-8.056549, 41.436394], [-8.069999, 41.447206], [-8.068802, 41.462286], [-8.075529, 41.453184], [-8.086859, 41.44538], [-8.098888, 41.441211], [-8.110876, 41.439869], [-8.122832, 41.440923], [-8.134752, 41.444714], [-8.149284, 41.453753], [-8.156661, 41.462815], [-8.160044, 41.471847], [-8.160094, 41.480855], [-8.156465, 41.489836], [-8.146429, 41.498769], [-8.133978, 41.502935], [-8.121987, 41.503625], [-8.11002, 41.502531], [-8.091233, 41.498346], [-8.075127, 41.48921], [-8.068231, 41.480068], [-8.066074, 41.483218], [-8.066069, 41.48817], [-8.072054, 41.490199], [-8.072348, 41.495601], [-8.078333, 41.49898], [-8.078332, 41.500331], [-8.093, 41.504747]]], [[[-8.553559, 41.471325], [-8.565561, 41.467464], [-8.568403, 41.465097], [-8.572363, 41.456104], [-8.569162, 41.447085], [-8.565718, 41.443919], [-8.553777, 41.439513], [-8.541794, 41.441318], [-8.534225, 41.446949], [-8.530852, 41.455942], [-8.535756, 41.46497], [-8.541599, 41.469058], [-8.553559, 41.471325]]], [[[-8.187853, 41.375629], [-8.186585, 41.381963], [-8.189526, 41.390992], [-8.195204, 41.396385], [-8.207093, 41.40247], [-8.219038, 41.403961], [-8.231024, 41.40204], [-8.243068, 41.395082], [-8.246364, 41.391378], [-8.249864, 41.382393], [-8.248518, 41.373377], [-8.244301, 41.367033], [-8.239197, 41.371315], [-8.232024, 41.369971], [-8.224854, 41.370878], [-8.21738, 41.368182], [-8.214399, 41.373587], [-8.208127, 41.376968], [-8.199163, 41.377423], [-8.194976, 41.374275], [-8.191691, 41.376302], [-8.187853, 41.375629]]]]}}, {"id": "3", "type": "Feature", "properties": {"fill": "#e19f31", "value_min": -1.5, "value_max": -1.25}, "geometry": {"type": "MultiPolygon", "coordinates": [[[[-7.746245, 41.855999], [-7.744825, 41.864371], [-7.755494, 41.86986], [-7.768537, 41.864627], [-7.767822, 41.855353], [-7.755845, 41.851735], [-7.746884, 41.855176], [-7.746245, 41.855999]]], [[[-7.948416, 41.862313], [-7.960487, 41.860947], [-7.966933, 41.857577], [-7.975446, 41.848646], [-7.976127, 41.839646], [-7.969188, 41.830577], [-7.961039, 41.826829], [-7.94902, 41.825449], [-7.933583, 41.830252], [-7.926678, 41.839194], [-7.926912, 41.848203], [-7.934425, 41.85728], [-7.948416, 41.862313]]], [[[-8.058897, 41.72277], [-8.071018, 41.715944], [-8.082557, 41.696435], [-8.095402, 41.691588], [-8.100076, 41.687566], [-8.107534, 41.678617], [-8.105495, 41.669595], [-8.095802, 41.662986], [-8.083819, 41.661001], [-8.071802, 41.661414], [-8.059843, 41.657849], [-8.054898, 41.651175], [-8.036124, 41.637599], [-8.024168, 41.63422], [-8.012165, 41.634037], [-8.000105, 41.637516], [-7.993631, 41.641648], [-7.986961, 41.650597], [-7.985203, 41.659588], [-7.987803, 41.668618], [-7.999415, 41.682109], [-8.020585, 41.695923], [-8.032688, 41.71404], [-8.046883, 41.722221], [-8.058897, 41.72277]], [[-8.059276, 41.696776], [-8.064144, 41.705293], [-8.05906, 41.71159], [-8.047037, 41.711749], [-8.040973, 41.705102], [-8.046874, 41.696144], [-8.059276, 41.696776]], [[-8.09547, 41.686711], [-8.083416, 41.689376], [-8.077521, 41.687387], [-8.071694, 41.678334], [-8.078625, 41.669382], [-8.083726, 41.667594], [-8.096806, 41.669527], [-8.102245, 41.678576], [-8.09547, 41.686711]], [[-8.046494, 41.660113], [-8.044165, 41.669101], [-8.035556, 41.675691], [-8.023516, 41.677431], [-8.011548, 41.674439], [-8.004219, 41.668762], [-8.00064, 41.659724], [-8.003997, 41.650746], [-8.011994, 41.64521], [-8.024033, 41.643163], [-8.03599, 41.646566], [-8.041943, 41.651068], [-8.046494, 41.660113]]], [[[-8.624999, 41.543441], [-8.637006, 41.540272], [-8.640545, 41.537404], [-8.644504, 41.528409], [-8.640644, 41.51939], [-8.625179, 41.512228], [-8.613186, 41.51389], [-8.605516, 41.519275], [-8.602915, 41.528273], [-8.60828, 41.537299], [-8.613026, 41.540753], [-8.624999, 41.543441]]], [[[-8.068231, 41.480068], [-8.075127, 41.48921], [-8.091233, 41.498346], [-8.11002, 41.502531], [-8.121987, 41.503625], [-8.133978, 41.502935], [-8.146429, 41.498769], [-8.156465, 41.489836], [-8.160094, 41.480855], [-8.160044, 41.471847], [-8.156661, 41.462815], [-8.149284, 41.453753], [-8.134752, 41.444714], [-8.122832, 41.440923], [-8.110876, 41.439869], [-8.098888, 41.441211], [-8.086859, 41.44538], [-8.075529, 41.453184], [-8.068802, 41.462286], [-8.073872, 41.46499], [-8.074468, 41.468592], [-8.073564, 41.474668], [-8.068231, 41.480068]], [[-8.134073, 41.495765], [-8.12205, 41.49895], [-8.110077, 41.498326], [-8.098153, 41.494234], [-8.089569, 41.489326], [-8.083978, 41.480274], [-8.084418, 41.47127], [-8.090967, 41.462315], [-8.098664, 41.457359], [-8.110678, 41.454431], [-8.122642, 41.455053], [-8.134555, 41.459525], [-8.138699, 41.462682], [-8.145709, 41.471742], [-8.147006, 41.480759], [-8.14304, 41.489736], [-8.134073, 41.495765]]]]}}]}