{"type": "FeatureCollection", "features": [{"id": "6", "type": "Feature", "properties": {"fill": "#a3a3a3", "value_min": 0.0, "value_max": 0.25}, "geometry": {"type": "MultiPolygon", "coordinates": [[[[-7.72444, 41.786362], [-7.727987, 41.792132], [-7.732884, 41.79435], [-7.74494, 41.7933], [-7.75081, 41.783376], [-7.745295, 41.775111], [-7.741245, 41.774264], [-7.733297, 41.773397], [-7.72669, 41.778732], [-7.72514, 41.780302], [-7.724918, 41.780526], [-7.723845, 41.785394], [-7.723894, 41.785474], [-7.724142, 41.785878], [-7.724172, 41.785925], [-7.72444, 41.786362]]], [[[-7.950129, 41.757524], [-7.942112, 41.758276], [-7.950096, 41.759536], [-7.950129, 41.757524]]], [[[-7.905293, 41.712897], [-7.902804, 41.711062], [-7.890779, 41.71137], [-7.889551, 41.712746], [-7.890583, 41.722747], [-7.902601, 41.723028], [-7.904397, 41.721895], [-7.905293, 41.712897]]], [[[-8.235518, 41.697554], [-8.234482, 41.68854], [-8.227709, 41.681264], [-8.215752, 41.6765], [-8.203727, 41.677431], [-8.189588, 41.688232], [-8.188196, 41.69723], [-8.191392, 41.703026], [-8.194033, 41.706278], [-8.203302, 41.711841], [-8.215311, 41.712833], [-8.227386, 41.708251], [-8.235518, 41.697554]], [[-8.203419, 41.702396], [-8.19883, 41.697304], [-8.2031, 41.688327], [-8.215612, 41.688036], [-8.220798, 41.697455], [-8.215436, 41.702496], [-8.203419, 41.702396]]], [[[-8.119397, 41.694395], [-8.114917, 41.696689], [-8.119327, 41.699503], [-8.121696, 41.696741], [-8.119397, 41.694395]]], [[[-8.4563, 41.644629], [-8.471827, 41.635833], [-8.475758, 41.626844], [-8.473353, 41.617826], [-8.46856, 41.613892], [-8.457566, 41.608745], [-8.444609, 41.607673], [-8.432577, 41.611136], [-8.424947, 41.617594], [-8.422257, 41.626588], [-8.42647, 41.635616], [-8.432319, 41.640581], [-8.444288, 41.645066], [-8.4563, 41.644629]]], [[[-8.044952, 41.594846], [-8.04053, 41.606021], [-8.04209, 41.615041], [-8.048386, 41.6241], [-8.060186, 41.63427], [-8.072112, 41.639796], [-8.084095, 41.641507], [-8.096118, 41.640401], [-8.108232, 41.632652], [-8.122304, 41.615681], [-8.127289, 41.606712], [-8.126701, 41.597701], [-8.118802, 41.588633], [-8.10891, 41.583412], [-8.096955, 41.580396], [-8.084973, 41.579438], [-8.072967, 41.5801], [-8.060929, 41.58306], [-8.052778, 41.587386], [-8.052282, 41.587649], [-8.051878, 41.587864], [-8.051859, 41.587874], [-8.051578, 41.588023], [-8.051436, 41.588098], [-8.050377, 41.589054], [-8.05019, 41.589223], [-8.050077, 41.589325], [-8.049941, 41.589448], [-8.049777, 41.589596], [-8.049442, 41.589898], [-8.048276, 41.591077], [-8.048126, 41.591247], [-8.047975, 41.591418], [-8.046936, 41.592597], [-8.046774, 41.59278], [-8.046738, 41.592822], [-8.046474, 41.593121], [-8.046341, 41.593272], [-8.046174, 41.593461], [-8.046142, 41.593497], [-8.045874, 41.593802], [-8.045746, 41.593947], [-8.045573, 41.594142], [-8.045349, 41.594396], [-8.045273, 41.594483], [-8.045151, 41.594621], [-8.044973, 41.594823], [-8.044952, 41.594846]], [[-8.084154, 41.637344], [-8.072188, 41.634533], [-8.057307, 41.624174], [-8.0524, 41.615126], [-8.05245, 41.60612], [-8.060759, 41.594735], [-8.072844, 41.588746], [-8.084868, 41.586849], [-8.096849, 41.588058], [-8.108783, 41.592609], [-8.114732, 41.597609], [-8.118484, 41.606645], [-8.116837, 41.61564], [-8.108304, 41.627435], [-8.096184, 41.635714], [-8.084154, 41.637344]]], [[[-8.552685, 41.598322], [-8.559169, 41.591165], [-8.562495, 41.582171], [-8.562241, 41.573162], [-8.558406, 41.56414], [-8.552961, 41.558281], [-8.541025, 41.550339], [-8.529054, 41.547635], [-8.517058, 41.54839], [-8.505028, 41.553578], [-8.493428, 41.563872], [-8.487594, 41.572854], [-8.485528, 41.581852], [-8.487008, 41.590866], [-8.49268, 41.599169], [-8.504623, 41.606667], [-8.516608, 41.608791], [-8.528611, 41.608564], [-8.540633, 41.605689], [-8.552685, 41.598322]], [[-8.516772, 41.586748], [-8.507107, 41.581946], [-8.504348, 41.572927], [-8.51694, 41.564291], [-8.528908, 41.567745], [-8.533721, 41.57305], [-8.531383, 41.582048], [-8.528789, 41.584111], [-8.516772, 41.586748]]], [[[-8.504331, 41.509876], [-8.497613, 41.500839], [-8.493465, 41.498793], [-8.48149, 41.498016], [-8.47628, 41.500744], [-8.46792, 41.509713], [-8.473287, 41.518745], [-8.481292, 41.522775], [-8.493278, 41.522719], [-8.501163, 41.518869], [-8.504331, 41.509876]]], [[[-8.565526, 41.472723], [-8.574271, 41.465119], [-8.577527, 41.456123], [-8.57503, 41.447107], [-8.563861, 41.438057], [-8.553805, 41.435339], [-8.541827, 41.436611], [-8.527364, 41.446921], [-8.524676, 41.455917], [-8.527478, 41.464936], [-8.541556, 41.475051], [-8.553524, 41.476385], [-8.565526, 41.472723]]], [[[-8.522101, 41.200081], [-8.518138, 41.203675], [-8.513502, 41.212663], [-8.512669, 41.221667], [-8.515315, 41.230686], [-8.522304, 41.239723], [-8.531227, 41.245895], [-8.543131, 41.250298], [-8.555058, 41.251518], [-8.567005, 41.249858], [-8.578974, 41.244658], [-8.591187, 41.230981], [-8.592984, 41.221979], [-8.59158, 41.212966], [-8.585943, 41.203938], [-8.57605, 41.195609], [-8.576894, 41.201908], [-8.574515, 41.202593], [-8.57423, 41.20462], [-8.567971, 41.204644], [-8.565895, 41.206227], [-8.567697, 41.208246], [-8.566512, 41.209376], [-8.559636, 41.206251], [-8.554271, 41.20627], [-8.549521, 41.209214], [-8.544157, 41.209458], [-8.54238, 41.211265], [-8.533747, 41.213097], [-8.529858, 41.210859], [-8.530444, 41.209056], [-8.52653, 41.202542], [-8.522101, 41.200081]], [[-8.553663, 41.221834], [-8.555275, 41.219603], [-8.560833, 41.221861], [-8.55525, 41.223324], [-8.553663, 41.221834]]]]}}, {"id": "4", "type": "Feature", "properties": {"fill": "#a3a3a3", "value_min": -0.5, "value_max": -0.25}, "geometry": {"type": "Polygon", "coordinates": [[[-8.108387, 41.621399], [-8.112261, 41.615604], [-8.112186, 41.606597], [-8.108662, 41.601413], [-8.096765, 41.594025], [-8.084784, 41.592791], [-8.072741, 41.59591], [-8.06153, 41.606194], [-8.06037, 41.615192], [-8.064641, 41.624234], [-8.072256, 41.629757], [-8.084212, 41.633232], [-8.096239, 41.631778], [-8.106322, 41.624565], [-8.108387, 41.621399]], [[-8.084258, 41.630028], [-8.07116, 41.624287], [-8.066025, 41.615238], [-8.068843, 41.606254], [-8.072643, 41.60279], [-8.084708, 41.598173], [-8.09669, 41.59945], [-8.105873, 41.606548], [-8.107746, 41.615569], [-8.101859, 41.624531], [-8.096284, 41.628519], [-8.084258, 41.630028]]]}}, {"id": "3", "type": "Feature", "properties": {"fill": "#a3a3a3", "value_min": -0.75, "value_max": -0.5}, "geometry": {"type": "Polygon", "coordinates": [[[-8.084258, 41.630028], [-8.096284, 41.628519], [-8.101859, 41.624531], [-8.107746, 41.615569], [-8.105873, 41.606548], [-8.09669, 41.59945], [-8.084708, 41.598173], [-8.072643, 41.60279], [-8.068843, 41.606254], [-8.066025, 41.615238], [-8.07116, 41.624287], [-8.084258, 41.630028]], [[-8.084303, 41.626825], [-8.078565, 41.624346], [-8.071652, 41.615284], [-8.072493, 41.613234], [-8.077089, 41.60632], [-8.084644, 41.6027], [-8.096623, 41.604243], [-8.09954, 41.606498], [-8.103526, 41.615537], [-8.09633, 41.625259], [-8.084303, 41.626825]]]}}, {"id": "2", "type": "Feature", "properties": {"fill": "#a3a3a3", "value_min": -1.0, "value_max": -0.75}, "geometry": {"type": "Polygon", "coordinates": [[[-8.084303, 41.626825], [-8.09633, 41.625259], [-8.103526, 41.615537], [-8.09954, 41.606498], [-8.096623, 41.604243], [-8.084644, 41.6027], [-8.077089, 41.60632], [-8.072493, 41.613234], [-8.071652, 41.615284], [-8.078565, 41.624346], [-8.084303, 41.626825]], [[-8.08436, 41.622772], [-8.077725, 41.615332], [-8.084574, 41.607693], [-8.096536, 41.610461], [-8.099307, 41.615504], [-8.096407, 41.619702], [-8.08436, 41.622772]]]}}, {"id": "1", "type": "Feature", "properties": {"fill": "#b6a27f", "value_min": -1.25, "value_max": -1.0}, "geometry": {"type": "Polygon", "coordinates": [[[-8.08436, 41.622772], [-8.096407, 41.619702], [-8.099307, 41.615504], [-8.096536, 41.610461], [-8.084574, 41.607693], [-8.077725, 41.615332], [-8.08436, 41.622772]], [[-8.083872, 41.615382], [-8.084474, 41.614709], [-8.087202, 41.615408], [-8.084456, 41.616037], [-8.083872, 41.615382]]]}}, {"id": "0", "type": "Feature", "properties": {"fill": "#e19f31", "value_min": -1.5, "value_max": -1.25}, "geometry": {"type": "Polygon", "coordinates": [[[-8.083872, 41.615382], [-8.084456, 41.616037], [-8.087202, 41.615408], [-8.084474, 41.614709], [-8.083872, 41.615382]]]}}, {"id": "10", "type": "Feature", "properties": {"fill": "#90a4bc", "value_min": 1.0, "value_max": 1.25}, "geometry": {"type": "MultiPolygon", "coordinates": [[[[-8.311238, 41.762195], [-8.315205, 41.752099], [-8.313146, 41.74308], [-8.30395, 41.734017], [-8.299252, 41.731614], [-8.28725, 41.729549], [-8.275201, 41.731843], [-8.261212, 41.742757], [-8.258409, 41.751746], [-8.260932, 41.760769], [-8.269566, 41.768292], [-8.277073, 41.764088], [-8.280681, 41.764083], [-8.284038, 41.761109], [-8.284931, 41.757507], [-8.287033, 41.756829], [-8.298457, 41.757263], [-8.300866, 41.758835], [-8.305674, 41.758152], [-8.311238, 41.762195]]], [[[-7.876087, 41.757649], [-7.86607, 41.749341], [-7.854003, 41.751602], [-7.848831, 41.757379], [-7.853437, 41.766432], [-7.865728, 41.7688], [-7.870682, 41.766603], [-7.876087, 41.757649]]], [[[-8.046448, 41.751623], [-8.051013, 41.741213], [-8.048458, 41.732185], [-8.04153, 41.723121], [-8.02304, 41.708909], [-8.011072, 41.705508], [-7.999042, 41.706181], [-7.986917, 41.712935], [-7.980291, 41.722594], [-7.979318, 41.731592], [-7.982395, 41.740626], [-7.986394, 41.746214], [-7.99825, 41.757201], [-8.010199, 41.762394], [-8.022211, 41.763571], [-8.034282, 41.760814], [-8.046448, 41.751623]], [[-8.010392, 41.749829], [-7.998435, 41.745249], [-7.993948, 41.740728], [-7.991393, 41.731699], [-7.998805, 41.721441], [-8.010873, 41.718465], [-8.022834, 41.722463], [-8.031285, 41.732042], [-8.030509, 41.741042], [-8.022448, 41.747962], [-8.010392, 41.749829]]], [[[-8.155118, 41.71968], [-8.157987, 41.715026], [-8.156612, 41.706009], [-8.143381, 41.698199], [-8.131319, 41.701473], [-8.120492, 41.714745], [-8.121821, 41.723763], [-8.130932, 41.730166], [-8.14297, 41.729172], [-8.155118, 41.71968]], [[-8.13108, 41.71921], [-8.127373, 41.714798], [-8.130412, 41.705814], [-8.143297, 41.704494], [-8.145682, 41.705928], [-8.14658, 41.714942], [-8.143119, 41.717929], [-8.13108, 41.71921]]], [[[-7.825734, 41.708814], [-7.826357, 41.712118], [-7.830585, 41.71645], [-7.838927, 41.721252], [-7.842495, 41.722634], [-7.854541, 41.721352], [-7.865515, 41.712511], [-7.868185, 41.70353], [-7.863195, 41.694474], [-7.854474, 41.688518], [-7.847538, 41.695365], [-7.837309, 41.699391], [-7.835792, 41.702763], [-7.839682, 41.705924], [-7.838465, 41.709522], [-7.832453, 41.710407], [-7.825734, 41.708814]]], [[[-8.10759, 41.679162], [-8.107071, 41.669607], [-8.095799, 41.663235], [-8.083792, 41.662911], [-8.067453, 41.669292], [-8.062751, 41.678261], [-8.067755, 41.687309], [-8.083344, 41.694483], [-8.095404, 41.691445], [-8.10759, 41.679162]], [[-8.083482, 41.684744], [-8.077859, 41.678383], [-8.083661, 41.672155], [-8.095671, 41.672331], [-8.09993, 41.678558], [-8.095514, 41.683545], [-8.083482, 41.684744]]], [[[-8.035753, 41.662474], [-8.035807, 41.658829], [-8.023908, 41.651434], [-8.011573, 41.659818], [-8.020304, 41.6689], [-8.023625, 41.670217], [-8.035753, 41.662474]]], [[[-8.083388, 41.546424], [-8.097371, 41.550526], [-8.109353, 41.551172], [-8.121368, 41.549326], [-8.1351, 41.543721], [-8.14489, 41.534787], [-8.149881, 41.525817], [-8.151492, 41.516821], [-8.152867, 41.480802], [-8.150293, 41.471776], [-8.143364, 41.462717], [-8.134595, 41.456534], [-8.122674, 41.452685], [-8.110711, 41.451979], [-8.098707, 41.45427], [-8.083708, 41.462257], [-8.074164, 41.473254], [-8.074003, 41.473543], [-8.073565, 41.474328], [-8.073375, 41.474668], [-8.073265, 41.474865], [-8.073249, 41.474893], [-8.066755, 41.488395], [-8.072054, 41.490199], [-8.07175, 41.494925], [-8.078333, 41.49898], [-8.078332, 41.500331], [-8.093, 41.504613], [-8.089996, 41.520212], [-8.092739, 41.516373], [-8.097883, 41.513695], [-8.109871, 41.513402], [-8.116485, 41.516557], [-8.121733, 41.522389], [-8.123379, 41.525618], [-8.119059, 41.534592], [-8.109521, 41.53893], [-8.099272, 41.53825], [-8.106759, 41.543557], [-8.101666, 41.542655], [-8.094175, 41.544904], [-8.087885, 41.542876], [-8.083389, 41.5449], [-8.083388, 41.546424]]], [[[-8.34951, 41.516958], [-8.361542, 41.512037], [-8.373041, 41.500228], [-8.376404, 41.491238], [-8.376472, 41.482231], [-8.373647, 41.473209], [-8.362062, 41.45905], [-8.350146, 41.453315], [-8.338198, 41.450918], [-8.326219, 41.451572], [-8.314204, 41.45555], [-8.302955, 41.463795], [-8.297247, 41.472767], [-8.295704, 41.481765], [-8.297133, 41.490781], [-8.301755, 41.499947], [-8.313609, 41.511948], [-8.325541, 41.516931], [-8.337511, 41.518316], [-8.34951, 41.516958]], [[-8.337677, 41.502099], [-8.325755, 41.496315], [-8.321432, 41.490927], [-8.32149, 41.48192], [-8.325961, 41.476464], [-8.337993, 41.471078], [-8.350534, 41.47308], [-8.359746, 41.48214], [-8.359896, 41.491148], [-8.349672, 41.500778], [-8.337677, 41.502099]]], [[[-8.188505, 41.375628], [-8.187685, 41.381971], [-8.190905, 41.391001], [-8.200798, 41.400078], [-8.207083, 41.403252], [-8.219016, 41.405848], [-8.230987, 41.405188], [-8.243001, 41.40085], [-8.253215, 41.391423], [-8.256582, 41.382437], [-8.255496, 41.373422], [-8.248446, 41.363591], [-8.239197, 41.371315], [-8.232024, 41.369971], [-8.224854, 41.370878], [-8.21738, 41.368182], [-8.211712, 41.376065], [-8.200358, 41.377648], [-8.194976, 41.374275], [-8.191691, 41.376302], [-8.188505, 41.375628]]], [[[-8.632338, 41.188625], [-8.635073, 41.204105], [-8.642348, 41.222143], [-8.65063, 41.235625], [-8.669792, 41.258257], [-8.672098, 41.267271], [-8.67188, 41.294294], [-8.675573, 41.303312], [-8.686047, 41.315282], [-8.697959, 41.323065], [-8.709888, 41.327469], [-8.721829, 41.329481], [-8.73378, 41.329406], [-8.745738, 41.327195], [-8.75988, 41.321534], [-8.772183, 41.312551], [-8.784517, 41.29456], [-8.79431, 41.258546], [-8.803427, 41.239086], [-8.799695, 41.14406], [-8.67527, 41.147484], [-8.676193, 41.146567], [-8.674793, 41.146932], [-8.674204, 41.147693], [-8.674849, 41.153767], [-8.672489, 41.15648], [-8.66117, 41.156307], [-8.662078, 41.158104], [-8.660313, 41.160813], [-8.657033, 41.160378], [-8.654961, 41.161963], [-8.653231, 41.169174], [-8.655074, 41.174793], [-8.662924, 41.165344], [-8.67488, 41.158082], [-8.686817, 41.154251], [-8.698741, 41.152991], [-8.710655, 41.153877], [-8.722559, 41.157094], [-8.740688, 41.168359], [-8.747729, 41.177383], [-8.751344, 41.186399], [-8.752069, 41.195408], [-8.750062, 41.204412], [-8.744946, 41.213408], [-8.73421, 41.223502], [-8.722252, 41.229768], [-8.710305, 41.233196], [-8.698368, 41.234305], [-8.686441, 41.233085], [-8.674527, 41.229335], [-8.662633, 41.221931], [-8.655121, 41.213174], [-8.650516, 41.204153], [-8.649734, 41.186134], [-8.65352, 41.176826], [-8.647955, 41.180228], [-8.647696, 41.185181], [-8.640929, 41.196241], [-8.634946, 41.193341], [-8.632338, 41.188625]]], [[[-8.653588, 41.176737], [-8.653588, 41.176737], [-8.653693, 41.1766], [-8.653588, 41.176737]]]]}}, {"id": "11", "type": "Feature", "properties": {"fill": "#71a5e5", "value_min": 1.25, "value_max": 1.5}, "geometry": {"type": "MultiPolygon", "coordinates": [[[[-8.010392, 41.749829], [-8.022448, 41.747962], [-8.030509, 41.741042], [-8.031285, 41.732042], [-8.022834, 41.722463], [-8.010873, 41.718465], [-7.998805, 41.721441], [-7.991393, 41.731699], [-7.993948, 41.740728], [-7.998435, 41.745249], [-8.010392, 41.749829]], [[-8.00517, 41.731819], [-8.010716, 41.728737], [-8.016721, 41.731918], [-8.010545, 41.739861], [-8.00517, 41.731819]]], [[[-8.13108, 41.71921], [-8.143119, 41.717929], [-8.14658, 41.714942], [-8.145682, 41.705928], [-8.143297, 41.704494], [-8.130412, 41.705814], [-8.127373, 41.714798], [-8.13108, 41.71921]]], [[[-8.083482, 41.684744], [-8.095514, 41.683545], [-8.09993, 41.678558], [-8.095671, 41.672331], [-8.083661, 41.672155], [-8.077859, 41.678383], [-8.083482, 41.684744]]], [[[-8.099272, 41.53825], [-8.109521, 41.53893], [-8.119059, 41.534592], [-8.123379, 41.525618], [-8.121733, 41.522389], [-8.116485, 41.516557], [-8.109871, 41.513402], [-8.097883, 41.513695], [-8.092739, 41.516373], [-8.089996, 41.520212], [-8.090594, 41.522169], [-8.093588, 41.52307], [-8.091786, 41.531848], [-8.099272, 41.53825]]], [[[-8.337677, 41.502099], [-8.349672, 41.500778], [-8.359896, 41.491148], [-8.359746, 41.48214], [-8.350534, 41.47308], [-8.337993, 41.471078], [-8.325961, 41.476464], [-8.32149, 41.48192], [-8.321432, 41.490927], [-8.325755, 41.496315], [-8.337677, 41.502099]]], [[[-8.65352, 41.176826], [-8.649734, 41.186134], [-8.650516, 41.204153], [-8.655121, 41.213174], [-8.662633, 41.221931], [-8.674527, 41.229335], [-8.686441, 41.233085], [-8.698368, 41.234305], [-8.710305, 41.233196], [-8.722252, 41.229768], [-8.73421, 41.223502], [-8.744946, 41.213408], [-8.750062, 41.204412], [-8.752069, 41.195408], [-8.751344, 41.186399], [-8.747729, 41.177383], [-8.740688, 41.168359], [-8.722559, 41.157094], [-8.710655, 41.153877], [-8.698741, 41.152991], [-8.686817, 41.154251], [-8.67488, 41.158082], [-8.662924, 41.165344], [-8.655074, 41.174793], [-8.653693, 41.1766], [-8.653588, 41.176737], [-8.65352, 41.176826]], [[-8.686532, 41.214111], [-8.674632, 41.208126], [-8.671301, 41.204214], [-8.66956, 41.195201], [-8.674745, 41.185283], [-8.686694, 41.180031], [-8.698615, 41.180364], [-8.710511, 41.186507], [-8.714736, 41.195322], [-8.712735, 41.204325], [-8.699939, 41.2133], [-8.686532, 41.214111]]]]}}, {"id": "12", "type": "Feature", "properties": {"fill": "#5093f6", "value_min": 1.5, "value_max": 1.75}, "geometry": {"type": "MultiPolygon", "coordinates": [[[[-8.00517, 41.731819], [-8.010545, 41.739861], [-8.016721, 41.731918], [-8.010716, 41.728737], [-8.00517, 41.731819]]], [[[-8.686532, 41.214111], [-8.699939, 41.2133], [-8.712735, 41.204325], [-8.714736, 41.195322], [-8.710511, 41.186507], [-8.698615, 41.180364], [-8.686694, 41.180031], [-8.674745, 41.185283], [-8.66956, 41.195201], [-8.671301, 41.204214], [-8.674632, 41.208126], [-8.686532, 41.214111]]]]}}, {"id": "5", "type": "Feature", "properties": {"fill": "#a3a3a3", "value_min": -0.25, "value_max": 0.0}, "geometry": {"type": "MultiPolygon", "coordinates": [[[[-8.203419, 41.702396], [-8.215436, 41.702496], [-8.220798, 41.697455], [-8.215612, 41.688036], [-8.2031, 41.688327], [-8.19883, 41.697304], [-8.203419, 41.702396]]], [[[-8.084154, 41.637344], [-8.096184, 41.635714], [-8.108304, 41.627435], [-8.116837, 41.61564], [-8.118484, 41.606645], [-8.114732, 41.597609], [-8.108783, 41.592609], [-8.096849, 41.588058], [-8.084868, 41.586849], [-8.072844, 41.588746], [-8.060759, 41.594735], [-8.05245, 41.60612], [-8.0524, 41.615126], [-8.057307, 41.624174], [-8.072188, 41.634533], [-8.084154, 41.637344]], [[-8.108387, 41.621399], [-8.106322, 41.624565], [-8.096239, 41.631778], [-8.084212, 41.633232], [-8.072256, 41.629757], [-8.064641, 41.624234], [-8.06037, 41.615192], [-8.06153, 41.606194], [-8.072741, 41.59591], [-8.084784, 41.592791], [-8.096765, 41.594025], [-8.108662, 41.601413], [-8.112186, 41.606597], [-8.112261, 41.615604], [-8.108387, 41.621399]]], [[[-8.516772, 41.586748], [-8.528789, 41.584111], [-8.531383, 41.582048], [-8.533721, 41.57305], [-8.528908, 41.567745], [-8.51694, 41.564291], [-8.504348, 41.572927], [-8.507107, 41.581946], [-8.516772, 41.586748]]], [[[-8.553663, 41.221834], [-8.55525, 41.223324], [-8.560833, 41.221861], [-8.555275, 41.219603], [-8.553663, 41.221834]]]]}}, {"id": "9", "type": "Feature", "properties": {"fill": "#a3a3a3", "value_min": 0.75, "value_max": 1.0}, "geometry": {"type": "MultiPolygon", "coordinates": [[[[-8.351827, 41.743893], [-8.341679, 41.725232], [-8.333487, 41.716178], [-8.323534, 41.709339], [-8.311549, 41.705998], [-8.299533, 41.705698], [-8.287488, 41.70799], [-8.27542, 41.712328], [-8.255176, 41.724704], [-8.22693, 41.746299], [-8.214861, 41.749802], [-8.202891, 41.74515], [-8.179109, 41.72377], [-8.167386, 41.700595], [-8.155579, 41.684423], [-8.143612, 41.680764], [-8.134862, 41.69684], [-8.131366, 41.697954], [-8.119171, 41.710935], [-8.107105, 41.714223], [-8.095172, 41.707974], [-8.09374, 41.705531], [-8.097241, 41.696551], [-8.119595, 41.679834], [-8.127532, 41.678771], [-8.139271, 41.669852], [-8.143243, 41.660875], [-8.156012, 41.65128], [-8.162472, 41.643003], [-8.163497, 41.634003], [-8.155285, 41.624936], [-8.144396, 41.621582], [-8.132374, 41.622919], [-8.120229, 41.633318], [-8.119912, 41.651692], [-8.107926, 41.654844], [-8.071894, 41.654989], [-8.059907, 41.65342], [-8.036092, 41.639756], [-8.024155, 41.635086], [-8.01219, 41.632425], [-7.988203, 41.630843], [-7.964143, 41.633939], [-7.946731, 41.641228], [-7.940841, 41.650181], [-7.941038, 41.65919], [-7.953961, 41.695336], [-7.958285, 41.722396], [-7.981248, 41.75863], [-7.987596, 41.7767], [-7.987316, 41.785704], [-7.985707, 41.789812], [-7.973545, 41.797746], [-7.961575, 41.793652], [-7.954359, 41.785409], [-7.949691, 41.784369], [-7.934903, 41.78523], [-7.930166, 41.794193], [-7.934235, 41.803238], [-7.931375, 41.812218], [-7.925074, 41.81724], [-7.916087, 41.830088], [-7.908409, 41.848029], [-7.908452, 41.866043], [-7.913273, 41.877818], [-7.913288, 41.877841], [-7.913419, 41.878043], [-7.915994, 41.879399], [-7.921118, 41.877833], [-7.928949, 41.877847], [-7.935283, 41.874707], [-7.937389, 41.87516], [-7.941618, 41.870891], [-7.951254, 41.871132], [-7.956367, 41.87339], [-7.956362, 41.875191], [-7.960878, 41.875648], [-7.962086, 41.874074], [-7.973828, 41.875216], [-7.985584, 41.87028], [-7.9886, 41.868258], [-7.987701, 41.866456], [-7.98951, 41.865333], [-7.990123, 41.860157], [-7.995547, 41.858138], [-7.994047, 41.855211], [-7.996162, 41.851837], [-8.003089, 41.850494], [-8.005804, 41.847346], [-8.007928, 41.838796], [-8.012753, 41.833624], [-8.013062, 41.829348], [-8.017873, 41.831379], [-8.02901, 41.829589], [-8.037134, 41.831171], [-8.041351, 41.828023], [-8.041054, 41.825097], [-8.045268, 41.824425], [-8.047679, 41.821276], [-8.057314, 41.815656], [-8.06664, 41.817012], [-8.072961, 41.813414], [-8.078678, 41.813417], [-8.082892, 41.810493], [-8.091013, 41.812521], [-8.093421, 41.811397], [-8.093723, 41.808471], [-8.101845, 41.809824], [-8.104853, 41.81185], [-8.115984, 41.812302], [-8.123807, 41.808702], [-8.138247, 41.808477], [-8.139751, 41.813203], [-8.14276, 41.812978], [-8.144866, 41.815228], [-8.149078, 41.814777], [-8.153291, 41.817703], [-8.158106, 41.818377], [-8.165326, 41.81815], [-8.173744, 41.808019], [-8.177655, 41.808242], [-8.183676, 41.812741], [-8.190291, 41.809587], [-8.197158, 41.814129], [-8.201063, 41.808724], [-8.204973, 41.807372], [-8.205872, 41.804445], [-8.213692, 41.803765], [-8.217598, 41.80016], [-8.217589, 41.793634], [-8.224207, 41.794303], [-8.229917, 41.791598], [-8.240744, 41.791588], [-8.24074, 41.789338], [-8.244347, 41.787984], [-8.245546, 41.785731], [-8.251257, 41.784375], [-8.251845, 41.777172], [-8.257551, 41.773564], [-8.261762, 41.774235], [-8.269566, 41.768292], [-8.260932, 41.760769], [-8.258409, 41.751746], [-8.261212, 41.742757], [-8.275201, 41.731843], [-8.28725, 41.729549], [-8.299252, 41.731614], [-8.30395, 41.734017], [-8.313146, 41.74308], [-8.315205, 41.752099], [-8.311238, 41.762195], [-8.318308, 41.761283], [-8.325233, 41.765098], [-8.328234, 41.763292], [-8.336653, 41.763728], [-8.341756, 41.761468], [-8.344765, 41.762363], [-8.349267, 41.760103], [-8.352557, 41.755145], [-8.34982, 41.745922], [-8.349814, 41.744122], [-8.351827, 41.743893]], [[-8.046448, 41.751623], [-8.034282, 41.760814], [-8.022211, 41.763571], [-8.010199, 41.762394], [-7.99825, 41.757201], [-7.986394, 41.746214], [-7.982395, 41.740626], [-7.979318, 41.731592], [-7.980291, 41.722594], [-7.986917, 41.712935], [-7.999042, 41.706181], [-8.011072, 41.705508], [-8.02304, 41.708909], [-8.04153, 41.723121], [-8.048458, 41.732185], [-8.051013, 41.741213], [-8.046448, 41.751623]], [[-8.155118, 41.71968], [-8.14297, 41.729172], [-8.130932, 41.730166], [-8.121821, 41.723763], [-8.120492, 41.714745], [-8.131319, 41.701473], [-8.143381, 41.698199], [-8.156612, 41.706009], [-8.157987, 41.715026], [-8.155118, 41.71968]], [[-8.10759, 41.679162], [-8.095404, 41.691445], [-8.083344, 41.694483], [-8.067755, 41.687309], [-8.062751, 41.678261], [-8.067453, 41.669292], [-8.083792, 41.662911], [-8.095799, 41.663235], [-8.107071, 41.669607], [-8.10759, 41.679162]], [[-8.035753, 41.662474], [-8.023625, 41.670217], [-8.020304, 41.6689], [-8.011573, 41.659818], [-8.023908, 41.651434], [-8.035807, 41.658829], [-8.035753, 41.662474]]], [[[-7.783642, 41.722199], [-7.80447, 41.747919], [-7.815722, 41.76605], [-7.824092, 41.775142], [-7.829457, 41.778565], [-7.841417, 41.782616], [-7.865472, 41.783294], [-7.877538, 41.781466], [-7.889662, 41.776184], [-7.895727, 41.766846], [-7.895833, 41.757841], [-7.890589, 41.748783], [-7.868171, 41.730551], [-7.869253, 41.721555], [-7.87956, 41.694635], [-7.885156, 41.670693], [-7.877044, 41.676077], [-7.876723, 41.681253], [-7.873401, 41.686198], [-7.868896, 41.686413], [-7.867408, 41.683258], [-7.864403, 41.683701], [-7.864096, 41.685276], [-7.860493, 41.685268], [-7.857773, 41.689538], [-7.854474, 41.688518], [-7.863195, 41.694474], [-7.868185, 41.70353], [-7.865515, 41.712511], [-7.854541, 41.721352], [-7.842495, 41.722634], [-7.838927, 41.721252], [-7.830585, 41.71645], [-7.826357, 41.712118], [-7.825734, 41.708814], [-7.818621, 41.713522], [-7.815291, 41.718689], [-7.808986, 41.717996], [-7.808396, 41.715744], [-7.803298, 41.714154], [-7.790966, 41.717044], [-7.789449, 41.719966], [-7.78464, 41.720402], [-7.783642, 41.722199]], [[-7.876087, 41.757649], [-7.870682, 41.766603], [-7.865728, 41.7688], [-7.853437, 41.766432], [-7.848831, 41.757379], [-7.854003, 41.751602], [-7.86607, 41.749341], [-7.876087, 41.757649]]], [[[-8.39594, 41.678824], [-8.401503, 41.671517], [-8.400592, 41.662505], [-8.396142, 41.657239], [-8.384192, 41.650855], [-8.372187, 41.650443], [-8.363504, 41.653299], [-8.353903, 41.662252], [-8.353085, 41.671255], [-8.360218, 41.680302], [-8.371855, 41.684617], [-8.383874, 41.68421], [-8.39594, 41.678824]]], [[[-8.079484, 41.558189], [-8.097223, 41.561139], [-8.12119, 41.562514], [-8.193192, 41.558862], [-8.265102, 41.562604], [-8.301092, 41.561543], [-8.325112, 41.558196], [-8.349162, 41.551605], [-8.361201, 41.54671], [-8.379521, 41.536292], [-8.389536, 41.527338], [-8.398712, 41.509372], [-8.405823, 41.428342], [-8.427456, 41.383414], [-8.430745, 41.365415], [-8.427942, 41.347386], [-8.423977, 41.338359], [-8.411205, 41.320886], [-8.401267, 41.311399], [-8.399712, 41.311628], [-8.400018, 41.313428], [-8.396738, 41.314336], [-8.398835, 41.316131], [-8.393775, 41.31997], [-8.393489, 41.323122], [-8.391105, 41.324253], [-8.386325, 41.323588], [-8.380382, 41.331254], [-8.375305, 41.33104], [-8.37201, 41.328346], [-8.361563, 41.329718], [-8.358276, 41.329049], [-8.357673, 41.327249], [-8.350207, 41.327264], [-8.346032, 41.328847], [-8.342462, 41.333131], [-8.333215, 41.336299], [-8.325766, 41.342164], [-8.324568, 41.341041], [-8.323376, 41.341943], [-8.316788, 41.335876], [-8.313802, 41.336331], [-8.31139, 41.328007], [-8.307502, 41.325762], [-8.305116, 41.326891], [-8.303024, 41.325994], [-8.303615, 41.323742], [-8.301216, 41.319694], [-8.296431, 41.316774], [-8.296415, 41.310472], [-8.293133, 41.310927], [-8.292241, 41.312504], [-8.289255, 41.312508], [-8.284488, 41.316341], [-8.281801, 41.316569], [-8.281808, 41.319721], [-8.278828, 41.321976], [-8.278238, 41.325128], [-8.272266, 41.32536], [-8.265709, 41.331221], [-8.269004, 41.336169], [-8.263339, 41.340902], [-8.262751, 41.345405], [-8.256483, 41.347663], [-8.255889, 41.349689], [-8.249622, 41.353072], [-8.251123, 41.356897], [-8.248141, 41.360052], [-8.248446, 41.363591], [-8.255496, 41.373422], [-8.256582, 41.382437], [-8.253215, 41.391423], [-8.243001, 41.40085], [-8.230987, 41.405188], [-8.219016, 41.405848], [-8.207083, 41.403252], [-8.200798, 41.400078], [-8.190905, 41.391001], [-8.187685, 41.381971], [-8.188505, 41.375628], [-8.168382, 41.377438], [-8.164499, 41.38059], [-8.152544, 41.375866], [-8.151049, 41.37339], [-8.145073, 41.374742], [-8.139694, 41.377894], [-8.133418, 41.374292], [-8.119672, 41.376768], [-8.119672, 41.378569], [-8.116683, 41.380144], [-8.117578, 41.386447], [-8.113992, 41.386896], [-8.112795, 41.390723], [-8.110105, 41.390947], [-8.108011, 41.393648], [-8.103827, 41.392972], [-8.105321, 41.394998], [-8.10263, 41.396123], [-8.10801, 41.398825], [-8.108606, 41.403102], [-8.104419, 41.406252], [-8.104119, 41.408728], [-8.101727, 41.409403], [-8.102025, 41.411204], [-8.092756, 41.411201], [-8.09126, 41.414352], [-8.079893, 41.41975], [-8.077503, 41.416597], [-8.070923, 41.41862], [-8.066739, 41.416142], [-8.061654, 41.417489], [-8.059852, 41.424916], [-8.055959, 41.429415], [-8.05745, 41.432793], [-8.056549, 41.436394], [-8.069999, 41.447206], [-8.068788, 41.462286], [-8.073872, 41.46499], [-8.074164, 41.473254], [-8.083708, 41.462257], [-8.098707, 41.45427], [-8.110711, 41.451979], [-8.122674, 41.452685], [-8.134595, 41.456534], [-8.143364, 41.462717], [-8.150293, 41.471776], [-8.152867, 41.480802], [-8.151492, 41.516821], [-8.149881, 41.525817], [-8.14489, 41.534787], [-8.1351, 41.543721], [-8.121368, 41.549326], [-8.109353, 41.551172], [-8.097371, 41.550526], [-8.083388, 41.546424], [-8.080687, 41.551651], [-8.074396, 41.549848], [-8.072897, 41.551197], [-8.076787, 41.557631], [-8.077249, 41.557727], [-8.077386, 41.557755], [-8.077686, 41.557817], [-8.078285, 41.557941], [-8.078339, 41.557953], [-8.078884, 41.558065], [-8.07943, 41.558178], [-8.079484, 41.558189]], [[-8.34951, 41.516958], [-8.337511, 41.518316], [-8.325541, 41.516931], [-8.313609, 41.511948], [-8.301755, 41.499947], [-8.297133, 41.490781], [-8.295704, 41.481765], [-8.297247, 41.472767], [-8.302955, 41.463795], [-8.314204, 41.45555], [-8.326219, 41.451572], [-8.338198, 41.450918], [-8.350146, 41.453315], [-8.362062, 41.45905], [-8.373647, 41.473209], [-8.376472, 41.482231], [-8.376404, 41.491238], [-8.373041, 41.500228], [-8.361542, 41.512037], [-8.34951, 41.516958]]], [[[-8.066755, 41.488395], [-8.073249, 41.474893], [-8.066374, 41.482318], [-8.066755, 41.488395]]], [[[-8.073265, 41.474865], [-8.073265, 41.474865], [-8.073375, 41.474668], [-8.073265, 41.474865]]], [[[-8.073565, 41.474328], [-8.073565, 41.474328], [-8.074003, 41.473543], [-8.073565, 41.474328]]], [[[-8.469096, 41.548548], [-8.47056, 41.545755], [-8.466145, 41.536727], [-8.457247, 41.531622], [-8.445273, 41.530136], [-8.429178, 41.536549], [-8.426478, 41.545543], [-8.434074, 41.554588], [-8.445028, 41.558798], [-8.457024, 41.558244], [-8.463247, 41.554728], [-8.469096, 41.548548]]], [[[-8.610519, 41.175212], [-8.627333, 41.231103], [-8.629428, 41.249126], [-8.627251, 41.28515], [-8.629357, 41.294165], [-8.634841, 41.30319], [-8.643975, 41.312226], [-8.685915, 41.342916], [-8.697828, 41.351283], [-8.721681, 41.364397], [-8.745563, 41.372169], [-8.757513, 41.374359], [-8.781422, 41.37667], [-8.808835, 41.376343], [-8.803427, 41.239086], [-8.79431, 41.258546], [-8.784517, 41.29456], [-8.772183, 41.312551], [-8.75988, 41.321534], [-8.745738, 41.327195], [-8.73378, 41.329406], [-8.721829, 41.329481], [-8.709888, 41.327469], [-8.697959, 41.323065], [-8.686047, 41.315282], [-8.675573, 41.303312], [-8.67188, 41.294294], [-8.672098, 41.267271], [-8.669792, 41.258257], [-8.65063, 41.235625], [-8.642348, 41.222143], [-8.635073, 41.204105], [-8.632338, 41.188625], [-8.625658, 41.186628], [-8.621132, 41.178994], [-8.613374, 41.177451], [-8.610519, 41.175212]]]]}}, {"id": "7", "type": "Feature", "properties": {"fill": "#a3a3a3", "value_min": 0.25, "value_max": 0.5}, "geometry": {"type": "MultiPolygon", "coordinates": [[[[-7.74654, 41.856], [-7.747514, 41.8644], [-7.755536, 41.867659], [-7.764641, 41.864586], [-7.765295, 41.855586], [-7.755857, 41.851131], [-7.746884, 41.855193], [-7.74654, 41.856]]], [[[-7.743096, 41.834402], [-7.756302, 41.828129], [-7.768508, 41.819614], [-7.77652, 41.810673], [-7.782667, 41.792724], [-7.779079, 41.774673], [-7.773357, 41.765605], [-7.757763, 41.752505], [-7.749289, 41.748874], [-7.746897, 41.752242], [-7.747786, 41.754496], [-7.743866, 41.756509], [-7.740214, 41.763924], [-7.726937, 41.771755], [-7.725406, 41.776252], [-7.72669, 41.778732], [-7.733297, 41.773397], [-7.741245, 41.774264], [-7.745295, 41.775111], [-7.75081, 41.783376], [-7.74494, 41.7933], [-7.732884, 41.79435], [-7.727987, 41.792132], [-7.72444, 41.786362], [-7.722296, 41.792446], [-7.728879, 41.797871], [-7.727026, 41.805517], [-7.728761, 41.816776], [-7.732041, 41.821514], [-7.743152, 41.825154], [-7.742839, 41.827178], [-7.738919, 41.828515], [-7.743096, 41.834402]]], [[[-7.724172, 41.785925], [-7.724172, 41.785925], [-7.724142, 41.785878], [-7.724172, 41.785925]]], [[[-7.723894, 41.785474], [-7.723894, 41.785474], [-7.723845, 41.785394], [-7.723894, 41.785474]]], [[[-7.724918, 41.780526], [-7.724918, 41.780526], [-7.72514, 41.780302], [-7.724918, 41.780526]]], [[[-7.888952, 41.817352], [-7.890642, 41.811832], [-7.8891, 41.808777], [-7.884639, 41.802767], [-7.877227, 41.799299], [-7.86519, 41.799304], [-7.85636, 41.802489], [-7.848139, 41.811413], [-7.849466, 41.820433], [-7.852717, 41.823736], [-7.864663, 41.829141], [-7.876723, 41.828123], [-7.887393, 41.820807], [-7.888952, 41.817352]]], [[[-7.966106, 41.758495], [-7.960728, 41.749439], [-7.950374, 41.742472], [-7.938376, 41.740787], [-7.926289, 41.744423], [-7.922662, 41.749089], [-7.920158, 41.758072], [-7.925895, 41.768101], [-7.93785, 41.772668], [-7.949877, 41.77297], [-7.963493, 41.767478], [-7.966106, 41.758495]], [[-7.950129, 41.757524], [-7.950096, 41.759536], [-7.942112, 41.758276], [-7.950129, 41.757524]]], [[[-7.925184, 41.722091], [-7.925132, 41.713084], [-7.919615, 41.704025], [-7.915002, 41.70053], [-7.90304, 41.697191], [-7.890975, 41.699924], [-7.880249, 41.712655], [-7.878582, 41.721646], [-7.885978, 41.730725], [-7.890396, 41.733616], [-7.902376, 41.736201], [-7.914428, 41.734633], [-7.920044, 41.73105], [-7.925184, 41.722091]], [[-7.905293, 41.712897], [-7.904397, 41.721895], [-7.902601, 41.723028], [-7.890583, 41.722747], [-7.889551, 41.712746], [-7.890779, 41.71137], [-7.902804, 41.711062], [-7.905293, 41.712897]]], [[[-8.434131, 41.71591], [-8.431683, 41.71295], [-8.42235, 41.707652], [-8.417617, 41.707628], [-8.407652, 41.711782], [-8.403931, 41.716565], [-8.4056, 41.722845], [-8.417349, 41.725067], [-8.41974, 41.722135], [-8.429643, 41.719859], [-8.430533, 41.717381], [-8.434131, 41.71591]]], [[[-8.23932, 41.715575], [-8.249309, 41.706652], [-8.254941, 41.697682], [-8.256974, 41.688688], [-8.255132, 41.679669], [-8.248759, 41.67062], [-8.239925, 41.664157], [-8.227962, 41.660116], [-8.215963, 41.659163], [-8.203922, 41.661588], [-8.191845, 41.666819], [-8.180539, 41.679161], [-8.177671, 41.688148], [-8.178571, 41.697161], [-8.182346, 41.706195], [-8.191239, 41.715267], [-8.203182, 41.721582], [-8.215182, 41.723407], [-8.227224, 41.721792], [-8.23932, 41.715575]], [[-8.235518, 41.697554], [-8.227386, 41.708251], [-8.215311, 41.712833], [-8.203302, 41.711841], [-8.194033, 41.706278], [-8.191392, 41.703026], [-8.188196, 41.69723], [-8.189588, 41.688232], [-8.203727, 41.677431], [-8.215752, 41.6765], [-8.227709, 41.681264], [-8.234482, 41.68854], [-8.235518, 41.697554]]], [[[-8.127475, 41.696785], [-8.119476, 41.688623], [-8.104932, 41.696611], [-8.107245, 41.704108], [-8.119236, 41.70619], [-8.127475, 41.696785]], [[-8.119397, 41.694395], [-8.121696, 41.696741], [-8.119327, 41.699503], [-8.114917, 41.696689], [-8.119397, 41.694395]]], [[[-8.668599, 41.587543], [-8.670567, 41.555509], [-8.667074, 41.537484], [-8.662538, 41.528464], [-8.65529, 41.519435], [-8.643274, 41.510391], [-8.625247, 41.500542], [-8.614834, 41.492284], [-8.613339, 41.488105], [-8.612208, 41.47426], [-8.617084, 41.438247], [-8.614952, 41.429232], [-8.610028, 41.420208], [-8.601826, 41.411993], [-8.589908, 41.404436], [-8.566027, 41.39748], [-8.542099, 41.397903], [-8.518115, 41.405938], [-8.50609, 41.413987], [-8.492746, 41.428758], [-8.487701, 41.437743], [-8.478928, 41.464726], [-8.473898, 41.473711], [-8.451712, 41.50063], [-8.449366, 41.509626], [-8.455123, 41.518661], [-8.483834, 41.536808], [-8.487581, 41.545832], [-8.483319, 41.55482], [-8.468916, 41.57046], [-8.456858, 41.578087], [-8.420785, 41.587751], [-8.408735, 41.593465], [-8.401098, 41.599458], [-8.396617, 41.606251], [-8.393744, 41.617433], [-8.396702, 41.626456], [-8.40239, 41.635493], [-8.432131, 41.662047], [-8.456033, 41.676329], [-8.48135, 41.682575], [-8.484371, 41.674238], [-8.49308, 41.674886], [-8.499963, 41.671038], [-8.50927, 41.671233], [-8.51018, 41.672806], [-8.511967, 41.670324], [-8.509856, 41.668755], [-8.522103, 41.658811], [-8.525706, 41.659023], [-8.527769, 41.652714], [-8.534066, 41.652017], [-8.537355, 41.64998], [-8.537634, 41.646602], [-8.543876, 41.637352], [-8.543855, 41.633976], [-8.536342, 41.631977], [-8.535128, 41.62973], [-8.543431, 41.61462], [-8.554533, 41.615255], [-8.557244, 41.617046], [-8.562639, 41.61635], [-8.568056, 41.619031], [-8.570735, 41.616095], [-8.577321, 41.614269], [-8.581231, 41.615829], [-8.585766, 41.620988], [-8.591462, 41.620515], [-8.596534, 41.616668], [-8.601628, 41.615972], [-8.603996, 41.611686], [-8.613256, 41.606696], [-8.619881, 41.610269], [-8.621338, 41.604636], [-8.628833, 41.604378], [-8.636302, 41.600744], [-8.639873, 41.597352], [-8.640152, 41.59465], [-8.645536, 41.593051], [-8.646744, 41.594171], [-8.649125, 41.591909], [-8.656622, 41.5921], [-8.660788, 41.588255], [-8.663794, 41.589141], [-8.665265, 41.585758], [-8.668599, 41.587543]], [[-8.4563, 41.644629], [-8.444288, 41.645066], [-8.432319, 41.640581], [-8.42647, 41.635616], [-8.422257, 41.626588], [-8.424947, 41.617594], [-8.432577, 41.611136], [-8.444609, 41.607673], [-8.457566, 41.608745], [-8.46856, 41.613892], [-8.473353, 41.617826], [-8.475758, 41.626844], [-8.471827, 41.635833], [-8.4563, 41.644629]], [[-8.552685, 41.598322], [-8.540633, 41.605689], [-8.528611, 41.608564], [-8.516608, 41.608791], [-8.504623, 41.606667], [-8.49268, 41.599169], [-8.487008, 41.590866], [-8.485528, 41.581852], [-8.487594, 41.572854], [-8.493428, 41.563872], [-8.505028, 41.553578], [-8.517058, 41.54839], [-8.529054, 41.547635], [-8.541025, 41.550339], [-8.552961, 41.558281], [-8.558406, 41.56414], [-8.562241, 41.573162], [-8.562495, 41.582171], [-8.559169, 41.591165], [-8.552685, 41.598322]], [[-8.504331, 41.509876], [-8.501163, 41.518869], [-8.493278, 41.522719], [-8.481292, 41.522775], [-8.473287, 41.518745], [-8.46792, 41.509713], [-8.47628, 41.500744], [-8.48149, 41.498016], [-8.493465, 41.498793], [-8.497613, 41.500839], [-8.504331, 41.509876]], [[-8.565526, 41.472723], [-8.553524, 41.476385], [-8.541556, 41.475051], [-8.527478, 41.464936], [-8.524676, 41.455917], [-8.527364, 41.446921], [-8.541827, 41.436611], [-8.553805, 41.435339], [-8.563861, 41.438057], [-8.57503, 41.447107], [-8.577527, 41.456123], [-8.574271, 41.465119], [-8.565526, 41.472723]]], [[[-8.01951, 41.601802], [-8.019941, 41.605847], [-8.025098, 41.614898], [-8.033135, 41.623973], [-8.044856, 41.633078], [-8.060073, 41.642016], [-8.072019, 41.646295], [-8.084011, 41.647453], [-8.096031, 41.646607], [-8.108115, 41.641114], [-8.120351, 41.62433], [-8.14221, 41.606825], [-8.145963, 41.597845], [-8.143095, 41.588817], [-8.131003, 41.579719], [-8.121007, 41.576032], [-8.097082, 41.571292], [-8.072281, 41.56962], [-8.069283, 41.570553], [-8.069281, 41.572579], [-8.065682, 41.575053], [-8.062384, 41.575501], [-8.056684, 41.579549], [-8.052181, 41.584498], [-8.052778, 41.587386], [-8.060929, 41.58306], [-8.072967, 41.5801], [-8.084973, 41.579438], [-8.096955, 41.580396], [-8.10891, 41.583412], [-8.118802, 41.588633], [-8.126701, 41.597701], [-8.127289, 41.606712], [-8.122304, 41.615681], [-8.108232, 41.632652], [-8.096118, 41.640401], [-8.084095, 41.641507], [-8.072112, 41.639796], [-8.060186, 41.63427], [-8.048386, 41.6241], [-8.04209, 41.615041], [-8.04053, 41.606021], [-8.044952, 41.594846], [-8.031467, 41.602938], [-8.02367, 41.603156], [-8.01951, 41.601802]]], [[[-8.044973, 41.594823], [-8.044973, 41.594823], [-8.045151, 41.594621], [-8.044973, 41.594823]]], [[[-8.045273, 41.594483], [-8.045273, 41.594483], [-8.045349, 41.594396], [-8.045273, 41.594483]]], [[[-8.045573, 41.594142], [-8.045573, 41.594142], [-8.045746, 41.593947], [-8.045573, 41.594142]]], [[[-8.045874, 41.593802], [-8.045874, 41.593802], [-8.046142, 41.593497], [-8.045874, 41.593802]]], [[[-8.046174, 41.593461], [-8.046174, 41.593461], [-8.046341, 41.593272], [-8.046174, 41.593461]]], [[[-8.046474, 41.593121], [-8.046474, 41.593121], [-8.046738, 41.592822], [-8.046474, 41.593121]]], [[[-8.046774, 41.59278], [-8.046774, 41.59278], [-8.046936, 41.592597], [-8.046774, 41.59278]]], [[[-8.047975, 41.591418], [-8.047975, 41.591418], [-8.048126, 41.591247], [-8.047975, 41.591418]]], [[[-8.048276, 41.591077], [-8.048276, 41.591077], [-8.049442, 41.589898], [-8.048276, 41.591077]]], [[[-8.049777, 41.589596], [-8.049777, 41.589596], [-8.049941, 41.589448], [-8.049777, 41.589596]]], [[[-8.050077, 41.589325], [-8.050077, 41.589325], [-8.05019, 41.589223], [-8.050077, 41.589325]]], [[[-8.050377, 41.589054], [-8.050377, 41.589054], [-8.051436, 41.588098], [-8.050377, 41.589054]]], [[[-8.051578, 41.588023], [-8.051578, 41.588023], [-8.051859, 41.587874], [-8.051578, 41.588023]]], [[[-8.051878, 41.587864], [-8.051878, 41.587864], [-8.052282, 41.587649], [-8.051878, 41.587864]]], [[[-8.641297, 41.357256], [-8.638039, 41.35481], [-8.626083, 41.354972], [-8.622671, 41.357197], [-8.622839, 41.366205], [-8.626005, 41.368663], [-8.637961, 41.368898], [-8.641025, 41.366263], [-8.641297, 41.357256]]], [[[-8.472507, 41.238955], [-8.478651, 41.248542], [-8.495284, 41.263922], [-8.507169, 41.27094], [-8.519076, 41.275408], [-8.530995, 41.278339], [-8.542929, 41.279357], [-8.554875, 41.278491], [-8.578805, 41.270957], [-8.590794, 41.263122], [-8.602813, 41.249662], [-8.609461, 41.231044], [-8.607996, 41.213024], [-8.603113, 41.200047], [-8.591292, 41.18306], [-8.583053, 41.175998], [-8.578825, 41.178941], [-8.581296, 41.191762], [-8.57605, 41.195609], [-8.585943, 41.203938], [-8.59158, 41.212966], [-8.592984, 41.221979], [-8.591187, 41.230981], [-8.578974, 41.244658], [-8.567005, 41.249858], [-8.555058, 41.251518], [-8.543131, 41.250298], [-8.531227, 41.245895], [-8.522304, 41.239723], [-8.515315, 41.230686], [-8.512669, 41.221667], [-8.513502, 41.212663], [-8.518138, 41.203675], [-8.522101, 41.200081], [-8.51163, 41.203042], [-8.510456, 41.206197], [-8.505693, 41.207113], [-8.504239, 41.213646], [-8.500076, 41.21546], [-8.50308, 41.219502], [-8.502204, 41.222656], [-8.495642, 41.222227], [-8.495947, 41.223351], [-8.490894, 41.226294], [-8.487935, 41.230354], [-8.490331, 41.232373], [-8.489156, 41.235528], [-8.486181, 41.236888], [-8.484411, 41.240495], [-8.478434, 41.238037], [-8.472507, 41.238955]]]]}}, {"id": "8", "type": "Feature", "properties": {"fill": "#a3a3a3", "value_min": 0.5, "value_max": 0.75}, "geometry": {"type": "MultiPolygon", "coordinates": [[[[-8.668599, 41.587543], [-8.684455, 41.586117], [-8.685608, 41.58071], [-8.697261, 41.576376], [-8.701703, 41.570277], [-8.707704, 41.570923], [-8.712485, 41.569323], [-8.716422, 41.573805], [-8.720316, 41.57356], [-8.725151, 41.577811], [-8.726633, 41.576003], [-8.734424, 41.575737], [-8.736564, 41.580228], [-8.738354, 41.579318], [-8.740778, 41.582006], [-8.74467, 41.581535], [-8.750711, 41.58623], [-8.75993, 41.578527], [-8.767441, 41.580286], [-8.769874, 41.583874], [-8.768997, 41.58613], [-8.773228, 41.589482], [-8.774165, 41.593303], [-8.78556, 41.593464], [-8.797327, 41.600599], [-8.804218, 41.600109], [-8.80456, 41.604158], [-8.809434, 41.611332], [-8.828644, 41.609656], [-8.82839, 41.585633], [-8.818497, 41.554794], [-8.8221, 41.547542], [-8.821965, 41.534907], [-8.815926, 41.525624], [-8.81063, 41.5101], [-8.813279, 41.503483], [-8.812636, 41.496944], [-8.804699, 41.482068], [-8.798552, 41.474753], [-8.80154, 41.446836], [-8.806115, 41.43713], [-8.807354, 41.425915], [-8.811166, 41.417099], [-8.808835, 41.376343], [-8.781422, 41.37667], [-8.757513, 41.374359], [-8.745563, 41.372169], [-8.721681, 41.364397], [-8.697828, 41.351283], [-8.685915, 41.342916], [-8.643975, 41.312226], [-8.634841, 41.30319], [-8.629357, 41.294165], [-8.627251, 41.28515], [-8.629428, 41.249126], [-8.627333, 41.231103], [-8.610519, 41.175212], [-8.608583, 41.174095], [-8.609164, 41.172066], [-8.604942, 41.164881], [-8.600767, 41.164222], [-8.589766, 41.167193], [-8.589194, 41.170572], [-8.585925, 41.17171], [-8.583053, 41.175998], [-8.591292, 41.18306], [-8.603113, 41.200047], [-8.607996, 41.213024], [-8.609461, 41.231044], [-8.602813, 41.249662], [-8.590794, 41.263122], [-8.578805, 41.270957], [-8.554875, 41.278491], [-8.542929, 41.279357], [-8.530995, 41.278339], [-8.519076, 41.275408], [-8.507169, 41.27094], [-8.495284, 41.263922], [-8.478651, 41.248542], [-8.472507, 41.238955], [-8.470986, 41.23941], [-8.471604, 41.243459], [-8.469227, 41.245267], [-8.463258, 41.244384], [-8.459989, 41.246644], [-8.454323, 41.246886], [-8.455541, 41.251834], [-8.452276, 41.25522], [-8.449891, 41.255452], [-8.449304, 41.257479], [-8.447812, 41.257258], [-8.449028, 41.261982], [-8.439785, 41.262907], [-8.438023, 41.268989], [-8.434745, 41.269673], [-8.432691, 41.277107], [-8.427032, 41.279372], [-8.429143, 41.284319], [-8.426171, 41.287028], [-8.426488, 41.291079], [-8.425013, 41.294909], [-8.422037, 41.296942], [-8.422647, 41.299867], [-8.407744, 41.304856], [-8.406262, 41.307335], [-8.402979, 41.307568], [-8.401267, 41.311399], [-8.411205, 41.320886], [-8.423977, 41.338359], [-8.427942, 41.347386], [-8.430745, 41.365415], [-8.427456, 41.383414], [-8.405823, 41.428342], [-8.398712, 41.509372], [-8.389536, 41.527338], [-8.379521, 41.536292], [-8.361201, 41.54671], [-8.349162, 41.551605], [-8.325112, 41.558196], [-8.301092, 41.561543], [-8.265102, 41.562604], [-8.193192, 41.558862], [-8.12119, 41.562514], [-8.097223, 41.561139], [-8.079484, 41.558189], [-8.081576, 41.565157], [-8.078879, 41.56493], [-8.072281, 41.56962], [-8.097082, 41.571292], [-8.121007, 41.576032], [-8.131003, 41.579719], [-8.143095, 41.588817], [-8.145963, 41.597845], [-8.14221, 41.606825], [-8.120351, 41.62433], [-8.108115, 41.641114], [-8.096031, 41.646607], [-8.084011, 41.647453], [-8.072019, 41.646295], [-8.060073, 41.642016], [-8.044856, 41.633078], [-8.033135, 41.623973], [-8.025098, 41.614898], [-8.019941, 41.605847], [-8.01951, 41.601802], [-8.005971, 41.60629], [-8.003562, 41.611239], [-7.998761, 41.612809], [-7.999669, 41.608759], [-7.996976, 41.605829], [-7.996684, 41.602003], [-7.984685, 41.603564], [-7.982292, 41.60086], [-7.975689, 41.603552], [-7.974482, 41.606701], [-7.970882, 41.607147], [-7.969091, 41.603768], [-7.965796, 41.602413], [-7.9541, 41.602846], [-7.952606, 41.600592], [-7.947808, 41.60081], [-7.945413, 41.599456], [-7.942725, 41.595625], [-7.936132, 41.594488], [-7.93791, 41.601694], [-7.937004, 41.603718], [-7.931604, 41.604384], [-7.930979, 41.612711], [-7.925556, 41.620354], [-7.920755, 41.620796], [-7.917748, 41.623041], [-7.915933, 41.627764], [-7.913229, 41.628885], [-7.912613, 41.63361], [-7.906014, 41.633147], [-7.906884, 41.641927], [-7.897869, 41.645511], [-7.89696, 41.647985], [-7.892759, 41.647976], [-7.892145, 41.651576], [-7.902319, 41.659925], [-7.899913, 41.66127], [-7.900198, 41.665547], [-7.898396, 41.665769], [-7.896885, 41.668692], [-7.885156, 41.670693], [-7.87956, 41.694635], [-7.869253, 41.721555], [-7.868171, 41.730551], [-7.890589, 41.748783], [-7.895833, 41.757841], [-7.895727, 41.766846], [-7.889662, 41.776184], [-7.877538, 41.781466], [-7.865472, 41.783294], [-7.841417, 41.782616], [-7.829457, 41.778565], [-7.824092, 41.775142], [-7.815722, 41.76605], [-7.80447, 41.747919], [-7.783642, 41.722199], [-7.776204, 41.724652], [-7.773786, 41.727346], [-7.7678, 41.723276], [-7.763888, 41.724389], [-7.761765, 41.727758], [-7.762933, 41.733839], [-7.759307, 41.737203], [-7.759597, 41.739005], [-7.75689, 41.739446], [-7.758687, 41.740577], [-7.757758, 41.745301], [-7.749289, 41.748874], [-7.757763, 41.752505], [-7.773357, 41.765605], [-7.779079, 41.774673], [-7.782667, 41.792724], [-7.77652, 41.810673], [-7.768508, 41.819614], [-7.756302, 41.828129], [-7.743096, 41.834402], [-7.74729, 41.837772], [-7.746349, 41.84407], [-7.750541, 41.847685], [-7.750532, 41.849261], [-7.743309, 41.849012], [-7.746901, 41.8524], [-7.746884, 41.855193], [-7.755857, 41.851131], [-7.765295, 41.855586], [-7.764641, 41.864586], [-7.755536, 41.867659], [-7.747514, 41.8644], [-7.74654, 41.856], [-7.73843, 41.859348], [-7.734159, 41.868337], [-7.730228, 41.871024], [-7.729293, 41.875972], [-7.722351, 41.878424], [-7.720523, 41.881793], [-7.725335, 41.882935], [-7.726208, 41.887665], [-7.737044, 41.888828], [-7.737935, 41.890857], [-7.74246, 41.889747], [-7.742785, 41.885922], [-7.756022, 41.888441], [-7.758719, 41.890926], [-7.756592, 41.89407], [-7.758376, 41.898127], [-7.764097, 41.898595], [-7.779227, 41.886264], [-7.785257, 41.885157], [-7.788886, 41.882467], [-7.794007, 41.882257], [-7.796739, 41.878214], [-7.794349, 41.87438], [-7.797064, 41.873488], [-7.803381, 41.874857], [-7.804914, 41.869459], [-7.813032, 41.871958], [-7.814229, 41.873537], [-7.823863, 41.874013], [-7.825059, 41.875817], [-7.830479, 41.875831], [-7.830789, 41.874031], [-7.832894, 41.874712], [-7.83772, 41.872924], [-7.842528, 41.875187], [-7.841663, 41.866632], [-7.849515, 41.861475], [-7.858542, 41.862622], [-7.859456, 41.860148], [-7.864877, 41.859711], [-7.87033, 41.851395], [-7.873043, 41.850501], [-7.873066, 41.844875], [-7.879056, 41.85254], [-7.886268, 41.855932], [-7.888076, 41.855486], [-7.891675, 41.859094], [-7.900698, 41.861588], [-7.904318, 41.859795], [-7.907309, 41.865203], [-7.906095, 41.868126], [-7.910299, 41.871285], [-7.909985, 41.875111], [-7.913273, 41.877818], [-7.908452, 41.866043], [-7.908409, 41.848029], [-7.916087, 41.830088], [-7.925074, 41.81724], [-7.931375, 41.812218], [-7.934235, 41.803238], [-7.930166, 41.794193], [-7.934903, 41.78523], [-7.949691, 41.784369], [-7.954359, 41.785409], [-7.961575, 41.793652], [-7.973545, 41.797746], [-7.985707, 41.789812], [-7.987316, 41.785704], [-7.987596, 41.7767], [-7.981248, 41.75863], [-7.958285, 41.722396], [-7.953961, 41.695336], [-7.941038, 41.65919], [-7.940841, 41.650181], [-7.946731, 41.641228], [-7.964143, 41.633939], [-7.988203, 41.630843], [-8.01219, 41.632425], [-8.024155, 41.635086], [-8.036092, 41.639756], [-8.059907, 41.65342], [-8.071894, 41.654989], [-8.107926, 41.654844], [-8.119912, 41.651692], [-8.120229, 41.633318], [-8.132374, 41.622919], [-8.144396, 41.621582], [-8.155285, 41.624936], [-8.163497, 41.634003], [-8.162472, 41.643003], [-8.156012, 41.65128], [-8.143243, 41.660875], [-8.139271, 41.669852], [-8.127532, 41.678771], [-8.119595, 41.679834], [-8.097241, 41.696551], [-8.09374, 41.705531], [-8.095172, 41.707974], [-8.107105, 41.714223], [-8.119171, 41.710935], [-8.131366, 41.697954], [-8.134862, 41.69684], [-8.143612, 41.680764], [-8.155579, 41.684423], [-8.167386, 41.700595], [-8.179109, 41.72377], [-8.202891, 41.74515], [-8.214861, 41.749802], [-8.22693, 41.746299], [-8.255176, 41.724704], [-8.27542, 41.712328], [-8.287488, 41.70799], [-8.299533, 41.705698], [-8.311549, 41.705998], [-8.323534, 41.709339], [-8.333487, 41.716178], [-8.341679, 41.725232], [-8.351827, 41.743893], [-8.352203, 41.739616], [-8.357897, 41.735103], [-8.362407, 41.735994], [-8.368703, 41.73193], [-8.374122, 41.734845], [-8.384922, 41.73032], [-8.387032, 41.731891], [-8.393033, 41.729852], [-8.396942, 41.730518], [-8.4056, 41.722845], [-8.403931, 41.716565], [-8.407652, 41.711782], [-8.417617, 41.707628], [-8.42235, 41.707652], [-8.431683, 41.71295], [-8.434131, 41.71591], [-8.436526, 41.714214], [-8.441632, 41.713975], [-8.4446, 41.70654], [-8.453868, 41.697961], [-8.453255, 41.695487], [-8.461659, 41.694563], [-8.48135, 41.682575], [-8.456033, 41.676329], [-8.432131, 41.662047], [-8.40239, 41.635493], [-8.396702, 41.626456], [-8.393744, 41.617433], [-8.396617, 41.606251], [-8.401098, 41.599458], [-8.408735, 41.593465], [-8.420785, 41.587751], [-8.456858, 41.578087], [-8.468916, 41.57046], [-8.483319, 41.55482], [-8.487581, 41.545832], [-8.483834, 41.536808], [-8.455123, 41.518661], [-8.449366, 41.509626], [-8.451712, 41.50063], [-8.473898, 41.473711], [-8.478928, 41.464726], [-8.487701, 41.437743], [-8.492746, 41.428758], [-8.50609, 41.413987], [-8.518115, 41.405938], [-8.542099, 41.397903], [-8.566027, 41.39748], [-8.589908, 41.404436], [-8.601826, 41.411993], [-8.610028, 41.420208], [-8.614952, 41.429232], [-8.617084, 41.438247], [-8.612208, 41.47426], [-8.613339, 41.488105], [-8.614834, 41.492284], [-8.625247, 41.500542], [-8.643274, 41.510391], [-8.65529, 41.519435], [-8.662538, 41.528464], [-8.667074, 41.537484], [-8.670567, 41.555509], [-8.668599, 41.587543]], [[-7.888952, 41.817352], [-7.887393, 41.820807], [-7.876723, 41.828123], [-7.864663, 41.829141], [-7.852717, 41.823736], [-7.849466, 41.820433], [-7.848139, 41.811413], [-7.85636, 41.802489], [-7.86519, 41.799304], [-7.877227, 41.799299], [-7.884639, 41.802767], [-7.8891, 41.808777], [-7.890642, 41.811832], [-7.888952, 41.817352]], [[-7.966106, 41.758495], [-7.963493, 41.767478], [-7.949877, 41.77297], [-7.93785, 41.772668], [-7.925895, 41.768101], [-7.920158, 41.758072], [-7.922662, 41.749089], [-7.926289, 41.744423], [-7.938376, 41.740787], [-7.950374, 41.742472], [-7.960728, 41.749439], [-7.966106, 41.758495]], [[-7.925184, 41.722091], [-7.920044, 41.73105], [-7.914428, 41.734633], [-7.902376, 41.736201], [-7.890396, 41.733616], [-7.885978, 41.730725], [-7.878582, 41.721646], [-7.880249, 41.712655], [-7.890975, 41.699924], [-7.90304, 41.697191], [-7.915002, 41.70053], [-7.919615, 41.704025], [-7.925132, 41.713084], [-7.925184, 41.722091]], [[-8.23932, 41.715575], [-8.227224, 41.721792], [-8.215182, 41.723407], [-8.203182, 41.721582], [-8.191239, 41.715267], [-8.182346, 41.706195], [-8.178571, 41.697161], [-8.177671, 41.688148], [-8.180539, 41.679161], [-8.191845, 41.666819], [-8.203922, 41.661588], [-8.215963, 41.659163], [-8.227962, 41.660116], [-8.239925, 41.664157], [-8.248759, 41.67062], [-8.255132, 41.679669], [-8.256974, 41.688688], [-8.254941, 41.697682], [-8.249309, 41.706652], [-8.23932, 41.715575]], [[-8.127475, 41.696785], [-8.119236, 41.70619], [-8.107245, 41.704108], [-8.104932, 41.696611], [-8.119476, 41.688623], [-8.127475, 41.696785]], [[-8.39594, 41.678824], [-8.383874, 41.68421], [-8.371855, 41.684617], [-8.360218, 41.680302], [-8.353085, 41.671255], [-8.353903, 41.662252], [-8.363504, 41.653299], [-8.372187, 41.650443], [-8.384192, 41.650855], [-8.396142, 41.657239], [-8.400592, 41.662505], [-8.401503, 41.671517], [-8.39594, 41.678824]], [[-8.469096, 41.548548], [-8.463247, 41.554728], [-8.457024, 41.558244], [-8.445028, 41.558798], [-8.434074, 41.554588], [-8.426478, 41.545543], [-8.429178, 41.536549], [-8.445273, 41.530136], [-8.457247, 41.531622], [-8.466145, 41.536727], [-8.47056, 41.545755], [-8.469096, 41.548548]], [[-8.641297, 41.357256], [-8.641025, 41.366263], [-8.637961, 41.368898], [-8.626005, 41.368663], [-8.622839, 41.366205], [-8.622671, 41.357197], [-8.626083, 41.354972], [-8.638039, 41.35481], [-8.641297, 41.357256]]], [[[-7.913419, 41.878043], [-7.913419, 41.878043], [-7.913288, 41.877841], [-7.913419, 41.878043]]], [[[-8.07943, 41.558178], [-8.07943, 41.558178], [-8.078884, 41.558065], [-8.07943, 41.558178]]], [[[-8.078339, 41.557953], [-8.078339, 41.557953], [-8.078285, 41.557941], [-8.078339, 41.557953]]], [[[-8.077686, 41.557817], [-8.077686, 41.557817], [-8.077386, 41.557755], [-8.077686, 41.557817]]], [[[-8.077249, 41.557727], [-8.077249, 41.557727], [-8.076787, 41.557631], [-8.077249, 41.557727]]]]}}]}