{"type": "FeatureCollection", "features": [{"id": "10", "type": "Feature", "properties": {"fill": "#a3a3a3", "value_min": 0.0, "value_max": -0.25}, "geometry": {"type": "Polygon", "coordinates": [[[-8.729226, 41.294443], [-8.722009, 41.28713], [-8.710065, 41.287586], [-8.704108, 41.294381], [-8.709989, 41.304645], [-8.721933, 41.305007], [-8.724992, 41.303441], [-8.729226, 41.294443]]]}}, {"id": "6", "type": "Feature", "properties": {"fill": "#a3a3a3", "value_min": -1.0, "value_max": -0.75}, "geometry": {"type": "MultiPolygon", "coordinates": [[[[-8.476029, 41.686335], [-8.444027, 41.675424], [-8.432064, 41.66966], [-8.390869, 41.635433], [-8.383426, 41.626386], [-8.379498, 41.617357], [-8.38008, 41.608353], [-8.384421, 41.599369], [-8.3968, 41.58664], [-8.408859, 41.579863], [-8.420888, 41.576222], [-8.45692, 41.570766], [-8.468965, 41.564521], [-8.47835, 41.554798], [-8.481175, 41.545803], [-8.47703, 41.536777], [-8.445859, 41.518616], [-8.438842, 41.509575], [-8.440347, 41.500575], [-8.446541, 41.491597], [-8.454826, 41.473622], [-8.457687, 41.455621], [-8.456547, 41.446608], [-8.452599, 41.437582], [-8.442954, 41.428528], [-8.434203, 41.424733], [-8.42226, 41.422039], [-8.362452, 41.419246], [-8.314663, 41.411913], [-8.290745, 41.410864], [-8.242729, 41.424323], [-8.194788, 41.430121], [-8.182791, 41.432414], [-8.176216, 41.435934], [-8.171576, 41.444909], [-8.168982, 41.471912], [-8.166134, 41.480899], [-8.159767, 41.48986], [-8.145129, 41.498759], [-8.134002, 41.501122], [-8.122014, 41.50158], [-8.099317, 41.49841], [-8.0764, 41.489221], [-8.067272, 41.481821], [-8.066069, 41.48817], [-8.072054, 41.490199], [-8.07175, 41.494925], [-8.078332, 41.499778], [-8.145886, 41.508551], [-8.157858, 41.509335], [-8.16986, 41.507828], [-8.181934, 41.500631], [-8.206229, 41.473361], [-8.218298, 41.465699], [-8.230328, 41.460983], [-8.302371, 41.44249], [-8.326345, 41.439364], [-8.350269, 41.441012], [-8.362209, 41.444133], [-8.374124, 41.449874], [-8.380519, 41.455231], [-8.385968, 41.464268], [-8.390068, 41.482304], [-8.390389, 41.500321], [-8.387963, 41.509315], [-8.383004, 41.518296], [-8.373366, 41.528619], [-8.361299, 41.53685], [-8.337212, 41.547614], [-8.27703, 41.568436], [-8.22596, 41.580397], [-8.203177, 41.589249], [-8.192516, 41.598182], [-8.188138, 41.607158], [-8.184604, 41.625147], [-8.174966, 41.643093], [-8.162704, 41.652011], [-8.155966, 41.654835], [-8.143926, 41.657046], [-8.13193, 41.656009], [-8.119983, 41.651413], [-8.107677, 41.64259], [-8.100099, 41.633524], [-8.096377, 41.621859], [-8.083232, 41.615377], [-8.084529, 41.610882], [-8.089452, 41.606419], [-8.083542, 41.597365], [-8.053981, 41.583672], [-8.052181, 41.584498], [-8.052777, 41.587649], [-8.037169, 41.600242], [-8.031467, 41.602938], [-8.02367, 41.603156], [-8.019174, 41.601802], [-8.015872, 41.603824], [-8.013474, 41.603372], [-8.005971, 41.60629], [-8.003562, 41.611239], [-7.99936, 41.61281], [-7.998462, 41.612359], [-7.999669, 41.608759], [-7.996976, 41.605829], [-7.996684, 41.602003], [-7.984685, 41.603564], [-7.982292, 41.60086], [-7.975689, 41.603552], [-7.974482, 41.606701], [-7.970882, 41.607147], [-7.969091, 41.603768], [-7.965796, 41.602413], [-7.9541, 41.602846], [-7.952606, 41.600592], [-7.947808, 41.60081], [-7.945413, 41.599456], [-7.942725, 41.595625], [-7.936132, 41.594488], [-7.93791, 41.601694], [-7.937004, 41.603718], [-7.931604, 41.604384], [-7.930979, 41.612711], [-7.925556, 41.620354], [-7.920755, 41.620796], [-7.917748, 41.623041], [-7.915933, 41.627764], [-7.913229, 41.628885], [-7.912613, 41.63361], [-7.906014, 41.633147], [-7.906884, 41.641927], [-7.897869, 41.645511], [-7.89696, 41.647985], [-7.892759, 41.647976], [-7.892145, 41.651576], [-7.902319, 41.659925], [-7.899913, 41.66127], [-7.900198, 41.665547], [-7.898396, 41.665769], [-7.896885, 41.668692], [-7.883969, 41.67069], [-7.879755, 41.673607], [-7.877044, 41.676077], [-7.876723, 41.681253], [-7.873401, 41.686198], [-7.868896, 41.686413], [-7.868008, 41.68326], [-7.864403, 41.683701], [-7.864096, 41.685276], [-7.858987, 41.68639], [-7.857773, 41.689538], [-7.855076, 41.688181], [-7.852668, 41.689526], [-7.848445, 41.693929], [-7.855038, 41.6933], [-7.866907, 41.701764], [-7.868135, 41.70353], [-7.864802, 41.712504], [-7.854616, 41.71713], [-7.842623, 41.715511], [-7.836641, 41.712222], [-7.835954, 41.709741], [-7.82945, 41.710174], [-7.825252, 41.708813], [-7.818621, 41.713522], [-7.815291, 41.718689], [-7.808986, 41.717996], [-7.808396, 41.715744], [-7.804499, 41.714158], [-7.79939, 41.714593], [-7.79788, 41.716164], [-7.796383, 41.71526], [-7.790966, 41.717044], [-7.789449, 41.719966], [-7.78464, 41.720402], [-7.78252, 41.723546], [-7.776204, 41.724652], [-7.774199, 41.726447], [-7.782167, 41.734087], [-7.805069, 41.765939], [-7.817459, 41.77667], [-7.82941, 41.781149], [-7.841411, 41.782978], [-7.877468, 41.785475], [-7.889405, 41.791099], [-7.899181, 41.802907], [-7.903807, 41.811958], [-7.912576, 41.844292], [-7.924683, 41.840582], [-7.940188, 41.830313], [-7.948963, 41.828916], [-7.960977, 41.830672], [-7.970788, 41.839598], [-7.971374, 41.84861], [-7.960487, 41.860922], [-7.948383, 41.864354], [-7.936343, 41.863809], [-7.924365, 41.859552], [-7.912294, 41.860907], [-7.907897, 41.869296], [-7.910299, 41.871285], [-7.910285, 41.875562], [-7.915391, 41.879397], [-7.921118, 41.877833], [-7.928044, 41.87807], [-7.935283, 41.874707], [-7.937389, 41.87516], [-7.941618, 41.870891], [-7.951254, 41.871132], [-7.956367, 41.87339], [-7.956362, 41.875191], [-7.960878, 41.875648], [-7.962086, 41.874074], [-7.973828, 41.875216], [-7.987996, 41.869157], [-7.990123, 41.860157], [-7.995547, 41.858138], [-7.994047, 41.855211], [-7.996162, 41.851837], [-8.003089, 41.850494], [-8.005804, 41.847346], [-8.007928, 41.838796], [-8.012753, 41.833624], [-8.013363, 41.829124], [-8.017873, 41.831379], [-8.02901, 41.829589], [-8.037134, 41.831171], [-8.041351, 41.828023], [-8.041054, 41.825097], [-8.045268, 41.824425], [-8.047679, 41.821276], [-8.057314, 41.815656], [-8.06664, 41.817012], [-8.072961, 41.813414], [-8.078678, 41.813417], [-8.082892, 41.810493], [-8.091013, 41.812521], [-8.093421, 41.811397], [-8.093723, 41.808471], [-8.104809, 41.811625], [-8.097883, 41.804639], [-8.092773, 41.795592], [-8.090246, 41.786565], [-8.090638, 41.777562], [-8.097269, 41.7596], [-8.111508, 41.741697], [-8.125339, 41.732796], [-8.14302, 41.725351], [-8.167268, 41.70975], [-8.179294, 41.709264], [-8.218332, 41.72446], [-8.229158, 41.73354], [-8.233309, 41.751581], [-8.233133, 41.778601], [-8.230909, 41.791597], [-8.240744, 41.791588], [-8.24074, 41.789338], [-8.244347, 41.787984], [-8.245546, 41.785731], [-8.251257, 41.784375], [-8.251845, 41.777172], [-8.257551, 41.773564], [-8.261762, 41.774235], [-8.267406, 41.769952], [-8.259334, 41.760759], [-8.256548, 41.751734], [-8.257398, 41.742733], [-8.263171, 41.732288], [-8.27529, 41.723891], [-8.287348, 41.7207], [-8.299363, 41.721379], [-8.309511, 41.725044], [-8.32208, 41.734126], [-8.327854, 41.743166], [-8.329519, 41.752183], [-8.327479, 41.761178], [-8.324932, 41.764654], [-8.332141, 41.762835], [-8.336653, 41.763728], [-8.341756, 41.761468], [-8.344765, 41.762363], [-8.349267, 41.760103], [-8.352557, 41.755145], [-8.349814, 41.744122], [-8.352516, 41.743441], [-8.352203, 41.739616], [-8.357897, 41.735103], [-8.362407, 41.735994], [-8.368703, 41.73193], [-8.374122, 41.734845], [-8.384922, 41.73032], [-8.387032, 41.731891], [-8.393033, 41.729852], [-8.396942, 41.730518], [-8.400531, 41.726683], [-8.402934, 41.726452], [-8.404721, 41.722847], [-8.417349, 41.725067], [-8.422737, 41.720552], [-8.429643, 41.719859], [-8.430533, 41.717381], [-8.435927, 41.714441], [-8.441632, 41.713975], [-8.4446, 41.70654], [-8.453868, 41.697961], [-8.453255, 41.695487], [-8.461659, 41.694563], [-8.467939, 41.689593], [-8.476029, 41.686335]], [[-7.997293, 41.818593], [-7.937076, 41.81951], [-7.925064, 41.817814], [-7.913191, 41.807934], [-7.904966, 41.793955], [-7.902149, 41.784922], [-7.902129, 41.775915], [-7.907734, 41.766961], [-7.913954, 41.762716], [-7.925989, 41.762454], [-7.9342, 41.76721], [-7.937932, 41.767728], [-7.954407, 41.767396], [-7.962083, 41.762178], [-7.971372, 41.758542], [-7.974229, 41.754849], [-7.987304, 41.749676], [-7.990425, 41.73169], [-7.99875, 41.724974], [-8.010812, 41.722427], [-8.02274, 41.728662], [-8.026042, 41.731998], [-8.026742, 41.74101], [-8.022439, 41.748508], [-8.012076, 41.758899], [-8.027783, 41.786054], [-8.028868, 41.79507], [-8.025503, 41.804048], [-8.015523, 41.81297], [-7.997293, 41.818593]], [[-8.1311, 41.717707], [-8.12493, 41.714779], [-8.127286, 41.70579], [-8.131309, 41.702222], [-8.143319, 41.702833], [-8.145826, 41.70593], [-8.143532, 41.714919], [-8.1311, 41.717707]], [[-8.058952, 41.718992], [-8.046953, 41.717464], [-8.041461, 41.714113], [-8.033055, 41.705036], [-8.030895, 41.696011], [-8.026062, 41.686963], [-8.005784, 41.677782], [-7.99529, 41.668684], [-7.992099, 41.659649], [-7.99439, 41.650662], [-7.999988, 41.645072], [-8.012089, 41.639017], [-8.02411, 41.638079], [-8.036074, 41.640967], [-8.059888, 41.654748], [-8.083902, 41.655159], [-8.095881, 41.657382], [-8.10781, 41.663248], [-8.115853, 41.669675], [-8.117912, 41.678698], [-8.110432, 41.687647], [-8.095278, 41.700388], [-8.084495, 41.705457], [-8.071036, 41.71469], [-8.058952, 41.718992]], [[-8.203364, 41.706822], [-8.192327, 41.697259], [-8.193577, 41.68826], [-8.203683, 41.680951], [-8.215706, 41.680337], [-8.229427, 41.688506], [-8.230913, 41.697523], [-8.220406, 41.70646], [-8.215372, 41.707761], [-8.203364, 41.706822]]], [[[-8.057146, 41.437068], [-8.069515, 41.417944], [-8.066739, 41.416142], [-8.061654, 41.417489], [-8.059852, 41.424916], [-8.055959, 41.429415], [-8.057146, 41.437068]]], [[[-8.105032, 41.81185], [-8.105032, 41.81185], [-8.104853, 41.811669], [-8.105032, 41.81185]]], [[[-7.836099, 41.701277], [-7.836099, 41.701277], [-7.836189, 41.701189], [-7.836099, 41.701277]]], [[[-7.836401, 41.700982], [-7.836401, 41.700982], [-7.836419, 41.700964], [-7.836401, 41.700982]]], [[[-7.837608, 41.699802], [-7.837608, 41.699802], [-7.838486, 41.698944], [-7.837608, 41.699802]]], [[[-8.678888, 41.474466], [-8.673328, 41.469566], [-8.66135, 41.47], [-8.657497, 41.474404], [-8.659983, 41.483419], [-8.673252, 41.484681], [-8.676048, 41.483465], [-8.678888, 41.474466]]], [[[-8.647067, 41.185859], [-8.646987, 41.195134], [-8.64939, 41.204149], [-8.655233, 41.213175], [-8.662646, 41.21939], [-8.67455, 41.224625], [-8.686473, 41.226375], [-8.698407, 41.225834], [-8.710349, 41.223329], [-8.7302, 41.213375], [-8.739283, 41.204388], [-8.744172, 41.195391], [-8.746045, 41.186387], [-8.745285, 41.177377], [-8.741492, 41.168361], [-8.733547, 41.159335], [-8.722579, 41.152379], [-8.710678, 41.148567], [-8.698767, 41.147299], [-8.686844, 41.148476], [-8.673961, 41.152646], [-8.674849, 41.153767], [-8.672489, 41.15648], [-8.667869, 41.156276], [-8.662955, 41.159206], [-8.653532, 41.169554], [-8.655366, 41.175467], [-8.64855, 41.180045], [-8.648261, 41.181178], [-8.648044, 41.182028], [-8.647683, 41.183445], [-8.647124, 41.185634], [-8.647104, 41.185712], [-8.647067, 41.185859]]]]}}, {"id": "7", "type": "Feature", "properties": {"fill": "#a3a3a3", "value_min": -0.75, "value_max": -0.5}, "geometry": {"type": "MultiPolygon", "coordinates": [[[[-7.907897, 41.869296], [-7.912294, 41.860907], [-7.924365, 41.859552], [-7.936343, 41.863809], [-7.948383, 41.864354], [-7.960487, 41.860922], [-7.971374, 41.84861], [-7.970788, 41.839598], [-7.960977, 41.830672], [-7.948963, 41.828916], [-7.940188, 41.830313], [-7.924683, 41.840582], [-7.912576, 41.844292], [-7.903807, 41.811958], [-7.899181, 41.802907], [-7.889405, 41.791099], [-7.877468, 41.785475], [-7.841411, 41.782978], [-7.82941, 41.781149], [-7.817459, 41.77667], [-7.805069, 41.765939], [-7.782167, 41.734087], [-7.774199, 41.726447], [-7.773485, 41.727345], [-7.7678, 41.723276], [-7.763888, 41.724389], [-7.761765, 41.727758], [-7.762933, 41.733839], [-7.759307, 41.737203], [-7.759597, 41.739005], [-7.75689, 41.739446], [-7.758687, 41.740577], [-7.757758, 41.745301], [-7.748417, 41.749321], [-7.747786, 41.754496], [-7.743866, 41.756509], [-7.740214, 41.763924], [-7.726937, 41.771755], [-7.7254, 41.777152], [-7.727191, 41.779184], [-7.724177, 41.780299], [-7.725372, 41.781653], [-7.722296, 41.792446], [-7.728879, 41.797871], [-7.72705, 41.801691], [-7.72788, 41.813397], [-7.732642, 41.821632], [-7.756449, 41.820524], [-7.768459, 41.822169], [-7.780426, 41.826055], [-7.792346, 41.832516], [-7.799403, 41.837934], [-7.806541, 41.847015], [-7.810214, 41.85606], [-7.810027, 41.870824], [-7.814229, 41.873537], [-7.823863, 41.874013], [-7.825059, 41.875817], [-7.830479, 41.875831], [-7.830789, 41.874031], [-7.832894, 41.874712], [-7.83772, 41.872924], [-7.842528, 41.875187], [-7.841663, 41.866632], [-7.849515, 41.861475], [-7.858542, 41.862622], [-7.859456, 41.860148], [-7.864877, 41.859711], [-7.87033, 41.851395], [-7.873043, 41.850501], [-7.873066, 41.844875], [-7.879056, 41.85254], [-7.886268, 41.855932], [-7.888076, 41.855486], [-7.891675, 41.859094], [-7.900698, 41.861588], [-7.904318, 41.859795], [-7.907309, 41.865203], [-7.906095, 41.868126], [-7.907897, 41.869296]], [[-7.864545, 41.835799], [-7.852542, 41.833535], [-7.845402, 41.829399], [-7.839183, 41.82033], [-7.839868, 41.81133], [-7.846337, 41.802388], [-7.853161, 41.798862], [-7.865256, 41.795546], [-7.877274, 41.796584], [-7.889164, 41.805053], [-7.892578, 41.81185], [-7.891488, 41.820846], [-7.888816, 41.825214], [-7.876622, 41.833919], [-7.864545, 41.835799]]], [[[-8.476029, 41.686335], [-8.482012, 41.682123], [-8.484371, 41.674238], [-8.49308, 41.674886], [-8.499963, 41.671038], [-8.50927, 41.671233], [-8.51018, 41.672806], [-8.511967, 41.670324], [-8.509856, 41.668755], [-8.522103, 41.658811], [-8.525706, 41.659023], [-8.527769, 41.652714], [-8.534066, 41.652017], [-8.537355, 41.64998], [-8.537634, 41.646602], [-8.543876, 41.637352], [-8.543855, 41.633976], [-8.536342, 41.631977], [-8.535128, 41.62973], [-8.543431, 41.61462], [-8.554533, 41.615255], [-8.557244, 41.617046], [-8.562639, 41.61635], [-8.568056, 41.619031], [-8.570735, 41.616095], [-8.577321, 41.614269], [-8.581231, 41.615829], [-8.585766, 41.620988], [-8.591462, 41.620515], [-8.596534, 41.616668], [-8.601628, 41.615972], [-8.603996, 41.611686], [-8.613256, 41.606696], [-8.619881, 41.610269], [-8.621338, 41.604636], [-8.628833, 41.604378], [-8.636302, 41.600744], [-8.64075, 41.594422], [-8.645536, 41.593051], [-8.646744, 41.594171], [-8.649125, 41.591909], [-8.656622, 41.5921], [-8.660788, 41.588255], [-8.663794, 41.589141], [-8.665265, 41.585758], [-8.66948, 41.587989], [-8.684455, 41.586117], [-8.685608, 41.58071], [-8.697261, 41.576376], [-8.701703, 41.570277], [-8.707704, 41.570923], [-8.712485, 41.569323], [-8.716422, 41.573805], [-8.720316, 41.57356], [-8.725151, 41.577811], [-8.726633, 41.576003], [-8.734424, 41.575737], [-8.736564, 41.580228], [-8.738354, 41.579318], [-8.740778, 41.582006], [-8.74467, 41.581535], [-8.750711, 41.58623], [-8.756374, 41.582823], [-8.75635, 41.580347], [-8.762327, 41.578514], [-8.764443, 41.580303], [-8.767441, 41.580286], [-8.769874, 41.583874], [-8.768997, 41.58613], [-8.773228, 41.589482], [-8.775371, 41.593972], [-8.78556, 41.593464], [-8.797327, 41.600599], [-8.804218, 41.600109], [-8.80456, 41.604158], [-8.809434, 41.611332], [-8.828644, 41.609656], [-8.82839, 41.585633], [-8.818497, 41.554794], [-8.8221, 41.547542], [-8.821965, 41.534907], [-8.815926, 41.525624], [-8.81063, 41.5101], [-8.813279, 41.503483], [-8.812636, 41.496944], [-8.804699, 41.482068], [-8.798552, 41.474753], [-8.80154, 41.446836], [-8.806115, 41.43713], [-8.807354, 41.425915], [-8.811166, 41.417099], [-8.807929, 41.353401], [-8.793433, 41.360033], [-8.769502, 41.365826], [-8.745585, 41.366709], [-8.721687, 41.362916], [-8.697823, 41.352435], [-8.642033, 41.31222], [-8.632421, 41.303182], [-8.614583, 41.277762], [-8.602665, 41.274023], [-8.554896, 41.275517], [-8.531047, 41.271137], [-8.519141, 41.266469], [-8.504126, 41.257662], [-8.494121, 41.248611], [-8.486182, 41.237114], [-8.484411, 41.240495], [-8.476644, 41.237817], [-8.475756, 41.23917], [-8.471283, 41.239184], [-8.471604, 41.243459], [-8.469227, 41.245267], [-8.463258, 41.244384], [-8.459989, 41.246644], [-8.454323, 41.246886], [-8.455541, 41.251834], [-8.452276, 41.25522], [-8.449891, 41.255452], [-8.449304, 41.257479], [-8.447812, 41.257258], [-8.449028, 41.261982], [-8.439785, 41.262907], [-8.438023, 41.268989], [-8.434745, 41.269673], [-8.432691, 41.277107], [-8.427032, 41.279372], [-8.429143, 41.284319], [-8.426171, 41.287028], [-8.426488, 41.291079], [-8.425013, 41.294909], [-8.422037, 41.296942], [-8.422647, 41.299867], [-8.407744, 41.304856], [-8.406262, 41.307335], [-8.403277, 41.307342], [-8.401801, 41.311398], [-8.399712, 41.311628], [-8.400316, 41.313202], [-8.396738, 41.314336], [-8.398835, 41.316131], [-8.393775, 41.31997], [-8.393489, 41.323122], [-8.391105, 41.324253], [-8.386325, 41.323588], [-8.380382, 41.331254], [-8.375305, 41.33104], [-8.37201, 41.328346], [-8.361563, 41.329718], [-8.358276, 41.329049], [-8.357673, 41.327249], [-8.350207, 41.327264], [-8.346032, 41.328847], [-8.342462, 41.333131], [-8.333215, 41.336299], [-8.326363, 41.342163], [-8.324568, 41.341041], [-8.323376, 41.341943], [-8.320676, 41.338121], [-8.312604, 41.334983], [-8.313794, 41.333405], [-8.31139, 41.328007], [-8.307502, 41.325762], [-8.305116, 41.326891], [-8.303024, 41.325994], [-8.303615, 41.323742], [-8.301216, 41.319694], [-8.296431, 41.316774], [-8.297618, 41.313846], [-8.295817, 41.310022], [-8.281801, 41.316569], [-8.281808, 41.319721], [-8.278828, 41.321976], [-8.278238, 41.325128], [-8.273161, 41.325134], [-8.269582, 41.326939], [-8.265709, 41.331221], [-8.269004, 41.336169], [-8.263339, 41.340902], [-8.262751, 41.345405], [-8.256483, 41.347663], [-8.255889, 41.349689], [-8.249622, 41.353072], [-8.251123, 41.356897], [-8.248141, 41.360052], [-8.248448, 41.364328], [-8.245461, 41.364832], [-8.251295, 41.373395], [-8.251505, 41.382404], [-8.246093, 41.391376], [-8.23106, 41.399042], [-8.219088, 41.399762], [-8.207173, 41.395871], [-8.200327, 41.391067], [-8.195378, 41.382349], [-8.195732, 41.3754], [-8.194677, 41.374275], [-8.191691, 41.376302], [-8.189299, 41.375403], [-8.184818, 41.376756], [-8.169578, 41.377212], [-8.164499, 41.38059], [-8.152544, 41.375866], [-8.151049, 41.37339], [-8.145073, 41.374742], [-8.139694, 41.377894], [-8.133418, 41.374292], [-8.119672, 41.376768], [-8.119672, 41.378569], [-8.116683, 41.380144], [-8.117578, 41.386447], [-8.113992, 41.386896], [-8.112795, 41.390723], [-8.110105, 41.390947], [-8.108011, 41.393648], [-8.103827, 41.392972], [-8.105321, 41.394998], [-8.10263, 41.396123], [-8.10801, 41.398825], [-8.108606, 41.403102], [-8.104419, 41.406252], [-8.104119, 41.408728], [-8.101727, 41.409403], [-8.102025, 41.411204], [-8.092756, 41.411201], [-8.09126, 41.414352], [-8.079893, 41.41975], [-8.077503, 41.416597], [-8.069515, 41.417944], [-8.057146, 41.437068], [-8.069999, 41.447206], [-8.068788, 41.462286], [-8.073872, 41.46499], [-8.074164, 41.473543], [-8.067272, 41.481821], [-8.0764, 41.489221], [-8.099317, 41.49841], [-8.122014, 41.50158], [-8.134002, 41.501122], [-8.145129, 41.498759], [-8.159767, 41.48986], [-8.166134, 41.480899], [-8.168982, 41.471912], [-8.171576, 41.444909], [-8.176216, 41.435934], [-8.182791, 41.432414], [-8.194788, 41.430121], [-8.242729, 41.424323], [-8.290745, 41.410864], [-8.314663, 41.411913], [-8.362452, 41.419246], [-8.42226, 41.422039], [-8.434203, 41.424733], [-8.442954, 41.428528], [-8.452599, 41.437582], [-8.456547, 41.446608], [-8.457687, 41.455621], [-8.454826, 41.473622], [-8.446541, 41.491597], [-8.440347, 41.500575], [-8.438842, 41.509575], [-8.445859, 41.518616], [-8.47703, 41.536777], [-8.481175, 41.545803], [-8.47835, 41.554798], [-8.468965, 41.564521], [-8.45692, 41.570766], [-8.420888, 41.576222], [-8.408859, 41.579863], [-8.3968, 41.58664], [-8.384421, 41.599369], [-8.38008, 41.608353], [-8.379498, 41.617357], [-8.383426, 41.626386], [-8.390869, 41.635433], [-8.432064, 41.66966], [-8.444027, 41.675424], [-8.476029, 41.686335]], [[-8.44426, 41.648284], [-8.432287, 41.644294], [-8.421795, 41.635592], [-8.417801, 41.626565], [-8.419679, 41.617567], [-8.432614, 41.606928], [-8.444639, 41.604176], [-8.456634, 41.604894], [-8.468599, 41.60921], [-8.478565, 41.61785], [-8.480689, 41.626866], [-8.478058, 41.635862], [-8.468311, 41.644216], [-8.456269, 41.648259], [-8.44426, 41.648284]], [[-8.516699, 41.596536], [-8.503433, 41.590938], [-8.497258, 41.581904], [-8.497595, 41.572898], [-8.504957, 41.562868], [-8.51699, 41.557495], [-8.528986, 41.557037], [-8.54673, 41.564095], [-8.551233, 41.57312], [-8.54952, 41.58212], [-8.540538, 41.591092], [-8.528703, 41.595979], [-8.516699, 41.596536]], [[-8.648791, 41.577908], [-8.62479, 41.579614], [-8.612803, 41.578056], [-8.600829, 41.574584], [-8.580932, 41.564225], [-8.572473, 41.555186], [-8.56733, 41.537152], [-8.570172, 41.519148], [-8.576288, 41.510163], [-8.586163, 41.501192], [-8.601325, 41.493774], [-8.613316, 41.492039], [-8.625288, 41.493411], [-8.637246, 41.49742], [-8.662914, 41.51045], [-8.676347, 41.519496], [-8.684116, 41.528525], [-8.688032, 41.537543], [-8.688041, 41.54655], [-8.684345, 41.555548], [-8.672835, 41.567584], [-8.660807, 41.574062], [-8.648791, 41.577908]], [[-8.481296, 41.522285], [-8.474223, 41.518749], [-8.468591, 41.509716], [-8.469426, 41.508141], [-8.481482, 41.498954], [-8.493453, 41.500242], [-8.502653, 41.509868], [-8.499287, 41.518861], [-8.493285, 41.521798], [-8.481296, 41.522285]], [[-8.122074, 41.497144], [-8.110105, 41.496334], [-8.098181, 41.492221], [-8.092158, 41.489346], [-8.085134, 41.480283], [-8.083821, 41.471265], [-8.087991, 41.462291], [-8.09871, 41.454026], [-8.11073, 41.450589], [-8.122695, 41.451111], [-8.134609, 41.455527], [-8.142985, 41.462714], [-8.147764, 41.471757], [-8.147645, 41.480763], [-8.14218, 41.48973], [-8.134095, 41.49411], [-8.122074, 41.497144]], [[-8.678888, 41.474466], [-8.676048, 41.483465], [-8.673252, 41.484681], [-8.659983, 41.483419], [-8.657497, 41.474404], [-8.66135, 41.47], [-8.673328, 41.469566], [-8.678888, 41.474466]], [[-8.362667, 41.397306], [-8.350719, 41.395814], [-8.338807, 41.3909], [-8.329459, 41.382885], [-8.324967, 41.373851], [-8.324798, 41.364842], [-8.328951, 41.355859], [-8.339254, 41.346662], [-8.351256, 41.341754], [-8.363221, 41.34047], [-8.375158, 41.342046], [-8.38706, 41.347382], [-8.396338, 41.356232], [-8.400176, 41.36526], [-8.399884, 41.374266], [-8.395485, 41.38325], [-8.384297, 41.392199], [-8.374643, 41.39584], [-8.362667, 41.397306]]], [[[-8.584537, 41.173741], [-8.598011, 41.185965], [-8.609397, 41.20402], [-8.622689, 41.249104], [-8.626652, 41.25524], [-8.63858, 41.256786], [-8.722195, 41.243446], [-8.75801, 41.240128], [-8.781875, 41.24088], [-8.803686, 41.245671], [-8.799695, 41.14406], [-8.67527, 41.147484], [-8.676193, 41.146567], [-8.674793, 41.146932], [-8.674204, 41.147693], [-8.673961, 41.152646], [-8.686844, 41.148476], [-8.698767, 41.147299], [-8.710678, 41.148567], [-8.722579, 41.152379], [-8.733547, 41.159335], [-8.741492, 41.168361], [-8.745285, 41.177377], [-8.746045, 41.186387], [-8.744172, 41.195391], [-8.739283, 41.204388], [-8.7302, 41.213375], [-8.710349, 41.223329], [-8.698407, 41.225834], [-8.686473, 41.226375], [-8.67455, 41.224625], [-8.662646, 41.21939], [-8.655233, 41.213175], [-8.64939, 41.204149], [-8.646987, 41.195134], [-8.647067, 41.185859], [-8.641225, 41.196014], [-8.638841, 41.196025], [-8.638231, 41.194227], [-8.634946, 41.193341], [-8.632526, 41.188624], [-8.625658, 41.186628], [-8.621132, 41.178994], [-8.613374, 41.177451], [-8.608583, 41.174095], [-8.609164, 41.172066], [-8.605845, 41.166228], [-8.602852, 41.164214], [-8.59422, 41.165149], [-8.589766, 41.167193], [-8.589194, 41.170572], [-8.584537, 41.173741]]], [[[-8.647104, 41.185712], [-8.647104, 41.185712], [-8.647124, 41.185634], [-8.647104, 41.185712]]], [[[-8.647683, 41.183445], [-8.647683, 41.183445], [-8.648044, 41.182028], [-8.647683, 41.183445]]], [[[-8.648261, 41.181178], [-8.648261, 41.181178], [-8.64855, 41.180045], [-8.648261, 41.181178]]], [[[-8.653532, 41.169554], [-8.662955, 41.159206], [-8.667869, 41.156276], [-8.66117, 41.156307], [-8.662078, 41.158104], [-8.660313, 41.160813], [-8.656143, 41.160832], [-8.653532, 41.169554]]], [[[-8.324932, 41.764654], [-8.327479, 41.761178], [-8.329519, 41.752183], [-8.327854, 41.743166], [-8.32208, 41.734126], [-8.309511, 41.725044], [-8.299363, 41.721379], [-8.287348, 41.7207], [-8.27529, 41.723891], [-8.263171, 41.732288], [-8.257398, 41.742733], [-8.256548, 41.751734], [-8.259334, 41.760759], [-8.267406, 41.769952], [-8.271366, 41.766346], [-8.280681, 41.764083], [-8.284038, 41.761109], [-8.284931, 41.757507], [-8.287033, 41.756829], [-8.298457, 41.757263], [-8.300866, 41.758835], [-8.305674, 41.758152], [-8.311096, 41.762195], [-8.318308, 41.761283], [-8.324932, 41.764654]]], [[[-8.1311, 41.717707], [-8.143532, 41.714919], [-8.145826, 41.70593], [-8.143319, 41.702833], [-8.131309, 41.702222], [-8.127286, 41.70579], [-8.12493, 41.714779], [-8.1311, 41.717707]]], [[[-8.058952, 41.718992], [-8.071036, 41.71469], [-8.084495, 41.705457], [-8.095278, 41.700388], [-8.110432, 41.687647], [-8.117912, 41.678698], [-8.115853, 41.669675], [-8.10781, 41.663248], [-8.095881, 41.657382], [-8.083902, 41.655159], [-8.059888, 41.654748], [-8.036074, 41.640967], [-8.02411, 41.638079], [-8.012089, 41.639017], [-7.999988, 41.645072], [-7.99439, 41.650662], [-7.992099, 41.659649], [-7.99529, 41.668684], [-8.005784, 41.677782], [-8.026062, 41.686963], [-8.030895, 41.696011], [-8.033055, 41.705036], [-8.041461, 41.714113], [-8.046953, 41.717464], [-8.058952, 41.718992]], [[-8.08348, 41.684905], [-8.077893, 41.678383], [-8.083661, 41.672126], [-8.09567, 41.67244], [-8.100194, 41.67856], [-8.095506, 41.684112], [-8.08348, 41.684905]]], [[[-7.835954, 41.709741], [-7.836641, 41.712222], [-7.842623, 41.715511], [-7.854616, 41.71713], [-7.864802, 41.712504], [-7.868135, 41.70353], [-7.866907, 41.701764], [-7.855038, 41.6933], [-7.848445, 41.693929], [-7.838486, 41.698944], [-7.837608, 41.699802], [-7.836419, 41.700964], [-7.836401, 41.700982], [-7.836189, 41.701189], [-7.836099, 41.701277], [-7.839679, 41.706599], [-7.838465, 41.709522], [-7.835954, 41.709741]]], [[[-8.203364, 41.706822], [-8.215372, 41.707761], [-8.220406, 41.70646], [-8.230913, 41.697523], [-8.229427, 41.688506], [-8.215706, 41.680337], [-8.203683, 41.680951], [-8.193577, 41.68826], [-8.192327, 41.697259], [-8.203364, 41.706822]]]]}}, {"id": "8", "type": "Feature", "properties": {"fill": "#a3a3a3", "value_min": -0.5, "value_max": -0.25}, "geometry": {"type": "MultiPolygon", "coordinates": [[[[-7.810027, 41.870824], [-7.810214, 41.85606], [-7.806541, 41.847015], [-7.799403, 41.837934], [-7.792346, 41.832516], [-7.780426, 41.826055], [-7.768459, 41.822169], [-7.756449, 41.820524], [-7.732642, 41.821632], [-7.743152, 41.825154], [-7.742839, 41.827178], [-7.738918, 41.82874], [-7.742196, 41.833928], [-7.74729, 41.837772], [-7.746349, 41.84407], [-7.750242, 41.847405], [-7.755958, 41.845886], [-7.767939, 41.849239], [-7.774501, 41.855685], [-7.775115, 41.864698], [-7.767474, 41.873487], [-7.755374, 41.876046], [-7.744679, 41.873376], [-7.736473, 41.864279], [-7.736823, 41.861369], [-7.734159, 41.868337], [-7.730228, 41.871024], [-7.729293, 41.875972], [-7.722351, 41.878424], [-7.720523, 41.881793], [-7.725335, 41.882935], [-7.726208, 41.887665], [-7.737044, 41.888828], [-7.737935, 41.890857], [-7.74246, 41.889747], [-7.742785, 41.885922], [-7.756022, 41.888441], [-7.758719, 41.890926], [-7.756592, 41.89407], [-7.758376, 41.898127], [-7.764097, 41.898595], [-7.779227, 41.886264], [-7.785257, 41.885157], [-7.788886, 41.882467], [-7.794007, 41.882257], [-7.796739, 41.878214], [-7.794954, 41.873932], [-7.803381, 41.874857], [-7.804914, 41.869459], [-7.810027, 41.870824]]], [[[-7.743535, 41.849913], [-7.743535, 41.849913], [-7.747226, 41.848458], [-7.743535, 41.849913]]], [[[-7.864545, 41.835799], [-7.876622, 41.833919], [-7.888816, 41.825214], [-7.891488, 41.820846], [-7.892578, 41.81185], [-7.889164, 41.805053], [-7.877274, 41.796584], [-7.865256, 41.795546], [-7.853161, 41.798862], [-7.846337, 41.802388], [-7.839868, 41.81133], [-7.839183, 41.82033], [-7.845402, 41.829399], [-7.852542, 41.833535], [-7.864545, 41.835799]], [[-7.864911, 41.815138], [-7.862588, 41.811557], [-7.865015, 41.80921], [-7.877055, 41.809146], [-7.879057, 41.811719], [-7.876945, 41.815434], [-7.864911, 41.815138]]], [[[-8.08348, 41.684905], [-8.095506, 41.684112], [-8.100194, 41.67856], [-8.09567, 41.67244], [-8.083661, 41.672126], [-8.077893, 41.678383], [-8.08348, 41.684905]]], [[[-8.44426, 41.648284], [-8.456269, 41.648259], [-8.468311, 41.644216], [-8.478058, 41.635862], [-8.480689, 41.626866], [-8.478565, 41.61785], [-8.468599, 41.60921], [-8.456634, 41.604894], [-8.444639, 41.604176], [-8.432614, 41.606928], [-8.419679, 41.617567], [-8.417801, 41.626565], [-8.421795, 41.635592], [-8.432287, 41.644294], [-8.44426, 41.648284]]], [[[-8.516699, 41.596536], [-8.528703, 41.595979], [-8.540538, 41.591092], [-8.54952, 41.58212], [-8.551233, 41.57312], [-8.54673, 41.564095], [-8.528986, 41.557037], [-8.51699, 41.557495], [-8.504957, 41.562868], [-8.497595, 41.572898], [-8.497258, 41.581904], [-8.503433, 41.590938], [-8.516699, 41.596536]]], [[[-8.648791, 41.577908], [-8.660807, 41.574062], [-8.672835, 41.567584], [-8.684345, 41.555548], [-8.688041, 41.54655], [-8.688032, 41.537543], [-8.684116, 41.528525], [-8.676347, 41.519496], [-8.662914, 41.51045], [-8.637246, 41.49742], [-8.625288, 41.493411], [-8.613316, 41.492039], [-8.601325, 41.493774], [-8.586163, 41.501192], [-8.576288, 41.510163], [-8.570172, 41.519148], [-8.56733, 41.537152], [-8.572473, 41.555186], [-8.580932, 41.564225], [-8.600829, 41.574584], [-8.612803, 41.578056], [-8.62479, 41.579614], [-8.648791, 41.577908]], [[-8.624992, 41.544786], [-8.613017, 41.542181], [-8.606354, 41.537292], [-8.601524, 41.528268], [-8.604164, 41.51927], [-8.613194, 41.51255], [-8.625189, 41.51056], [-8.637149, 41.514704], [-8.643367, 41.519398], [-8.647034, 41.528417], [-8.643236, 41.537413], [-8.636996, 41.54211], [-8.624992, 41.544786]]], [[[-8.481296, 41.522285], [-8.493285, 41.521798], [-8.499287, 41.518861], [-8.502653, 41.509868], [-8.493453, 41.500242], [-8.481482, 41.498954], [-8.469426, 41.508141], [-8.468591, 41.509716], [-8.474223, 41.518749], [-8.481296, 41.522285]]], [[[-8.122074, 41.497144], [-8.134095, 41.49411], [-8.14218, 41.48973], [-8.147645, 41.480763], [-8.147764, 41.471757], [-8.142985, 41.462714], [-8.134609, 41.455527], [-8.122695, 41.451111], [-8.11073, 41.450589], [-8.09871, 41.454026], [-8.087991, 41.462291], [-8.083821, 41.471265], [-8.085134, 41.480283], [-8.092158, 41.489346], [-8.098181, 41.492221], [-8.110105, 41.496334], [-8.122074, 41.497144]], [[-8.110174, 41.491291], [-8.105276, 41.489449], [-8.098052, 41.480385], [-8.102152, 41.47141], [-8.110512, 41.466561], [-8.122482, 41.466889], [-8.129983, 41.471624], [-8.134351, 41.480664], [-8.12766, 41.489621], [-8.122149, 41.49157], [-8.110174, 41.491291]]], [[[-8.362667, 41.397306], [-8.374643, 41.39584], [-8.384297, 41.392199], [-8.395485, 41.38325], [-8.399884, 41.374266], [-8.400176, 41.36526], [-8.396338, 41.356232], [-8.38706, 41.347382], [-8.375158, 41.342046], [-8.363221, 41.34047], [-8.351256, 41.341754], [-8.339254, 41.346662], [-8.328951, 41.355859], [-8.324798, 41.364842], [-8.324967, 41.373851], [-8.329459, 41.382885], [-8.338807, 41.3909], [-8.350719, 41.395814], [-8.362667, 41.397306]]], [[[-8.195732, 41.3754], [-8.195378, 41.382349], [-8.200327, 41.391067], [-8.207173, 41.395871], [-8.219088, 41.399762], [-8.23106, 41.399042], [-8.246093, 41.391376], [-8.251505, 41.382404], [-8.251295, 41.373395], [-8.245461, 41.364832], [-8.244272, 41.368384], [-8.239197, 41.371315], [-8.232024, 41.369971], [-8.224854, 41.370878], [-8.21738, 41.368182], [-8.211712, 41.376065], [-8.200358, 41.377648], [-8.195732, 41.3754]]], [[[-8.486182, 41.237114], [-8.494121, 41.248611], [-8.504126, 41.257662], [-8.519141, 41.266469], [-8.531047, 41.271137], [-8.554896, 41.275517], [-8.602665, 41.274023], [-8.614583, 41.277762], [-8.632421, 41.303182], [-8.642033, 41.31222], [-8.697823, 41.352435], [-8.721687, 41.362916], [-8.745585, 41.366709], [-8.769502, 41.365826], [-8.793433, 41.360033], [-8.807929, 41.353401], [-8.803686, 41.245671], [-8.781875, 41.24088], [-8.75801, 41.240128], [-8.722195, 41.243446], [-8.63858, 41.256786], [-8.626652, 41.25524], [-8.622689, 41.249104], [-8.609397, 41.20402], [-8.598011, 41.185965], [-8.584537, 41.173741], [-8.582094, 41.177803], [-8.578825, 41.178941], [-8.581296, 41.191762], [-8.575958, 41.195609], [-8.577183, 41.200557], [-8.57423, 41.20462], [-8.567971, 41.204644], [-8.565895, 41.206227], [-8.567697, 41.208246], [-8.566512, 41.209376], [-8.559636, 41.206251], [-8.554271, 41.20627], [-8.549521, 41.209214], [-8.544157, 41.209458], [-8.54238, 41.211265], [-8.532257, 41.213102], [-8.52713, 41.203215], [-8.523236, 41.200077], [-8.51163, 41.203042], [-8.510456, 41.206197], [-8.505693, 41.207113], [-8.504239, 41.213646], [-8.500076, 41.21546], [-8.50308, 41.219502], [-8.502204, 41.222656], [-8.496833, 41.221998], [-8.493861, 41.223583], [-8.487935, 41.230354], [-8.490333, 41.232598], [-8.489156, 41.235528], [-8.486182, 41.237114]], [[-8.733779, 41.329564], [-8.721826, 41.330158], [-8.709884, 41.328522], [-8.697953, 41.324373], [-8.681149, 41.312335], [-8.675141, 41.303311], [-8.67298, 41.294297], [-8.674798, 41.285294], [-8.681238, 41.276304], [-8.698218, 41.266778], [-8.710169, 41.263986], [-8.722111, 41.263159], [-8.734045, 41.264208], [-8.745971, 41.267377], [-8.761102, 41.276498], [-8.767871, 41.285519], [-8.770339, 41.294532], [-8.769419, 41.303538], [-8.765055, 41.312537], [-8.7553, 41.321524], [-8.745741, 41.326424], [-8.733779, 41.329564]]]]}}, {"id": "9", "type": "Feature", "properties": {"fill": "#a3a3a3", "value_min": -0.25, "value_max": -0.0}, "geometry": {"type": "MultiPolygon", "coordinates": [[[[-7.736823, 41.861369], [-7.736473, 41.864279], [-7.744679, 41.873376], [-7.755374, 41.876046], [-7.767474, 41.873487], [-7.775115, 41.864698], [-7.774501, 41.855685], [-7.767939, 41.849239], [-7.755958, 41.845886], [-7.750242, 41.847405], [-7.750532, 41.849261], [-7.747226, 41.848458], [-7.743535, 41.849913], [-7.746901, 41.8524], [-7.746881, 41.855776], [-7.739943, 41.858003], [-7.736823, 41.861369]]], [[[-7.864911, 41.815138], [-7.876945, 41.815434], [-7.879057, 41.811719], [-7.877055, 41.809146], [-7.865015, 41.80921], [-7.862588, 41.811557], [-7.864911, 41.815138]]], [[[-8.624992, 41.544786], [-8.636996, 41.54211], [-8.643236, 41.537413], [-8.647034, 41.528417], [-8.643367, 41.519398], [-8.637149, 41.514704], [-8.625189, 41.51056], [-8.613194, 41.51255], [-8.604164, 41.51927], [-8.601524, 41.528268], [-8.606354, 41.537292], [-8.613017, 41.542181], [-8.624992, 41.544786]]], [[[-8.110174, 41.491291], [-8.122149, 41.49157], [-8.12766, 41.489621], [-8.134351, 41.480664], [-8.129983, 41.471624], [-8.122482, 41.466889], [-8.110512, 41.466561], [-8.102152, 41.47141], [-8.098052, 41.480385], [-8.105276, 41.489449], [-8.110174, 41.491291]]], [[[-8.733779, 41.329564], [-8.745741, 41.326424], [-8.7553, 41.321524], [-8.765055, 41.312537], [-8.769419, 41.303538], [-8.770339, 41.294532], [-8.767871, 41.285519], [-8.761102, 41.276498], [-8.745971, 41.267377], [-8.734045, 41.264208], [-8.722111, 41.263159], [-8.710169, 41.263986], [-8.698218, 41.266778], [-8.681238, 41.276304], [-8.674798, 41.285294], [-8.67298, 41.294297], [-8.675141, 41.303311], [-8.681149, 41.312335], [-8.697953, 41.324373], [-8.709884, 41.328522], [-8.721826, 41.330158], [-8.733779, 41.329564]], [[-8.729226, 41.294443], [-8.724992, 41.303441], [-8.721933, 41.305007], [-8.709989, 41.304645], [-8.704108, 41.294381], [-8.710065, 41.287586], [-8.722009, 41.28713], [-8.729226, 41.294443]]]]}}, {"id": "0", "type": "Feature", "properties": {"fill": "#a21c1c", "value_min": -2.5, "value_max": -2.25}, "geometry": {"type": "Polygon", "coordinates": [[[-8.166856, 41.741642], [-8.166838, 41.743047], [-8.168688, 41.742125], [-8.166856, 41.741642]]]}}, {"id": "4", "type": "Feature", "properties": {"fill": "#e19f31", "value_min": -1.5, "value_max": -1.25}, "geometry": {"type": "MultiPolygon", "coordinates": [[[[-7.982098, 41.794665], [-7.980846, 41.785647], [-7.96976, 41.776541], [-7.96189, 41.774148], [-7.937843, 41.773085], [-7.925778, 41.77508], [-7.915206, 41.785046], [-7.915342, 41.794054], [-7.920704, 41.803111], [-7.925242, 41.807205], [-7.937206, 41.811644], [-7.949238, 41.812102], [-7.961306, 41.810335], [-7.976264, 41.80362], [-7.982098, 41.794665]], [[-7.937309, 41.805412], [-7.932803, 41.803224], [-7.923716, 41.794133], [-7.924774, 41.785136], [-7.93776, 41.77813], [-7.949795, 41.778022], [-7.961755, 41.782488], [-7.966044, 41.785515], [-7.96761, 41.794536], [-7.961455, 41.801079], [-7.949337, 41.806067], [-7.937309, 41.805412]]], [[[-8.202518, 41.77529], [-8.212634, 41.760449], [-8.214287, 41.751453], [-8.213233, 41.742439], [-8.207899, 41.733395], [-8.191144, 41.722821], [-8.17917, 41.719033], [-8.16714, 41.71961], [-8.143136, 41.73293], [-8.133665, 41.741866], [-8.130556, 41.75085], [-8.130573, 41.759857], [-8.134191, 41.768891], [-8.14233, 41.777215], [-8.154277, 41.783733], [-8.16628, 41.78612], [-8.178317, 41.785928], [-8.190389, 41.782902], [-8.202518, 41.77529]], [[-8.166483, 41.770442], [-8.1545, 41.766735], [-8.14651, 41.759976], [-8.14259, 41.75094], [-8.143934, 41.741943], [-8.154975, 41.730543], [-8.167063, 41.725592], [-8.179087, 41.725544], [-8.195144, 41.733307], [-8.20096, 41.742354], [-8.201101, 41.751362], [-8.196206, 41.760335], [-8.190611, 41.765276], [-8.178521, 41.769985], [-8.166483, 41.770442]]], [[[-8.132263, 41.631231], [-8.129569, 41.633751], [-8.132185, 41.637011], [-8.137951, 41.633814], [-8.132263, 41.631231]]], [[[-8.080381, 41.559658], [-8.097183, 41.564066], [-8.109169, 41.564566], [-8.121184, 41.562915], [-8.133229, 41.55905], [-8.143155, 41.552788], [-8.150814, 41.543838], [-8.152943, 41.534846], [-8.150042, 41.525818], [-8.140381, 41.516739], [-8.1219, 41.510054], [-8.110464, 41.507504], [-8.0927, 41.506482], [-8.0906, 41.512377], [-8.097923, 41.510823], [-8.109897, 41.511453], [-8.126106, 41.516631], [-8.134214, 41.5257], [-8.135075, 41.534713], [-8.129164, 41.543676], [-8.121377, 41.548732], [-8.109345, 41.551772], [-8.097358, 41.551445], [-8.083388, 41.546306], [-8.080687, 41.551651], [-8.074396, 41.549848], [-8.072897, 41.551197], [-8.076188, 41.557276], [-8.080381, 41.559658]]], [[[-8.265525, 41.525222], [-8.274895, 41.517665], [-8.280673, 41.508694], [-8.282028, 41.499695], [-8.277809, 41.498447], [-8.268601, 41.490603], [-8.253988, 41.486176], [-8.242012, 41.485907], [-8.229993, 41.489315], [-8.218305, 41.49928], [-8.215202, 41.508266], [-8.217671, 41.517842], [-8.229535, 41.527989], [-8.241486, 41.530987], [-8.253483, 41.530146], [-8.265525, 41.525222]]], [[[-8.349513, 41.516603], [-8.361552, 41.511059], [-8.371658, 41.50022], [-8.374759, 41.49123], [-8.374492, 41.482221], [-8.370993, 41.473194], [-8.362015, 41.463858], [-8.350095, 41.45843], [-8.338136, 41.45695], [-8.32615, 41.458177], [-8.311405, 41.463845], [-8.30008, 41.472785], [-8.293469, 41.481752], [-8.290807, 41.490743], [-8.291245, 41.499753], [-8.302091, 41.508826], [-8.31358, 41.514709], [-8.325532, 41.517767], [-8.33751, 41.518438], [-8.349513, 41.516603]], [[-8.337653, 41.504469], [-8.324837, 41.499955], [-8.317811, 41.490906], [-8.318308, 41.481901], [-8.325991, 41.473531], [-8.338007, 41.469633], [-8.349968, 41.47117], [-8.353242, 41.473096], [-8.362059, 41.482152], [-8.3623, 41.491161], [-8.35444, 41.500125], [-8.349649, 41.502994], [-8.337653, 41.504469]]]]}}, {"id": "5", "type": "Feature", "properties": {"fill": "#b6a27f", "value_min": -1.25, "value_max": -1.0}, "geometry": {"type": "MultiPolygon", "coordinates": [[[[-8.230909, 41.791597], [-8.233133, 41.778601], [-8.233309, 41.751581], [-8.229158, 41.73354], [-8.218332, 41.72446], [-8.179294, 41.709264], [-8.167268, 41.70975], [-8.14302, 41.725351], [-8.125339, 41.732796], [-8.111508, 41.741697], [-8.097269, 41.7596], [-8.090638, 41.777562], [-8.090246, 41.786565], [-8.092773, 41.795592], [-8.097883, 41.804639], [-8.104809, 41.811625], [-8.104853, 41.811669], [-8.105032, 41.81185], [-8.117188, 41.812302], [-8.123807, 41.808702], [-8.138247, 41.808477], [-8.139751, 41.813203], [-8.14276, 41.812978], [-8.145769, 41.815453], [-8.149078, 41.814777], [-8.153893, 41.817928], [-8.161415, 41.818376], [-8.165326, 41.81815], [-8.173744, 41.808019], [-8.177054, 41.808017], [-8.182773, 41.812516], [-8.190291, 41.809587], [-8.197158, 41.814129], [-8.201063, 41.808724], [-8.204973, 41.807372], [-8.205872, 41.804445], [-8.213692, 41.803765], [-8.217598, 41.80016], [-8.217589, 41.793634], [-8.224207, 41.794303], [-8.230909, 41.791597]], [[-8.202518, 41.77529], [-8.190389, 41.782902], [-8.178317, 41.785928], [-8.16628, 41.78612], [-8.154277, 41.783733], [-8.14233, 41.777215], [-8.134191, 41.768891], [-8.130573, 41.759857], [-8.130556, 41.75085], [-8.133665, 41.741866], [-8.143136, 41.73293], [-8.16714, 41.71961], [-8.17917, 41.719033], [-8.191144, 41.722821], [-8.207899, 41.733395], [-8.213233, 41.742439], [-8.214287, 41.751453], [-8.212634, 41.760449], [-8.202518, 41.77529]]], [[[-7.997293, 41.818593], [-8.015523, 41.81297], [-8.025503, 41.804048], [-8.028868, 41.79507], [-8.027783, 41.786054], [-8.012076, 41.758899], [-8.022439, 41.748508], [-8.026742, 41.74101], [-8.026042, 41.731998], [-8.02274, 41.728662], [-8.010812, 41.722427], [-7.99875, 41.724974], [-7.990425, 41.73169], [-7.987304, 41.749676], [-7.974229, 41.754849], [-7.971372, 41.758542], [-7.962083, 41.762178], [-7.954407, 41.767396], [-7.937932, 41.767728], [-7.9342, 41.76721], [-7.925989, 41.762454], [-7.913954, 41.762716], [-7.907734, 41.766961], [-7.902129, 41.775915], [-7.902149, 41.784922], [-7.904966, 41.793955], [-7.913191, 41.807934], [-7.925064, 41.817814], [-7.937076, 41.81951], [-7.997293, 41.818593]], [[-7.982098, 41.794665], [-7.976264, 41.80362], [-7.961306, 41.810335], [-7.949238, 41.812102], [-7.937206, 41.811644], [-7.925242, 41.807205], [-7.920704, 41.803111], [-7.915342, 41.794054], [-7.915206, 41.785046], [-7.925778, 41.77508], [-7.937843, 41.773085], [-7.96189, 41.774148], [-7.96976, 41.776541], [-7.980846, 41.785647], [-7.982098, 41.794665]]], [[[-8.053981, 41.583672], [-8.083542, 41.597365], [-8.089452, 41.606419], [-8.084529, 41.610882], [-8.083232, 41.615377], [-8.096377, 41.621859], [-8.100099, 41.633524], [-8.107677, 41.64259], [-8.119983, 41.651413], [-8.13193, 41.656009], [-8.143926, 41.657046], [-8.155966, 41.654835], [-8.162704, 41.652011], [-8.174966, 41.643093], [-8.184604, 41.625147], [-8.188138, 41.607158], [-8.192516, 41.598182], [-8.203177, 41.589249], [-8.22596, 41.580397], [-8.27703, 41.568436], [-8.337212, 41.547614], [-8.361299, 41.53685], [-8.373366, 41.528619], [-8.383004, 41.518296], [-8.387963, 41.509315], [-8.390389, 41.500321], [-8.390068, 41.482304], [-8.385968, 41.464268], [-8.380519, 41.455231], [-8.374124, 41.449874], [-8.362209, 41.444133], [-8.350269, 41.441012], [-8.326345, 41.439364], [-8.302371, 41.44249], [-8.230328, 41.460983], [-8.218298, 41.465699], [-8.206229, 41.473361], [-8.181934, 41.500631], [-8.16986, 41.507828], [-8.157858, 41.509335], [-8.145886, 41.508551], [-8.078332, 41.499778], [-8.084618, 41.502809], [-8.092402, 41.504163], [-8.0927, 41.506482], [-8.110464, 41.507504], [-8.1219, 41.510054], [-8.140381, 41.516739], [-8.150042, 41.525818], [-8.152943, 41.534846], [-8.150814, 41.543838], [-8.143155, 41.552788], [-8.133229, 41.55905], [-8.121184, 41.562915], [-8.109169, 41.564566], [-8.097183, 41.564066], [-8.080381, 41.559658], [-8.081576, 41.565157], [-8.078879, 41.56493], [-8.077678, 41.566956], [-8.069883, 41.570103], [-8.069281, 41.572579], [-8.058484, 41.578199], [-8.053981, 41.583672]], [[-8.132263, 41.631231], [-8.137951, 41.633814], [-8.132185, 41.637011], [-8.129569, 41.633751], [-8.132263, 41.631231]], [[-8.265525, 41.525222], [-8.253483, 41.530146], [-8.241486, 41.530987], [-8.229535, 41.527989], [-8.217671, 41.517842], [-8.215202, 41.508266], [-8.218305, 41.49928], [-8.229993, 41.489315], [-8.242012, 41.485907], [-8.253988, 41.486176], [-8.268601, 41.490603], [-8.277809, 41.498447], [-8.282028, 41.499695], [-8.280673, 41.508694], [-8.274895, 41.517665], [-8.265525, 41.525222]], [[-8.349513, 41.516603], [-8.33751, 41.518438], [-8.325532, 41.517767], [-8.31358, 41.514709], [-8.302091, 41.508826], [-8.291245, 41.499753], [-8.290807, 41.490743], [-8.293469, 41.481752], [-8.30008, 41.472785], [-8.311405, 41.463845], [-8.32615, 41.458177], [-8.338136, 41.45695], [-8.350095, 41.45843], [-8.362015, 41.463858], [-8.370993, 41.473194], [-8.374492, 41.482221], [-8.374759, 41.49123], [-8.371658, 41.50022], [-8.361552, 41.511059], [-8.349513, 41.516603]]]]}}, {"id": "3", "type": "Feature", "properties": {"fill": "#e57b10", "value_min": -1.75, "value_max": -1.5}, "geometry": {"type": "MultiPolygon", "coordinates": [[[[-7.937309, 41.805412], [-7.949337, 41.806067], [-7.961455, 41.801079], [-7.96761, 41.794536], [-7.966044, 41.785515], [-7.961755, 41.782488], [-7.949795, 41.778022], [-7.93776, 41.77813], [-7.924774, 41.785136], [-7.923716, 41.794133], [-7.932803, 41.803224], [-7.937309, 41.805412]], [[-7.937418, 41.798849], [-7.931929, 41.794209], [-7.933118, 41.785214], [-7.937684, 41.782728], [-7.949722, 41.782492], [-7.955727, 41.785421], [-7.95708, 41.79444], [-7.949442, 41.799609], [-7.937418, 41.798849]]], [[[-8.166483, 41.770442], [-8.178521, 41.769985], [-8.190611, 41.765276], [-8.196206, 41.760335], [-8.201101, 41.751362], [-8.20096, 41.742354], [-8.195144, 41.733307], [-8.179087, 41.725544], [-8.167063, 41.725592], [-8.154975, 41.730543], [-8.143934, 41.741943], [-8.14259, 41.75094], [-8.14651, 41.759976], [-8.1545, 41.766735], [-8.166483, 41.770442]], [[-8.166603, 41.761186], [-8.154651, 41.755262], [-8.151332, 41.751005], [-8.150686, 41.741993], [-8.159957, 41.733055], [-8.167008, 41.729886], [-8.179023, 41.730577], [-8.184413, 41.733231], [-8.191872, 41.742291], [-8.190578, 41.751288], [-8.178644, 41.760277], [-8.166603, 41.761186]]], [[[-8.083388, 41.546306], [-8.097358, 41.551445], [-8.109345, 41.551772], [-8.121377, 41.548732], [-8.129164, 41.543676], [-8.135075, 41.534713], [-8.134214, 41.5257], [-8.126106, 41.516631], [-8.109897, 41.511453], [-8.097923, 41.510823], [-8.0906, 41.512377], [-8.089996, 41.520322], [-8.097859, 41.515455], [-8.109842, 41.515497], [-8.113189, 41.516532], [-8.124112, 41.525623], [-8.121548, 41.536098], [-8.10947, 41.542615], [-8.105861, 41.542445], [-8.106459, 41.543782], [-8.101666, 41.542655], [-8.094475, 41.544904], [-8.087885, 41.542876], [-8.083389, 41.5449], [-8.083388, 41.546306]]], [[[-8.105569, 41.542431], [-8.105569, 41.542431], [-8.105561, 41.542431], [-8.105569, 41.542431]]], [[[-8.337653, 41.504469], [-8.349649, 41.502994], [-8.35444, 41.500125], [-8.3623, 41.491161], [-8.362059, 41.482152], [-8.353242, 41.473096], [-8.349968, 41.47117], [-8.338007, 41.469633], [-8.325991, 41.473531], [-8.318308, 41.481901], [-8.317811, 41.490906], [-8.324837, 41.499955], [-8.337653, 41.504469]]]]}}, {"id": "1", "type": "Feature", "properties": {"fill": "#b11c1c", "value_min": -2.25, "value_max": -2.0}, "geometry": {"type": "MultiPolygon", "coordinates": [[[[-8.183797, 41.742233], [-8.178939, 41.737128], [-8.166944, 41.734813], [-8.158021, 41.742047], [-8.161944, 41.751083], [-8.166697, 41.75396], [-8.178747, 41.752202], [-8.183797, 41.742233]], [[-8.166856, 41.741642], [-8.168688, 41.742125], [-8.166838, 41.743047], [-8.166856, 41.741642]]], [[[-8.109733, 41.523483], [-8.097733, 41.524489], [-8.097683, 41.528126], [-8.109625, 41.531304], [-8.112388, 41.525533], [-8.109733, 41.523483]]]]}}, {"id": "2", "type": "Feature", "properties": {"fill": "#c93e18", "value_min": -2.0, "value_max": -1.75}, "geometry": {"type": "MultiPolygon", "coordinates": [[[[-7.937418, 41.798849], [-7.949442, 41.799609], [-7.95708, 41.79444], [-7.955727, 41.785421], [-7.949722, 41.782492], [-7.937684, 41.782728], [-7.933118, 41.785214], [-7.931929, 41.794209], [-7.937418, 41.798849]]], [[[-8.166603, 41.761186], [-8.178644, 41.760277], [-8.190578, 41.751288], [-8.191872, 41.742291], [-8.184413, 41.733231], [-8.179023, 41.730577], [-8.167008, 41.729886], [-8.159957, 41.733055], [-8.150686, 41.741993], [-8.151332, 41.751005], [-8.154651, 41.755262], [-8.166603, 41.761186]], [[-8.183797, 41.742233], [-8.178747, 41.752202], [-8.166697, 41.75396], [-8.161944, 41.751083], [-8.158021, 41.742047], [-8.166944, 41.734813], [-8.178939, 41.737128], [-8.183797, 41.742233]]], [[[-8.105861, 41.542445], [-8.10947, 41.542615], [-8.121548, 41.536098], [-8.124112, 41.525623], [-8.113189, 41.516532], [-8.109842, 41.515497], [-8.097859, 41.515455], [-8.089996, 41.520322], [-8.090594, 41.522169], [-8.093588, 41.52307], [-8.09209, 41.524645], [-8.092385, 41.532749], [-8.105561, 41.542431], [-8.105569, 41.542431], [-8.105861, 41.542445]], [[-8.109733, 41.523483], [-8.112388, 41.525533], [-8.109625, 41.531304], [-8.097683, 41.528126], [-8.097733, 41.524489], [-8.109733, 41.523483]]]]}}]}