{"type": "FeatureCollection", "features": [{"id": "0", "type": "Feature", "properties": {"fill": "#a3a3a3", "value_min": -0.5, "value_max": -0.25}, "geometry": {"type": "Polygon", "coordinates": [[[-8.703361, 41.195293], [-8.698573, 41.189617], [-8.686658, 41.187565], [-8.677617, 41.195224], [-8.681173, 41.204241], [-8.686566, 41.206925], [-8.6985, 41.20562], [-8.700586, 41.204294], [-8.703361, 41.195293]]]}}, {"id": "1", "type": "Feature", "properties": {"fill": "#a3a3a3", "value_min": -0.25, "value_max": -0.0}, "geometry": {"type": "MultiPolygon", "coordinates": [[[[-7.865941, 41.75672], [-7.863476, 41.757525], [-7.865895, 41.759299], [-7.867006, 41.75756], [-7.865941, 41.75672]]], [[[-8.350078, 41.482085], [-8.337901, 41.48004], [-8.334609, 41.481997], [-8.333761, 41.490999], [-8.337763, 41.493681], [-8.349761, 41.491864], [-8.350078, 41.482085]]], [[[-8.722356, 41.205297], [-8.725785, 41.195348], [-8.723948, 41.186336], [-8.716269, 41.17731], [-8.710568, 41.173644], [-8.698663, 41.170076], [-8.686741, 41.170138], [-8.674802, 41.173848], [-8.661849, 41.186171], [-8.659687, 41.195172], [-8.661483, 41.204185], [-8.669332, 41.213216], [-8.674591, 41.216484], [-8.686504, 41.219818], [-8.698436, 41.219456], [-8.714494, 41.213337], [-8.722356, 41.205297]], [[-8.703361, 41.195293], [-8.700586, 41.204294], [-8.6985, 41.20562], [-8.686566, 41.206925], [-8.681173, 41.204241], [-8.677617, 41.195224], [-8.686658, 41.187565], [-8.698573, 41.189617], [-8.703361, 41.195293]]]]}}, {"id": "4", "type": "Feature", "properties": {"fill": "#a3a3a3", "value_min": 0.5, "value_max": -0.75}, "geometry": {"type": "MultiPolygon", "coordinates": [[[[-7.727032, 41.80465], [-7.744716, 41.804784], [-7.759334, 41.801482], [-7.781086, 41.791236], [-7.793133, 41.790621], [-7.805045, 41.79723], [-7.83085, 41.829252], [-7.84042, 41.837922], [-7.85234, 41.844849], [-7.864335, 41.847691], [-7.872755, 41.847283], [-7.873066, 41.844875], [-7.874863, 41.847185], [-7.88852, 41.842276], [-7.900772, 41.830221], [-7.906184, 41.820987], [-7.907978, 41.811998], [-7.899972, 41.784901], [-7.901447, 41.757894], [-7.898206, 41.748857], [-7.87123, 41.730581], [-7.868828, 41.72155], [-7.875062, 41.703598], [-7.876039, 41.6946], [-7.873789, 41.685523], [-7.868896, 41.686413], [-7.868008, 41.68326], [-7.864403, 41.683701], [-7.864096, 41.685276], [-7.858987, 41.68639], [-7.857773, 41.689538], [-7.854776, 41.68818], [-7.848747, 41.693578], [-7.855035, 41.693521], [-7.864999, 41.703499], [-7.862063, 41.712477], [-7.854573, 41.719504], [-7.842538, 41.720289], [-7.831848, 41.712174], [-7.831754, 41.71018], [-7.825252, 41.708813], [-7.818621, 41.713522], [-7.815291, 41.718689], [-7.808986, 41.717996], [-7.808396, 41.715744], [-7.804499, 41.714158], [-7.79939, 41.714593], [-7.79788, 41.716164], [-7.796383, 41.71526], [-7.790966, 41.717044], [-7.789449, 41.719966], [-7.78464, 41.720402], [-7.78252, 41.723546], [-7.776204, 41.724652], [-7.773786, 41.727346], [-7.770798, 41.72441], [-7.765698, 41.723044], [-7.761765, 41.727758], [-7.762933, 41.733839], [-7.759307, 41.737203], [-7.759597, 41.739005], [-7.75689, 41.739446], [-7.758687, 41.740577], [-7.757758, 41.745301], [-7.748417, 41.749321], [-7.747786, 41.754496], [-7.743866, 41.756509], [-7.740214, 41.763924], [-7.726937, 41.771755], [-7.7254, 41.777152], [-7.727192, 41.779071], [-7.733305, 41.772985], [-7.745317, 41.774009], [-7.751095, 41.783379], [-7.74497, 41.791786], [-7.732917, 41.792699], [-7.724756, 41.783864], [-7.722296, 41.792446], [-7.728879, 41.797871], [-7.727032, 41.80465]], [[-7.864554, 41.835332], [-7.852578, 41.831547], [-7.840181, 41.82034], [-7.836312, 41.811294], [-7.837436, 41.793292], [-7.835142, 41.784262], [-7.823684, 41.766131], [-7.822919, 41.757117], [-7.826638, 41.748148], [-7.842241, 41.736818], [-7.854285, 41.735744], [-7.878189, 41.744116], [-7.884506, 41.748724], [-7.889471, 41.757779], [-7.888909, 41.766781], [-7.880513, 41.784713], [-7.894935, 41.802866], [-7.897466, 41.811897], [-7.895142, 41.820882], [-7.88876, 41.828421], [-7.876609, 41.834661], [-7.864554, 41.835332]]], [[[-7.72507, 41.781846], [-7.72507, 41.781846], [-7.725218, 41.781653], [-7.72507, 41.781846]]], [[[-7.725373, 41.781449], [-7.727106, 41.779184], [-7.724177, 41.780299], [-7.725373, 41.781449]]], [[[-8.177655, 41.808435], [-8.190079, 41.807541], [-8.20216, 41.804167], [-8.214831, 41.796491], [-8.226524, 41.780124], [-8.237611, 41.742603], [-8.242921, 41.733631], [-8.268142, 41.706774], [-8.273193, 41.697799], [-8.274731, 41.688801], [-8.273469, 41.679786], [-8.263956, 41.663513], [-8.252064, 41.653218], [-8.240127, 41.646963], [-8.228156, 41.643837], [-8.216162, 41.642717], [-8.204141, 41.643799], [-8.192094, 41.646944], [-8.167964, 41.661057], [-8.15753, 41.669988], [-8.147649, 41.687929], [-8.143488, 41.690091], [-8.139548, 41.696876], [-8.131338, 41.700053], [-8.119132, 41.713773], [-8.116166, 41.714712], [-8.111341, 41.723682], [-8.109337, 41.750687], [-8.113688, 41.768735], [-8.118706, 41.77778], [-8.130115, 41.790701], [-8.142041, 41.798914], [-8.154009, 41.804103], [-8.173744, 41.808046], [-8.177655, 41.808435]], [[-8.166449, 41.773093], [-8.154465, 41.769404], [-8.142552, 41.760559], [-8.136925, 41.750898], [-8.135738, 41.732875], [-8.130955, 41.728471], [-8.123866, 41.714771], [-8.12871, 41.705801], [-8.131295, 41.703261], [-8.143354, 41.700212], [-8.16735, 41.703357], [-8.176509, 41.688139], [-8.184056, 41.679186], [-8.191759, 41.67373], [-8.203822, 41.669688], [-8.215844, 41.668975], [-8.227822, 41.671855], [-8.239375, 41.679566], [-8.245171, 41.688611], [-8.24592, 41.697623], [-8.242426, 41.706607], [-8.234567, 41.715562], [-8.222601, 41.724489], [-8.214216, 41.733439], [-8.208194, 41.751411], [-8.20235, 41.760378], [-8.190562, 41.769217], [-8.178481, 41.77305], [-8.166449, 41.773093]]], [[[-8.458339, 41.695473], [-8.443901, 41.690018], [-8.431902, 41.688091], [-8.419881, 41.688612], [-8.407841, 41.69124], [-8.388233, 41.698469], [-8.372894, 41.707393], [-8.364286, 41.716353], [-8.361658, 41.725345], [-8.362707, 41.735739], [-8.368703, 41.73193], [-8.374122, 41.734845], [-8.384922, 41.73032], [-8.386032, 41.730993], [-8.383905, 41.725467], [-8.384983, 41.716465], [-8.391471, 41.707493], [-8.407768, 41.699091], [-8.419805, 41.696999], [-8.431813, 41.698219], [-8.446095, 41.705303], [-8.453868, 41.697961], [-8.453255, 41.695487], [-8.458339, 41.695473]]], [[[-8.386206, 41.731443], [-8.386206, 41.731443], [-8.386128, 41.73124], [-8.386206, 41.731443]]], [[[-8.107573, 41.680381], [-8.110951, 41.678644], [-8.114423, 41.669664], [-8.107841, 41.660983], [-8.095914, 41.655007], [-8.083888, 41.656155], [-8.071736, 41.665992], [-8.067926, 41.678303], [-8.074458, 41.687363], [-8.083368, 41.692801], [-8.095405, 41.69138], [-8.107573, 41.680381]], [[-8.083497, 41.683698], [-8.078984, 41.678392], [-8.083666, 41.671765], [-8.095685, 41.671341], [-8.100183, 41.67856], [-8.095518, 41.683308], [-8.083497, 41.683698]]], [[[-8.096225, 41.632754], [-8.106616, 41.624568], [-8.112083, 41.615603], [-8.111163, 41.606589], [-8.099045, 41.597487], [-8.084743, 41.595728], [-8.072684, 41.599939], [-8.066075, 41.606231], [-8.063955, 41.615221], [-8.068078, 41.624262], [-8.072277, 41.628328], [-8.084203, 41.633888], [-8.096225, 41.632754]]], [[[-8.349419, 41.526059], [-8.361453, 41.521133], [-8.375114, 41.509246], [-8.38018, 41.500266], [-8.381957, 41.491268], [-8.379332, 41.473239], [-8.373854, 41.464202], [-8.362099, 41.455295], [-8.350167, 41.451194], [-8.338208, 41.449854], [-8.326229, 41.450604], [-8.311113, 41.454836], [-8.29635, 41.463754], [-8.2897, 41.472721], [-8.286351, 41.481708], [-8.286523, 41.490716], [-8.293485, 41.508774], [-8.301563, 41.517785], [-8.313471, 41.525078], [-8.325426, 41.527979], [-8.33741, 41.528262], [-8.349419, 41.526059]], [[-8.337556, 41.513987], [-8.325596, 41.511669], [-8.313692, 41.504138], [-8.309759, 41.499865], [-8.305772, 41.490834], [-8.305875, 41.481827], [-8.310501, 41.472847], [-8.323652, 41.463918], [-8.338098, 41.460764], [-8.350057, 41.46219], [-8.361974, 41.468026], [-8.367004, 41.473172], [-8.37128, 41.482203], [-8.371491, 41.491212], [-8.367677, 41.500198], [-8.361597, 41.506506], [-8.349554, 41.512553], [-8.337556, 41.513987]]], [[[-8.619305, 41.178552], [-8.625482, 41.204074], [-8.633295, 41.222115], [-8.639585, 41.231142], [-8.650282, 41.240183], [-8.662512, 41.245453], [-8.674437, 41.247392], [-8.698309, 41.246982], [-8.740232, 41.240421], [-8.769825, 41.231476], [-8.78799, 41.222503], [-8.80233, 41.211178], [-8.799695, 41.14406], [-8.751883, 41.145123], [-8.758701, 41.150382], [-8.766208, 41.159406], [-8.772923, 41.177435], [-8.772973, 41.186443], [-8.766438, 41.204446], [-8.758838, 41.213438], [-8.747326, 41.222421], [-8.734188, 41.228965], [-8.722238, 41.233201], [-8.698353, 41.237602], [-8.674491, 41.236517], [-8.662578, 41.232697], [-8.650687, 41.224919], [-8.641422, 41.213132], [-8.634994, 41.193341], [-8.634941, 41.192698], [-8.634865, 41.191766], [-8.632526, 41.188624], [-8.625658, 41.186628], [-8.62263, 41.180113], [-8.619305, 41.178552]]]]}}, {"id": "3", "type": "Feature", "properties": {"fill": "#a3a3a3", "value_min": 0.25, "value_max": -0.5}, "geometry": {"type": "MultiPolygon", "coordinates": [[[[-7.864554, 41.835332], [-7.876609, 41.834661], [-7.88876, 41.828421], [-7.895142, 41.820882], [-7.897466, 41.811897], [-7.894935, 41.802866], [-7.880513, 41.784713], [-7.888909, 41.766781], [-7.889471, 41.757779], [-7.884506, 41.748724], [-7.878189, 41.744116], [-7.854285, 41.735744], [-7.842241, 41.736818], [-7.826638, 41.748148], [-7.822919, 41.757117], [-7.823684, 41.766131], [-7.835142, 41.784262], [-7.837436, 41.793292], [-7.836312, 41.811294], [-7.840181, 41.82034], [-7.852578, 41.831547], [-7.864554, 41.835332]], [[-7.864735, 41.82508], [-7.856252, 41.820501], [-7.851516, 41.811447], [-7.853001, 41.807839], [-7.856292, 41.802488], [-7.865217, 41.797765], [-7.877235, 41.79884], [-7.882522, 41.802746], [-7.887998, 41.811806], [-7.883125, 41.820765], [-7.876781, 41.824804], [-7.864735, 41.82508]], [[-7.865643, 41.773635], [-7.853634, 41.772338], [-7.845711, 41.766355], [-7.843637, 41.757327], [-7.854076, 41.747478], [-7.866118, 41.746659], [-7.870375, 41.748586], [-7.880112, 41.757688], [-7.877795, 41.766724], [-7.865643, 41.773635]]], [[[-7.724756, 41.783864], [-7.732917, 41.792699], [-7.74497, 41.791786], [-7.751095, 41.783379], [-7.745317, 41.774009], [-7.733305, 41.772985], [-7.727192, 41.779071], [-7.727106, 41.779184], [-7.725373, 41.781449], [-7.725218, 41.781653], [-7.72507, 41.781846], [-7.724756, 41.783864]]], [[[-8.166449, 41.773093], [-8.178481, 41.77305], [-8.190562, 41.769217], [-8.20235, 41.760378], [-8.208194, 41.751411], [-8.214216, 41.733439], [-8.222601, 41.724489], [-8.234567, 41.715562], [-8.242426, 41.706607], [-8.24592, 41.697623], [-8.245171, 41.688611], [-8.239375, 41.679566], [-8.227822, 41.671855], [-8.215844, 41.668975], [-8.203822, 41.669688], [-8.191759, 41.67373], [-8.184056, 41.679186], [-8.176509, 41.688139], [-8.16735, 41.703357], [-8.143354, 41.700212], [-8.131295, 41.703261], [-8.12871, 41.705801], [-8.123866, 41.714771], [-8.130955, 41.728471], [-8.135738, 41.732875], [-8.136925, 41.750898], [-8.142552, 41.760559], [-8.154465, 41.769404], [-8.166449, 41.773093]], [[-8.166662, 41.756646], [-8.156613, 41.751044], [-8.153371, 41.742013], [-8.161456, 41.733066], [-8.167003, 41.73025], [-8.179014, 41.731261], [-8.182296, 41.733216], [-8.188607, 41.742268], [-8.184969, 41.751249], [-8.178706, 41.755473], [-8.166662, 41.756646]], [[-8.131118, 41.716393], [-8.131195, 41.710674], [-8.143203, 41.711629], [-8.143149, 41.715694], [-8.131118, 41.716393]], [[-8.203322, 41.710264], [-8.196689, 41.706296], [-8.19145, 41.698446], [-8.191482, 41.695829], [-8.194939, 41.68827], [-8.203659, 41.682963], [-8.215674, 41.682925], [-8.224948, 41.688476], [-8.228104, 41.697505], [-8.221408, 41.706466], [-8.215346, 41.709891], [-8.203322, 41.710264]]], [[[-8.446095, 41.705303], [-8.431813, 41.698219], [-8.419805, 41.696999], [-8.407768, 41.699091], [-8.391471, 41.707493], [-8.384983, 41.716465], [-8.383905, 41.725467], [-8.386032, 41.730993], [-8.386128, 41.73124], [-8.386206, 41.731443], [-8.393033, 41.729852], [-8.396942, 41.730518], [-8.40221, 41.726679], [-8.399538, 41.716542], [-8.407691, 41.707525], [-8.419728, 41.7056], [-8.427669, 41.707679], [-8.435328, 41.714899], [-8.441632, 41.713975], [-8.441618, 41.711049], [-8.446095, 41.705303]]], [[[-7.831754, 41.71018], [-7.831848, 41.712174], [-7.842538, 41.720289], [-7.854573, 41.719504], [-7.862063, 41.712477], [-7.864999, 41.703499], [-7.855035, 41.693521], [-7.848747, 41.693578], [-7.847538, 41.695365], [-7.837912, 41.698942], [-7.8361, 41.701188], [-7.835792, 41.702763], [-7.839682, 41.705924], [-7.838465, 41.709522], [-7.831754, 41.71018]]], [[[-8.083497, 41.683698], [-8.095518, 41.683308], [-8.100183, 41.67856], [-8.095685, 41.671341], [-8.083666, 41.671765], [-8.078984, 41.678392], [-8.083497, 41.683698]]], [[[-8.337556, 41.513987], [-8.349554, 41.512553], [-8.361597, 41.506506], [-8.367677, 41.500198], [-8.371491, 41.491212], [-8.37128, 41.482203], [-8.367004, 41.473172], [-8.361974, 41.468026], [-8.350057, 41.46219], [-8.338098, 41.460764], [-8.323652, 41.463918], [-8.310501, 41.472847], [-8.305875, 41.481827], [-8.305772, 41.490834], [-8.309759, 41.499865], [-8.313692, 41.504138], [-8.325596, 41.511669], [-8.337556, 41.513987]], [[-8.337656, 41.504112], [-8.325721, 41.49962], [-8.319056, 41.490913], [-8.319387, 41.481908], [-8.325983, 41.474281], [-8.338005, 41.469896], [-8.349966, 41.471332], [-8.353013, 41.473094], [-8.361975, 41.482152], [-8.362215, 41.491161], [-8.354207, 41.500123], [-8.349651, 41.502804], [-8.337656, 41.504112]]], [[[-8.634994, 41.193341], [-8.641422, 41.213132], [-8.650687, 41.224919], [-8.662578, 41.232697], [-8.674491, 41.236517], [-8.698353, 41.237602], [-8.722238, 41.233201], [-8.734188, 41.228965], [-8.747326, 41.222421], [-8.758838, 41.213438], [-8.766438, 41.204446], [-8.772973, 41.186443], [-8.772923, 41.177435], [-8.766208, 41.159406], [-8.758701, 41.150382], [-8.751883, 41.145123], [-8.674793, 41.146932], [-8.674849, 41.153767], [-8.672489, 41.15648], [-8.66117, 41.156307], [-8.662078, 41.158104], [-8.660313, 41.160813], [-8.657033, 41.160378], [-8.654961, 41.161963], [-8.653222, 41.168049], [-8.654509, 41.172095], [-8.662935, 41.163152], [-8.674887, 41.156692], [-8.68682, 41.153498], [-8.698742, 41.152762], [-8.710653, 41.154235], [-8.722554, 41.158316], [-8.734442, 41.166134], [-8.743122, 41.177373], [-8.74576, 41.186386], [-8.745458, 41.195394], [-8.742231, 41.204394], [-8.734248, 41.213962], [-8.722285, 41.222081], [-8.710335, 41.226529], [-8.698393, 41.228808], [-8.686461, 41.228979], [-8.67454, 41.226767], [-8.662637, 41.22113], [-8.654177, 41.213171], [-8.650779, 41.207554], [-8.647061, 41.195134], [-8.649661, 41.18022], [-8.647955, 41.180228], [-8.647696, 41.185181], [-8.641225, 41.196014], [-8.634994, 41.193341]]], [[[-8.634865, 41.191766], [-8.634865, 41.191766], [-8.634941, 41.192698], [-8.634865, 41.191766]]]]}}, {"id": "2", "type": "Feature", "properties": {"fill": "#a3a3a3", "value_min": 0.0, "value_max": -0.25}, "geometry": {"type": "MultiPolygon", "coordinates": [[[[-7.864735, 41.82508], [-7.876781, 41.824804], [-7.883125, 41.820765], [-7.887998, 41.811806], [-7.882522, 41.802746], [-7.877235, 41.79884], [-7.865217, 41.797765], [-7.856292, 41.802488], [-7.853001, 41.807839], [-7.851516, 41.811447], [-7.856252, 41.820501], [-7.864735, 41.82508]]], [[[-7.865643, 41.773635], [-7.877795, 41.766724], [-7.880112, 41.757688], [-7.870375, 41.748586], [-7.866118, 41.746659], [-7.854076, 41.747478], [-7.843637, 41.757327], [-7.845711, 41.766355], [-7.853634, 41.772338], [-7.865643, 41.773635]], [[-7.865941, 41.75672], [-7.867006, 41.75756], [-7.865895, 41.759299], [-7.863476, 41.757525], [-7.865941, 41.75672]]], [[[-8.166662, 41.756646], [-8.178706, 41.755473], [-8.184969, 41.751249], [-8.188607, 41.742268], [-8.182296, 41.733216], [-8.179014, 41.731261], [-8.167003, 41.73025], [-8.161456, 41.733066], [-8.153371, 41.742013], [-8.156613, 41.751044], [-8.166662, 41.756646]]], [[[-8.435328, 41.714899], [-8.427669, 41.707679], [-8.419728, 41.7056], [-8.407691, 41.707525], [-8.399538, 41.716542], [-8.40221, 41.726679], [-8.404721, 41.722847], [-8.417349, 41.725067], [-8.422737, 41.720552], [-8.429643, 41.719859], [-8.430533, 41.717381], [-8.435328, 41.714899]]], [[[-8.131118, 41.716393], [-8.143149, 41.715694], [-8.143203, 41.711629], [-8.131195, 41.710674], [-8.131118, 41.716393]]], [[[-8.203322, 41.710264], [-8.215346, 41.709891], [-8.221408, 41.706466], [-8.228104, 41.697505], [-8.224948, 41.688476], [-8.215674, 41.682925], [-8.203659, 41.682963], [-8.194939, 41.68827], [-8.191482, 41.695829], [-8.19145, 41.698446], [-8.196689, 41.706296], [-8.203322, 41.710264]]], [[[-8.337656, 41.504112], [-8.349651, 41.502804], [-8.354207, 41.500123], [-8.362215, 41.491161], [-8.361975, 41.482152], [-8.353013, 41.473094], [-8.349966, 41.471332], [-8.338005, 41.469896], [-8.325983, 41.474281], [-8.319387, 41.481908], [-8.319056, 41.490913], [-8.325721, 41.49962], [-8.337656, 41.504112]], [[-8.350078, 41.482085], [-8.349761, 41.491864], [-8.337763, 41.493681], [-8.333761, 41.490999], [-8.334609, 41.481997], [-8.337901, 41.48004], [-8.350078, 41.482085]]], [[[-8.649661, 41.18022], [-8.647061, 41.195134], [-8.650779, 41.207554], [-8.654177, 41.213171], [-8.662637, 41.22113], [-8.67454, 41.226767], [-8.686461, 41.228979], [-8.698393, 41.228808], [-8.710335, 41.226529], [-8.722285, 41.222081], [-8.734248, 41.213962], [-8.742231, 41.204394], [-8.745458, 41.195394], [-8.74576, 41.186386], [-8.743122, 41.177373], [-8.734442, 41.166134], [-8.722554, 41.158316], [-8.710653, 41.154235], [-8.698742, 41.152762], [-8.68682, 41.153498], [-8.674887, 41.156692], [-8.662935, 41.163152], [-8.654509, 41.172095], [-8.655366, 41.175467], [-8.649661, 41.18022]], [[-8.722356, 41.205297], [-8.714494, 41.213337], [-8.698436, 41.219456], [-8.686504, 41.219818], [-8.674591, 41.216484], [-8.669332, 41.213216], [-8.661483, 41.204185], [-8.659687, 41.195172], [-8.661849, 41.186171], [-8.674802, 41.173848], [-8.686741, 41.170138], [-8.698663, 41.170076], [-8.710568, 41.173644], [-8.716269, 41.17731], [-8.723948, 41.186336], [-8.725785, 41.195348], [-8.722356, 41.205297]]]]}}, {"id": "5", "type": "Feature", "properties": {"fill": "#a3a3a3", "value_min": 0.75, "value_max": -1.0}, "geometry": {"type": "MultiPolygon", "coordinates": [[[[-8.481702, 41.6804], [-8.456036, 41.676022], [-8.43202, 41.674596], [-8.419989, 41.67653], [-8.383819, 41.689981], [-8.371784, 41.691903], [-8.359767, 41.691938], [-8.347591, 41.689238], [-8.335836, 41.681924], [-8.327813, 41.67111], [-8.322845, 41.653066], [-8.321037, 41.626034], [-8.321125, 41.60802], [-8.325056, 41.590029], [-8.329746, 41.581049], [-8.337522, 41.572087], [-8.373248, 41.540881], [-8.391416, 41.518341], [-8.395306, 41.509354], [-8.396331, 41.500352], [-8.393806, 41.464309], [-8.390677, 41.455285], [-8.380634, 41.446224], [-8.362253, 41.439585], [-8.338348, 41.43615], [-8.31441, 41.435976], [-8.29043, 41.439746], [-8.272167, 41.445589], [-8.230276, 41.46541], [-8.218206, 41.473311], [-8.209895, 41.481208], [-8.198139, 41.499141], [-8.187541, 41.526089], [-8.181477, 41.535053], [-8.169392, 41.544445], [-8.148592, 41.552829], [-8.121252, 41.557908], [-8.097267, 41.558044], [-8.07559, 41.555174], [-8.076188, 41.557276], [-8.080082, 41.558854], [-8.081576, 41.565157], [-8.078879, 41.56493], [-8.075279, 41.568305], [-8.073182, 41.568079], [-8.069283, 41.570553], [-8.068081, 41.573478], [-8.056684, 41.579549], [-8.052181, 41.584498], [-8.052777, 41.587649], [-8.048277, 41.590122], [-8.045573, 41.594397], [-8.031467, 41.602938], [-8.02367, 41.603156], [-8.019174, 41.601802], [-8.015872, 41.603824], [-8.010473, 41.604494], [-8.005971, 41.60629], [-8.003562, 41.611239], [-7.99936, 41.61281], [-7.998462, 41.612359], [-7.999669, 41.608759], [-7.996976, 41.605829], [-7.996684, 41.602003], [-7.984685, 41.603564], [-7.982292, 41.60086], [-7.975689, 41.603552], [-7.974482, 41.606701], [-7.970882, 41.607147], [-7.969091, 41.603768], [-7.965796, 41.602413], [-7.9541, 41.602846], [-7.952606, 41.600592], [-7.947808, 41.60081], [-7.945413, 41.599456], [-7.942725, 41.595625], [-7.936132, 41.594488], [-7.93791, 41.601694], [-7.937004, 41.603718], [-7.931604, 41.604384], [-7.930979, 41.612711], [-7.925556, 41.620354], [-7.920755, 41.620796], [-7.917748, 41.623041], [-7.915933, 41.627764], [-7.913229, 41.628885], [-7.912613, 41.63361], [-7.906014, 41.633147], [-7.906884, 41.641927], [-7.897869, 41.645511], [-7.89696, 41.647985], [-7.892759, 41.647976], [-7.892145, 41.651576], [-7.902319, 41.659925], [-7.899913, 41.66127], [-7.900198, 41.665547], [-7.898396, 41.665769], [-7.896885, 41.668692], [-7.883969, 41.67069], [-7.879755, 41.673607], [-7.877044, 41.676077], [-7.876723, 41.681253], [-7.873789, 41.685523], [-7.876039, 41.6946], [-7.875062, 41.703598], [-7.868828, 41.72155], [-7.87123, 41.730581], [-7.898206, 41.748857], [-7.901447, 41.757894], [-7.899972, 41.784901], [-7.907978, 41.811998], [-7.906184, 41.820987], [-7.900772, 41.830221], [-7.88852, 41.842276], [-7.874863, 41.847185], [-7.879956, 41.853217], [-7.888076, 41.855486], [-7.891675, 41.859094], [-7.897497, 41.860457], [-7.919681, 41.821115], [-7.922297, 41.812133], [-7.917237, 41.794072], [-7.916621, 41.785059], [-7.921513, 41.749078], [-7.919224, 41.740049], [-7.887497, 41.73074], [-7.878624, 41.721646], [-7.879705, 41.71265], [-7.891014, 41.697652], [-7.898844, 41.694821], [-7.903136, 41.691549], [-7.925351, 41.686065], [-7.936545, 41.677162], [-7.949492, 41.641253], [-7.95492, 41.632296], [-7.964311, 41.623412], [-7.97641, 41.617434], [-7.988442, 41.615577], [-8.000436, 41.616137], [-8.0124, 41.618612], [-8.036241, 41.629765], [-8.048103, 41.63949], [-8.055585, 41.651181], [-8.055863, 41.66019], [-8.052262, 41.678175], [-8.060446, 41.687249], [-8.082723, 41.705443], [-8.085731, 41.714474], [-8.071132, 41.741378], [-8.053302, 41.786267], [-8.051418, 41.804265], [-8.053401, 41.818129], [-8.057314, 41.815656], [-8.06664, 41.817012], [-8.072961, 41.813414], [-8.078678, 41.813417], [-8.082892, 41.810493], [-8.091013, 41.812521], [-8.093421, 41.811397], [-8.093723, 41.808471], [-8.101845, 41.809824], [-8.104853, 41.81185], [-8.115984, 41.812302], [-8.123807, 41.808702], [-8.138247, 41.808477], [-8.139751, 41.813203], [-8.14276, 41.812978], [-8.144866, 41.815228], [-8.149078, 41.814777], [-8.153893, 41.817928], [-8.165326, 41.81815], [-8.173744, 41.808046], [-8.154009, 41.804103], [-8.142041, 41.798914], [-8.130115, 41.790701], [-8.118706, 41.77778], [-8.113688, 41.768735], [-8.109337, 41.750687], [-8.111341, 41.723682], [-8.116166, 41.714712], [-8.119132, 41.713773], [-8.131338, 41.700053], [-8.139548, 41.696876], [-8.143488, 41.690091], [-8.147649, 41.687929], [-8.15753, 41.669988], [-8.167964, 41.661057], [-8.192094, 41.646944], [-8.204141, 41.643799], [-8.216162, 41.642717], [-8.228156, 41.643837], [-8.240127, 41.646963], [-8.252064, 41.653218], [-8.263956, 41.663513], [-8.273469, 41.679786], [-8.274731, 41.688801], [-8.273193, 41.697799], [-8.268142, 41.706774], [-8.242921, 41.733631], [-8.237611, 41.742603], [-8.226524, 41.780124], [-8.214831, 41.796491], [-8.20216, 41.804167], [-8.190079, 41.807541], [-8.177655, 41.808435], [-8.182773, 41.812516], [-8.190291, 41.809587], [-8.197158, 41.814129], [-8.201063, 41.808724], [-8.204973, 41.807372], [-8.205872, 41.804445], [-8.213692, 41.803765], [-8.217598, 41.80016], [-8.217589, 41.793634], [-8.224207, 41.794303], [-8.229917, 41.791598], [-8.240744, 41.791588], [-8.24074, 41.789338], [-8.244347, 41.787984], [-8.245546, 41.785731], [-8.251257, 41.784375], [-8.251845, 41.777172], [-8.257551, 41.773564], [-8.261762, 41.774235], [-8.265363, 41.771109], [-8.257612, 41.760748], [-8.255938, 41.75173], [-8.258235, 41.742738], [-8.265717, 41.733779], [-8.275248, 41.727594], [-8.287309, 41.724212], [-8.302451, 41.725001], [-8.311314, 41.728067], [-8.318774, 41.734106], [-8.324205, 41.743145], [-8.326042, 41.752163], [-8.323189, 41.763976], [-8.326436, 41.765096], [-8.328234, 41.763292], [-8.336653, 41.763728], [-8.338452, 41.762149], [-8.344765, 41.762363], [-8.349267, 41.760103], [-8.352557, 41.755145], [-8.34982, 41.745922], [-8.349814, 41.744122], [-8.352516, 41.743441], [-8.352203, 41.739616], [-8.357897, 41.735103], [-8.362707, 41.735739], [-8.361658, 41.725345], [-8.364286, 41.716353], [-8.372894, 41.707393], [-8.388233, 41.698469], [-8.407841, 41.69124], [-8.419881, 41.688612], [-8.431902, 41.688091], [-8.443901, 41.690018], [-8.458339, 41.695473], [-8.464654, 41.692979], [-8.471532, 41.687557], [-8.475731, 41.686644], [-8.482012, 41.682123], [-8.481702, 41.6804]], [[-8.107131, 41.71239], [-8.086047, 41.70547], [-8.095235, 41.703481], [-8.097223, 41.696551], [-8.107462, 41.688459], [-8.119561, 41.682351], [-8.131248, 41.687806], [-8.131458, 41.696815], [-8.119188, 41.709675], [-8.107131, 41.71239]], [[-8.107573, 41.680381], [-8.095405, 41.69138], [-8.083368, 41.692801], [-8.074458, 41.687363], [-8.067926, 41.678303], [-8.071736, 41.665992], [-8.083888, 41.656155], [-8.095914, 41.655007], [-8.107841, 41.660983], [-8.114423, 41.669664], [-8.110951, 41.678644], [-8.107573, 41.680381]], [[-8.096225, 41.632754], [-8.084203, 41.633888], [-8.072277, 41.628328], [-8.068078, 41.624262], [-8.063955, 41.615221], [-8.066075, 41.606231], [-8.072684, 41.599939], [-8.084743, 41.595728], [-8.099045, 41.597487], [-8.111163, 41.606589], [-8.112083, 41.615603], [-8.106616, 41.624568], [-8.096225, 41.632754]], [[-8.349419, 41.526059], [-8.33741, 41.528262], [-8.325426, 41.527979], [-8.313471, 41.525078], [-8.301563, 41.517785], [-8.293485, 41.508774], [-8.286523, 41.490716], [-8.286351, 41.481708], [-8.2897, 41.472721], [-8.29635, 41.463754], [-8.311113, 41.454836], [-8.326229, 41.450604], [-8.338208, 41.449854], [-8.350167, 41.451194], [-8.362099, 41.455295], [-8.373854, 41.464202], [-8.379332, 41.473239], [-8.381957, 41.491268], [-8.38018, 41.500266], [-8.375114, 41.509246], [-8.361453, 41.521133], [-8.349419, 41.526059]]], [[[-7.728178, 41.813784], [-7.768688, 41.810188], [-7.780729, 41.810081], [-7.792714, 41.812945], [-7.804615, 41.820349], [-7.840113, 41.854905], [-7.849299, 41.861699], [-7.858542, 41.862622], [-7.859456, 41.860148], [-7.864877, 41.859711], [-7.87033, 41.851395], [-7.873043, 41.850501], [-7.872755, 41.847283], [-7.864335, 41.847691], [-7.85234, 41.844849], [-7.84042, 41.837922], [-7.83085, 41.829252], [-7.805045, 41.79723], [-7.793133, 41.790621], [-7.781086, 41.791236], [-7.759334, 41.801482], [-7.744716, 41.804784], [-7.727032, 41.80465], [-7.728178, 41.813784]]], [[[-8.323126, 41.764101], [-8.323126, 41.764101], [-8.323076, 41.764201], [-8.323126, 41.764101]]], [[[-8.80233, 41.211178], [-8.78799, 41.222503], [-8.769825, 41.231476], [-8.740232, 41.240421], [-8.698309, 41.246982], [-8.674437, 41.247392], [-8.662512, 41.245453], [-8.650282, 41.240183], [-8.639585, 41.231142], [-8.633295, 41.222115], [-8.625482, 41.204074], [-8.619305, 41.178552], [-8.613374, 41.177451], [-8.608583, 41.174095], [-8.609164, 41.172066], [-8.604942, 41.164881], [-8.600767, 41.164222], [-8.593616, 41.166052], [-8.612336, 41.20403], [-8.626715, 41.244238], [-8.630042, 41.249128], [-8.640559, 41.258169], [-8.65049, 41.261919], [-8.662423, 41.262765], [-8.710202, 41.256496], [-8.734082, 41.254915], [-8.804174, 41.25808], [-8.80233, 41.211178]]]]}}, {"id": "6", "type": "Feature", "properties": {"fill": "#90a4bc", "value_min": 1.0, "value_max": -1.25}, "geometry": {"type": "MultiPolygon", "coordinates": [[[[-8.481702, 41.6804], [-8.484371, 41.674238], [-8.49308, 41.674886], [-8.499963, 41.671038], [-8.50927, 41.671233], [-8.51018, 41.672806], [-8.511967, 41.670324], [-8.509856, 41.668755], [-8.522103, 41.658811], [-8.525706, 41.659023], [-8.527769, 41.652714], [-8.534066, 41.652017], [-8.537355, 41.64998], [-8.537634, 41.646602], [-8.543876, 41.637352], [-8.543855, 41.633976], [-8.536342, 41.631977], [-8.535128, 41.62973], [-8.543431, 41.61462], [-8.554533, 41.615255], [-8.557244, 41.617046], [-8.562639, 41.61635], [-8.568056, 41.619031], [-8.570735, 41.616095], [-8.577321, 41.614269], [-8.581231, 41.615829], [-8.585766, 41.620988], [-8.591462, 41.620515], [-8.596534, 41.616668], [-8.601628, 41.615972], [-8.603996, 41.611686], [-8.613256, 41.606696], [-8.619881, 41.610269], [-8.621338, 41.604636], [-8.628833, 41.604378], [-8.636302, 41.600744], [-8.64075, 41.594422], [-8.645536, 41.593051], [-8.646744, 41.594171], [-8.649125, 41.591909], [-8.656622, 41.5921], [-8.660788, 41.588255], [-8.663794, 41.589141], [-8.665265, 41.585758], [-8.66948, 41.587989], [-8.684455, 41.586117], [-8.685608, 41.58071], [-8.697261, 41.576376], [-8.701703, 41.570277], [-8.707704, 41.570923], [-8.712485, 41.569323], [-8.716422, 41.573805], [-8.720316, 41.57356], [-8.725151, 41.577811], [-8.726633, 41.576003], [-8.734424, 41.575737], [-8.736564, 41.580228], [-8.738354, 41.579318], [-8.740778, 41.582006], [-8.74467, 41.581535], [-8.750711, 41.58623], [-8.756374, 41.582823], [-8.75635, 41.580347], [-8.762327, 41.578514], [-8.764443, 41.580303], [-8.767441, 41.580286], [-8.769874, 41.583874], [-8.768997, 41.58613], [-8.773228, 41.589482], [-8.775371, 41.593972], [-8.78556, 41.593464], [-8.797327, 41.600599], [-8.804218, 41.600109], [-8.80456, 41.604158], [-8.809434, 41.611332], [-8.828644, 41.609656], [-8.82839, 41.585633], [-8.818497, 41.554794], [-8.8221, 41.547542], [-8.821965, 41.534907], [-8.815926, 41.525624], [-8.81063, 41.5101], [-8.813279, 41.503483], [-8.812636, 41.496944], [-8.804699, 41.482068], [-8.798552, 41.474753], [-8.80154, 41.446836], [-8.806115, 41.43713], [-8.807354, 41.425915], [-8.811202, 41.416419], [-8.804174, 41.25808], [-8.734082, 41.254915], [-8.710202, 41.256496], [-8.662423, 41.262765], [-8.65049, 41.261919], [-8.640559, 41.258169], [-8.630042, 41.249128], [-8.626715, 41.244238], [-8.612336, 41.20403], [-8.593616, 41.166052], [-8.589174, 41.167645], [-8.589194, 41.170572], [-8.583263, 41.174422], [-8.582094, 41.177803], [-8.578825, 41.178941], [-8.58014, 41.185239], [-8.591213, 41.195784], [-8.60059, 41.212998], [-8.603029, 41.231022], [-8.597742, 41.24902], [-8.590816, 41.259486], [-8.578813, 41.269809], [-8.566834, 41.275778], [-8.554862, 41.280416], [-8.507024, 41.290217], [-8.49944, 41.293673], [-8.49392, 41.302657], [-8.493235, 41.311661], [-8.496937, 41.347708], [-8.496825, 41.374731], [-8.492865, 41.392728], [-8.486764, 41.401709], [-8.482237, 41.404038], [-8.466709, 41.410625], [-8.446242, 41.416387], [-8.422265, 41.421453], [-8.398306, 41.424184], [-8.374368, 41.424484], [-8.350452, 41.422665], [-8.278803, 41.408733], [-8.26683, 41.409561], [-8.23085, 41.416794], [-8.206923, 41.416396], [-8.19499, 41.413777], [-8.183204, 41.408962], [-8.171227, 41.400578], [-8.163001, 41.390802], [-8.158837, 41.379016], [-8.15882, 41.378928], [-8.158794, 41.378791], [-8.152544, 41.375866], [-8.151049, 41.37339], [-8.145073, 41.374742], [-8.139694, 41.377894], [-8.133418, 41.374292], [-8.119672, 41.376768], [-8.119672, 41.378569], [-8.116683, 41.380144], [-8.117578, 41.386447], [-8.113992, 41.386896], [-8.112795, 41.390723], [-8.110105, 41.390947], [-8.108011, 41.393648], [-8.103827, 41.392972], [-8.105321, 41.394998], [-8.10263, 41.396123], [-8.10801, 41.398825], [-8.108606, 41.403102], [-8.104419, 41.406252], [-8.104119, 41.408728], [-8.101727, 41.409403], [-8.102025, 41.411204], [-8.092756, 41.411201], [-8.09126, 41.414352], [-8.079893, 41.41975], [-8.077503, 41.416597], [-8.070923, 41.41862], [-8.066739, 41.416142], [-8.061654, 41.417489], [-8.059852, 41.424916], [-8.055959, 41.429415], [-8.05745, 41.432793], [-8.056549, 41.436394], [-8.069999, 41.447206], [-8.068788, 41.462286], [-8.073486, 41.464765], [-8.081731, 41.453234], [-8.086804, 41.449265], [-8.098849, 41.444018], [-8.110852, 41.44162], [-8.122814, 41.44225], [-8.134735, 41.445985], [-8.146596, 41.454409], [-8.152736, 41.462786], [-8.155707, 41.471815], [-8.155622, 41.480822], [-8.152241, 41.489805], [-8.143126, 41.498744], [-8.133976, 41.503044], [-8.121972, 41.504677], [-8.110001, 41.5039], [-8.089221, 41.49833], [-8.076656, 41.489223], [-8.071885, 41.480177], [-8.071555, 41.475793], [-8.066374, 41.482318], [-8.066069, 41.48817], [-8.072054, 41.490199], [-8.07175, 41.494925], [-8.078333, 41.49898], [-8.078332, 41.500331], [-8.093, 41.504613], [-8.089398, 41.519242], [-8.090594, 41.522169], [-8.093588, 41.52307], [-8.091487, 41.531173], [-8.097775, 41.536127], [-8.097774, 41.537927], [-8.106759, 41.543106], [-8.10616, 41.543782], [-8.101666, 41.542655], [-8.094175, 41.544904], [-8.087885, 41.542876], [-8.083389, 41.5449], [-8.080687, 41.551651], [-8.074097, 41.549848], [-8.072896, 41.552098], [-8.07559, 41.555174], [-8.097267, 41.558044], [-8.121252, 41.557908], [-8.148592, 41.552829], [-8.169392, 41.544445], [-8.181477, 41.535053], [-8.187541, 41.526089], [-8.198139, 41.499141], [-8.209895, 41.481208], [-8.218206, 41.473311], [-8.230276, 41.46541], [-8.272167, 41.445589], [-8.29043, 41.439746], [-8.31441, 41.435976], [-8.338348, 41.43615], [-8.362253, 41.439585], [-8.380634, 41.446224], [-8.390677, 41.455285], [-8.393806, 41.464309], [-8.396331, 41.500352], [-8.395306, 41.509354], [-8.391416, 41.518341], [-8.373248, 41.540881], [-8.337522, 41.572087], [-8.329746, 41.581049], [-8.325056, 41.590029], [-8.321125, 41.60802], [-8.321037, 41.626034], [-8.322845, 41.653066], [-8.327813, 41.67111], [-8.335836, 41.681924], [-8.347591, 41.689238], [-8.359767, 41.691938], [-8.371784, 41.691903], [-8.383819, 41.689981], [-8.419989, 41.67653], [-8.43202, 41.674596], [-8.456036, 41.676022], [-8.481702, 41.6804]], [[-8.371954, 41.674413], [-8.367531, 41.671335], [-8.366083, 41.66232], [-8.372143, 41.655007], [-8.384187, 41.651435], [-8.396146, 41.65679], [-8.398901, 41.662496], [-8.395518, 41.671486], [-8.383949, 41.676357], [-8.371954, 41.674413]], [[-8.444195, 41.655864], [-8.420221, 41.65069], [-8.40888, 41.644534], [-8.401281, 41.635487], [-8.399226, 41.626469], [-8.39984, 41.617465], [-8.403193, 41.608476], [-8.416815, 41.590531], [-8.420453, 41.581542], [-8.412002, 41.554477], [-8.412151, 41.545471], [-8.415053, 41.536478], [-8.421422, 41.527503], [-8.433386, 41.518645], [-8.445405, 41.514685], [-8.457365, 41.517478], [-8.481236, 41.529766], [-8.499118, 41.536875], [-8.506546, 41.545915], [-8.504833, 41.554915], [-8.492992, 41.572878], [-8.490389, 41.581874], [-8.491771, 41.590887], [-8.501481, 41.608944], [-8.502912, 41.617957], [-8.501759, 41.62696], [-8.49727, 41.635947], [-8.488031, 41.644914], [-8.468233, 41.653729], [-8.456206, 41.655754], [-8.444195, 41.655864]], [[-8.624911, 41.55866], [-8.612927, 41.557388], [-8.60096, 41.553365], [-8.589867, 41.546242], [-8.581536, 41.537205], [-8.57456, 41.519164], [-8.568831, 41.510136], [-8.541389, 41.498849], [-8.517541, 41.483392], [-8.506984, 41.473857], [-8.499997, 41.46482], [-8.496302, 41.455796], [-8.494462, 41.437773], [-8.497764, 41.419773], [-8.506121, 41.409886], [-8.518117, 41.405596], [-8.530089, 41.404457], [-8.554002, 41.406546], [-8.565945, 41.409814], [-8.589806, 41.420771], [-8.600842, 41.429184], [-8.608475, 41.438218], [-8.611984, 41.447237], [-8.61287, 41.456248], [-8.610431, 41.483262], [-8.613339, 41.488212], [-8.616899, 41.492291], [-8.637226, 41.500978], [-8.653481, 41.510422], [-8.662042, 41.519455], [-8.665605, 41.528473], [-8.664283, 41.537476], [-8.658051, 41.546465], [-8.648927, 41.552959], [-8.64255, 41.555425], [-8.624911, 41.55866]], [[-8.733749, 41.336872], [-8.721796, 41.337439], [-8.709852, 41.335743], [-8.697921, 41.331342], [-8.682375, 41.321346], [-8.674633, 41.312317], [-8.671053, 41.303299], [-8.672144, 41.294294], [-8.677829, 41.285303], [-8.690475, 41.27633], [-8.698188, 41.273415], [-8.71014, 41.270644], [-8.722082, 41.270048], [-8.734014, 41.271682], [-8.748216, 41.27647], [-8.760332, 41.285504], [-8.766303, 41.294524], [-8.768308, 41.303536], [-8.767127, 41.312541], [-8.762201, 41.321539], [-8.757692, 41.326141], [-8.745714, 41.333566], [-8.733749, 41.336872]]], [[[-8.053401, 41.818129], [-8.051418, 41.804265], [-8.053302, 41.786267], [-8.071132, 41.741378], [-8.085731, 41.714474], [-8.082723, 41.705443], [-8.060446, 41.687249], [-8.052262, 41.678175], [-8.055863, 41.66019], [-8.055585, 41.651181], [-8.048103, 41.63949], [-8.036241, 41.629765], [-8.0124, 41.618612], [-8.000436, 41.616137], [-7.988442, 41.615577], [-7.97641, 41.617434], [-7.964311, 41.623412], [-7.95492, 41.632296], [-7.949492, 41.641253], [-7.936545, 41.677162], [-7.925351, 41.686065], [-7.903136, 41.691549], [-7.898844, 41.694821], [-7.891014, 41.697652], [-7.879705, 41.71265], [-7.878624, 41.721646], [-7.887497, 41.73074], [-7.919224, 41.740049], [-7.921513, 41.749078], [-7.916621, 41.785059], [-7.917237, 41.794072], [-7.922297, 41.812133], [-7.919681, 41.821115], [-7.897497, 41.860457], [-7.902203, 41.861591], [-7.904318, 41.859795], [-7.907309, 41.865203], [-7.906095, 41.868126], [-7.910299, 41.871285], [-7.909985, 41.875111], [-7.915391, 41.879397], [-7.921118, 41.877833], [-7.928044, 41.87807], [-7.935283, 41.874707], [-7.937389, 41.87516], [-7.941618, 41.870891], [-7.951254, 41.871132], [-7.956367, 41.87339], [-7.956362, 41.875191], [-7.960878, 41.875648], [-7.962086, 41.874074], [-7.973828, 41.875216], [-7.987996, 41.869157], [-7.990123, 41.860157], [-7.995547, 41.858138], [-7.994047, 41.855211], [-7.996162, 41.851837], [-8.003089, 41.850494], [-8.005804, 41.847346], [-8.007928, 41.838796], [-8.012753, 41.833624], [-8.013363, 41.829124], [-8.017873, 41.831379], [-8.02901, 41.829589], [-8.037134, 41.831171], [-8.041351, 41.828023], [-8.041054, 41.825097], [-8.045268, 41.824425], [-8.046775, 41.821951], [-8.053401, 41.818129]], [[-7.948311, 41.868735], [-7.936331, 41.864553], [-7.928504, 41.857225], [-7.924154, 41.848177], [-7.924597, 41.839175], [-7.929753, 41.830216], [-7.93701, 41.823528], [-7.949139, 41.818161], [-7.96118, 41.818101], [-7.973146, 41.822788], [-7.982741, 41.830698], [-7.986817, 41.839741], [-7.986362, 41.848743], [-7.981313, 41.857705], [-7.972477, 41.864597], [-7.960362, 41.868689], [-7.948311, 41.868735]], [[-7.937479, 41.795177], [-7.937644, 41.785166], [-7.949693, 41.784223], [-7.951844, 41.785386], [-7.953154, 41.794405], [-7.949484, 41.797053], [-7.937479, 41.795177]], [[-8.005848, 41.749838], [-7.998398, 41.747631], [-7.990977, 41.740702], [-7.98912, 41.731679], [-7.994641, 41.72272], [-7.998833, 41.719684], [-8.010901, 41.716679], [-8.022887, 41.718949], [-8.028606, 41.723012], [-8.032822, 41.732055], [-8.030749, 41.741044], [-8.022442, 41.748353], [-8.010372, 41.751104], [-8.005848, 41.749838]], [[-7.89059, 41.722312], [-7.890776, 41.711534], [-7.902807, 41.710923], [-7.905723, 41.712901], [-7.904375, 41.721895], [-7.89059, 41.722312]], [[-8.046967, 41.716496], [-8.04144, 41.714113], [-8.036639, 41.705066], [-8.04727, 41.696022], [-8.059244, 41.699006], [-8.064144, 41.705293], [-8.05902, 41.714331], [-8.046967, 41.716496]], [[-8.012515, 41.668833], [-8.006867, 41.659778], [-8.011895, 41.651693], [-8.023962, 41.647922], [-8.032045, 41.650985], [-8.035881, 41.653891], [-8.03862, 41.660048], [-8.0357, 41.666011], [-8.023592, 41.672383], [-8.012515, 41.668833]]], [[[-7.849299, 41.861699], [-7.840113, 41.854905], [-7.804615, 41.820349], [-7.792714, 41.812945], [-7.780729, 41.810081], [-7.768688, 41.810188], [-7.728178, 41.813784], [-7.732045, 41.820817], [-7.768528, 41.81854], [-7.780534, 41.820356], [-7.79249, 41.824876], [-7.804371, 41.833499], [-7.816912, 41.847123], [-7.833532, 41.874263], [-7.838021, 41.872924], [-7.842528, 41.875187], [-7.841663, 41.866632], [-7.849299, 41.861699]]], [[[-8.323076, 41.764201], [-8.323126, 41.764101], [-8.323189, 41.763976], [-8.326042, 41.752163], [-8.324205, 41.743145], [-8.318774, 41.734106], [-8.311314, 41.728067], [-8.302451, 41.725001], [-8.287309, 41.724212], [-8.275248, 41.727594], [-8.265717, 41.733779], [-8.258235, 41.742738], [-8.255938, 41.75173], [-8.257612, 41.760748], [-8.265363, 41.771109], [-8.271366, 41.766346], [-8.280681, 41.764083], [-8.284038, 41.761109], [-8.284931, 41.757507], [-8.287033, 41.756829], [-8.298457, 41.757263], [-8.300866, 41.758835], [-8.305674, 41.758152], [-8.311096, 41.762195], [-8.318308, 41.761283], [-8.323076, 41.764201]]], [[[-8.107131, 41.71239], [-8.119188, 41.709675], [-8.131458, 41.696815], [-8.131248, 41.687806], [-8.119561, 41.682351], [-8.107462, 41.688459], [-8.097223, 41.696551], [-8.095235, 41.703481], [-8.086047, 41.70547], [-8.107131, 41.71239]], [[-8.10727, 41.702334], [-8.10514, 41.696613], [-8.119465, 41.689386], [-8.126522, 41.696777], [-8.119245, 41.705505], [-8.10727, 41.702334]]]]}}, {"id": "7", "type": "Feature", "properties": {"fill": "#71a5e5", "value_min": 1.25, "value_max": -1.5}, "geometry": {"type": "MultiPolygon", "coordinates": [[[[-7.833532, 41.874263], [-7.816912, 41.847123], [-7.804371, 41.833499], [-7.79249, 41.824876], [-7.780534, 41.820356], [-7.768528, 41.81854], [-7.732045, 41.820817], [-7.73594, 41.823554], [-7.743151, 41.825371], [-7.768404, 41.825005], [-7.780388, 41.828068], [-7.792315, 41.834158], [-7.80562, 41.847006], [-7.811439, 41.856073], [-7.816141, 41.873542], [-7.823863, 41.874013], [-7.825059, 41.875817], [-7.830479, 41.875831], [-7.830789, 41.874031], [-7.833532, 41.874263]]], [[[-7.948311, 41.868735], [-7.960362, 41.868689], [-7.972477, 41.864597], [-7.981313, 41.857705], [-7.986362, 41.848743], [-7.986817, 41.839741], [-7.982741, 41.830698], [-7.973146, 41.822788], [-7.96118, 41.818101], [-7.949139, 41.818161], [-7.93701, 41.823528], [-7.929753, 41.830216], [-7.924597, 41.839175], [-7.924154, 41.848177], [-7.928504, 41.857225], [-7.936331, 41.864553], [-7.948311, 41.868735]], [[-7.945534, 41.839369], [-7.948833, 41.83685], [-7.954615, 41.839452], [-7.948724, 41.843552], [-7.945534, 41.839369]]], [[[-7.937479, 41.795177], [-7.949484, 41.797053], [-7.953154, 41.794405], [-7.951844, 41.785386], [-7.949693, 41.784223], [-7.937644, 41.785166], [-7.937479, 41.795177]]], [[[-8.005848, 41.749838], [-8.010372, 41.751104], [-8.022442, 41.748353], [-8.030749, 41.741044], [-8.032822, 41.732055], [-8.028606, 41.723012], [-8.022887, 41.718949], [-8.010901, 41.716679], [-7.998833, 41.719684], [-7.994641, 41.72272], [-7.98912, 41.731679], [-7.990977, 41.740702], [-7.998398, 41.747631], [-8.005848, 41.749838]]], [[[-7.89059, 41.722312], [-7.904375, 41.721895], [-7.905723, 41.712901], [-7.902807, 41.710923], [-7.890776, 41.711534], [-7.89059, 41.722312]]], [[[-8.046967, 41.716496], [-8.05902, 41.714331], [-8.064144, 41.705293], [-8.059244, 41.699006], [-8.04727, 41.696022], [-8.036639, 41.705066], [-8.04144, 41.714113], [-8.046967, 41.716496]]], [[[-8.10727, 41.702334], [-8.119245, 41.705505], [-8.126522, 41.696777], [-8.119465, 41.689386], [-8.10514, 41.696613], [-8.10727, 41.702334]], [[-8.114693, 41.696687], [-8.119397, 41.694415], [-8.121616, 41.69674], [-8.119327, 41.699485], [-8.114693, 41.696687]]], [[[-8.371954, 41.674413], [-8.383949, 41.676357], [-8.395518, 41.671486], [-8.398901, 41.662496], [-8.396146, 41.65679], [-8.384187, 41.651435], [-8.372143, 41.655007], [-8.366083, 41.66232], [-8.367531, 41.671335], [-8.371954, 41.674413]]], [[[-8.012515, 41.668833], [-8.023592, 41.672383], [-8.0357, 41.666011], [-8.03862, 41.660048], [-8.035881, 41.653891], [-8.032045, 41.650985], [-8.023962, 41.647922], [-8.011895, 41.651693], [-8.006867, 41.659778], [-8.012515, 41.668833]]], [[[-8.444195, 41.655864], [-8.456206, 41.655754], [-8.468233, 41.653729], [-8.488031, 41.644914], [-8.49727, 41.635947], [-8.501759, 41.62696], [-8.502912, 41.617957], [-8.501481, 41.608944], [-8.491771, 41.590887], [-8.490389, 41.581874], [-8.492992, 41.572878], [-8.504833, 41.554915], [-8.506546, 41.545915], [-8.499118, 41.536875], [-8.481236, 41.529766], [-8.457365, 41.517478], [-8.445405, 41.514685], [-8.433386, 41.518645], [-8.421422, 41.527503], [-8.415053, 41.536478], [-8.412151, 41.545471], [-8.412002, 41.554477], [-8.420453, 41.581542], [-8.416815, 41.590531], [-8.403193, 41.608476], [-8.39984, 41.617465], [-8.399226, 41.626469], [-8.401281, 41.635487], [-8.40888, 41.644534], [-8.420221, 41.65069], [-8.444195, 41.655864]], [[-8.440773, 41.635686], [-8.431535, 41.626634], [-8.440946, 41.617673], [-8.444534, 41.616467], [-8.456488, 41.62226], [-8.458999, 41.626766], [-8.456412, 41.6313], [-8.449581, 41.635729], [-8.444358, 41.63687], [-8.440773, 41.635686]], [[-8.445114, 41.548676], [-8.442565, 41.545622], [-8.445194, 41.539306], [-8.450616, 41.536654], [-8.458636, 41.536692], [-8.46332, 41.545721], [-8.457083, 41.551216], [-8.445114, 41.548676]]], [[[-8.624911, 41.55866], [-8.64255, 41.555425], [-8.648927, 41.552959], [-8.658051, 41.546465], [-8.664283, 41.537476], [-8.665605, 41.528473], [-8.662042, 41.519455], [-8.653481, 41.510422], [-8.637226, 41.500978], [-8.616899, 41.492291], [-8.613339, 41.488212], [-8.610431, 41.483262], [-8.61287, 41.456248], [-8.611984, 41.447237], [-8.608475, 41.438218], [-8.600842, 41.429184], [-8.589806, 41.420771], [-8.565945, 41.409814], [-8.554002, 41.406546], [-8.530089, 41.404457], [-8.518117, 41.405596], [-8.506121, 41.409886], [-8.497764, 41.419773], [-8.494462, 41.437773], [-8.496302, 41.455796], [-8.499997, 41.46482], [-8.506984, 41.473857], [-8.517541, 41.483392], [-8.541389, 41.498849], [-8.568831, 41.510136], [-8.57456, 41.519164], [-8.581536, 41.537205], [-8.589867, 41.546242], [-8.60096, 41.553365], [-8.612927, 41.557388], [-8.624911, 41.55866]]], [[[-8.071555, 41.475793], [-8.071885, 41.480177], [-8.076656, 41.489223], [-8.089221, 41.49833], [-8.110001, 41.5039], [-8.121972, 41.504677], [-8.133976, 41.503044], [-8.143126, 41.498744], [-8.152241, 41.489805], [-8.155622, 41.480822], [-8.155707, 41.471815], [-8.152736, 41.462786], [-8.146596, 41.454409], [-8.134735, 41.445985], [-8.122814, 41.44225], [-8.110852, 41.44162], [-8.098849, 41.444018], [-8.086804, 41.449265], [-8.081731, 41.453234], [-8.073486, 41.464765], [-8.074164, 41.473543], [-8.071555, 41.475793]]], [[[-8.158837, 41.379016], [-8.163001, 41.390802], [-8.171227, 41.400578], [-8.183204, 41.408962], [-8.19499, 41.413777], [-8.206923, 41.416396], [-8.23085, 41.416794], [-8.26683, 41.409561], [-8.278803, 41.408733], [-8.350452, 41.422665], [-8.374368, 41.424484], [-8.398306, 41.424184], [-8.422265, 41.421453], [-8.446242, 41.416387], [-8.466709, 41.410625], [-8.482237, 41.404038], [-8.486764, 41.401709], [-8.492865, 41.392728], [-8.496825, 41.374731], [-8.496937, 41.347708], [-8.493235, 41.311661], [-8.49392, 41.302657], [-8.49944, 41.293673], [-8.507024, 41.290217], [-8.554862, 41.280416], [-8.566834, 41.275778], [-8.578813, 41.269809], [-8.590816, 41.259486], [-8.597742, 41.24902], [-8.603029, 41.231022], [-8.60059, 41.212998], [-8.591213, 41.195784], [-8.58014, 41.185239], [-8.581296, 41.191762], [-8.575958, 41.195609], [-8.576894, 41.201908], [-8.574515, 41.202593], [-8.57423, 41.20462], [-8.569517, 41.204413], [-8.579183, 41.212111], [-8.581841, 41.221939], [-8.57906, 41.231215], [-8.567072, 41.239766], [-8.555126, 41.24158], [-8.545661, 41.239818], [-8.531944, 41.230755], [-8.528617, 41.221734], [-8.53195, 41.211618], [-8.529858, 41.210859], [-8.52713, 41.203215], [-8.523236, 41.200077], [-8.51163, 41.203042], [-8.510456, 41.206197], [-8.505693, 41.207113], [-8.504239, 41.213646], [-8.500076, 41.21546], [-8.50308, 41.219502], [-8.502204, 41.222656], [-8.495642, 41.222227], [-8.495947, 41.223351], [-8.490894, 41.226294], [-8.487935, 41.230354], [-8.490331, 41.232373], [-8.489156, 41.235528], [-8.486181, 41.236888], [-8.484411, 41.240495], [-8.476346, 41.237818], [-8.475756, 41.23917], [-8.470986, 41.23941], [-8.471604, 41.243459], [-8.469227, 41.245267], [-8.463258, 41.244384], [-8.459989, 41.246644], [-8.454323, 41.246886], [-8.455541, 41.251834], [-8.452276, 41.25522], [-8.449891, 41.255452], [-8.449304, 41.257479], [-8.447812, 41.257258], [-8.449028, 41.261982], [-8.439785, 41.262907], [-8.438023, 41.268989], [-8.434745, 41.269673], [-8.432691, 41.277107], [-8.427032, 41.279372], [-8.429143, 41.284319], [-8.426171, 41.287028], [-8.426488, 41.291079], [-8.425013, 41.294909], [-8.422037, 41.296942], [-8.422647, 41.299867], [-8.407744, 41.304856], [-8.406262, 41.307335], [-8.402979, 41.307568], [-8.401801, 41.311398], [-8.399712, 41.311628], [-8.400316, 41.313202], [-8.396738, 41.314336], [-8.398835, 41.316131], [-8.393775, 41.31997], [-8.393783, 41.321894], [-8.411103, 41.332297], [-8.422923, 41.347031], [-8.426745, 41.356388], [-8.427797, 41.3654], [-8.426419, 41.374401], [-8.41549, 41.392361], [-8.403296, 41.401306], [-8.386491, 41.408032], [-8.374505, 41.410205], [-8.362534, 41.410826], [-8.338641, 41.407202], [-8.323422, 41.400864], [-8.311025, 41.391783], [-8.304191, 41.382735], [-8.300068, 41.373702], [-8.298525, 41.364685], [-8.29935, 41.355683], [-8.302672, 41.346695], [-8.313493, 41.332542], [-8.310792, 41.327557], [-8.308701, 41.327561], [-8.307502, 41.325762], [-8.305116, 41.326891], [-8.303024, 41.325994], [-8.303615, 41.323742], [-8.301216, 41.319694], [-8.296431, 41.316774], [-8.297618, 41.313846], [-8.295817, 41.310022], [-8.281801, 41.316569], [-8.279132, 41.324451], [-8.272266, 41.32536], [-8.265709, 41.331221], [-8.269004, 41.336169], [-8.263339, 41.340902], [-8.262751, 41.345405], [-8.256483, 41.347663], [-8.255889, 41.349689], [-8.249622, 41.353072], [-8.251123, 41.356897], [-8.248141, 41.360052], [-8.248448, 41.364328], [-8.245461, 41.364781], [-8.244272, 41.368384], [-8.241287, 41.370413], [-8.224854, 41.370878], [-8.21738, 41.368182], [-8.214399, 41.373587], [-8.208127, 41.376968], [-8.199163, 41.377423], [-8.194677, 41.374275], [-8.191691, 41.376302], [-8.189299, 41.375403], [-8.184818, 41.376756], [-8.168382, 41.377438], [-8.164499, 41.38059], [-8.158837, 41.379016]]], [[[-8.158794, 41.378791], [-8.158794, 41.378791], [-8.15882, 41.378928], [-8.158794, 41.378791]]], [[[-8.733749, 41.336872], [-8.745714, 41.333566], [-8.757692, 41.326141], [-8.762201, 41.321539], [-8.767127, 41.312541], [-8.768308, 41.303536], [-8.766303, 41.294524], [-8.760332, 41.285504], [-8.748216, 41.27647], [-8.734014, 41.271682], [-8.722082, 41.270048], [-8.71014, 41.270644], [-8.698188, 41.273415], [-8.690475, 41.27633], [-8.677829, 41.285303], [-8.672144, 41.294294], [-8.671053, 41.303299], [-8.674633, 41.312317], [-8.682375, 41.321346], [-8.697921, 41.331342], [-8.709852, 41.335743], [-8.721796, 41.337439], [-8.733749, 41.336872]]]]}}, {"id": "8", "type": "Feature", "properties": {"fill": "#5093f6", "value_min": 1.5, "value_max": -1.75}, "geometry": {"type": "MultiPolygon", "coordinates": [[[[-7.816141, 41.873542], [-7.811439, 41.856073], [-7.80562, 41.847006], [-7.792315, 41.834158], [-7.780388, 41.828068], [-7.768404, 41.825005], [-7.743151, 41.825371], [-7.742839, 41.827178], [-7.738919, 41.828515], [-7.740105, 41.831403], [-7.756272, 41.829701], [-7.768293, 41.830789], [-7.78572, 41.83779], [-7.796191, 41.846907], [-7.80167, 41.855971], [-7.804084, 41.865003], [-7.80409, 41.874183], [-7.804914, 41.869459], [-7.816141, 41.873542]]], [[[-7.945534, 41.839369], [-7.948724, 41.843552], [-7.954615, 41.839452], [-7.948833, 41.83685], [-7.945534, 41.839369]]], [[[-8.114693, 41.696687], [-8.119327, 41.699485], [-8.121616, 41.69674], [-8.119397, 41.694415], [-8.114693, 41.696687]]], [[[-8.440773, 41.635686], [-8.444358, 41.63687], [-8.449581, 41.635729], [-8.456412, 41.6313], [-8.458999, 41.626766], [-8.456488, 41.62226], [-8.444534, 41.616467], [-8.440946, 41.617673], [-8.431535, 41.626634], [-8.440773, 41.635686]]], [[[-8.445114, 41.548676], [-8.457083, 41.551216], [-8.46332, 41.545721], [-8.458636, 41.536692], [-8.450616, 41.536654], [-8.445194, 41.539306], [-8.442565, 41.545622], [-8.445114, 41.548676]]], [[[-8.313493, 41.332542], [-8.302672, 41.346695], [-8.29935, 41.355683], [-8.298525, 41.364685], [-8.300068, 41.373702], [-8.304191, 41.382735], [-8.311025, 41.391783], [-8.323422, 41.400864], [-8.338641, 41.407202], [-8.362534, 41.410826], [-8.374505, 41.410205], [-8.386491, 41.408032], [-8.403296, 41.401306], [-8.41549, 41.392361], [-8.426419, 41.374401], [-8.427797, 41.3654], [-8.426745, 41.356388], [-8.422923, 41.347031], [-8.411103, 41.332297], [-8.393783, 41.321894], [-8.391105, 41.324253], [-8.386325, 41.323588], [-8.380382, 41.331254], [-8.375305, 41.33104], [-8.37201, 41.328346], [-8.361563, 41.329718], [-8.358276, 41.329049], [-8.357673, 41.327249], [-8.350207, 41.327264], [-8.346032, 41.328847], [-8.342462, 41.333131], [-8.333215, 41.336299], [-8.326363, 41.342163], [-8.324568, 41.341041], [-8.323376, 41.341943], [-8.316788, 41.335876], [-8.313802, 41.336331], [-8.313493, 41.332542]], [[-8.374614, 41.398821], [-8.362638, 41.400216], [-8.350689, 41.398871], [-8.334745, 41.391923], [-8.32603, 41.382865], [-8.322459, 41.373836], [-8.322812, 41.364831], [-8.327002, 41.355848], [-8.339271, 41.345055], [-8.351268, 41.340578], [-8.363231, 41.339439], [-8.375168, 41.340969], [-8.387074, 41.345882], [-8.398423, 41.356243], [-8.402552, 41.365272], [-8.402737, 41.374281], [-8.398867, 41.383268], [-8.389979, 41.392229], [-8.374614, 41.398821]]], [[[-8.53195, 41.211618], [-8.528617, 41.221734], [-8.531944, 41.230755], [-8.545661, 41.239818], [-8.555126, 41.24158], [-8.567072, 41.239766], [-8.57906, 41.231215], [-8.581841, 41.221939], [-8.579183, 41.212111], [-8.569517, 41.204413], [-8.565895, 41.206227], [-8.567697, 41.208246], [-8.566512, 41.209376], [-8.559636, 41.206251], [-8.554271, 41.20627], [-8.549521, 41.209214], [-8.544157, 41.209458], [-8.537023, 41.212635], [-8.532257, 41.213102], [-8.53195, 41.211618]]]]}}, {"id": "9", "type": "Feature", "properties": {"fill": "#3171ee", "value_min": 1.75, "value_max": -2.0}, "geometry": {"type": "MultiPolygon", "coordinates": [[[[-7.80409, 41.874183], [-7.804084, 41.865003], [-7.80167, 41.855971], [-7.796191, 41.846907], [-7.78572, 41.83779], [-7.768293, 41.830789], [-7.756272, 41.829701], [-7.740105, 41.831403], [-7.744594, 41.835567], [-7.756179, 41.834494], [-7.768194, 41.835994], [-7.780139, 41.841135], [-7.787336, 41.846814], [-7.793383, 41.855885], [-7.79541, 41.864912], [-7.79395, 41.873904], [-7.788974, 41.882467], [-7.794309, 41.882033], [-7.796739, 41.878214], [-7.794954, 41.873932], [-7.80409, 41.874183]]], [[[-7.765311, 41.896932], [-7.765311, 41.896932], [-7.764756, 41.897022], [-7.765311, 41.896932]]], [[[-7.764708, 41.89703], [-7.758376, 41.898055], [-7.764097, 41.898595], [-7.764708, 41.89703]]], [[[-7.788885, 41.882601], [-7.788885, 41.882601], [-7.788825, 41.882692], [-7.788885, 41.882601]]], [[[-8.374614, 41.398821], [-8.389979, 41.392229], [-8.398867, 41.383268], [-8.402737, 41.374281], [-8.402552, 41.365272], [-8.398423, 41.356243], [-8.387074, 41.345882], [-8.375168, 41.340969], [-8.363231, 41.339439], [-8.351268, 41.340578], [-8.339271, 41.345055], [-8.327002, 41.355848], [-8.322812, 41.364831], [-8.322459, 41.373836], [-8.32603, 41.382865], [-8.334745, 41.391923], [-8.350689, 41.398871], [-8.362638, 41.400216], [-8.374614, 41.398821]], [[-8.362742, 41.389634], [-8.350805, 41.387201], [-8.34435, 41.38297], [-8.33946, 41.373935], [-8.342269, 41.364943], [-8.351096, 41.357865], [-8.363075, 41.355505], [-8.374998, 41.358739], [-8.382272, 41.365165], [-8.384767, 41.374186], [-8.379913, 41.383168], [-8.374731, 41.386644], [-8.362742, 41.389634]]]]}}, {"id": "10", "type": "Feature", "properties": {"fill": "#245ede", "value_min": 2.0, "value_max": -2.25}, "geometry": {"type": "MultiPolygon", "coordinates": [[[[-7.788825, 41.882692], [-7.788885, 41.882601], [-7.788974, 41.882467], [-7.79395, 41.873904], [-7.79541, 41.864912], [-7.793383, 41.855885], [-7.787336, 41.846814], [-7.780139, 41.841135], [-7.768194, 41.835994], [-7.756179, 41.834494], [-7.744594, 41.835567], [-7.74729, 41.837772], [-7.746067, 41.840806], [-7.756084, 41.839424], [-7.768091, 41.841347], [-7.778412, 41.84672], [-7.785596, 41.855802], [-7.787056, 41.864825], [-7.783958, 41.873798], [-7.779416, 41.879206], [-7.767227, 41.886345], [-7.754818, 41.888392], [-7.758719, 41.890926], [-7.756592, 41.89407], [-7.758376, 41.898055], [-7.764708, 41.89703], [-7.764756, 41.897022], [-7.765311, 41.896932], [-7.779227, 41.886264], [-7.785257, 41.885157], [-7.788825, 41.882692]]], [[[-7.753202, 41.888207], [-7.753202, 41.888207], [-7.751808, 41.888047], [-7.753202, 41.888207]]], [[[-7.751177, 41.887975], [-7.751177, 41.887975], [-7.750002, 41.887841], [-7.751177, 41.887975]]], [[[-7.742178, 41.886632], [-7.731165, 41.881416], [-7.72688, 41.876698], [-7.720533, 41.880218], [-7.720523, 41.881793], [-7.725335, 41.882935], [-7.726208, 41.887665], [-7.737044, 41.888828], [-7.739741, 41.891088], [-7.74246, 41.889747], [-7.742178, 41.886632]]], [[[-8.362742, 41.389634], [-8.374731, 41.386644], [-8.379913, 41.383168], [-8.384767, 41.374186], [-8.382272, 41.365165], [-8.374998, 41.358739], [-8.363075, 41.355505], [-8.351096, 41.357865], [-8.342269, 41.364943], [-8.33946, 41.373935], [-8.34435, 41.38297], [-8.350805, 41.387201], [-8.362742, 41.389634]]]]}}, {"id": "13", "type": "Feature", "properties": {"fill": "#1f3f95", "value_min": 2.75, "value_max": -3.0}, "geometry": {"type": "Polygon", "coordinates": [[[-7.746866, 41.855776], [-7.745437, 41.864377], [-7.7555, 41.869504], [-7.768128, 41.864623], [-7.767591, 41.855611], [-7.75584, 41.852007], [-7.746881, 41.855682], [-7.746866, 41.855776]]]}}, {"id": "12", "type": "Feature", "properties": {"fill": "#2048ac", "value_min": 2.5, "value_max": -2.75}, "geometry": {"type": "Polygon", "coordinates": [[[-7.734465, 41.867552], [-7.738107, 41.873304], [-7.743308, 41.876802], [-7.755308, 41.879427], [-7.767407, 41.876963], [-7.772215, 41.873673], [-7.778665, 41.864736], [-7.777413, 41.855716], [-7.767985, 41.846866], [-7.755984, 41.844581], [-7.748746, 41.845873], [-7.750532, 41.849261], [-7.743309, 41.849012], [-7.746901, 41.8524], [-7.746881, 41.855682], [-7.75584, 41.852007], [-7.767591, 41.855611], [-7.768128, 41.864623], [-7.7555, 41.869504], [-7.745437, 41.864377], [-7.746866, 41.855776], [-7.73843, 41.859348], [-7.734465, 41.867552]]]}}, {"id": "11", "type": "Feature", "properties": {"fill": "#2253c5", "value_min": 2.25, "value_max": -2.5}, "geometry": {"type": "Polygon", "coordinates": [[[-7.754818, 41.888392], [-7.767227, 41.886345], [-7.779416, 41.879206], [-7.783958, 41.873798], [-7.787056, 41.864825], [-7.785596, 41.855802], [-7.778412, 41.84672], [-7.768091, 41.841347], [-7.756084, 41.839424], [-7.746067, 41.840806], [-7.746349, 41.84407], [-7.748746, 41.845873], [-7.755984, 41.844581], [-7.767985, 41.846866], [-7.777413, 41.855716], [-7.778665, 41.864736], [-7.772215, 41.873673], [-7.767407, 41.876963], [-7.755308, 41.879427], [-7.743308, 41.876802], [-7.738107, 41.873304], [-7.734465, 41.867552], [-7.730228, 41.871024], [-7.729293, 41.875972], [-7.72688, 41.876698], [-7.731165, 41.881416], [-7.742178, 41.886632], [-7.745495, 41.885931], [-7.750002, 41.887841], [-7.751177, 41.887975], [-7.751808, 41.888047], [-7.753202, 41.888207], [-7.754818, 41.888392]]]}}]}