{"type": "FeatureCollection", "features": [{"id": "2", "type": "Feature", "properties": {"fill": "#a3a3a3", "value_min": -0.75, "value_max": -0.5}, "geometry": {"type": "MultiPolygon", "coordinates": [[[[-8.190355, 41.785644], [-8.202479, 41.778379], [-8.210493, 41.769441], [-8.21473, 41.760519], [-8.216639, 41.751469], [-8.215864, 41.742457], [-8.211809, 41.733422], [-8.201115, 41.724341], [-8.186045, 41.715228], [-8.167433, 41.696972], [-8.1555, 41.690463], [-8.143489, 41.690047], [-8.131373, 41.697427], [-8.119185, 41.709934], [-8.109423, 41.71466], [-8.107019, 41.720466], [-8.102882, 41.723616], [-8.101324, 41.732611], [-8.107862, 41.750676], [-8.12047, 41.768787], [-8.130298, 41.777198], [-8.142239, 41.784034], [-8.154224, 41.787818], [-8.166236, 41.789563], [-8.178279, 41.788866], [-8.190355, 41.785644]], [[-8.166578, 41.76311], [-8.154602, 41.758974], [-8.146338, 41.750968], [-8.14403, 41.741944], [-8.144334, 41.732939], [-8.130966, 41.72768], [-8.126979, 41.723802], [-8.12185, 41.714756], [-8.126834, 41.705787], [-8.131315, 41.701796], [-8.143361, 41.699714], [-8.15466, 41.705995], [-8.161078, 41.724056], [-8.179057, 41.727892], [-8.18753, 41.733253], [-8.193562, 41.742302], [-8.192219, 41.7513], [-8.18186, 41.760234], [-8.178624, 41.761897], [-8.166578, 41.76311]]], [[[-7.877666, 41.774139], [-7.889667, 41.766788], [-7.895097, 41.757834], [-7.896137, 41.748837], [-7.899735, 41.739864], [-7.914492, 41.730845], [-7.92274, 41.722069], [-7.924896, 41.713082], [-7.921563, 41.704044], [-7.915038, 41.698376], [-7.903074, 41.695214], [-7.89102, 41.697335], [-7.884482, 41.70369], [-7.878775, 41.710411], [-7.869468, 41.730564], [-7.840428, 41.739281], [-7.830303, 41.748185], [-7.828451, 41.757173], [-7.832547, 41.766222], [-7.841604, 41.772228], [-7.853564, 41.776274], [-7.865588, 41.776724], [-7.877666, 41.774139]], [[-7.865676, 41.771727], [-7.853672, 41.77021], [-7.846373, 41.766361], [-7.842348, 41.757314], [-7.847607, 41.74836], [-7.854126, 41.744706], [-7.866183, 41.742945], [-7.878132, 41.747366], [-7.883798, 41.757724], [-7.8792, 41.766686], [-7.865676, 41.771727]], [[-7.890584, 41.721763], [-7.890759, 41.712502], [-7.902776, 41.712749], [-7.90274, 41.714864], [-7.890584, 41.721763]]], [[[-8.44163, 41.713622], [-8.441438, 41.713301], [-8.441327, 41.713115], [-8.438109, 41.70773], [-8.431766, 41.703476], [-8.419776, 41.700276], [-8.407744, 41.701751], [-8.397822, 41.707526], [-8.392554, 41.716506], [-8.393989, 41.72552], [-8.398102, 41.72984], [-8.400531, 41.726683], [-8.402934, 41.726452], [-8.404721, 41.722847], [-8.417349, 41.725067], [-8.422737, 41.720552], [-8.429643, 41.719859], [-8.430533, 41.717381], [-8.435927, 41.714441], [-8.44163, 41.713622]]], [[[-8.070923, 41.722549], [-8.076571, 41.714401], [-8.075086, 41.705382], [-8.066992, 41.696309], [-8.059363, 41.690808], [-8.047393, 41.68766], [-8.03536, 41.688817], [-8.026494, 41.695974], [-8.025468, 41.704972], [-8.030911, 41.714025], [-8.046847, 41.724622], [-8.058836, 41.726941], [-8.070923, 41.722549]], [[-8.047068, 41.709708], [-8.043304, 41.705122], [-8.047199, 41.700787], [-8.059198, 41.702136], [-8.061747, 41.705274], [-8.059092, 41.709421], [-8.047068, 41.709708]]], [[[-8.035664, 41.668451], [-8.039283, 41.660053], [-8.035896, 41.652892], [-8.033303, 41.650996], [-8.023967, 41.64758], [-8.011528, 41.650811], [-8.005799, 41.659768], [-8.011616, 41.669967], [-8.023565, 41.674171], [-8.035664, 41.668451]]], [[[-8.697195, 41.487819], [-8.701268, 41.483534], [-8.703459, 41.474532], [-8.700531, 41.465517], [-8.690583, 41.456483], [-8.685381, 41.453747], [-8.673421, 41.451141], [-8.661443, 41.452178], [-8.64944, 41.457912], [-8.642822, 41.465352], [-8.640456, 41.474352], [-8.643515, 41.483369], [-8.654933, 41.492411], [-8.661219, 41.495167], [-8.673191, 41.496967], [-8.68518, 41.495249], [-8.691847, 41.492516], [-8.697195, 41.487819]]], [[[-8.445629, 41.48835], [-8.449462, 41.482604], [-8.448954, 41.473594], [-8.445794, 41.469025], [-8.433884, 41.461504], [-8.421918, 41.460519], [-8.409912, 41.464081], [-8.399634, 41.473347], [-8.397914, 41.482346], [-8.402026, 41.491375], [-8.409621, 41.496195], [-8.421576, 41.499016], [-8.433573, 41.497194], [-8.443154, 41.491581], [-8.445629, 41.48835]]], [[[-8.168058, 41.378338], [-8.17272, 41.390872], [-8.180067, 41.399932], [-8.195035, 41.410137], [-8.206945, 41.414602], [-8.218888, 41.416529], [-8.230856, 41.416291], [-8.242854, 41.413592], [-8.254894, 41.407042], [-8.261559, 41.400484], [-8.266513, 41.391508], [-8.268416, 41.382513], [-8.265043, 41.364476], [-8.254695, 41.350021], [-8.249622, 41.353072], [-8.251123, 41.356897], [-8.248141, 41.360052], [-8.248448, 41.364328], [-8.245461, 41.364781], [-8.243972, 41.368], [-8.244087, 41.368159], [-8.244248, 41.368384], [-8.247819, 41.373372], [-8.249213, 41.382389], [-8.243088, 41.393369], [-8.231054, 41.39949], [-8.219083, 41.400222], [-8.20717, 41.3961], [-8.200535, 41.391069], [-8.195777, 41.382028], [-8.196549, 41.376074], [-8.194677, 41.374275], [-8.191691, 41.376302], [-8.175853, 41.376309], [-8.168058, 41.378338]]], [[[-8.661832, 41.377156], [-8.666394, 41.36634], [-8.665009, 41.357328], [-8.658773, 41.348302], [-8.650063, 41.341856], [-8.638136, 41.337311], [-8.626189, 41.336429], [-8.613827, 41.339152], [-8.601313, 41.348117], [-8.59693, 41.35711], [-8.597188, 41.366118], [-8.601995, 41.375142], [-8.613955, 41.384322], [-8.625892, 41.388269], [-8.63785, 41.388821], [-8.649826, 41.38594], [-8.661832, 41.377156]]], [[[-8.710365, 41.219731], [-8.722372, 41.213356], [-8.730711, 41.204368], [-8.734335, 41.195368], [-8.734421, 41.186361], [-8.730815, 41.177344], [-8.722512, 41.168385], [-8.710619, 41.162104], [-8.698711, 41.159525], [-8.686791, 41.159577], [-8.674859, 41.162253], [-8.662906, 41.168748], [-8.655036, 41.177142], [-8.650739, 41.186137], [-8.649917, 41.195143], [-8.652316, 41.204158], [-8.658865, 41.213185], [-8.674564, 41.221908], [-8.686485, 41.223793], [-8.698419, 41.223169], [-8.710365, 41.219731]]]]}}, {"id": "3", "type": "Feature", "properties": {"fill": "#a3a3a3", "value_min": -0.5, "value_max": -0.25}, "geometry": {"type": "MultiPolygon", "coordinates": [[[[-8.52121, 41.660025], [-8.490645, 41.644925], [-8.477756, 41.63586], [-8.468466, 41.625431], [-8.456543, 41.615682], [-8.44457, 41.612266], [-8.420583, 41.610296], [-8.360748, 41.592766], [-8.336785, 41.589374], [-8.324768, 41.591266], [-8.312727, 41.595264], [-8.231325, 41.634476], [-8.189782, 41.652205], [-8.143798, 41.666717], [-8.131698, 41.673271], [-8.127256, 41.678769], [-8.121184, 41.68773], [-8.123114, 41.696751], [-8.119306, 41.701057], [-8.095268, 41.701118], [-8.083288, 41.698427], [-8.067403, 41.687306], [-8.060297, 41.678241], [-8.059056, 41.669224], [-8.060818, 41.651224], [-8.056024, 41.642178], [-8.036311, 41.625031], [-8.024425, 41.617175], [-8.005668, 41.608304], [-8.003262, 41.611464], [-7.998761, 41.612809], [-7.999669, 41.608759], [-7.997276, 41.605462], [-7.989485, 41.602763], [-7.984685, 41.603564], [-7.983791, 41.60131], [-7.982853, 41.601085], [-7.982592, 41.601023], [-7.982292, 41.600951], [-7.975689, 41.603552], [-7.974482, 41.606701], [-7.970882, 41.607147], [-7.968193, 41.603316], [-7.960399, 41.601955], [-7.9541, 41.602846], [-7.952606, 41.600592], [-7.947808, 41.60081], [-7.942725, 41.595625], [-7.937332, 41.594302], [-7.936733, 41.594264], [-7.93791, 41.601694], [-7.937004, 41.603718], [-7.931604, 41.604384], [-7.930979, 41.612711], [-7.925556, 41.620354], [-7.920755, 41.620796], [-7.917748, 41.623041], [-7.915933, 41.627764], [-7.913229, 41.628885], [-7.912613, 41.63361], [-7.906014, 41.633147], [-7.906884, 41.641927], [-7.897869, 41.645511], [-7.89696, 41.647985], [-7.892759, 41.647976], [-7.892145, 41.651576], [-7.902319, 41.659925], [-7.899913, 41.66127], [-7.900198, 41.665547], [-7.898396, 41.665769], [-7.896885, 41.668692], [-7.883969, 41.67069], [-7.879755, 41.673607], [-7.877044, 41.676077], [-7.876723, 41.681253], [-7.873401, 41.686198], [-7.868896, 41.686413], [-7.868008, 41.68326], [-7.864401, 41.684335], [-7.870007, 41.694541], [-7.870737, 41.703555], [-7.866684, 41.714441], [-7.856371, 41.721427], [-7.842479, 41.72353], [-7.818493, 41.72032], [-7.806466, 41.720593], [-7.796843, 41.729826], [-7.795753, 41.738822], [-7.801466, 41.756895], [-7.808476, 41.765975], [-7.821991, 41.775121], [-7.841461, 41.780177], [-7.853475, 41.781242], [-7.877572, 41.77952], [-7.894443, 41.775841], [-7.908404, 41.766968], [-7.918749, 41.749052], [-7.926324, 41.74236], [-7.938472, 41.734945], [-7.950564, 41.730788], [-7.962623, 41.728613], [-7.986671, 41.728577], [-7.998763, 41.724155], [-8.0108, 41.723222], [-8.024259, 41.731982], [-8.024915, 41.740995], [-8.022458, 41.747292], [-8.019507, 41.749956], [-8.017259, 41.758944], [-8.021664, 41.767988], [-8.067544, 41.815945], [-8.06995, 41.816113], [-8.072962, 41.813414], [-8.078678, 41.813417], [-8.082892, 41.810493], [-8.091013, 41.812521], [-8.093421, 41.811397], [-8.093723, 41.808471], [-8.101845, 41.809824], [-8.104853, 41.81185], [-8.115984, 41.812302], [-8.123807, 41.808702], [-8.138247, 41.808477], [-8.139751, 41.813203], [-8.14276, 41.812978], [-8.144866, 41.815228], [-8.149078, 41.814777], [-8.153291, 41.817703], [-8.158106, 41.818377], [-8.165326, 41.81815], [-8.173744, 41.808019], [-8.177655, 41.808242], [-8.183676, 41.812741], [-8.190291, 41.809587], [-8.197158, 41.814129], [-8.201063, 41.808724], [-8.204973, 41.807372], [-8.205872, 41.804445], [-8.213692, 41.803765], [-8.217598, 41.80016], [-8.217589, 41.793634], [-8.224207, 41.794303], [-8.229917, 41.791598], [-8.240744, 41.791588], [-8.24074, 41.789338], [-8.244347, 41.787984], [-8.245546, 41.785731], [-8.251257, 41.784375], [-8.251845, 41.777172], [-8.257551, 41.773564], [-8.261761, 41.773832], [-8.253563, 41.760722], [-8.251676, 41.751703], [-8.252607, 41.742702], [-8.256462, 41.73372], [-8.263251, 41.725353], [-8.275359, 41.717773], [-8.287402, 41.71581], [-8.299411, 41.716912], [-8.311382, 41.721703], [-8.323295, 41.732093], [-8.330023, 41.743179], [-8.332199, 41.752199], [-8.331192, 41.763287], [-8.336653, 41.763728], [-8.341756, 41.761468], [-8.344765, 41.762363], [-8.349267, 41.760103], [-8.352557, 41.755145], [-8.349814, 41.744122], [-8.352516, 41.743441], [-8.352203, 41.739616], [-8.357897, 41.735103], [-8.362407, 41.735994], [-8.368703, 41.73193], [-8.374122, 41.734845], [-8.384922, 41.73032], [-8.387332, 41.73189], [-8.393033, 41.729852], [-8.398102, 41.72984], [-8.393989, 41.72552], [-8.392554, 41.716506], [-8.397822, 41.707526], [-8.407744, 41.701751], [-8.419776, 41.700276], [-8.431766, 41.703476], [-8.438109, 41.70773], [-8.441327, 41.713115], [-8.4446, 41.70654], [-8.453868, 41.697961], [-8.453255, 41.695487], [-8.461659, 41.694563], [-8.467939, 41.689593], [-8.478124, 41.685061], [-8.482012, 41.682123], [-8.484371, 41.674238], [-8.49308, 41.674886], [-8.499963, 41.671038], [-8.50927, 41.671233], [-8.51018, 41.672806], [-8.511967, 41.670324], [-8.509856, 41.668755], [-8.512252, 41.667847], [-8.514629, 41.663788], [-8.52121, 41.660025]], [[-8.190355, 41.785644], [-8.178279, 41.788866], [-8.166236, 41.789563], [-8.154224, 41.787818], [-8.142239, 41.784034], [-8.130298, 41.777198], [-8.12047, 41.768787], [-8.107862, 41.750676], [-8.101324, 41.732611], [-8.102882, 41.723616], [-8.107019, 41.720466], [-8.109423, 41.71466], [-8.119185, 41.709934], [-8.131373, 41.697427], [-8.143489, 41.690047], [-8.1555, 41.690463], [-8.167433, 41.696972], [-8.186045, 41.715228], [-8.201115, 41.724341], [-8.211809, 41.733422], [-8.215864, 41.742457], [-8.216639, 41.751469], [-8.21473, 41.760519], [-8.210493, 41.769441], [-8.202479, 41.778379], [-8.190355, 41.785644]], [[-7.877666, 41.774139], [-7.865588, 41.776724], [-7.853564, 41.776274], [-7.841604, 41.772228], [-7.832547, 41.766222], [-7.828451, 41.757173], [-7.830303, 41.748185], [-7.840428, 41.739281], [-7.869468, 41.730564], [-7.878775, 41.710411], [-7.884482, 41.70369], [-7.89102, 41.697335], [-7.903074, 41.695214], [-7.915038, 41.698376], [-7.921563, 41.704044], [-7.924896, 41.713082], [-7.92274, 41.722069], [-7.914492, 41.730845], [-7.899735, 41.739864], [-7.896137, 41.748837], [-7.895097, 41.757834], [-7.889667, 41.766788], [-7.877666, 41.774139]], [[-8.070923, 41.722549], [-8.058836, 41.726941], [-8.046847, 41.724622], [-8.030911, 41.714025], [-8.025468, 41.704972], [-8.026494, 41.695974], [-8.03536, 41.688817], [-8.047393, 41.68766], [-8.059363, 41.690808], [-8.066992, 41.696309], [-8.075086, 41.705382], [-8.076571, 41.714401], [-8.070923, 41.722549]], [[-8.213178, 41.70641], [-8.203389, 41.704841], [-8.196192, 41.697286], [-8.197567, 41.688288], [-8.203674, 41.681687], [-8.215708, 41.680144], [-8.229007, 41.688504], [-8.229579, 41.697514], [-8.216461, 41.706433], [-8.213178, 41.70641]], [[-8.035664, 41.668451], [-8.023565, 41.674171], [-8.011616, 41.669967], [-8.005799, 41.659768], [-8.011528, 41.650811], [-8.023967, 41.64758], [-8.033303, 41.650996], [-8.035896, 41.652892], [-8.039283, 41.660053], [-8.035664, 41.668451]]], [[[-8.441438, 41.713301], [-8.441438, 41.713301], [-8.44163, 41.713622], [-8.441438, 41.713301]]], [[[-7.958676, 41.785448], [-7.949738, 41.781507], [-7.937701, 41.781713], [-7.931706, 41.7852], [-7.932497, 41.794215], [-7.937432, 41.79802], [-7.949449, 41.799207], [-7.958794, 41.794456], [-7.958676, 41.785448]]], [[[-8.116683, 41.380148], [-8.126555, 41.390531], [-8.148549, 41.408711], [-8.170938, 41.423327], [-8.194726, 41.435125], [-8.206642, 41.439481], [-8.230529, 41.444016], [-8.278411, 41.444229], [-8.284678, 41.445667], [-8.289587, 41.481728], [-8.301601, 41.514283], [-8.31338, 41.533681], [-8.325253, 41.544676], [-8.337183, 41.550475], [-8.349176, 41.550278], [-8.373262, 41.539427], [-8.393314, 41.527358], [-8.4161, 41.518469], [-8.44545, 41.509402], [-8.457484, 41.503235], [-8.481579, 41.486852], [-8.493594, 41.482126], [-8.505584, 41.480555], [-8.541458, 41.488993], [-8.553432, 41.489762], [-8.5894, 41.485076], [-8.601375, 41.485772], [-8.613335, 41.488926], [-8.637235, 41.499366], [-8.708943, 41.539319], [-8.756811, 41.562634], [-8.792747, 41.575902], [-8.828233, 41.584954], [-8.818497, 41.554794], [-8.8221, 41.547542], [-8.821717, 41.533832], [-8.815926, 41.525624], [-8.81063, 41.5101], [-8.813279, 41.503483], [-8.812976, 41.498005], [-8.804699, 41.482068], [-8.798552, 41.474753], [-8.80154, 41.446836], [-8.806115, 41.43713], [-8.807354, 41.425915], [-8.811035, 41.418186], [-8.809657, 41.397158], [-8.757482, 41.382872], [-8.733601, 41.373152], [-8.721673, 41.366328], [-8.621191, 41.294138], [-8.605557, 41.27607], [-8.605196, 41.267061], [-8.621757, 41.258109], [-8.638594, 41.254368], [-8.723322, 41.240382], [-8.802804, 41.223238], [-8.799695, 41.14406], [-8.674793, 41.146932], [-8.674849, 41.153767], [-8.672489, 41.15648], [-8.66117, 41.156307], [-8.662078, 41.158104], [-8.660313, 41.160813], [-8.657033, 41.160378], [-8.654961, 41.161963], [-8.653231, 41.169174], [-8.655366, 41.175467], [-8.647955, 41.180228], [-8.647696, 41.185181], [-8.640929, 41.196241], [-8.634946, 41.193341], [-8.632526, 41.188624], [-8.625658, 41.186628], [-8.621132, 41.178994], [-8.613374, 41.177451], [-8.608583, 41.174095], [-8.609164, 41.172066], [-8.604942, 41.164881], [-8.59422, 41.165149], [-8.589174, 41.167645], [-8.589194, 41.170572], [-8.583263, 41.174422], [-8.582094, 41.177803], [-8.578825, 41.178941], [-8.581296, 41.191762], [-8.575958, 41.195609], [-8.577177, 41.199687], [-8.587839, 41.212953], [-8.591292, 41.221973], [-8.590913, 41.239988], [-8.584812, 41.257981], [-8.57886, 41.262375], [-8.551887, 41.275874], [-8.542907, 41.282414], [-8.533823, 41.293817], [-8.521835, 41.320791], [-8.510685, 41.37479], [-8.503681, 41.392776], [-8.49729, 41.401755], [-8.487382, 41.410719], [-8.470152, 41.418984], [-8.374219, 41.440001], [-8.290394, 41.443099], [-8.286987, 41.436674], [-8.288724, 41.400655], [-8.287265, 41.373623], [-8.28255, 41.346571], [-8.275817, 41.324906], [-8.269582, 41.326939], [-8.265709, 41.331221], [-8.269004, 41.336169], [-8.263339, 41.340902], [-8.262751, 41.345405], [-8.256483, 41.347663], [-8.254695, 41.350021], [-8.265043, 41.364476], [-8.268416, 41.382513], [-8.266513, 41.391508], [-8.261559, 41.400484], [-8.254894, 41.407042], [-8.242854, 41.413592], [-8.230856, 41.416291], [-8.218888, 41.416529], [-8.206945, 41.414602], [-8.195035, 41.410137], [-8.180067, 41.399932], [-8.17272, 41.390872], [-8.168058, 41.378338], [-8.164499, 41.38059], [-8.160016, 41.379466], [-8.150152, 41.37339], [-8.139694, 41.377894], [-8.133418, 41.374292], [-8.125051, 41.375193], [-8.119672, 41.376768], [-8.119672, 41.378569], [-8.116683, 41.380148]], [[-8.697195, 41.487819], [-8.691847, 41.492516], [-8.68518, 41.495249], [-8.673191, 41.496967], [-8.661219, 41.495167], [-8.654933, 41.492411], [-8.643515, 41.483369], [-8.640456, 41.474352], [-8.642822, 41.465352], [-8.64944, 41.457912], [-8.661443, 41.452178], [-8.673421, 41.451141], [-8.685381, 41.453747], [-8.690583, 41.456483], [-8.700531, 41.465517], [-8.703459, 41.474532], [-8.701268, 41.483534], [-8.697195, 41.487819]], [[-8.445629, 41.48835], [-8.443154, 41.491581], [-8.433573, 41.497194], [-8.421576, 41.499016], [-8.409621, 41.496195], [-8.402026, 41.491375], [-8.397914, 41.482346], [-8.399634, 41.473347], [-8.409912, 41.464081], [-8.421918, 41.460519], [-8.433884, 41.461504], [-8.445794, 41.469025], [-8.448954, 41.473594], [-8.449462, 41.482604], [-8.445629, 41.48835]], [[-8.661832, 41.377156], [-8.649826, 41.38594], [-8.63785, 41.388821], [-8.625892, 41.388269], [-8.613955, 41.384322], [-8.601995, 41.375142], [-8.597188, 41.366118], [-8.59693, 41.35711], [-8.601313, 41.348117], [-8.613827, 41.339152], [-8.626189, 41.336429], [-8.638136, 41.337311], [-8.650063, 41.341856], [-8.658773, 41.348302], [-8.665009, 41.357328], [-8.666394, 41.36634], [-8.661832, 41.377156]], [[-8.710365, 41.219731], [-8.698419, 41.223169], [-8.686485, 41.223793], [-8.674564, 41.221908], [-8.658865, 41.213185], [-8.652316, 41.204158], [-8.649917, 41.195143], [-8.650739, 41.186137], [-8.655036, 41.177142], [-8.662906, 41.168748], [-8.674859, 41.162253], [-8.686791, 41.159577], [-8.698711, 41.159525], [-8.710619, 41.162104], [-8.722512, 41.168385], [-8.730815, 41.177344], [-8.734421, 41.186361], [-8.734335, 41.195368], [-8.730711, 41.204368], [-8.722372, 41.213356], [-8.710365, 41.219731]]]]}}, {"id": "4", "type": "Feature", "properties": {"fill": "#a3a3a3", "value_min": -0.25, "value_max": -0.0}, "geometry": {"type": "MultiPolygon", "coordinates": [[[[-8.52121, 41.660025], [-8.522103, 41.658811], [-8.525706, 41.659023], [-8.527769, 41.652714], [-8.534066, 41.652017], [-8.537355, 41.64998], [-8.537634, 41.646602], [-8.543876, 41.637352], [-8.543855, 41.633976], [-8.536342, 41.631977], [-8.535132, 41.630406], [-8.543431, 41.61462], [-8.554533, 41.615255], [-8.557244, 41.617046], [-8.562639, 41.61635], [-8.568056, 41.619031], [-8.570735, 41.616095], [-8.577321, 41.614269], [-8.581231, 41.615829], [-8.585766, 41.620988], [-8.591462, 41.620515], [-8.596534, 41.616668], [-8.601628, 41.615972], [-8.603996, 41.611686], [-8.613256, 41.606696], [-8.619881, 41.610269], [-8.621338, 41.604636], [-8.628833, 41.604378], [-8.636302, 41.600744], [-8.64075, 41.594422], [-8.645536, 41.593051], [-8.646744, 41.594171], [-8.649125, 41.591909], [-8.656622, 41.5921], [-8.660788, 41.588255], [-8.663794, 41.589141], [-8.665265, 41.585758], [-8.66948, 41.587989], [-8.684455, 41.586117], [-8.685608, 41.58071], [-8.697261, 41.576376], [-8.701703, 41.570277], [-8.707704, 41.570923], [-8.712485, 41.569323], [-8.716422, 41.573805], [-8.720316, 41.57356], [-8.725151, 41.577811], [-8.726633, 41.576003], [-8.734424, 41.575737], [-8.736564, 41.580228], [-8.738354, 41.579318], [-8.740778, 41.582006], [-8.74467, 41.581535], [-8.750711, 41.58623], [-8.75993, 41.578527], [-8.767441, 41.580286], [-8.769874, 41.583874], [-8.768997, 41.58613], [-8.773228, 41.589482], [-8.774165, 41.593303], [-8.78556, 41.593464], [-8.797327, 41.600599], [-8.804218, 41.600109], [-8.80456, 41.604158], [-8.808527, 41.610662], [-8.810935, 41.611548], [-8.828644, 41.609656], [-8.828233, 41.584954], [-8.792747, 41.575902], [-8.756811, 41.562634], [-8.708943, 41.539319], [-8.637235, 41.499366], [-8.613335, 41.488926], [-8.601375, 41.485772], [-8.5894, 41.485076], [-8.553432, 41.489762], [-8.541458, 41.488993], [-8.505584, 41.480555], [-8.493594, 41.482126], [-8.481579, 41.486852], [-8.457484, 41.503235], [-8.44545, 41.509402], [-8.4161, 41.518469], [-8.393314, 41.527358], [-8.373262, 41.539427], [-8.349176, 41.550278], [-8.337183, 41.550475], [-8.325253, 41.544676], [-8.31338, 41.533681], [-8.301601, 41.514283], [-8.289587, 41.481728], [-8.284678, 41.445667], [-8.278411, 41.444229], [-8.230529, 41.444016], [-8.206642, 41.439481], [-8.194726, 41.435125], [-8.170938, 41.423327], [-8.148549, 41.408711], [-8.126555, 41.390531], [-8.116683, 41.380148], [-8.117578, 41.386447], [-8.113992, 41.386896], [-8.112795, 41.390723], [-8.110105, 41.390947], [-8.108011, 41.393648], [-8.103827, 41.392972], [-8.105321, 41.394998], [-8.10263, 41.396123], [-8.10801, 41.398825], [-8.108606, 41.403102], [-8.104419, 41.406252], [-8.104119, 41.408728], [-8.101727, 41.409403], [-8.102025, 41.411204], [-8.092756, 41.411201], [-8.09126, 41.414352], [-8.079893, 41.41975], [-8.077503, 41.416597], [-8.070923, 41.41862], [-8.066739, 41.416142], [-8.061654, 41.417489], [-8.059852, 41.424916], [-8.055959, 41.429641], [-8.057444, 41.438195], [-8.062224, 41.440224], [-8.075046, 41.434258], [-8.087057, 41.431265], [-8.099039, 41.430261], [-8.122937, 41.433174], [-8.146752, 41.442539], [-8.158619, 41.450543], [-8.170356, 41.462915], [-8.175426, 41.471958], [-8.17731, 41.480979], [-8.176521, 41.489981], [-8.16993, 41.502364], [-8.157812, 41.512875], [-8.14578, 41.51658], [-8.133798, 41.516411], [-8.109889, 41.512052], [-8.0912, 41.510861], [-8.091196, 41.516767], [-8.089398, 41.519468], [-8.090594, 41.522169], [-8.093588, 41.52307], [-8.091786, 41.531848], [-8.097775, 41.536127], [-8.097774, 41.537927], [-8.106759, 41.543557], [-8.101666, 41.542655], [-8.094175, 41.544904], [-8.087885, 41.542876], [-8.083389, 41.5449], [-8.080687, 41.551651], [-8.074097, 41.549848], [-8.073494, 41.553449], [-8.075891, 41.554575], [-8.076188, 41.557276], [-8.079783, 41.558403], [-8.081576, 41.565157], [-8.078879, 41.56493], [-8.075279, 41.568305], [-8.073182, 41.568079], [-8.069283, 41.570553], [-8.068081, 41.573478], [-8.056684, 41.579549], [-8.052181, 41.584498], [-8.052777, 41.587649], [-8.037169, 41.600242], [-8.031467, 41.602938], [-8.02367, 41.603156], [-8.019174, 41.601802], [-8.005971, 41.60629], [-8.005668, 41.608304], [-8.024425, 41.617175], [-8.036311, 41.625031], [-8.056024, 41.642178], [-8.060818, 41.651224], [-8.059056, 41.669224], [-8.060297, 41.678241], [-8.067403, 41.687306], [-8.083288, 41.698427], [-8.095268, 41.701118], [-8.119306, 41.701057], [-8.123114, 41.696751], [-8.121184, 41.68773], [-8.127256, 41.678769], [-8.131698, 41.673271], [-8.143798, 41.666717], [-8.189782, 41.652205], [-8.231325, 41.634476], [-8.312727, 41.595264], [-8.324768, 41.591266], [-8.336785, 41.589374], [-8.360748, 41.592766], [-8.420583, 41.610296], [-8.44457, 41.612266], [-8.456543, 41.615682], [-8.468466, 41.625431], [-8.477756, 41.63586], [-8.490645, 41.644925], [-8.52121, 41.660025]], [[-8.083411, 41.689773], [-8.07286, 41.678343], [-8.075896, 41.66936], [-8.083789, 41.663092], [-8.095809, 41.662514], [-8.105774, 41.669597], [-8.107458, 41.678617], [-8.10029, 41.687568], [-8.095419, 41.690326], [-8.083411, 41.689773]], [[-8.084259, 41.629905], [-8.072358, 41.622672], [-8.068373, 41.615257], [-8.070904, 41.60627], [-8.084707, 41.598259], [-8.096697, 41.598914], [-8.107663, 41.606562], [-8.110154, 41.615588], [-8.104681, 41.624553], [-8.09627, 41.629545], [-8.084259, 41.629905]], [[-8.456981, 41.563438], [-8.444997, 41.56239], [-8.433065, 41.555414], [-8.428599, 41.545554], [-8.43214, 41.536564], [-8.445283, 41.528894], [-8.457273, 41.528494], [-8.469218, 41.533594], [-8.474089, 41.536764], [-8.478487, 41.545791], [-8.475632, 41.554785], [-8.469002, 41.560027], [-8.456981, 41.563438]], [[-8.624998, 41.543709], [-8.613022, 41.54144], [-8.607287, 41.537296], [-8.602666, 41.528272], [-8.606132, 41.519277], [-8.61318, 41.51485], [-8.625174, 41.513215], [-8.639443, 41.519386], [-8.64345, 41.528406], [-8.639777, 41.537402], [-8.637008, 41.539931], [-8.624998, 41.543709]]], [[[-8.275817, 41.324906], [-8.28255, 41.346571], [-8.287265, 41.373623], [-8.288724, 41.400655], [-8.286987, 41.436674], [-8.290394, 41.443099], [-8.374219, 41.440001], [-8.470152, 41.418984], [-8.487382, 41.410719], [-8.49729, 41.401755], [-8.503681, 41.392776], [-8.510685, 41.37479], [-8.521835, 41.320791], [-8.533823, 41.293817], [-8.542907, 41.282414], [-8.551887, 41.275874], [-8.57886, 41.262375], [-8.584812, 41.257981], [-8.590913, 41.239988], [-8.591292, 41.221973], [-8.587839, 41.212953], [-8.577177, 41.199687], [-8.57423, 41.20462], [-8.568566, 41.204416], [-8.565895, 41.206227], [-8.567697, 41.208246], [-8.566512, 41.209376], [-8.559636, 41.206251], [-8.554271, 41.20627], [-8.549521, 41.209214], [-8.544157, 41.209458], [-8.54238, 41.211265], [-8.533747, 41.213097], [-8.529858, 41.210859], [-8.52713, 41.203215], [-8.523236, 41.200077], [-8.51163, 41.203042], [-8.510456, 41.206197], [-8.505693, 41.207113], [-8.504239, 41.213646], [-8.500076, 41.21546], [-8.50308, 41.219502], [-8.502204, 41.222656], [-8.495642, 41.222227], [-8.495947, 41.223351], [-8.490894, 41.226294], [-8.487935, 41.230354], [-8.490331, 41.232373], [-8.489156, 41.235528], [-8.486181, 41.236888], [-8.484411, 41.240495], [-8.476346, 41.237818], [-8.475756, 41.23917], [-8.470986, 41.23941], [-8.471604, 41.243459], [-8.469227, 41.245267], [-8.463258, 41.244384], [-8.459989, 41.246644], [-8.454323, 41.246886], [-8.455541, 41.251834], [-8.452276, 41.25522], [-8.449891, 41.255452], [-8.449304, 41.257479], [-8.447812, 41.257258], [-8.449028, 41.261982], [-8.439785, 41.262907], [-8.438023, 41.268989], [-8.434745, 41.269673], [-8.432691, 41.277107], [-8.427032, 41.279372], [-8.429143, 41.284319], [-8.426171, 41.287028], [-8.426488, 41.291079], [-8.425013, 41.294909], [-8.422037, 41.296942], [-8.422647, 41.299867], [-8.407744, 41.304856], [-8.406262, 41.307335], [-8.403277, 41.307342], [-8.401801, 41.311398], [-8.399712, 41.311628], [-8.400316, 41.313202], [-8.396738, 41.314336], [-8.398834, 41.315906], [-8.397943, 41.317107], [-8.411173, 41.324475], [-8.425035, 41.338364], [-8.430171, 41.347397], [-8.433268, 41.365428], [-8.428176, 41.383418], [-8.421364, 41.392391], [-8.410477, 41.401636], [-8.398452, 41.408362], [-8.386446, 41.41281], [-8.374455, 41.415441], [-8.350521, 41.415662], [-8.331402, 41.409919], [-8.318295, 41.400834], [-8.311741, 41.391788], [-8.306477, 41.373741], [-8.307344, 41.355731], [-8.314981, 41.33678], [-8.312604, 41.334983], [-8.313794, 41.333405], [-8.31139, 41.328007], [-8.307502, 41.325762], [-8.305116, 41.326891], [-8.303024, 41.325994], [-8.303615, 41.323742], [-8.301216, 41.319694], [-8.296431, 41.316774], [-8.297618, 41.313846], [-8.296116, 41.310022], [-8.281801, 41.316569], [-8.279132, 41.324451], [-8.275817, 41.324906]]], [[[-7.727031, 41.804694], [-7.732733, 41.802016], [-7.740726, 41.801279], [-7.732791, 41.799099], [-7.7286, 41.792139], [-7.726201, 41.783105], [-7.73321, 41.777807], [-7.745202, 41.779876], [-7.74843, 41.78335], [-7.747105, 41.792342], [-7.756828, 41.800964], [-7.780951, 41.798358], [-7.829273, 41.788672], [-7.865439, 41.785195], [-7.89148, 41.784819], [-7.901515, 41.786718], [-7.911869, 41.794021], [-7.925226, 41.80816], [-7.937178, 41.813338], [-7.973246, 41.816501], [-7.986665, 41.821726], [-7.997459, 41.830827], [-8.003323, 41.839885], [-8.005356, 41.847346], [-8.007928, 41.838796], [-8.012753, 41.833624], [-8.013363, 41.829124], [-8.017873, 41.831379], [-8.02901, 41.829589], [-8.037134, 41.831171], [-8.041351, 41.828023], [-8.041054, 41.825097], [-8.045268, 41.824425], [-8.046775, 41.821951], [-8.056712, 41.81588], [-8.064534, 41.81701], [-8.067544, 41.815945], [-8.021664, 41.767988], [-8.017259, 41.758944], [-8.019507, 41.749956], [-8.022458, 41.747292], [-8.024915, 41.740995], [-8.024259, 41.731982], [-8.0108, 41.723222], [-7.998763, 41.724155], [-7.986671, 41.728577], [-7.962623, 41.728613], [-7.950564, 41.730788], [-7.938472, 41.734945], [-7.926324, 41.74236], [-7.918749, 41.749052], [-7.908404, 41.766968], [-7.894443, 41.775841], [-7.877572, 41.77952], [-7.853475, 41.781242], [-7.841461, 41.780177], [-7.821991, 41.775121], [-7.808476, 41.765975], [-7.801466, 41.756895], [-7.795753, 41.738822], [-7.796843, 41.729826], [-7.806466, 41.720593], [-7.818493, 41.72032], [-7.842479, 41.72353], [-7.856371, 41.721427], [-7.866684, 41.714441], [-7.870737, 41.703555], [-7.870007, 41.694541], [-7.864401, 41.684335], [-7.858987, 41.68639], [-7.857773, 41.689538], [-7.855076, 41.688181], [-7.852668, 41.689526], [-7.847538, 41.695365], [-7.837309, 41.699391], [-7.835792, 41.702763], [-7.839682, 41.705924], [-7.838465, 41.709522], [-7.832453, 41.710407], [-7.825252, 41.708813], [-7.818621, 41.713522], [-7.815291, 41.718689], [-7.808986, 41.717996], [-7.808396, 41.715744], [-7.804499, 41.714158], [-7.79939, 41.714593], [-7.79788, 41.716164], [-7.796383, 41.71526], [-7.790966, 41.717044], [-7.789449, 41.719966], [-7.78464, 41.720402], [-7.78252, 41.723546], [-7.776204, 41.724652], [-7.773786, 41.727346], [-7.7678, 41.723276], [-7.763888, 41.724389], [-7.761765, 41.727758], [-7.762933, 41.733839], [-7.759307, 41.737203], [-7.759597, 41.739005], [-7.75689, 41.739446], [-7.758687, 41.740577], [-7.757758, 41.745301], [-7.748417, 41.749321], [-7.747786, 41.754496], [-7.743866, 41.756509], [-7.740214, 41.763924], [-7.726937, 41.771755], [-7.7254, 41.777152], [-7.727191, 41.779184], [-7.724177, 41.780299], [-7.725372, 41.781653], [-7.722296, 41.792446], [-7.728879, 41.797871], [-7.727031, 41.804694]], [[-7.958676, 41.785448], [-7.958794, 41.794456], [-7.949449, 41.799207], [-7.937432, 41.79802], [-7.932497, 41.794215], [-7.931706, 41.7852], [-7.937701, 41.781713], [-7.949738, 41.781507], [-7.958676, 41.785448]], [[-7.938073, 41.759153], [-7.938097, 41.757717], [-7.950148, 41.756317], [-7.952488, 41.758371], [-7.950062, 41.761607], [-7.938073, 41.759153]]], [[[-7.936733, 41.594264], [-7.936733, 41.594264], [-7.937332, 41.594302], [-7.936733, 41.594264]]], [[[-7.982292, 41.600951], [-7.982292, 41.600951], [-7.982592, 41.601023], [-7.982292, 41.600951]]], [[[-7.982853, 41.601085], [-7.982853, 41.601085], [-7.983791, 41.60131], [-7.982853, 41.601085]]], [[[-7.989485, 41.602763], [-7.997276, 41.605462], [-7.996684, 41.602003], [-7.989485, 41.602763]]], [[[-8.314998, 41.336752], [-8.314998, 41.336752], [-8.315118, 41.336554], [-8.314998, 41.336752]]], [[[-8.331192, 41.763287], [-8.332199, 41.752199], [-8.330023, 41.743179], [-8.323295, 41.732093], [-8.311382, 41.721703], [-8.299411, 41.716912], [-8.287402, 41.71581], [-8.275359, 41.717773], [-8.263251, 41.725353], [-8.256462, 41.73372], [-8.252607, 41.742702], [-8.251676, 41.751703], [-8.253563, 41.760722], [-8.261761, 41.773832], [-8.269568, 41.76905], [-8.271366, 41.766346], [-8.280681, 41.764083], [-8.284038, 41.761109], [-8.284931, 41.757507], [-8.287033, 41.756829], [-8.298457, 41.757263], [-8.300866, 41.758835], [-8.305674, 41.758152], [-8.311096, 41.762195], [-8.318308, 41.761283], [-8.325233, 41.765098], [-8.331192, 41.763287]]], [[[-8.213178, 41.70641], [-8.216461, 41.706433], [-8.229579, 41.697514], [-8.229007, 41.688504], [-8.215708, 41.680144], [-8.203674, 41.681687], [-8.197567, 41.688288], [-8.196192, 41.697286], [-8.203389, 41.704841], [-8.213178, 41.70641]]], [[[-8.802804, 41.223238], [-8.723322, 41.240382], [-8.638594, 41.254368], [-8.621757, 41.258109], [-8.605196, 41.267061], [-8.605557, 41.27607], [-8.621191, 41.294138], [-8.721673, 41.366328], [-8.733601, 41.373152], [-8.757482, 41.382872], [-8.809657, 41.397158], [-8.802804, 41.223238]], [[-8.721818, 41.332046], [-8.709878, 41.329687], [-8.697949, 41.325169], [-8.680155, 41.312332], [-8.673766, 41.303307], [-8.670987, 41.294291], [-8.672209, 41.285287], [-8.677976, 41.276295], [-8.686264, 41.270048], [-8.698228, 41.264689], [-8.710179, 41.261907], [-8.734056, 41.261424], [-8.756335, 41.26748], [-8.769461, 41.276515], [-8.776155, 41.285536], [-8.778578, 41.294548], [-8.777789, 41.303555], [-8.773525, 41.312554], [-8.764636, 41.321544], [-8.757694, 41.325714], [-8.744572, 41.330509], [-8.733768, 41.33227], [-8.721818, 41.332046]]]]}}, {"id": "6", "type": "Feature", "properties": {"fill": "#a3a3a3", "value_min": 0.25, "value_max": -0.5}, "geometry": {"type": "MultiPolygon", "coordinates": [[[[-7.896189, 41.859653], [-7.912467, 41.850693], [-7.924553, 41.848336], [-7.936491, 41.854879], [-7.948505, 41.856871], [-7.96061, 41.853337], [-7.965605, 41.848558], [-7.967657, 41.83957], [-7.960964, 41.831454], [-7.94897, 41.828518], [-7.937535, 41.830288], [-7.924742, 41.837096], [-7.906977, 41.802981], [-7.90133, 41.79754], [-7.889412, 41.790684], [-7.877412, 41.788705], [-7.865371, 41.789023], [-7.843308, 41.793351], [-7.826295, 41.802185], [-7.818662, 41.811114], [-7.815542, 41.820088], [-7.815463, 41.829094], [-7.81826, 41.83813], [-7.824325, 41.847199], [-7.840035, 41.859219], [-7.848307, 41.862249], [-7.858542, 41.862622], [-7.859456, 41.860148], [-7.864877, 41.859711], [-7.87033, 41.851395], [-7.873043, 41.850501], [-7.873066, 41.844875], [-7.879956, 41.853217], [-7.888076, 41.855486], [-7.891675, 41.859094], [-7.896189, 41.859653]], [[-7.876439, 41.844353], [-7.864385, 41.844902], [-7.852391, 41.842018], [-7.840491, 41.833992], [-7.836491, 41.829309], [-7.833035, 41.820267], [-7.834096, 41.811271], [-7.841221, 41.802337], [-7.853215, 41.795818], [-7.865304, 41.792849], [-7.877339, 41.79285], [-7.88931, 41.796582], [-7.897612, 41.802892], [-7.902312, 41.811944], [-7.902953, 41.820957], [-7.89907, 41.829926], [-7.888568, 41.839552], [-7.876439, 41.844353]]], [[[-8.095604, 41.677143], [-8.08358, 41.677888], [-8.083211, 41.678426], [-8.09557, 41.679598], [-8.095604, 41.677143]]], [[[-8.134062, 41.496618], [-8.143007, 41.489736], [-8.146073, 41.480752], [-8.143903, 41.471728], [-8.13526, 41.462656], [-8.12261, 41.457395], [-8.110647, 41.456645], [-8.098632, 41.45966], [-8.09397, 41.462338], [-8.085682, 41.47128], [-8.084142, 41.480275], [-8.088627, 41.489318], [-8.098136, 41.495475], [-8.110063, 41.499364], [-8.122037, 41.499928], [-8.134062, 41.496618]]], [[[-8.374601, 41.400198], [-8.391921, 41.392239], [-8.400274, 41.383276], [-8.403858, 41.374287], [-8.403628, 41.365278], [-8.398939, 41.355448], [-8.387082, 41.345088], [-8.375172, 41.34055], [-8.363232, 41.339336], [-8.351265, 41.340886], [-8.33926, 41.346144], [-8.329087, 41.35586], [-8.324818, 41.364842], [-8.32404, 41.373845], [-8.326651, 41.382868], [-8.33876, 41.395484], [-8.350675, 41.400259], [-8.362624, 41.40164], [-8.374601, 41.400198]], [[-8.36275, 41.388728], [-8.350815, 41.386118], [-8.346332, 41.382982], [-8.341682, 41.373948], [-8.344953, 41.364959], [-8.351076, 41.359932], [-8.363058, 41.357175], [-8.374981, 41.360582], [-8.380255, 41.365154], [-8.383122, 41.374177], [-8.378305, 41.383159], [-8.374741, 41.385606], [-8.36275, 41.388728]]], [[[-8.733886, 41.294454], [-8.725342, 41.285426], [-8.722022, 41.284092], [-8.710079, 41.284429], [-8.70056, 41.294372], [-8.704483, 41.30339], [-8.70998, 41.306807], [-8.721923, 41.307425], [-8.729897, 41.303452], [-8.733886, 41.294454]]]]}}, {"id": "7", "type": "Feature", "properties": {"fill": "#a3a3a3", "value_min": 0.5, "value_max": -0.75}, "geometry": {"type": "MultiPolygon", "coordinates": [[[[-7.876439, 41.844353], [-7.888568, 41.839552], [-7.89907, 41.829926], [-7.902953, 41.820957], [-7.902312, 41.811944], [-7.897612, 41.802892], [-7.88931, 41.796582], [-7.877339, 41.79285], [-7.865304, 41.792849], [-7.853215, 41.795818], [-7.841221, 41.802337], [-7.834096, 41.811271], [-7.833035, 41.820267], [-7.836491, 41.829309], [-7.840491, 41.833992], [-7.852391, 41.842018], [-7.864385, 41.844902], [-7.876439, 41.844353]], [[-7.864571, 41.834357], [-7.852575, 41.829471], [-7.844835, 41.820387], [-7.844317, 41.811375], [-7.85312, 41.801185], [-7.865234, 41.796806], [-7.877269, 41.796859], [-7.889903, 41.802818], [-7.895308, 41.811877], [-7.894072, 41.820871], [-7.888775, 41.827537], [-7.876621, 41.833952], [-7.864571, 41.834357]]], [[[-8.36275, 41.388728], [-8.374741, 41.385606], [-8.378305, 41.383159], [-8.383122, 41.374177], [-8.380255, 41.365154], [-8.374981, 41.360582], [-8.363058, 41.357175], [-8.351076, 41.359932], [-8.344953, 41.364959], [-8.341682, 41.373948], [-8.346332, 41.382982], [-8.350815, 41.386118], [-8.36275, 41.388728]]]]}}, {"id": "5", "type": "Feature", "properties": {"fill": "#a3a3a3", "value_min": 0.0, "value_max": -0.25}, "geometry": {"type": "MultiPolygon", "coordinates": [[[[-8.005356, 41.847346], [-8.003323, 41.839885], [-7.997459, 41.830827], [-7.986665, 41.821726], [-7.973246, 41.816501], [-7.937178, 41.813338], [-7.925226, 41.80816], [-7.911869, 41.794021], [-7.901515, 41.786718], [-7.89148, 41.784819], [-7.865439, 41.785195], [-7.829273, 41.788672], [-7.780951, 41.798358], [-7.756828, 41.800964], [-7.747105, 41.792342], [-7.74843, 41.78335], [-7.745202, 41.779876], [-7.73321, 41.777807], [-7.726201, 41.783105], [-7.7286, 41.792139], [-7.732791, 41.799099], [-7.740726, 41.801279], [-7.732733, 41.802016], [-7.727031, 41.804694], [-7.72995, 41.819031], [-7.73594, 41.823554], [-7.74345, 41.825605], [-7.738918, 41.82874], [-7.742196, 41.833928], [-7.74729, 41.837772], [-7.746349, 41.84407], [-7.750246, 41.846784], [-7.750532, 41.849261], [-7.743309, 41.849012], [-7.746901, 41.8524], [-7.746881, 41.855776], [-7.73843, 41.859348], [-7.734159, 41.868337], [-7.730228, 41.871024], [-7.729293, 41.875972], [-7.720533, 41.880218], [-7.720523, 41.881793], [-7.725335, 41.882935], [-7.726208, 41.887665], [-7.737044, 41.888828], [-7.73944, 41.891087], [-7.74246, 41.889747], [-7.742785, 41.885922], [-7.756022, 41.888441], [-7.758719, 41.890926], [-7.756592, 41.89407], [-7.758076, 41.897901], [-7.764097, 41.898595], [-7.779227, 41.886264], [-7.785257, 41.885157], [-7.788886, 41.882467], [-7.794007, 41.882257], [-7.796739, 41.878214], [-7.794349, 41.87438], [-7.797064, 41.873488], [-7.803381, 41.874857], [-7.804914, 41.869459], [-7.813032, 41.871958], [-7.814229, 41.873537], [-7.823863, 41.874013], [-7.825059, 41.875817], [-7.830479, 41.875831], [-7.830789, 41.874031], [-7.832894, 41.874712], [-7.83772, 41.872924], [-7.842528, 41.875187], [-7.841663, 41.866632], [-7.848307, 41.862249], [-7.840035, 41.859219], [-7.824325, 41.847199], [-7.81826, 41.83813], [-7.815463, 41.829094], [-7.815542, 41.820088], [-7.818662, 41.811114], [-7.826295, 41.802185], [-7.843308, 41.793351], [-7.865371, 41.789023], [-7.877412, 41.788705], [-7.889412, 41.790684], [-7.90133, 41.79754], [-7.906977, 41.802981], [-7.924742, 41.837096], [-7.937535, 41.830288], [-7.94897, 41.828518], [-7.960964, 41.831454], [-7.967657, 41.83957], [-7.965605, 41.848558], [-7.96061, 41.853337], [-7.948505, 41.856871], [-7.936491, 41.854879], [-7.924553, 41.848336], [-7.912467, 41.850693], [-7.896189, 41.859653], [-7.900698, 41.861588], [-7.904318, 41.859795], [-7.907309, 41.865203], [-7.906095, 41.868126], [-7.910299, 41.871285], [-7.909985, 41.875111], [-7.915391, 41.879397], [-7.921118, 41.877833], [-7.928044, 41.87807], [-7.935283, 41.874707], [-7.937389, 41.87516], [-7.941618, 41.870891], [-7.951254, 41.871132], [-7.956367, 41.87339], [-7.956362, 41.875191], [-7.960878, 41.875648], [-7.96299, 41.874075], [-7.972322, 41.875439], [-7.987996, 41.869157], [-7.990123, 41.860157], [-7.995547, 41.858138], [-7.994047, 41.855211], [-7.996162, 41.851837], [-8.003089, 41.850494], [-8.005356, 41.847346]]], [[[-7.938073, 41.759153], [-7.950062, 41.761607], [-7.952488, 41.758371], [-7.950148, 41.756317], [-7.938097, 41.757717], [-7.938073, 41.759153]]], [[[-8.083411, 41.689773], [-8.095419, 41.690326], [-8.10029, 41.687568], [-8.107458, 41.678617], [-8.105774, 41.669597], [-8.095809, 41.662514], [-8.083789, 41.663092], [-8.075896, 41.66936], [-8.07286, 41.678343], [-8.083411, 41.689773]], [[-8.095604, 41.677143], [-8.09557, 41.679598], [-8.083211, 41.678426], [-8.08358, 41.677888], [-8.095604, 41.677143]]], [[[-8.084259, 41.629905], [-8.09627, 41.629545], [-8.104681, 41.624553], [-8.110154, 41.615588], [-8.107663, 41.606562], [-8.096697, 41.598914], [-8.084707, 41.598259], [-8.070904, 41.60627], [-8.068373, 41.615257], [-8.072358, 41.622672], [-8.084259, 41.629905]]], [[[-8.456981, 41.563438], [-8.469002, 41.560027], [-8.475632, 41.554785], [-8.478487, 41.545791], [-8.474089, 41.536764], [-8.469218, 41.533594], [-8.457273, 41.528494], [-8.445283, 41.528894], [-8.43214, 41.536564], [-8.428599, 41.545554], [-8.433065, 41.555414], [-8.444997, 41.56239], [-8.456981, 41.563438]]], [[[-8.624998, 41.543709], [-8.637008, 41.539931], [-8.639777, 41.537402], [-8.64345, 41.528406], [-8.639443, 41.519386], [-8.625174, 41.513215], [-8.61318, 41.51485], [-8.606132, 41.519277], [-8.602666, 41.528272], [-8.607287, 41.537296], [-8.613022, 41.54144], [-8.624998, 41.543709]]], [[[-8.0912, 41.510861], [-8.109889, 41.512052], [-8.133798, 41.516411], [-8.14578, 41.51658], [-8.157812, 41.512875], [-8.16993, 41.502364], [-8.176521, 41.489981], [-8.17731, 41.480979], [-8.175426, 41.471958], [-8.170356, 41.462915], [-8.158619, 41.450543], [-8.146752, 41.442539], [-8.122937, 41.433174], [-8.099039, 41.430261], [-8.087057, 41.431265], [-8.075046, 41.434258], [-8.062224, 41.440224], [-8.064916, 41.444052], [-8.067908, 41.444279], [-8.069999, 41.447206], [-8.068788, 41.462286], [-8.073872, 41.46499], [-8.074468, 41.468141], [-8.073564, 41.474668], [-8.066374, 41.482318], [-8.066069, 41.48817], [-8.072054, 41.490199], [-8.07175, 41.494925], [-8.078333, 41.49898], [-8.078332, 41.500331], [-8.093, 41.504613], [-8.0912, 41.510861]], [[-8.134062, 41.496618], [-8.122037, 41.499928], [-8.110063, 41.499364], [-8.098136, 41.495475], [-8.088627, 41.489318], [-8.084142, 41.480275], [-8.085682, 41.47128], [-8.09397, 41.462338], [-8.098632, 41.45966], [-8.110647, 41.456645], [-8.12261, 41.457395], [-8.13526, 41.462656], [-8.143903, 41.471728], [-8.146073, 41.480752], [-8.143007, 41.489736], [-8.134062, 41.496618]]], [[[-8.314981, 41.33678], [-8.307344, 41.355731], [-8.306477, 41.373741], [-8.311741, 41.391788], [-8.318295, 41.400834], [-8.331402, 41.409919], [-8.350521, 41.415662], [-8.374455, 41.415441], [-8.386446, 41.41281], [-8.398452, 41.408362], [-8.410477, 41.401636], [-8.421364, 41.392391], [-8.428176, 41.383418], [-8.433268, 41.365428], [-8.430171, 41.347397], [-8.425035, 41.338364], [-8.411173, 41.324475], [-8.397943, 41.317107], [-8.393775, 41.31997], [-8.393489, 41.323122], [-8.391105, 41.324253], [-8.386027, 41.323814], [-8.380382, 41.331254], [-8.375305, 41.33104], [-8.37201, 41.328346], [-8.361563, 41.329718], [-8.358276, 41.329049], [-8.357673, 41.327249], [-8.350207, 41.327264], [-8.346032, 41.328847], [-8.342462, 41.333131], [-8.333215, 41.336299], [-8.326363, 41.342163], [-8.324568, 41.341041], [-8.323376, 41.341943], [-8.316788, 41.335876], [-8.315118, 41.336554], [-8.314998, 41.336752], [-8.314981, 41.33678]], [[-8.374601, 41.400198], [-8.362624, 41.40164], [-8.350675, 41.400259], [-8.33876, 41.395484], [-8.326651, 41.382868], [-8.32404, 41.373845], [-8.324818, 41.364842], [-8.329087, 41.35586], [-8.33926, 41.346144], [-8.351265, 41.340886], [-8.363232, 41.339336], [-8.375172, 41.34055], [-8.387082, 41.345088], [-8.398939, 41.355448], [-8.403628, 41.365278], [-8.403858, 41.374287], [-8.400274, 41.383276], [-8.391921, 41.392239], [-8.374601, 41.400198]]], [[[-8.721818, 41.332046], [-8.733768, 41.33227], [-8.744572, 41.330509], [-8.757694, 41.325714], [-8.764636, 41.321544], [-8.773525, 41.312554], [-8.777789, 41.303555], [-8.778578, 41.294548], [-8.776155, 41.285536], [-8.769461, 41.276515], [-8.756335, 41.26748], [-8.734056, 41.261424], [-8.710179, 41.261907], [-8.698228, 41.264689], [-8.686264, 41.270048], [-8.677976, 41.276295], [-8.672209, 41.285287], [-8.670987, 41.294291], [-8.673766, 41.303307], [-8.680155, 41.312332], [-8.697949, 41.325169], [-8.709878, 41.329687], [-8.721818, 41.332046]], [[-8.733886, 41.294454], [-8.729897, 41.303452], [-8.721923, 41.307425], [-8.70998, 41.306807], [-8.704483, 41.30339], [-8.70056, 41.294372], [-8.710079, 41.284429], [-8.722022, 41.284092], [-8.725342, 41.285426], [-8.733886, 41.294454]]]]}}, {"id": "1", "type": "Feature", "properties": {"fill": "#a3a3a3", "value_min": -1.0, "value_max": -0.75}, "geometry": {"type": "MultiPolygon", "coordinates": [[[[-7.865676, 41.771727], [-7.8792, 41.766686], [-7.883798, 41.757724], [-7.878132, 41.747366], [-7.866183, 41.742945], [-7.854126, 41.744706], [-7.847607, 41.74836], [-7.842348, 41.757314], [-7.846373, 41.766361], [-7.853672, 41.77021], [-7.865676, 41.771727]], [[-7.853877, 41.758665], [-7.853915, 41.756565], [-7.866025, 41.751931], [-7.872875, 41.757618], [-7.865773, 41.766257], [-7.853877, 41.758665]]], [[[-8.166578, 41.76311], [-8.178624, 41.761897], [-8.18186, 41.760234], [-8.192219, 41.7513], [-8.193562, 41.742302], [-8.18753, 41.733253], [-8.179057, 41.727892], [-8.161078, 41.724056], [-8.15466, 41.705995], [-8.143361, 41.699714], [-8.131315, 41.701796], [-8.126834, 41.705787], [-8.12185, 41.714756], [-8.126979, 41.723802], [-8.130966, 41.72768], [-8.144334, 41.732939], [-8.14403, 41.741944], [-8.146338, 41.750968], [-8.154602, 41.758974], [-8.166578, 41.76311]], [[-8.129935, 41.714817], [-8.131218, 41.708938], [-8.141146, 41.714902], [-8.13112, 41.71623], [-8.129935, 41.714817]]], [[[-7.890584, 41.721763], [-7.90274, 41.714864], [-7.902776, 41.712749], [-7.890759, 41.712502], [-7.890584, 41.721763]]], [[[-8.047068, 41.709708], [-8.059092, 41.709421], [-8.061747, 41.705274], [-8.059198, 41.702136], [-8.047199, 41.700787], [-8.043304, 41.705122], [-8.047068, 41.709708]]], [[[-8.196549, 41.376074], [-8.195777, 41.382028], [-8.200535, 41.391069], [-8.20717, 41.3961], [-8.219083, 41.400222], [-8.231054, 41.39949], [-8.243088, 41.393369], [-8.249213, 41.382389], [-8.247819, 41.373372], [-8.244248, 41.368384], [-8.238301, 41.371316], [-8.232024, 41.369971], [-8.224854, 41.370878], [-8.21738, 41.368182], [-8.211712, 41.376065], [-8.200657, 41.377648], [-8.196549, 41.376074]]], [[[-8.244087, 41.368159], [-8.244087, 41.368159], [-8.243972, 41.368], [-8.244087, 41.368159]]]]}}, {"id": "0", "type": "Feature", "properties": {"fill": "#b6a27f", "value_min": -1.25, "value_max": -1.0}, "geometry": {"type": "MultiPolygon", "coordinates": [[[[-7.853877, 41.758665], [-7.865773, 41.766257], [-7.872875, 41.757618], [-7.866025, 41.751931], [-7.853915, 41.756565], [-7.853877, 41.758665]]], [[[-8.129935, 41.714817], [-8.13112, 41.71623], [-8.141146, 41.714902], [-8.131218, 41.708938], [-8.129935, 41.714817]]]]}}, {"id": "10", "type": "Feature", "properties": {"fill": "#71a5e5", "value_min": 1.25, "value_max": -1.5}, "geometry": {"type": "Polygon", "coordinates": [[[-7.87709, 41.807145], [-7.865046, 41.807457], [-7.861013, 41.811542], [-7.86486, 41.817991], [-7.876892, 41.818476], [-7.881117, 41.811739], [-7.87709, 41.807145]]]}}, {"id": "9", "type": "Feature", "properties": {"fill": "#90a4bc", "value_min": 1.0, "value_max": -1.25}, "geometry": {"type": "Polygon", "coordinates": [[[-7.888661, 41.811812], [-7.881257, 41.802734], [-7.8772, 41.800834], [-7.865164, 41.800793], [-7.860685, 41.802532], [-7.852545, 41.811457], [-7.8553, 41.820492], [-7.864711, 41.826408], [-7.876755, 41.826298], [-7.88513, 41.820785], [-7.888661, 41.811812]], [[-7.87709, 41.807145], [-7.881117, 41.811739], [-7.876892, 41.818476], [-7.86486, 41.817991], [-7.861013, 41.811542], [-7.865046, 41.807457], [-7.87709, 41.807145]]]}}, {"id": "8", "type": "Feature", "properties": {"fill": "#a3a3a3", "value_min": 0.75, "value_max": -1.0}, "geometry": {"type": "Polygon", "coordinates": [[[-7.864571, 41.834357], [-7.876621, 41.833952], [-7.888775, 41.827537], [-7.894072, 41.820871], [-7.895308, 41.811877], [-7.889903, 41.802818], [-7.877269, 41.796859], [-7.865234, 41.796806], [-7.85312, 41.801185], [-7.844317, 41.811375], [-7.844835, 41.820387], [-7.852575, 41.829471], [-7.864571, 41.834357]], [[-7.888661, 41.811812], [-7.88513, 41.820785], [-7.876755, 41.826298], [-7.864711, 41.826408], [-7.8553, 41.820492], [-7.852545, 41.811457], [-7.860685, 41.802532], [-7.865164, 41.800793], [-7.8772, 41.800834], [-7.881257, 41.802734], [-7.888661, 41.811812]]]}}]}