{"type": "FeatureCollection", "features": [{"id": "0", "type": "Feature", "properties": {"fill": "#e19f31", "value_min": -1.5, "value_max": -1.25}, "geometry": {"type": "Polygon", "coordinates": [[[-8.529856, 41.21053], [-8.527235, 41.221728], [-8.531331, 41.23133], [-8.543202, 41.240119], [-8.555118, 41.242688], [-8.567059, 41.24167], [-8.579032, 41.235645], [-8.583651, 41.230954], [-8.587162, 41.221959], [-8.585699, 41.212945], [-8.579235, 41.203974], [-8.575606, 41.202139], [-8.57423, 41.20462], [-8.568566, 41.204416], [-8.565895, 41.206227], [-8.567697, 41.208246], [-8.566512, 41.209376], [-8.559636, 41.206251], [-8.554271, 41.20627], [-8.549521, 41.209214], [-8.544157, 41.209458], [-8.537023, 41.212635], [-8.532257, 41.213102], [-8.529856, 41.21053]]]}}, {"id": "8", "type": "Feature", "properties": {"fill": "#a3a3a3", "value_min": 0.5, "value_max": -0.75}, "geometry": {"type": "Polygon", "coordinates": [[[-8.386654, 41.390657], [-8.393697, 41.383241], [-8.396701, 41.374249], [-8.395366, 41.365235], [-8.386994, 41.354488], [-8.375097, 41.348439], [-8.363161, 41.346672], [-8.351191, 41.348332], [-8.339176, 41.354455], [-8.331279, 41.36488], [-8.329722, 41.373879], [-8.332403, 41.382902], [-8.338812, 41.390384], [-8.35071, 41.396728], [-8.362655, 41.398447], [-8.374634, 41.396758], [-8.386654, 41.390657]], [[-8.358381, 41.38305], [-8.350893, 41.37835], [-8.348613, 41.373987], [-8.350988, 41.368781], [-8.356499, 41.365024], [-8.362998, 41.363371], [-8.368213, 41.365089], [-8.376025, 41.374139], [-8.366369, 41.383094], [-8.362795, 41.384119], [-8.358381, 41.38305]]]}}, {"id": "9", "type": "Feature", "properties": {"fill": "#a3a3a3", "value_min": 0.75, "value_max": -1.0}, "geometry": {"type": "Polygon", "coordinates": [[[-8.358381, 41.38305], [-8.362795, 41.384119], [-8.366369, 41.383094], [-8.376025, 41.374139], [-8.368213, 41.365089], [-8.362998, 41.363371], [-8.356499, 41.365024], [-8.350988, 41.368781], [-8.348613, 41.373987], [-8.350893, 41.37835], [-8.358381, 41.38305]]]}}, {"id": "7", "type": "Feature", "properties": {"fill": "#a3a3a3", "value_min": 0.25, "value_max": -0.5}, "geometry": {"type": "MultiPolygon", "coordinates": [[[[-8.361711, 41.494836], [-8.364419, 41.491173], [-8.36475, 41.482167], [-8.357433, 41.473119], [-8.349989, 41.469042], [-8.33802, 41.468384], [-8.325988, 41.473837], [-8.320389, 41.481914], [-8.320588, 41.490922], [-8.328659, 41.499977], [-8.337661, 41.503669], [-8.349648, 41.503101], [-8.355878, 41.500133], [-8.361711, 41.494836]]], [[[-8.685199, 41.491343], [-8.694974, 41.483517], [-8.69718, 41.474515], [-8.693302, 41.465498], [-8.685353, 41.459445], [-8.675128, 41.45644], [-8.661418, 41.457045], [-8.647837, 41.465367], [-8.644389, 41.474364], [-8.647228, 41.483381], [-8.661232, 41.492793], [-8.673205, 41.494202], [-8.685199, 41.491343]]], [[[-8.325765, 41.341987], [-8.31584, 41.355782], [-8.313207, 41.364774], [-8.31449, 41.382796], [-8.318508, 41.391828], [-8.326735, 41.401605], [-8.33862, 41.409281], [-8.350542, 41.413555], [-8.362494, 41.414958], [-8.374468, 41.414057], [-8.386466, 41.410605], [-8.403581, 41.401308], [-8.412384, 41.392346], [-8.417559, 41.383364], [-8.419618, 41.374367], [-8.419186, 41.365357], [-8.41611, 41.356334], [-8.409748, 41.347294], [-8.398987, 41.338231], [-8.387202, 41.332265], [-8.380678, 41.330587], [-8.375305, 41.33104], [-8.373506, 41.329055], [-8.365802, 41.328359], [-8.362758, 41.329715], [-8.357976, 41.328701], [-8.344845, 41.33125], [-8.338885, 41.334938], [-8.334318, 41.335847], [-8.334109, 41.33597], [-8.333936, 41.336072], [-8.333811, 41.336146], [-8.333554, 41.336298], [-8.333215, 41.336498], [-8.333172, 41.336524], [-8.332917, 41.336674], [-8.33279, 41.33675], [-8.332619, 41.336851], [-8.328595, 41.339458], [-8.328446, 41.339561], [-8.328268, 41.339684], [-8.328148, 41.339766], [-8.327614, 41.340135], [-8.327552, 41.340178], [-8.327314, 41.340361], [-8.327254, 41.340424], [-8.327099, 41.340586], [-8.326956, 41.340736], [-8.326885, 41.340812], [-8.326361, 41.341362], [-8.325765, 41.341987]], [[-8.386654, 41.390657], [-8.374634, 41.396758], [-8.362655, 41.398447], [-8.35071, 41.396728], [-8.338812, 41.390384], [-8.332403, 41.382902], [-8.329722, 41.373879], [-8.331279, 41.36488], [-8.339176, 41.354455], [-8.351191, 41.348332], [-8.363161, 41.346672], [-8.375097, 41.348439], [-8.386994, 41.354488], [-8.395366, 41.365235], [-8.396701, 41.374249], [-8.393697, 41.383241], [-8.386654, 41.390657]]]]}}, {"id": "3", "type": "Feature", "properties": {"fill": "#a3a3a3", "value_min": -0.75, "value_max": -0.5}, "geometry": {"type": "MultiPolygon", "coordinates": [[[[-8.007467, 41.841721], [-8.002139, 41.830868], [-7.992129, 41.821774], [-7.985263, 41.817989], [-7.973281, 41.8143], [-7.961257, 41.813321], [-7.937146, 41.815284], [-7.92502, 41.820477], [-7.915375, 41.830081], [-7.906795, 41.848013], [-7.905842, 41.857011], [-7.907276, 41.865203], [-7.907309, 41.865389], [-7.910184, 41.871285], [-7.910299, 41.871503], [-7.916508, 41.879174], [-7.928044, 41.87807], [-7.935283, 41.874707], [-7.937389, 41.87516], [-7.941618, 41.870891], [-7.951254, 41.871132], [-7.956367, 41.87339], [-7.956362, 41.875191], [-7.960576, 41.875647], [-7.962086, 41.874074], [-7.97202, 41.875439], [-7.975637, 41.874543], [-7.987996, 41.869157], [-7.990123, 41.860157], [-7.995547, 41.858138], [-7.994047, 41.855211], [-7.996765, 41.851162], [-8.00339, 41.85027], [-8.007467, 41.841721]], [[-7.948396, 41.863548], [-7.936408, 41.859888], [-7.933101, 41.857268], [-7.926397, 41.848198], [-7.92622, 41.83919], [-7.932287, 41.83024], [-7.936949, 41.827216], [-7.949043, 41.82401], [-7.961065, 41.825205], [-7.971986, 41.830602], [-7.978245, 41.839665], [-7.977641, 41.848666], [-7.970206, 41.857606], [-7.960461, 41.862549], [-7.948396, 41.863548]]], [[[-7.727962, 41.800128], [-7.732743, 41.801492], [-7.7448, 41.800474], [-7.759153, 41.792473], [-7.763686, 41.783515], [-7.762433, 41.774495], [-7.757454, 41.76855], [-7.745541, 41.762484], [-7.741427, 41.762193], [-7.726937, 41.771755], [-7.7254, 41.777152], [-7.727191, 41.779184], [-7.724177, 41.780299], [-7.725372, 41.781653], [-7.722296, 41.792446], [-7.728581, 41.79742], [-7.727962, 41.800128]]], [[[-7.899949, 41.766887], [-7.901091, 41.757891], [-7.897189, 41.748847], [-7.878305, 41.737451], [-7.866368, 41.732441], [-7.854397, 41.729435], [-7.8424, 41.727942], [-7.830346, 41.729623], [-7.818248, 41.7337], [-7.810443, 41.738975], [-7.804352, 41.747918], [-7.802837, 41.756909], [-7.806706, 41.765956], [-7.817025, 41.77507], [-7.829427, 41.780242], [-7.841416, 41.7827], [-7.865479, 41.782921], [-7.877544, 41.781132], [-7.891916, 41.775817], [-7.899949, 41.766887]], [[-7.865624, 41.774686], [-7.853609, 41.773747], [-7.840784, 41.766305], [-7.837785, 41.757268], [-7.843883, 41.748323], [-7.854144, 41.743649], [-7.866177, 41.743294], [-7.878119, 41.748128], [-7.885139, 41.757737], [-7.88255, 41.766719], [-7.877729, 41.770501], [-7.865624, 41.774686]]], [[[-8.236376, 41.69756], [-8.23534, 41.688546], [-8.22772, 41.680345], [-8.215761, 41.675774], [-8.203739, 41.676432], [-8.191643, 41.683038], [-8.187123, 41.688215], [-8.185563, 41.697211], [-8.191352, 41.706272], [-8.203293, 41.712601], [-8.215302, 41.71351], [-8.231055, 41.706531], [-8.236376, 41.69756]]], [[[-8.097016, 41.669528], [-8.083721, 41.66793], [-8.080395, 41.669396], [-8.074831, 41.678359], [-8.083444, 41.687427], [-8.095473, 41.686534], [-8.102687, 41.67858], [-8.097016, 41.669528]]], [[[-8.035552, 41.675965], [-8.04723, 41.669126], [-8.052706, 41.660164], [-8.047955, 41.649511], [-8.036093, 41.639684], [-8.024143, 41.63591], [-8.012135, 41.636036], [-8.000056, 41.640712], [-7.991073, 41.650633], [-7.990242, 41.659633], [-7.994874, 41.66868], [-8.0115, 41.677569], [-8.023498, 41.678583], [-8.035552, 41.675965]], [[-8.023658, 41.668033], [-8.012613, 41.659827], [-8.02392, 41.650664], [-8.036259, 41.660028], [-8.023658, 41.668033]]], [[[-8.660861, 41.56385], [-8.669186, 41.555505], [-8.672871, 41.546508], [-8.672874, 41.537501], [-8.669793, 41.528485], [-8.662333, 41.519456], [-8.650493, 41.510413], [-8.625253, 41.499551], [-8.61328, 41.498068], [-8.601287, 41.500053], [-8.589265, 41.506414], [-8.58472, 41.510194], [-8.578894, 41.51918], [-8.576704, 41.52818], [-8.579814, 41.546206], [-8.588938, 41.558181], [-8.600879, 41.566478], [-8.612845, 41.571067], [-8.624829, 41.572849], [-8.636825, 41.572646], [-8.648834, 41.570145], [-8.660861, 41.56385]], [[-8.624947, 41.55249], [-8.612969, 41.550375], [-8.601024, 41.542938], [-8.596346, 41.537258], [-8.593754, 41.528241], [-8.596082, 41.519242], [-8.606383, 41.51027], [-8.613223, 41.507625], [-8.625209, 41.507152], [-8.637172, 41.510612], [-8.649053, 41.519416], [-8.653747, 41.528437], [-8.652879, 41.537442], [-8.645135, 41.546426], [-8.636947, 41.550816], [-8.624947, 41.55249]]], [[[-8.073341, 41.550973], [-8.085309, 41.555614], [-8.09727, 41.557772], [-8.10926, 41.557912], [-8.12128, 41.555874], [-8.133339, 41.550774], [-8.142313, 41.543775], [-8.14712, 41.534803], [-8.147148, 41.525796], [-8.141861, 41.51675], [-8.133855, 41.512136], [-8.12193, 41.507815], [-8.109979, 41.505469], [-8.091803, 41.504084], [-8.093, 41.505063], [-8.090598, 41.515317], [-8.097894, 41.512938], [-8.109873, 41.513231], [-8.119621, 41.516582], [-8.127632, 41.52565], [-8.126174, 41.534646], [-8.121504, 41.539286], [-8.109443, 41.544573], [-8.096273, 41.543771], [-8.094175, 41.544904], [-8.087885, 41.542876], [-8.083389, 41.5449], [-8.080687, 41.551651], [-8.074396, 41.549848], [-8.073341, 41.550973]]], [[[-8.194436, 41.3745], [-8.193375, 41.382011], [-8.197774, 41.391049], [-8.207149, 41.397819], [-8.219073, 41.401021], [-8.231051, 41.399764], [-8.243094, 41.392863], [-8.248235, 41.382383], [-8.246825, 41.373366], [-8.243649, 41.36861], [-8.238301, 41.371316], [-8.232024, 41.369971], [-8.224854, 41.370878], [-8.21738, 41.368182], [-8.214399, 41.373587], [-8.208127, 41.376968], [-8.204839, 41.376294], [-8.200358, 41.377648], [-8.194436, 41.3745]]], [[[-8.460836, 41.245967], [-8.471994, 41.257519], [-8.483522, 41.266579], [-8.498937, 41.275655], [-8.519016, 41.283598], [-8.542868, 41.288009], [-8.554809, 41.288253], [-8.578717, 41.284612], [-8.590682, 41.280955], [-8.602658, 41.275177], [-8.614912, 41.267094], [-8.633236, 41.249138], [-8.643078, 41.231153], [-8.644743, 41.222151], [-8.64208, 41.193535], [-8.641225, 41.196014], [-8.638841, 41.196025], [-8.638231, 41.194227], [-8.634946, 41.193341], [-8.632526, 41.188624], [-8.625658, 41.186628], [-8.621132, 41.178994], [-8.613374, 41.177451], [-8.608583, 41.174095], [-8.609164, 41.172066], [-8.604942, 41.164881], [-8.59422, 41.165149], [-8.592254, 41.166958], [-8.603254, 41.176664], [-8.610162, 41.186007], [-8.618018, 41.204049], [-8.619879, 41.213063], [-8.618368, 41.231074], [-8.614082, 41.240068], [-8.607056, 41.249052], [-8.59541, 41.258019], [-8.57884, 41.265548], [-8.566884, 41.26829], [-8.554938, 41.269319], [-8.531082, 41.266204], [-8.519174, 41.262066], [-8.507286, 41.255463], [-8.498476, 41.24863], [-8.488197, 41.235981], [-8.484411, 41.240495], [-8.476346, 41.237818], [-8.475756, 41.23917], [-8.470986, 41.23941], [-8.471604, 41.243459], [-8.469227, 41.245267], [-8.463258, 41.244384], [-8.460836, 41.245967]]]]}}, {"id": "2", "type": "Feature", "properties": {"fill": "#a3a3a3", "value_min": -1.0, "value_max": -0.75}, "geometry": {"type": "MultiPolygon", "coordinates": [[[[-7.948396, 41.863548], [-7.960461, 41.862549], [-7.970206, 41.857606], [-7.977641, 41.848666], [-7.978245, 41.839665], [-7.971986, 41.830602], [-7.961065, 41.825205], [-7.949043, 41.82401], [-7.936949, 41.827216], [-7.932287, 41.83024], [-7.92622, 41.83919], [-7.926397, 41.848198], [-7.933101, 41.857268], [-7.936408, 41.859888], [-7.948396, 41.863548]], [[-7.944838, 41.839362], [-7.948837, 41.836599], [-7.955226, 41.839457], [-7.948712, 41.844264], [-7.944838, 41.839362]]], [[[-7.865624, 41.774686], [-7.877729, 41.770501], [-7.88255, 41.766719], [-7.885139, 41.757737], [-7.878119, 41.748128], [-7.866177, 41.743294], [-7.854144, 41.743649], [-7.843883, 41.748323], [-7.837785, 41.757268], [-7.840784, 41.766305], [-7.853609, 41.773747], [-7.865624, 41.774686]], [[-7.854421, 41.757435], [-7.865999, 41.753388], [-7.871409, 41.757603], [-7.865788, 41.765361], [-7.854421, 41.757435]]], [[[-8.023658, 41.668033], [-8.036259, 41.660028], [-8.02392, 41.650664], [-8.012613, 41.659827], [-8.023658, 41.668033]]], [[[-8.624947, 41.55249], [-8.636947, 41.550816], [-8.645135, 41.546426], [-8.652879, 41.537442], [-8.653747, 41.528437], [-8.649053, 41.519416], [-8.637172, 41.510612], [-8.625209, 41.507152], [-8.613223, 41.507625], [-8.606383, 41.51027], [-8.596082, 41.519242], [-8.593754, 41.528241], [-8.596346, 41.537258], [-8.601024, 41.542938], [-8.612969, 41.550375], [-8.624947, 41.55249]], [[-8.618961, 41.537335], [-8.613061, 41.53479], [-8.608693, 41.528293], [-8.61174, 41.519296], [-8.625159, 41.515766], [-8.635037, 41.519372], [-8.639426, 41.528393], [-8.637049, 41.532726], [-8.629751, 41.53737], [-8.625026, 41.538843], [-8.618961, 41.537335]]], [[[-8.096273, 41.543771], [-8.109443, 41.544573], [-8.121504, 41.539286], [-8.126174, 41.534646], [-8.127632, 41.52565], [-8.119621, 41.516582], [-8.109873, 41.513231], [-8.097894, 41.512938], [-8.090598, 41.515317], [-8.089398, 41.519468], [-8.090594, 41.522169], [-8.093588, 41.52307], [-8.091786, 41.531848], [-8.097775, 41.536127], [-8.097774, 41.537927], [-8.106759, 41.543106], [-8.096273, 41.543771]]], [[[-8.488197, 41.235981], [-8.498476, 41.24863], [-8.507286, 41.255463], [-8.519174, 41.262066], [-8.531082, 41.266204], [-8.554938, 41.269319], [-8.566884, 41.26829], [-8.57884, 41.265548], [-8.59541, 41.258019], [-8.607056, 41.249052], [-8.614082, 41.240068], [-8.618368, 41.231074], [-8.619879, 41.213063], [-8.618018, 41.204049], [-8.610162, 41.186007], [-8.603254, 41.176664], [-8.592254, 41.166958], [-8.589174, 41.167645], [-8.589194, 41.170572], [-8.583263, 41.174422], [-8.582094, 41.177803], [-8.578825, 41.178941], [-8.580139, 41.185239], [-8.59123, 41.193057], [-8.599363, 41.203986], [-8.602644, 41.213005], [-8.60318, 41.222015], [-8.600861, 41.231015], [-8.590914, 41.243766], [-8.578933, 41.251075], [-8.566974, 41.254582], [-8.555031, 41.255525], [-8.543104, 41.254183], [-8.531195, 41.25032], [-8.519315, 41.24279], [-8.509306, 41.230661], [-8.506293, 41.22164], [-8.508046, 41.206205], [-8.505693, 41.207113], [-8.504239, 41.213646], [-8.500076, 41.21546], [-8.50308, 41.219502], [-8.502204, 41.222656], [-8.495642, 41.222227], [-8.495947, 41.223351], [-8.490894, 41.226294], [-8.487935, 41.230354], [-8.490331, 41.232373], [-8.488197, 41.235981]]]]}}, {"id": "1", "type": "Feature", "properties": {"fill": "#b6a27f", "value_min": -1.25, "value_max": -1.0}, "geometry": {"type": "MultiPolygon", "coordinates": [[[[-7.944838, 41.839362], [-7.948712, 41.844264], [-7.955226, 41.839457], [-7.948837, 41.836599], [-7.944838, 41.839362]]], [[[-7.854421, 41.757435], [-7.865788, 41.765361], [-7.871409, 41.757603], [-7.865999, 41.753388], [-7.854421, 41.757435]]], [[[-8.618961, 41.537335], [-8.625026, 41.538843], [-8.629751, 41.53737], [-8.637049, 41.532726], [-8.639426, 41.528393], [-8.635037, 41.519372], [-8.625159, 41.515766], [-8.61174, 41.519296], [-8.608693, 41.528293], [-8.613061, 41.53479], [-8.618961, 41.537335]]], [[[-8.508046, 41.206205], [-8.506293, 41.22164], [-8.509306, 41.230661], [-8.519315, 41.24279], [-8.531195, 41.25032], [-8.543104, 41.254183], [-8.555031, 41.255525], [-8.566974, 41.254582], [-8.578933, 41.251075], [-8.590914, 41.243766], [-8.600861, 41.231015], [-8.60318, 41.222015], [-8.602644, 41.213005], [-8.599363, 41.203986], [-8.59123, 41.193057], [-8.580139, 41.185239], [-8.581296, 41.191762], [-8.575958, 41.195609], [-8.577183, 41.200557], [-8.575606, 41.202139], [-8.579235, 41.203974], [-8.585699, 41.212945], [-8.587162, 41.221959], [-8.583651, 41.230954], [-8.579032, 41.235645], [-8.567059, 41.24167], [-8.555118, 41.242688], [-8.543202, 41.240119], [-8.531331, 41.23133], [-8.527235, 41.221728], [-8.529856, 41.21053], [-8.52713, 41.203215], [-8.523236, 41.200077], [-8.51163, 41.203042], [-8.510753, 41.205971], [-8.508046, 41.206205]]]]}}, {"id": "5", "type": "Feature", "properties": {"fill": "#a3a3a3", "value_min": -0.25, "value_max": -0.0}, "geometry": {"type": "MultiPolygon", "coordinates": [[[[-8.756737, 41.580345], [-8.75993, 41.578527], [-8.767441, 41.580286], [-8.769874, 41.583874], [-8.768997, 41.58613], [-8.773228, 41.589482], [-8.775371, 41.593972], [-8.78556, 41.593464], [-8.797327, 41.600599], [-8.804218, 41.600109], [-8.80456, 41.604158], [-8.809434, 41.611332], [-8.828644, 41.609656], [-8.82839, 41.585633], [-8.818497, 41.554794], [-8.8221, 41.547542], [-8.821965, 41.534907], [-8.815926, 41.525624], [-8.81063, 41.5101], [-8.813279, 41.503483], [-8.812636, 41.496944], [-8.804699, 41.482068], [-8.798552, 41.474753], [-8.80154, 41.446836], [-8.806115, 41.43713], [-8.807354, 41.425915], [-8.811211, 41.415789], [-8.802121, 41.205864], [-8.758297, 41.222445], [-8.686385, 41.244689], [-8.674421, 41.250609], [-8.653376, 41.267216], [-8.614383, 41.311821], [-8.602382, 41.320673], [-8.590398, 41.326463], [-8.578431, 41.329039], [-8.566475, 41.32997], [-8.542587, 41.328273], [-8.518735, 41.321814], [-8.483018, 41.305455], [-8.434169, 41.274279], [-8.432691, 41.277107], [-8.427032, 41.279372], [-8.429143, 41.284319], [-8.426171, 41.287028], [-8.426488, 41.291079], [-8.425013, 41.294909], [-8.422037, 41.296942], [-8.422647, 41.299867], [-8.407744, 41.304856], [-8.406262, 41.307335], [-8.404242, 41.30734], [-8.423182, 41.317646], [-8.438027, 41.32942], [-8.452848, 41.347507], [-8.457216, 41.356535], [-8.461532, 41.374571], [-8.46147, 41.383578], [-8.457527, 41.401575], [-8.448489, 41.428554], [-8.448511, 41.437562], [-8.452054, 41.446586], [-8.47434, 41.48272], [-8.493526, 41.490943], [-8.504752, 41.50087], [-8.507527, 41.509889], [-8.503857, 41.518881], [-8.493257, 41.525474], [-8.481263, 41.52637], [-8.469315, 41.521795], [-8.463509, 41.5187], [-8.457417, 41.511268], [-8.445482, 41.505571], [-8.409489, 41.51064], [-8.397476, 41.513925], [-8.373401, 41.52501], [-8.361379, 41.528655], [-8.349376, 41.53034], [-8.337396, 41.529603], [-8.325446, 41.526126], [-8.31233, 41.517895], [-8.304255, 41.508839], [-8.29897, 41.4998], [-8.293402, 41.481751], [-8.294438, 41.463743], [-8.303968, 41.436778], [-8.303976, 41.427771], [-8.295723, 41.391691], [-8.293205, 41.364653], [-8.295891, 41.337646], [-8.302499, 41.323068], [-8.301216, 41.319694], [-8.296431, 41.316774], [-8.297618, 41.313846], [-8.296116, 41.310022], [-8.292241, 41.312504], [-8.288361, 41.312959], [-8.284488, 41.316341], [-8.281801, 41.316569], [-8.279132, 41.324451], [-8.272266, 41.32536], [-8.265709, 41.331221], [-8.269004, 41.336169], [-8.265722, 41.337748], [-8.262751, 41.345405], [-8.26104, 41.345857], [-8.267419, 41.35708], [-8.272019, 41.373528], [-8.271325, 41.391539], [-8.268244, 41.400527], [-8.254767, 41.418102], [-8.23065, 41.43381], [-8.206601, 41.442869], [-8.19461, 41.444513], [-8.182649, 41.443704], [-8.123108, 41.420436], [-8.099217, 41.417356], [-8.087226, 41.419147], [-8.075159, 41.426239], [-8.068257, 41.435111], [-8.065093, 41.444052], [-8.067908, 41.444279], [-8.069999, 41.447206], [-8.068788, 41.462286], [-8.073872, 41.46499], [-8.074164, 41.473543], [-8.07253, 41.475118], [-8.075862, 41.480209], [-8.08702, 41.489305], [-8.110085, 41.497732], [-8.122051, 41.498876], [-8.134047, 41.497733], [-8.146068, 41.494681], [-8.182168, 41.482047], [-8.230073, 41.482598], [-8.242031, 41.484285], [-8.25584, 41.490522], [-8.265215, 41.499589], [-8.267995, 41.508614], [-8.265588, 41.519723], [-8.253465, 41.531669], [-8.217974, 41.544314], [-8.194369, 41.562166], [-8.181083, 41.568077], [-8.157021, 41.573833], [-8.132998, 41.576347], [-8.085022, 41.575938], [-8.060883, 41.577273], [-8.052181, 41.584498], [-8.052777, 41.587649], [-8.048277, 41.590122], [-8.047974, 41.592373], [-8.03282, 41.601814], [-8.038898, 41.615014], [-8.05674, 41.633176], [-8.072048, 41.644255], [-8.095944, 41.652847], [-8.112312, 41.66064], [-8.124399, 41.66974], [-8.124583, 41.678749], [-8.119591, 41.680136], [-8.097402, 41.696552], [-8.095284, 41.700002], [-8.083246, 41.701367], [-8.059427, 41.686435], [-8.047428, 41.685278], [-8.02329, 41.69235], [-7.975118, 41.698941], [-7.963295, 41.704428], [-7.955839, 41.713367], [-7.956526, 41.72238], [-7.967146, 41.74049], [-7.986091, 41.765429], [-7.997978, 41.774683], [-8.009924, 41.780251], [-8.059243, 41.795322], [-8.078775, 41.804488], [-8.090801, 41.812521], [-8.093421, 41.811397], [-8.093723, 41.808471], [-8.101845, 41.809824], [-8.104853, 41.81185], [-8.115984, 41.812302], [-8.123807, 41.808702], [-8.138247, 41.808477], [-8.139751, 41.813203], [-8.14276, 41.812978], [-8.145769, 41.815453], [-8.149078, 41.814777], [-8.153893, 41.817928], [-8.161415, 41.818376], [-8.165326, 41.81815], [-8.173744, 41.808019], [-8.177054, 41.808017], [-8.182773, 41.812516], [-8.190291, 41.809587], [-8.197158, 41.814129], [-8.201063, 41.808724], [-8.204973, 41.807372], [-8.205872, 41.804445], [-8.213692, 41.803765], [-8.217598, 41.80016], [-8.217589, 41.793634], [-8.224207, 41.794303], [-8.229917, 41.791598], [-8.240744, 41.791588], [-8.24074, 41.789338], [-8.244347, 41.787984], [-8.245546, 41.785731], [-8.251257, 41.784375], [-8.251845, 41.777172], [-8.257551, 41.773564], [-8.261762, 41.774235], [-8.271366, 41.766346], [-8.280681, 41.764083], [-8.282836, 41.761625], [-8.274896, 41.758959], [-8.270137, 41.751821], [-8.272713, 41.742831], [-8.275099, 41.740851], [-8.287162, 41.737576], [-8.301059, 41.743007], [-8.303375, 41.752028], [-8.299046, 41.757712], [-8.30778, 41.758824], [-8.307785, 41.760625], [-8.311096, 41.762195], [-8.318308, 41.761283], [-8.325233, 41.765098], [-8.328234, 41.763292], [-8.336653, 41.763728], [-8.341756, 41.761468], [-8.344765, 41.762363], [-8.349267, 41.760103], [-8.352557, 41.755145], [-8.34982, 41.745922], [-8.349814, 41.744122], [-8.352516, 41.743441], [-8.352203, 41.739616], [-8.357897, 41.735103], [-8.362407, 41.735994], [-8.368703, 41.73193], [-8.373822, 41.734846], [-8.379523, 41.732672], [-8.376288, 41.725426], [-8.375815, 41.716416], [-8.378581, 41.707424], [-8.385263, 41.698453], [-8.395829, 41.690702], [-8.407858, 41.689332], [-8.419869, 41.689885], [-8.431865, 41.6923], [-8.443835, 41.697711], [-8.449385, 41.70239], [-8.453868, 41.697961], [-8.453255, 41.695487], [-8.461659, 41.694563], [-8.482012, 41.682123], [-8.484371, 41.674238], [-8.49308, 41.674886], [-8.499963, 41.671038], [-8.50927, 41.671233], [-8.51018, 41.672806], [-8.511967, 41.670324], [-8.509856, 41.668755], [-8.512252, 41.667847], [-8.514629, 41.663788], [-8.522103, 41.658811], [-8.525706, 41.659023], [-8.527769, 41.652714], [-8.534066, 41.652017], [-8.537355, 41.64998], [-8.540314, 41.643342], [-8.504383, 41.638], [-8.492371, 41.638697], [-8.468292, 41.646526], [-8.456268, 41.648451], [-8.444265, 41.64774], [-8.432294, 41.643447], [-8.422434, 41.635596], [-8.41734, 41.626563], [-8.417461, 41.617556], [-8.423266, 41.608578], [-8.43266, 41.601652], [-8.456757, 41.590221], [-8.475808, 41.563793], [-8.488472, 41.554843], [-8.532492, 41.537016], [-8.541174, 41.529269], [-8.557704, 41.501086], [-8.565387, 41.493411], [-8.577417, 41.485785], [-8.589419, 41.48217], [-8.601398, 41.482009], [-8.613358, 41.485037], [-8.703521, 41.528577], [-8.718755, 41.537622], [-8.741424, 41.55569], [-8.748996, 41.564714], [-8.756737, 41.580345]], [[-8.166648, 41.757747], [-8.155752, 41.751038], [-8.154113, 41.742019], [-8.166974, 41.732476], [-8.178976, 41.734241], [-8.187076, 41.742257], [-8.185319, 41.751251], [-8.178692, 41.756519], [-8.166648, 41.757747]], [[-8.006504, 41.749844], [-7.998411, 41.74681], [-7.992179, 41.740712], [-7.989804, 41.731685], [-7.995072, 41.722724], [-7.998827, 41.720053], [-8.010896, 41.71697], [-8.022888, 41.718907], [-8.030125, 41.723025], [-8.035156, 41.732074], [-8.033716, 41.741069], [-8.022419, 41.749844], [-8.01037, 41.75126], [-8.006504, 41.749844]], [[-8.227104, 41.731802], [-8.215083, 41.731567], [-8.203105, 41.727845], [-8.179192, 41.717262], [-8.167201, 41.714931], [-8.155134, 41.718408], [-8.143019, 41.725463], [-8.130958, 41.728253], [-8.119648, 41.723746], [-8.119039, 41.714734], [-8.131331, 41.700579], [-8.140794, 41.696885], [-8.143472, 41.69135], [-8.148263, 41.687934], [-8.154836, 41.678975], [-8.166596, 41.670054], [-8.204091, 41.647859], [-8.216146, 41.644043], [-8.228175, 41.642247], [-8.240168, 41.643539], [-8.252127, 41.64777], [-8.258787, 41.652671], [-8.267318, 41.661733], [-8.272142, 41.670771], [-8.274251, 41.679791], [-8.27401, 41.688797], [-8.271209, 41.697786], [-8.264768, 41.706752], [-8.255731, 41.715701], [-8.23918, 41.727413], [-8.227104, 41.731802]], [[-8.047026, 41.71249], [-8.042016, 41.705111], [-8.047199, 41.70079], [-8.059202, 41.701877], [-8.062263, 41.705278], [-8.059069, 41.71101], [-8.047026, 41.71249]], [[-8.375875, 41.680388], [-8.371907, 41.679195], [-8.365422, 41.671324], [-8.366324, 41.662321], [-8.372117, 41.657591], [-8.384147, 41.655606], [-8.396754, 41.662485], [-8.398553, 41.671502], [-8.395953, 41.677395], [-8.383879, 41.683738], [-8.375875, 41.680388]], [[-8.144014, 41.650471], [-8.131995, 41.651159], [-8.120044, 41.646886], [-8.113603, 41.642636], [-8.108201, 41.634884], [-8.096252, 41.630792], [-8.084267, 41.629383], [-8.07489, 41.624317], [-8.069487, 41.615266], [-8.072776, 41.606286], [-8.084681, 41.600071], [-8.096679, 41.600218], [-8.120527, 41.611378], [-8.132526, 41.611574], [-8.144499, 41.61379], [-8.148641, 41.61588], [-8.159593, 41.624967], [-8.16166, 41.63399], [-8.1571, 41.642963], [-8.144014, 41.650471]], [[-8.685132, 41.505045], [-8.673156, 41.503903], [-8.66119, 41.5007], [-8.649238, 41.495303], [-8.633059, 41.483336], [-8.627792, 41.474312], [-8.62654, 41.4653], [-8.628555, 41.456299], [-8.637541, 41.444494], [-8.649552, 41.43711], [-8.661543, 41.433026], [-8.67352, 41.431336], [-8.69745, 41.432928], [-8.712826, 41.438525], [-8.725714, 41.447564], [-8.732186, 41.456587], [-8.735155, 41.465602], [-8.734932, 41.474609], [-8.731543, 41.483608], [-8.724053, 41.492598], [-8.707717, 41.501565], [-8.697119, 41.504181], [-8.685132, 41.505045]], [[-8.62914, 41.357218], [-8.638027, 41.356846], [-8.638005, 41.36089], [-8.62914, 41.357218]], [[-8.745706, 41.33545], [-8.733748, 41.337256], [-8.721798, 41.33693], [-8.709857, 41.334527], [-8.697929, 41.329592], [-8.686015, 41.321945], [-8.677007, 41.312324], [-8.672878, 41.303304], [-8.672373, 41.294295], [-8.675424, 41.285296], [-8.682516, 41.276308], [-8.698219, 41.266638], [-8.710173, 41.263205], [-8.722117, 41.261856], [-8.734052, 41.262309], [-8.745981, 41.264641], [-8.757902, 41.269403], [-8.768454, 41.276513], [-8.775933, 41.285535], [-8.77923, 41.29455], [-8.779502, 41.303558], [-8.776865, 41.312561], [-8.769655, 41.32225], [-8.758277, 41.330538], [-8.745706, 41.33545]]], [[[-7.758714, 41.891693], [-7.767144, 41.890637], [-7.782757, 41.882792], [-7.790542, 41.873868], [-7.79355, 41.864893], [-7.791741, 41.855867], [-7.784172, 41.846781], [-7.768107, 41.840531], [-7.75608, 41.839593], [-7.746133, 41.841369], [-7.746349, 41.84407], [-7.750541, 41.847685], [-7.750532, 41.849261], [-7.743309, 41.849012], [-7.746901, 41.8524], [-7.746881, 41.855776], [-7.73843, 41.859348], [-7.734159, 41.868337], [-7.730228, 41.871024], [-7.729293, 41.875972], [-7.724631, 41.877982], [-7.731089, 41.885275], [-7.741555, 41.890007], [-7.741573, 41.887043], [-7.745495, 41.885931], [-7.750001, 41.887971], [-7.756022, 41.888441], [-7.758714, 41.891693]]], [[[-7.874868, 41.845946], [-7.888597, 41.837848], [-7.896407, 41.829901], [-7.902746, 41.820955], [-7.90607, 41.81198], [-7.904548, 41.802958], [-7.901293, 41.799744], [-7.892845, 41.793839], [-7.877373, 41.790923], [-7.853863, 41.793457], [-7.833861, 41.802262], [-7.825942, 41.811188], [-7.822207, 41.820157], [-7.822025, 41.829162], [-7.825921, 41.838208], [-7.838609, 41.847344], [-7.852241, 41.850415], [-7.864306, 41.849342], [-7.872758, 41.846487], [-7.873066, 41.844875], [-7.874868, 41.845946]], [[-7.864716, 41.826132], [-7.855198, 41.82049], [-7.852435, 41.811456], [-7.860696, 41.802532], [-7.865163, 41.800838], [-7.877201, 41.80079], [-7.881519, 41.802736], [-7.888484, 41.811811], [-7.884117, 41.820775], [-7.876767, 41.825645], [-7.864716, 41.826132]]], [[[-7.874566, 41.846023], [-7.874566, 41.846023], [-7.874642, 41.846003], [-7.874566, 41.846023]]], [[[-7.914528, 41.728673], [-7.924979, 41.72209], [-7.930551, 41.713135], [-7.926542, 41.70409], [-7.91507, 41.696434], [-7.903077, 41.695002], [-7.891011, 41.697857], [-7.879032, 41.712644], [-7.879279, 41.721653], [-7.890455, 41.730166], [-7.902449, 41.731962], [-7.914528, 41.728673]]]]}}, {"id": "4", "type": "Feature", "properties": {"fill": "#a3a3a3", "value_min": -0.5, "value_max": -0.25}, "geometry": {"type": "MultiPolygon", "coordinates": [[[[-8.090801, 41.812521], [-8.078775, 41.804488], [-8.059243, 41.795322], [-8.009924, 41.780251], [-7.997978, 41.774683], [-7.986091, 41.765429], [-7.967146, 41.74049], [-7.956526, 41.72238], [-7.955839, 41.713367], [-7.963295, 41.704428], [-7.975118, 41.698941], [-8.02329, 41.69235], [-8.047428, 41.685278], [-8.059427, 41.686435], [-8.083246, 41.701367], [-8.095284, 41.700002], [-8.097402, 41.696552], [-8.119591, 41.680136], [-8.124583, 41.678749], [-8.124399, 41.66974], [-8.112312, 41.66064], [-8.095944, 41.652847], [-8.072048, 41.644255], [-8.05674, 41.633176], [-8.038898, 41.615014], [-8.03282, 41.601814], [-8.031467, 41.602938], [-8.02367, 41.603156], [-8.019174, 41.601802], [-8.015872, 41.603824], [-8.013474, 41.603372], [-8.005971, 41.60629], [-8.003562, 41.611239], [-7.998761, 41.612809], [-7.999669, 41.608759], [-7.996976, 41.605829], [-7.996684, 41.602003], [-7.984685, 41.603564], [-7.982292, 41.60086], [-7.975689, 41.603552], [-7.974482, 41.606701], [-7.970882, 41.607147], [-7.969091, 41.603768], [-7.965796, 41.602413], [-7.9541, 41.602846], [-7.952606, 41.600592], [-7.947808, 41.60081], [-7.945413, 41.599456], [-7.942725, 41.595625], [-7.936132, 41.594488], [-7.93791, 41.601694], [-7.937004, 41.603718], [-7.931604, 41.604384], [-7.930979, 41.612711], [-7.925556, 41.620354], [-7.920755, 41.620796], [-7.917748, 41.623041], [-7.915933, 41.627764], [-7.913229, 41.628885], [-7.912613, 41.63361], [-7.906014, 41.633147], [-7.906884, 41.641927], [-7.897869, 41.645511], [-7.89696, 41.647985], [-7.892759, 41.647976], [-7.892145, 41.651576], [-7.902319, 41.659925], [-7.899913, 41.66127], [-7.900198, 41.665547], [-7.898396, 41.665769], [-7.897186, 41.668467], [-7.892682, 41.668683], [-7.892377, 41.670033], [-7.888171, 41.670925], [-7.883969, 41.67069], [-7.880358, 41.673159], [-7.877044, 41.676077], [-7.876723, 41.681253], [-7.873401, 41.686198], [-7.868896, 41.686413], [-7.868008, 41.68326], [-7.864403, 41.683701], [-7.864096, 41.685276], [-7.858987, 41.68639], [-7.857773, 41.689538], [-7.854776, 41.68818], [-7.847538, 41.695365], [-7.837912, 41.698942], [-7.835792, 41.702763], [-7.839682, 41.705924], [-7.838465, 41.709522], [-7.832453, 41.710407], [-7.825252, 41.708813], [-7.818621, 41.713522], [-7.815291, 41.718689], [-7.808986, 41.717996], [-7.808396, 41.715744], [-7.804499, 41.714158], [-7.79939, 41.714593], [-7.79788, 41.716164], [-7.796383, 41.71526], [-7.790966, 41.717044], [-7.789449, 41.719966], [-7.78464, 41.720402], [-7.78252, 41.723546], [-7.776204, 41.724652], [-7.773786, 41.727346], [-7.770798, 41.72441], [-7.765698, 41.723044], [-7.761765, 41.727758], [-7.762933, 41.733839], [-7.759307, 41.737203], [-7.759597, 41.739005], [-7.75689, 41.739446], [-7.758687, 41.740577], [-7.757758, 41.745301], [-7.748417, 41.749321], [-7.747786, 41.754496], [-7.743866, 41.756509], [-7.741427, 41.762193], [-7.745541, 41.762484], [-7.757454, 41.76855], [-7.762433, 41.774495], [-7.763686, 41.783515], [-7.759153, 41.792473], [-7.7448, 41.800474], [-7.732743, 41.801492], [-7.727962, 41.800128], [-7.728761, 41.816776], [-7.732041, 41.821514], [-7.743152, 41.825154], [-7.742839, 41.827178], [-7.738918, 41.82874], [-7.742196, 41.833928], [-7.74729, 41.837772], [-7.746133, 41.841369], [-7.75608, 41.839593], [-7.768107, 41.840531], [-7.784172, 41.846781], [-7.791741, 41.855867], [-7.79355, 41.864893], [-7.790542, 41.873868], [-7.782757, 41.882792], [-7.767144, 41.890637], [-7.758714, 41.891693], [-7.756592, 41.89407], [-7.758076, 41.897901], [-7.764097, 41.898595], [-7.779227, 41.886264], [-7.785257, 41.885157], [-7.788886, 41.882467], [-7.794007, 41.882257], [-7.796739, 41.878214], [-7.794349, 41.87438], [-7.797064, 41.873488], [-7.803381, 41.874857], [-7.804914, 41.869459], [-7.813032, 41.871958], [-7.814229, 41.873537], [-7.823863, 41.874013], [-7.825059, 41.875817], [-7.830479, 41.875831], [-7.830789, 41.874031], [-7.832894, 41.874712], [-7.83772, 41.872924], [-7.842528, 41.875187], [-7.841663, 41.866632], [-7.849515, 41.861475], [-7.858542, 41.862622], [-7.859456, 41.860148], [-7.864877, 41.859711], [-7.87033, 41.851395], [-7.873043, 41.850501], [-7.872758, 41.846487], [-7.864306, 41.849342], [-7.852241, 41.850415], [-7.838609, 41.847344], [-7.825921, 41.838208], [-7.822025, 41.829162], [-7.822207, 41.820157], [-7.825942, 41.811188], [-7.833861, 41.802262], [-7.853863, 41.793457], [-7.877373, 41.790923], [-7.892845, 41.793839], [-7.901293, 41.799744], [-7.904548, 41.802958], [-7.90607, 41.81198], [-7.902746, 41.820955], [-7.896407, 41.829901], [-7.888597, 41.837848], [-7.874868, 41.845946], [-7.874642, 41.846003], [-7.874566, 41.846023], [-7.879956, 41.853217], [-7.888076, 41.855486], [-7.891675, 41.859094], [-7.898893, 41.86136], [-7.902203, 41.861591], [-7.904318, 41.859795], [-7.907276, 41.865203], [-7.905842, 41.857011], [-7.906795, 41.848013], [-7.915375, 41.830081], [-7.92502, 41.820477], [-7.937146, 41.815284], [-7.961257, 41.813321], [-7.973281, 41.8143], [-7.985263, 41.817989], [-7.992129, 41.821774], [-8.002139, 41.830868], [-8.007467, 41.841721], [-8.013965, 41.828899], [-8.017873, 41.831379], [-8.02901, 41.829589], [-8.037134, 41.831171], [-8.041351, 41.828023], [-8.041054, 41.825097], [-8.045268, 41.824425], [-8.047679, 41.821276], [-8.057314, 41.815656], [-8.06664, 41.817012], [-8.072961, 41.813414], [-8.078678, 41.813417], [-8.082892, 41.810493], [-8.090801, 41.812521]], [[-7.899949, 41.766887], [-7.891916, 41.775817], [-7.877544, 41.781132], [-7.865479, 41.782921], [-7.841416, 41.7827], [-7.829427, 41.780242], [-7.817025, 41.77507], [-7.806706, 41.765956], [-7.802837, 41.756909], [-7.804352, 41.747918], [-7.810443, 41.738975], [-7.818248, 41.7337], [-7.830346, 41.729623], [-7.8424, 41.727942], [-7.854397, 41.729435], [-7.866368, 41.732441], [-7.878305, 41.737451], [-7.897189, 41.748847], [-7.901091, 41.757891], [-7.899949, 41.766887]], [[-7.914528, 41.728673], [-7.902449, 41.731962], [-7.890455, 41.730166], [-7.879279, 41.721653], [-7.879032, 41.712644], [-7.891011, 41.697857], [-7.903077, 41.695002], [-7.91507, 41.696434], [-7.926542, 41.70409], [-7.930551, 41.713135], [-7.924979, 41.72209], [-7.914528, 41.728673]], [[-8.097016, 41.669528], [-8.102687, 41.67858], [-8.095473, 41.686534], [-8.083444, 41.687427], [-8.074831, 41.678359], [-8.080395, 41.669396], [-8.083721, 41.66793], [-8.097016, 41.669528]], [[-8.035552, 41.675965], [-8.023498, 41.678583], [-8.0115, 41.677569], [-7.994874, 41.66868], [-7.990242, 41.659633], [-7.991073, 41.650633], [-8.000056, 41.640712], [-8.012135, 41.636036], [-8.024143, 41.63591], [-8.036093, 41.639684], [-8.047955, 41.649511], [-8.052706, 41.660164], [-8.04723, 41.669126], [-8.035552, 41.675965]]], [[[-8.060883, 41.577273], [-8.085022, 41.575938], [-8.132998, 41.576347], [-8.157021, 41.573833], [-8.181083, 41.568077], [-8.194369, 41.562166], [-8.217974, 41.544314], [-8.253465, 41.531669], [-8.265588, 41.519723], [-8.267995, 41.508614], [-8.265215, 41.499589], [-8.25584, 41.490522], [-8.242031, 41.484285], [-8.230073, 41.482598], [-8.182168, 41.482047], [-8.146068, 41.494681], [-8.134047, 41.497733], [-8.122051, 41.498876], [-8.110085, 41.497732], [-8.08702, 41.489305], [-8.075862, 41.480209], [-8.07253, 41.475118], [-8.066374, 41.482318], [-8.066069, 41.48817], [-8.072054, 41.490199], [-8.07175, 41.494925], [-8.078333, 41.49898], [-8.078332, 41.500331], [-8.091803, 41.504084], [-8.109979, 41.505469], [-8.12193, 41.507815], [-8.133855, 41.512136], [-8.141861, 41.51675], [-8.147148, 41.525796], [-8.14712, 41.534803], [-8.142313, 41.543775], [-8.133339, 41.550774], [-8.12128, 41.555874], [-8.10926, 41.557912], [-8.09727, 41.557772], [-8.085309, 41.555614], [-8.073341, 41.550973], [-8.073494, 41.553449], [-8.075891, 41.554575], [-8.076188, 41.557276], [-8.079783, 41.558403], [-8.082176, 41.564032], [-8.069883, 41.570103], [-8.069281, 41.572579], [-8.060883, 41.577273]]], [[[-8.065093, 41.444052], [-8.068257, 41.435111], [-8.075159, 41.426239], [-8.087226, 41.419147], [-8.099217, 41.417356], [-8.123108, 41.420436], [-8.182649, 41.443704], [-8.19461, 41.444513], [-8.206601, 41.442869], [-8.23065, 41.43381], [-8.254767, 41.418102], [-8.268244, 41.400527], [-8.271325, 41.391539], [-8.272019, 41.373528], [-8.267419, 41.35708], [-8.26104, 41.345857], [-8.249622, 41.353072], [-8.251123, 41.356897], [-8.248141, 41.360052], [-8.248448, 41.364328], [-8.245461, 41.364781], [-8.243649, 41.36861], [-8.246825, 41.373366], [-8.248235, 41.382383], [-8.243094, 41.392863], [-8.231051, 41.399764], [-8.219073, 41.401021], [-8.207149, 41.397819], [-8.197774, 41.391049], [-8.193375, 41.382011], [-8.194436, 41.3745], [-8.191691, 41.376302], [-8.189299, 41.375403], [-8.184818, 41.376756], [-8.168382, 41.377438], [-8.164499, 41.38059], [-8.152544, 41.375866], [-8.151049, 41.37339], [-8.145073, 41.374742], [-8.139694, 41.377894], [-8.133418, 41.374292], [-8.119672, 41.376768], [-8.119672, 41.378569], [-8.116683, 41.380144], [-8.117578, 41.386447], [-8.113992, 41.386896], [-8.112795, 41.390723], [-8.110105, 41.390947], [-8.108011, 41.393648], [-8.103827, 41.392972], [-8.105321, 41.394998], [-8.10263, 41.396123], [-8.10801, 41.398825], [-8.108606, 41.403102], [-8.104419, 41.406252], [-8.104119, 41.408728], [-8.101727, 41.409403], [-8.102025, 41.411204], [-8.092756, 41.411201], [-8.09126, 41.414352], [-8.079893, 41.41975], [-8.077503, 41.416597], [-8.070923, 41.41862], [-8.066739, 41.416142], [-8.061654, 41.417489], [-8.059852, 41.424916], [-8.055959, 41.429415], [-8.05745, 41.432793], [-8.056549, 41.436394], [-8.057743, 41.438645], [-8.061033, 41.438872], [-8.063424, 41.4409], [-8.065093, 41.444052]]], [[[-7.916508, 41.879174], [-7.910299, 41.871503], [-7.910285, 41.875562], [-7.916508, 41.879174]]], [[[-7.910184, 41.871285], [-7.907309, 41.865389], [-7.906095, 41.868126], [-7.910184, 41.871285]]], [[[-7.741555, 41.890007], [-7.731089, 41.885275], [-7.724631, 41.877982], [-7.722351, 41.878424], [-7.720523, 41.881793], [-7.725335, 41.882935], [-7.726208, 41.887665], [-7.737044, 41.888828], [-7.73944, 41.891087], [-7.741555, 41.890007]]], [[[-8.227104, 41.731802], [-8.23918, 41.727413], [-8.255731, 41.715701], [-8.264768, 41.706752], [-8.271209, 41.697786], [-8.27401, 41.688797], [-8.274251, 41.679791], [-8.272142, 41.670771], [-8.267318, 41.661733], [-8.258787, 41.652671], [-8.252127, 41.64777], [-8.240168, 41.643539], [-8.228175, 41.642247], [-8.216146, 41.644043], [-8.204091, 41.647859], [-8.166596, 41.670054], [-8.154836, 41.678975], [-8.148263, 41.687934], [-8.143472, 41.69135], [-8.140794, 41.696885], [-8.131331, 41.700579], [-8.119039, 41.714734], [-8.119648, 41.723746], [-8.130958, 41.728253], [-8.143019, 41.725463], [-8.155134, 41.718408], [-8.167201, 41.714931], [-8.179192, 41.717262], [-8.203105, 41.727845], [-8.215083, 41.731567], [-8.227104, 41.731802]], [[-8.236376, 41.69756], [-8.231055, 41.706531], [-8.215302, 41.71351], [-8.203293, 41.712601], [-8.191352, 41.706272], [-8.185563, 41.697211], [-8.187123, 41.688215], [-8.191643, 41.683038], [-8.203739, 41.676432], [-8.215761, 41.675774], [-8.22772, 41.680345], [-8.23534, 41.688546], [-8.236376, 41.69756]]], [[[-8.756737, 41.580345], [-8.748996, 41.564714], [-8.741424, 41.55569], [-8.718755, 41.537622], [-8.703521, 41.528577], [-8.613358, 41.485037], [-8.601398, 41.482009], [-8.589419, 41.48217], [-8.577417, 41.485785], [-8.565387, 41.493411], [-8.557704, 41.501086], [-8.541174, 41.529269], [-8.532492, 41.537016], [-8.488472, 41.554843], [-8.475808, 41.563793], [-8.456757, 41.590221], [-8.43266, 41.601652], [-8.423266, 41.608578], [-8.417461, 41.617556], [-8.41734, 41.626563], [-8.422434, 41.635596], [-8.432294, 41.643447], [-8.444265, 41.64774], [-8.456268, 41.648451], [-8.468292, 41.646526], [-8.492371, 41.638697], [-8.504383, 41.638], [-8.540314, 41.643342], [-8.543876, 41.637352], [-8.543855, 41.633976], [-8.536342, 41.631977], [-8.535128, 41.62973], [-8.543431, 41.61462], [-8.554533, 41.615255], [-8.557244, 41.617046], [-8.562639, 41.61635], [-8.568056, 41.619031], [-8.570735, 41.616095], [-8.577321, 41.614269], [-8.581231, 41.615829], [-8.585766, 41.620988], [-8.591462, 41.620515], [-8.596534, 41.616668], [-8.601628, 41.615972], [-8.603996, 41.611686], [-8.613256, 41.606696], [-8.619881, 41.610269], [-8.621338, 41.604636], [-8.628833, 41.604378], [-8.636302, 41.600744], [-8.64075, 41.594422], [-8.645536, 41.593051], [-8.646744, 41.594171], [-8.649125, 41.591909], [-8.656622, 41.5921], [-8.660788, 41.588255], [-8.663794, 41.589141], [-8.665265, 41.585758], [-8.66948, 41.587989], [-8.684455, 41.586117], [-8.685608, 41.58071], [-8.697261, 41.576376], [-8.701703, 41.570277], [-8.707704, 41.570923], [-8.712485, 41.569323], [-8.716422, 41.573805], [-8.720316, 41.57356], [-8.725151, 41.577811], [-8.726633, 41.576003], [-8.734424, 41.575737], [-8.736564, 41.580228], [-8.738354, 41.579318], [-8.740778, 41.582006], [-8.74467, 41.581535], [-8.750711, 41.58623], [-8.756374, 41.582823], [-8.756737, 41.580345]], [[-8.660861, 41.56385], [-8.648834, 41.570145], [-8.636825, 41.572646], [-8.624829, 41.572849], [-8.612845, 41.571067], [-8.600879, 41.566478], [-8.588938, 41.558181], [-8.579814, 41.546206], [-8.576704, 41.52818], [-8.578894, 41.51918], [-8.58472, 41.510194], [-8.589265, 41.506414], [-8.601287, 41.500053], [-8.61328, 41.498068], [-8.625253, 41.499551], [-8.650493, 41.510413], [-8.662333, 41.519456], [-8.669793, 41.528485], [-8.672874, 41.537501], [-8.672871, 41.546508], [-8.669186, 41.555505], [-8.660861, 41.56385]]], [[[-8.62914, 41.357218], [-8.638005, 41.36089], [-8.638027, 41.356846], [-8.62914, 41.357218]]], [[[-8.434169, 41.274279], [-8.483018, 41.305455], [-8.518735, 41.321814], [-8.542587, 41.328273], [-8.566475, 41.32997], [-8.578431, 41.329039], [-8.590398, 41.326463], [-8.602382, 41.320673], [-8.614383, 41.311821], [-8.653376, 41.267216], [-8.674421, 41.250609], [-8.686385, 41.244689], [-8.758297, 41.222445], [-8.802121, 41.205864], [-8.799695, 41.14406], [-8.674793, 41.146932], [-8.674849, 41.153767], [-8.672489, 41.15648], [-8.66117, 41.156307], [-8.662078, 41.158104], [-8.660313, 41.160813], [-8.657033, 41.160378], [-8.654961, 41.161963], [-8.653231, 41.169174], [-8.655366, 41.175467], [-8.647955, 41.180228], [-8.647696, 41.185181], [-8.64208, 41.193535], [-8.644743, 41.222151], [-8.643078, 41.231153], [-8.633236, 41.249138], [-8.614912, 41.267094], [-8.602658, 41.275177], [-8.590682, 41.280955], [-8.578717, 41.284612], [-8.554809, 41.288253], [-8.542868, 41.288009], [-8.519016, 41.283598], [-8.498937, 41.275655], [-8.483522, 41.266579], [-8.471994, 41.257519], [-8.460836, 41.245967], [-8.454323, 41.246886], [-8.455541, 41.251834], [-8.452276, 41.25522], [-8.449891, 41.255452], [-8.449304, 41.257479], [-8.447812, 41.257258], [-8.449028, 41.261982], [-8.439785, 41.262907], [-8.438023, 41.268989], [-8.434745, 41.269673], [-8.434169, 41.274279]]]]}}, {"id": "6", "type": "Feature", "properties": {"fill": "#a3a3a3", "value_min": 0.0, "value_max": -0.25}, "geometry": {"type": "MultiPolygon", "coordinates": [[[[-7.864716, 41.826132], [-7.876767, 41.825645], [-7.884117, 41.820775], [-7.888484, 41.811811], [-7.881519, 41.802736], [-7.877201, 41.80079], [-7.865163, 41.800838], [-7.860696, 41.802532], [-7.852435, 41.811456], [-7.855198, 41.82049], [-7.864716, 41.826132]]], [[[-8.299046, 41.757712], [-8.303375, 41.752028], [-8.301059, 41.743007], [-8.287162, 41.737576], [-8.275099, 41.740851], [-8.272713, 41.742831], [-8.270137, 41.751821], [-8.274896, 41.758959], [-8.282836, 41.761625], [-8.284931, 41.757507], [-8.287033, 41.756829], [-8.299046, 41.757712]]], [[[-8.449385, 41.70239], [-8.443835, 41.697711], [-8.431865, 41.6923], [-8.419869, 41.689885], [-8.407858, 41.689332], [-8.395829, 41.690702], [-8.385263, 41.698453], [-8.378581, 41.707424], [-8.375815, 41.716416], [-8.376288, 41.725426], [-8.379523, 41.732672], [-8.384922, 41.73032], [-8.387032, 41.731891], [-8.393033, 41.729852], [-8.396942, 41.730518], [-8.400531, 41.726683], [-8.402934, 41.726452], [-8.404721, 41.722847], [-8.417349, 41.725067], [-8.422737, 41.720552], [-8.429643, 41.719859], [-8.430533, 41.717381], [-8.435927, 41.714441], [-8.441632, 41.713975], [-8.4446, 41.70654], [-8.449385, 41.70239]]], [[[-8.166648, 41.757747], [-8.178692, 41.756519], [-8.185319, 41.751251], [-8.187076, 41.742257], [-8.178976, 41.734241], [-8.166974, 41.732476], [-8.154113, 41.742019], [-8.155752, 41.751038], [-8.166648, 41.757747]]], [[[-8.006504, 41.749844], [-8.01037, 41.75126], [-8.022419, 41.749844], [-8.033716, 41.741069], [-8.035156, 41.732074], [-8.030125, 41.723025], [-8.022888, 41.718907], [-8.010896, 41.71697], [-7.998827, 41.720053], [-7.995072, 41.722724], [-7.989804, 41.731685], [-7.992179, 41.740712], [-7.998411, 41.74681], [-8.006504, 41.749844]]], [[[-8.047026, 41.71249], [-8.059069, 41.71101], [-8.062263, 41.705278], [-8.059202, 41.701877], [-8.047199, 41.70079], [-8.042016, 41.705111], [-8.047026, 41.71249]]], [[[-8.375875, 41.680388], [-8.383879, 41.683738], [-8.395953, 41.677395], [-8.398553, 41.671502], [-8.396754, 41.662485], [-8.384147, 41.655606], [-8.372117, 41.657591], [-8.366324, 41.662321], [-8.365422, 41.671324], [-8.371907, 41.679195], [-8.375875, 41.680388]]], [[[-8.144014, 41.650471], [-8.1571, 41.642963], [-8.16166, 41.63399], [-8.159593, 41.624967], [-8.148641, 41.61588], [-8.144499, 41.61379], [-8.132526, 41.611574], [-8.120527, 41.611378], [-8.096679, 41.600218], [-8.084681, 41.600071], [-8.072776, 41.606286], [-8.069487, 41.615266], [-8.07489, 41.624317], [-8.084267, 41.629383], [-8.096252, 41.630792], [-8.108201, 41.634884], [-8.113603, 41.642636], [-8.120044, 41.646886], [-8.131995, 41.651159], [-8.144014, 41.650471]]], [[[-8.302499, 41.323068], [-8.295891, 41.337646], [-8.293205, 41.364653], [-8.295723, 41.391691], [-8.303976, 41.427771], [-8.303968, 41.436778], [-8.294438, 41.463743], [-8.293402, 41.481751], [-8.29897, 41.4998], [-8.304255, 41.508839], [-8.31233, 41.517895], [-8.325446, 41.526126], [-8.337396, 41.529603], [-8.349376, 41.53034], [-8.361379, 41.528655], [-8.373401, 41.52501], [-8.397476, 41.513925], [-8.409489, 41.51064], [-8.445482, 41.505571], [-8.457417, 41.511268], [-8.463509, 41.5187], [-8.469315, 41.521795], [-8.481263, 41.52637], [-8.493257, 41.525474], [-8.503857, 41.518881], [-8.507527, 41.509889], [-8.504752, 41.50087], [-8.493526, 41.490943], [-8.47434, 41.48272], [-8.452054, 41.446586], [-8.448511, 41.437562], [-8.448489, 41.428554], [-8.457527, 41.401575], [-8.46147, 41.383578], [-8.461532, 41.374571], [-8.457216, 41.356535], [-8.452848, 41.347507], [-8.438027, 41.32942], [-8.423182, 41.317646], [-8.404242, 41.30734], [-8.401801, 41.311398], [-8.399712, 41.311628], [-8.400316, 41.313202], [-8.396738, 41.314336], [-8.398835, 41.316131], [-8.393775, 41.31997], [-8.393489, 41.323122], [-8.391105, 41.324253], [-8.386325, 41.323588], [-8.380678, 41.330587], [-8.387202, 41.332265], [-8.398987, 41.338231], [-8.409748, 41.347294], [-8.41611, 41.356334], [-8.419186, 41.365357], [-8.419618, 41.374367], [-8.417559, 41.383364], [-8.412384, 41.392346], [-8.403581, 41.401308], [-8.386466, 41.410605], [-8.374468, 41.414057], [-8.362494, 41.414958], [-8.350542, 41.413555], [-8.33862, 41.409281], [-8.326735, 41.401605], [-8.318508, 41.391828], [-8.31449, 41.382796], [-8.313207, 41.364774], [-8.31584, 41.355782], [-8.325765, 41.341987], [-8.324568, 41.341041], [-8.323376, 41.341943], [-8.316788, 41.335876], [-8.313802, 41.336331], [-8.31139, 41.328007], [-8.307502, 41.325762], [-8.303622, 41.326443], [-8.302499, 41.323068]], [[-8.361711, 41.494836], [-8.355878, 41.500133], [-8.349648, 41.503101], [-8.337661, 41.503669], [-8.328659, 41.499977], [-8.320588, 41.490922], [-8.320389, 41.481914], [-8.325988, 41.473837], [-8.33802, 41.468384], [-8.349989, 41.469042], [-8.357433, 41.473119], [-8.36475, 41.482167], [-8.364419, 41.491173], [-8.361711, 41.494836]]], [[[-8.326361, 41.341362], [-8.326361, 41.341362], [-8.326885, 41.340812], [-8.326361, 41.341362]]], [[[-8.326956, 41.340736], [-8.326956, 41.340736], [-8.327099, 41.340586], [-8.326956, 41.340736]]], [[[-8.327254, 41.340424], [-8.327254, 41.340424], [-8.327314, 41.340361], [-8.327254, 41.340424]]], [[[-8.327552, 41.340178], [-8.327552, 41.340178], [-8.327614, 41.340135], [-8.327552, 41.340178]]], [[[-8.328148, 41.339766], [-8.328148, 41.339766], [-8.328268, 41.339684], [-8.328148, 41.339766]]], [[[-8.328446, 41.339561], [-8.328446, 41.339561], [-8.328595, 41.339458], [-8.328446, 41.339561]]], [[[-8.332619, 41.336851], [-8.332619, 41.336851], [-8.33279, 41.33675], [-8.332619, 41.336851]]], [[[-8.332917, 41.336674], [-8.332917, 41.336674], [-8.333172, 41.336524], [-8.332917, 41.336674]]], [[[-8.333215, 41.336498], [-8.333215, 41.336498], [-8.333554, 41.336298], [-8.333215, 41.336498]]], [[[-8.333811, 41.336146], [-8.333811, 41.336146], [-8.333936, 41.336072], [-8.333811, 41.336146]]], [[[-8.334109, 41.33597], [-8.334109, 41.33597], [-8.334318, 41.335847], [-8.334109, 41.33597]]], [[[-8.344845, 41.33125], [-8.357976, 41.328701], [-8.357673, 41.327249], [-8.350207, 41.327264], [-8.346032, 41.328847], [-8.344845, 41.33125]]], [[[-8.365802, 41.328359], [-8.365802, 41.328359], [-8.373506, 41.329055], [-8.365802, 41.328359]]], [[[-8.685132, 41.505045], [-8.697119, 41.504181], [-8.707717, 41.501565], [-8.724053, 41.492598], [-8.731543, 41.483608], [-8.734932, 41.474609], [-8.735155, 41.465602], [-8.732186, 41.456587], [-8.725714, 41.447564], [-8.712826, 41.438525], [-8.69745, 41.432928], [-8.67352, 41.431336], [-8.661543, 41.433026], [-8.649552, 41.43711], [-8.637541, 41.444494], [-8.628555, 41.456299], [-8.62654, 41.4653], [-8.627792, 41.474312], [-8.633059, 41.483336], [-8.649238, 41.495303], [-8.66119, 41.5007], [-8.673156, 41.503903], [-8.685132, 41.505045]], [[-8.685199, 41.491343], [-8.673205, 41.494202], [-8.661232, 41.492793], [-8.647228, 41.483381], [-8.644389, 41.474364], [-8.647837, 41.465367], [-8.661418, 41.457045], [-8.675128, 41.45644], [-8.685353, 41.459445], [-8.693302, 41.465498], [-8.69718, 41.474515], [-8.694974, 41.483517], [-8.685199, 41.491343]]], [[[-8.745706, 41.33545], [-8.758277, 41.330538], [-8.769655, 41.32225], [-8.776865, 41.312561], [-8.779502, 41.303558], [-8.77923, 41.29455], [-8.775933, 41.285535], [-8.768454, 41.276513], [-8.757902, 41.269403], [-8.745981, 41.264641], [-8.734052, 41.262309], [-8.722117, 41.261856], [-8.710173, 41.263205], [-8.698219, 41.266638], [-8.682516, 41.276308], [-8.675424, 41.285296], [-8.672373, 41.294295], [-8.672878, 41.303304], [-8.677007, 41.312324], [-8.686015, 41.321945], [-8.697929, 41.329592], [-8.709857, 41.334527], [-8.721798, 41.33693], [-8.733748, 41.337256], [-8.745706, 41.33545]]]]}}]}