{"type": "FeatureCollection", "features": [{"id": "0", "type": "Feature", "properties": {"fill": "#b11c1c", "value_min": -2.25, "value_max": -2.0}, "geometry": {"type": "Polygon", "coordinates": [[[-8.721986, 41.292583], [-8.710042, 41.292774], [-8.70861, 41.294392], [-8.71002, 41.297727], [-8.721962, 41.298264], [-8.723833, 41.29443], [-8.721986, 41.292583]]]}}, {"id": "1", "type": "Feature", "properties": {"fill": "#c93e18", "value_min": -2.0, "value_max": -1.75}, "geometry": {"type": "Polygon", "coordinates": [[[-8.733868, 41.307788], [-8.738344, 41.303472], [-8.740418, 41.294469], [-8.733963, 41.284332], [-8.722041, 41.27973], [-8.710097, 41.280238], [-8.6995, 41.285361], [-8.694598, 41.294356], [-8.698043, 41.304904], [-8.709956, 41.312285], [-8.7219, 41.312988], [-8.733868, 41.307788]], [[-8.721986, 41.292583], [-8.723833, 41.29443], [-8.721962, 41.298264], [-8.71002, 41.297727], [-8.70861, 41.294392], [-8.710042, 41.292774], [-8.721986, 41.292583]]]}}, {"id": "2", "type": "Feature", "properties": {"fill": "#e57b10", "value_min": -1.75, "value_max": -1.5}, "geometry": {"type": "Polygon", "coordinates": [[[-8.745798, 41.311906], [-8.751948, 41.303502], [-8.753192, 41.294497], [-8.749631, 41.285481], [-8.738446, 41.276449], [-8.722073, 41.272205], [-8.71013, 41.272862], [-8.698172, 41.276822], [-8.688412, 41.285332], [-8.685007, 41.29433], [-8.686796, 41.303343], [-8.697996, 41.314961], [-8.709922, 41.319769], [-8.721866, 41.320938], [-8.733823, 41.318678], [-8.745798, 41.311906]], [[-8.733868, 41.307788], [-8.7219, 41.312988], [-8.709956, 41.312285], [-8.698043, 41.304904], [-8.694598, 41.294356], [-8.6995, 41.285361], [-8.710097, 41.280238], [-8.722041, 41.27973], [-8.733963, 41.284332], [-8.740418, 41.294469], [-8.738344, 41.303472], [-8.733868, 41.307788]]]}}, {"id": "3", "type": "Feature", "properties": {"fill": "#e19f31", "value_min": -1.5, "value_max": -1.25}, "geometry": {"type": "Polygon", "coordinates": [[[-8.75773, 41.315881], [-8.765753, 41.303531], [-8.766484, 41.294524], [-8.763542, 41.285511], [-8.757867, 41.278851], [-8.745957, 41.270854], [-8.734034, 41.266923], [-8.7221, 41.265685], [-8.710158, 41.266515], [-8.698205, 41.269778], [-8.686253, 41.276318], [-8.678626, 41.285305], [-8.67619, 41.294306], [-8.677773, 41.303318], [-8.683608, 41.312342], [-8.69796, 41.322799], [-8.70989, 41.327054], [-8.721833, 41.328587], [-8.733787, 41.327703], [-8.745751, 41.324035], [-8.75773, 41.315881]], [[-8.745798, 41.311906], [-8.733823, 41.318678], [-8.721866, 41.320938], [-8.709922, 41.319769], [-8.697996, 41.314961], [-8.686796, 41.303343], [-8.685007, 41.29433], [-8.688412, 41.285332], [-8.698172, 41.276822], [-8.71013, 41.272862], [-8.722073, 41.272205], [-8.738446, 41.276449], [-8.749631, 41.285481], [-8.753192, 41.294497], [-8.751948, 41.303502], [-8.745798, 41.311906]]]}}, {"id": "4", "type": "Feature", "properties": {"fill": "#b6a27f", "value_min": -1.25, "value_max": -1.0}, "geometry": {"type": "Polygon", "coordinates": [[[-8.769652, 41.323198], [-8.778702, 41.312564], [-8.781877, 41.303562], [-8.782229, 41.294555], [-8.779645, 41.285543], [-8.773299, 41.276522], [-8.760816, 41.267489], [-8.745991, 41.262103], [-8.734062, 41.260038], [-8.710184, 41.26067], [-8.68775, 41.267314], [-8.674811, 41.276286], [-8.668421, 41.285276], [-8.666488, 41.294278], [-8.66811, 41.303291], [-8.673569, 41.312314], [-8.682794, 41.321347], [-8.697925, 41.330436], [-8.709855, 41.334884], [-8.721798, 41.336954], [-8.733748, 41.337086], [-8.745707, 41.335231], [-8.757674, 41.330943], [-8.769652, 41.323198]], [[-8.75773, 41.315881], [-8.745751, 41.324035], [-8.733787, 41.327703], [-8.721833, 41.328587], [-8.70989, 41.327054], [-8.69796, 41.322799], [-8.683608, 41.312342], [-8.677773, 41.303318], [-8.67619, 41.294306], [-8.678626, 41.285305], [-8.686253, 41.276318], [-8.698205, 41.269778], [-8.710158, 41.266515], [-8.7221, 41.265685], [-8.734034, 41.266923], [-8.745957, 41.270854], [-8.757867, 41.278851], [-8.763542, 41.285511], [-8.766484, 41.294524], [-8.765753, 41.303531], [-8.75773, 41.315881]]]}}, {"id": "5", "type": "Feature", "properties": {"fill": "#a3a3a3", "value_min": -1.0, "value_max": -0.75}, "geometry": {"type": "Polygon", "coordinates": [[[-8.781559, 41.335604], [-8.79677, 41.321605], [-8.801794, 41.312606], [-8.804018, 41.303602], [-8.801484, 41.285582], [-8.79583, 41.276565], [-8.781795, 41.264928], [-8.769877, 41.259223], [-8.757952, 41.255788], [-8.746023, 41.253897], [-8.722152, 41.253566], [-8.698263, 41.257159], [-8.686308, 41.260774], [-8.672561, 41.267272], [-8.662188, 41.27625], [-8.656524, 41.285241], [-8.654957, 41.294244], [-8.656752, 41.303257], [-8.670556, 41.321313], [-8.685963, 41.332881], [-8.697884, 41.33928], [-8.709814, 41.344284], [-8.721755, 41.347031], [-8.745658, 41.347773], [-8.757619, 41.345824], [-8.769586, 41.341923], [-8.781559, 41.335604]], [[-8.769652, 41.323198], [-8.757674, 41.330943], [-8.745707, 41.335231], [-8.733748, 41.337086], [-8.721798, 41.336954], [-8.709855, 41.334884], [-8.697925, 41.330436], [-8.682794, 41.321347], [-8.673569, 41.312314], [-8.66811, 41.303291], [-8.666488, 41.294278], [-8.668421, 41.285276], [-8.674811, 41.276286], [-8.68775, 41.267314], [-8.710184, 41.26067], [-8.734062, 41.260038], [-8.745991, 41.262103], [-8.760816, 41.267489], [-8.773299, 41.276522], [-8.779645, 41.285543], [-8.782229, 41.294555], [-8.781877, 41.303562], [-8.778702, 41.312564], [-8.769652, 41.323198]]]}}, {"id": "6", "type": "Feature", "properties": {"fill": "#a3a3a3", "value_min": -0.75, "value_max": -0.5}, "geometry": {"type": "Polygon", "coordinates": [[[-8.804061, 41.255208], [-8.781851, 41.248196], [-8.75799, 41.245641], [-8.722178, 41.247432], [-8.686342, 41.253839], [-8.671905, 41.258263], [-8.654795, 41.26722], [-8.645446, 41.2762], [-8.640662, 41.285193], [-8.6394, 41.294197], [-8.641201, 41.30321], [-8.646806, 41.312235], [-8.655776, 41.32127], [-8.697826, 41.351741], [-8.721693, 41.361629], [-8.745591, 41.36498], [-8.76951, 41.363472], [-8.790995, 41.357626], [-8.807779, 41.349595], [-8.804061, 41.255208]], [[-8.781559, 41.335604], [-8.769586, 41.341923], [-8.757619, 41.345824], [-8.745658, 41.347773], [-8.721755, 41.347031], [-8.709814, 41.344284], [-8.697884, 41.33928], [-8.685963, 41.332881], [-8.670556, 41.321313], [-8.656752, 41.303257], [-8.654957, 41.294244], [-8.656524, 41.285241], [-8.662188, 41.27625], [-8.672561, 41.267272], [-8.686308, 41.260774], [-8.698263, 41.257159], [-8.722152, 41.253566], [-8.746023, 41.253897], [-8.757952, 41.255788], [-8.769877, 41.259223], [-8.781795, 41.264928], [-8.79583, 41.276565], [-8.801484, 41.285582], [-8.804018, 41.303602], [-8.801794, 41.312606], [-8.79677, 41.321605], [-8.781559, 41.335604]]]}}, {"id": "10", "type": "Feature", "properties": {"fill": "#a3a3a3", "value_min": 0.25, "value_max": -0.5}, "geometry": {"type": "MultiPolygon", "coordinates": [[[[-8.614984, 41.177444], [-8.61862, 41.195043], [-8.622599, 41.204064], [-8.628802, 41.213092], [-8.638919, 41.222133], [-8.65067, 41.2281], [-8.662583, 41.23161], [-8.674508, 41.233211], [-8.698377, 41.232395], [-8.710319, 41.230076], [-8.732204, 41.222387], [-8.746936, 41.213413], [-8.756837, 41.204426], [-8.763753, 41.195433], [-8.767947, 41.186433], [-8.770503, 41.168422], [-8.769076, 41.159412], [-8.762118, 41.144897], [-8.67527, 41.147484], [-8.676193, 41.146567], [-8.674793, 41.146932], [-8.674204, 41.147693], [-8.674242, 41.152276], [-8.686837, 41.149948], [-8.698754, 41.150038], [-8.710662, 41.152283], [-8.725268, 41.159315], [-8.734436, 41.167511], [-8.740093, 41.177366], [-8.741766, 41.186377], [-8.740501, 41.195383], [-8.735983, 41.20438], [-8.727362, 41.213368], [-8.710353, 41.222412], [-8.69841, 41.225132], [-8.686475, 41.225935], [-8.67455, 41.224651], [-8.66264, 41.220636], [-8.651632, 41.213164], [-8.644876, 41.204135], [-8.641947, 41.193535], [-8.641225, 41.196014], [-8.638841, 41.196025], [-8.638231, 41.194227], [-8.634946, 41.193341], [-8.632526, 41.188624], [-8.625658, 41.186628], [-8.62263, 41.180113], [-8.614984, 41.177444]]], [[[-8.654969, 41.16301], [-8.654969, 41.16301], [-8.658136, 41.160373], [-8.654969, 41.16301]]], [[[-8.661777, 41.15768], [-8.663282, 41.156748], [-8.66117, 41.156307], [-8.661777, 41.15768]]]]}}, {"id": "11", "type": "Feature", "properties": {"fill": "#a3a3a3", "value_min": 0.5, "value_max": -0.75}, "geometry": {"type": "Polygon", "coordinates": [[[-8.641947, 41.193535], [-8.644876, 41.204135], [-8.651632, 41.213164], [-8.66264, 41.220636], [-8.67455, 41.224651], [-8.686475, 41.225935], [-8.69841, 41.225132], [-8.710353, 41.222412], [-8.727362, 41.213368], [-8.735983, 41.20438], [-8.740501, 41.195383], [-8.741766, 41.186377], [-8.740093, 41.177366], [-8.734436, 41.167511], [-8.725268, 41.159315], [-8.710662, 41.152283], [-8.698754, 41.150038], [-8.686837, 41.149948], [-8.674242, 41.152276], [-8.672489, 41.15648], [-8.663282, 41.156748], [-8.661777, 41.15768], [-8.660313, 41.160813], [-8.658136, 41.160373], [-8.654969, 41.16301], [-8.653231, 41.169174], [-8.655366, 41.175467], [-8.647955, 41.180228], [-8.647696, 41.185181], [-8.641947, 41.193535]], [[-8.686518, 41.21699], [-8.672438, 41.213225], [-8.662619, 41.204189], [-8.660211, 41.195174], [-8.662372, 41.186172], [-8.674797, 41.174858], [-8.686735, 41.171531], [-8.698653, 41.172066], [-8.711274, 41.177297], [-8.719096, 41.186324], [-8.720978, 41.195337], [-8.717667, 41.204337], [-8.710403, 41.211142], [-8.698451, 41.21617], [-8.686518, 41.21699]]]}}, {"id": "12", "type": "Feature", "properties": {"fill": "#a3a3a3", "value_min": 0.75, "value_max": -1.0}, "geometry": {"type": "Polygon", "coordinates": [[[-8.686518, 41.21699], [-8.698451, 41.21617], [-8.710403, 41.211142], [-8.717667, 41.204337], [-8.720978, 41.195337], [-8.719096, 41.186324], [-8.711274, 41.177297], [-8.698653, 41.172066], [-8.686735, 41.171531], [-8.674797, 41.174858], [-8.662372, 41.186172], [-8.660211, 41.195174], [-8.662619, 41.204189], [-8.672438, 41.213225], [-8.686518, 41.21699]]]}}, {"id": "7", "type": "Feature", "properties": {"fill": "#a3a3a3", "value_min": -0.5, "value_max": -0.25}, "geometry": {"type": "MultiPolygon", "coordinates": [[[[-8.356756, 41.482123], [-8.349922, 41.475706], [-8.337963, 41.473989], [-8.325412, 41.481943], [-8.325129, 41.490949], [-8.337701, 41.499762], [-8.349698, 41.49819], [-8.357077, 41.491132], [-8.356756, 41.482123]]], [[[-8.807779, 41.349595], [-8.790995, 41.357626], [-8.76951, 41.363472], [-8.745591, 41.36498], [-8.721693, 41.361629], [-8.697826, 41.351741], [-8.655776, 41.32127], [-8.646806, 41.312235], [-8.641201, 41.30321], [-8.6394, 41.294197], [-8.640662, 41.285193], [-8.645446, 41.2762], [-8.654795, 41.26722], [-8.671905, 41.258263], [-8.686342, 41.253839], [-8.722178, 41.247432], [-8.75799, 41.245641], [-8.781851, 41.248196], [-8.804061, 41.255208], [-8.80306, 41.229762], [-8.746089, 41.236842], [-8.674021, 41.249261], [-8.650525, 41.255287], [-8.642683, 41.258176], [-8.627938, 41.267137], [-8.618532, 41.276114], [-8.613114, 41.285103], [-8.610512, 41.294102], [-8.611891, 41.303115], [-8.61768, 41.312142], [-8.629727, 41.321189], [-8.662022, 41.340483], [-8.697713, 41.376204], [-8.709637, 41.383926], [-8.733521, 41.39275], [-8.757428, 41.397305], [-8.781348, 41.398838], [-8.809652, 41.397045], [-8.807779, 41.349595]]]]}}, {"id": "9", "type": "Feature", "properties": {"fill": "#a3a3a3", "value_min": 0.0, "value_max": -0.25}, "geometry": {"type": "MultiPolygon", "coordinates": [[[[-8.747427, 41.584221], [-8.70402, 41.483541], [-8.699753, 41.474522], [-8.691491, 41.465493], [-8.673392, 41.456877], [-8.661426, 41.45555], [-8.625495, 41.457534], [-8.613535, 41.455212], [-8.601594, 41.449855], [-8.585282, 41.438136], [-8.565828, 41.427422], [-8.529997, 41.417187], [-8.506137, 41.407678], [-8.494234, 41.39975], [-8.486862, 41.392702], [-8.475493, 41.374635], [-8.454131, 41.32049], [-8.448191, 41.302446], [-8.445846, 41.28442], [-8.447604, 41.27542], [-8.453775, 41.266442], [-8.45948, 41.262706], [-8.471447, 41.259061], [-8.483391, 41.258248], [-8.519186, 41.260447], [-8.543061, 41.260363], [-8.566963, 41.2563], [-8.602849, 41.243671], [-8.614796, 41.241662], [-8.674468, 41.241235], [-8.71029, 41.236787], [-8.732913, 41.231397], [-8.757779, 41.222444], [-8.776847, 41.213475], [-8.801789, 41.197398], [-8.799695, 41.14406], [-8.762118, 41.144897], [-8.769076, 41.159412], [-8.770503, 41.168422], [-8.767947, 41.186433], [-8.763753, 41.195433], [-8.756837, 41.204426], [-8.746936, 41.213413], [-8.732204, 41.222387], [-8.710319, 41.230076], [-8.698377, 41.232395], [-8.674508, 41.233211], [-8.662583, 41.23161], [-8.65067, 41.2281], [-8.638919, 41.222133], [-8.628802, 41.213092], [-8.622599, 41.204064], [-8.61862, 41.195043], [-8.614984, 41.177444], [-8.608583, 41.174095], [-8.609164, 41.172066], [-8.604942, 41.164881], [-8.59422, 41.165149], [-8.589766, 41.167193], [-8.589194, 41.170572], [-8.583263, 41.174422], [-8.582094, 41.177803], [-8.578825, 41.178941], [-8.581296, 41.191762], [-8.575958, 41.195609], [-8.576894, 41.201908], [-8.574515, 41.202593], [-8.57423, 41.20462], [-8.567971, 41.204644], [-8.565895, 41.206227], [-8.567697, 41.208246], [-8.566512, 41.209376], [-8.559636, 41.206251], [-8.554271, 41.20627], [-8.549521, 41.209214], [-8.544157, 41.209458], [-8.54238, 41.211265], [-8.532257, 41.213102], [-8.52713, 41.203215], [-8.523236, 41.200077], [-8.51163, 41.203042], [-8.510456, 41.206197], [-8.505693, 41.207113], [-8.504239, 41.213646], [-8.500076, 41.21546], [-8.50308, 41.219502], [-8.502204, 41.222656], [-8.495642, 41.222227], [-8.495947, 41.223351], [-8.490894, 41.226294], [-8.487935, 41.230354], [-8.490331, 41.232373], [-8.489156, 41.235528], [-8.486181, 41.236888], [-8.484411, 41.240495], [-8.476346, 41.237818], [-8.475756, 41.23917], [-8.470986, 41.23941], [-8.471604, 41.243459], [-8.469227, 41.245267], [-8.463258, 41.244384], [-8.459989, 41.246644], [-8.454323, 41.246886], [-8.455541, 41.251834], [-8.452276, 41.25522], [-8.449891, 41.255452], [-8.449304, 41.257479], [-8.447812, 41.257258], [-8.449028, 41.261982], [-8.439785, 41.262907], [-8.438023, 41.268989], [-8.434745, 41.269673], [-8.432691, 41.277107], [-8.427032, 41.279372], [-8.429143, 41.284319], [-8.426171, 41.287028], [-8.426488, 41.291079], [-8.425013, 41.294909], [-8.422037, 41.296942], [-8.422647, 41.299867], [-8.407744, 41.304856], [-8.406262, 41.307335], [-8.403277, 41.307342], [-8.401801, 41.311398], [-8.399712, 41.311628], [-8.400316, 41.313202], [-8.396738, 41.314336], [-8.398835, 41.316131], [-8.393775, 41.31997], [-8.393489, 41.323122], [-8.391105, 41.324253], [-8.386325, 41.323588], [-8.380382, 41.331254], [-8.375305, 41.33104], [-8.37201, 41.328346], [-8.361563, 41.329718], [-8.358276, 41.329049], [-8.357673, 41.327249], [-8.350207, 41.327264], [-8.346032, 41.328847], [-8.342462, 41.333131], [-8.333215, 41.336299], [-8.326363, 41.342163], [-8.324568, 41.341041], [-8.323376, 41.341943], [-8.320676, 41.338121], [-8.312604, 41.334983], [-8.313794, 41.333405], [-8.31139, 41.328007], [-8.307502, 41.325762], [-8.305116, 41.326891], [-8.303024, 41.325994], [-8.303615, 41.323742], [-8.301216, 41.319694], [-8.296431, 41.316774], [-8.297618, 41.313846], [-8.295817, 41.310022], [-8.281801, 41.316569], [-8.281808, 41.319721], [-8.278828, 41.321976], [-8.278238, 41.325128], [-8.273161, 41.325134], [-8.269582, 41.326939], [-8.265709, 41.331221], [-8.269004, 41.336169], [-8.263339, 41.340902], [-8.262751, 41.345405], [-8.256483, 41.347663], [-8.255889, 41.349689], [-8.249622, 41.353072], [-8.251123, 41.356897], [-8.248141, 41.360052], [-8.248448, 41.364328], [-8.245461, 41.364781], [-8.244272, 41.368384], [-8.239197, 41.371315], [-8.232024, 41.369971], [-8.224854, 41.370878], [-8.21738, 41.368182], [-8.214399, 41.373587], [-8.208127, 41.376968], [-8.199163, 41.377423], [-8.194677, 41.374275], [-8.191691, 41.376302], [-8.189299, 41.375403], [-8.184818, 41.376756], [-8.168382, 41.377438], [-8.164499, 41.38059], [-8.152544, 41.375866], [-8.151049, 41.37339], [-8.145073, 41.374742], [-8.139694, 41.377894], [-8.133418, 41.374292], [-8.119672, 41.376768], [-8.119672, 41.378569], [-8.116683, 41.380144], [-8.117578, 41.386447], [-8.113992, 41.386896], [-8.112795, 41.390723], [-8.110105, 41.390947], [-8.108011, 41.393648], [-8.103827, 41.392972], [-8.105321, 41.394998], [-8.10263, 41.396123], [-8.10801, 41.398825], [-8.108606, 41.403102], [-8.104419, 41.406252], [-8.104119, 41.408728], [-8.101727, 41.409403], [-8.102025, 41.411204], [-8.092756, 41.411201], [-8.09126, 41.414352], [-8.079893, 41.41975], [-8.077503, 41.416597], [-8.070923, 41.41862], [-8.066739, 41.416142], [-8.061953, 41.417264], [-8.059852, 41.424916], [-8.055959, 41.429415], [-8.057743, 41.438645], [-8.061033, 41.438872], [-8.064916, 41.444052], [-8.067908, 41.444279], [-8.069999, 41.447206], [-8.068788, 41.462286], [-8.073872, 41.46499], [-8.074468, 41.468141], [-8.073564, 41.474668], [-8.066374, 41.482318], [-8.066069, 41.48817], [-8.072054, 41.490199], [-8.07175, 41.494925], [-8.078333, 41.49898], [-8.078332, 41.500331], [-8.093, 41.504613], [-8.089398, 41.519242], [-8.090594, 41.522169], [-8.093289, 41.522395], [-8.092389, 41.525226], [-8.097789, 41.520443], [-8.109784, 41.519726], [-8.116799, 41.525567], [-8.112771, 41.534543], [-8.109557, 41.536299], [-8.095978, 41.534495], [-8.097774, 41.537927], [-8.106759, 41.543557], [-8.101666, 41.542655], [-8.094175, 41.544904], [-8.087885, 41.542876], [-8.083389, 41.5449], [-8.080687, 41.551651], [-8.074097, 41.549848], [-8.073494, 41.553449], [-8.075891, 41.554575], [-8.076188, 41.557276], [-8.079783, 41.558403], [-8.081576, 41.565157], [-8.078879, 41.56493], [-8.075279, 41.568305], [-8.073182, 41.568079], [-8.069283, 41.570553], [-8.068081, 41.573478], [-8.056684, 41.579549], [-8.052181, 41.584498], [-8.052777, 41.587649], [-8.048277, 41.590122], [-8.047974, 41.592373], [-8.031467, 41.602938], [-8.02367, 41.603156], [-8.019174, 41.601802], [-8.015872, 41.603824], [-8.013474, 41.603372], [-8.005971, 41.60629], [-8.003562, 41.611239], [-7.998761, 41.612809], [-7.999669, 41.608759], [-7.996976, 41.605829], [-7.996684, 41.602003], [-7.984685, 41.603564], [-7.982292, 41.60086], [-7.975689, 41.603552], [-7.974482, 41.606701], [-7.970882, 41.607147], [-7.969091, 41.603768], [-7.965796, 41.602413], [-7.9541, 41.602846], [-7.952606, 41.600592], [-7.947808, 41.60081], [-7.945413, 41.599456], [-7.942725, 41.595625], [-7.936132, 41.594488], [-7.93791, 41.601694], [-7.937004, 41.603718], [-7.931604, 41.604384], [-7.930979, 41.612711], [-7.925556, 41.620354], [-7.920755, 41.620796], [-7.917748, 41.623041], [-7.915933, 41.627764], [-7.913229, 41.628885], [-7.912613, 41.63361], [-7.906014, 41.633147], [-7.906884, 41.641927], [-7.897869, 41.645511], [-7.89696, 41.647985], [-7.892759, 41.647976], [-7.892145, 41.651576], [-7.902319, 41.659925], [-7.899913, 41.66127], [-7.900198, 41.665547], [-7.898396, 41.665769], [-7.897186, 41.668467], [-7.892682, 41.668683], [-7.892377, 41.670033], [-7.888171, 41.670925], [-7.883969, 41.67069], [-7.880358, 41.673159], [-7.877044, 41.676077], [-7.876723, 41.681253], [-7.873401, 41.686198], [-7.868896, 41.686413], [-7.868008, 41.68326], [-7.864403, 41.683701], [-7.864096, 41.685276], [-7.858987, 41.68639], [-7.857773, 41.689538], [-7.854776, 41.68818], [-7.847538, 41.695365], [-7.837912, 41.698942], [-7.835792, 41.702763], [-7.839682, 41.705924], [-7.838465, 41.709522], [-7.832453, 41.710407], [-7.825252, 41.708813], [-7.818621, 41.713522], [-7.815291, 41.718689], [-7.808986, 41.717996], [-7.808396, 41.715744], [-7.804499, 41.714158], [-7.79939, 41.714593], [-7.79788, 41.716164], [-7.796383, 41.71526], [-7.790966, 41.717044], [-7.789449, 41.719966], [-7.78464, 41.720402], [-7.78252, 41.723546], [-7.776204, 41.724652], [-7.773786, 41.727346], [-7.770798, 41.72441], [-7.765698, 41.723044], [-7.761765, 41.727758], [-7.762933, 41.733839], [-7.759307, 41.737203], [-7.759597, 41.739005], [-7.75689, 41.739446], [-7.758687, 41.740577], [-7.757758, 41.745301], [-7.748417, 41.749321], [-7.747786, 41.754496], [-7.743866, 41.756509], [-7.740214, 41.763924], [-7.726937, 41.771755], [-7.7254, 41.777152], [-7.727191, 41.779184], [-7.724177, 41.780299], [-7.725372, 41.781653], [-7.722296, 41.792446], [-7.728879, 41.797871], [-7.72705, 41.801691], [-7.728171, 41.814974], [-7.732041, 41.821514], [-7.74345, 41.825605], [-7.738918, 41.82874], [-7.742196, 41.833928], [-7.74729, 41.837772], [-7.746349, 41.84407], [-7.750246, 41.846784], [-7.750532, 41.849261], [-7.743309, 41.849012], [-7.746901, 41.8524], [-7.746881, 41.855776], [-7.73843, 41.859348], [-7.734159, 41.868337], [-7.730228, 41.871024], [-7.729293, 41.875972], [-7.720533, 41.880218], [-7.720523, 41.881793], [-7.725335, 41.882935], [-7.726208, 41.887665], [-7.737044, 41.888828], [-7.73944, 41.891087], [-7.74246, 41.889747], [-7.742785, 41.885922], [-7.756022, 41.888441], [-7.758719, 41.890926], [-7.756592, 41.89407], [-7.758076, 41.897901], [-7.764097, 41.898595], [-7.779227, 41.886264], [-7.785257, 41.885157], [-7.788886, 41.882467], [-7.794007, 41.882257], [-7.796739, 41.878214], [-7.794349, 41.87438], [-7.797064, 41.873488], [-7.803381, 41.874857], [-7.804914, 41.869459], [-7.813032, 41.871958], [-7.814229, 41.873537], [-7.823863, 41.874013], [-7.825059, 41.875817], [-7.830479, 41.875831], [-7.830789, 41.874031], [-7.832894, 41.874712], [-7.83772, 41.872924], [-7.842528, 41.875187], [-7.841663, 41.866632], [-7.849515, 41.861475], [-7.858542, 41.862622], [-7.859456, 41.860148], [-7.864877, 41.859711], [-7.87033, 41.851395], [-7.873043, 41.850501], [-7.872755, 41.847409], [-7.852468, 41.837694], [-7.843714, 41.829382], [-7.838858, 41.820326], [-7.838274, 41.811314], [-7.842163, 41.802346], [-7.853258, 41.793436], [-7.865362, 41.789575], [-7.877369, 41.79113], [-7.889294, 41.797554], [-7.894794, 41.802865], [-7.901068, 41.81291], [-7.912961, 41.821559], [-7.949152, 41.817337], [-7.961192, 41.817384], [-7.9821, 41.821685], [-7.996639, 41.83082], [-8.003853, 41.83989], [-8.00567, 41.845996], [-8.007928, 41.838796], [-8.012753, 41.833624], [-8.013363, 41.829124], [-8.017873, 41.831379], [-8.02901, 41.829589], [-8.037134, 41.831171], [-8.041351, 41.828023], [-8.041054, 41.825097], [-8.045268, 41.824425], [-8.046775, 41.821951], [-8.056712, 41.81588], [-8.06664, 41.817012], [-8.072961, 41.813414], [-8.078678, 41.813417], [-8.082892, 41.810493], [-8.091013, 41.812521], [-8.093421, 41.811397], [-8.093723, 41.808471], [-8.101845, 41.809824], [-8.104853, 41.81185], [-8.115984, 41.812302], [-8.123807, 41.808702], [-8.138247, 41.808477], [-8.139751, 41.813203], [-8.14276, 41.812978], [-8.144866, 41.815228], [-8.149078, 41.814777], [-8.153291, 41.817703], [-8.158106, 41.818377], [-8.165326, 41.81815], [-8.173744, 41.808019], [-8.177655, 41.808242], [-8.183676, 41.812741], [-8.190291, 41.809587], [-8.197158, 41.814129], [-8.201063, 41.808724], [-8.204973, 41.807372], [-8.205872, 41.804445], [-8.213692, 41.803765], [-8.217598, 41.80016], [-8.217589, 41.793634], [-8.224207, 41.794303], [-8.229917, 41.791598], [-8.240744, 41.791588], [-8.24074, 41.789338], [-8.244347, 41.787984], [-8.245546, 41.785731], [-8.251257, 41.784375], [-8.251845, 41.777172], [-8.257551, 41.773564], [-8.261762, 41.774235], [-8.271366, 41.766346], [-8.280681, 41.764083], [-8.284038, 41.761109], [-8.284931, 41.757507], [-8.287033, 41.756829], [-8.298457, 41.757263], [-8.300866, 41.758835], [-8.305674, 41.758152], [-8.311096, 41.762195], [-8.318308, 41.761283], [-8.325233, 41.765098], [-8.328234, 41.763292], [-8.336653, 41.763728], [-8.341756, 41.761468], [-8.344765, 41.762363], [-8.349267, 41.760103], [-8.352557, 41.755145], [-8.349814, 41.744122], [-8.352516, 41.743441], [-8.352203, 41.739616], [-8.357897, 41.735103], [-8.362407, 41.735994], [-8.368703, 41.73193], [-8.374122, 41.734845], [-8.384922, 41.73032], [-8.387032, 41.731891], [-8.393033, 41.729852], [-8.396942, 41.730518], [-8.400531, 41.726683], [-8.402934, 41.726452], [-8.404721, 41.722847], [-8.417349, 41.725067], [-8.422737, 41.720552], [-8.429643, 41.719859], [-8.430533, 41.717381], [-8.435927, 41.714441], [-8.441632, 41.713975], [-8.4446, 41.70654], [-8.453868, 41.697961], [-8.453255, 41.695487], [-8.461659, 41.694563], [-8.467939, 41.689593], [-8.478124, 41.685061], [-8.482012, 41.682123], [-8.484371, 41.674238], [-8.49308, 41.674886], [-8.499963, 41.671038], [-8.50927, 41.671233], [-8.51018, 41.672806], [-8.511967, 41.670324], [-8.509856, 41.668755], [-8.512252, 41.667847], [-8.514629, 41.663788], [-8.522103, 41.658811], [-8.525706, 41.659023], [-8.527769, 41.652714], [-8.534066, 41.652017], [-8.537951, 41.649302], [-8.537634, 41.646602], [-8.543876, 41.637352], [-8.543855, 41.633976], [-8.536342, 41.631977], [-8.535128, 41.62973], [-8.543431, 41.61462], [-8.554533, 41.615255], [-8.557244, 41.617046], [-8.562639, 41.61635], [-8.568056, 41.619031], [-8.570735, 41.616095], [-8.577321, 41.614269], [-8.581231, 41.615829], [-8.585766, 41.620988], [-8.591462, 41.620515], [-8.596534, 41.616668], [-8.601628, 41.615972], [-8.603996, 41.611686], [-8.613256, 41.606696], [-8.619881, 41.610269], [-8.621338, 41.604636], [-8.628833, 41.604378], [-8.636302, 41.600744], [-8.64075, 41.594422], [-8.645536, 41.593051], [-8.646744, 41.594171], [-8.649125, 41.591909], [-8.656622, 41.5921], [-8.660788, 41.588255], [-8.663794, 41.589141], [-8.665265, 41.585758], [-8.66948, 41.587989], [-8.684455, 41.586117], [-8.685608, 41.58071], [-8.697261, 41.576376], [-8.701703, 41.570277], [-8.707704, 41.570923], [-8.712485, 41.569323], [-8.716422, 41.573805], [-8.720316, 41.57356], [-8.725151, 41.577811], [-8.726633, 41.576003], [-8.734424, 41.575737], [-8.736564, 41.580228], [-8.738354, 41.579318], [-8.740778, 41.582006], [-8.74467, 41.581535], [-8.747427, 41.584221]], [[-7.859142, 41.766489], [-7.853829, 41.761377], [-7.852794, 41.757419], [-7.866006, 41.753008], [-7.872846, 41.757617], [-7.868446, 41.766581], [-7.865733, 41.768523], [-7.859142, 41.766489]], [[-8.130956, 41.728451], [-8.120078, 41.723749], [-8.11656, 41.714715], [-8.13135, 41.699133], [-8.143421, 41.695156], [-8.155369, 41.700451], [-8.159567, 41.706031], [-8.157812, 41.715025], [-8.143012, 41.725998], [-8.130956, 41.728451]], [[-8.3491, 41.557785], [-8.337102, 41.558384], [-8.325129, 41.556605], [-8.313184, 41.55215], [-8.30129, 41.543138], [-8.292185, 41.52678], [-8.283438, 41.499704], [-8.271491, 41.472607], [-8.269556, 41.463587], [-8.270573, 41.454586], [-8.275717, 41.445611], [-8.290498, 41.43349], [-8.302526, 41.427987], [-8.314528, 41.424774], [-8.338474, 41.423656], [-8.374698, 41.428177], [-8.386263, 41.432162], [-8.393687, 41.437286], [-8.397444, 41.446313], [-8.394715, 41.482329], [-8.398733, 41.509372], [-8.393721, 41.527361], [-8.385257, 41.538767], [-8.373169, 41.549004], [-8.361124, 41.554551], [-8.3491, 41.557785]]], [[[-7.880542, 41.853219], [-7.880542, 41.853219], [-7.878158, 41.8511], [-7.880542, 41.853219]]], [[[-7.878004, 41.850962], [-7.878004, 41.850962], [-7.877858, 41.850833], [-7.878004, 41.850962]]], [[[-8.095809, 41.534325], [-8.09265, 41.526446], [-8.091487, 41.531173], [-8.095809, 41.534325]]], [[[-8.092559, 41.526221], [-8.092559, 41.526221], [-8.092389, 41.525796], [-8.092559, 41.526221]]], [[[-8.649927, 41.367198], [-8.649063, 41.35728], [-8.638071, 41.348903], [-8.624649, 41.348196], [-8.6104, 41.357156], [-8.608897, 41.366158], [-8.614018, 41.373557], [-8.625945, 41.379013], [-8.637911, 41.377894], [-8.649927, 41.367198]]]]}}, {"id": "8", "type": "Feature", "properties": {"fill": "#a3a3a3", "value_min": -0.25, "value_max": -0.0}, "geometry": {"type": "MultiPolygon", "coordinates": [[[[-8.00567, 41.845996], [-8.003853, 41.83989], [-7.996639, 41.83082], [-7.9821, 41.821685], [-7.961192, 41.817384], [-7.949152, 41.817337], [-7.912961, 41.821559], [-7.901068, 41.81291], [-7.894794, 41.802865], [-7.889294, 41.797554], [-7.877369, 41.79113], [-7.865362, 41.789575], [-7.853258, 41.793436], [-7.842163, 41.802346], [-7.838274, 41.811314], [-7.838858, 41.820326], [-7.843714, 41.829382], [-7.852468, 41.837694], [-7.872755, 41.847409], [-7.873367, 41.844875], [-7.877858, 41.850833], [-7.878004, 41.850962], [-7.878158, 41.8511], [-7.880542, 41.853219], [-7.886268, 41.855932], [-7.888076, 41.855486], [-7.891675, 41.859094], [-7.898893, 41.86136], [-7.902203, 41.861591], [-7.904318, 41.859795], [-7.907309, 41.865203], [-7.906095, 41.868126], [-7.910299, 41.871285], [-7.909985, 41.875111], [-7.915994, 41.879399], [-7.921118, 41.877833], [-7.928044, 41.87807], [-7.935283, 41.874707], [-7.937389, 41.87516], [-7.941618, 41.870891], [-7.951254, 41.871132], [-7.956367, 41.87339], [-7.956362, 41.875191], [-7.960576, 41.875647], [-7.962086, 41.874074], [-7.97202, 41.875439], [-7.975637, 41.874543], [-7.987996, 41.869157], [-7.990123, 41.860157], [-7.995547, 41.858138], [-7.994044, 41.856786], [-7.994954, 41.853411], [-7.996765, 41.851162], [-8.003089, 41.850494], [-8.00567, 41.845996]]], [[[-7.859142, 41.766489], [-7.865733, 41.768523], [-7.868446, 41.766581], [-7.872846, 41.757617], [-7.866006, 41.753008], [-7.852794, 41.757419], [-7.853829, 41.761377], [-7.859142, 41.766489]]], [[[-8.130956, 41.728451], [-8.143012, 41.725998], [-8.157812, 41.715025], [-8.159567, 41.706031], [-8.155369, 41.700451], [-8.143421, 41.695156], [-8.13135, 41.699133], [-8.11656, 41.714715], [-8.120078, 41.723749], [-8.130956, 41.728451]]], [[[-8.747427, 41.584221], [-8.75101, 41.586228], [-8.756374, 41.582823], [-8.75635, 41.580347], [-8.762327, 41.578514], [-8.764443, 41.580303], [-8.767441, 41.580286], [-8.769874, 41.583874], [-8.768997, 41.58613], [-8.773228, 41.589482], [-8.775371, 41.593972], [-8.78556, 41.593464], [-8.797327, 41.600599], [-8.804218, 41.600109], [-8.80456, 41.604158], [-8.809434, 41.611332], [-8.828644, 41.609656], [-8.82839, 41.585633], [-8.818497, 41.554794], [-8.8221, 41.547542], [-8.821965, 41.534907], [-8.815926, 41.525624], [-8.81063, 41.5101], [-8.813279, 41.503483], [-8.812636, 41.496944], [-8.804699, 41.482068], [-8.798552, 41.474753], [-8.80154, 41.446836], [-8.806115, 41.43713], [-8.807354, 41.425915], [-8.811035, 41.418186], [-8.809652, 41.397045], [-8.781348, 41.398838], [-8.757428, 41.397305], [-8.733521, 41.39275], [-8.709637, 41.383926], [-8.697713, 41.376204], [-8.662022, 41.340483], [-8.629727, 41.321189], [-8.61768, 41.312142], [-8.611891, 41.303115], [-8.610512, 41.294102], [-8.613114, 41.285103], [-8.618532, 41.276114], [-8.627938, 41.267137], [-8.642683, 41.258176], [-8.650525, 41.255287], [-8.674021, 41.249261], [-8.746089, 41.236842], [-8.80306, 41.229762], [-8.801789, 41.197398], [-8.776847, 41.213475], [-8.757779, 41.222444], [-8.732913, 41.231397], [-8.71029, 41.236787], [-8.674468, 41.241235], [-8.614796, 41.241662], [-8.602849, 41.243671], [-8.566963, 41.2563], [-8.543061, 41.260363], [-8.519186, 41.260447], [-8.483391, 41.258248], [-8.471447, 41.259061], [-8.45948, 41.262706], [-8.453775, 41.266442], [-8.447604, 41.27542], [-8.445846, 41.28442], [-8.448191, 41.302446], [-8.454131, 41.32049], [-8.475493, 41.374635], [-8.486862, 41.392702], [-8.494234, 41.39975], [-8.506137, 41.407678], [-8.529997, 41.417187], [-8.565828, 41.427422], [-8.585282, 41.438136], [-8.601594, 41.449855], [-8.613535, 41.455212], [-8.625495, 41.457534], [-8.661426, 41.45555], [-8.673392, 41.456877], [-8.691491, 41.465493], [-8.699753, 41.474522], [-8.70402, 41.483541], [-8.747427, 41.584221]], [[-8.649927, 41.367198], [-8.637911, 41.377894], [-8.625945, 41.379013], [-8.614018, 41.373557], [-8.608897, 41.366158], [-8.6104, 41.357156], [-8.624649, 41.348196], [-8.638071, 41.348903], [-8.649063, 41.35728], [-8.649927, 41.367198]]], [[[-8.3491, 41.557785], [-8.361124, 41.554551], [-8.373169, 41.549004], [-8.385257, 41.538767], [-8.393721, 41.527361], [-8.398733, 41.509372], [-8.394715, 41.482329], [-8.397444, 41.446313], [-8.393687, 41.437286], [-8.386263, 41.432162], [-8.374698, 41.428177], [-8.338474, 41.423656], [-8.314528, 41.424774], [-8.302526, 41.427987], [-8.290498, 41.43349], [-8.275717, 41.445611], [-8.270573, 41.454586], [-8.269556, 41.463587], [-8.271491, 41.472607], [-8.283438, 41.499704], [-8.292185, 41.52678], [-8.30129, 41.543138], [-8.313184, 41.55215], [-8.325129, 41.556605], [-8.337102, 41.558384], [-8.3491, 41.557785]], [[-8.356756, 41.482123], [-8.357077, 41.491132], [-8.349698, 41.49819], [-8.337701, 41.499762], [-8.325129, 41.490949], [-8.325412, 41.481943], [-8.337963, 41.473989], [-8.349922, 41.475706], [-8.356756, 41.482123]]], [[[-8.095978, 41.534495], [-8.109557, 41.536299], [-8.112771, 41.534543], [-8.116799, 41.525567], [-8.109784, 41.519726], [-8.097789, 41.520443], [-8.092389, 41.525226], [-8.092389, 41.525796], [-8.092559, 41.526221], [-8.09265, 41.526446], [-8.095809, 41.534325], [-8.095978, 41.534495]]]]}}]}