{"type": "FeatureCollection", "features": [{"id": "6", "type": "Feature", "properties": {"fill": "#a3a3a3", "value_min": -1.0, "value_max": -0.75}, "geometry": {"type": "MultiPolygon", "coordinates": [[[[-8.29936, 41.757914], [-8.303206, 41.752027], [-8.301401, 41.743009], [-8.299152, 41.740737], [-8.287184, 41.735522], [-8.275134, 41.737762], [-8.269219, 41.742809], [-8.267514, 41.751805], [-8.274477, 41.760856], [-8.281636, 41.762498], [-8.287033, 41.756829], [-8.29936, 41.757914]]], [[[-7.924244, 41.722083], [-7.925113, 41.713084], [-7.920771, 41.704036], [-7.915033, 41.698684], [-7.903104, 41.693406], [-7.891095, 41.692946], [-7.878975, 41.698874], [-7.87522, 41.703599], [-7.870893, 41.712564], [-7.869556, 41.721558], [-7.876393, 41.730632], [-7.890342, 41.736747], [-7.902359, 41.737244], [-7.91446, 41.732733], [-7.924244, 41.722083]], [[-7.890356, 41.712753], [-7.890761, 41.712385], [-7.90104, 41.712856], [-7.890658, 41.718374], [-7.890356, 41.712753]]], [[[-8.148343, 41.705948], [-8.143336, 41.701582], [-8.131351, 41.699086], [-8.126818, 41.69678], [-8.119388, 41.695036], [-8.116448, 41.6967], [-8.118853, 41.705726], [-8.123813, 41.714771], [-8.13108, 41.719191], [-8.14313, 41.717085], [-8.146348, 41.71494], [-8.148343, 41.705948]]], [[[-8.238727, 41.697575], [-8.237601, 41.688561], [-8.229417, 41.679499], [-8.215778, 41.674357], [-8.203756, 41.675087], [-8.19166, 41.681612], [-8.18599, 41.688207], [-8.184711, 41.697205], [-8.191305, 41.706259], [-8.203296, 41.712364], [-8.215299, 41.713802], [-8.227355, 41.710846], [-8.234146, 41.706552], [-8.238727, 41.697575]]], [[[-8.118907, 41.615655], [-8.120152, 41.606658], [-8.116788, 41.597625], [-8.10881, 41.590687], [-8.09687, 41.586517], [-8.08487, 41.586715], [-8.072811, 41.591002], [-8.065942, 41.597223], [-8.061292, 41.606192], [-8.061659, 41.615202], [-8.067164, 41.624254], [-8.072281, 41.628004], [-8.08422, 41.632713], [-8.096225, 41.63276], [-8.108297, 41.627909], [-8.113155, 41.624618], [-8.118907, 41.615655]], [[-8.084323, 41.625443], [-8.074257, 41.615305], [-8.079786, 41.606342], [-8.084632, 41.603551], [-8.096616, 41.604712], [-8.103526, 41.615537], [-8.096339, 41.624559], [-8.084323, 41.625443]]], [[[-8.277321, 41.542354], [-8.28886, 41.535767], [-8.313581, 41.514662], [-8.349553, 41.512634], [-8.373559, 41.508605], [-8.409456, 41.514287], [-8.421443, 41.51393], [-8.44545, 41.509399], [-8.457436, 41.509063], [-8.467643, 41.518719], [-8.481279, 41.524391], [-8.493274, 41.523278], [-8.499398, 41.518862], [-8.501285, 41.509863], [-8.493455, 41.500016], [-8.471124, 41.491713], [-8.464852, 41.473669], [-8.457822, 41.462684], [-8.450082, 41.455585], [-8.434007, 41.447288], [-8.422055, 41.445089], [-8.410081, 41.445398], [-8.398087, 41.447852], [-8.374046, 41.458031], [-8.362044, 41.460925], [-8.338086, 41.461898], [-8.329351, 41.463951], [-8.30201, 41.476198], [-8.290042, 41.475387], [-8.266155, 41.469482], [-8.254193, 41.468316], [-8.242211, 41.468839], [-8.230205, 41.471428], [-8.218169, 41.476435], [-8.203003, 41.490168], [-8.19809, 41.499141], [-8.195865, 41.508133], [-8.195973, 41.517141], [-8.19892, 41.526169], [-8.205485, 41.534267], [-8.217372, 41.542591], [-8.229309, 41.546995], [-8.241276, 41.548973], [-8.253268, 41.548842], [-8.265283, 41.546644], [-8.277321, 41.542354]], [[-8.241566, 41.524178], [-8.229632, 41.51984], [-8.226763, 41.517352], [-8.222956, 41.508319], [-8.226353, 41.499334], [-8.229912, 41.496201], [-8.241943, 41.491859], [-8.253903, 41.49359], [-8.262445, 41.499572], [-8.265942, 41.508601], [-8.261482, 41.51758], [-8.253569, 41.522642], [-8.241566, 41.524178]], [[-8.421617, 41.49437], [-8.41438, 41.491438], [-8.40971, 41.48631], [-8.407513, 41.482396], [-8.409801, 41.476338], [-8.411539, 41.473409], [-8.421848, 41.468467], [-8.43381, 41.469938], [-8.438741, 41.473545], [-8.442405, 41.48257], [-8.43361, 41.492979], [-8.421617, 41.49437]]], [[[-8.084982, 41.544225], [-8.09738, 41.549913], [-8.109363, 41.55045], [-8.121404, 41.546736], [-8.125783, 41.54365], [-8.131955, 41.53469], [-8.131026, 41.525676], [-8.120995, 41.516592], [-8.109871, 41.513401], [-8.097892, 41.513044], [-8.090598, 41.515041], [-8.089398, 41.519468], [-8.090594, 41.522169], [-8.093588, 41.52307], [-8.091786, 41.531848], [-8.097775, 41.536127], [-8.097774, 41.537927], [-8.106759, 41.543557], [-8.101666, 41.542655], [-8.094175, 41.544904], [-8.087885, 41.542876], [-8.084982, 41.544225]]], [[[-8.755323, 41.303509], [-8.758296, 41.294508], [-8.757502, 41.285498], [-8.752799, 41.27648], [-8.745962, 41.269684], [-8.734049, 41.26306], [-8.72212, 41.26111], [-8.710173, 41.263142], [-8.698204, 41.269881], [-8.686194, 41.284782], [-8.684795, 41.29433], [-8.687857, 41.303346], [-8.698003, 41.313546], [-8.709928, 41.318543], [-8.721869, 41.32012], [-8.733824, 41.318468], [-8.747034, 41.312499], [-8.755323, 41.303509]]], [[[-8.650019, 41.179993], [-8.647551, 41.195136], [-8.649091, 41.204148], [-8.653139, 41.213168], [-8.662618, 41.224916], [-8.674508, 41.233067], [-8.686417, 41.238092], [-8.710265, 41.24242], [-8.722208, 41.240367], [-8.734158, 41.236265], [-8.751157, 41.22243], [-8.757328, 41.213435], [-8.762432, 41.19543], [-8.761474, 41.18642], [-8.758014, 41.177405], [-8.746373, 41.163186], [-8.734485, 41.155414], [-8.722585, 41.150978], [-8.710677, 41.148759], [-8.698761, 41.148545], [-8.686835, 41.150416], [-8.673966, 41.154937], [-8.670725, 41.156938], [-8.670706, 41.15695], [-8.670358, 41.157165], [-8.662942, 41.161846], [-8.654444, 41.171887], [-8.655366, 41.175467], [-8.650089, 41.179768], [-8.650039, 41.179931], [-8.650019, 41.179993]]]]}}, {"id": "3", "type": "Feature", "properties": {"fill": "#e57b10", "value_min": -1.75, "value_max": -1.5}, "geometry": {"type": "MultiPolygon", "coordinates": [[[[-8.190687, 41.759217], [-8.195772, 41.751325], [-8.195653, 41.742317], [-8.187995, 41.733256], [-8.179043, 41.728977], [-8.167026, 41.728477], [-8.156386, 41.733028], [-8.147078, 41.741967], [-8.145622, 41.750963], [-8.150673, 41.760007], [-8.154546, 41.763294], [-8.166524, 41.767279], [-8.178566, 41.766407], [-8.190687, 41.759217]], [[-8.164712, 41.742096], [-8.166872, 41.740424], [-8.173634, 41.742161], [-8.166803, 41.745729], [-8.164712, 41.742096]]], [[[-8.452075, 41.699808], [-8.432, 41.676948], [-8.423928, 41.662625], [-8.408243, 41.64729], [-8.396308, 41.639412], [-8.384337, 41.635622], [-8.372341, 41.634574], [-8.360315, 41.636586], [-8.345796, 41.644192], [-8.337958, 41.653154], [-8.334623, 41.662142], [-8.334474, 41.671149], [-8.337284, 41.680172], [-8.343165, 41.689213], [-8.364548, 41.707347], [-8.382669, 41.731225], [-8.396942, 41.730518], [-8.400531, 41.726683], [-8.402934, 41.726452], [-8.404721, 41.722847], [-8.417349, 41.725067], [-8.422737, 41.720552], [-8.429643, 41.719859], [-8.430533, 41.717381], [-8.435927, 41.714441], [-8.441632, 41.713975], [-8.4446, 41.70654], [-8.452075, 41.699808]], [[-8.383866, 41.685109], [-8.371866, 41.683411], [-8.366574, 41.680337], [-8.358763, 41.671287], [-8.359014, 41.662281], [-8.368022, 41.653324], [-8.372178, 41.651375], [-8.384196, 41.650425], [-8.392765, 41.653457], [-8.402851, 41.662517], [-8.403924, 41.67153], [-8.397126, 41.680501], [-8.383866, 41.685109]]], [[[-8.08275, 41.71445], [-8.087741, 41.705483], [-8.118087, 41.678699], [-8.120475, 41.66971], [-8.114728, 41.660659], [-8.107905, 41.656349], [-8.095957, 41.651934], [-8.072012, 41.646791], [-8.036307, 41.625327], [-8.024385, 41.619854], [-8.012424, 41.61704], [-8.000429, 41.61656], [-7.988395, 41.618596], [-7.9763, 41.624407], [-7.967697, 41.632411], [-7.96327, 41.641378], [-7.961774, 41.650372], [-7.966247, 41.668426], [-7.972166, 41.677486], [-7.981464, 41.686576], [-8.02305, 41.708244], [-8.046834, 41.725505], [-8.058812, 41.728596], [-8.07087, 41.726237], [-8.08275, 41.71445]], [[-8.047047, 41.711119], [-8.04112, 41.705103], [-8.042292, 41.696106], [-8.03534, 41.69013], [-8.011386, 41.684988], [-7.997257, 41.677708], [-7.988908, 41.668628], [-7.985789, 41.659593], [-7.986996, 41.650597], [-7.992969, 41.641642], [-8.000117, 41.636758], [-8.012177, 41.633225], [-8.024182, 41.633341], [-8.036141, 41.636475], [-8.048041, 41.643702], [-8.059888, 41.65471], [-8.071844, 41.658492], [-8.083858, 41.658265], [-8.095841, 41.66022], [-8.10966, 41.669627], [-8.110418, 41.67864], [-8.095383, 41.69296], [-8.07127, 41.698454], [-8.059058, 41.711735], [-8.047047, 41.711119]]], [[[-8.134183, 41.487497], [-8.138016, 41.480692], [-8.13565, 41.471666], [-8.122536, 41.46291], [-8.11057, 41.462333], [-8.098518, 41.467907], [-8.095402, 41.471357], [-8.093465, 41.480349], [-8.099939, 41.489407], [-8.110146, 41.493334], [-8.122121, 41.493708], [-8.132662, 41.489659], [-8.134183, 41.487497]]], [[[-8.58943, 41.4804], [-8.596442, 41.474206], [-8.602631, 41.46522], [-8.608671, 41.447226], [-8.606305, 41.429203], [-8.600662, 41.420176], [-8.589868, 41.410772], [-8.577943, 41.404716], [-8.565997, 41.40206], [-8.55404, 41.401099], [-8.542067, 41.402426], [-8.53008, 41.405789], [-8.518064, 41.412818], [-8.510776, 41.419829], [-8.504789, 41.428811], [-8.501599, 41.437804], [-8.502578, 41.455824], [-8.506859, 41.464849], [-8.514003, 41.473887], [-8.529506, 41.48521], [-8.54145, 41.490151], [-8.553417, 41.491954], [-8.565401, 41.491297], [-8.577404, 41.487727], [-8.58943, 41.4804]], [[-8.55349, 41.481351], [-8.541524, 41.47972], [-8.529587, 41.474022], [-8.52029, 41.464906], [-8.516496, 41.455883], [-8.516637, 41.446876], [-8.520878, 41.437886], [-8.529908, 41.429638], [-8.541912, 41.424557], [-8.553887, 41.423418], [-8.565841, 41.425411], [-8.57777, 41.431455], [-8.584609, 41.438134], [-8.588719, 41.447156], [-8.588901, 41.456164], [-8.585548, 41.46516], [-8.576636, 41.474135], [-8.565479, 41.479637], [-8.55349, 41.481351]]], [[[-8.183545, 41.376081], [-8.18355, 41.381942], [-8.187443, 41.390977], [-8.197836, 41.400057], [-8.207073, 41.404116], [-8.219011, 41.40623], [-8.230985, 41.405396], [-8.244522, 41.400373], [-8.254497, 41.391431], [-8.258414, 41.382449], [-8.258227, 41.37344], [-8.254039, 41.364405], [-8.249321, 41.36005], [-8.248448, 41.364328], [-8.245461, 41.364781], [-8.244272, 41.368384], [-8.239197, 41.371315], [-8.232024, 41.369971], [-8.224854, 41.370878], [-8.21738, 41.368182], [-8.214399, 41.373587], [-8.208127, 41.376968], [-8.199163, 41.377423], [-8.194976, 41.374275], [-8.191691, 41.376302], [-8.183545, 41.376081]]], [[[-8.248834, 41.359601], [-8.248834, 41.359601], [-8.248738, 41.359512], [-8.248834, 41.359601]]], [[[-8.49926, 41.222441], [-8.501432, 41.230627], [-8.507401, 41.240039], [-8.516744, 41.248708], [-8.531154, 41.256051], [-8.543071, 41.258932], [-8.555004, 41.259526], [-8.566954, 41.257684], [-8.578918, 41.253354], [-8.594348, 41.24], [-8.59871, 41.231007], [-8.600026, 41.222004], [-8.598653, 41.212991], [-8.594717, 41.20397], [-8.581282, 41.189768], [-8.579522, 41.193795], [-8.575958, 41.195609], [-8.576894, 41.201908], [-8.574515, 41.202593], [-8.57423, 41.20462], [-8.567971, 41.204644], [-8.565895, 41.206227], [-8.567697, 41.208246], [-8.566512, 41.209376], [-8.559636, 41.206251], [-8.554271, 41.20627], [-8.549521, 41.209214], [-8.544157, 41.209458], [-8.54238, 41.211265], [-8.532257, 41.213102], [-8.52713, 41.203215], [-8.523236, 41.200077], [-8.51163, 41.203042], [-8.510456, 41.206197], [-8.505693, 41.207113], [-8.504239, 41.213646], [-8.500076, 41.21546], [-8.503086, 41.220627], [-8.501907, 41.222882], [-8.49926, 41.222441]]]]}}, {"id": "5", "type": "Feature", "properties": {"fill": "#b6a27f", "value_min": -1.25, "value_max": -1.0}, "geometry": {"type": "MultiPolygon", "coordinates": [[[[-8.04734, 41.821726], [-8.033737, 41.79713], [-8.02997, 41.786072], [-8.029435, 41.777061], [-8.037599, 41.750109], [-8.037559, 41.741102], [-8.033602, 41.732061], [-8.022847, 41.721632], [-8.010898, 41.716821], [-7.974837, 41.716644], [-7.962918, 41.7103], [-7.927521, 41.670384], [-7.899573, 41.645289], [-7.897869, 41.645511], [-7.89696, 41.647985], [-7.892759, 41.647976], [-7.892145, 41.651576], [-7.901724, 41.658573], [-7.902017, 41.660599], [-7.899913, 41.66127], [-7.900198, 41.665547], [-7.898396, 41.665769], [-7.896885, 41.668692], [-7.883969, 41.67069], [-7.879755, 41.673607], [-7.877044, 41.676077], [-7.876723, 41.681253], [-7.873401, 41.686198], [-7.868896, 41.686413], [-7.868008, 41.68326], [-7.864403, 41.683701], [-7.864096, 41.685276], [-7.858987, 41.68639], [-7.857773, 41.689538], [-7.854776, 41.68818], [-7.847538, 41.695365], [-7.837912, 41.698942], [-7.835792, 41.702763], [-7.839682, 41.705924], [-7.838465, 41.709522], [-7.832453, 41.710407], [-7.825252, 41.708813], [-7.818621, 41.713522], [-7.815291, 41.718689], [-7.808986, 41.717996], [-7.808396, 41.715744], [-7.804499, 41.714158], [-7.79939, 41.714593], [-7.79788, 41.716164], [-7.796383, 41.71526], [-7.790966, 41.717044], [-7.789449, 41.719966], [-7.78464, 41.720402], [-7.78252, 41.723546], [-7.776204, 41.724652], [-7.773786, 41.727346], [-7.770798, 41.72441], [-7.765698, 41.723044], [-7.761765, 41.727758], [-7.762356, 41.729642], [-7.762552, 41.729786], [-7.762655, 41.729862], [-7.784292, 41.747708], [-7.81737, 41.781525], [-7.829303, 41.787062], [-7.865415, 41.786565], [-7.877424, 41.788021], [-7.889368, 41.793256], [-7.899001, 41.802905], [-7.901524, 41.811936], [-7.89969, 41.820925], [-7.888622, 41.836436], [-7.875463, 41.847583], [-7.879956, 41.853217], [-7.888076, 41.855486], [-7.891675, 41.859094], [-7.900698, 41.861588], [-7.904318, 41.859795], [-7.907309, 41.865203], [-7.906095, 41.868126], [-7.910299, 41.871285], [-7.909985, 41.875111], [-7.915391, 41.879397], [-7.921118, 41.877833], [-7.928044, 41.87807], [-7.935283, 41.874707], [-7.937389, 41.87516], [-7.941618, 41.870891], [-7.951254, 41.871132], [-7.956367, 41.87339], [-7.956362, 41.875191], [-7.960878, 41.875648], [-7.962086, 41.874074], [-7.973828, 41.875216], [-7.987996, 41.869157], [-7.990123, 41.860157], [-7.995547, 41.858138], [-7.994047, 41.855211], [-7.996162, 41.851837], [-8.003089, 41.850494], [-8.005804, 41.847346], [-8.007928, 41.838796], [-8.012753, 41.833624], [-8.013363, 41.829124], [-8.017873, 41.831379], [-8.02901, 41.829589], [-8.037134, 41.831171], [-8.041351, 41.828023], [-8.041054, 41.825097], [-8.045268, 41.824425], [-8.04734, 41.821726]], [[-7.924244, 41.722083], [-7.91446, 41.732733], [-7.902359, 41.737244], [-7.890342, 41.736747], [-7.876393, 41.730632], [-7.869556, 41.721558], [-7.870893, 41.712564], [-7.87522, 41.703599], [-7.878975, 41.698874], [-7.891095, 41.692946], [-7.903104, 41.693406], [-7.915033, 41.698684], [-7.920771, 41.704036], [-7.925113, 41.713084], [-7.924244, 41.722083]]], [[[-7.872768, 41.850276], [-7.872768, 41.850276], [-7.872553, 41.8505], [-7.872768, 41.850276]]], [[[-7.870022, 41.853139], [-7.870022, 41.853139], [-7.869753, 41.85342], [-7.870022, 41.853139]]], [[[-7.86972, 41.853454], [-7.86972, 41.853454], [-7.869107, 41.854093], [-7.86972, 41.853454]]], [[[-7.868813, 41.8544], [-7.868813, 41.8544], [-7.865797, 41.858587], [-7.868813, 41.8544]]], [[[-7.865785, 41.858615], [-7.865785, 41.858615], [-7.865697, 41.858812], [-7.865785, 41.858615]]], [[[-8.347084, 41.760783], [-8.341503, 41.743246], [-8.336448, 41.734209], [-8.323439, 41.718393], [-8.301993, 41.697977], [-8.295551, 41.688931], [-8.28545, 41.661847], [-8.283901, 41.643823], [-8.286196, 41.63483], [-8.291401, 41.625855], [-8.30086, 41.616906], [-8.312576, 41.609569], [-8.324633, 41.60417], [-8.348697, 41.597936], [-8.372707, 41.596851], [-8.384686, 41.598951], [-8.396641, 41.603677], [-8.401797, 41.608468], [-8.420035, 41.635584], [-8.432279, 41.645201], [-8.444244, 41.650141], [-8.456234, 41.652418], [-8.504262, 41.6538], [-8.525999, 41.657753], [-8.527769, 41.652714], [-8.534066, 41.652017], [-8.537951, 41.649302], [-8.537634, 41.646602], [-8.543876, 41.637352], [-8.543855, 41.633976], [-8.536342, 41.631977], [-8.535132, 41.630406], [-8.543431, 41.61462], [-8.554533, 41.615255], [-8.557244, 41.617046], [-8.562639, 41.61635], [-8.568056, 41.619031], [-8.570735, 41.616095], [-8.577321, 41.614269], [-8.581231, 41.615829], [-8.585766, 41.620988], [-8.591462, 41.620515], [-8.596534, 41.616668], [-8.601628, 41.615972], [-8.603996, 41.611686], [-8.613256, 41.606696], [-8.619881, 41.610269], [-8.621338, 41.604636], [-8.628833, 41.604378], [-8.636302, 41.600744], [-8.64075, 41.594422], [-8.645536, 41.593051], [-8.646744, 41.594171], [-8.649125, 41.591909], [-8.656622, 41.5921], [-8.660788, 41.588255], [-8.663794, 41.589141], [-8.665265, 41.585758], [-8.66948, 41.587989], [-8.684455, 41.586117], [-8.685608, 41.58071], [-8.697261, 41.576376], [-8.701703, 41.570277], [-8.707704, 41.570923], [-8.712485, 41.569323], [-8.716422, 41.573805], [-8.720316, 41.57356], [-8.725151, 41.577811], [-8.726633, 41.576003], [-8.734424, 41.575737], [-8.736564, 41.580228], [-8.738354, 41.579318], [-8.740778, 41.582006], [-8.74467, 41.581535], [-8.750711, 41.58623], [-8.756374, 41.582823], [-8.75635, 41.580347], [-8.762327, 41.578514], [-8.764443, 41.580303], [-8.767441, 41.580286], [-8.769874, 41.583874], [-8.768997, 41.58613], [-8.773228, 41.589482], [-8.775371, 41.593972], [-8.78556, 41.593464], [-8.797327, 41.600599], [-8.804218, 41.600109], [-8.80456, 41.604158], [-8.809434, 41.611332], [-8.828644, 41.609656], [-8.82839, 41.585633], [-8.818497, 41.554794], [-8.8221, 41.547542], [-8.821965, 41.534907], [-8.815926, 41.525624], [-8.81063, 41.5101], [-8.813279, 41.503483], [-8.812636, 41.496944], [-8.804699, 41.482068], [-8.798552, 41.474753], [-8.80154, 41.446836], [-8.806115, 41.43713], [-8.807354, 41.425915], [-8.811211, 41.415789], [-8.799695, 41.14406], [-8.67527, 41.147484], [-8.676193, 41.146567], [-8.674793, 41.146932], [-8.674204, 41.147693], [-8.673966, 41.154937], [-8.686835, 41.150416], [-8.698761, 41.148545], [-8.710677, 41.148759], [-8.722585, 41.150978], [-8.734485, 41.155414], [-8.746373, 41.163186], [-8.758014, 41.177405], [-8.761474, 41.18642], [-8.762432, 41.19543], [-8.757328, 41.213435], [-8.751157, 41.22243], [-8.734158, 41.236265], [-8.722208, 41.240367], [-8.710265, 41.24242], [-8.686417, 41.238092], [-8.674508, 41.233067], [-8.662618, 41.224916], [-8.653139, 41.213168], [-8.649091, 41.204148], [-8.647551, 41.195136], [-8.650019, 41.179993], [-8.647955, 41.180228], [-8.647696, 41.185181], [-8.640035, 41.196245], [-8.634946, 41.193341], [-8.632526, 41.188624], [-8.625658, 41.186628], [-8.621132, 41.178994], [-8.6138, 41.177449], [-8.624697, 41.213079], [-8.629975, 41.24012], [-8.625629, 41.276137], [-8.625382, 41.285144], [-8.627843, 41.29416], [-8.634068, 41.303187], [-8.644352, 41.312227], [-8.681853, 41.33936], [-8.70315, 41.357433], [-8.719574, 41.375489], [-8.725272, 41.38451], [-8.728243, 41.393525], [-8.727542, 41.402531], [-8.721279, 41.411524], [-8.70656, 41.420495], [-8.67352, 41.431423], [-8.649518, 41.443373], [-8.637486, 41.454346], [-8.618229, 41.483288], [-8.607205, 41.492258], [-8.577263, 41.509396], [-8.565251, 41.513865], [-8.553265, 41.514081], [-8.541312, 41.509734], [-8.529381, 41.502521], [-8.504108, 41.482853], [-8.487321, 41.464764], [-8.477925, 41.446707], [-8.464037, 41.410613], [-8.451186, 41.365514], [-8.442308, 41.347456], [-8.434956, 41.337813], [-8.4231, 41.326983], [-8.399123, 41.313439], [-8.396738, 41.314336], [-8.398835, 41.316131], [-8.393775, 41.31997], [-8.393489, 41.323122], [-8.391105, 41.324253], [-8.386325, 41.323588], [-8.380382, 41.331254], [-8.375305, 41.33104], [-8.37201, 41.328346], [-8.361563, 41.329718], [-8.358276, 41.329049], [-8.357673, 41.327249], [-8.350207, 41.327264], [-8.346032, 41.328847], [-8.342462, 41.333131], [-8.333215, 41.336299], [-8.326363, 41.342163], [-8.324568, 41.341041], [-8.323376, 41.341943], [-8.3215, 41.33902], [-8.31529, 41.3522], [-8.308234, 41.382759], [-8.304557, 41.391744], [-8.298989, 41.400718], [-8.289803, 41.409669], [-8.276982, 41.418597], [-8.254649, 41.428498], [-8.206647, 41.439112], [-8.188564, 41.44503], [-8.179154, 41.45397], [-8.164765, 41.489896], [-8.156461, 41.498843], [-8.145947, 41.50388], [-8.133945, 41.505421], [-8.110006, 41.503545], [-8.076837, 41.497856], [-8.078332, 41.500331], [-8.093, 41.504613], [-8.090598, 41.515041], [-8.097892, 41.513044], [-8.109871, 41.513401], [-8.120995, 41.516592], [-8.131026, 41.525676], [-8.131955, 41.53469], [-8.125783, 41.54365], [-8.121404, 41.546736], [-8.109363, 41.55045], [-8.09738, 41.549913], [-8.084982, 41.544225], [-8.083389, 41.5449], [-8.081886, 41.550977], [-8.079489, 41.551876], [-8.074097, 41.549848], [-8.072897, 41.551197], [-8.076188, 41.557276], [-8.080082, 41.558854], [-8.081576, 41.565157], [-8.078879, 41.56493], [-8.075279, 41.568305], [-8.073182, 41.568079], [-8.069283, 41.570553], [-8.068081, 41.573478], [-8.056684, 41.579549], [-8.052181, 41.584498], [-8.052777, 41.587649], [-8.036675, 41.600242], [-8.0454, 41.615069], [-8.053292, 41.624141], [-8.072152, 41.637067], [-8.084108, 41.640603], [-8.108078, 41.643794], [-8.147276, 41.660905], [-8.149255, 41.669927], [-8.140463, 41.678868], [-8.119512, 41.68594], [-8.104251, 41.696606], [-8.101248, 41.705589], [-8.102109, 41.714603], [-8.106928, 41.727001], [-8.118843, 41.734969], [-8.130874, 41.734482], [-8.14296, 41.729908], [-8.167172, 41.717195], [-8.179195, 41.717048], [-8.198462, 41.724323], [-8.214739, 41.733442], [-8.223558, 41.742509], [-8.233789, 41.79227], [-8.238337, 41.790915], [-8.240744, 41.791588], [-8.24074, 41.789338], [-8.244347, 41.787984], [-8.245546, 41.785731], [-8.251257, 41.784375], [-8.251845, 41.777172], [-8.256049, 41.774241], [-8.261762, 41.774235], [-8.271366, 41.766346], [-8.280681, 41.764083], [-8.281636, 41.762498], [-8.274477, 41.760856], [-8.267514, 41.751805], [-8.269219, 41.742809], [-8.275134, 41.737762], [-8.287184, 41.735522], [-8.299152, 41.740737], [-8.301401, 41.743009], [-8.303206, 41.752027], [-8.29936, 41.757914], [-8.30778, 41.758824], [-8.307785, 41.760625], [-8.311096, 41.762195], [-8.318308, 41.761283], [-8.325233, 41.765098], [-8.328234, 41.763292], [-8.336653, 41.763728], [-8.338452, 41.762149], [-8.344765, 41.762363], [-8.347084, 41.760783]], [[-8.148343, 41.705948], [-8.146348, 41.71494], [-8.14313, 41.717085], [-8.13108, 41.719191], [-8.123813, 41.714771], [-8.118853, 41.705726], [-8.116448, 41.6967], [-8.119388, 41.695036], [-8.126818, 41.69678], [-8.131351, 41.699086], [-8.143336, 41.701582], [-8.148343, 41.705948]], [[-8.238727, 41.697575], [-8.234146, 41.706552], [-8.227355, 41.710846], [-8.215299, 41.713802], [-8.203296, 41.712364], [-8.191305, 41.706259], [-8.184711, 41.697205], [-8.18599, 41.688207], [-8.19166, 41.681612], [-8.203756, 41.675087], [-8.215778, 41.674357], [-8.229417, 41.679499], [-8.237601, 41.688561], [-8.238727, 41.697575]], [[-8.118907, 41.615655], [-8.113155, 41.624618], [-8.108297, 41.627909], [-8.096225, 41.63276], [-8.08422, 41.632713], [-8.072281, 41.628004], [-8.067164, 41.624254], [-8.061659, 41.615202], [-8.061292, 41.606192], [-8.065942, 41.597223], [-8.072811, 41.591002], [-8.08487, 41.586715], [-8.09687, 41.586517], [-8.10881, 41.590687], [-8.116788, 41.597625], [-8.120152, 41.606658], [-8.118907, 41.615655]], [[-8.445125, 41.547462], [-8.443749, 41.545628], [-8.445161, 41.54324], [-8.457188, 41.538655], [-8.461313, 41.545712], [-8.457092, 41.550182], [-8.445125, 41.547462]], [[-8.277321, 41.542354], [-8.265283, 41.546644], [-8.253268, 41.548842], [-8.241276, 41.548973], [-8.229309, 41.546995], [-8.217372, 41.542591], [-8.205485, 41.534267], [-8.19892, 41.526169], [-8.195973, 41.517141], [-8.195865, 41.508133], [-8.19809, 41.499141], [-8.203003, 41.490168], [-8.218169, 41.476435], [-8.230205, 41.471428], [-8.242211, 41.468839], [-8.254193, 41.468316], [-8.266155, 41.469482], [-8.290042, 41.475387], [-8.30201, 41.476198], [-8.329351, 41.463951], [-8.338086, 41.461898], [-8.362044, 41.460925], [-8.374046, 41.458031], [-8.398087, 41.447852], [-8.410081, 41.445398], [-8.422055, 41.445089], [-8.434007, 41.447288], [-8.450082, 41.455585], [-8.457822, 41.462684], [-8.464852, 41.473669], [-8.471124, 41.491713], [-8.493455, 41.500016], [-8.501285, 41.509863], [-8.499398, 41.518862], [-8.493274, 41.523278], [-8.481279, 41.524391], [-8.467643, 41.518719], [-8.457436, 41.509063], [-8.44545, 41.509399], [-8.421443, 41.51393], [-8.409456, 41.514287], [-8.373559, 41.508605], [-8.349553, 41.512634], [-8.313581, 41.514662], [-8.28886, 41.535767], [-8.277321, 41.542354]], [[-8.755323, 41.303509], [-8.747034, 41.312499], [-8.733824, 41.318468], [-8.721869, 41.32012], [-8.709928, 41.318543], [-8.698003, 41.313546], [-8.687857, 41.303346], [-8.684795, 41.29433], [-8.686194, 41.284782], [-8.698204, 41.269881], [-8.710173, 41.263142], [-8.72212, 41.26111], [-8.734049, 41.26306], [-8.745962, 41.269684], [-8.752799, 41.27648], [-8.757502, 41.285498], [-8.758296, 41.294508], [-8.755323, 41.303509]]], [[[-8.07683, 41.497854], [-8.07683, 41.497854], [-8.076538, 41.497761], [-8.07683, 41.497854]]], [[[-8.076123, 41.497629], [-8.076123, 41.497629], [-8.075939, 41.49757], [-8.076123, 41.497629]]], [[[-8.650039, 41.179931], [-8.650039, 41.179931], [-8.650089, 41.179768], [-8.650039, 41.179931]]], [[[-8.654444, 41.171887], [-8.662942, 41.161846], [-8.670358, 41.157165], [-8.66117, 41.156307], [-8.662078, 41.158104], [-8.660313, 41.160813], [-8.656143, 41.160832], [-8.653222, 41.168049], [-8.654444, 41.171887]]], [[[-8.670706, 41.15695], [-8.670706, 41.15695], [-8.670725, 41.156938], [-8.670706, 41.15695]]]]}}, {"id": "4", "type": "Feature", "properties": {"fill": "#e19f31", "value_min": -1.5, "value_max": -1.25}, "geometry": {"type": "MultiPolygon", "coordinates": [[[[-8.525999, 41.657753], [-8.504262, 41.6538], [-8.456234, 41.652418], [-8.444244, 41.650141], [-8.432279, 41.645201], [-8.420035, 41.635584], [-8.401797, 41.608468], [-8.396641, 41.603677], [-8.384686, 41.598951], [-8.372707, 41.596851], [-8.348697, 41.597936], [-8.324633, 41.60417], [-8.312576, 41.609569], [-8.30086, 41.616906], [-8.291401, 41.625855], [-8.286196, 41.63483], [-8.283901, 41.643823], [-8.28545, 41.661847], [-8.295551, 41.688931], [-8.301993, 41.697977], [-8.323439, 41.718393], [-8.336448, 41.734209], [-8.341503, 41.743246], [-8.347084, 41.760783], [-8.349267, 41.760103], [-8.352557, 41.755145], [-8.34982, 41.745922], [-8.349814, 41.744122], [-8.352516, 41.743441], [-8.352203, 41.739616], [-8.357897, 41.735103], [-8.362407, 41.735994], [-8.368703, 41.73193], [-8.374122, 41.734845], [-8.382669, 41.731225], [-8.364548, 41.707347], [-8.343165, 41.689213], [-8.337284, 41.680172], [-8.334474, 41.671149], [-8.334623, 41.662142], [-8.337958, 41.653154], [-8.345796, 41.644192], [-8.360315, 41.636586], [-8.372341, 41.634574], [-8.384337, 41.635622], [-8.396308, 41.639412], [-8.408243, 41.64729], [-8.423928, 41.662625], [-8.432, 41.676948], [-8.452075, 41.699808], [-8.453868, 41.697961], [-8.453255, 41.695487], [-8.461659, 41.694563], [-8.482012, 41.682123], [-8.484371, 41.674238], [-8.49308, 41.674886], [-8.499963, 41.671038], [-8.50927, 41.671233], [-8.51018, 41.672806], [-8.511967, 41.670324], [-8.509856, 41.668755], [-8.512252, 41.667847], [-8.514629, 41.663788], [-8.522103, 41.658811], [-8.525706, 41.659023], [-8.525999, 41.657753]]], [[[-8.233789, 41.79227], [-8.223558, 41.742509], [-8.214739, 41.733442], [-8.198462, 41.724323], [-8.179195, 41.717048], [-8.167172, 41.717195], [-8.14296, 41.729908], [-8.130874, 41.734482], [-8.118843, 41.734969], [-8.106928, 41.727001], [-8.102109, 41.714603], [-8.101248, 41.705589], [-8.104251, 41.696606], [-8.119512, 41.68594], [-8.140463, 41.678868], [-8.149255, 41.669927], [-8.147276, 41.660905], [-8.108078, 41.643794], [-8.084108, 41.640603], [-8.072152, 41.637067], [-8.053292, 41.624141], [-8.0454, 41.615069], [-8.036675, 41.600242], [-8.031467, 41.602938], [-8.02367, 41.603156], [-8.019174, 41.601802], [-8.015872, 41.603824], [-8.013474, 41.603372], [-8.005971, 41.60629], [-8.003562, 41.611239], [-7.998761, 41.612809], [-7.999669, 41.608759], [-7.996976, 41.605829], [-7.996684, 41.602003], [-7.984685, 41.603564], [-7.982292, 41.60086], [-7.975689, 41.603552], [-7.974482, 41.606701], [-7.970882, 41.607147], [-7.969091, 41.603768], [-7.965796, 41.602413], [-7.9541, 41.602846], [-7.952606, 41.600592], [-7.947808, 41.60081], [-7.945413, 41.599456], [-7.942725, 41.595625], [-7.936733, 41.594264], [-7.93791, 41.601694], [-7.937004, 41.603718], [-7.931604, 41.604384], [-7.930073, 41.614735], [-7.925255, 41.620579], [-7.920755, 41.620796], [-7.917748, 41.623041], [-7.915933, 41.627764], [-7.913229, 41.628885], [-7.912613, 41.63361], [-7.906014, 41.633147], [-7.905699, 41.637648], [-7.907788, 41.640804], [-7.899573, 41.645289], [-7.927521, 41.670384], [-7.962918, 41.7103], [-7.974837, 41.716644], [-8.010898, 41.716821], [-8.022847, 41.721632], [-8.033602, 41.732061], [-8.037559, 41.741102], [-8.037599, 41.750109], [-8.029435, 41.777061], [-8.02997, 41.786072], [-8.033737, 41.79713], [-8.04734, 41.821726], [-8.057314, 41.815656], [-8.06664, 41.817012], [-8.072961, 41.813414], [-8.078678, 41.813417], [-8.082892, 41.810493], [-8.091013, 41.812521], [-8.093421, 41.811397], [-8.093723, 41.808471], [-8.101845, 41.809824], [-8.104853, 41.81185], [-8.115984, 41.812302], [-8.123807, 41.808702], [-8.138247, 41.808477], [-8.139751, 41.813203], [-8.14276, 41.812978], [-8.144866, 41.815228], [-8.149078, 41.814777], [-8.153291, 41.817703], [-8.158106, 41.818377], [-8.165326, 41.81815], [-8.173744, 41.808019], [-8.177655, 41.808242], [-8.183676, 41.812741], [-8.190291, 41.809587], [-8.197158, 41.814129], [-8.201063, 41.808724], [-8.204973, 41.807372], [-8.205872, 41.804445], [-8.213692, 41.803765], [-8.217598, 41.80016], [-8.217589, 41.793634], [-8.224207, 41.794303], [-8.229917, 41.791598], [-8.233789, 41.79227]], [[-8.190687, 41.759217], [-8.178566, 41.766407], [-8.166524, 41.767279], [-8.154546, 41.763294], [-8.150673, 41.760007], [-8.145622, 41.750963], [-8.147078, 41.741967], [-8.156386, 41.733028], [-8.167026, 41.728477], [-8.179043, 41.728977], [-8.187995, 41.733256], [-8.195653, 41.742317], [-8.195772, 41.751325], [-8.190687, 41.759217]], [[-8.08275, 41.71445], [-8.07087, 41.726237], [-8.058812, 41.728596], [-8.046834, 41.725505], [-8.02305, 41.708244], [-7.981464, 41.686576], [-7.972166, 41.677486], [-7.966247, 41.668426], [-7.961774, 41.650372], [-7.96327, 41.641378], [-7.967697, 41.632411], [-7.9763, 41.624407], [-7.988395, 41.618596], [-8.000429, 41.61656], [-8.012424, 41.61704], [-8.024385, 41.619854], [-8.036307, 41.625327], [-8.072012, 41.646791], [-8.095957, 41.651934], [-8.107905, 41.656349], [-8.114728, 41.660659], [-8.120475, 41.66971], [-8.118087, 41.678699], [-8.087741, 41.705483], [-8.08275, 41.71445]]], [[[-8.075939, 41.49757], [-8.076123, 41.497629], [-8.076538, 41.497761], [-8.07683, 41.497854], [-8.076837, 41.497856], [-8.110006, 41.503545], [-8.133945, 41.505421], [-8.145947, 41.50388], [-8.156461, 41.498843], [-8.164765, 41.489896], [-8.179154, 41.45397], [-8.188564, 41.44503], [-8.206647, 41.439112], [-8.254649, 41.428498], [-8.276982, 41.418597], [-8.289803, 41.409669], [-8.298989, 41.400718], [-8.304557, 41.391744], [-8.308234, 41.382759], [-8.31529, 41.3522], [-8.3215, 41.33902], [-8.316788, 41.335876], [-8.313802, 41.336331], [-8.310792, 41.327557], [-8.308701, 41.327561], [-8.307502, 41.325762], [-8.305116, 41.326891], [-8.303024, 41.325994], [-8.303615, 41.323742], [-8.301216, 41.319694], [-8.296431, 41.316774], [-8.297618, 41.313846], [-8.295817, 41.310022], [-8.281801, 41.316569], [-8.281808, 41.319721], [-8.278828, 41.321976], [-8.278238, 41.325128], [-8.273161, 41.325134], [-8.269582, 41.326939], [-8.265709, 41.331221], [-8.269004, 41.336169], [-8.263339, 41.340902], [-8.262751, 41.345405], [-8.256483, 41.347663], [-8.255889, 41.349689], [-8.249622, 41.353072], [-8.251123, 41.356897], [-8.248738, 41.359512], [-8.248834, 41.359601], [-8.249321, 41.36005], [-8.254039, 41.364405], [-8.258227, 41.37344], [-8.258414, 41.382449], [-8.254497, 41.391431], [-8.244522, 41.400373], [-8.230985, 41.405396], [-8.219011, 41.40623], [-8.207073, 41.404116], [-8.197836, 41.400057], [-8.187443, 41.390977], [-8.18355, 41.381942], [-8.183545, 41.376081], [-8.168382, 41.377438], [-8.164499, 41.38059], [-8.152544, 41.375866], [-8.151049, 41.37339], [-8.145073, 41.374742], [-8.139694, 41.377894], [-8.133418, 41.374292], [-8.119672, 41.376768], [-8.119672, 41.378569], [-8.116683, 41.380144], [-8.117578, 41.386447], [-8.113992, 41.386896], [-8.112795, 41.390723], [-8.110105, 41.390947], [-8.108011, 41.393648], [-8.103827, 41.392972], [-8.105321, 41.394998], [-8.10263, 41.396123], [-8.10801, 41.398825], [-8.108606, 41.403102], [-8.104419, 41.406252], [-8.104119, 41.408728], [-8.101727, 41.409403], [-8.102025, 41.411204], [-8.092756, 41.411201], [-8.09126, 41.414352], [-8.079893, 41.41975], [-8.077503, 41.416597], [-8.070923, 41.41862], [-8.066739, 41.416142], [-8.061654, 41.417489], [-8.059852, 41.424916], [-8.055959, 41.429415], [-8.05745, 41.432793], [-8.056549, 41.436394], [-8.069999, 41.447206], [-8.068788, 41.462286], [-8.073872, 41.46499], [-8.074164, 41.473543], [-8.066374, 41.482318], [-8.066069, 41.48817], [-8.072054, 41.490199], [-8.07175, 41.494925], [-8.075939, 41.49757]], [[-8.134183, 41.487497], [-8.132662, 41.489659], [-8.122121, 41.493708], [-8.110146, 41.493334], [-8.099939, 41.489407], [-8.093465, 41.480349], [-8.095402, 41.471357], [-8.098518, 41.467907], [-8.11057, 41.462333], [-8.122536, 41.46291], [-8.13565, 41.471666], [-8.138016, 41.480692], [-8.134183, 41.487497]]], [[[-8.399123, 41.313439], [-8.4231, 41.326983], [-8.434956, 41.337813], [-8.442308, 41.347456], [-8.451186, 41.365514], [-8.464037, 41.410613], [-8.477925, 41.446707], [-8.487321, 41.464764], [-8.504108, 41.482853], [-8.529381, 41.502521], [-8.541312, 41.509734], [-8.553265, 41.514081], [-8.565251, 41.513865], [-8.577263, 41.509396], [-8.607205, 41.492258], [-8.618229, 41.483288], [-8.637486, 41.454346], [-8.649518, 41.443373], [-8.67352, 41.431423], [-8.70656, 41.420495], [-8.721279, 41.411524], [-8.727542, 41.402531], [-8.728243, 41.393525], [-8.725272, 41.38451], [-8.719574, 41.375489], [-8.70315, 41.357433], [-8.681853, 41.33936], [-8.644352, 41.312227], [-8.634068, 41.303187], [-8.627843, 41.29416], [-8.625382, 41.285144], [-8.625629, 41.276137], [-8.629975, 41.24012], [-8.624697, 41.213079], [-8.6138, 41.177449], [-8.608583, 41.174095], [-8.609164, 41.172066], [-8.604942, 41.164881], [-8.59422, 41.165149], [-8.589174, 41.167645], [-8.589194, 41.170572], [-8.583263, 41.174422], [-8.582094, 41.177803], [-8.578825, 41.178941], [-8.581282, 41.189768], [-8.594717, 41.20397], [-8.598653, 41.212991], [-8.600026, 41.222004], [-8.59871, 41.231007], [-8.594348, 41.24], [-8.578918, 41.253354], [-8.566954, 41.257684], [-8.555004, 41.259526], [-8.543071, 41.258932], [-8.531154, 41.256051], [-8.516744, 41.248708], [-8.507401, 41.240039], [-8.501432, 41.230627], [-8.49926, 41.222441], [-8.495642, 41.222227], [-8.495947, 41.223351], [-8.490894, 41.226294], [-8.487935, 41.230354], [-8.490331, 41.232373], [-8.489156, 41.235528], [-8.486181, 41.236888], [-8.484411, 41.240495], [-8.476346, 41.237818], [-8.475756, 41.23917], [-8.470986, 41.23941], [-8.471604, 41.243459], [-8.469227, 41.245267], [-8.463258, 41.244384], [-8.459989, 41.246644], [-8.454323, 41.246886], [-8.455541, 41.251834], [-8.452276, 41.25522], [-8.449891, 41.255452], [-8.449304, 41.257479], [-8.447812, 41.257258], [-8.449028, 41.261982], [-8.439785, 41.262907], [-8.438023, 41.268989], [-8.434745, 41.269673], [-8.432691, 41.277107], [-8.427032, 41.279372], [-8.429143, 41.284319], [-8.426171, 41.287028], [-8.426488, 41.291079], [-8.425013, 41.294909], [-8.422037, 41.296942], [-8.422647, 41.299867], [-8.407744, 41.304856], [-8.406262, 41.307335], [-8.403277, 41.307342], [-8.399123, 41.313439]], [[-8.58943, 41.4804], [-8.577404, 41.487727], [-8.565401, 41.491297], [-8.553417, 41.491954], [-8.54145, 41.490151], [-8.529506, 41.48521], [-8.514003, 41.473887], [-8.506859, 41.464849], [-8.502578, 41.455824], [-8.501599, 41.437804], [-8.504789, 41.428811], [-8.510776, 41.419829], [-8.518064, 41.412818], [-8.53008, 41.405789], [-8.542067, 41.402426], [-8.55404, 41.401099], [-8.565997, 41.40206], [-8.577943, 41.404716], [-8.589868, 41.410772], [-8.600662, 41.420176], [-8.606305, 41.429203], [-8.608671, 41.447226], [-8.602631, 41.46522], [-8.596442, 41.474206], [-8.58943, 41.4804]]], [[[-7.865697, 41.858812], [-7.865785, 41.858615], [-7.865797, 41.858587], [-7.868813, 41.8544], [-7.869107, 41.854093], [-7.86972, 41.853454], [-7.869753, 41.85342], [-7.870022, 41.853139], [-7.872553, 41.8505], [-7.872768, 41.850276], [-7.873066, 41.844875], [-7.875463, 41.847583], [-7.888622, 41.836436], [-7.89969, 41.820925], [-7.901524, 41.811936], [-7.899001, 41.802905], [-7.889368, 41.793256], [-7.877424, 41.788021], [-7.865415, 41.786565], [-7.829303, 41.787062], [-7.81737, 41.781525], [-7.784292, 41.747708], [-7.762655, 41.729862], [-7.762933, 41.733839], [-7.759307, 41.737203], [-7.759597, 41.739005], [-7.75689, 41.739446], [-7.758687, 41.740577], [-7.757758, 41.745301], [-7.748417, 41.749321], [-7.747786, 41.754496], [-7.743866, 41.756509], [-7.740214, 41.763924], [-7.726937, 41.771755], [-7.7254, 41.777152], [-7.727191, 41.779184], [-7.724177, 41.780299], [-7.725372, 41.781653], [-7.722296, 41.792446], [-7.728879, 41.797871], [-7.727026, 41.805517], [-7.728761, 41.816776], [-7.732041, 41.821514], [-7.743152, 41.825154], [-7.742839, 41.827178], [-7.738918, 41.82874], [-7.742196, 41.833928], [-7.74729, 41.837772], [-7.746349, 41.84407], [-7.750246, 41.846784], [-7.750532, 41.849261], [-7.743309, 41.849012], [-7.746901, 41.8524], [-7.746881, 41.855776], [-7.73843, 41.859348], [-7.734159, 41.868337], [-7.730228, 41.871024], [-7.729293, 41.875972], [-7.722351, 41.878424], [-7.720523, 41.881793], [-7.725335, 41.882935], [-7.726208, 41.887665], [-7.737044, 41.888828], [-7.737935, 41.890857], [-7.74246, 41.889747], [-7.742785, 41.885922], [-7.756022, 41.888441], [-7.758719, 41.890926], [-7.756592, 41.89407], [-7.758076, 41.897901], [-7.764097, 41.898595], [-7.779227, 41.886264], [-7.785257, 41.885157], [-7.788886, 41.882467], [-7.794007, 41.882257], [-7.796739, 41.878214], [-7.794349, 41.87438], [-7.797064, 41.873488], [-7.803381, 41.874857], [-7.804914, 41.869459], [-7.813032, 41.871958], [-7.814229, 41.873537], [-7.823863, 41.874013], [-7.825059, 41.875817], [-7.830479, 41.875831], [-7.830789, 41.874031], [-7.832894, 41.874712], [-7.83772, 41.872924], [-7.842528, 41.875187], [-7.841663, 41.866632], [-7.845893, 41.863491], [-7.849515, 41.861475], [-7.858542, 41.862622], [-7.859456, 41.860148], [-7.865697, 41.858812]]], [[[-7.762552, 41.729786], [-7.762552, 41.729786], [-7.762356, 41.729642], [-7.762552, 41.729786]]], [[[-8.445125, 41.547462], [-8.457092, 41.550182], [-8.461313, 41.545712], [-8.457188, 41.538655], [-8.445161, 41.54324], [-8.443749, 41.545628], [-8.445125, 41.547462]]]]}}, {"id": "1", "type": "Feature", "properties": {"fill": "#b11c1c", "value_min": -2.25, "value_max": -2.0}, "geometry": {"type": "MultiPolygon", "coordinates": [[[[-8.104188, 41.678591], [-8.100149, 41.669553], [-8.095753, 41.666535], [-8.083755, 41.665502], [-8.074604, 41.66935], [-8.069392, 41.678315], [-8.076246, 41.687377], [-8.083401, 41.690432], [-8.095447, 41.688387], [-8.104188, 41.678591]], [[-8.083504, 41.683208], [-8.078878, 41.678391], [-8.083645, 41.673291], [-8.095652, 41.673726], [-8.098796, 41.678549], [-8.095531, 41.682332], [-8.083504, 41.683208]]], [[[-8.047591, 41.660122], [-8.043548, 41.651082], [-8.036007, 41.645436], [-8.024047, 41.642255], [-8.01201, 41.644181], [-8.002915, 41.650736], [-8.000084, 41.659719], [-8.00398, 41.66876], [-8.011551, 41.674202], [-8.023522, 41.677], [-8.035564, 41.67511], [-8.044793, 41.669106], [-8.047591, 41.660122]], [[-8.021397, 41.668909], [-8.011127, 41.659814], [-8.020681, 41.650889], [-8.023932, 41.649894], [-8.03584, 41.656677], [-8.037781, 41.66004], [-8.035741, 41.663285], [-8.026277, 41.668951], [-8.021397, 41.668909]]], [[[-8.575539, 41.456116], [-8.573393, 41.4471], [-8.565745, 41.439868], [-8.5538, 41.436202], [-8.541498, 41.43797], [-8.529869, 41.446931], [-8.52786, 41.45593], [-8.532575, 41.464957], [-8.541586, 41.470854], [-8.553549, 41.472796], [-8.565548, 41.469295], [-8.571172, 41.465107], [-8.575539, 41.456116]], [[-8.54168, 41.457527], [-8.541705, 41.454001], [-8.553716, 41.448462], [-8.560473, 41.456059], [-8.553619, 41.462535], [-8.54168, 41.457527]]]]}}, {"id": "0", "type": "Feature", "properties": {"fill": "#a21c1c", "value_min": -2.5, "value_max": -2.25}, "geometry": {"type": "MultiPolygon", "coordinates": [[[[-8.083504, 41.683208], [-8.095531, 41.682332], [-8.098796, 41.678549], [-8.095652, 41.673726], [-8.083645, 41.673291], [-8.078878, 41.678391], [-8.083504, 41.683208]]], [[[-8.021397, 41.668909], [-8.026277, 41.668951], [-8.035741, 41.663285], [-8.037781, 41.66004], [-8.03584, 41.656677], [-8.023932, 41.649894], [-8.020681, 41.650889], [-8.011127, 41.659814], [-8.021397, 41.668909]]], [[[-8.54168, 41.457527], [-8.553619, 41.462535], [-8.560473, 41.456059], [-8.553716, 41.448462], [-8.541705, 41.454001], [-8.54168, 41.457527]]]]}}, {"id": "2", "type": "Feature", "properties": {"fill": "#c93e18", "value_min": -2.0, "value_max": -1.75}, "geometry": {"type": "MultiPolygon", "coordinates": [[[[-8.164712, 41.742096], [-8.166803, 41.745729], [-8.173634, 41.742161], [-8.166872, 41.740424], [-8.164712, 41.742096]]], [[[-8.047047, 41.711119], [-8.059058, 41.711735], [-8.07127, 41.698454], [-8.095383, 41.69296], [-8.110418, 41.67864], [-8.10966, 41.669627], [-8.095841, 41.66022], [-8.083858, 41.658265], [-8.071844, 41.658492], [-8.059888, 41.65471], [-8.048041, 41.643702], [-8.036141, 41.636475], [-8.024182, 41.633341], [-8.012177, 41.633225], [-8.000117, 41.636758], [-7.992969, 41.641642], [-7.986996, 41.650597], [-7.985789, 41.659593], [-7.988908, 41.668628], [-7.997257, 41.677708], [-8.011386, 41.684988], [-8.03534, 41.69013], [-8.042292, 41.696106], [-8.04112, 41.705103], [-8.047047, 41.711119]], [[-8.104188, 41.678591], [-8.095447, 41.688387], [-8.083401, 41.690432], [-8.076246, 41.687377], [-8.069392, 41.678315], [-8.074604, 41.66935], [-8.083755, 41.665502], [-8.095753, 41.666535], [-8.100149, 41.669553], [-8.104188, 41.678591]], [[-8.047591, 41.660122], [-8.044793, 41.669106], [-8.035564, 41.67511], [-8.023522, 41.677], [-8.011551, 41.674202], [-8.00398, 41.66876], [-8.000084, 41.659719], [-8.002915, 41.650736], [-8.01201, 41.644181], [-8.024047, 41.642255], [-8.036007, 41.645436], [-8.043548, 41.651082], [-8.047591, 41.660122]]], [[[-8.383866, 41.685109], [-8.397126, 41.680501], [-8.403924, 41.67153], [-8.402851, 41.662517], [-8.392765, 41.653457], [-8.384196, 41.650425], [-8.372178, 41.651375], [-8.368022, 41.653324], [-8.359014, 41.662281], [-8.358763, 41.671287], [-8.366574, 41.680337], [-8.371866, 41.683411], [-8.383866, 41.685109]]], [[[-8.55349, 41.481351], [-8.565479, 41.479637], [-8.576636, 41.474135], [-8.585548, 41.46516], [-8.588901, 41.456164], [-8.588719, 41.447156], [-8.584609, 41.438134], [-8.57777, 41.431455], [-8.565841, 41.425411], [-8.553887, 41.423418], [-8.541912, 41.424557], [-8.529908, 41.429638], [-8.520878, 41.437886], [-8.516637, 41.446876], [-8.516496, 41.455883], [-8.52029, 41.464906], [-8.529587, 41.474022], [-8.541524, 41.47972], [-8.55349, 41.481351]], [[-8.575539, 41.456116], [-8.571172, 41.465107], [-8.565548, 41.469295], [-8.553549, 41.472796], [-8.541586, 41.470854], [-8.532575, 41.464957], [-8.52786, 41.45593], [-8.529869, 41.446931], [-8.541498, 41.43797], [-8.5538, 41.436202], [-8.565745, 41.439868], [-8.573393, 41.4471], [-8.575539, 41.456116]]]]}}, {"id": "7", "type": "Feature", "properties": {"fill": "#a3a3a3", "value_min": -0.75, "value_max": -0.5}, "geometry": {"type": "MultiPolygon", "coordinates": [[[[-7.890356, 41.712753], [-7.890658, 41.718374], [-7.90104, 41.712856], [-7.890761, 41.712385], [-7.890356, 41.712753]]], [[[-8.084323, 41.625443], [-8.096339, 41.624559], [-8.103526, 41.615537], [-8.096616, 41.604712], [-8.084632, 41.603551], [-8.079786, 41.606342], [-8.074257, 41.615305], [-8.084323, 41.625443]]], [[[-8.241566, 41.524178], [-8.253569, 41.522642], [-8.261482, 41.51758], [-8.265942, 41.508601], [-8.262445, 41.499572], [-8.253903, 41.49359], [-8.241943, 41.491859], [-8.229912, 41.496201], [-8.226353, 41.499334], [-8.222956, 41.508319], [-8.226763, 41.517352], [-8.229632, 41.51984], [-8.241566, 41.524178]]], [[[-8.421617, 41.49437], [-8.43361, 41.492979], [-8.442405, 41.48257], [-8.438741, 41.473545], [-8.43381, 41.469938], [-8.421848, 41.468467], [-8.411539, 41.473409], [-8.409801, 41.476338], [-8.407513, 41.482396], [-8.40971, 41.48631], [-8.41438, 41.491438], [-8.421617, 41.49437]]]]}}]}