{"type": "FeatureCollection", "features": [{"id": "2", "type": "Feature", "properties": {"fill": "#a3a3a3", "value_min": 0.5, "value_max": -0.75}, "geometry": {"type": "MultiPolygon", "coordinates": [[[[-7.874711, 41.845553], [-7.888571, 41.839333], [-7.898221, 41.829918], [-7.903581, 41.820963], [-7.905252, 41.811972], [-7.903047, 41.802944], [-7.89411, 41.784845], [-7.895248, 41.757835], [-7.889389, 41.748772], [-7.862336, 41.730493], [-7.872621, 41.703574], [-7.872271, 41.694564], [-7.866037, 41.683705], [-7.864403, 41.683701], [-7.864096, 41.685276], [-7.860493, 41.685268], [-7.857773, 41.689538], [-7.854776, 41.68818], [-7.850856, 41.691957], [-7.855061, 41.692048], [-7.85829, 41.694425], [-7.866167, 41.70351], [-7.862902, 41.712485], [-7.854567, 41.719852], [-7.842529, 41.720765], [-7.830645, 41.713162], [-7.82955, 41.710175], [-7.825252, 41.708813], [-7.818621, 41.713522], [-7.815291, 41.718689], [-7.808986, 41.717996], [-7.808396, 41.715744], [-7.804499, 41.714158], [-7.79939, 41.714593], [-7.79788, 41.716164], [-7.796383, 41.71526], [-7.790966, 41.717044], [-7.789449, 41.719966], [-7.78464, 41.720402], [-7.78252, 41.723546], [-7.77757, 41.724431], [-7.770148, 41.733843], [-7.759609, 41.73694], [-7.759597, 41.739005], [-7.75689, 41.739446], [-7.758687, 41.740577], [-7.757758, 41.745301], [-7.748417, 41.749321], [-7.747786, 41.754496], [-7.743866, 41.756509], [-7.740214, 41.763924], [-7.726937, 41.771755], [-7.7254, 41.777152], [-7.727191, 41.779184], [-7.724177, 41.780299], [-7.725372, 41.781653], [-7.722296, 41.792446], [-7.728879, 41.797871], [-7.727324, 41.805993], [-7.744692, 41.806007], [-7.756783, 41.803262], [-7.78108, 41.791564], [-7.793165, 41.788928], [-7.805071, 41.795848], [-7.829759, 41.829241], [-7.84041, 41.838452], [-7.852345, 41.844591], [-7.864353, 41.846667], [-7.873063, 41.845731], [-7.874711, 41.845553]], [[-7.864593, 41.833106], [-7.852621, 41.829116], [-7.84305, 41.820369], [-7.839921, 41.81133], [-7.841413, 41.802339], [-7.852817, 41.78444], [-7.841512, 41.777337], [-7.833314, 41.76623], [-7.832637, 41.757216], [-7.838125, 41.748265], [-7.842084, 41.745553], [-7.854174, 41.741955], [-7.86618, 41.74311], [-7.878037, 41.748661], [-7.884601, 41.757732], [-7.883572, 41.766729], [-7.877651, 41.774987], [-7.865942, 41.78457], [-7.877389, 41.79], [-7.889258, 41.79964], [-7.894775, 41.811871], [-7.892262, 41.820854], [-7.888819, 41.825045], [-7.876652, 41.832178], [-7.864593, 41.833106]], [[-7.73308, 41.783181], [-7.733105, 41.783153], [-7.733292, 41.783184], [-7.733104, 41.783211], [-7.73308, 41.783181]]], [[[-8.202384, 41.786079], [-8.214547, 41.775543], [-8.235059, 41.733579], [-8.25752, 41.706705], [-8.260977, 41.697721], [-8.261338, 41.688716], [-8.258711, 41.679692], [-8.252578, 41.670645], [-8.239971, 41.660269], [-8.228025, 41.654838], [-8.216044, 41.652467], [-8.20404, 41.652032], [-8.19201, 41.653653], [-8.179947, 41.657863], [-8.167841, 41.665259], [-8.162199, 41.670022], [-8.150123, 41.687947], [-8.143474, 41.691198], [-8.140125, 41.69688], [-8.131336, 41.700237], [-8.117147, 41.71472], [-8.113421, 41.723698], [-8.114864, 41.741723], [-8.119509, 41.759773], [-8.130316, 41.775849], [-8.142226, 41.785024], [-8.15419, 41.790373], [-8.166191, 41.793033], [-8.178222, 41.793376], [-8.190283, 41.791342], [-8.202384, 41.786079]], [[-8.178564, 41.766547], [-8.166529, 41.766922], [-8.154549, 41.763032], [-8.150399, 41.760005], [-8.143285, 41.750945], [-8.14169, 41.741927], [-8.142923, 41.732637], [-8.131022, 41.723541], [-8.125007, 41.71478], [-8.131287, 41.703813], [-8.143339, 41.701388], [-8.154923, 41.705997], [-8.166496, 41.715088], [-8.169218, 41.715108], [-8.17789, 41.706163], [-8.182078, 41.688179], [-8.191002, 41.679235], [-8.203769, 41.673974], [-8.215784, 41.67385], [-8.2296, 41.679501], [-8.237418, 41.68856], [-8.238714, 41.697575], [-8.235111, 41.706558], [-8.227314, 41.71425], [-8.21521, 41.721141], [-8.205194, 41.724369], [-8.200005, 41.751354], [-8.190658, 41.761539], [-8.178564, 41.766547]]], [[[-8.451412, 41.700669], [-8.443844, 41.69667], [-8.431854, 41.69355], [-8.419839, 41.693274], [-8.399813, 41.69853], [-8.384103, 41.707454], [-8.375825, 41.716416], [-8.373314, 41.725409], [-8.374422, 41.734617], [-8.384922, 41.73032], [-8.387032, 41.731891], [-8.392541, 41.730303], [-8.389767, 41.725498], [-8.390312, 41.716494], [-8.397682, 41.707526], [-8.407737, 41.7025], [-8.419775, 41.700365], [-8.431776, 41.702399], [-8.443113, 41.709703], [-8.451412, 41.700669]]], [[[-8.107568, 41.680779], [-8.111536, 41.678648], [-8.11516, 41.669669], [-8.110334, 41.660625], [-8.107883, 41.657947], [-8.095954, 41.652166], [-8.083906, 41.65488], [-8.07064, 41.669318], [-8.068433, 41.678307], [-8.074279, 41.687361], [-8.083365, 41.693012], [-8.0954, 41.691686], [-8.107568, 41.680779]], [[-8.083495, 41.683845], [-8.079007, 41.678392], [-8.083667, 41.671738], [-8.095688, 41.671153], [-8.100383, 41.678562], [-8.095515, 41.683522], [-8.083495, 41.683845]]], [[[-8.108155, 41.638262], [-8.124884, 41.615701], [-8.126224, 41.606704], [-8.11983, 41.597648], [-8.108804, 41.591101], [-8.09685, 41.587952], [-8.08486, 41.587404], [-8.072832, 41.589545], [-8.059407, 41.59717], [-8.053684, 41.60613], [-8.0535, 41.615136], [-8.057888, 41.624179], [-8.072141, 41.637774], [-8.095992, 41.649434], [-8.100937, 41.642538], [-8.108155, 41.638262]], [[-8.084281, 41.628395], [-8.076344, 41.624329], [-8.072413, 41.61886], [-8.070619, 41.615275], [-8.072531, 41.610606], [-8.075477, 41.606307], [-8.084656, 41.60186], [-8.096641, 41.602967], [-8.101954, 41.606517], [-8.105862, 41.615555], [-8.100205, 41.624518], [-8.096301, 41.627283], [-8.084281, 41.628395]]], [[[-8.371425, 41.500219], [-8.374569, 41.491229], [-8.374316, 41.48222], [-8.370791, 41.473193], [-8.362012, 41.464163], [-8.350091, 41.458782], [-8.338132, 41.457384], [-8.326144, 41.458816], [-8.313695, 41.463859], [-8.303298, 41.472804], [-8.298591, 41.481783], [-8.297989, 41.490787], [-8.30149, 41.499815], [-8.308651, 41.508866], [-8.313605, 41.512374], [-8.32554, 41.517016], [-8.337514, 41.518037], [-8.349515, 41.516416], [-8.361555, 41.510788], [-8.371425, 41.500219]], [[-8.337623, 41.507366], [-8.325674, 41.504109], [-8.319782, 41.499925], [-8.314228, 41.490885], [-8.314584, 41.481879], [-8.321366, 41.472912], [-8.326028, 41.470009], [-8.338035, 41.466865], [-8.349996, 41.468305], [-8.358265, 41.473124], [-8.365085, 41.482169], [-8.365317, 41.491178], [-8.359371, 41.500152], [-8.34962, 41.505978], [-8.337623, 41.507366]]], [[[-8.640994, 41.196015], [-8.642964, 41.204129], [-8.650729, 41.217007], [-8.66261, 41.226422], [-8.674519, 41.230871], [-8.686443, 41.232615], [-8.698377, 41.232348], [-8.710318, 41.230363], [-8.731601, 41.222386], [-8.744054, 41.213406], [-8.751537, 41.204415], [-8.75549, 41.195415], [-8.756761, 41.18641], [-8.75563, 41.1774], [-8.751787, 41.168384], [-8.744479, 41.15936], [-8.7345, 41.151781], [-8.720739, 41.145805], [-8.674793, 41.146932], [-8.674849, 41.153767], [-8.672489, 41.15648], [-8.66117, 41.156307], [-8.662078, 41.158104], [-8.660313, 41.160813], [-8.657033, 41.160378], [-8.654961, 41.161963], [-8.653231, 41.169174], [-8.655366, 41.175467], [-8.647955, 41.180228], [-8.647696, 41.185181], [-8.640994, 41.196015]], [[-8.698425, 41.22186], [-8.686493, 41.222208], [-8.674578, 41.219116], [-8.664801, 41.213203], [-8.658105, 41.204175], [-8.656135, 41.195162], [-8.657836, 41.186159], [-8.663572, 41.177168], [-8.674824, 41.16938], [-8.686761, 41.165924], [-8.698682, 41.165726], [-8.71059, 41.168683], [-8.722479, 41.176217], [-8.729144, 41.186348], [-8.730274, 41.195359], [-8.72741, 41.20436], [-8.722335, 41.21026], [-8.710371, 41.218252], [-8.698425, 41.22186]]]]}}, {"id": "1", "type": "Feature", "properties": {"fill": "#a3a3a3", "value_min": 0.25, "value_max": -0.5}, "geometry": {"type": "MultiPolygon", "coordinates": [[[[-7.864593, 41.833106], [-7.876652, 41.832178], [-7.888819, 41.825045], [-7.892262, 41.820854], [-7.894775, 41.811871], [-7.889258, 41.79964], [-7.877389, 41.79], [-7.865942, 41.78457], [-7.877651, 41.774987], [-7.883572, 41.766729], [-7.884601, 41.757732], [-7.878037, 41.748661], [-7.86618, 41.74311], [-7.854174, 41.741955], [-7.842084, 41.745553], [-7.838125, 41.748265], [-7.832637, 41.757216], [-7.833314, 41.76623], [-7.841512, 41.777337], [-7.852817, 41.78444], [-7.841413, 41.802339], [-7.839921, 41.81133], [-7.84305, 41.820369], [-7.852621, 41.829116], [-7.864593, 41.833106]], [[-7.864792, 41.821849], [-7.856461, 41.811496], [-7.865145, 41.801871], [-7.877172, 41.802448], [-7.883856, 41.811766], [-7.878332, 41.820719], [-7.864792, 41.821849]], [[-7.857104, 41.766469], [-7.85378, 41.764105], [-7.85107, 41.757402], [-7.853948, 41.754682], [-7.86603, 41.751655], [-7.873598, 41.757625], [-7.868684, 41.766583], [-7.865736, 41.768351], [-7.857104, 41.766469]]], [[[-7.73308, 41.783181], [-7.733104, 41.783211], [-7.733292, 41.783184], [-7.733105, 41.783153], [-7.73308, 41.783181]]], [[[-8.178564, 41.766547], [-8.190658, 41.761539], [-8.200005, 41.751354], [-8.205194, 41.724369], [-8.21521, 41.721141], [-8.227314, 41.71425], [-8.235111, 41.706558], [-8.238714, 41.697575], [-8.237418, 41.68856], [-8.2296, 41.679501], [-8.215784, 41.67385], [-8.203769, 41.673974], [-8.191002, 41.679235], [-8.182078, 41.688179], [-8.17789, 41.706163], [-8.169218, 41.715108], [-8.166496, 41.715088], [-8.154923, 41.705997], [-8.143339, 41.701388], [-8.131287, 41.703813], [-8.125007, 41.71478], [-8.131022, 41.723541], [-8.142923, 41.732637], [-8.14169, 41.741927], [-8.143285, 41.750945], [-8.150399, 41.760005], [-8.154549, 41.763032], [-8.166529, 41.766922], [-8.178564, 41.766547]], [[-8.166439, 41.751116], [-8.160498, 41.742066], [-8.166926, 41.736243], [-8.178912, 41.739272], [-8.181269, 41.742215], [-8.178815, 41.74687], [-8.166439, 41.751116]], [[-8.2034, 41.703923], [-8.19749, 41.697295], [-8.20254, 41.688323], [-8.215612, 41.688039], [-8.220824, 41.697455], [-8.215426, 41.703384], [-8.2034, 41.703923]]], [[[-8.443113, 41.709703], [-8.431776, 41.702399], [-8.419775, 41.700365], [-8.407737, 41.7025], [-8.397682, 41.707526], [-8.390312, 41.716494], [-8.389767, 41.725498], [-8.392541, 41.730303], [-8.398141, 41.72984], [-8.405229, 41.722846], [-8.403666, 41.716564], [-8.407648, 41.712197], [-8.419705, 41.708207], [-8.432099, 41.717152], [-8.436526, 41.714214], [-8.441333, 41.714201], [-8.443113, 41.709703]]], [[[-7.82955, 41.710175], [-7.830645, 41.713162], [-7.842529, 41.720765], [-7.854567, 41.719852], [-7.862902, 41.712485], [-7.866167, 41.70351], [-7.85829, 41.694425], [-7.855061, 41.692048], [-7.850856, 41.691957], [-7.847538, 41.695365], [-7.837309, 41.699391], [-7.835792, 41.702763], [-7.839682, 41.705924], [-7.838465, 41.709522], [-7.82955, 41.710175]]], [[[-8.083495, 41.683845], [-8.095515, 41.683522], [-8.100383, 41.678562], [-8.095688, 41.671153], [-8.083667, 41.671738], [-8.079007, 41.678392], [-8.083495, 41.683845]]], [[[-8.084281, 41.628395], [-8.096301, 41.627283], [-8.100205, 41.624518], [-8.105862, 41.615555], [-8.101954, 41.606517], [-8.096641, 41.602967], [-8.084656, 41.60186], [-8.075477, 41.606307], [-8.072531, 41.610606], [-8.070619, 41.615275], [-8.072413, 41.61886], [-8.076344, 41.624329], [-8.084281, 41.628395]]], [[[-8.337623, 41.507366], [-8.34962, 41.505978], [-8.359371, 41.500152], [-8.365317, 41.491178], [-8.365085, 41.482169], [-8.358265, 41.473124], [-8.349996, 41.468305], [-8.338035, 41.466865], [-8.326028, 41.470009], [-8.321366, 41.472912], [-8.314584, 41.481879], [-8.314228, 41.490885], [-8.319782, 41.499925], [-8.325674, 41.504109], [-8.337623, 41.507366]], [[-8.33772, 41.497832], [-8.327382, 41.490962], [-8.328113, 41.481959], [-8.337941, 41.476191], [-8.349899, 41.478061], [-8.354223, 41.482109], [-8.354646, 41.491118], [-8.34972, 41.495973], [-8.33772, 41.497832]]], [[[-8.698425, 41.22186], [-8.710371, 41.218252], [-8.722335, 41.21026], [-8.72741, 41.20436], [-8.730274, 41.195359], [-8.729144, 41.186348], [-8.722479, 41.176217], [-8.71059, 41.168683], [-8.698682, 41.165726], [-8.686761, 41.165924], [-8.674824, 41.16938], [-8.663572, 41.177168], [-8.657836, 41.186159], [-8.656135, 41.195162], [-8.658105, 41.204175], [-8.664801, 41.213203], [-8.674578, 41.219116], [-8.686493, 41.222208], [-8.698425, 41.22186]], [[-8.686563, 41.207467], [-8.679994, 41.204238], [-8.676311, 41.19522], [-8.686663, 41.186463], [-8.698578, 41.188445], [-8.704305, 41.195295], [-8.701455, 41.204296], [-8.698497, 41.206173], [-8.686563, 41.207467]]]]}}, {"id": "0", "type": "Feature", "properties": {"fill": "#a3a3a3", "value_min": 0.0, "value_max": -0.25}, "geometry": {"type": "MultiPolygon", "coordinates": [[[[-7.864792, 41.821849], [-7.878332, 41.820719], [-7.883856, 41.811766], [-7.877172, 41.802448], [-7.865145, 41.801871], [-7.856461, 41.811496], [-7.864792, 41.821849]]], [[[-7.857104, 41.766469], [-7.865736, 41.768351], [-7.868684, 41.766583], [-7.873598, 41.757625], [-7.86603, 41.751655], [-7.853948, 41.754682], [-7.85107, 41.757402], [-7.85378, 41.764105], [-7.857104, 41.766469]]], [[[-8.166439, 41.751116], [-8.178815, 41.74687], [-8.181269, 41.742215], [-8.178912, 41.739272], [-8.166926, 41.736243], [-8.160498, 41.742066], [-8.166439, 41.751116]]], [[[-8.432099, 41.717152], [-8.419705, 41.708207], [-8.407648, 41.712197], [-8.403666, 41.716564], [-8.405229, 41.722846], [-8.417349, 41.725067], [-8.41974, 41.722135], [-8.429643, 41.719859], [-8.432099, 41.717152]]], [[[-8.2034, 41.703923], [-8.215426, 41.703384], [-8.220824, 41.697455], [-8.215612, 41.688039], [-8.20254, 41.688323], [-8.19749, 41.697295], [-8.2034, 41.703923]]], [[[-8.33772, 41.497832], [-8.34972, 41.495973], [-8.354646, 41.491118], [-8.354223, 41.482109], [-8.349899, 41.478061], [-8.337941, 41.476191], [-8.328113, 41.481959], [-8.327382, 41.490962], [-8.33772, 41.497832]]], [[[-8.686563, 41.207467], [-8.698497, 41.206173], [-8.701455, 41.204296], [-8.704305, 41.195295], [-8.698578, 41.188445], [-8.686663, 41.186463], [-8.676311, 41.19522], [-8.679994, 41.204238], [-8.686563, 41.207467]]]]}}, {"id": "3", "type": "Feature", "properties": {"fill": "#a3a3a3", "value_min": 0.75, "value_max": -1.0}, "geometry": {"type": "MultiPolygon", "coordinates": [[[[-8.465922, 41.691174], [-8.443945, 41.684933], [-8.431937, 41.684103], [-8.41991, 41.685364], [-8.380467, 41.698427], [-8.358269, 41.707312], [-8.341984, 41.716227], [-8.338229, 41.725213], [-8.344064, 41.762364], [-8.349267, 41.760103], [-8.352557, 41.755145], [-8.34982, 41.745922], [-8.349814, 41.744122], [-8.352516, 41.743441], [-8.352203, 41.739616], [-8.357897, 41.735103], [-8.362407, 41.735994], [-8.368703, 41.73193], [-8.371416, 41.7344], [-8.374422, 41.734617], [-8.373314, 41.725409], [-8.375825, 41.716416], [-8.384103, 41.707454], [-8.399813, 41.69853], [-8.419839, 41.693274], [-8.431854, 41.69355], [-8.443844, 41.69667], [-8.451412, 41.700669], [-8.453868, 41.697961], [-8.453255, 41.695487], [-8.461659, 41.694563], [-8.465922, 41.691174]]], [[[-8.256049, 41.77425], [-8.25039, 41.760701], [-8.250069, 41.751692], [-8.252611, 41.742702], [-8.263206, 41.729237], [-8.275325, 41.72079], [-8.302131, 41.706985], [-8.305095, 41.697996], [-8.300251, 41.679952], [-8.288128, 41.650014], [-8.276354, 41.628947], [-8.264533, 41.612817], [-8.240799, 41.589704], [-8.228889, 41.582309], [-8.216946, 41.577957], [-8.192998, 41.574427], [-8.075879, 41.567774], [-8.073182, 41.568079], [-8.069283, 41.570553], [-8.068081, 41.573478], [-8.056684, 41.579549], [-8.052181, 41.584498], [-8.052777, 41.587649], [-8.037169, 41.600242], [-8.031467, 41.602938], [-8.02367, 41.603156], [-8.019174, 41.601802], [-8.015872, 41.603824], [-8.013474, 41.603567], [-8.022664, 41.614878], [-8.054352, 41.642164], [-8.059306, 41.651212], [-8.059495, 41.66022], [-8.055104, 41.678198], [-8.060172, 41.687247], [-8.081593, 41.705434], [-8.085336, 41.714471], [-8.078537, 41.741437], [-8.07613, 41.768439], [-8.077019, 41.795467], [-8.080929, 41.811842], [-8.084998, 41.810493], [-8.091013, 41.812521], [-8.093421, 41.811397], [-8.093723, 41.808471], [-8.101845, 41.809824], [-8.104853, 41.81185], [-8.115984, 41.812302], [-8.123807, 41.808702], [-8.138247, 41.808477], [-8.139751, 41.813203], [-8.14276, 41.812978], [-8.145769, 41.815453], [-8.149078, 41.814777], [-8.153893, 41.817928], [-8.161415, 41.818376], [-8.165326, 41.81815], [-8.173744, 41.808019], [-8.177054, 41.808017], [-8.182773, 41.812516], [-8.190291, 41.809587], [-8.197158, 41.814129], [-8.201063, 41.808724], [-8.204973, 41.807372], [-8.205872, 41.804445], [-8.213692, 41.803765], [-8.217598, 41.80016], [-8.217589, 41.793634], [-8.224207, 41.794303], [-8.229917, 41.791598], [-8.240744, 41.791588], [-8.24074, 41.789338], [-8.244347, 41.787984], [-8.245546, 41.785731], [-8.251257, 41.784375], [-8.251845, 41.777172], [-8.256049, 41.77425]], [[-8.202384, 41.786079], [-8.190283, 41.791342], [-8.178222, 41.793376], [-8.166191, 41.793033], [-8.15419, 41.790373], [-8.142226, 41.785024], [-8.130316, 41.775849], [-8.119509, 41.759773], [-8.114864, 41.741723], [-8.113421, 41.723698], [-8.117147, 41.71472], [-8.131336, 41.700237], [-8.140125, 41.69688], [-8.143474, 41.691198], [-8.150123, 41.687947], [-8.162199, 41.670022], [-8.167841, 41.665259], [-8.179947, 41.657863], [-8.19201, 41.653653], [-8.20404, 41.652032], [-8.216044, 41.652467], [-8.228025, 41.654838], [-8.239971, 41.660269], [-8.252578, 41.670645], [-8.258711, 41.679692], [-8.261338, 41.688716], [-8.260977, 41.697721], [-8.25752, 41.706705], [-8.235059, 41.733579], [-8.214547, 41.775543], [-8.202384, 41.786079]], [[-8.107135, 41.712108], [-8.092365, 41.70552], [-8.095214, 41.704995], [-8.097966, 41.696557], [-8.107452, 41.68918], [-8.119551, 41.683077], [-8.130184, 41.687798], [-8.131146, 41.696812], [-8.119191, 41.709459], [-8.107135, 41.712108]], [[-8.107568, 41.680779], [-8.0954, 41.691686], [-8.083365, 41.693012], [-8.074279, 41.687361], [-8.068433, 41.678307], [-8.07064, 41.669318], [-8.083906, 41.65488], [-8.095954, 41.652166], [-8.107883, 41.657947], [-8.110334, 41.660625], [-8.11516, 41.669669], [-8.111536, 41.678648], [-8.107568, 41.680779]], [[-8.108155, 41.638262], [-8.100937, 41.642538], [-8.095992, 41.649434], [-8.072141, 41.637774], [-8.057888, 41.624179], [-8.0535, 41.615136], [-8.053684, 41.60613], [-8.059407, 41.59717], [-8.072832, 41.589545], [-8.08486, 41.587404], [-8.09685, 41.587952], [-8.108804, 41.591101], [-8.11983, 41.597648], [-8.126224, 41.606704], [-8.124884, 41.615701], [-8.108155, 41.638262]]], [[[-7.895527, 41.859552], [-7.900375, 41.853415], [-7.917227, 41.821092], [-7.919293, 41.812105], [-7.911766, 41.785013], [-7.909817, 41.757974], [-7.905619, 41.748927], [-7.875486, 41.730623], [-7.872231, 41.721584], [-7.878904, 41.702963], [-7.887734, 41.685707], [-7.89323, 41.668684], [-7.892377, 41.670033], [-7.883969, 41.67069], [-7.879755, 41.673607], [-7.877044, 41.676077], [-7.876723, 41.681253], [-7.873401, 41.686198], [-7.868896, 41.686413], [-7.868008, 41.68326], [-7.866037, 41.683705], [-7.872271, 41.694564], [-7.872621, 41.703574], [-7.862336, 41.730493], [-7.889389, 41.748772], [-7.895248, 41.757835], [-7.89411, 41.784845], [-7.903047, 41.802944], [-7.905252, 41.811972], [-7.903581, 41.820963], [-7.898221, 41.829918], [-7.888571, 41.839333], [-7.874711, 41.845553], [-7.879956, 41.853217], [-7.888076, 41.855486], [-7.891675, 41.859094], [-7.895527, 41.859552]]], [[[-7.893199, 41.652028], [-7.893199, 41.652028], [-7.892742, 41.649101], [-7.893199, 41.652028]]], [[[-7.729957, 41.817937], [-7.768604, 41.814566], [-7.780631, 41.815265], [-7.792595, 41.819256], [-7.804494, 41.826853], [-7.828143, 41.850721], [-7.844828, 41.864614], [-7.849515, 41.861475], [-7.858542, 41.862622], [-7.859456, 41.860148], [-7.864877, 41.859711], [-7.87033, 41.851395], [-7.873043, 41.850501], [-7.873063, 41.845731], [-7.864353, 41.846667], [-7.852345, 41.844591], [-7.84041, 41.838452], [-7.829759, 41.829241], [-7.805071, 41.795848], [-7.793165, 41.788928], [-7.78108, 41.791564], [-7.756783, 41.803262], [-7.744692, 41.806007], [-7.727324, 41.805993], [-7.729957, 41.817937]]], [[[-7.759609, 41.73694], [-7.770148, 41.733843], [-7.77757, 41.724431], [-7.773485, 41.727345], [-7.770798, 41.72441], [-7.765698, 41.723044], [-7.761765, 41.727758], [-7.762933, 41.733839], [-7.759609, 41.73694]]], [[[-8.277304, 41.543856], [-8.325302, 41.539938], [-8.337317, 41.537329], [-8.349343, 41.533612], [-8.361393, 41.527295], [-8.373469, 41.517912], [-8.380445, 41.509275], [-8.384125, 41.500287], [-8.384906, 41.482277], [-8.379382, 41.464232], [-8.374046, 41.458027], [-8.362146, 41.450519], [-8.350208, 41.447082], [-8.33825, 41.445768], [-8.314285, 41.447911], [-8.295223, 41.45474], [-8.266111, 41.473362], [-8.230049, 41.484638], [-8.217961, 41.49368], [-8.213804, 41.499249], [-8.210873, 41.508237], [-8.211309, 41.517247], [-8.217516, 41.530701], [-8.229376, 41.541392], [-8.241313, 41.545777], [-8.253288, 41.547055], [-8.277304, 41.543856]], [[-8.371425, 41.500219], [-8.361555, 41.510788], [-8.349515, 41.516416], [-8.337514, 41.518037], [-8.32554, 41.517016], [-8.313605, 41.512374], [-8.308651, 41.508866], [-8.30149, 41.499815], [-8.297989, 41.490787], [-8.298591, 41.481783], [-8.303298, 41.472804], [-8.313695, 41.463859], [-8.326144, 41.458816], [-8.338132, 41.457384], [-8.350091, 41.458782], [-8.362012, 41.464163], [-8.370791, 41.473193], [-8.374316, 41.48222], [-8.374569, 41.491229], [-8.371425, 41.500219]]], [[[-8.622695, 41.181464], [-8.625138, 41.195065], [-8.631549, 41.213101], [-8.638757, 41.224664], [-8.64519, 41.23116], [-8.650632, 41.235215], [-8.662539, 41.240276], [-8.67446, 41.242749], [-8.686392, 41.243343], [-8.71027, 41.241209], [-8.734159, 41.23611], [-8.748898, 41.231433], [-8.767683, 41.222464], [-8.78018, 41.213481], [-8.789133, 41.20449], [-8.795081, 41.195493], [-8.801087, 41.179535], [-8.800162, 41.155952], [-8.795332, 41.144158], [-8.720739, 41.145805], [-8.7345, 41.151781], [-8.744479, 41.15936], [-8.751787, 41.168384], [-8.75563, 41.1774], [-8.756761, 41.18641], [-8.75549, 41.195415], [-8.751537, 41.204415], [-8.744054, 41.213406], [-8.731601, 41.222386], [-8.710318, 41.230363], [-8.698377, 41.232348], [-8.686443, 41.232615], [-8.674519, 41.230871], [-8.66261, 41.226422], [-8.650729, 41.217007], [-8.642964, 41.204129], [-8.640994, 41.196015], [-8.634946, 41.193341], [-8.632526, 41.188624], [-8.625658, 41.186628], [-8.622695, 41.181464]]], [[[-8.622546, 41.180114], [-8.622546, 41.180114], [-8.622596, 41.180564], [-8.622546, 41.180114]]]]}}, {"id": "5", "type": "Feature", "properties": {"fill": "#71a5e5", "value_min": 1.25, "value_max": -1.5}, "geometry": {"type": "MultiPolygon", "coordinates": [[[[-7.818668, 41.873099], [-7.812282, 41.856082], [-7.806121, 41.847011], [-7.792317, 41.834033], [-7.780388, 41.828066], [-7.768402, 41.825139], [-7.743317, 41.825604], [-7.742839, 41.827178], [-7.738919, 41.828515], [-7.742196, 41.83392], [-7.756219, 41.832432], [-7.768238, 41.833699], [-7.780197, 41.838117], [-7.791435, 41.846857], [-7.797517, 41.855928], [-7.799946, 41.86496], [-7.79955, 41.873945], [-7.804288, 41.874184], [-7.804914, 41.869459], [-7.813032, 41.871958], [-7.814229, 41.873537], [-7.818668, 41.873099]]], [[[-7.984628, 41.858108], [-7.990062, 41.848776], [-7.990694, 41.839775], [-7.987008, 41.830735], [-7.977495, 41.821644], [-7.973209, 41.8188], [-7.961226, 41.815239], [-7.949175, 41.815945], [-7.937028, 41.822427], [-7.928943, 41.830209], [-7.924731, 41.837739], [-7.923592, 41.848172], [-7.927635, 41.857217], [-7.936315, 41.865466], [-7.948289, 41.870056], [-7.960333, 41.870441], [-7.972438, 41.867003], [-7.984628, 41.858108]], [[-7.948224, 41.839394], [-7.948799, 41.838947], [-7.949828, 41.839408], [-7.94878, 41.840125], [-7.948224, 41.839394]]], [[[-7.95837, 41.785445], [-7.949786, 41.778573], [-7.937705, 41.781477], [-7.935304, 41.785234], [-7.935176, 41.794239], [-7.937446, 41.797141], [-7.949437, 41.799932], [-7.95829, 41.794451], [-7.95837, 41.785445]]], [[[-7.962115, 41.760193], [-7.964191, 41.758477], [-7.962178, 41.756257], [-7.954283, 41.749381], [-7.950277, 41.748443], [-7.938193, 41.75185], [-7.934275, 41.758204], [-7.937924, 41.768186], [-7.949874, 41.773175], [-7.957863, 41.767427], [-7.962115, 41.760193]]], [[[-8.034355, 41.755978], [-8.039658, 41.750126], [-8.043771, 41.741153], [-8.044085, 41.732149], [-8.041156, 41.723118], [-8.034958, 41.715668], [-8.023056, 41.707832], [-8.011082, 41.704865], [-7.999072, 41.704236], [-7.987004, 41.707348], [-7.977493, 41.713562], [-7.969619, 41.722498], [-7.966804, 41.73148], [-7.968121, 41.749506], [-7.980766, 41.758626], [-7.99813, 41.764896], [-8.010149, 41.765596], [-8.022216, 41.763209], [-8.034355, 41.755978]], [[-7.999519, 41.740777], [-7.996353, 41.731742], [-7.998689, 41.728927], [-8.010795, 41.723589], [-8.024483, 41.731984], [-8.021785, 41.740968], [-8.010464, 41.745148], [-7.999519, 41.740777]]], [[[-8.496674, 41.673425], [-8.499963, 41.671038], [-8.50927, 41.671233], [-8.51018, 41.672806], [-8.511967, 41.670324], [-8.509856, 41.668755], [-8.512252, 41.667847], [-8.514629, 41.663788], [-8.522103, 41.658811], [-8.525706, 41.659023], [-8.527769, 41.652714], [-8.534066, 41.652017], [-8.537951, 41.649302], [-8.537634, 41.646602], [-8.543876, 41.637352], [-8.543855, 41.633976], [-8.536342, 41.631977], [-8.535128, 41.62973], [-8.543431, 41.61462], [-8.554533, 41.615255], [-8.557244, 41.617046], [-8.562639, 41.61635], [-8.568056, 41.619031], [-8.570735, 41.616095], [-8.577321, 41.614269], [-8.581231, 41.615829], [-8.585766, 41.620988], [-8.591462, 41.620515], [-8.596534, 41.616668], [-8.601628, 41.615972], [-8.603996, 41.611686], [-8.613256, 41.606696], [-8.619881, 41.610269], [-8.621338, 41.604636], [-8.628833, 41.604378], [-8.636302, 41.600744], [-8.64075, 41.594422], [-8.645536, 41.593051], [-8.646744, 41.594171], [-8.649125, 41.591909], [-8.656622, 41.5921], [-8.660788, 41.588255], [-8.663794, 41.589141], [-8.665265, 41.585758], [-8.66948, 41.587989], [-8.684455, 41.586117], [-8.685608, 41.58071], [-8.697261, 41.576376], [-8.701703, 41.570277], [-8.707704, 41.570923], [-8.712485, 41.569323], [-8.716422, 41.573805], [-8.720316, 41.57356], [-8.725151, 41.577811], [-8.726633, 41.576003], [-8.734424, 41.575737], [-8.736564, 41.580228], [-8.738354, 41.579318], [-8.740778, 41.582006], [-8.74467, 41.581535], [-8.750711, 41.58623], [-8.756374, 41.582823], [-8.75635, 41.580347], [-8.762327, 41.578514], [-8.764443, 41.580303], [-8.767441, 41.580286], [-8.769874, 41.583874], [-8.768997, 41.58613], [-8.773228, 41.589482], [-8.775371, 41.593972], [-8.78556, 41.593464], [-8.797327, 41.600599], [-8.804218, 41.600109], [-8.80456, 41.604158], [-8.809434, 41.611332], [-8.828644, 41.609656], [-8.82839, 41.585633], [-8.818497, 41.554794], [-8.8221, 41.547542], [-8.821965, 41.534907], [-8.815926, 41.525624], [-8.81063, 41.5101], [-8.813279, 41.503483], [-8.812636, 41.496944], [-8.804699, 41.482068], [-8.798552, 41.474753], [-8.80154, 41.446836], [-8.806115, 41.43713], [-8.807354, 41.425915], [-8.811202, 41.416419], [-8.803727, 41.246729], [-8.7341, 41.250581], [-8.66245, 41.257583], [-8.650518, 41.256557], [-8.638603, 41.252661], [-8.625247, 41.240105], [-8.603187, 41.187831], [-8.590745, 41.166964], [-8.589174, 41.167645], [-8.589194, 41.170572], [-8.583263, 41.174422], [-8.582094, 41.177803], [-8.578825, 41.178941], [-8.581296, 41.191762], [-8.576253, 41.195207], [-8.585963, 41.203939], [-8.591822, 41.212967], [-8.59381, 41.221982], [-8.593305, 41.230988], [-8.590063, 41.239985], [-8.583003, 41.248967], [-8.578919, 41.253274], [-8.566938, 41.260026], [-8.554977, 41.263523], [-8.543033, 41.264333], [-8.531105, 41.262948], [-8.519198, 41.25869], [-8.507321, 41.250733], [-8.498794, 41.239624], [-8.496136, 41.230604], [-8.496012, 41.222226], [-8.487935, 41.230354], [-8.490333, 41.232598], [-8.484411, 41.240495], [-8.476346, 41.237818], [-8.475756, 41.23917], [-8.470986, 41.23941], [-8.471604, 41.243459], [-8.469227, 41.245267], [-8.463258, 41.244384], [-8.459989, 41.246644], [-8.454323, 41.246886], [-8.455541, 41.251834], [-8.452276, 41.25522], [-8.449891, 41.255452], [-8.449304, 41.257479], [-8.447812, 41.257258], [-8.449028, 41.261982], [-8.439785, 41.262907], [-8.438023, 41.268989], [-8.434745, 41.269673], [-8.432691, 41.277107], [-8.427032, 41.279372], [-8.42914, 41.283644], [-8.427627, 41.285899], [-8.443353, 41.293415], [-8.457342, 41.30249], [-8.49472, 41.337], [-8.506615, 41.34451], [-8.518542, 41.347956], [-8.530488, 41.348999], [-8.566364, 41.346694], [-8.578336, 41.343785], [-8.614274, 41.330244], [-8.638213, 41.323303], [-8.650225, 41.311519], [-8.659793, 41.294259], [-8.66789, 41.285274], [-8.680822, 41.276303], [-8.698205, 41.269622], [-8.710156, 41.267045], [-8.734217, 41.267431], [-8.745958, 41.27055], [-8.759789, 41.276495], [-8.771051, 41.285526], [-8.777688, 41.294547], [-8.780823, 41.30356], [-8.780043, 41.321574], [-8.776078, 41.330574], [-8.769595, 41.339265], [-8.757604, 41.349915], [-8.733642, 41.363324], [-8.725303, 41.366495], [-8.71163, 41.375469], [-8.706334, 41.384464], [-8.705548, 41.393469], [-8.707695, 41.402482], [-8.728116, 41.438563], [-8.736075, 41.456596], [-8.738849, 41.474618], [-8.735747, 41.492625], [-8.726569, 41.510619], [-8.712049, 41.528598], [-8.693211, 41.546564], [-8.672876, 41.559534], [-8.648847, 41.567741], [-8.624849, 41.569362], [-8.612865, 41.567804], [-8.588931, 41.559331], [-8.540246, 41.52804], [-8.529263, 41.518805], [-8.513879, 41.500909], [-8.493827, 41.482808], [-8.486244, 41.473767], [-8.478111, 41.455715], [-8.470099, 41.425571], [-8.467409, 41.419636], [-8.458261, 41.409963], [-8.44631, 41.40831], [-8.398375, 41.416678], [-8.362463, 41.418149], [-8.33856, 41.415262], [-8.302756, 41.406523], [-8.290806, 41.405218], [-8.278822, 41.40703], [-8.242792, 41.418897], [-8.218825, 41.421717], [-8.206868, 41.420921], [-8.183017, 41.414344], [-8.171139, 41.407479], [-8.162129, 41.399803], [-8.155445, 41.390747], [-8.150012, 41.373616], [-8.139694, 41.377894], [-8.133418, 41.374292], [-8.119672, 41.376768], [-8.119672, 41.378569], [-8.116683, 41.380144], [-8.117578, 41.386447], [-8.113992, 41.386896], [-8.112795, 41.390723], [-8.110105, 41.390947], [-8.108011, 41.393648], [-8.103827, 41.392972], [-8.105321, 41.394998], [-8.10263, 41.396123], [-8.10801, 41.398825], [-8.108606, 41.403102], [-8.104419, 41.406252], [-8.104119, 41.408728], [-8.101727, 41.409403], [-8.102025, 41.411204], [-8.092756, 41.411201], [-8.09126, 41.414352], [-8.079893, 41.41975], [-8.077503, 41.416597], [-8.070923, 41.41862], [-8.066739, 41.416142], [-8.061953, 41.417264], [-8.059852, 41.424916], [-8.055959, 41.429415], [-8.057743, 41.438645], [-8.061033, 41.438872], [-8.064916, 41.444052], [-8.067908, 41.444279], [-8.069999, 41.447206], [-8.068788, 41.462286], [-8.073872, 41.46499], [-8.074468, 41.468141], [-8.073564, 41.474668], [-8.066374, 41.482318], [-8.066069, 41.48817], [-8.072054, 41.490199], [-8.07175, 41.494925], [-8.078333, 41.49898], [-8.078332, 41.500331], [-8.093, 41.504613], [-8.089398, 41.519242], [-8.090594, 41.522169], [-8.093588, 41.52307], [-8.091487, 41.531173], [-8.097775, 41.536127], [-8.097774, 41.537927], [-8.106759, 41.543106], [-8.10616, 41.543782], [-8.101666, 41.542655], [-8.094175, 41.544904], [-8.087885, 41.542876], [-8.083389, 41.545076], [-8.097394, 41.548897], [-8.109378, 41.549339], [-8.121398, 41.547152], [-8.130482, 41.543686], [-8.143381, 41.534776], [-8.166142, 41.507921], [-8.182233, 41.47681], [-8.191964, 41.463068], [-8.206465, 41.45408], [-8.278513, 41.434958], [-8.302499, 41.430558], [-8.338401, 41.430898], [-8.375528, 41.437189], [-8.394412, 41.446297], [-8.400795, 41.455338], [-8.401943, 41.464352], [-8.400607, 41.48236], [-8.403813, 41.500391], [-8.402973, 41.509394], [-8.366705, 41.572252], [-8.340188, 41.635153], [-8.335081, 41.653138], [-8.337598, 41.671167], [-8.343839, 41.68021], [-8.347838, 41.683206], [-8.359798, 41.688762], [-8.3718, 41.690228], [-8.383829, 41.688947], [-8.39588, 41.685271], [-8.420012, 41.673998], [-8.43205, 41.671186], [-8.456078, 41.670975], [-8.496674, 41.673425]], [[-8.383921, 41.679332], [-8.371922, 41.677748], [-8.363143, 41.671311], [-8.361643, 41.662296], [-8.372185, 41.650633], [-8.384221, 41.647826], [-8.396205, 41.650509], [-8.399768, 41.653494], [-8.403142, 41.662519], [-8.399543, 41.671507], [-8.383921, 41.679332]], [[-8.456238, 41.651963], [-8.444224, 41.65255], [-8.432228, 41.650955], [-8.415036, 41.644565], [-8.408276, 41.635524], [-8.405953, 41.626504], [-8.407697, 41.617506], [-8.412728, 41.608525], [-8.420669, 41.600708], [-8.432738, 41.592791], [-8.440426, 41.590648], [-8.444802, 41.5851], [-8.452788, 41.581701], [-8.444844, 41.580238], [-8.432928, 41.571103], [-8.421079, 41.554751], [-8.419769, 41.54551], [-8.422332, 41.536515], [-8.429726, 41.527545], [-8.433334, 41.524585], [-8.445362, 41.519682], [-8.457347, 41.519627], [-8.469297, 41.523892], [-8.493405, 41.53685], [-8.499014, 41.545882], [-8.494804, 41.554871], [-8.48091, 41.570599], [-8.468841, 41.579703], [-8.460302, 41.581736], [-8.465706, 41.590769], [-8.478476, 41.599835], [-8.486786, 41.608879], [-8.490403, 41.617903], [-8.490386, 41.62691], [-8.486569, 41.6359], [-8.476576, 41.644862], [-8.468274, 41.648769], [-8.456238, 41.651963]], [[-8.110052, 41.500188], [-8.098129, 41.495948], [-8.089571, 41.489326], [-8.085941, 41.48029], [-8.087611, 41.471295], [-8.098621, 41.460441], [-8.110647, 41.456697], [-8.122613, 41.457214], [-8.134571, 41.462651], [-8.142107, 41.471715], [-8.143811, 41.480735], [-8.140403, 41.489717], [-8.134078, 41.495384], [-8.122033, 41.500216], [-8.110052, 41.500188]]], [[[-8.289438, 41.756941], [-8.297798, 41.751994], [-8.294006, 41.742963], [-8.287131, 41.740359], [-8.278109, 41.742865], [-8.273865, 41.751845], [-8.274957, 41.753539], [-8.284931, 41.757609], [-8.289438, 41.756941]]], [[[-7.926564, 41.727955], [-7.933497, 41.722169], [-7.934877, 41.713175], [-7.929678, 41.70412], [-7.915076, 41.696101], [-7.90307, 41.695452], [-7.89099, 41.699089], [-7.88014, 41.712654], [-7.878851, 41.721649], [-7.887361, 41.730738], [-7.902393, 41.735215], [-7.914437, 41.73407], [-7.922943, 41.731077], [-7.926564, 41.727955]], [[-7.890535, 41.725538], [-7.886497, 41.721723], [-7.886778, 41.712719], [-7.890836, 41.708019], [-7.902882, 41.706487], [-7.912006, 41.71296], [-7.910712, 41.721955], [-7.902541, 41.72652], [-7.890535, 41.725538]]], [[[-8.059153, 41.705228], [-8.047157, 41.703651], [-8.044308, 41.70513], [-8.047095, 41.707816], [-8.059153, 41.705228]]], [[[-8.119452, 41.690346], [-8.106659, 41.696625], [-8.107323, 41.69852], [-8.11926, 41.704428], [-8.125641, 41.696771], [-8.119452, 41.690346]], [[-8.117779, 41.696711], [-8.119376, 41.69594], [-8.120137, 41.696729], [-8.119352, 41.697669], [-8.117779, 41.696711]]], [[[-8.035533, 41.677231], [-8.043325, 41.669094], [-8.046694, 41.660115], [-8.04419, 41.651087], [-8.036039, 41.64331], [-8.0241, 41.638768], [-8.012095, 41.63864], [-8.00002, 41.643004], [-7.991142, 41.650634], [-7.988392, 41.659616], [-7.989767, 41.668636], [-7.997297, 41.677708], [-8.011399, 41.684125], [-8.023424, 41.683478], [-8.035533, 41.677231]], [[-8.014259, 41.659841], [-8.023891, 41.652605], [-8.033589, 41.660005], [-8.023673, 41.667021], [-8.014259, 41.659841]]]]}}, {"id": "4", "type": "Feature", "properties": {"fill": "#90a4bc", "value_min": 1.0, "value_max": -1.25}, "geometry": {"type": "MultiPolygon", "coordinates": [[[[-8.496674, 41.673425], [-8.456078, 41.670975], [-8.43205, 41.671186], [-8.420012, 41.673998], [-8.39588, 41.685271], [-8.383829, 41.688947], [-8.3718, 41.690228], [-8.359798, 41.688762], [-8.347838, 41.683206], [-8.343839, 41.68021], [-8.337598, 41.671167], [-8.335081, 41.653138], [-8.340188, 41.635153], [-8.366705, 41.572252], [-8.402973, 41.509394], [-8.403813, 41.500391], [-8.400607, 41.48236], [-8.401943, 41.464352], [-8.400795, 41.455338], [-8.394412, 41.446297], [-8.375528, 41.437189], [-8.338401, 41.430898], [-8.302499, 41.430558], [-8.278513, 41.434958], [-8.206465, 41.45408], [-8.191964, 41.463068], [-8.182233, 41.47681], [-8.166142, 41.507921], [-8.143381, 41.534776], [-8.130482, 41.543686], [-8.121398, 41.547152], [-8.109378, 41.549339], [-8.097394, 41.548897], [-8.083389, 41.545076], [-8.081886, 41.550977], [-8.079489, 41.551876], [-8.074097, 41.549848], [-8.072897, 41.551197], [-8.076188, 41.557276], [-8.079783, 41.558403], [-8.082177, 41.563131], [-8.081276, 41.565382], [-8.078879, 41.56493], [-8.075879, 41.567774], [-8.192998, 41.574427], [-8.216946, 41.577957], [-8.228889, 41.582309], [-8.240799, 41.589704], [-8.264533, 41.612817], [-8.276354, 41.628947], [-8.288128, 41.650014], [-8.300251, 41.679952], [-8.305095, 41.697996], [-8.302131, 41.706985], [-8.275325, 41.72079], [-8.263206, 41.729237], [-8.252611, 41.742702], [-8.250069, 41.751692], [-8.25039, 41.760701], [-8.256049, 41.77425], [-8.261762, 41.774235], [-8.271366, 41.766346], [-8.280681, 41.764083], [-8.284038, 41.761109], [-8.284931, 41.757609], [-8.274957, 41.753539], [-8.273865, 41.751845], [-8.278109, 41.742865], [-8.287131, 41.740359], [-8.294006, 41.742963], [-8.297798, 41.751994], [-8.289438, 41.756941], [-8.298457, 41.757263], [-8.300866, 41.758835], [-8.305674, 41.758152], [-8.311096, 41.762195], [-8.318308, 41.761283], [-8.325233, 41.765098], [-8.328234, 41.763292], [-8.336653, 41.763728], [-8.341756, 41.761468], [-8.344064, 41.762364], [-8.338229, 41.725213], [-8.341984, 41.716227], [-8.358269, 41.707312], [-8.380467, 41.698427], [-8.41991, 41.685364], [-8.431937, 41.684103], [-8.443945, 41.684933], [-8.465922, 41.691174], [-8.482012, 41.682123], [-8.484371, 41.674238], [-8.49308, 41.674886], [-8.496674, 41.673425]], [[-8.277304, 41.543856], [-8.253288, 41.547055], [-8.241313, 41.545777], [-8.229376, 41.541392], [-8.217516, 41.530701], [-8.211309, 41.517247], [-8.210873, 41.508237], [-8.213804, 41.499249], [-8.217961, 41.49368], [-8.230049, 41.484638], [-8.266111, 41.473362], [-8.295223, 41.45474], [-8.314285, 41.447911], [-8.33825, 41.445768], [-8.350208, 41.447082], [-8.362146, 41.450519], [-8.374046, 41.458027], [-8.379382, 41.464232], [-8.384906, 41.482277], [-8.384125, 41.500287], [-8.380445, 41.509275], [-8.373469, 41.517912], [-8.361393, 41.527295], [-8.349343, 41.533612], [-8.337317, 41.537329], [-8.325302, 41.539938], [-8.277304, 41.543856]]], [[[-7.892742, 41.649101], [-7.893199, 41.652028], [-7.902319, 41.659925], [-7.899913, 41.66127], [-7.900198, 41.665547], [-7.898396, 41.665769], [-7.897186, 41.668467], [-7.89323, 41.668684], [-7.887734, 41.685707], [-7.878904, 41.702963], [-7.872231, 41.721584], [-7.875486, 41.730623], [-7.905619, 41.748927], [-7.909817, 41.757974], [-7.911766, 41.785013], [-7.919293, 41.812105], [-7.917227, 41.821092], [-7.900375, 41.853415], [-7.895527, 41.859552], [-7.900698, 41.861588], [-7.904318, 41.859795], [-7.907309, 41.865203], [-7.906095, 41.868126], [-7.910299, 41.871285], [-7.909985, 41.875111], [-7.915391, 41.879397], [-7.921118, 41.877833], [-7.928044, 41.87807], [-7.935283, 41.874707], [-7.937389, 41.87516], [-7.941618, 41.870891], [-7.951254, 41.871132], [-7.956367, 41.87339], [-7.956362, 41.875191], [-7.960878, 41.875648], [-7.962086, 41.874074], [-7.973828, 41.875216], [-7.987996, 41.869157], [-7.990123, 41.860157], [-7.995547, 41.858138], [-7.994047, 41.855211], [-7.996162, 41.851837], [-8.003089, 41.850494], [-8.005804, 41.847346], [-8.007928, 41.838796], [-8.012753, 41.833624], [-8.013363, 41.829124], [-8.017873, 41.831379], [-8.02901, 41.829589], [-8.037134, 41.831171], [-8.041351, 41.828023], [-8.041054, 41.825097], [-8.045268, 41.824425], [-8.046775, 41.821951], [-8.056712, 41.81588], [-8.06664, 41.817012], [-8.072961, 41.813414], [-8.077775, 41.813641], [-8.080929, 41.811842], [-8.077019, 41.795467], [-8.07613, 41.768439], [-8.078537, 41.741437], [-8.085336, 41.714471], [-8.081593, 41.705434], [-8.060172, 41.687247], [-8.055104, 41.678198], [-8.059495, 41.66022], [-8.059306, 41.651212], [-8.054352, 41.642164], [-8.022664, 41.614878], [-8.013474, 41.603567], [-8.005971, 41.60629], [-8.003562, 41.611239], [-7.998761, 41.612809], [-7.999669, 41.608759], [-7.996976, 41.605829], [-7.996684, 41.602003], [-7.984685, 41.603564], [-7.982292, 41.60086], [-7.975689, 41.603552], [-7.974482, 41.606701], [-7.970882, 41.607147], [-7.969091, 41.603768], [-7.965796, 41.602413], [-7.9541, 41.602846], [-7.952606, 41.600592], [-7.947808, 41.60081], [-7.945413, 41.599456], [-7.942725, 41.595625], [-7.936132, 41.594488], [-7.93791, 41.601694], [-7.937004, 41.603718], [-7.931604, 41.604384], [-7.930073, 41.614735], [-7.925255, 41.620579], [-7.920755, 41.620796], [-7.917748, 41.623041], [-7.915933, 41.627764], [-7.913229, 41.628885], [-7.912613, 41.63361], [-7.906014, 41.633147], [-7.906884, 41.641927], [-7.903582, 41.642371], [-7.897869, 41.645511], [-7.89696, 41.647985], [-7.893961, 41.647528], [-7.892742, 41.649101]], [[-7.984628, 41.858108], [-7.972438, 41.867003], [-7.960333, 41.870441], [-7.948289, 41.870056], [-7.936315, 41.865466], [-7.927635, 41.857217], [-7.923592, 41.848172], [-7.924731, 41.837739], [-7.928943, 41.830209], [-7.937028, 41.822427], [-7.949175, 41.815945], [-7.961226, 41.815239], [-7.973209, 41.8188], [-7.977495, 41.821644], [-7.987008, 41.830735], [-7.990694, 41.839775], [-7.990062, 41.848776], [-7.984628, 41.858108]], [[-7.95837, 41.785445], [-7.95829, 41.794451], [-7.949437, 41.799932], [-7.937446, 41.797141], [-7.935176, 41.794239], [-7.935304, 41.785234], [-7.937705, 41.781477], [-7.949786, 41.778573], [-7.95837, 41.785445]], [[-7.962115, 41.760193], [-7.957863, 41.767427], [-7.949874, 41.773175], [-7.937924, 41.768186], [-7.934275, 41.758204], [-7.938193, 41.75185], [-7.950277, 41.748443], [-7.954283, 41.749381], [-7.962178, 41.756257], [-7.964191, 41.758477], [-7.962115, 41.760193]], [[-8.034355, 41.755978], [-8.022216, 41.763209], [-8.010149, 41.765596], [-7.99813, 41.764896], [-7.980766, 41.758626], [-7.968121, 41.749506], [-7.966804, 41.73148], [-7.969619, 41.722498], [-7.977493, 41.713562], [-7.987004, 41.707348], [-7.999072, 41.704236], [-8.011082, 41.704865], [-8.023056, 41.707832], [-8.034958, 41.715668], [-8.041156, 41.723118], [-8.044085, 41.732149], [-8.043771, 41.741153], [-8.039658, 41.750126], [-8.034355, 41.755978]], [[-7.926564, 41.727955], [-7.922943, 41.731077], [-7.914437, 41.73407], [-7.902393, 41.735215], [-7.887361, 41.730738], [-7.878851, 41.721649], [-7.88014, 41.712654], [-7.89099, 41.699089], [-7.90307, 41.695452], [-7.915076, 41.696101], [-7.929678, 41.70412], [-7.934877, 41.713175], [-7.933497, 41.722169], [-7.926564, 41.727955]], [[-8.059153, 41.705228], [-8.047095, 41.707816], [-8.044308, 41.70513], [-8.047157, 41.703651], [-8.059153, 41.705228]], [[-8.035533, 41.677231], [-8.023424, 41.683478], [-8.011399, 41.684125], [-7.997297, 41.677708], [-7.989767, 41.668636], [-7.988392, 41.659616], [-7.991142, 41.650634], [-8.00002, 41.643004], [-8.012095, 41.63864], [-8.0241, 41.638768], [-8.036039, 41.64331], [-8.04419, 41.651087], [-8.046694, 41.660115], [-8.043325, 41.669094], [-8.035533, 41.677231]]], [[[-7.844828, 41.864614], [-7.828143, 41.850721], [-7.804494, 41.826853], [-7.792595, 41.819256], [-7.780631, 41.815265], [-7.768604, 41.814566], [-7.729957, 41.817937], [-7.732041, 41.821514], [-7.743317, 41.825604], [-7.768402, 41.825139], [-7.780388, 41.828066], [-7.792317, 41.834033], [-7.806121, 41.847011], [-7.812282, 41.856082], [-7.818668, 41.873099], [-7.823863, 41.874013], [-7.825059, 41.875817], [-7.830479, 41.875831], [-7.830789, 41.874031], [-7.832894, 41.874712], [-7.83772, 41.872924], [-7.842528, 41.875187], [-7.841663, 41.866632], [-7.844828, 41.864614]]], [[[-8.107135, 41.712108], [-8.119191, 41.709459], [-8.131146, 41.696812], [-8.130184, 41.687798], [-8.119551, 41.683077], [-8.107452, 41.68918], [-8.097966, 41.696557], [-8.095214, 41.704995], [-8.092365, 41.70552], [-8.107135, 41.712108]], [[-8.119452, 41.690346], [-8.125641, 41.696771], [-8.11926, 41.704428], [-8.107323, 41.69852], [-8.106659, 41.696625], [-8.119452, 41.690346]]], [[[-8.590745, 41.166964], [-8.603187, 41.187831], [-8.625247, 41.240105], [-8.638603, 41.252661], [-8.650518, 41.256557], [-8.66245, 41.257583], [-8.7341, 41.250581], [-8.803727, 41.246729], [-8.801087, 41.179535], [-8.795081, 41.195493], [-8.789133, 41.20449], [-8.78018, 41.213481], [-8.767683, 41.222464], [-8.748898, 41.231433], [-8.734159, 41.23611], [-8.71027, 41.241209], [-8.686392, 41.243343], [-8.67446, 41.242749], [-8.662539, 41.240276], [-8.650632, 41.235215], [-8.64519, 41.23116], [-8.638757, 41.224664], [-8.631549, 41.213101], [-8.625138, 41.195065], [-8.622695, 41.181464], [-8.622596, 41.180564], [-8.622546, 41.180114], [-8.613374, 41.177451], [-8.608583, 41.174095], [-8.609164, 41.172066], [-8.604942, 41.164881], [-8.59422, 41.165149], [-8.590745, 41.166964]]], [[[-8.795332, 41.144158], [-8.800162, 41.155952], [-8.799695, 41.14406], [-8.795332, 41.144158]]]]}}, {"id": "6", "type": "Feature", "properties": {"fill": "#5093f6", "value_min": 1.5, "value_max": -1.75}, "geometry": {"type": "MultiPolygon", "coordinates": [[[[-7.79955, 41.873945], [-7.799946, 41.86496], [-7.797517, 41.855928], [-7.791435, 41.846857], [-7.780197, 41.838117], [-7.768238, 41.833699], [-7.756219, 41.832432], [-7.742196, 41.83392], [-7.74729, 41.837772], [-7.746365, 41.841439], [-7.756071, 41.840054], [-7.768079, 41.841982], [-7.777265, 41.846707], [-7.784881, 41.855795], [-7.786421, 41.864818], [-7.783336, 41.873792], [-7.773344, 41.882692], [-7.767235, 41.885934], [-7.75514, 41.888062], [-7.749402, 41.887376], [-7.756022, 41.888441], [-7.758719, 41.890926], [-7.756592, 41.89407], [-7.758076, 41.897901], [-7.764097, 41.898595], [-7.779227, 41.886264], [-7.785257, 41.885157], [-7.788886, 41.882467], [-7.794007, 41.882257], [-7.796739, 41.878214], [-7.794349, 41.87438], [-7.79955, 41.873945]]], [[[-7.742481, 41.886334], [-7.731179, 41.880703], [-7.727362, 41.876416], [-7.720533, 41.880218], [-7.720523, 41.881793], [-7.725335, 41.882935], [-7.726208, 41.887665], [-7.737044, 41.888828], [-7.739741, 41.891088], [-7.74246, 41.889747], [-7.742481, 41.886334]]], [[[-7.948224, 41.839394], [-7.94878, 41.840125], [-7.949828, 41.839408], [-7.948799, 41.838947], [-7.948224, 41.839394]]], [[[-7.999519, 41.740777], [-8.010464, 41.745148], [-8.021785, 41.740968], [-8.024483, 41.731984], [-8.010795, 41.723589], [-7.998689, 41.728927], [-7.996353, 41.731742], [-7.999519, 41.740777]]], [[[-7.890535, 41.725538], [-7.902541, 41.72652], [-7.910712, 41.721955], [-7.912006, 41.71296], [-7.902882, 41.706487], [-7.890836, 41.708019], [-7.886778, 41.712719], [-7.886497, 41.721723], [-7.890535, 41.725538]]], [[[-8.117779, 41.696711], [-8.119352, 41.697669], [-8.120137, 41.696729], [-8.119376, 41.69594], [-8.117779, 41.696711]]], [[[-8.383921, 41.679332], [-8.399543, 41.671507], [-8.403142, 41.662519], [-8.399768, 41.653494], [-8.396205, 41.650509], [-8.384221, 41.647826], [-8.372185, 41.650633], [-8.361643, 41.662296], [-8.363143, 41.671311], [-8.371922, 41.677748], [-8.383921, 41.679332]]], [[[-8.014259, 41.659841], [-8.023673, 41.667021], [-8.033589, 41.660005], [-8.023891, 41.652605], [-8.014259, 41.659841]]], [[[-8.456238, 41.651963], [-8.468274, 41.648769], [-8.476576, 41.644862], [-8.486569, 41.6359], [-8.490386, 41.62691], [-8.490403, 41.617903], [-8.486786, 41.608879], [-8.478476, 41.599835], [-8.465706, 41.590769], [-8.460302, 41.581736], [-8.468841, 41.579703], [-8.48091, 41.570599], [-8.494804, 41.554871], [-8.499014, 41.545882], [-8.493405, 41.53685], [-8.469297, 41.523892], [-8.457347, 41.519627], [-8.445362, 41.519682], [-8.433334, 41.524585], [-8.429726, 41.527545], [-8.422332, 41.536515], [-8.419769, 41.54551], [-8.421079, 41.554751], [-8.432928, 41.571103], [-8.444844, 41.580238], [-8.452788, 41.581701], [-8.444802, 41.5851], [-8.440426, 41.590648], [-8.432738, 41.592791], [-8.420669, 41.600708], [-8.412728, 41.608525], [-8.407697, 41.617506], [-8.405953, 41.626504], [-8.408276, 41.635524], [-8.415036, 41.644565], [-8.432228, 41.650955], [-8.444224, 41.65255], [-8.456238, 41.651963]], [[-8.439206, 41.626671], [-8.444482, 41.622418], [-8.451097, 41.626729], [-8.444407, 41.631178], [-8.439206, 41.626671]]], [[[-8.150012, 41.373616], [-8.155445, 41.390747], [-8.162129, 41.399803], [-8.171139, 41.407479], [-8.183017, 41.414344], [-8.206868, 41.420921], [-8.218825, 41.421717], [-8.242792, 41.418897], [-8.278822, 41.40703], [-8.290806, 41.405218], [-8.302756, 41.406523], [-8.33856, 41.415262], [-8.362463, 41.418149], [-8.398375, 41.416678], [-8.44631, 41.40831], [-8.458261, 41.409963], [-8.467409, 41.419636], [-8.470099, 41.425571], [-8.478111, 41.455715], [-8.486244, 41.473767], [-8.493827, 41.482808], [-8.513879, 41.500909], [-8.529263, 41.518805], [-8.540246, 41.52804], [-8.588931, 41.559331], [-8.612865, 41.567804], [-8.624849, 41.569362], [-8.648847, 41.567741], [-8.672876, 41.559534], [-8.693211, 41.546564], [-8.712049, 41.528598], [-8.726569, 41.510619], [-8.735747, 41.492625], [-8.738849, 41.474618], [-8.736075, 41.456596], [-8.728116, 41.438563], [-8.707695, 41.402482], [-8.705548, 41.393469], [-8.706334, 41.384464], [-8.71163, 41.375469], [-8.725303, 41.366495], [-8.733642, 41.363324], [-8.757604, 41.349915], [-8.769595, 41.339265], [-8.776078, 41.330574], [-8.780043, 41.321574], [-8.780823, 41.30356], [-8.777688, 41.294547], [-8.771051, 41.285526], [-8.759789, 41.276495], [-8.745958, 41.27055], [-8.734217, 41.267431], [-8.710156, 41.267045], [-8.698205, 41.269622], [-8.680822, 41.276303], [-8.66789, 41.285274], [-8.659793, 41.294259], [-8.650225, 41.311519], [-8.638213, 41.323303], [-8.614274, 41.330244], [-8.578336, 41.343785], [-8.566364, 41.346694], [-8.530488, 41.348999], [-8.518542, 41.347956], [-8.506615, 41.34451], [-8.49472, 41.337], [-8.457342, 41.30249], [-8.443353, 41.293415], [-8.427627, 41.285899], [-8.421756, 41.30077], [-8.416982, 41.301232], [-8.407744, 41.304856], [-8.406262, 41.307335], [-8.403277, 41.307342], [-8.401801, 41.311398], [-8.399712, 41.311628], [-8.400316, 41.313202], [-8.396738, 41.314336], [-8.398835, 41.316131], [-8.393775, 41.31997], [-8.393489, 41.323122], [-8.391105, 41.324253], [-8.386325, 41.323588], [-8.380679, 41.330731], [-8.387199, 41.332558], [-8.397545, 41.338223], [-8.407776, 41.347284], [-8.413246, 41.35632], [-8.415516, 41.365339], [-8.414673, 41.374342], [-8.410326, 41.383327], [-8.402455, 41.392294], [-8.386557, 41.400987], [-8.374563, 41.404157], [-8.362591, 41.405056], [-8.350639, 41.403903], [-8.338709, 41.400569], [-8.322789, 41.391853], [-8.314453, 41.382796], [-8.309366, 41.373758], [-8.308206, 41.364744], [-8.310285, 41.355749], [-8.316163, 41.346776], [-8.322478, 41.341236], [-8.320676, 41.338121], [-8.312604, 41.334983], [-8.313794, 41.333405], [-8.31139, 41.328007], [-8.307502, 41.325762], [-8.305116, 41.326891], [-8.303024, 41.325994], [-8.303615, 41.323742], [-8.301216, 41.319694], [-8.296431, 41.316774], [-8.297618, 41.313846], [-8.295817, 41.310022], [-8.281801, 41.316569], [-8.281808, 41.319721], [-8.278828, 41.321976], [-8.278238, 41.325128], [-8.273161, 41.325134], [-8.269582, 41.326939], [-8.265709, 41.331221], [-8.269004, 41.336169], [-8.263339, 41.340902], [-8.262751, 41.345405], [-8.256483, 41.347663], [-8.255889, 41.349689], [-8.249622, 41.353072], [-8.251123, 41.356897], [-8.248443, 41.361599], [-8.252148, 41.364393], [-8.257095, 41.373433], [-8.256639, 41.382437], [-8.251196, 41.39141], [-8.243042, 41.397382], [-8.231027, 41.401841], [-8.219059, 41.402261], [-8.207135, 41.39903], [-8.196246, 41.391039], [-8.191771, 41.382], [-8.192097, 41.375852], [-8.169578, 41.377212], [-8.1642, 41.38059], [-8.158223, 41.378791], [-8.150012, 41.373616]], [[-8.553461, 41.485525], [-8.541498, 41.483324], [-8.529557, 41.478252], [-8.515858, 41.464888], [-8.512303, 41.455865], [-8.512449, 41.446858], [-8.516268, 41.437867], [-8.525117, 41.428896], [-8.529937, 41.425626], [-8.541933, 41.421515], [-8.553906, 41.420604], [-8.565863, 41.422132], [-8.581394, 41.429115], [-8.590879, 41.438156], [-8.595286, 41.44718], [-8.595803, 41.456189], [-8.592852, 41.465186], [-8.589498, 41.469578], [-8.585802, 41.474168], [-8.577454, 41.480038], [-8.565447, 41.484402], [-8.553461, 41.485525]]], [[[-8.34514, 41.330071], [-8.357974, 41.328185], [-8.350207, 41.327264], [-8.34514, 41.330071]]], [[[-8.36782, 41.328354], [-8.36782, 41.328354], [-8.373207, 41.328995], [-8.36782, 41.328354]]], [[[-8.373398, 41.329018], [-8.373398, 41.329018], [-8.373506, 41.329031], [-8.373398, 41.329018]]], [[[-8.110052, 41.500188], [-8.122033, 41.500216], [-8.134078, 41.495384], [-8.140403, 41.489717], [-8.143811, 41.480735], [-8.142107, 41.471715], [-8.134571, 41.462651], [-8.122613, 41.457214], [-8.110647, 41.456697], [-8.098621, 41.460441], [-8.087611, 41.471295], [-8.085941, 41.48029], [-8.089571, 41.489326], [-8.098129, 41.495948], [-8.110052, 41.500188]]], [[[-8.496012, 41.222226], [-8.496136, 41.230604], [-8.498794, 41.239624], [-8.507321, 41.250733], [-8.519198, 41.25869], [-8.531105, 41.262948], [-8.543033, 41.264333], [-8.554977, 41.263523], [-8.566938, 41.260026], [-8.578919, 41.253274], [-8.583003, 41.248967], [-8.590063, 41.239985], [-8.593305, 41.230988], [-8.59381, 41.221982], [-8.591822, 41.212967], [-8.585963, 41.203939], [-8.576253, 41.195207], [-8.576894, 41.201908], [-8.574515, 41.202593], [-8.57423, 41.20462], [-8.567971, 41.204644], [-8.565895, 41.206227], [-8.567697, 41.208246], [-8.566512, 41.209376], [-8.559636, 41.206251], [-8.554271, 41.20627], [-8.549521, 41.209214], [-8.544157, 41.209458], [-8.54238, 41.211265], [-8.533747, 41.213097], [-8.529858, 41.210859], [-8.530444, 41.209056], [-8.52653, 41.202542], [-8.523236, 41.200077], [-8.518471, 41.200543], [-8.51163, 41.203042], [-8.510456, 41.206197], [-8.505693, 41.207113], [-8.504239, 41.213646], [-8.500076, 41.21546], [-8.50308, 41.219502], [-8.502204, 41.222656], [-8.496012, 41.222226]]]]}}, {"id": "7", "type": "Feature", "properties": {"fill": "#3171ee", "value_min": 1.75, "value_max": -2.0}, "geometry": {"type": "MultiPolygon", "coordinates": [[[[-7.749402, 41.887376], [-7.75514, 41.888062], [-7.767235, 41.885934], [-7.773344, 41.882692], [-7.783336, 41.873792], [-7.786421, 41.864818], [-7.784881, 41.855795], [-7.777265, 41.846707], [-7.768079, 41.841982], [-7.756071, 41.840054], [-7.746365, 41.841439], [-7.746349, 41.84407], [-7.750541, 41.847685], [-7.750532, 41.849261], [-7.743309, 41.849012], [-7.7469, 41.852611], [-7.755892, 41.849332], [-7.767868, 41.852964], [-7.77075, 41.855644], [-7.771459, 41.864659], [-7.767552, 41.869417], [-7.755425, 41.873419], [-7.743479, 41.868063], [-7.740642, 41.864325], [-7.741564, 41.857559], [-7.736611, 41.861368], [-7.734159, 41.868337], [-7.730228, 41.871024], [-7.729293, 41.875972], [-7.727362, 41.876416], [-7.731179, 41.880703], [-7.742481, 41.886334], [-7.749402, 41.887376]]], [[[-8.439206, 41.626671], [-8.444407, 41.631178], [-8.451097, 41.626729], [-8.444482, 41.622418], [-8.439206, 41.626671]]], [[[-8.553461, 41.485525], [-8.565447, 41.484402], [-8.577454, 41.480038], [-8.585802, 41.474168], [-8.589498, 41.469578], [-8.592852, 41.465186], [-8.595803, 41.456189], [-8.595286, 41.44718], [-8.590879, 41.438156], [-8.581394, 41.429115], [-8.565863, 41.422132], [-8.553906, 41.420604], [-8.541933, 41.421515], [-8.529937, 41.425626], [-8.525117, 41.428896], [-8.516268, 41.437867], [-8.512449, 41.446858], [-8.512303, 41.455865], [-8.515858, 41.464888], [-8.529557, 41.478252], [-8.541498, 41.483324], [-8.553461, 41.485525]], [[-8.541613, 41.467042], [-8.538524, 41.464981], [-8.533265, 41.455952], [-8.537016, 41.44696], [-8.541779, 41.443394], [-8.553764, 41.441415], [-8.565702, 41.446222], [-8.570076, 41.456096], [-8.565044, 41.465084], [-8.553574, 41.469156], [-8.541613, 41.467042]]], [[[-8.322478, 41.341236], [-8.316163, 41.346776], [-8.310285, 41.355749], [-8.308206, 41.364744], [-8.309366, 41.373758], [-8.314453, 41.382796], [-8.322789, 41.391853], [-8.338709, 41.400569], [-8.350639, 41.403903], [-8.362591, 41.405056], [-8.374563, 41.404157], [-8.386557, 41.400987], [-8.402455, 41.392294], [-8.410326, 41.383327], [-8.414673, 41.374342], [-8.415516, 41.365339], [-8.413246, 41.35632], [-8.407776, 41.347284], [-8.397545, 41.338223], [-8.387199, 41.332558], [-8.380679, 41.330731], [-8.375305, 41.33104], [-8.373506, 41.329031], [-8.373398, 41.329018], [-8.373207, 41.328995], [-8.36782, 41.328354], [-8.361563, 41.329718], [-8.357974, 41.328185], [-8.34514, 41.330071], [-8.342462, 41.333131], [-8.333215, 41.336299], [-8.326363, 41.342163], [-8.322478, 41.341236]], [[-8.355178, 41.392039], [-8.350765, 41.391206], [-8.33799, 41.382934], [-8.333965, 41.373903], [-8.335455, 41.364904], [-8.344014, 41.355946], [-8.351152, 41.352249], [-8.363123, 41.350558], [-8.375054, 41.352924], [-8.380691, 41.356149], [-8.389128, 41.365202], [-8.390481, 41.374216], [-8.386237, 41.383202], [-8.374691, 41.390802], [-8.362708, 41.393102], [-8.355178, 41.392039]]], [[[-8.192097, 41.375852], [-8.191771, 41.382], [-8.196246, 41.391039], [-8.207135, 41.39903], [-8.219059, 41.402261], [-8.231027, 41.401841], [-8.243042, 41.397382], [-8.251196, 41.39141], [-8.256639, 41.382437], [-8.257095, 41.373433], [-8.252148, 41.364393], [-8.248443, 41.361599], [-8.248448, 41.364328], [-8.245461, 41.364781], [-8.244272, 41.368384], [-8.239197, 41.371315], [-8.232024, 41.369971], [-8.224854, 41.370878], [-8.21738, 41.368182], [-8.211712, 41.376065], [-8.200358, 41.377648], [-8.194976, 41.374275], [-8.192097, 41.375852]]]]}}, {"id": "8", "type": "Feature", "properties": {"fill": "#245ede", "value_min": 2.0, "value_max": -2.25}, "geometry": {"type": "MultiPolygon", "coordinates": [[[[-7.741564, 41.857559], [-7.740642, 41.864325], [-7.743479, 41.868063], [-7.755425, 41.873419], [-7.767552, 41.869417], [-7.771459, 41.864659], [-7.77075, 41.855644], [-7.767868, 41.852964], [-7.755892, 41.849332], [-7.7469, 41.852611], [-7.746881, 41.855776], [-7.741564, 41.857559]]], [[[-8.541613, 41.467042], [-8.553574, 41.469156], [-8.565044, 41.465084], [-8.570076, 41.456096], [-8.565702, 41.446222], [-8.553764, 41.441415], [-8.541779, 41.443394], [-8.537016, 41.44696], [-8.533265, 41.455952], [-8.538524, 41.464981], [-8.541613, 41.467042]]], [[[-8.355178, 41.392039], [-8.362708, 41.393102], [-8.374691, 41.390802], [-8.386237, 41.383202], [-8.390481, 41.374216], [-8.389128, 41.365202], [-8.380691, 41.356149], [-8.375054, 41.352924], [-8.363123, 41.350558], [-8.351152, 41.352249], [-8.344014, 41.355946], [-8.335455, 41.364904], [-8.333965, 41.373903], [-8.33799, 41.382934], [-8.350765, 41.391206], [-8.355178, 41.392039]]]]}}]}