{"type": "FeatureCollection", "features": [{"id": "9", "type": "Feature", "properties": {"fill": "#a3a3a3", "value_min": -0.75, "value_max": -0.5}, "geometry": {"type": "MultiPolygon", "coordinates": [[[[-8.51167, 41.670872], [-8.511405, 41.670101], [-8.511364, 41.669981], [-8.511328, 41.669876], [-8.510866, 41.668527], [-8.499172, 41.635956], [-8.493426, 41.626923], [-8.486169, 41.617884], [-8.474754, 41.608825], [-8.456667, 41.600931], [-8.444684, 41.598963], [-8.42067, 41.600625], [-8.396741, 41.608442], [-8.360442, 41.623717], [-8.341082, 41.635158], [-8.331875, 41.644112], [-8.326308, 41.653087], [-8.323163, 41.671083], [-8.32929, 41.689133], [-8.347511, 41.71552], [-8.358425, 41.735102], [-8.362407, 41.735994], [-8.368703, 41.73193], [-8.371416, 41.7344], [-8.374746, 41.734393], [-8.359701, 41.698523], [-8.346615, 41.680225], [-8.343642, 41.671201], [-8.344091, 41.662197], [-8.348414, 41.653214], [-8.357766, 41.64426], [-8.396425, 41.626858], [-8.405706, 41.617496], [-8.420602, 41.608216], [-8.432633, 41.604744], [-8.44464, 41.604028], [-8.456623, 41.606134], [-8.462915, 41.60877], [-8.475779, 41.617837], [-8.481575, 41.62687], [-8.483946, 41.635888], [-8.480255, 41.652266], [-8.469529, 41.671851], [-8.469729, 41.680859], [-8.472433, 41.687329], [-8.482012, 41.682123], [-8.484371, 41.674238], [-8.49308, 41.674886], [-8.499963, 41.671038], [-8.50927, 41.671233], [-8.51018, 41.672806], [-8.51167, 41.670872]]], [[[-7.889681, 41.775086], [-7.901438, 41.766901], [-7.914135, 41.752021], [-7.929354, 41.740144], [-7.936694, 41.731205], [-7.938849, 41.722218], [-7.937752, 41.713201], [-7.932532, 41.704146], [-7.927032, 41.699782], [-7.915108, 41.694212], [-7.9031, 41.69368], [-7.89101, 41.697909], [-7.879102, 41.712644], [-7.872892, 41.730597], [-7.866339, 41.734067], [-7.842169, 41.740836], [-7.82913, 41.748173], [-7.823546, 41.757123], [-7.824879, 41.766144], [-7.833736, 41.775241], [-7.84149, 41.778545], [-7.853481, 41.780901], [-7.865513, 41.780974], [-7.877577, 41.779202], [-7.889681, 41.775086]], [[-7.853543, 41.777454], [-7.841591, 41.772983], [-7.833836, 41.766235], [-7.83226, 41.757212], [-7.837672, 41.74826], [-7.854198, 41.740633], [-7.878346, 41.735071], [-7.881502, 41.730681], [-7.879723, 41.721657], [-7.882438, 41.712677], [-7.890928, 41.702711], [-7.903001, 41.699473], [-7.914963, 41.702827], [-7.924212, 41.713075], [-7.924139, 41.722082], [-7.914444, 41.733663], [-7.900401, 41.739871], [-7.896576, 41.748841], [-7.896409, 41.757846], [-7.891478, 41.766806], [-7.877463, 41.775676], [-7.865566, 41.777999], [-7.853543, 41.777454]]], [[[-8.022292, 41.758192], [-8.032578, 41.750067], [-8.036208, 41.74109], [-8.034013, 41.732065], [-8.022866, 41.720354], [-8.010923, 41.715206], [-7.998918, 41.714182], [-7.986856, 41.716783], [-7.976562, 41.722561], [-7.970181, 41.73151], [-7.971185, 41.740526], [-7.977813, 41.749592], [-7.986254, 41.755115], [-7.99821, 41.759752], [-8.010218, 41.761112], [-8.022292, 41.758192]], [[-8.010329, 41.753928], [-7.998339, 41.751479], [-7.986028, 41.740658], [-7.984401, 41.731637], [-7.991229, 41.72269], [-7.998838, 41.719307], [-8.01087, 41.718685], [-8.02281, 41.72403], [-8.029909, 41.73203], [-8.030462, 41.741042], [-8.022939, 41.749985], [-8.010329, 41.753928]]], [[[-7.950127, 41.75764], [-7.945443, 41.758307], [-7.950108, 41.758812], [-7.950127, 41.75764]]], [[[-8.239356, 41.712491], [-8.246507, 41.706634], [-8.251234, 41.697658], [-8.252055, 41.688656], [-8.248312, 41.679624], [-8.239823, 41.672855], [-8.227866, 41.668135], [-8.215868, 41.666995], [-8.203825, 41.669423], [-8.191734, 41.675693], [-8.183286, 41.688188], [-8.182793, 41.697191], [-8.18671, 41.706226], [-8.191291, 41.711129], [-8.203227, 41.71796], [-8.21522, 41.72027], [-8.227261, 41.718713], [-8.239356, 41.712491]], [[-8.215288, 41.714712], [-8.203285, 41.713258], [-8.192106, 41.706264], [-8.187147, 41.697222], [-8.188456, 41.688224], [-8.191634, 41.683686], [-8.203747, 41.675763], [-8.215778, 41.674391], [-8.231087, 41.67951], [-8.238988, 41.68857], [-8.239628, 41.697581], [-8.234788, 41.706556], [-8.227347, 41.711556], [-8.215288, 41.714712]]], [[[-8.6848, 41.573508], [-8.701777, 41.564601], [-8.711492, 41.555619], [-8.7175, 41.546626], [-8.720274, 41.537626], [-8.720518, 41.528619], [-8.717902, 41.519605], [-8.709983, 41.510578], [-8.697118, 41.504274], [-8.661216, 41.49574], [-8.653498, 41.492407], [-8.64071, 41.48336], [-8.634105, 41.474332], [-8.6296, 41.456303], [-8.619057, 41.438253], [-8.608045, 41.429209], [-8.592362, 41.420147], [-8.577883, 41.414008], [-8.553983, 41.409324], [-8.542012, 41.410313], [-8.530021, 41.413949], [-8.517992, 41.422531], [-8.508732, 41.437835], [-8.508108, 41.455847], [-8.511442, 41.464869], [-8.518229, 41.473905], [-8.529521, 41.483147], [-8.566002, 41.501118], [-8.57108, 41.510144], [-8.579323, 41.537197], [-8.588985, 41.550771], [-8.600909, 41.561651], [-8.612857, 41.56915], [-8.636799, 41.577408], [-8.660782, 41.578836], [-8.672787, 41.577123], [-8.6848, 41.573508]], [[-8.636896, 41.559948], [-8.624908, 41.559201], [-8.612938, 41.555554], [-8.600988, 41.548713], [-8.590906, 41.537238], [-8.587325, 41.528218], [-8.586894, 41.519209], [-8.589566, 41.510212], [-8.601308, 41.496638], [-8.613306, 41.493753], [-8.625281, 41.494634], [-8.63724, 41.498372], [-8.659589, 41.51044], [-8.669689, 41.519477], [-8.673502, 41.528495], [-8.673174, 41.537502], [-8.668485, 41.546496], [-8.655577, 41.555465], [-8.648899, 41.55802], [-8.636896, 41.559948]], [[-8.553478, 41.483136], [-8.541519, 41.480422], [-8.529588, 41.473884], [-8.521211, 41.46491], [-8.517793, 41.455888], [-8.518087, 41.446882], [-8.522426, 41.437893], [-8.5299, 41.430647], [-8.541908, 41.425142], [-8.553885, 41.423692], [-8.565842, 41.425242], [-8.575859, 41.429095], [-8.588654, 41.438149], [-8.594854, 41.447178], [-8.596711, 41.456192], [-8.595233, 41.465194], [-8.589336, 41.474181], [-8.577444, 41.481556], [-8.565453, 41.483619], [-8.553478, 41.483136]]], [[[-8.082187, 41.549425], [-8.097326, 41.55378], [-8.109311, 41.554184], [-8.121332, 41.55199], [-8.13641, 41.543731], [-8.142472, 41.534769], [-8.143487, 41.525769], [-8.140046, 41.516736], [-8.126475, 41.507626], [-8.098043, 41.502207], [-8.08408, 41.502584], [-8.093, 41.504613], [-8.0915, 41.509329], [-8.097962, 41.507995], [-8.109935, 41.508749], [-8.121868, 41.512418], [-8.128772, 41.516651], [-8.133626, 41.525695], [-8.132244, 41.534692], [-8.121431, 41.544719], [-8.109394, 41.548145], [-8.09741, 41.547748], [-8.086386, 41.544022], [-8.083389, 41.5449], [-8.082187, 41.549425]]], [[[-8.361593, 41.506868], [-8.367346, 41.500196], [-8.370852, 41.491208], [-8.370732, 41.4822], [-8.367321, 41.473174], [-8.361995, 41.465914], [-8.350095, 41.458423], [-8.338142, 41.456434], [-8.326151, 41.458056], [-8.314095, 41.46589], [-8.309499, 41.472841], [-8.307438, 41.481836], [-8.308656, 41.490851], [-8.313727, 41.500837], [-8.325605, 41.510825], [-8.337553, 41.514265], [-8.349547, 41.513204], [-8.361593, 41.506868]], [[-8.337622, 41.507463], [-8.325682, 41.503407], [-8.321548, 41.499935], [-8.315597, 41.490893], [-8.31502, 41.481882], [-8.319861, 41.472903], [-8.326049, 41.46792], [-8.338056, 41.464828], [-8.350014, 41.466486], [-8.359805, 41.473132], [-8.365234, 41.48217], [-8.365339, 41.491178], [-8.359884, 41.500155], [-8.349615, 41.5064], [-8.337622, 41.507463]]], [[[-8.145668, 41.374742], [-8.152052, 41.390722], [-8.15975, 41.399786], [-8.170943, 41.408874], [-8.183004, 41.415422], [-8.194917, 41.419637], [-8.218809, 41.423098], [-8.230782, 41.422628], [-8.250127, 41.418425], [-8.266822, 41.410225], [-8.276514, 41.400579], [-8.28323, 41.382606], [-8.28356, 41.3736], [-8.280009, 41.355563], [-8.269003, 41.335778], [-8.263339, 41.340902], [-8.262751, 41.345405], [-8.256483, 41.347663], [-8.255889, 41.349623], [-8.266697, 41.364487], [-8.269235, 41.37351], [-8.269153, 41.382517], [-8.266163, 41.391506], [-8.259484, 41.400471], [-8.242893, 41.410231], [-8.230894, 41.413133], [-8.218922, 41.413633], [-8.206977, 41.411951], [-8.195064, 41.40779], [-8.182694, 41.399951], [-8.174639, 41.390886], [-8.170249, 41.377212], [-8.1642, 41.38059], [-8.152544, 41.375866], [-8.151049, 41.37339], [-8.145668, 41.374742]]], [[[-8.8073, 41.337445], [-8.793482, 41.344725], [-8.769552, 41.351416], [-8.74564, 41.352428], [-8.721752, 41.347748], [-8.697891, 41.337656], [-8.673103, 41.32132], [-8.652914, 41.303246], [-8.626564, 41.270694], [-8.614645, 41.267235], [-8.578807, 41.270638], [-8.554925, 41.271154], [-8.531078, 41.266723], [-8.519173, 41.262174], [-8.507287, 41.255216], [-8.499063, 41.248633], [-8.488839, 41.235754], [-8.486181, 41.236888], [-8.484411, 41.240495], [-8.476644, 41.237817], [-8.475756, 41.23917], [-8.471283, 41.239184], [-8.471604, 41.243459], [-8.469227, 41.245267], [-8.463258, 41.244384], [-8.459989, 41.246644], [-8.455512, 41.245982], [-8.454329, 41.248011], [-8.455723, 41.250933], [-8.471396, 41.265366], [-8.483268, 41.273747], [-8.495156, 41.280491], [-8.518971, 41.289736], [-8.542826, 41.294013], [-8.602534, 41.295612], [-8.614466, 41.297751], [-8.626386, 41.301949], [-8.650208, 41.314753], [-8.721675, 41.365855], [-8.745535, 41.379418], [-8.769425, 41.387524], [-8.781378, 41.38986], [-8.809417, 41.391093], [-8.8073, 41.337445]]], [[[-8.627112, 41.187522], [-8.627112, 41.187522], [-8.627155, 41.187624], [-8.627112, 41.187522]]], [[[-8.627208, 41.187747], [-8.638804, 41.216147], [-8.642792, 41.222145], [-8.65066, 41.22997], [-8.662573, 41.233586], [-8.674503, 41.23412], [-8.698377, 41.232205], [-8.74615, 41.221108], [-8.770021, 41.21817], [-8.781947, 41.219207], [-8.802913, 41.226011], [-8.799695, 41.14406], [-8.67527, 41.147484], [-8.676193, 41.146567], [-8.674793, 41.146932], [-8.674204, 41.147693], [-8.674849, 41.153767], [-8.672489, 41.15648], [-8.66117, 41.156307], [-8.662078, 41.158104], [-8.660313, 41.160813], [-8.657033, 41.160378], [-8.654961, 41.161963], [-8.653231, 41.169174], [-8.655366, 41.175467], [-8.647955, 41.180228], [-8.647696, 41.185181], [-8.641225, 41.196014], [-8.634946, 41.193341], [-8.632526, 41.188624], [-8.627208, 41.187747]]]]}}, {"id": "10", "type": "Feature", "properties": {"fill": "#a3a3a3", "value_min": -0.5, "value_max": -0.25}, "geometry": {"type": "MultiPolygon", "coordinates": [[[[-7.853543, 41.777454], [-7.865566, 41.777999], [-7.877463, 41.775676], [-7.891478, 41.766806], [-7.896409, 41.757846], [-7.896576, 41.748841], [-7.900401, 41.739871], [-7.914444, 41.733663], [-7.924139, 41.722082], [-7.924212, 41.713075], [-7.914963, 41.702827], [-7.903001, 41.699473], [-7.890928, 41.702711], [-7.882438, 41.712677], [-7.879723, 41.721657], [-7.881502, 41.730681], [-7.878346, 41.735071], [-7.854198, 41.740633], [-7.837672, 41.74826], [-7.83226, 41.757212], [-7.833836, 41.766235], [-7.841591, 41.772983], [-7.853543, 41.777454]], [[-7.865619, 41.774977], [-7.853607, 41.773819], [-7.841705, 41.766626], [-7.838871, 41.757279], [-7.845452, 41.748339], [-7.854135, 41.744195], [-7.866198, 41.742119], [-7.878193, 41.743889], [-7.885146, 41.748731], [-7.888272, 41.757768], [-7.884718, 41.76674], [-7.877713, 41.771424], [-7.865619, 41.774977]], [[-7.890457, 41.730091], [-7.884126, 41.7217], [-7.885774, 41.712709], [-7.890856, 41.70685], [-7.902911, 41.704805], [-7.91499, 41.712989], [-7.914638, 41.721992], [-7.902469, 41.730767], [-7.890457, 41.730091]]], [[[-8.472433, 41.687329], [-8.469729, 41.680859], [-8.469529, 41.671851], [-8.480255, 41.652266], [-8.483946, 41.635888], [-8.481575, 41.62687], [-8.475779, 41.617837], [-8.462915, 41.60877], [-8.456623, 41.606134], [-8.44464, 41.604028], [-8.432633, 41.604744], [-8.420602, 41.608216], [-8.405706, 41.617496], [-8.396425, 41.626858], [-8.357766, 41.64426], [-8.348414, 41.653214], [-8.344091, 41.662197], [-8.343642, 41.671201], [-8.346615, 41.680225], [-8.359701, 41.698523], [-8.374746, 41.734393], [-8.384922, 41.73032], [-8.387032, 41.731891], [-8.388756, 41.731212], [-8.384853, 41.725472], [-8.382966, 41.716455], [-8.384408, 41.707455], [-8.38849, 41.69847], [-8.389145, 41.689466], [-8.371862, 41.683828], [-8.360505, 41.671296], [-8.360901, 41.662291], [-8.372174, 41.651791], [-8.384206, 41.649368], [-8.396198, 41.651188], [-8.402002, 41.653505], [-8.40988, 41.662553], [-8.411023, 41.671566], [-8.409264, 41.680564], [-8.443852, 41.695692], [-8.449681, 41.701581], [-8.453868, 41.697961], [-8.453255, 41.695487], [-8.461659, 41.694563], [-8.472433, 41.687329]], [[-8.444214, 41.653624], [-8.432212, 41.65276], [-8.420255, 41.646886], [-8.413828, 41.635552], [-8.414439, 41.626548], [-8.42054, 41.617572], [-8.43258, 41.610886], [-8.444597, 41.6091], [-8.456576, 41.611764], [-8.466321, 41.617793], [-8.472056, 41.626827], [-8.471947, 41.635834], [-8.466006, 41.644813], [-8.456243, 41.651427], [-8.444214, 41.653624]]], [[[-8.010329, 41.753928], [-8.022939, 41.749985], [-8.030462, 41.741042], [-8.029909, 41.73203], [-8.02281, 41.72403], [-8.01087, 41.718685], [-7.998838, 41.719307], [-7.991229, 41.72269], [-7.984401, 41.731637], [-7.986028, 41.740658], [-7.998339, 41.751479], [-8.010329, 41.753928]], [[-8.010417, 41.748171], [-7.998446, 41.74455], [-7.994047, 41.740729], [-7.992105, 41.731705], [-7.998749, 41.725039], [-8.010816, 41.722165], [-8.022742, 41.728544], [-8.025805, 41.731996], [-8.024989, 41.740996], [-8.02251, 41.743855], [-8.010417, 41.748171]]], [[[-8.215288, 41.714712], [-8.227347, 41.711556], [-8.234788, 41.706556], [-8.239628, 41.697581], [-8.238988, 41.68857], [-8.231087, 41.67951], [-8.215778, 41.674391], [-8.203747, 41.675763], [-8.191634, 41.683686], [-8.188456, 41.688224], [-8.187147, 41.697222], [-8.192106, 41.706264], [-8.203285, 41.713258], [-8.215288, 41.714712]], [[-8.203334, 41.709265], [-8.19861, 41.70631], [-8.191509, 41.697253], [-8.194156, 41.688265], [-8.203679, 41.681298], [-8.215704, 41.680478], [-8.229665, 41.688508], [-8.231711, 41.697529], [-8.224636, 41.706488], [-8.215342, 41.710245], [-8.203334, 41.709265]]], [[[-8.636896, 41.559948], [-8.648899, 41.55802], [-8.655577, 41.555465], [-8.668485, 41.546496], [-8.673174, 41.537502], [-8.673502, 41.528495], [-8.669689, 41.519477], [-8.659589, 41.51044], [-8.63724, 41.498372], [-8.625281, 41.494634], [-8.613306, 41.493753], [-8.601308, 41.496638], [-8.589566, 41.510212], [-8.586894, 41.519209], [-8.587325, 41.528218], [-8.590906, 41.537238], [-8.600988, 41.548713], [-8.612938, 41.555554], [-8.624908, 41.559201], [-8.636896, 41.559948]], [[-8.624971, 41.548279], [-8.612999, 41.545215], [-8.602346, 41.537279], [-8.597917, 41.528256], [-8.598818, 41.519252], [-8.60674, 41.510272], [-8.613229, 41.506704], [-8.625219, 41.505457], [-8.640777, 41.510383], [-8.651703, 41.519424], [-8.654885, 41.528441], [-8.652009, 41.53744], [-8.648994, 41.540471], [-8.636968, 41.547177], [-8.624971, 41.548279]]], [[[-8.086386, 41.544022], [-8.09741, 41.547748], [-8.109394, 41.548145], [-8.121431, 41.544719], [-8.132244, 41.534692], [-8.133626, 41.525695], [-8.128772, 41.516651], [-8.121868, 41.512418], [-8.109935, 41.508749], [-8.097962, 41.507995], [-8.0915, 41.509329], [-8.090736, 41.516092], [-8.097886, 41.513446], [-8.109868, 41.513601], [-8.117604, 41.516566], [-8.125394, 41.525633], [-8.121547, 41.536143], [-8.109477, 41.542098], [-8.103764, 41.541828], [-8.106759, 41.543557], [-8.101666, 41.542655], [-8.094175, 41.544904], [-8.087885, 41.542876], [-8.086386, 41.544022]]], [[[-8.337622, 41.507463], [-8.349615, 41.5064], [-8.359884, 41.500155], [-8.365339, 41.491178], [-8.365234, 41.48217], [-8.359805, 41.473132], [-8.350014, 41.466486], [-8.338056, 41.464828], [-8.326049, 41.46792], [-8.319861, 41.472903], [-8.31502, 41.481882], [-8.315597, 41.490893], [-8.321548, 41.499935], [-8.325682, 41.503407], [-8.337622, 41.507463]], [[-8.337681, 41.501689], [-8.325769, 41.494987], [-8.322798, 41.490935], [-8.32273, 41.481928], [-8.32595, 41.477512], [-8.337989, 41.471426], [-8.349948, 41.473142], [-8.358897, 41.482135], [-8.359117, 41.491143], [-8.349675, 41.500436], [-8.337681, 41.501689]]], [[[-8.553478, 41.483136], [-8.565453, 41.483619], [-8.577444, 41.481556], [-8.589336, 41.474181], [-8.595233, 41.465194], [-8.596711, 41.456192], [-8.594854, 41.447178], [-8.588654, 41.438149], [-8.575859, 41.429095], [-8.565842, 41.425242], [-8.553885, 41.423692], [-8.541908, 41.425142], [-8.5299, 41.430647], [-8.522426, 41.437893], [-8.518087, 41.446882], [-8.517793, 41.455888], [-8.521211, 41.46491], [-8.529588, 41.473884], [-8.541519, 41.480422], [-8.553478, 41.483136]], [[-8.548013, 41.474026], [-8.541573, 41.472685], [-8.53056, 41.464949], [-8.526538, 41.455925], [-8.528258, 41.446924], [-8.538169, 41.437957], [-8.541832, 41.435945], [-8.553813, 41.434191], [-8.568018, 41.438073], [-8.578065, 41.447118], [-8.580479, 41.456134], [-8.576915, 41.465128], [-8.565523, 41.473139], [-8.553532, 41.475181], [-8.548013, 41.474026]]], [[[-8.170249, 41.377212], [-8.174639, 41.390886], [-8.182694, 41.399951], [-8.195064, 41.40779], [-8.206977, 41.411951], [-8.218922, 41.413633], [-8.230894, 41.413133], [-8.242893, 41.410231], [-8.259484, 41.400471], [-8.266163, 41.391506], [-8.269153, 41.382517], [-8.269235, 41.37351], [-8.266697, 41.364487], [-8.255889, 41.349623], [-8.249622, 41.353072], [-8.251123, 41.356897], [-8.248443, 41.36151], [-8.256632, 41.37343], [-8.257144, 41.382441], [-8.255117, 41.387471], [-8.253343, 41.391423], [-8.243169, 41.400365], [-8.230995, 41.404513], [-8.219025, 41.405067], [-8.202081, 41.400087], [-8.191, 41.391002], [-8.186908, 41.381966], [-8.187051, 41.375629], [-8.184818, 41.376756], [-8.170249, 41.377212]]], [[[-8.488839, 41.235754], [-8.499063, 41.248633], [-8.507287, 41.255216], [-8.519173, 41.262174], [-8.531078, 41.266723], [-8.554925, 41.271154], [-8.578807, 41.270638], [-8.614645, 41.267235], [-8.626564, 41.270694], [-8.652914, 41.303246], [-8.673103, 41.32132], [-8.697891, 41.337656], [-8.721752, 41.347748], [-8.74564, 41.352428], [-8.769552, 41.351416], [-8.793482, 41.344725], [-8.8073, 41.337445], [-8.802913, 41.226011], [-8.781947, 41.219207], [-8.770021, 41.21817], [-8.74615, 41.221108], [-8.698377, 41.232205], [-8.674503, 41.23412], [-8.662573, 41.233586], [-8.65066, 41.22997], [-8.642792, 41.222145], [-8.638804, 41.216147], [-8.627208, 41.187747], [-8.627155, 41.187624], [-8.627112, 41.187522], [-8.62263, 41.180113], [-8.612177, 41.176781], [-8.608583, 41.174095], [-8.609164, 41.172066], [-8.604942, 41.164881], [-8.600767, 41.164222], [-8.589766, 41.167193], [-8.589194, 41.170572], [-8.583263, 41.174422], [-8.582094, 41.177803], [-8.578825, 41.178941], [-8.580976, 41.188613], [-8.591216, 41.195279], [-8.598445, 41.203983], [-8.602391, 41.213004], [-8.603396, 41.222016], [-8.601307, 41.231016], [-8.595013, 41.240002], [-8.580208, 41.248957], [-8.56699, 41.252218], [-8.555052, 41.252545], [-8.54313, 41.250504], [-8.53123, 41.245433], [-8.52329, 41.239728], [-8.516082, 41.23069], [-8.513011, 41.221669], [-8.513151, 41.212662], [-8.51879, 41.200542], [-8.51163, 41.203042], [-8.510456, 41.206197], [-8.505693, 41.207113], [-8.504239, 41.213646], [-8.500076, 41.21546], [-8.50308, 41.219502], [-8.502204, 41.222656], [-8.495642, 41.222227], [-8.495947, 41.223351], [-8.490894, 41.226294], [-8.487935, 41.230354], [-8.490331, 41.232373], [-8.488839, 41.235754]], [[-8.745702, 41.336629], [-8.7218, 41.336421], [-8.709861, 41.333615], [-8.697933, 41.32876], [-8.685393, 41.321355], [-8.674704, 41.312317], [-8.667186, 41.303288], [-8.661123, 41.285255], [-8.662362, 41.276251], [-8.666924, 41.267256], [-8.674372, 41.260654], [-8.686339, 41.25438], [-8.698292, 41.250769], [-8.72218, 41.246964], [-8.746048, 41.247385], [-8.757974, 41.249851], [-8.769894, 41.254323], [-8.777021, 41.258514], [-8.787053, 41.267541], [-8.792565, 41.276559], [-8.795289, 41.285571], [-8.79555, 41.29458], [-8.788761, 41.312583], [-8.780414, 41.321575], [-8.769632, 41.328838], [-8.757663, 41.333924], [-8.745702, 41.336629]]]]}}, {"id": "8", "type": "Feature", "properties": {"fill": "#a3a3a3", "value_min": -1.0, "value_max": -0.75}, "geometry": {"type": "MultiPolygon", "coordinates": [[[[-8.62076, 41.607532], [-8.621338, 41.604636], [-8.628833, 41.604378], [-8.636302, 41.600744], [-8.639873, 41.597352], [-8.640152, 41.59465], [-8.645536, 41.593051], [-8.646744, 41.594171], [-8.649125, 41.591909], [-8.656622, 41.5921], [-8.660788, 41.588255], [-8.663794, 41.589141], [-8.665265, 41.585758], [-8.66948, 41.587989], [-8.684455, 41.586117], [-8.685608, 41.58071], [-8.697261, 41.576376], [-8.701703, 41.570277], [-8.707704, 41.570923], [-8.712485, 41.569323], [-8.716422, 41.573805], [-8.720316, 41.57356], [-8.725151, 41.577811], [-8.726633, 41.576003], [-8.734424, 41.575737], [-8.736564, 41.580228], [-8.738354, 41.579318], [-8.740778, 41.582006], [-8.74467, 41.581535], [-8.750711, 41.58623], [-8.75993, 41.578527], [-8.767441, 41.580286], [-8.769874, 41.583874], [-8.768997, 41.58613], [-8.773228, 41.589482], [-8.774165, 41.593303], [-8.78556, 41.593464], [-8.797327, 41.600599], [-8.804218, 41.600109], [-8.80456, 41.604158], [-8.809434, 41.611332], [-8.828644, 41.609656], [-8.82839, 41.585633], [-8.818497, 41.554794], [-8.8221, 41.547542], [-8.821965, 41.534907], [-8.815926, 41.525624], [-8.81063, 41.5101], [-8.813279, 41.503483], [-8.812636, 41.496944], [-8.804699, 41.482068], [-8.798552, 41.474753], [-8.80154, 41.446836], [-8.806115, 41.43713], [-8.807354, 41.425915], [-8.811035, 41.418186], [-8.809417, 41.391093], [-8.781378, 41.38986], [-8.769425, 41.387524], [-8.745535, 41.379418], [-8.721675, 41.365855], [-8.650208, 41.314753], [-8.626386, 41.301949], [-8.614466, 41.297751], [-8.602534, 41.295612], [-8.542826, 41.294013], [-8.518971, 41.289736], [-8.495156, 41.280491], [-8.483268, 41.273747], [-8.471396, 41.265366], [-8.455723, 41.250933], [-8.452573, 41.254994], [-8.447812, 41.257258], [-8.449028, 41.261982], [-8.439785, 41.262907], [-8.438023, 41.268989], [-8.434745, 41.269673], [-8.432691, 41.277107], [-8.427032, 41.279372], [-8.429143, 41.284319], [-8.426171, 41.287028], [-8.425011, 41.294559], [-8.494741, 41.334262], [-8.518586, 41.34204], [-8.53055, 41.340461], [-8.566508, 41.325104], [-8.590452, 41.317756], [-8.61436, 41.315751], [-8.626299, 41.317142], [-8.650151, 41.325284], [-8.662065, 41.332182], [-8.68195, 41.348368], [-8.689473, 41.357396], [-8.697499, 41.375433], [-8.698035, 41.384442], [-8.695471, 41.393443], [-8.687922, 41.40243], [-8.673626, 41.410104], [-8.649673, 41.414475], [-8.625755, 41.412199], [-8.601869, 41.405014], [-8.542239, 41.37795], [-8.530293, 41.376195], [-8.518308, 41.379772], [-8.514252, 41.383813], [-8.506254, 41.392234], [-8.496918, 41.410761], [-8.493539, 41.428762], [-8.494721, 41.446782], [-8.500412, 41.464822], [-8.505944, 41.473853], [-8.517515, 41.486879], [-8.541349, 41.504453], [-8.553253, 41.515888], [-8.571909, 41.546177], [-8.62076, 41.607532]], [[-8.6848, 41.573508], [-8.672787, 41.577123], [-8.660782, 41.578836], [-8.636799, 41.577408], [-8.612857, 41.56915], [-8.600909, 41.561651], [-8.588985, 41.550771], [-8.579323, 41.537197], [-8.57108, 41.510144], [-8.566002, 41.501118], [-8.529521, 41.483147], [-8.518229, 41.473905], [-8.511442, 41.464869], [-8.508108, 41.455847], [-8.508732, 41.437835], [-8.517992, 41.422531], [-8.530021, 41.413949], [-8.542012, 41.410313], [-8.553983, 41.409324], [-8.577883, 41.414008], [-8.592362, 41.420147], [-8.608045, 41.429209], [-8.619057, 41.438253], [-8.6296, 41.456303], [-8.634105, 41.474332], [-8.64071, 41.48336], [-8.653498, 41.492407], [-8.661216, 41.49574], [-8.697118, 41.504274], [-8.709983, 41.510578], [-8.717902, 41.519605], [-8.720518, 41.528619], [-8.720274, 41.537626], [-8.7175, 41.546626], [-8.711492, 41.555619], [-8.701777, 41.564601], [-8.6848, 41.573508]]], [[[-8.10647, 41.393423], [-8.124495, 41.40853], [-8.139994, 41.417655], [-8.162274, 41.426826], [-8.182795, 41.432069], [-8.206705, 41.434352], [-8.230649, 41.433892], [-8.254618, 41.431157], [-8.278621, 41.425222], [-8.290669, 41.417856], [-8.296813, 41.409712], [-8.299717, 41.400723], [-8.303347, 41.326218], [-8.303386, 41.325768], [-8.303562, 41.323742], [-8.301216, 41.319694], [-8.296431, 41.316774], [-8.297618, 41.313846], [-8.296116, 41.310022], [-8.293133, 41.310927], [-8.292241, 41.312504], [-8.289255, 41.312508], [-8.284488, 41.316341], [-8.281801, 41.316569], [-8.281808, 41.319721], [-8.278828, 41.321976], [-8.278238, 41.325128], [-8.273161, 41.325134], [-8.269582, 41.326939], [-8.265709, 41.331221], [-8.269003, 41.335778], [-8.280009, 41.355563], [-8.28356, 41.3736], [-8.28323, 41.382606], [-8.276514, 41.400579], [-8.266822, 41.410225], [-8.250127, 41.418425], [-8.230782, 41.422628], [-8.218809, 41.423098], [-8.194917, 41.419637], [-8.183004, 41.415422], [-8.170943, 41.408874], [-8.15975, 41.399786], [-8.152052, 41.390722], [-8.145668, 41.374742], [-8.139694, 41.377894], [-8.133418, 41.374292], [-8.119672, 41.376768], [-8.119672, 41.378569], [-8.116683, 41.380144], [-8.117578, 41.386447], [-8.114589, 41.386446], [-8.112795, 41.390723], [-8.10647, 41.393423]]], [[[-8.539719, 41.644154], [-8.516443, 41.630837], [-8.486821, 41.608879], [-8.468681, 41.59918], [-8.456713, 41.595421], [-8.44473, 41.593586], [-8.408729, 41.594088], [-8.360663, 41.601324], [-8.336579, 41.609578], [-8.322765, 41.617037], [-8.310339, 41.625971], [-8.28815, 41.648015], [-8.276049, 41.656238], [-8.264029, 41.657123], [-8.228034, 41.654059], [-8.21601, 41.655291], [-8.203956, 41.658854], [-8.191864, 41.665364], [-8.186993, 41.6702], [-8.179645, 41.681686], [-8.177694, 41.688148], [-8.178119, 41.697158], [-8.181461, 41.706189], [-8.189201, 41.715251], [-8.203159, 41.723442], [-8.215138, 41.727054], [-8.227159, 41.727219], [-8.239226, 41.723493], [-8.252842, 41.715682], [-8.275577, 41.698341], [-8.287648, 41.693557], [-8.299627, 41.697076], [-8.31157, 41.704066], [-8.323486, 41.713906], [-8.339842, 41.734229], [-8.351052, 41.756724], [-8.352545, 41.751769], [-8.349814, 41.744122], [-8.352516, 41.743441], [-8.352203, 41.739616], [-8.358425, 41.735102], [-8.347511, 41.71552], [-8.32929, 41.689133], [-8.323163, 41.671083], [-8.326308, 41.653087], [-8.331875, 41.644112], [-8.341082, 41.635158], [-8.360442, 41.623717], [-8.396741, 41.608442], [-8.42067, 41.600625], [-8.444684, 41.598963], [-8.456667, 41.600931], [-8.474754, 41.608825], [-8.486169, 41.617884], [-8.493426, 41.626923], [-8.499172, 41.635956], [-8.510866, 41.668527], [-8.51702, 41.661979], [-8.522103, 41.658811], [-8.525706, 41.659023], [-8.527769, 41.652714], [-8.534066, 41.652017], [-8.537355, 41.64998], [-8.539719, 41.644154]], [[-8.239356, 41.712491], [-8.227261, 41.718713], [-8.21522, 41.72027], [-8.203227, 41.71796], [-8.191291, 41.711129], [-8.18671, 41.706226], [-8.182793, 41.697191], [-8.183286, 41.688188], [-8.191734, 41.675693], [-8.203825, 41.669423], [-8.215868, 41.666995], [-8.227866, 41.668135], [-8.239823, 41.672855], [-8.248312, 41.679624], [-8.252055, 41.688656], [-8.251234, 41.697658], [-8.246507, 41.706634], [-8.239356, 41.712491]]], [[[-8.511328, 41.669876], [-8.511328, 41.669876], [-8.511364, 41.669981], [-8.511328, 41.669876]]], [[[-8.511405, 41.670101], [-8.511405, 41.670101], [-8.51167, 41.670872], [-8.511405, 41.670101]]], [[[-7.913754, 41.774572], [-7.925804, 41.773556], [-7.949852, 41.774525], [-7.973946, 41.772619], [-8.010024, 41.773765], [-8.0221, 41.770875], [-8.034241, 41.763525], [-8.042386, 41.750149], [-8.042783, 41.741145], [-8.039202, 41.732108], [-8.022918, 41.716938], [-8.010996, 41.710461], [-7.999025, 41.707275], [-7.975013, 41.705545], [-7.963036, 41.702927], [-7.939235, 41.688557], [-7.927301, 41.683584], [-7.915314, 41.681932], [-7.903257, 41.684446], [-7.891122, 41.691363], [-7.878815, 41.708123], [-7.872943, 41.721591], [-7.866415, 41.729772], [-7.830156, 41.740128], [-7.816358, 41.748042], [-7.811428, 41.756998], [-7.812541, 41.766017], [-7.819255, 41.775093], [-7.829417, 41.780756], [-7.841399, 41.783647], [-7.85342, 41.784348], [-7.877515, 41.782769], [-7.913754, 41.774572]], [[-7.889681, 41.775086], [-7.877577, 41.779202], [-7.865513, 41.780974], [-7.853481, 41.780901], [-7.84149, 41.778545], [-7.833736, 41.775241], [-7.824879, 41.766144], [-7.823546, 41.757123], [-7.82913, 41.748173], [-7.842169, 41.740836], [-7.866339, 41.734067], [-7.872892, 41.730597], [-7.879102, 41.712644], [-7.89101, 41.697909], [-7.9031, 41.69368], [-7.915108, 41.694212], [-7.927032, 41.699782], [-7.932532, 41.704146], [-7.937752, 41.713201], [-7.938849, 41.722218], [-7.936694, 41.731205], [-7.929354, 41.740144], [-7.914135, 41.752021], [-7.901438, 41.766901], [-7.889681, 41.775086]], [[-8.022292, 41.758192], [-8.010218, 41.761112], [-7.99821, 41.759752], [-7.986254, 41.755115], [-7.977813, 41.749592], [-7.971185, 41.740526], [-7.970181, 41.73151], [-7.976562, 41.722561], [-7.986856, 41.716783], [-7.998918, 41.714182], [-8.010923, 41.715206], [-8.022866, 41.720354], [-8.034013, 41.732065], [-8.036208, 41.74109], [-8.032578, 41.750067], [-8.022292, 41.758192]], [[-7.950127, 41.75764], [-7.950108, 41.758812], [-7.945443, 41.758307], [-7.950127, 41.75764]]], [[[-8.144235, 41.63374], [-8.132283, 41.629715], [-8.128134, 41.63374], [-8.132138, 41.640546], [-8.144235, 41.63374]]], [[[-8.07589, 41.55555], [-8.097236, 41.560212], [-8.109221, 41.56074], [-8.121227, 41.559806], [-8.13326, 41.556749], [-8.141397, 41.552775], [-8.151046, 41.54384], [-8.154864, 41.534861], [-8.155465, 41.525858], [-8.15343, 41.516835], [-8.147524, 41.507784], [-8.134004, 41.500932], [-8.110076, 41.498434], [-8.086213, 41.491408], [-8.067565, 41.488509], [-8.072054, 41.490199], [-8.072348, 41.495601], [-8.078333, 41.49898], [-8.078332, 41.500331], [-8.08408, 41.502584], [-8.098043, 41.502207], [-8.126475, 41.507626], [-8.140046, 41.516736], [-8.143487, 41.525769], [-8.142472, 41.534769], [-8.13641, 41.543731], [-8.121332, 41.55199], [-8.109311, 41.554184], [-8.097326, 41.55378], [-8.082187, 41.549425], [-8.079788, 41.551876], [-8.074097, 41.549848], [-8.072896, 41.552098], [-8.07559, 41.555462], [-8.075636, 41.555475], [-8.07589, 41.55555]]], [[[-8.361501, 41.516299], [-8.368846, 41.509212], [-8.373625, 41.501778], [-8.376382, 41.491238], [-8.374155, 41.473211], [-8.369911, 41.464181], [-8.362113, 41.453877], [-8.350215, 41.446409], [-8.338283, 41.442529], [-8.326318, 41.441961], [-8.314308, 41.445725], [-8.30477, 41.454798], [-8.300796, 41.463781], [-8.299313, 41.47278], [-8.301795, 41.49081], [-8.305638, 41.49984], [-8.313615, 41.511403], [-8.32551, 41.519958], [-8.337461, 41.523214], [-8.349459, 41.522046], [-8.361501, 41.516299]], [[-8.361593, 41.506868], [-8.349547, 41.513204], [-8.337553, 41.514265], [-8.325605, 41.510825], [-8.313727, 41.500837], [-8.308656, 41.490851], [-8.307438, 41.481836], [-8.309499, 41.472841], [-8.314095, 41.46589], [-8.326151, 41.458056], [-8.338142, 41.456434], [-8.350095, 41.458423], [-8.361995, 41.465914], [-8.367321, 41.473174], [-8.370732, 41.4822], [-8.370852, 41.491208], [-8.367346, 41.500196], [-8.361593, 41.506868]]]]}}, {"id": "11", "type": "Feature", "properties": {"fill": "#a3a3a3", "value_min": -0.25, "value_max": 0.0}, "geometry": {"type": "MultiPolygon", "coordinates": [[[[-7.865619, 41.774977], [-7.877713, 41.771424], [-7.884718, 41.76674], [-7.888272, 41.757768], [-7.885146, 41.748731], [-7.878193, 41.743889], [-7.866198, 41.742119], [-7.854135, 41.744195], [-7.845452, 41.748339], [-7.838871, 41.757279], [-7.841705, 41.766626], [-7.853607, 41.773819], [-7.865619, 41.774977]], [[-7.865676, 41.771742], [-7.853677, 41.769923], [-7.847908, 41.766377], [-7.844844, 41.757339], [-7.852698, 41.748411], [-7.866136, 41.745636], [-7.875521, 41.748637], [-7.88276, 41.757714], [-7.878596, 41.766681], [-7.865676, 41.771742]]], [[[-8.449681, 41.701581], [-8.443852, 41.695692], [-8.409264, 41.680564], [-8.411023, 41.671566], [-8.40988, 41.662553], [-8.402002, 41.653505], [-8.396198, 41.651188], [-8.384206, 41.649368], [-8.372174, 41.651791], [-8.360901, 41.662291], [-8.360505, 41.671296], [-8.371862, 41.683828], [-8.389145, 41.689466], [-8.38849, 41.69847], [-8.384408, 41.707455], [-8.382966, 41.716455], [-8.384853, 41.725472], [-8.388756, 41.731212], [-8.393033, 41.729852], [-8.396942, 41.730518], [-8.401174, 41.726682], [-8.397135, 41.71653], [-8.402873, 41.707553], [-8.40772, 41.704333], [-8.419757, 41.70244], [-8.431742, 41.706236], [-8.437635, 41.714211], [-8.441632, 41.713975], [-8.441618, 41.711049], [-8.449681, 41.701581]]], [[[-8.010417, 41.748171], [-8.02251, 41.743855], [-8.024989, 41.740996], [-8.025805, 41.731996], [-8.022742, 41.728544], [-8.010816, 41.722165], [-7.998749, 41.725039], [-7.992105, 41.731705], [-7.994047, 41.740729], [-7.998446, 41.74455], [-8.010417, 41.748171]], [[-8.003912, 41.740815], [-7.999012, 41.731765], [-8.01075, 41.726465], [-8.020676, 41.731952], [-8.016392, 41.740922], [-8.010491, 41.743395], [-8.003912, 41.740815]]], [[[-7.890457, 41.730091], [-7.902469, 41.730767], [-7.914638, 41.721992], [-7.91499, 41.712989], [-7.902911, 41.704805], [-7.890856, 41.70685], [-7.885774, 41.712709], [-7.884126, 41.7217], [-7.890457, 41.730091]], [[-7.890554, 41.724428], [-7.888528, 41.721743], [-7.889109, 41.712741], [-7.890788, 41.710806], [-7.902821, 41.710067], [-7.907014, 41.712913], [-7.906497, 41.721915], [-7.902571, 41.724745], [-7.890554, 41.724428]]], [[[-8.203334, 41.709265], [-8.215342, 41.710245], [-8.224636, 41.706488], [-8.231711, 41.697529], [-8.229665, 41.688508], [-8.215704, 41.680478], [-8.203679, 41.681298], [-8.194156, 41.688265], [-8.191509, 41.697253], [-8.19861, 41.70631], [-8.203334, 41.709265]], [[-8.20339, 41.704738], [-8.196864, 41.697291], [-8.200666, 41.68831], [-8.203619, 41.68615], [-8.215638, 41.685882], [-8.220112, 41.688444], [-8.224006, 41.697477], [-8.215401, 41.705406], [-8.20339, 41.704738]]], [[[-8.444214, 41.653624], [-8.456243, 41.651427], [-8.466006, 41.644813], [-8.471947, 41.635834], [-8.472056, 41.626827], [-8.466321, 41.617793], [-8.456576, 41.611764], [-8.444597, 41.6091], [-8.43258, 41.610886], [-8.42054, 41.617572], [-8.414439, 41.626548], [-8.413828, 41.635552], [-8.420255, 41.646886], [-8.432212, 41.65276], [-8.444214, 41.653624]], [[-8.444313, 41.642179], [-8.432338, 41.638443], [-8.429209, 41.635629], [-8.426371, 41.626608], [-8.432909, 41.617633], [-8.444547, 41.614868], [-8.456524, 41.617927], [-8.462527, 41.626783], [-8.45983, 41.635777], [-8.456347, 41.638966], [-8.444313, 41.642179]]], [[[-8.624971, 41.548279], [-8.636968, 41.547177], [-8.648994, 41.540471], [-8.652009, 41.53744], [-8.654885, 41.528441], [-8.651703, 41.519424], [-8.640777, 41.510383], [-8.625219, 41.505457], [-8.613229, 41.506704], [-8.60674, 41.510272], [-8.598818, 41.519252], [-8.597917, 41.528256], [-8.602346, 41.537279], [-8.612999, 41.545215], [-8.624971, 41.548279]], [[-8.62237, 41.537346], [-8.613072, 41.533091], [-8.609734, 41.528297], [-8.61316, 41.518281], [-8.625163, 41.515138], [-8.636657, 41.519377], [-8.639783, 41.528395], [-8.63705, 41.53241], [-8.627824, 41.537364], [-8.62237, 41.537346]]], [[[-8.103764, 41.541828], [-8.109477, 41.542098], [-8.121547, 41.536143], [-8.125394, 41.525633], [-8.117604, 41.516566], [-8.109868, 41.513601], [-8.097886, 41.513446], [-8.090736, 41.516092], [-8.090295, 41.521719], [-8.093588, 41.52307], [-8.091786, 41.531848], [-8.103764, 41.541828]], [[-8.097594, 41.534535], [-8.093315, 41.525384], [-8.09778, 41.521134], [-8.109777, 41.52028], [-8.115731, 41.525559], [-8.111186, 41.534531], [-8.097594, 41.534535]]], [[[-8.337681, 41.501689], [-8.349675, 41.500436], [-8.359117, 41.491143], [-8.358897, 41.482135], [-8.349948, 41.473142], [-8.337989, 41.471426], [-8.32595, 41.477512], [-8.32273, 41.481928], [-8.322798, 41.490935], [-8.325769, 41.494987], [-8.337681, 41.501689]], [[-8.337752, 41.494673], [-8.332339, 41.490991], [-8.332893, 41.481987], [-8.337914, 41.47881], [-8.349872, 41.480752], [-8.351569, 41.491101], [-8.34975, 41.492909], [-8.337752, 41.494673]]], [[[-8.548013, 41.474026], [-8.553532, 41.475181], [-8.565523, 41.473139], [-8.576915, 41.465128], [-8.580479, 41.456134], [-8.578065, 41.447118], [-8.568018, 41.438073], [-8.553813, 41.434191], [-8.541832, 41.435945], [-8.538169, 41.437957], [-8.528258, 41.446924], [-8.526538, 41.455925], [-8.53056, 41.464949], [-8.541573, 41.472685], [-8.548013, 41.474026]], [[-8.542729, 41.464998], [-8.536608, 41.455966], [-8.540798, 41.446975], [-8.553747, 41.443875], [-8.561759, 41.447057], [-8.567531, 41.456086], [-8.559975, 41.465065], [-8.553587, 41.467175], [-8.542729, 41.464998]]], [[[-8.187051, 41.375629], [-8.186908, 41.381966], [-8.191, 41.391002], [-8.202081, 41.400087], [-8.219025, 41.405067], [-8.230995, 41.404513], [-8.243169, 41.400365], [-8.253343, 41.391423], [-8.255117, 41.387471], [-8.257144, 41.382441], [-8.256632, 41.37343], [-8.248443, 41.36151], [-8.248448, 41.364328], [-8.245461, 41.364781], [-8.244272, 41.368384], [-8.239813, 41.370639], [-8.243429, 41.373344], [-8.244986, 41.382361], [-8.238788, 41.391328], [-8.231105, 41.395244], [-8.219134, 41.39596], [-8.207228, 41.391336], [-8.201649, 41.382069], [-8.202606, 41.377196], [-8.199163, 41.377423], [-8.194976, 41.374275], [-8.191691, 41.376302], [-8.187051, 41.375629]]], [[[-8.745702, 41.336629], [-8.757663, 41.333924], [-8.769632, 41.328838], [-8.780414, 41.321575], [-8.788761, 41.312583], [-8.79555, 41.29458], [-8.795289, 41.285571], [-8.792565, 41.276559], [-8.787053, 41.267541], [-8.777021, 41.258514], [-8.769894, 41.254323], [-8.757974, 41.249851], [-8.746048, 41.247385], [-8.72218, 41.246964], [-8.698292, 41.250769], [-8.686339, 41.25438], [-8.674372, 41.260654], [-8.666924, 41.267256], [-8.662362, 41.276251], [-8.661123, 41.285255], [-8.667186, 41.303288], [-8.674704, 41.312317], [-8.685393, 41.321355], [-8.697933, 41.32876], [-8.709861, 41.333615], [-8.7218, 41.336421], [-8.745702, 41.336629]], [[-8.733792, 41.326353], [-8.72184, 41.326897], [-8.709899, 41.325034], [-8.697971, 41.320459], [-8.686171, 41.312349], [-8.678996, 41.303321], [-8.67585, 41.294305], [-8.676297, 41.285298], [-8.680867, 41.276303], [-8.686259, 41.271145], [-8.698229, 41.264481], [-8.710181, 41.261341], [-8.722123, 41.2604], [-8.734056, 41.2614], [-8.751669, 41.26747], [-8.7631, 41.276502], [-8.768245, 41.28552], [-8.769576, 41.294531], [-8.767744, 41.303535], [-8.761992, 41.312531], [-8.757729, 41.316121], [-8.745754, 41.323198], [-8.733792, 41.326353]]], [[[-8.51879, 41.200542], [-8.513151, 41.212662], [-8.513011, 41.221669], [-8.516082, 41.23069], [-8.52329, 41.239728], [-8.53123, 41.245433], [-8.54313, 41.250504], [-8.555052, 41.252545], [-8.56699, 41.252218], [-8.580208, 41.248957], [-8.595013, 41.240002], [-8.601307, 41.231016], [-8.603396, 41.222016], [-8.602391, 41.213004], [-8.598445, 41.203983], [-8.591216, 41.195279], [-8.580976, 41.188613], [-8.581296, 41.191762], [-8.575958, 41.195609], [-8.576894, 41.201908], [-8.574515, 41.202593], [-8.57423, 41.20462], [-8.567971, 41.204644], [-8.565895, 41.206227], [-8.567697, 41.208246], [-8.566512, 41.209376], [-8.559636, 41.206251], [-8.554271, 41.20627], [-8.549521, 41.209214], [-8.544157, 41.209458], [-8.54238, 41.211265], [-8.532257, 41.213102], [-8.52653, 41.202542], [-8.523236, 41.200077], [-8.51879, 41.200542]], [[-8.553101, 41.230839], [-8.543841, 41.221795], [-8.549241, 41.212809], [-8.55534, 41.210012], [-8.567258, 41.211515], [-8.572901, 41.221907], [-8.567137, 41.229969], [-8.555193, 41.231629], [-8.553101, 41.230839]]]]}}, {"id": "12", "type": "Feature", "properties": {"fill": "#a3a3a3", "value_min": 0.0, "value_max": 0.25}, "geometry": {"type": "MultiPolygon", "coordinates": [[[[-7.865676, 41.771742], [-7.878596, 41.766681], [-7.88276, 41.757714], [-7.875521, 41.748637], [-7.866136, 41.745636], [-7.852698, 41.748411], [-7.844844, 41.757339], [-7.847908, 41.766377], [-7.853677, 41.769923], [-7.865676, 41.771742]], [[-7.855523, 41.766453], [-7.850288, 41.757394], [-7.853971, 41.75338], [-7.866069, 41.749431], [-7.877054, 41.757659], [-7.870694, 41.766603], [-7.865733, 41.768506], [-7.855523, 41.766453]]], [[[-8.003912, 41.740815], [-8.010491, 41.743395], [-8.016392, 41.740922], [-8.020676, 41.731952], [-8.01075, 41.726465], [-7.999012, 41.731765], [-8.003912, 41.740815]], [[-8.008737, 41.73185], [-8.012327, 41.73188], [-8.010627, 41.734535], [-8.008737, 41.73185]]], [[[-8.437635, 41.714211], [-8.431742, 41.706236], [-8.419757, 41.70244], [-8.40772, 41.704333], [-8.402873, 41.707553], [-8.397135, 41.71653], [-8.401174, 41.726682], [-8.402934, 41.726452], [-8.404721, 41.722847], [-8.417349, 41.725067], [-8.41974, 41.722135], [-8.429643, 41.719859], [-8.430833, 41.717155], [-8.437635, 41.714211]]], [[[-7.890554, 41.724428], [-7.902571, 41.724745], [-7.906497, 41.721915], [-7.907014, 41.712913], [-7.902821, 41.710067], [-7.890788, 41.710806], [-7.889109, 41.712741], [-7.888528, 41.721743], [-7.890554, 41.724428]]], [[[-8.20339, 41.704738], [-8.215401, 41.705406], [-8.224006, 41.697477], [-8.220112, 41.688444], [-8.215638, 41.685882], [-8.203619, 41.68615], [-8.200666, 41.68831], [-8.196864, 41.697291], [-8.20339, 41.704738]], [[-8.203464, 41.698751], [-8.202218, 41.697328], [-8.203515, 41.694634], [-8.21552, 41.695602], [-8.216506, 41.697426], [-8.203464, 41.698751]]], [[[-8.444313, 41.642179], [-8.456347, 41.638966], [-8.45983, 41.635777], [-8.462527, 41.626783], [-8.456524, 41.617927], [-8.444547, 41.614868], [-8.432909, 41.617633], [-8.426371, 41.626608], [-8.429209, 41.635629], [-8.432338, 41.638443], [-8.444313, 41.642179]], [[-8.441488, 41.626683], [-8.444463, 41.624707], [-8.447811, 41.626713], [-8.444422, 41.629459], [-8.441488, 41.626683]]], [[[-8.62237, 41.537346], [-8.627824, 41.537364], [-8.63705, 41.53241], [-8.639783, 41.528395], [-8.636657, 41.519377], [-8.625163, 41.515138], [-8.61316, 41.518281], [-8.609734, 41.528297], [-8.613072, 41.533091], [-8.62237, 41.537346]]], [[[-8.097594, 41.534535], [-8.111186, 41.534531], [-8.115731, 41.525559], [-8.109777, 41.52028], [-8.09778, 41.521134], [-8.093315, 41.525384], [-8.097594, 41.534535]]], [[[-8.337752, 41.494673], [-8.34975, 41.492909], [-8.351569, 41.491101], [-8.349872, 41.480752], [-8.337914, 41.47881], [-8.332893, 41.481987], [-8.332339, 41.490991], [-8.337752, 41.494673]]], [[[-8.542729, 41.464998], [-8.553587, 41.467175], [-8.559975, 41.465065], [-8.567531, 41.456086], [-8.561759, 41.447057], [-8.553747, 41.443875], [-8.540798, 41.446975], [-8.536608, 41.455966], [-8.542729, 41.464998]]], [[[-8.202606, 41.377196], [-8.201649, 41.382069], [-8.207228, 41.391336], [-8.219134, 41.39596], [-8.231105, 41.395244], [-8.238788, 41.391328], [-8.244986, 41.382361], [-8.243429, 41.373344], [-8.239813, 41.370639], [-8.224854, 41.370878], [-8.21738, 41.368182], [-8.211712, 41.376065], [-8.202606, 41.377196]]], [[[-8.733792, 41.326353], [-8.745754, 41.323198], [-8.757729, 41.316121], [-8.761992, 41.312531], [-8.767744, 41.303535], [-8.769576, 41.294531], [-8.768245, 41.28552], [-8.7631, 41.276502], [-8.751669, 41.26747], [-8.734056, 41.2614], [-8.722123, 41.2604], [-8.710181, 41.261341], [-8.698229, 41.264481], [-8.686259, 41.271145], [-8.680867, 41.276303], [-8.676297, 41.285298], [-8.67585, 41.294305], [-8.678996, 41.303321], [-8.686171, 41.312349], [-8.697971, 41.320459], [-8.709899, 41.325034], [-8.72184, 41.326897], [-8.733792, 41.326353]], [[-8.72188, 41.317552], [-8.709937, 41.316371], [-8.698014, 41.311049], [-8.690714, 41.303354], [-8.687816, 41.294338], [-8.690393, 41.285337], [-8.698169, 41.277459], [-8.71013, 41.272797], [-8.722073, 41.27212], [-8.737261, 41.276446], [-8.747597, 41.285477], [-8.75046, 41.294491], [-8.748272, 41.303494], [-8.739221, 41.312481], [-8.733838, 41.315096], [-8.72188, 41.317552]]], [[[-8.553101, 41.230839], [-8.555193, 41.231629], [-8.567137, 41.229969], [-8.572901, 41.221907], [-8.567258, 41.211515], [-8.55534, 41.210012], [-8.549241, 41.212809], [-8.543841, 41.221795], [-8.553101, 41.230839]]]]}}, {"id": "13", "type": "Feature", "properties": {"fill": "#a3a3a3", "value_min": 0.25, "value_max": 0.5}, "geometry": {"type": "MultiPolygon", "coordinates": [[[[-7.855523, 41.766453], [-7.865733, 41.768506], [-7.870694, 41.766603], [-7.877054, 41.757659], [-7.866069, 41.749431], [-7.853971, 41.75338], [-7.850288, 41.757394], [-7.855523, 41.766453]], [[-7.858282, 41.757474], [-7.865979, 41.754548], [-7.87004, 41.75759], [-7.865831, 41.762921], [-7.858282, 41.757474]]], [[[-8.008737, 41.73185], [-8.010627, 41.734535], [-8.012327, 41.73188], [-8.008737, 41.73185]]], [[[-8.203464, 41.698751], [-8.216506, 41.697426], [-8.21552, 41.695602], [-8.203515, 41.694634], [-8.202218, 41.697328], [-8.203464, 41.698751]]], [[[-8.441488, 41.626683], [-8.444422, 41.629459], [-8.447811, 41.626713], [-8.444463, 41.624707], [-8.441488, 41.626683]]], [[[-8.72188, 41.317552], [-8.733838, 41.315096], [-8.739221, 41.312481], [-8.748272, 41.303494], [-8.75046, 41.294491], [-8.747597, 41.285477], [-8.737261, 41.276446], [-8.722073, 41.27212], [-8.71013, 41.272797], [-8.698169, 41.277459], [-8.690393, 41.285337], [-8.687816, 41.294338], [-8.690714, 41.303354], [-8.698014, 41.311049], [-8.709937, 41.316371], [-8.72188, 41.317552]], [[-8.709988, 41.305028], [-8.707304, 41.303397], [-8.703179, 41.294379], [-8.710072, 41.286014], [-8.722017, 41.285402], [-8.730673, 41.294446], [-8.726177, 41.303443], [-8.721931, 41.305496], [-8.709988, 41.305028]]]]}}, {"id": "14", "type": "Feature", "properties": {"fill": "#a3a3a3", "value_min": 0.5, "value_max": 0.75}, "geometry": {"type": "MultiPolygon", "coordinates": [[[[-7.858282, 41.757474], [-7.865831, 41.762921], [-7.87004, 41.75759], [-7.865979, 41.754548], [-7.858282, 41.757474]]], [[[-8.709988, 41.305028], [-8.721931, 41.305496], [-8.726177, 41.303443], [-8.730673, 41.294446], [-8.722017, 41.285402], [-8.710072, 41.286014], [-8.703179, 41.294379], [-8.707304, 41.303397], [-8.709988, 41.305028]]]]}}, {"id": "4", "type": "Feature", "properties": {"fill": "#c93e18", "value_min": -2.0, "value_max": -1.75}, "geometry": {"type": "MultiPolygon", "coordinates": [[[[-7.884766, 41.855056], [-7.900396, 41.85216], [-7.912411, 41.854032], [-7.924319, 41.862316], [-7.93424, 41.866285], [-7.948317, 41.868355], [-7.960402, 41.866218], [-7.972558, 41.859513], [-7.979498, 41.848682], [-7.979189, 41.839673], [-7.972382, 41.830605], [-7.961067, 41.825116], [-7.949051, 41.823512], [-7.936982, 41.82519], [-7.924879, 41.828884], [-7.912866, 41.827156], [-7.907401, 41.811992], [-7.900124, 41.802916], [-7.889321, 41.795953], [-7.877338, 41.792946], [-7.8653, 41.79308], [-7.853215, 41.795848], [-7.838766, 41.802312], [-7.83029, 41.811233], [-7.827171, 41.820208], [-7.828284, 41.829226], [-7.832919, 41.83828], [-7.840284, 41.845481], [-7.852207, 41.852293], [-7.868507, 41.855487], [-7.87033, 41.851395], [-7.873043, 41.850501], [-7.873066, 41.844875], [-7.879056, 41.85254], [-7.884766, 41.855056]], [[-7.94308, 41.839346], [-7.948849, 41.835901], [-7.956706, 41.839471], [-7.948684, 41.845938], [-7.94308, 41.839346]], [[-7.876544, 41.838373], [-7.864498, 41.838505], [-7.852521, 41.834741], [-7.846011, 41.829405], [-7.841145, 41.82035], [-7.841893, 41.81135], [-7.848975, 41.802415], [-7.865239, 41.796519], [-7.877277, 41.796451], [-7.889234, 41.800992], [-7.898047, 41.811903], [-7.898258, 41.820912], [-7.893275, 41.82987], [-7.888665, 41.833929], [-7.876544, 41.838373]]], [[[-8.040102, 41.597544], [-8.036611, 41.605988], [-8.036973, 41.614998], [-8.040962, 41.624039], [-8.057901, 41.642193], [-8.063143, 41.651243], [-8.060884, 41.660232], [-8.055721, 41.669196], [-8.046097, 41.678124], [-8.031444, 41.687008], [-8.025109, 41.695962], [-8.02623, 41.704978], [-8.034962, 41.715449], [-8.046859, 41.723848], [-8.058804, 41.72912], [-8.11872, 41.743922], [-8.130757, 41.743211], [-8.142837, 41.739162], [-8.154979, 41.730296], [-8.160758, 41.724054], [-8.163568, 41.715067], [-8.16235, 41.706051], [-8.155478, 41.692135], [-8.143609, 41.680997], [-8.105406, 41.65158], [-8.102753, 41.642552], [-8.125814, 41.606701], [-8.12476, 41.597686], [-8.114945, 41.588604], [-8.096923, 41.582741], [-8.072939, 41.58212], [-8.060907, 41.584557], [-8.050377, 41.589005], [-8.04897, 41.589897], [-8.048277, 41.590443], [-8.047974, 41.592373], [-8.040102, 41.597544]], [[-8.130944, 41.729287], [-8.114982, 41.72371], [-8.110309, 41.714667], [-8.119185, 41.709889], [-8.121593, 41.705747], [-8.131374, 41.697387], [-8.143426, 41.694771], [-8.155109, 41.705998], [-8.155164, 41.715006], [-8.143001, 41.726772], [-8.130944, 41.729287]], [[-8.070937, 41.72155], [-8.058897, 41.722757], [-8.046917, 41.719875], [-8.03854, 41.714089], [-8.031595, 41.705024], [-8.032743, 41.696026], [-8.044422, 41.687117], [-8.059531, 41.679303], [-8.071756, 41.664626], [-8.083865, 41.657778], [-8.095851, 41.659509], [-8.111513, 41.669641], [-8.115274, 41.678677], [-8.10801, 41.687628], [-8.097471, 41.696553], [-8.084723, 41.714466], [-8.070937, 41.72155]], [[-8.117275, 41.696707], [-8.119383, 41.695438], [-8.120341, 41.69673], [-8.119351, 41.697789], [-8.117275, 41.696707]], [[-8.08409, 41.641894], [-8.072115, 41.639635], [-8.063231, 41.633229], [-8.054371, 41.62415], [-8.050951, 41.615115], [-8.051956, 41.606116], [-8.059, 41.597166], [-8.072819, 41.590449], [-8.08484, 41.588876], [-8.096821, 41.590016], [-8.108749, 41.595089], [-8.11192, 41.597587], [-8.116811, 41.606632], [-8.11547, 41.615629], [-8.108315, 41.626649], [-8.096141, 41.638781], [-8.08409, 41.641894]]], [[[-7.8165, 41.717265], [-7.821622, 41.721076], [-7.830446, 41.724152], [-7.842434, 41.726054], [-7.854474, 41.725089], [-7.861332, 41.721476], [-7.86662, 41.718074], [-7.873462, 41.703582], [-7.873388, 41.694574], [-7.869635, 41.686189], [-7.867949, 41.683484], [-7.867795, 41.683259], [-7.859498, 41.686166], [-7.867093, 41.69114], [-7.868982, 41.694531], [-7.870894, 41.703557], [-7.866679, 41.714716], [-7.854523, 41.722336], [-7.842492, 41.722842], [-7.830543, 41.718799], [-7.821438, 41.711954], [-7.8165, 41.717265]]], [[[-8.540772, 41.586028], [-8.543774, 41.582098], [-8.544936, 41.573095], [-8.54068, 41.564071], [-8.528998, 41.555307], [-8.505093, 41.545065], [-8.494952, 41.536857], [-8.460653, 41.518687], [-8.452708, 41.509642], [-8.454921, 41.500645], [-8.465017, 41.482677], [-8.46511, 41.47367], [-8.457841, 41.460461], [-8.445944, 41.451342], [-8.434003, 41.447782], [-8.422033, 41.447618], [-8.410031, 41.450918], [-8.396178, 41.464322], [-8.393068, 41.473313], [-8.39246, 41.482317], [-8.401689, 41.518395], [-8.398169, 41.536391], [-8.398288, 41.545399], [-8.401367, 41.554423], [-8.409804, 41.563474], [-8.420943, 41.569998], [-8.432901, 41.574183], [-8.456863, 41.57754], [-8.480849, 41.578218], [-8.504739, 41.591506], [-8.516715, 41.59451], [-8.52872, 41.593553], [-8.540772, 41.586028]], [[-8.512177, 41.581968], [-8.505282, 41.572931], [-8.516927, 41.565958], [-8.52977, 41.573034], [-8.523322, 41.582015], [-8.516796, 41.583619], [-8.512177, 41.581968]], [[-8.468918, 41.570258], [-8.456912, 41.571725], [-8.444923, 41.571059], [-8.432955, 41.568019], [-8.423806, 41.563545], [-8.413952, 41.554487], [-8.410593, 41.545463], [-8.41094, 41.536457], [-8.420495, 41.518491], [-8.418538, 41.509474], [-8.409543, 41.504708], [-8.400217, 41.491365], [-8.398051, 41.482346], [-8.399556, 41.473347], [-8.405786, 41.464372], [-8.409942, 41.460733], [-8.421953, 41.456623], [-8.433924, 41.456928], [-8.445855, 41.461806], [-8.455386, 41.473625], [-8.456009, 41.482635], [-8.45227, 41.491625], [-8.436619, 41.509564], [-8.445408, 41.514322], [-8.449864, 41.518635], [-8.457338, 41.520761], [-8.484254, 41.53681], [-8.49064, 41.545845], [-8.490835, 41.554854], [-8.484553, 41.563833], [-8.468918, 41.570258]]], [[[-8.277339, 41.540688], [-8.287055, 41.526749], [-8.288532, 41.517751], [-8.285172, 41.499715], [-8.277941, 41.486583], [-8.266087, 41.475475], [-8.254169, 41.470401], [-8.242215, 41.468517], [-8.23023, 41.469284], [-8.218213, 41.472722], [-8.204434, 41.48117], [-8.197165, 41.490127], [-8.193864, 41.499111], [-8.193965, 41.517127], [-8.197144, 41.526156], [-8.203421, 41.535207], [-8.217332, 41.545951], [-8.229269, 41.550392], [-8.241242, 41.551848], [-8.253241, 41.551155], [-8.265269, 41.547863], [-8.277339, 41.540688]], [[-8.253357, 41.541104], [-8.241358, 41.541986], [-8.229391, 41.540074], [-8.219286, 41.535316], [-8.208534, 41.526235], [-8.203475, 41.517193], [-8.201795, 41.508174], [-8.203365, 41.499177], [-8.208544, 41.490206], [-8.218099, 41.482228], [-8.230135, 41.47733], [-8.242127, 41.476063], [-8.254083, 41.477876], [-8.265994, 41.483717], [-8.273188, 41.490633], [-8.278854, 41.499676], [-8.281363, 41.508699], [-8.280925, 41.517703], [-8.27682, 41.526685], [-8.265396, 41.536665], [-8.253357, 41.541104]]], [[[-8.642338, 41.35726], [-8.638043, 41.354006], [-8.626086, 41.354516], [-8.622759, 41.357197], [-8.623669, 41.366208], [-8.626009, 41.36793], [-8.637962, 41.368632], [-8.641495, 41.366265], [-8.642338, 41.35726]]]]}}, {"id": "7", "type": "Feature", "properties": {"fill": "#b6a27f", "value_min": -1.25, "value_max": -1.0}, "geometry": {"type": "MultiPolygon", "coordinates": [[[[-8.351052, 41.756724], [-8.339842, 41.734229], [-8.323486, 41.713906], [-8.31157, 41.704066], [-8.299627, 41.697076], [-8.287648, 41.693557], [-8.275577, 41.698341], [-8.252842, 41.715682], [-8.239226, 41.723493], [-8.227159, 41.727219], [-8.215138, 41.727054], [-8.203159, 41.723442], [-8.189201, 41.715251], [-8.181461, 41.706189], [-8.178119, 41.697158], [-8.177694, 41.688148], [-8.179645, 41.681686], [-8.186993, 41.6702], [-8.191864, 41.665364], [-8.203956, 41.658854], [-8.21601, 41.655291], [-8.228034, 41.654059], [-8.264029, 41.657123], [-8.276049, 41.656238], [-8.28815, 41.648015], [-8.310339, 41.625971], [-8.322765, 41.617037], [-8.336579, 41.609578], [-8.360663, 41.601324], [-8.408729, 41.594088], [-8.44473, 41.593586], [-8.456713, 41.595421], [-8.468681, 41.59918], [-8.486821, 41.608879], [-8.516443, 41.630837], [-8.539719, 41.644154], [-8.543876, 41.637352], [-8.543855, 41.633976], [-8.536342, 41.631977], [-8.535128, 41.62973], [-8.542257, 41.618625], [-8.528544, 41.617828], [-8.516561, 41.615097], [-8.480694, 41.597493], [-8.461214, 41.590748], [-8.396837, 41.582661], [-8.348959, 41.571882], [-8.33697, 41.571384], [-8.324944, 41.574326], [-8.228463, 41.61813], [-8.192192, 41.639082], [-8.180005, 41.653292], [-8.171324, 41.679095], [-8.172382, 41.697117], [-8.181016, 41.715193], [-8.20305, 41.73229], [-8.214993, 41.738961], [-8.22699, 41.741319], [-8.239046, 41.73874], [-8.263265, 41.724084], [-8.275343, 41.719164], [-8.287382, 41.717621], [-8.299384, 41.719409], [-8.311343, 41.725292], [-8.321011, 41.734119], [-8.326712, 41.74316], [-8.329613, 41.752184], [-8.329997, 41.76419], [-8.332141, 41.762835], [-8.336653, 41.763728], [-8.341756, 41.761468], [-8.344765, 41.762363], [-8.349267, 41.760103], [-8.351052, 41.756724]]], [[[-8.62076, 41.607532], [-8.571909, 41.546177], [-8.553253, 41.515888], [-8.541349, 41.504453], [-8.517515, 41.486879], [-8.505944, 41.473853], [-8.500412, 41.464822], [-8.494721, 41.446782], [-8.493539, 41.428762], [-8.496918, 41.410761], [-8.506254, 41.392234], [-8.514252, 41.383813], [-8.518308, 41.379772], [-8.530293, 41.376195], [-8.542239, 41.37795], [-8.601869, 41.405014], [-8.625755, 41.412199], [-8.649673, 41.414475], [-8.673626, 41.410104], [-8.687922, 41.40243], [-8.695471, 41.393443], [-8.698035, 41.384442], [-8.697499, 41.375433], [-8.689473, 41.357396], [-8.68195, 41.348368], [-8.662065, 41.332182], [-8.650151, 41.325284], [-8.626299, 41.317142], [-8.61436, 41.315751], [-8.590452, 41.317756], [-8.566508, 41.325104], [-8.53055, 41.340461], [-8.518586, 41.34204], [-8.494741, 41.334262], [-8.425011, 41.294559], [-8.422037, 41.296942], [-8.421756, 41.30077], [-8.416982, 41.301232], [-8.407744, 41.304856], [-8.406262, 41.307335], [-8.402979, 41.307568], [-8.401801, 41.311398], [-8.399712, 41.311628], [-8.400316, 41.313202], [-8.396738, 41.314336], [-8.398835, 41.316131], [-8.393775, 41.31997], [-8.393489, 41.323122], [-8.391105, 41.324253], [-8.386325, 41.323588], [-8.380382, 41.331254], [-8.375305, 41.33104], [-8.37201, 41.328346], [-8.361563, 41.329718], [-8.358276, 41.329049], [-8.357673, 41.327249], [-8.350207, 41.327264], [-8.346032, 41.328847], [-8.342462, 41.333131], [-8.333215, 41.336299], [-8.325766, 41.342164], [-8.324568, 41.341041], [-8.323376, 41.341943], [-8.316788, 41.335876], [-8.313802, 41.336331], [-8.310792, 41.327557], [-8.308701, 41.327561], [-8.307502, 41.325762], [-8.303347, 41.326218], [-8.299717, 41.400723], [-8.296813, 41.409712], [-8.290669, 41.417856], [-8.278621, 41.425222], [-8.254618, 41.431157], [-8.230649, 41.433892], [-8.206705, 41.434352], [-8.182795, 41.432069], [-8.162274, 41.426826], [-8.139994, 41.417655], [-8.124495, 41.40853], [-8.10647, 41.393423], [-8.103827, 41.392972], [-8.105321, 41.394998], [-8.10263, 41.396123], [-8.10801, 41.398825], [-8.108606, 41.403102], [-8.104419, 41.406252], [-8.104119, 41.408728], [-8.101727, 41.409403], [-8.102025, 41.411204], [-8.092756, 41.411201], [-8.09126, 41.414352], [-8.079893, 41.41975], [-8.077503, 41.416597], [-8.070923, 41.41862], [-8.066739, 41.416142], [-8.061953, 41.417264], [-8.059852, 41.424916], [-8.055959, 41.429415], [-8.057743, 41.438645], [-8.061033, 41.438872], [-8.064916, 41.444052], [-8.067908, 41.444279], [-8.069999, 41.447206], [-8.068788, 41.462286], [-8.073872, 41.46499], [-8.074164, 41.473543], [-8.066074, 41.483218], [-8.066069, 41.48817], [-8.067565, 41.488509], [-8.086213, 41.491408], [-8.110076, 41.498434], [-8.134004, 41.500932], [-8.147524, 41.507784], [-8.15343, 41.516835], [-8.155465, 41.525858], [-8.154864, 41.534861], [-8.151046, 41.54384], [-8.141397, 41.552775], [-8.13326, 41.556749], [-8.121227, 41.559806], [-8.109221, 41.56074], [-8.097236, 41.560212], [-8.07589, 41.55555], [-8.076188, 41.557276], [-8.080082, 41.558854], [-8.082177, 41.563131], [-8.081276, 41.565277], [-8.109117, 41.568335], [-8.133104, 41.568397], [-8.145119, 41.566761], [-8.15767, 41.561903], [-8.166596, 41.552961], [-8.170289, 41.534973], [-8.168338, 41.516944], [-8.161781, 41.489875], [-8.161599, 41.471859], [-8.168339, 41.4629], [-8.182504, 41.455252], [-8.194521, 41.451721], [-8.218512, 41.447817], [-8.254438, 41.446864], [-8.266387, 41.448921], [-8.27728, 41.454629], [-8.284346, 41.46368], [-8.301678, 41.507065], [-8.31346, 41.526106], [-8.325329, 41.537338], [-8.337269, 41.542115], [-8.349283, 41.539546], [-8.361349, 41.531736], [-8.373463, 41.51852], [-8.378714, 41.509266], [-8.381261, 41.500272], [-8.381506, 41.482259], [-8.374235, 41.438399], [-8.371281, 41.428158], [-8.365287, 41.419118], [-8.338685, 41.402861], [-8.329188, 41.391891], [-8.325108, 41.382859], [-8.32385, 41.373844], [-8.327172, 41.359262], [-8.339273, 41.34481], [-8.351286, 41.338805], [-8.363262, 41.336279], [-8.375211, 41.336507], [-8.387136, 41.339282], [-8.399036, 41.344927], [-8.412217, 41.356314], [-8.41838, 41.365353], [-8.430863, 41.392438], [-8.458213, 41.41571], [-8.474371, 41.437683], [-8.491448, 41.47379], [-8.496269, 41.491826], [-8.493498, 41.49452], [-8.481485, 41.498628], [-8.471239, 41.509728], [-8.478008, 41.518767], [-8.481312, 41.520331], [-8.4933, 41.519874], [-8.497355, 41.518853], [-8.505349, 41.511447], [-8.517335, 41.511132], [-8.529267, 41.518208], [-8.54118, 41.528443], [-8.553079, 41.541078], [-8.570072, 41.564184], [-8.577261, 41.582226], [-8.577969, 41.591236], [-8.575766, 41.600235], [-8.569132, 41.609217], [-8.55512, 41.616379], [-8.562639, 41.61635], [-8.568056, 41.619031], [-8.570735, 41.616095], [-8.577321, 41.614269], [-8.581231, 41.615829], [-8.585766, 41.620988], [-8.591462, 41.620515], [-8.596534, 41.616668], [-8.601628, 41.615972], [-8.603996, 41.611686], [-8.609369, 41.608287], [-8.614156, 41.606692], [-8.619881, 41.610269], [-8.62076, 41.607532]], [[-8.361501, 41.516299], [-8.349459, 41.522046], [-8.337461, 41.523214], [-8.32551, 41.519958], [-8.313615, 41.511403], [-8.305638, 41.49984], [-8.301795, 41.49081], [-8.299313, 41.47278], [-8.300796, 41.463781], [-8.30477, 41.454798], [-8.314308, 41.445725], [-8.326318, 41.441961], [-8.338283, 41.442529], [-8.350215, 41.446409], [-8.362113, 41.453877], [-8.369911, 41.464181], [-8.374155, 41.473211], [-8.376382, 41.491238], [-8.373625, 41.501778], [-8.368846, 41.509212], [-8.361501, 41.516299]], [[-8.110239, 41.486524], [-8.104881, 41.480438], [-8.110242, 41.471473], [-8.122431, 41.470698], [-8.130111, 41.480632], [-8.122206, 41.487341], [-8.110239, 41.486524]], [[-8.637807, 41.39664], [-8.625848, 41.395983], [-8.613903, 41.393069], [-8.601973, 41.387853], [-8.58626, 41.375087], [-8.581462, 41.366062], [-8.580624, 41.357051], [-8.583518, 41.348054], [-8.591779, 41.339076], [-8.602307, 41.333104], [-8.614278, 41.32963], [-8.626232, 41.328869], [-8.638173, 41.330574], [-8.6501, 41.334798], [-8.668472, 41.34833], [-8.674363, 41.357355], [-8.676796, 41.366369], [-8.675501, 41.375373], [-8.66964, 41.384364], [-8.661764, 41.390283], [-8.654355, 41.393327], [-8.637807, 41.39664]]], [[[-8.303562, 41.323742], [-8.303562, 41.323742], [-8.303386, 41.325768], [-8.303562, 41.323742]]], [[[-8.079131, 41.564931], [-8.079131, 41.564931], [-8.080377, 41.565132], [-8.079131, 41.564931]]], [[[-8.08053, 41.565156], [-8.08053, 41.565156], [-8.080677, 41.56518], [-8.08053, 41.565156]]], [[[-8.075636, 41.555475], [-8.075636, 41.555475], [-8.07559, 41.555462], [-8.075636, 41.555475]]], [[[-7.895177, 41.668913], [-7.89142, 41.674052], [-7.874638, 41.712601], [-7.866488, 41.725589], [-7.854376, 41.73063], [-7.805047, 41.738919], [-7.793508, 41.747805], [-7.791616, 41.756792], [-7.793825, 41.765822], [-7.798265, 41.774875], [-7.805326, 41.782087], [-7.817256, 41.787713], [-7.829264, 41.789198], [-7.877455, 41.786238], [-7.901509, 41.787066], [-7.937458, 41.796422], [-7.949482, 41.797173], [-8.009627, 41.799549], [-8.021679, 41.798537], [-8.033773, 41.794763], [-8.045946, 41.785476], [-8.054155, 41.76826], [-8.054279, 41.750247], [-8.051081, 41.741214], [-8.044615, 41.732153], [-8.022974, 41.713212], [-7.997678, 41.695726], [-7.975519, 41.673664], [-7.951735, 41.658728], [-7.939804, 41.653857], [-7.927832, 41.651628], [-7.915811, 41.652307], [-7.902319, 41.660009], [-7.902205, 41.660149], [-7.902018, 41.66038], [-7.90184, 41.660599], [-7.899907, 41.662977], [-7.899649, 41.663295], [-7.899606, 41.663348], [-7.900198, 41.665547], [-7.895177, 41.668913]], [[-7.913754, 41.774572], [-7.877515, 41.782769], [-7.85342, 41.784348], [-7.841399, 41.783647], [-7.829417, 41.780756], [-7.819255, 41.775093], [-7.812541, 41.766017], [-7.811428, 41.756998], [-7.816358, 41.748042], [-7.830156, 41.740128], [-7.866415, 41.729772], [-7.872943, 41.721591], [-7.878815, 41.708123], [-7.891122, 41.691363], [-7.903257, 41.684446], [-7.915314, 41.681932], [-7.927301, 41.683584], [-7.939235, 41.688557], [-7.963036, 41.702927], [-7.975013, 41.705545], [-7.999025, 41.707275], [-8.010996, 41.710461], [-8.022918, 41.716938], [-8.039202, 41.732108], [-8.042783, 41.741145], [-8.042386, 41.750149], [-8.034241, 41.763525], [-8.0221, 41.770875], [-8.010024, 41.773765], [-7.973946, 41.772619], [-7.949852, 41.774525], [-7.925804, 41.773556], [-7.913754, 41.774572]]], [[[-8.035677, 41.66758], [-8.040262, 41.660061], [-8.037056, 41.651027], [-8.024011, 41.644645], [-8.011991, 41.645409], [-8.001343, 41.650723], [-7.995782, 41.659681], [-8.001608, 41.668739], [-8.011578, 41.672457], [-8.023584, 41.672904], [-8.035677, 41.66758]]], [[[-8.165711, 41.634019], [-8.159719, 41.624968], [-8.144422, 41.619611], [-8.132398, 41.621115], [-8.119095, 41.633671], [-8.121243, 41.642695], [-8.132022, 41.649176], [-8.144025, 41.649633], [-8.162291, 41.643001], [-8.165711, 41.634019]], [[-8.144235, 41.63374], [-8.132138, 41.640546], [-8.128134, 41.63374], [-8.132283, 41.629715], [-8.144235, 41.63374]]]]}}, {"id": "0", "type": "Feature", "properties": {"fill": "#861d1d", "value_min": -3.0, "value_max": -2.75}, "geometry": {"type": "MultiPolygon", "coordinates": [[[[-7.859796, 41.703447], [-7.854945, 41.698596], [-7.842882, 41.701084], [-7.840665, 41.703256], [-7.843788, 41.712294], [-7.854667, 41.714252], [-7.857425, 41.712431], [-7.859796, 41.703447]]], [[[-8.096382, 41.621537], [-8.100252, 41.615511], [-8.096561, 41.608699], [-8.084596, 41.606078], [-8.07598, 41.615318], [-8.084332, 41.624794], [-8.096382, 41.621537]]], [[[-8.469087, 41.549662], [-8.471301, 41.545758], [-8.469157, 41.541128], [-8.465777, 41.536725], [-8.457239, 41.532608], [-8.445258, 41.531846], [-8.43677, 41.536587], [-8.433994, 41.545581], [-8.440979, 41.554622], [-8.445045, 41.556721], [-8.457029, 41.557682], [-8.463786, 41.554731], [-8.469087, 41.549662]]], [[[-8.262221, 41.508577], [-8.258763, 41.499548], [-8.253878, 41.495776], [-8.241924, 41.493506], [-8.229896, 41.497568], [-8.224191, 41.508327], [-8.229647, 41.518494], [-8.241581, 41.522901], [-8.253589, 41.520909], [-8.258269, 41.517559], [-8.262221, 41.508577]]], [[[-8.421743, 41.48026], [-8.420212, 41.48246], [-8.421708, 41.484185], [-8.429711, 41.482508], [-8.421743, 41.48026]]]]}}, {"id": "5", "type": "Feature", "properties": {"fill": "#e57b10", "value_min": -1.75, "value_max": -1.5}, "geometry": {"type": "MultiPolygon", "coordinates": [[[[-8.008025, 41.838796], [-8.001573, 41.830863], [-7.98522, 41.820691], [-7.973246, 41.816528], [-7.961236, 41.814632], [-7.937166, 41.814108], [-7.925159, 41.812126], [-7.901364, 41.795541], [-7.889407, 41.790999], [-7.877396, 41.789591], [-7.853289, 41.791695], [-7.844489, 41.793363], [-7.818802, 41.802108], [-7.792708, 41.813254], [-7.780716, 41.810765], [-7.77061, 41.774582], [-7.757641, 41.758876], [-7.746896, 41.752385], [-7.747786, 41.754496], [-7.743866, 41.756509], [-7.740214, 41.763924], [-7.726937, 41.771755], [-7.7254, 41.777152], [-7.727191, 41.779184], [-7.724177, 41.780299], [-7.725372, 41.781653], [-7.722296, 41.792446], [-7.728879, 41.797871], [-7.727026, 41.805517], [-7.728761, 41.816776], [-7.732041, 41.821514], [-7.743152, 41.825154], [-7.742839, 41.827178], [-7.738918, 41.82874], [-7.742196, 41.833928], [-7.74729, 41.837772], [-7.746349, 41.84407], [-7.750246, 41.846784], [-7.750532, 41.849261], [-7.743309, 41.849012], [-7.746901, 41.8524], [-7.746881, 41.855776], [-7.73843, 41.859348], [-7.734159, 41.868337], [-7.730228, 41.871024], [-7.729293, 41.875972], [-7.722351, 41.878424], [-7.720531, 41.880561], [-7.722201, 41.882249], [-7.725035, 41.882709], [-7.725025, 41.884293], [-7.731393, 41.888808], [-7.737044, 41.888828], [-7.739741, 41.891088], [-7.74246, 41.889747], [-7.742785, 41.885922], [-7.756022, 41.888441], [-7.758719, 41.890926], [-7.756592, 41.89407], [-7.758079, 41.897307], [-7.764401, 41.898121], [-7.779227, 41.886264], [-7.785257, 41.885157], [-7.788886, 41.882467], [-7.794007, 41.882257], [-7.796739, 41.878214], [-7.794349, 41.87438], [-7.797064, 41.873488], [-7.803381, 41.874857], [-7.804914, 41.869459], [-7.813032, 41.871958], [-7.814229, 41.873537], [-7.823863, 41.874013], [-7.825059, 41.875817], [-7.830479, 41.875831], [-7.830789, 41.874031], [-7.832894, 41.874712], [-7.83772, 41.872924], [-7.842528, 41.875187], [-7.841663, 41.866632], [-7.849515, 41.861475], [-7.858542, 41.862622], [-7.859456, 41.860148], [-7.864877, 41.859711], [-7.868507, 41.855487], [-7.852207, 41.852293], [-7.840284, 41.845481], [-7.832919, 41.83828], [-7.828284, 41.829226], [-7.827171, 41.820208], [-7.83029, 41.811233], [-7.838766, 41.802312], [-7.853215, 41.795848], [-7.8653, 41.79308], [-7.877338, 41.792946], [-7.889321, 41.795953], [-7.900124, 41.802916], [-7.907401, 41.811992], [-7.912866, 41.827156], [-7.924879, 41.828884], [-7.936982, 41.82519], [-7.949051, 41.823512], [-7.961067, 41.825116], [-7.972382, 41.830605], [-7.979189, 41.839673], [-7.979498, 41.848682], [-7.972558, 41.859513], [-7.960402, 41.866218], [-7.948317, 41.868355], [-7.93424, 41.866285], [-7.924319, 41.862316], [-7.912411, 41.854032], [-7.900396, 41.85216], [-7.884766, 41.855056], [-7.898893, 41.86136], [-7.902203, 41.861591], [-7.904318, 41.859795], [-7.907309, 41.865203], [-7.906095, 41.868126], [-7.910299, 41.871285], [-7.909985, 41.875111], [-7.915391, 41.879397], [-7.921118, 41.877833], [-7.928044, 41.87807], [-7.935283, 41.874707], [-7.937389, 41.87516], [-7.941618, 41.870891], [-7.951254, 41.871132], [-7.956367, 41.87339], [-7.956362, 41.875191], [-7.960878, 41.875648], [-7.96299, 41.874075], [-7.972322, 41.875439], [-7.987996, 41.869157], [-7.990123, 41.860157], [-7.995547, 41.858138], [-7.994047, 41.855211], [-7.996765, 41.851162], [-8.00339, 41.85027], [-8.007618, 41.843072], [-8.008025, 41.838796]]], [[[-8.004645, 41.609665], [-8.006271, 41.614737], [-8.014993, 41.623819], [-8.036138, 41.636632], [-8.049228, 41.651129], [-8.049962, 41.660142], [-8.044985, 41.669108], [-8.035545, 41.676415], [-8.016678, 41.686883], [-8.014805, 41.695874], [-8.019539, 41.704921], [-8.028399, 41.714004], [-8.064437, 41.741324], [-8.094299, 41.770133], [-8.106229, 41.777434], [-8.118193, 41.782437], [-8.130194, 41.784849], [-8.154274, 41.783999], [-8.166351, 41.780679], [-8.178458, 41.774902], [-8.192377, 41.760308], [-8.194686, 41.751317], [-8.192859, 41.742297], [-8.176683, 41.724169], [-8.155767, 41.670074], [-8.143865, 41.661711], [-8.131904, 41.657941], [-8.119979, 41.651645], [-8.112601, 41.642628], [-8.113554, 41.633629], [-8.120368, 41.623101], [-8.13252, 41.61205], [-8.141197, 41.606817], [-8.145225, 41.59784], [-8.141607, 41.588806], [-8.120962, 41.579353], [-8.09703, 41.575014], [-8.068081, 41.573167], [-8.056684, 41.579549], [-8.052181, 41.584498], [-8.052777, 41.587649], [-8.050377, 41.589005], [-8.060907, 41.584557], [-8.072939, 41.58212], [-8.096923, 41.582741], [-8.114945, 41.588604], [-8.12476, 41.597686], [-8.125814, 41.606701], [-8.102753, 41.642552], [-8.105406, 41.65158], [-8.143609, 41.680997], [-8.155478, 41.692135], [-8.16235, 41.706051], [-8.163568, 41.715067], [-8.160758, 41.724054], [-8.154979, 41.730296], [-8.142837, 41.739162], [-8.130757, 41.743211], [-8.11872, 41.743922], [-8.058804, 41.72912], [-8.046859, 41.723848], [-8.034962, 41.715449], [-8.02623, 41.704978], [-8.025109, 41.695962], [-8.031444, 41.687008], [-8.046097, 41.678124], [-8.055721, 41.669196], [-8.060884, 41.660232], [-8.063143, 41.651243], [-8.057901, 41.642193], [-8.040962, 41.624039], [-8.036973, 41.614998], [-8.036611, 41.605988], [-8.040102, 41.597544], [-8.031467, 41.602938], [-8.02367, 41.603156], [-8.019174, 41.601802], [-8.015872, 41.603824], [-8.013474, 41.603372], [-8.005971, 41.60629], [-8.004645, 41.609665]]], [[[-8.048277, 41.590443], [-8.048277, 41.590443], [-8.04897, 41.589897], [-8.048277, 41.590443]]], [[[-8.308074, 41.760624], [-8.311167, 41.752075], [-8.308735, 41.743053], [-8.299225, 41.734111], [-8.287234, 41.731006], [-8.275192, 41.732649], [-8.260775, 41.742754], [-8.256942, 41.751737], [-8.258585, 41.760754], [-8.268366, 41.769432], [-8.271366, 41.766346], [-8.280681, 41.764083], [-8.284038, 41.761109], [-8.284931, 41.757507], [-8.287033, 41.756829], [-8.298457, 41.757263], [-8.300866, 41.758835], [-8.305674, 41.758152], [-8.308074, 41.760624]]], [[[-7.791772, 41.717047], [-7.797138, 41.720822], [-7.818363, 41.727397], [-7.842376, 41.729266], [-7.854425, 41.727841], [-7.866561, 41.721431], [-7.872471, 41.712579], [-7.877794, 41.694618], [-7.876283, 41.681703], [-7.873401, 41.686198], [-7.869635, 41.686189], [-7.873388, 41.694574], [-7.873462, 41.703582], [-7.86662, 41.718074], [-7.861332, 41.721476], [-7.854474, 41.725089], [-7.842434, 41.726054], [-7.830446, 41.724152], [-7.821622, 41.721076], [-7.8165, 41.717265], [-7.815291, 41.718689], [-7.808986, 41.717996], [-7.808396, 41.715744], [-7.804499, 41.714158], [-7.791772, 41.717047]]], [[[-7.867795, 41.683259], [-7.867795, 41.683259], [-7.867949, 41.683484], [-7.867795, 41.683259]]], [[[-8.117275, 41.696707], [-8.119351, 41.697789], [-8.120341, 41.69673], [-8.119383, 41.695438], [-8.117275, 41.696707]]], [[[-8.552709, 41.594773], [-8.559399, 41.582159], [-8.558995, 41.57315], [-8.552945, 41.560636], [-8.541041, 41.548047], [-8.517169, 41.533556], [-8.481271, 41.525449], [-8.467838, 41.51872], [-8.462215, 41.509687], [-8.464811, 41.500691], [-8.47699, 41.482732], [-8.47695, 41.473725], [-8.468591, 41.455672], [-8.457976, 41.444237], [-8.446063, 41.437443], [-8.434125, 41.433719], [-8.42216, 41.433289], [-8.410164, 41.436221], [-8.398129, 41.443371], [-8.395693, 41.446304], [-8.390188, 41.455283], [-8.387612, 41.464276], [-8.38872, 41.509319], [-8.379803, 41.545301], [-8.382306, 41.554322], [-8.389422, 41.563367], [-8.40891, 41.574244], [-8.432846, 41.580511], [-8.468795, 41.585322], [-8.480762, 41.589024], [-8.504668, 41.60079], [-8.516643, 41.604146], [-8.528638, 41.604833], [-8.540656, 41.602424], [-8.552709, 41.594773]], [[-8.540772, 41.586028], [-8.52872, 41.593553], [-8.516715, 41.59451], [-8.504739, 41.591506], [-8.480849, 41.578218], [-8.456863, 41.57754], [-8.432901, 41.574183], [-8.420943, 41.569998], [-8.409804, 41.563474], [-8.401367, 41.554423], [-8.398288, 41.545399], [-8.398169, 41.536391], [-8.401689, 41.518395], [-8.39246, 41.482317], [-8.393068, 41.473313], [-8.396178, 41.464322], [-8.410031, 41.450918], [-8.422033, 41.447618], [-8.434003, 41.447782], [-8.445944, 41.451342], [-8.457841, 41.460461], [-8.46511, 41.47367], [-8.465017, 41.482677], [-8.454921, 41.500645], [-8.452708, 41.509642], [-8.460653, 41.518687], [-8.494952, 41.536857], [-8.505093, 41.545065], [-8.528998, 41.555307], [-8.54068, 41.564071], [-8.544936, 41.573095], [-8.543774, 41.582098], [-8.540772, 41.586028]]], [[[-8.277119, 41.560456], [-8.287182, 41.553771], [-8.295206, 41.544814], [-8.298474, 41.535826], [-8.298859, 41.526821], [-8.291635, 41.499755], [-8.278074, 41.474609], [-8.266207, 41.464867], [-8.254284, 41.46038], [-8.242328, 41.458802], [-8.218351, 41.461266], [-8.206327, 41.46534], [-8.195415, 41.4721], [-8.187307, 41.48105], [-8.181593, 41.499025], [-8.184231, 41.526065], [-8.193338, 41.547112], [-8.205175, 41.559635], [-8.217095, 41.56559], [-8.229055, 41.568364], [-8.253047, 41.568064], [-8.265072, 41.565271], [-8.277119, 41.560456]], [[-8.277339, 41.540688], [-8.265269, 41.547863], [-8.253241, 41.551155], [-8.241242, 41.551848], [-8.229269, 41.550392], [-8.217332, 41.545951], [-8.203421, 41.535207], [-8.197144, 41.526156], [-8.193965, 41.517127], [-8.193864, 41.499111], [-8.197165, 41.490127], [-8.204434, 41.48117], [-8.218213, 41.472722], [-8.23023, 41.469284], [-8.242215, 41.468517], [-8.254169, 41.470401], [-8.266087, 41.475475], [-8.277941, 41.486583], [-8.285172, 41.499715], [-8.288532, 41.517751], [-8.287055, 41.526749], [-8.277339, 41.540688]]], [[[-8.661484, 41.366325], [-8.66073, 41.357315], [-8.654159, 41.348288], [-8.638119, 41.340343], [-8.626171, 41.339643], [-8.614198, 41.343215], [-8.606975, 41.348137], [-8.601746, 41.357126], [-8.602314, 41.366136], [-8.608726, 41.375166], [-8.613987, 41.378821], [-8.625921, 41.383192], [-8.637879, 41.383591], [-8.649859, 41.379931], [-8.65617, 41.375317], [-8.661484, 41.366325]], [[-8.642338, 41.35726], [-8.641495, 41.366265], [-8.637962, 41.368632], [-8.626009, 41.36793], [-8.623669, 41.366208], [-8.622759, 41.357197], [-8.626086, 41.354516], [-8.638043, 41.354006], [-8.642338, 41.35726]]]]}}, {"id": "6", "type": "Feature", "properties": {"fill": "#e19f31", "value_min": -1.5, "value_max": -1.25}, "geometry": {"type": "MultiPolygon", "coordinates": [[[[-8.329997, 41.76419], [-8.329613, 41.752184], [-8.326712, 41.74316], [-8.321011, 41.734119], [-8.311343, 41.725292], [-8.299384, 41.719409], [-8.287382, 41.717621], [-8.275343, 41.719164], [-8.263265, 41.724084], [-8.239046, 41.73874], [-8.22699, 41.741319], [-8.214993, 41.738961], [-8.20305, 41.73229], [-8.181016, 41.715193], [-8.172382, 41.697117], [-8.171324, 41.679095], [-8.180005, 41.653292], [-8.192192, 41.639082], [-8.228463, 41.61813], [-8.324944, 41.574326], [-8.33697, 41.571384], [-8.348959, 41.571882], [-8.396837, 41.582661], [-8.461214, 41.590748], [-8.480694, 41.597493], [-8.516561, 41.615097], [-8.528544, 41.617828], [-8.542257, 41.618625], [-8.543431, 41.61462], [-8.554533, 41.615255], [-8.55512, 41.616379], [-8.569132, 41.609217], [-8.575766, 41.600235], [-8.577969, 41.591236], [-8.577261, 41.582226], [-8.570072, 41.564184], [-8.553079, 41.541078], [-8.54118, 41.528443], [-8.529267, 41.518208], [-8.517335, 41.511132], [-8.505349, 41.511447], [-8.497355, 41.518853], [-8.4933, 41.519874], [-8.481312, 41.520331], [-8.478008, 41.518767], [-8.471239, 41.509728], [-8.481485, 41.498628], [-8.493498, 41.49452], [-8.496269, 41.491826], [-8.491448, 41.47379], [-8.474371, 41.437683], [-8.458213, 41.41571], [-8.430863, 41.392438], [-8.41838, 41.365353], [-8.412217, 41.356314], [-8.399036, 41.344927], [-8.387136, 41.339282], [-8.375211, 41.336507], [-8.363262, 41.336279], [-8.351286, 41.338805], [-8.339273, 41.34481], [-8.327172, 41.359262], [-8.32385, 41.373844], [-8.325108, 41.382859], [-8.329188, 41.391891], [-8.338685, 41.402861], [-8.365287, 41.419118], [-8.371281, 41.428158], [-8.374235, 41.438399], [-8.381506, 41.482259], [-8.381261, 41.500272], [-8.378714, 41.509266], [-8.373463, 41.51852], [-8.361349, 41.531736], [-8.349283, 41.539546], [-8.337269, 41.542115], [-8.325329, 41.537338], [-8.31346, 41.526106], [-8.301678, 41.507065], [-8.284346, 41.46368], [-8.27728, 41.454629], [-8.266387, 41.448921], [-8.254438, 41.446864], [-8.218512, 41.447817], [-8.194521, 41.451721], [-8.182504, 41.455252], [-8.168339, 41.4629], [-8.161599, 41.471859], [-8.161781, 41.489875], [-8.168338, 41.516944], [-8.170289, 41.534973], [-8.166596, 41.552961], [-8.15767, 41.561903], [-8.145119, 41.566761], [-8.133104, 41.568397], [-8.109117, 41.568335], [-8.081276, 41.565277], [-8.080677, 41.56518], [-8.08053, 41.565156], [-8.080377, 41.565132], [-8.079131, 41.564931], [-8.075279, 41.568305], [-8.069883, 41.570103], [-8.068081, 41.573167], [-8.09703, 41.575014], [-8.120962, 41.579353], [-8.141607, 41.588806], [-8.145225, 41.59784], [-8.141197, 41.606817], [-8.13252, 41.61205], [-8.120368, 41.623101], [-8.113554, 41.633629], [-8.112601, 41.642628], [-8.119979, 41.651645], [-8.131904, 41.657941], [-8.143865, 41.661711], [-8.155767, 41.670074], [-8.176683, 41.724169], [-8.192859, 41.742297], [-8.194686, 41.751317], [-8.192377, 41.760308], [-8.178458, 41.774902], [-8.166351, 41.780679], [-8.154274, 41.783999], [-8.130194, 41.784849], [-8.118193, 41.782437], [-8.106229, 41.777434], [-8.094299, 41.770133], [-8.064437, 41.741324], [-8.028399, 41.714004], [-8.019539, 41.704921], [-8.014805, 41.695874], [-8.016678, 41.686883], [-8.035545, 41.676415], [-8.044985, 41.669108], [-8.049962, 41.660142], [-8.049228, 41.651129], [-8.036138, 41.636632], [-8.014993, 41.623819], [-8.006271, 41.614737], [-8.004645, 41.609665], [-8.003262, 41.611464], [-7.998461, 41.612584], [-7.999669, 41.608759], [-7.996976, 41.605829], [-7.996684, 41.602003], [-7.984685, 41.603564], [-7.982292, 41.60086], [-7.975689, 41.603552], [-7.974482, 41.606701], [-7.970882, 41.607147], [-7.969091, 41.603768], [-7.965796, 41.602413], [-7.9541, 41.602846], [-7.952606, 41.600592], [-7.947808, 41.60081], [-7.945413, 41.599456], [-7.942725, 41.595625], [-7.936132, 41.594488], [-7.93791, 41.601694], [-7.937004, 41.603718], [-7.931604, 41.604384], [-7.930979, 41.612711], [-7.925556, 41.620354], [-7.920755, 41.620796], [-7.917748, 41.623041], [-7.915933, 41.627764], [-7.913229, 41.628885], [-7.912613, 41.63361], [-7.906014, 41.633147], [-7.906884, 41.641927], [-7.897869, 41.645511], [-7.89696, 41.647985], [-7.892759, 41.647976], [-7.892145, 41.651576], [-7.902319, 41.660009], [-7.915811, 41.652307], [-7.927832, 41.651628], [-7.939804, 41.653857], [-7.951735, 41.658728], [-7.975519, 41.673664], [-7.997678, 41.695726], [-8.022974, 41.713212], [-8.044615, 41.732153], [-8.051081, 41.741214], [-8.054279, 41.750247], [-8.054155, 41.76826], [-8.045946, 41.785476], [-8.033773, 41.794763], [-8.021679, 41.798537], [-8.009627, 41.799549], [-7.949482, 41.797173], [-7.937458, 41.796422], [-7.901509, 41.787066], [-7.877455, 41.786238], [-7.829264, 41.789198], [-7.817256, 41.787713], [-7.805326, 41.782087], [-7.798265, 41.774875], [-7.793825, 41.765822], [-7.791616, 41.756792], [-7.793508, 41.747805], [-7.805047, 41.738919], [-7.854376, 41.73063], [-7.866488, 41.725589], [-7.874638, 41.712601], [-7.89142, 41.674052], [-7.895177, 41.668913], [-7.882465, 41.671588], [-7.877044, 41.676077], [-7.876283, 41.681703], [-7.877794, 41.694618], [-7.872471, 41.712579], [-7.866561, 41.721431], [-7.854425, 41.727841], [-7.842376, 41.729266], [-7.818363, 41.727397], [-7.797138, 41.720822], [-7.791772, 41.717047], [-7.789449, 41.719966], [-7.78464, 41.720402], [-7.78252, 41.723546], [-7.776204, 41.724652], [-7.773786, 41.727346], [-7.7678, 41.723276], [-7.763888, 41.724389], [-7.761765, 41.727758], [-7.762933, 41.733839], [-7.759307, 41.737203], [-7.759597, 41.739005], [-7.75689, 41.739446], [-7.758687, 41.740577], [-7.757758, 41.745301], [-7.749323, 41.748649], [-7.746896, 41.752385], [-7.757641, 41.758876], [-7.77061, 41.774582], [-7.780716, 41.810765], [-7.792708, 41.813254], [-7.818802, 41.802108], [-7.844489, 41.793363], [-7.853289, 41.791695], [-7.877396, 41.789591], [-7.889407, 41.790999], [-7.901364, 41.795541], [-7.925159, 41.812126], [-7.937166, 41.814108], [-7.961236, 41.814632], [-7.973246, 41.816528], [-7.98522, 41.820691], [-8.001573, 41.830863], [-8.008025, 41.838796], [-8.010941, 41.836773], [-8.013965, 41.828899], [-8.017873, 41.831379], [-8.02901, 41.829589], [-8.037134, 41.831171], [-8.041351, 41.828023], [-8.041054, 41.825097], [-8.045268, 41.824425], [-8.046775, 41.821951], [-8.056712, 41.81588], [-8.06664, 41.817012], [-8.072961, 41.813414], [-8.078678, 41.813417], [-8.082892, 41.810493], [-8.091013, 41.812521], [-8.093421, 41.811397], [-8.093723, 41.808471], [-8.101845, 41.809824], [-8.104853, 41.81185], [-8.115984, 41.812302], [-8.123807, 41.808702], [-8.138247, 41.808477], [-8.139751, 41.813203], [-8.14276, 41.812978], [-8.144866, 41.815228], [-8.149078, 41.814777], [-8.153291, 41.817703], [-8.158106, 41.818377], [-8.165326, 41.81815], [-8.173744, 41.808019], [-8.177655, 41.808242], [-8.183676, 41.812741], [-8.190291, 41.809587], [-8.197158, 41.814129], [-8.201063, 41.808724], [-8.204973, 41.807372], [-8.205872, 41.804445], [-8.213692, 41.803765], [-8.217598, 41.80016], [-8.217589, 41.793634], [-8.224207, 41.794303], [-8.229917, 41.791598], [-8.240744, 41.791588], [-8.24074, 41.789338], [-8.244347, 41.787984], [-8.245546, 41.785731], [-8.251257, 41.784375], [-8.251845, 41.777172], [-8.257551, 41.773564], [-8.261762, 41.774235], [-8.268366, 41.769432], [-8.258585, 41.760754], [-8.256942, 41.751737], [-8.260775, 41.742754], [-8.275192, 41.732649], [-8.287234, 41.731006], [-8.299225, 41.734111], [-8.308735, 41.743053], [-8.311167, 41.752075], [-8.308074, 41.760624], [-8.311096, 41.762195], [-8.318308, 41.761283], [-8.325233, 41.765098], [-8.328234, 41.763292], [-8.329997, 41.76419]], [[-8.035677, 41.66758], [-8.023584, 41.672904], [-8.011578, 41.672457], [-8.001608, 41.668739], [-7.995782, 41.659681], [-8.001343, 41.650723], [-8.011991, 41.645409], [-8.024011, 41.644645], [-8.037056, 41.651027], [-8.040262, 41.660061], [-8.035677, 41.66758]], [[-8.165711, 41.634019], [-8.162291, 41.643001], [-8.144025, 41.649633], [-8.132022, 41.649176], [-8.121243, 41.642695], [-8.119095, 41.633671], [-8.132398, 41.621115], [-8.144422, 41.619611], [-8.159719, 41.624968], [-8.165711, 41.634019]], [[-8.552709, 41.594773], [-8.540656, 41.602424], [-8.528638, 41.604833], [-8.516643, 41.604146], [-8.504668, 41.60079], [-8.480762, 41.589024], [-8.468795, 41.585322], [-8.432846, 41.580511], [-8.40891, 41.574244], [-8.389422, 41.563367], [-8.382306, 41.554322], [-8.379803, 41.545301], [-8.38872, 41.509319], [-8.387612, 41.464276], [-8.390188, 41.455283], [-8.395693, 41.446304], [-8.398129, 41.443371], [-8.410164, 41.436221], [-8.42216, 41.433289], [-8.434125, 41.433719], [-8.446063, 41.437443], [-8.457976, 41.444237], [-8.468591, 41.455672], [-8.47695, 41.473725], [-8.47699, 41.482732], [-8.464811, 41.500691], [-8.462215, 41.509687], [-8.467838, 41.51872], [-8.481271, 41.525449], [-8.517169, 41.533556], [-8.541041, 41.548047], [-8.552945, 41.560636], [-8.558995, 41.57315], [-8.559399, 41.582159], [-8.552709, 41.594773]], [[-8.277119, 41.560456], [-8.265072, 41.565271], [-8.253047, 41.568064], [-8.229055, 41.568364], [-8.217095, 41.56559], [-8.205175, 41.559635], [-8.193338, 41.547112], [-8.184231, 41.526065], [-8.181593, 41.499025], [-8.187307, 41.48105], [-8.195415, 41.4721], [-8.206327, 41.46534], [-8.218351, 41.461266], [-8.242328, 41.458802], [-8.254284, 41.46038], [-8.266207, 41.464867], [-8.278074, 41.474609], [-8.291635, 41.499755], [-8.298859, 41.526821], [-8.298474, 41.535826], [-8.295206, 41.544814], [-8.287182, 41.553771], [-8.277119, 41.560456]]], [[[-7.764401, 41.898121], [-7.764401, 41.898121], [-7.758079, 41.897307], [-7.764401, 41.898121]]], [[[-7.731393, 41.888808], [-7.725025, 41.884293], [-7.726208, 41.887665], [-7.731393, 41.888808]]], [[[-7.722201, 41.882249], [-7.722201, 41.882249], [-7.720531, 41.880561], [-7.722201, 41.882249]]], [[[-7.899606, 41.663348], [-7.899606, 41.663348], [-7.899649, 41.663295], [-7.899606, 41.663348]]], [[[-7.899907, 41.662977], [-7.899907, 41.662977], [-7.90184, 41.660599], [-7.899907, 41.662977]]], [[[-7.902018, 41.66038], [-7.902018, 41.66038], [-7.902205, 41.660149], [-7.902018, 41.66038]]], [[[-8.110239, 41.486524], [-8.122206, 41.487341], [-8.130111, 41.480632], [-8.122431, 41.470698], [-8.110242, 41.471473], [-8.104881, 41.480438], [-8.110239, 41.486524]]], [[[-8.637807, 41.39664], [-8.654355, 41.393327], [-8.661764, 41.390283], [-8.66964, 41.384364], [-8.675501, 41.375373], [-8.676796, 41.366369], [-8.674363, 41.357355], [-8.668472, 41.34833], [-8.6501, 41.334798], [-8.638173, 41.330574], [-8.626232, 41.328869], [-8.614278, 41.32963], [-8.602307, 41.333104], [-8.591779, 41.339076], [-8.583518, 41.348054], [-8.580624, 41.357051], [-8.581462, 41.366062], [-8.58626, 41.375087], [-8.601973, 41.387853], [-8.613903, 41.393069], [-8.625848, 41.395983], [-8.637807, 41.39664]], [[-8.661484, 41.366325], [-8.65617, 41.375317], [-8.649859, 41.379931], [-8.637879, 41.383591], [-8.625921, 41.383192], [-8.613987, 41.378821], [-8.608726, 41.375166], [-8.602314, 41.366136], [-8.601746, 41.357126], [-8.606975, 41.348137], [-8.614198, 41.343215], [-8.626171, 41.339643], [-8.638119, 41.340343], [-8.654159, 41.348288], [-8.66073, 41.357315], [-8.661484, 41.366325]]]]}}, {"id": "1", "type": "Feature", "properties": {"fill": "#951d1d", "value_min": -2.75, "value_max": -2.5}, "geometry": {"type": "MultiPolygon", "coordinates": [[[[-7.883796, 41.811765], [-7.877134, 41.804599], [-7.865092, 41.80485], [-7.85823, 41.811514], [-7.864792, 41.821852], [-7.876829, 41.822053], [-7.883796, 41.811765]]], [[[-7.835923, 41.709741], [-7.836607, 41.712222], [-7.84262, 41.715707], [-7.854619, 41.71694], [-7.861385, 41.71247], [-7.864731, 41.703496], [-7.85503, 41.693788], [-7.848444, 41.694139], [-7.83845, 41.698944], [-7.837608, 41.699768], [-7.836158, 41.701189], [-7.836099, 41.701246], [-7.839679, 41.706599], [-7.838465, 41.709522], [-7.835923, 41.709741]], [[-7.859796, 41.703447], [-7.857425, 41.712431], [-7.854667, 41.714252], [-7.843788, 41.712294], [-7.840665, 41.703256], [-7.842882, 41.701084], [-7.854945, 41.698596], [-7.859796, 41.703447]]], [[[-8.059272, 41.697053], [-8.047247, 41.697569], [-8.042347, 41.705114], [-8.047049, 41.710954], [-8.059051, 41.71222], [-8.065797, 41.705307], [-8.059272, 41.697053]]], [[[-8.105299, 41.61555], [-8.102222, 41.606519], [-8.096651, 41.602228], [-8.084672, 41.600705], [-8.072301, 41.606282], [-8.06819, 41.615256], [-8.073122, 41.624303], [-8.084267, 41.629372], [-8.096301, 41.627319], [-8.105299, 41.61555]], [[-8.096382, 41.621537], [-8.084332, 41.624794], [-8.07598, 41.615318], [-8.084596, 41.606078], [-8.096561, 41.608699], [-8.100252, 41.615511], [-8.096382, 41.621537]]], [[[-8.476502, 41.545782], [-8.472348, 41.536756], [-8.46921, 41.534618], [-8.457273, 41.528529], [-8.445299, 41.527036], [-8.433269, 41.532108], [-8.428779, 41.536547], [-8.426912, 41.545545], [-8.433066, 41.555347], [-8.445006, 41.561285], [-8.456993, 41.561949], [-8.469023, 41.557486], [-8.472423, 41.554771], [-8.476502, 41.545782]], [[-8.469087, 41.549662], [-8.463786, 41.554731], [-8.457029, 41.557682], [-8.445045, 41.556721], [-8.440979, 41.554622], [-8.433994, 41.545581], [-8.43677, 41.536587], [-8.445258, 41.531846], [-8.457239, 41.532608], [-8.465777, 41.536725], [-8.469157, 41.541128], [-8.471301, 41.545758], [-8.469087, 41.549662]]], [[[-8.265596, 41.518944], [-8.269208, 41.508622], [-8.266461, 41.499597], [-8.253946, 41.48984], [-8.24199, 41.487834], [-8.230834, 41.490357], [-8.21968, 41.499289], [-8.216983, 41.508278], [-8.220013, 41.517306], [-8.229565, 41.525453], [-8.241513, 41.528712], [-8.253517, 41.527189], [-8.265596, 41.518944]], [[-8.262221, 41.508577], [-8.258269, 41.517559], [-8.253589, 41.520909], [-8.241581, 41.522901], [-8.229647, 41.518494], [-8.224191, 41.508327], [-8.229896, 41.497568], [-8.241924, 41.493506], [-8.253878, 41.495776], [-8.258763, 41.499548], [-8.262221, 41.508577]]], [[[-8.441103, 41.482564], [-8.437128, 41.473537], [-8.433799, 41.471197], [-8.421833, 41.470133], [-8.415915, 41.473431], [-8.410607, 41.482411], [-8.417712, 41.491455], [-8.421624, 41.493623], [-8.433615, 41.492345], [-8.441103, 41.482564]], [[-8.421743, 41.48026], [-8.429711, 41.482508], [-8.421708, 41.484185], [-8.420212, 41.48246], [-8.421743, 41.48026]]]]}}, {"id": "2", "type": "Feature", "properties": {"fill": "#a21c1c", "value_min": -2.5, "value_max": -2.25}, "geometry": {"type": "MultiPolygon", "coordinates": [[[[-7.891147, 41.811836], [-7.883701, 41.802758], [-7.877215, 41.800001], [-7.865177, 41.800032], [-7.858347, 41.802508], [-7.850025, 41.811432], [-7.851354, 41.820452], [-7.86466, 41.829317], [-7.876704, 41.82921], [-7.888883, 41.8213], [-7.891147, 41.811836]], [[-7.883796, 41.811765], [-7.876829, 41.822053], [-7.864792, 41.821852], [-7.85823, 41.811514], [-7.865092, 41.80485], [-7.877134, 41.804599], [-7.883796, 41.811765]]], [[[-8.147321, 41.705941], [-8.143325, 41.702377], [-8.131308, 41.702283], [-8.127205, 41.70579], [-8.12357, 41.714769], [-8.131058, 41.720875], [-8.143107, 41.718803], [-8.147308, 41.714948], [-8.147321, 41.705941]]], [[[-8.0711, 41.710232], [-8.074675, 41.705379], [-8.071314, 41.695391], [-8.059376, 41.689898], [-8.047337, 41.691474], [-8.040613, 41.696092], [-8.036964, 41.705069], [-8.046973, 41.716086], [-8.058968, 41.717874], [-8.068108, 41.714333], [-8.0711, 41.710232]], [[-8.059272, 41.697053], [-8.065797, 41.705307], [-8.059051, 41.71222], [-8.047049, 41.710954], [-8.042347, 41.705114], [-8.047247, 41.697569], [-8.059272, 41.697053]]], [[[-7.828988, 41.709498], [-7.830653, 41.712708], [-7.842554, 41.719388], [-7.854571, 41.719628], [-7.865345, 41.712509], [-7.868328, 41.703532], [-7.866956, 41.698985], [-7.863051, 41.694473], [-7.853872, 41.688911], [-7.848444, 41.694139], [-7.85503, 41.693788], [-7.864731, 41.703496], [-7.861385, 41.71247], [-7.854619, 41.71694], [-7.84262, 41.715707], [-7.836607, 41.712222], [-7.835923, 41.709741], [-7.828988, 41.709498]]], [[[-7.836099, 41.701246], [-7.836099, 41.701246], [-7.836158, 41.701189], [-7.836099, 41.701246]]], [[[-7.837608, 41.699768], [-7.837608, 41.699768], [-7.83845, 41.698944], [-7.837608, 41.699768]]], [[[-8.10366, 41.678587], [-8.095724, 41.668609], [-8.083714, 41.668404], [-8.074125, 41.678353], [-8.076732, 41.687381], [-8.083397, 41.690754], [-8.095444, 41.688548], [-8.10366, 41.678587]]], [[[-8.096238, 41.631783], [-8.104777, 41.624553], [-8.110366, 41.61559], [-8.108612, 41.605059], [-8.096731, 41.596467], [-8.084753, 41.595033], [-8.072708, 41.598197], [-8.063034, 41.606207], [-8.060892, 41.615196], [-8.064356, 41.624232], [-8.072242, 41.630781], [-8.084197, 41.634312], [-8.096238, 41.631783]], [[-8.105299, 41.61555], [-8.096301, 41.627319], [-8.084267, 41.629372], [-8.073122, 41.624303], [-8.06819, 41.615256], [-8.072301, 41.606282], [-8.084672, 41.600705], [-8.096651, 41.602228], [-8.102222, 41.606519], [-8.105299, 41.61555]]], [[[-8.468973, 41.563504], [-8.479866, 41.554804], [-8.482085, 41.545807], [-8.477593, 41.53678], [-8.457306, 41.524623], [-8.445342, 41.52201], [-8.43334, 41.523961], [-8.428003, 41.527536], [-8.421078, 41.536509], [-8.419799, 41.54551], [-8.423758, 41.554537], [-8.433009, 41.561811], [-8.444965, 41.566059], [-8.456954, 41.566676], [-8.468973, 41.563504]], [[-8.476502, 41.545782], [-8.472423, 41.554771], [-8.469023, 41.557486], [-8.456993, 41.561949], [-8.445006, 41.561285], [-8.433066, 41.555347], [-8.426912, 41.545545], [-8.428779, 41.536547], [-8.433269, 41.532108], [-8.445299, 41.527036], [-8.457273, 41.528529], [-8.46921, 41.534618], [-8.472348, 41.536756], [-8.476502, 41.545782]]], [[[-8.273656, 41.517658], [-8.275148, 41.50866], [-8.272646, 41.499636], [-8.265913, 41.490938], [-8.254011, 41.484199], [-8.242053, 41.482442], [-8.230053, 41.484252], [-8.218999, 41.490277], [-8.211712, 41.499235], [-8.209748, 41.508229], [-8.211879, 41.517251], [-8.21934, 41.526309], [-8.229484, 41.532285], [-8.241444, 41.534591], [-8.253444, 41.533528], [-8.265495, 41.527911], [-8.273656, 41.517658]], [[-8.265596, 41.518944], [-8.253517, 41.527189], [-8.241513, 41.528712], [-8.229565, 41.525453], [-8.220013, 41.517306], [-8.216983, 41.508278], [-8.21968, 41.499289], [-8.230834, 41.490357], [-8.24199, 41.487834], [-8.253946, 41.48984], [-8.266461, 41.499597], [-8.269208, 41.508622], [-8.265596, 41.518944]]], [[[-8.445622, 41.489165], [-8.448787, 41.482601], [-8.446917, 41.473584], [-8.434437, 41.464516], [-8.421891, 41.463607], [-8.409864, 41.46939], [-8.406556, 41.473383], [-8.404173, 41.482378], [-8.409638, 41.494303], [-8.421566, 41.500107], [-8.433556, 41.499162], [-8.445622, 41.489165]], [[-8.441103, 41.482564], [-8.433615, 41.492345], [-8.421624, 41.493623], [-8.417712, 41.491455], [-8.410607, 41.482411], [-8.415915, 41.473431], [-8.421833, 41.470133], [-8.433799, 41.471197], [-8.437128, 41.473537], [-8.441103, 41.482564]]]]}}, {"id": "3", "type": "Feature", "properties": {"fill": "#b11c1c", "value_min": -2.25, "value_max": -2.0}, "geometry": {"type": "MultiPolygon", "coordinates": [[[[-7.94308, 41.839346], [-7.948684, 41.845938], [-7.956706, 41.839471], [-7.948849, 41.835901], [-7.94308, 41.839346]]], [[[-7.876544, 41.838373], [-7.888665, 41.833929], [-7.893275, 41.82987], [-7.898258, 41.820912], [-7.898047, 41.811903], [-7.889234, 41.800992], [-7.877277, 41.796451], [-7.865239, 41.796519], [-7.848975, 41.802415], [-7.841893, 41.81135], [-7.841145, 41.82035], [-7.846011, 41.829405], [-7.852521, 41.834741], [-7.864498, 41.838505], [-7.876544, 41.838373]], [[-7.891147, 41.811836], [-7.888883, 41.8213], [-7.876704, 41.82921], [-7.86466, 41.829317], [-7.851354, 41.820452], [-7.850025, 41.811432], [-7.858347, 41.802508], [-7.865177, 41.800032], [-7.877215, 41.800001], [-7.883701, 41.802758], [-7.891147, 41.811836]]], [[[-8.130944, 41.729287], [-8.143001, 41.726772], [-8.155164, 41.715006], [-8.155109, 41.705998], [-8.143426, 41.694771], [-8.131374, 41.697387], [-8.121593, 41.705747], [-8.119185, 41.709889], [-8.110309, 41.714667], [-8.114982, 41.72371], [-8.130944, 41.729287]], [[-8.147321, 41.705941], [-8.147308, 41.714948], [-8.143107, 41.718803], [-8.131058, 41.720875], [-8.12357, 41.714769], [-8.127205, 41.70579], [-8.131308, 41.702283], [-8.143325, 41.702377], [-8.147321, 41.705941]]], [[[-7.821438, 41.711954], [-7.830543, 41.718799], [-7.842492, 41.722842], [-7.854523, 41.722336], [-7.866679, 41.714716], [-7.870894, 41.703557], [-7.868982, 41.694531], [-7.867093, 41.69114], [-7.859498, 41.686166], [-7.857773, 41.689538], [-7.855076, 41.688181], [-7.853872, 41.688911], [-7.863051, 41.694473], [-7.866956, 41.698985], [-7.868328, 41.703532], [-7.865345, 41.712509], [-7.854571, 41.719628], [-7.842554, 41.719388], [-7.830653, 41.712708], [-7.828988, 41.709498], [-7.825252, 41.708813], [-7.821438, 41.711954]]], [[[-8.070937, 41.72155], [-8.084723, 41.714466], [-8.097471, 41.696553], [-8.10801, 41.687628], [-8.115274, 41.678677], [-8.111513, 41.669641], [-8.095851, 41.659509], [-8.083865, 41.657778], [-8.071756, 41.664626], [-8.059531, 41.679303], [-8.044422, 41.687117], [-8.032743, 41.696026], [-8.031595, 41.705024], [-8.03854, 41.714089], [-8.046917, 41.719875], [-8.058897, 41.722757], [-8.070937, 41.72155]], [[-8.0711, 41.710232], [-8.068108, 41.714333], [-8.058968, 41.717874], [-8.046973, 41.716086], [-8.036964, 41.705069], [-8.040613, 41.696092], [-8.047337, 41.691474], [-8.059376, 41.689898], [-8.071314, 41.695391], [-8.074675, 41.705379], [-8.0711, 41.710232]], [[-8.10366, 41.678587], [-8.095444, 41.688548], [-8.083397, 41.690754], [-8.076732, 41.687381], [-8.074125, 41.678353], [-8.083714, 41.668404], [-8.095724, 41.668609], [-8.10366, 41.678587]]], [[[-8.08409, 41.641894], [-8.096141, 41.638781], [-8.108315, 41.626649], [-8.11547, 41.615629], [-8.116811, 41.606632], [-8.11192, 41.597587], [-8.108749, 41.595089], [-8.096821, 41.590016], [-8.08484, 41.588876], [-8.072819, 41.590449], [-8.059, 41.597166], [-8.051956, 41.606116], [-8.050951, 41.615115], [-8.054371, 41.62415], [-8.063231, 41.633229], [-8.072115, 41.639635], [-8.08409, 41.641894]], [[-8.096238, 41.631783], [-8.084197, 41.634312], [-8.072242, 41.630781], [-8.064356, 41.624232], [-8.060892, 41.615196], [-8.063034, 41.606207], [-8.072708, 41.598197], [-8.084753, 41.595033], [-8.096731, 41.596467], [-8.108612, 41.605059], [-8.110366, 41.61559], [-8.104777, 41.624553], [-8.096238, 41.631783]]], [[[-8.512177, 41.581968], [-8.516796, 41.583619], [-8.523322, 41.582015], [-8.52977, 41.573034], [-8.516927, 41.565958], [-8.505282, 41.572931], [-8.512177, 41.581968]]], [[[-8.468918, 41.570258], [-8.484553, 41.563833], [-8.490835, 41.554854], [-8.49064, 41.545845], [-8.484254, 41.53681], [-8.457338, 41.520761], [-8.449864, 41.518635], [-8.445408, 41.514322], [-8.436619, 41.509564], [-8.45227, 41.491625], [-8.456009, 41.482635], [-8.455386, 41.473625], [-8.445855, 41.461806], [-8.433924, 41.456928], [-8.421953, 41.456623], [-8.409942, 41.460733], [-8.405786, 41.464372], [-8.399556, 41.473347], [-8.398051, 41.482346], [-8.400217, 41.491365], [-8.409543, 41.504708], [-8.418538, 41.509474], [-8.420495, 41.518491], [-8.41094, 41.536457], [-8.410593, 41.545463], [-8.413952, 41.554487], [-8.423806, 41.563545], [-8.432955, 41.568019], [-8.444923, 41.571059], [-8.456912, 41.571725], [-8.468918, 41.570258]], [[-8.468973, 41.563504], [-8.456954, 41.566676], [-8.444965, 41.566059], [-8.433009, 41.561811], [-8.423758, 41.554537], [-8.419799, 41.54551], [-8.421078, 41.536509], [-8.428003, 41.527536], [-8.43334, 41.523961], [-8.445342, 41.52201], [-8.457306, 41.524623], [-8.477593, 41.53678], [-8.482085, 41.545807], [-8.479866, 41.554804], [-8.468973, 41.563504]], [[-8.445622, 41.489165], [-8.433556, 41.499162], [-8.421566, 41.500107], [-8.409638, 41.494303], [-8.404173, 41.482378], [-8.406556, 41.473383], [-8.409864, 41.46939], [-8.421891, 41.463607], [-8.434437, 41.464516], [-8.446917, 41.473584], [-8.448787, 41.482601], [-8.445622, 41.489165]]], [[[-8.253357, 41.541104], [-8.265396, 41.536665], [-8.27682, 41.526685], [-8.280925, 41.517703], [-8.281363, 41.508699], [-8.278854, 41.499676], [-8.273188, 41.490633], [-8.265994, 41.483717], [-8.254083, 41.477876], [-8.242127, 41.476063], [-8.230135, 41.47733], [-8.218099, 41.482228], [-8.208544, 41.490206], [-8.203365, 41.499177], [-8.201795, 41.508174], [-8.203475, 41.517193], [-8.208534, 41.526235], [-8.219286, 41.535316], [-8.229391, 41.540074], [-8.241358, 41.541986], [-8.253357, 41.541104]], [[-8.273656, 41.517658], [-8.265495, 41.527911], [-8.253444, 41.533528], [-8.241444, 41.534591], [-8.229484, 41.532285], [-8.21934, 41.526309], [-8.211879, 41.517251], [-8.209748, 41.508229], [-8.211712, 41.499235], [-8.218999, 41.490277], [-8.230053, 41.484252], [-8.242053, 41.482442], [-8.254011, 41.484199], [-8.265913, 41.490938], [-8.272646, 41.499636], [-8.275148, 41.50866], [-8.273656, 41.517658]]]]}}]}