{"type": "FeatureCollection", "features": [{"id": "1", "type": "Feature", "properties": {"fill": "#c93e18", "value_min": -2.0, "value_max": -1.75}, "geometry": {"type": "MultiPolygon", "coordinates": [[[[-8.260983, 41.508569], [-8.256971, 41.499536], [-8.253862, 41.497151], [-8.241909, 41.494781], [-8.230334, 41.499361], [-8.226498, 41.508343], [-8.232211, 41.517388], [-8.241602, 41.521034], [-8.25361, 41.519061], [-8.260983, 41.508569]], [[-8.237549, 41.508417], [-8.241805, 41.503714], [-8.250364, 41.508501], [-8.241704, 41.512305], [-8.237549, 41.508417]]], [[[-8.531651, 41.2115], [-8.529303, 41.221737], [-8.533256, 41.230761], [-8.543215, 41.238205], [-8.548437, 41.239829], [-8.555128, 41.24123], [-8.56707, 41.240099], [-8.579048, 41.233138], [-8.584552, 41.221949], [-8.582865, 41.212935], [-8.574226, 41.203996], [-8.567971, 41.204644], [-8.565895, 41.206227], [-8.567697, 41.208246], [-8.566512, 41.209376], [-8.559636, 41.206251], [-8.554271, 41.20627], [-8.549521, 41.209214], [-8.544157, 41.209458], [-8.537023, 41.212635], [-8.532257, 41.213102], [-8.531651, 41.2115]], [[-8.555207, 41.229669], [-8.546859, 41.221807], [-8.55281, 41.212822], [-8.555328, 41.211733], [-8.567239, 41.21446], [-8.570286, 41.221897], [-8.567159, 41.226529], [-8.555207, 41.229669]]]]}}, {"id": "0", "type": "Feature", "properties": {"fill": "#b11c1c", "value_min": -2.25, "value_max": -2.0}, "geometry": {"type": "MultiPolygon", "coordinates": [[[[-8.237549, 41.508417], [-8.241704, 41.512305], [-8.250364, 41.508501], [-8.241805, 41.503714], [-8.237549, 41.508417]]], [[[-8.555207, 41.229669], [-8.567159, 41.226529], [-8.570286, 41.221897], [-8.567239, 41.21446], [-8.555328, 41.211733], [-8.55281, 41.212822], [-8.546859, 41.221807], [-8.555207, 41.229669]]]]}}, {"id": "3", "type": "Feature", "properties": {"fill": "#e19f31", "value_min": -1.5, "value_max": -1.25}, "geometry": {"type": "MultiPolygon", "coordinates": [[[[-7.970148, 41.839592], [-7.962618, 41.830518], [-7.948981, 41.82784], [-7.940518, 41.830316], [-7.931885, 41.839243], [-7.933482, 41.848264], [-7.936542, 41.851768], [-7.94851, 41.856611], [-7.960588, 41.85468], [-7.968157, 41.848581], [-7.970148, 41.839592]], [[-7.945762, 41.848378], [-7.939304, 41.839312], [-7.948899, 41.832816], [-7.962229, 41.839521], [-7.960776, 41.843122], [-7.953706, 41.84845], [-7.948623, 41.849717], [-7.945762, 41.848378]]], [[[-8.395977, 41.674872], [-8.399213, 41.671505], [-8.39943, 41.662499], [-8.39613, 41.658482], [-8.384179, 41.652263], [-8.372158, 41.653437], [-8.362286, 41.662299], [-8.362627, 41.671308], [-8.371908, 41.679096], [-8.383908, 41.680702], [-8.395977, 41.674872]], [[-8.37497, 41.671376], [-8.374363, 41.662365], [-8.384106, 41.65993], [-8.38836, 41.662441], [-8.388015, 41.671446], [-8.383976, 41.673568], [-8.37497, 41.671376]]], [[[-8.469102, 41.547777], [-8.470221, 41.545753], [-8.465682, 41.536725], [-8.457242, 41.532241], [-8.445254, 41.532364], [-8.43742, 41.53659], [-8.433995, 41.545581], [-8.440973, 41.554622], [-8.445045, 41.556716], [-8.457032, 41.557297], [-8.462148, 41.554723], [-8.469102, 41.547777]], [[-8.445108, 41.5494], [-8.4416, 41.545618], [-8.445209, 41.53764], [-8.457212, 41.535803], [-8.458887, 41.536693], [-8.463375, 41.545721], [-8.457081, 41.551427], [-8.445108, 41.5494]]], [[[-8.273745, 41.517658], [-8.275731, 41.508663], [-8.273609, 41.499643], [-8.265925, 41.489855], [-8.254019, 41.483498], [-8.242058, 41.482016], [-8.230054, 41.484185], [-8.220127, 41.490285], [-8.213225, 41.499245], [-8.211491, 41.508241], [-8.214068, 41.517266], [-8.222734, 41.526332], [-8.229507, 41.530326], [-8.241462, 41.533092], [-8.253459, 41.532262], [-8.265506, 41.526981], [-8.273745, 41.517658]], [[-8.239164, 41.526442], [-8.22959, 41.523371], [-8.222466, 41.517323], [-8.218936, 41.508292], [-8.221554, 41.499302], [-8.229965, 41.491723], [-8.241984, 41.488369], [-8.254424, 41.490512], [-8.265819, 41.499264], [-8.268705, 41.508619], [-8.265565, 41.517606], [-8.253534, 41.525709], [-8.239164, 41.526442]]], [[[-8.194768, 41.374275], [-8.193843, 41.382014], [-8.198098, 41.391052], [-8.207145, 41.398162], [-8.219063, 41.401855], [-8.231034, 41.40126], [-8.243063, 41.395565], [-8.247427, 41.391385], [-8.251301, 41.382403], [-8.25001, 41.373387], [-8.244651, 41.366133], [-8.244272, 41.368384], [-8.239197, 41.371315], [-8.232024, 41.369971], [-8.224854, 41.370878], [-8.21738, 41.368182], [-8.214399, 41.373587], [-8.208127, 41.376968], [-8.199163, 41.377423], [-8.194768, 41.374275]], [[-8.219203, 41.390166], [-8.210958, 41.382133], [-8.215621, 41.373157], [-8.21943, 41.371221], [-8.231374, 41.372331], [-8.236225, 41.382304], [-8.231184, 41.388519], [-8.219203, 41.390166]]], [[[-8.501161, 41.222885], [-8.503697, 41.230637], [-8.509892, 41.239671], [-8.519279, 41.247634], [-8.531171, 41.253707], [-8.543085, 41.256873], [-8.555016, 41.257778], [-8.566961, 41.256611], [-8.57892, 41.253028], [-8.590902, 41.24577], [-8.596692, 41.240008], [-8.601869, 41.231018], [-8.603742, 41.222017], [-8.602929, 41.213006], [-8.599542, 41.203987], [-8.591234, 41.192407], [-8.58065, 41.184435], [-8.581296, 41.191762], [-8.57714, 41.194153], [-8.591139, 41.207649], [-8.594659, 41.221985], [-8.592211, 41.230984], [-8.584657, 41.239965], [-8.578979, 41.243967], [-8.567014, 41.248496], [-8.555071, 41.249674], [-8.543147, 41.248005], [-8.526427, 41.239741], [-8.518559, 41.2307], [-8.515413, 41.221679], [-8.51592, 41.212673], [-8.520221, 41.203683], [-8.523716, 41.200526], [-8.520554, 41.200086], [-8.51163, 41.203042], [-8.510456, 41.206197], [-8.505693, 41.207113], [-8.504239, 41.213646], [-8.500585, 41.215233], [-8.500602, 41.215908], [-8.50308, 41.219502], [-8.501161, 41.222885]]]]}}, {"id": "2", "type": "Feature", "properties": {"fill": "#e57b10", "value_min": -1.75, "value_max": -1.5}, "geometry": {"type": "MultiPolygon", "coordinates": [[[[-7.945762, 41.848378], [-7.948623, 41.849717], [-7.953706, 41.84845], [-7.960776, 41.843122], [-7.962229, 41.839521], [-7.948899, 41.832816], [-7.939304, 41.839312], [-7.945762, 41.848378]]], [[[-8.37497, 41.671376], [-8.383976, 41.673568], [-8.388015, 41.671446], [-8.38836, 41.662441], [-8.384106, 41.65993], [-8.374363, 41.662365], [-8.37497, 41.671376]]], [[[-8.445108, 41.5494], [-8.457081, 41.551427], [-8.463375, 41.545721], [-8.458887, 41.536693], [-8.457212, 41.535803], [-8.445209, 41.53764], [-8.4416, 41.545618], [-8.445108, 41.5494]]], [[[-8.239164, 41.526442], [-8.253534, 41.525709], [-8.265565, 41.517606], [-8.268705, 41.508619], [-8.265819, 41.499264], [-8.254424, 41.490512], [-8.241984, 41.488369], [-8.229965, 41.491723], [-8.221554, 41.499302], [-8.218936, 41.508292], [-8.222466, 41.517323], [-8.22959, 41.523371], [-8.239164, 41.526442]], [[-8.260983, 41.508569], [-8.25361, 41.519061], [-8.241602, 41.521034], [-8.232211, 41.517388], [-8.226498, 41.508343], [-8.230334, 41.499361], [-8.241909, 41.494781], [-8.253862, 41.497151], [-8.256971, 41.499536], [-8.260983, 41.508569]]], [[[-8.219203, 41.390166], [-8.231184, 41.388519], [-8.236225, 41.382304], [-8.231374, 41.372331], [-8.21943, 41.371221], [-8.215621, 41.373157], [-8.210958, 41.382133], [-8.219203, 41.390166]]], [[[-8.523716, 41.200526], [-8.520221, 41.203683], [-8.51592, 41.212673], [-8.515413, 41.221679], [-8.518559, 41.2307], [-8.526427, 41.239741], [-8.543147, 41.248005], [-8.555071, 41.249674], [-8.567014, 41.248496], [-8.578979, 41.243967], [-8.584657, 41.239965], [-8.592211, 41.230984], [-8.594659, 41.221985], [-8.591139, 41.207649], [-8.57714, 41.194153], [-8.576894, 41.201908], [-8.574226, 41.203996], [-8.582865, 41.212935], [-8.584552, 41.221949], [-8.579048, 41.233138], [-8.56707, 41.240099], [-8.555128, 41.24123], [-8.548437, 41.239829], [-8.543215, 41.238205], [-8.533256, 41.230761], [-8.529303, 41.221737], [-8.531651, 41.2115], [-8.529858, 41.210859], [-8.52713, 41.203215], [-8.523716, 41.200526]]]]}}, {"id": "8", "type": "Feature", "properties": {"fill": "#a3a3a3", "value_min": -0.25, "value_max": 0.0}, "geometry": {"type": "MultiPolygon", "coordinates": [[[[-8.547031, 41.614662], [-8.554533, 41.615255], [-8.557244, 41.617046], [-8.562639, 41.61635], [-8.568056, 41.619031], [-8.570735, 41.616095], [-8.577321, 41.614269], [-8.581231, 41.615829], [-8.585766, 41.620988], [-8.591462, 41.620515], [-8.596534, 41.616668], [-8.601628, 41.615972], [-8.603996, 41.611686], [-8.613256, 41.606696], [-8.619881, 41.610269], [-8.621338, 41.604636], [-8.628833, 41.604378], [-8.636302, 41.600744], [-8.64075, 41.594422], [-8.645536, 41.593051], [-8.646744, 41.594171], [-8.649125, 41.591909], [-8.656622, 41.5921], [-8.660788, 41.588255], [-8.663794, 41.589141], [-8.665265, 41.585758], [-8.66948, 41.587989], [-8.684455, 41.586117], [-8.685608, 41.58071], [-8.697261, 41.576376], [-8.701703, 41.570277], [-8.707704, 41.570923], [-8.711586, 41.569327], [-8.716422, 41.573805], [-8.720316, 41.57356], [-8.725151, 41.577811], [-8.726633, 41.576003], [-8.734424, 41.575737], [-8.736564, 41.580228], [-8.738354, 41.579318], [-8.740778, 41.582006], [-8.74467, 41.581535], [-8.750711, 41.58623], [-8.756374, 41.582823], [-8.75635, 41.580347], [-8.762327, 41.578514], [-8.764443, 41.580303], [-8.767441, 41.580286], [-8.769874, 41.583874], [-8.768997, 41.58613], [-8.773228, 41.589482], [-8.775371, 41.593972], [-8.78556, 41.593464], [-8.797327, 41.600599], [-8.804218, 41.600109], [-8.80456, 41.604158], [-8.809434, 41.611332], [-8.828644, 41.609656], [-8.82839, 41.585633], [-8.818497, 41.554794], [-8.8221, 41.547542], [-8.821965, 41.534907], [-8.815926, 41.525624], [-8.815181, 41.519971], [-8.811755, 41.51463], [-8.81063, 41.5101], [-8.813224, 41.49908], [-8.804086, 41.481208], [-8.786632, 41.501738], [-8.768978, 41.513637], [-8.744975, 41.522686], [-8.720992, 41.525344], [-8.697034, 41.522411], [-8.685066, 41.518791], [-8.673102, 41.514623], [-8.613349, 41.486412], [-8.601378, 41.485136], [-8.553382, 41.497091], [-8.529414, 41.497998], [-8.523406, 41.500949], [-8.517369, 41.506545], [-8.51638, 41.509927], [-8.507908, 41.518898], [-8.493273, 41.523312], [-8.481294, 41.522484], [-8.472861, 41.518743], [-8.46433, 41.509696], [-8.460641, 41.500672], [-8.457532, 41.497568], [-8.421539, 41.503175], [-8.409568, 41.501964], [-8.403628, 41.50039], [-8.387699, 41.491299], [-8.38574, 41.487605], [-8.378765, 41.482244], [-8.378888, 41.473237], [-8.38355, 41.464255], [-8.398089, 41.447647], [-8.410131, 41.439883], [-8.422136, 41.435934], [-8.434123, 41.433985], [-8.470032, 41.433752], [-8.479024, 41.428697], [-8.500636, 41.410778], [-8.538933, 41.383915], [-8.558365, 41.356968], [-8.574729, 41.339014], [-8.586955, 41.330051], [-8.602376, 41.321745], [-8.638308, 41.306116], [-8.650309, 41.295834], [-8.664961, 41.276258], [-8.68965, 41.249304], [-8.692626, 41.240304], [-8.684303, 41.231274], [-8.674549, 41.224816], [-8.663857, 41.2132], [-8.659641, 41.20418], [-8.658452, 41.195168], [-8.660133, 41.186165], [-8.665503, 41.177173], [-8.674827, 41.168691], [-8.686775, 41.163054], [-8.698706, 41.160543], [-8.710627, 41.160242], [-8.722539, 41.16204], [-8.738991, 41.168355], [-8.751481, 41.177391], [-8.75892, 41.186415], [-8.77366, 41.213468], [-8.782362, 41.222493], [-8.80331, 41.236129], [-8.799695, 41.14406], [-8.674793, 41.146932], [-8.674849, 41.153767], [-8.672489, 41.15648], [-8.66117, 41.156307], [-8.662078, 41.158104], [-8.660313, 41.160813], [-8.657033, 41.160378], [-8.654961, 41.161963], [-8.653231, 41.169174], [-8.655366, 41.175467], [-8.647955, 41.180228], [-8.647696, 41.185181], [-8.641346, 41.195339], [-8.651096, 41.231178], [-8.652547, 41.24019], [-8.650879, 41.249193], [-8.646769, 41.258188], [-8.631516, 41.276156], [-8.614518, 41.288813], [-8.602538, 41.294992], [-8.566617, 41.308632], [-8.542681, 41.314781], [-8.530719, 41.316814], [-8.506814, 41.318094], [-8.482939, 41.31553], [-8.471014, 41.312672], [-8.423822, 41.295642], [-8.422037, 41.296942], [-8.421756, 41.30077], [-8.416982, 41.301232], [-8.407744, 41.304856], [-8.406262, 41.307335], [-8.402979, 41.307568], [-8.401801, 41.311398], [-8.399712, 41.311628], [-8.400316, 41.313202], [-8.396738, 41.314336], [-8.398835, 41.316131], [-8.393775, 41.31997], [-8.393489, 41.323122], [-8.391105, 41.324253], [-8.386325, 41.323588], [-8.380382, 41.331254], [-8.375305, 41.33104], [-8.37201, 41.328346], [-8.361563, 41.329718], [-8.358276, 41.329049], [-8.357673, 41.327249], [-8.350207, 41.327264], [-8.346032, 41.328847], [-8.342462, 41.333131], [-8.333215, 41.336299], [-8.325766, 41.342164], [-8.324568, 41.341041], [-8.323376, 41.341943], [-8.316788, 41.335876], [-8.313802, 41.336331], [-8.311694, 41.329804], [-8.306323, 41.355725], [-8.305969, 41.373738], [-8.308562, 41.391769], [-8.318013, 41.427855], [-8.318136, 41.436863], [-8.310162, 41.463838], [-8.307941, 41.48184], [-8.313725, 41.501009], [-8.325556, 41.515466], [-8.337453, 41.524007], [-8.349397, 41.528228], [-8.361377, 41.528841], [-8.409445, 41.515542], [-8.43345, 41.511314], [-8.445439, 41.5107], [-8.457393, 41.514106], [-8.4623, 41.518694], [-8.499604, 41.536877], [-8.50108, 41.545891], [-8.480895, 41.572438], [-8.468804, 41.584187], [-8.456772, 41.588428], [-8.420742, 41.592513], [-8.402758, 41.599466], [-8.398054, 41.608449], [-8.3993, 41.617463], [-8.403857, 41.626494], [-8.420274, 41.644821], [-8.441545, 41.662712], [-8.446775, 41.671744], [-8.443329, 41.680734], [-8.431913, 41.686784], [-8.39918, 41.698526], [-8.371594, 41.711371], [-8.35955, 41.713797], [-8.347541, 41.712619], [-8.335566, 41.708186], [-8.316937, 41.698067], [-8.292031, 41.679902], [-8.284322, 41.670847], [-8.281444, 41.661822], [-8.283773, 41.625808], [-8.282619, 41.616794], [-8.277999, 41.607758], [-8.266903, 41.59868], [-8.216975, 41.575519], [-8.205066, 41.568514], [-8.186366, 41.553102], [-8.179533, 41.544046], [-8.17211, 41.525979], [-8.170276, 41.507951], [-8.173158, 41.471942], [-8.168354, 41.453893], [-8.161672, 41.444837], [-8.151577, 41.435755], [-8.106944, 41.404677], [-8.104419, 41.406252], [-8.104119, 41.408728], [-8.101727, 41.409403], [-8.102025, 41.411204], [-8.092756, 41.411201], [-8.09126, 41.414352], [-8.081986, 41.4193], [-8.078697, 41.419524], [-8.077503, 41.416597], [-8.070923, 41.41862], [-8.066739, 41.416142], [-8.061654, 41.417489], [-8.059852, 41.424916], [-8.055959, 41.429641], [-8.057444, 41.438195], [-8.063424, 41.44098], [-8.086944, 41.439273], [-8.098907, 41.439796], [-8.122778, 41.444922], [-8.134679, 41.450248], [-8.146527, 41.459687], [-8.153757, 41.471801], [-8.154757, 41.489823], [-8.150014, 41.51681], [-8.151237, 41.552848], [-8.154257, 41.561878], [-8.160603, 41.570932], [-8.189664, 41.598162], [-8.197114, 41.607221], [-8.20181, 41.616261], [-8.203471, 41.62528], [-8.20208, 41.634277], [-8.197343, 41.643251], [-8.173236, 41.670102], [-8.169232, 41.67908], [-8.169308, 41.697095], [-8.172309, 41.706123], [-8.179308, 41.715181], [-8.203069, 41.730741], [-8.215022, 41.736592], [-8.227016, 41.739184], [-8.239075, 41.736308], [-8.263285, 41.722358], [-8.275359, 41.717772], [-8.287397, 41.716307], [-8.299404, 41.717614], [-8.317763, 41.725093], [-8.331178, 41.734179], [-8.341266, 41.743244], [-8.351521, 41.756273], [-8.352545, 41.751769], [-8.349814, 41.744122], [-8.352516, 41.743441], [-8.352203, 41.739616], [-8.356398, 41.736231], [-8.357897, 41.735103], [-8.362407, 41.735994], [-8.368703, 41.73193], [-8.371416, 41.7344], [-8.376825, 41.734389], [-8.383636, 41.730998], [-8.388179, 41.716482], [-8.397709, 41.707526], [-8.407734, 41.702832], [-8.41978, 41.699814], [-8.431798, 41.699927], [-8.446824, 41.704508], [-8.453868, 41.697961], [-8.453255, 41.695487], [-8.461659, 41.694563], [-8.482012, 41.682123], [-8.484371, 41.674238], [-8.49308, 41.674886], [-8.499963, 41.671038], [-8.50927, 41.671233], [-8.51018, 41.672806], [-8.511967, 41.670324], [-8.509856, 41.668755], [-8.522103, 41.658811], [-8.525706, 41.659023], [-8.527769, 41.652714], [-8.534066, 41.652017], [-8.537355, 41.64998], [-8.537634, 41.646602], [-8.543876, 41.637352], [-8.543855, 41.633976], [-8.536342, 41.631977], [-8.535128, 41.62973], [-8.542257, 41.618676], [-8.542242, 41.616227], [-8.528541, 41.618151], [-8.504544, 41.61691], [-8.499615, 41.617943], [-8.490623, 41.635918], [-8.48059, 41.64488], [-8.468265, 41.649799], [-8.456247, 41.650897], [-8.444254, 41.649055], [-8.432293, 41.64361], [-8.423196, 41.635599], [-8.418313, 41.626568], [-8.420539, 41.615165], [-8.427471, 41.608599], [-8.432623, 41.605958], [-8.444645, 41.603462], [-8.456644, 41.603695], [-8.480605, 41.608657], [-8.489851, 41.599886], [-8.488752, 41.581866], [-8.491507, 41.572871], [-8.498003, 41.563892], [-8.505002, 41.557091], [-8.517047, 41.549937], [-8.529057, 41.547155], [-8.541046, 41.547397], [-8.553005, 41.551836], [-8.566116, 41.56417], [-8.571432, 41.573197], [-8.573539, 41.582212], [-8.57282, 41.591217], [-8.568492, 41.600208], [-8.558764, 41.609178], [-8.547031, 41.614662]], [[-8.215204, 41.721566], [-8.203211, 41.719234], [-8.191268, 41.712926], [-8.184242, 41.706209], [-8.180573, 41.697175], [-8.180901, 41.688171], [-8.185513, 41.679197], [-8.191768, 41.673033], [-8.203862, 41.666458], [-8.21591, 41.663519], [-8.227928, 41.662947], [-8.239922, 41.664396], [-8.255695, 41.670665], [-8.262093, 41.679714], [-8.261673, 41.688718], [-8.257989, 41.697701], [-8.250414, 41.706659], [-8.238828, 41.71559], [-8.22724, 41.720504], [-8.215204, 41.721566]], [[-8.620486, 41.546347], [-8.613002, 41.544817], [-8.6029, 41.53728], [-8.599094, 41.52826], [-8.602057, 41.519263], [-8.613198, 41.511891], [-8.625189, 41.510547], [-8.637147, 41.515035], [-8.64319, 41.519398], [-8.647743, 41.528419], [-8.645514, 41.53742], [-8.636981, 41.544758], [-8.624977, 41.54729], [-8.620486, 41.546347]], [[-8.349679, 41.500071], [-8.337702, 41.499623], [-8.326928, 41.49096], [-8.326633, 41.48195], [-8.337979, 41.472445], [-8.349965, 41.47147], [-8.355857, 41.47311], [-8.368283, 41.482187], [-8.36457, 41.491174], [-8.349679, 41.500071]], [[-8.374494, 41.41143], [-8.350612, 41.406552], [-8.338719, 41.399598], [-8.326907, 41.384948], [-8.324154, 41.373846], [-8.327175, 41.358961], [-8.336364, 41.346894], [-8.351293, 41.338021], [-8.363274, 41.335061], [-8.375226, 41.334891], [-8.387156, 41.337186], [-8.399063, 41.342034], [-8.407327, 41.347282], [-8.41655, 41.356336], [-8.421462, 41.365369], [-8.423559, 41.374387], [-8.422842, 41.383391], [-8.419546, 41.392382], [-8.410998, 41.401346], [-8.398453, 41.408257], [-8.386464, 41.410829], [-8.374494, 41.41143]]], [[[-8.057045, 41.815881], [-8.045586, 41.809737], [-8.021648, 41.800618], [-7.997628, 41.797108], [-7.985582, 41.797759], [-7.964289, 41.803512], [-7.94934, 41.805865], [-7.925247, 41.80689], [-7.913131, 41.811474], [-7.888597, 41.83787], [-7.875463, 41.847711], [-7.879956, 41.853217], [-7.888076, 41.855486], [-7.892408, 41.859096], [-7.896205, 41.847912], [-7.912911, 41.824479], [-7.925093, 41.8161], [-7.937178, 41.813342], [-7.961293, 41.811096], [-7.973334, 41.811004], [-7.985345, 41.812748], [-7.997327, 41.81645], [-8.007403, 41.821907], [-8.018248, 41.831379], [-8.02901, 41.829589], [-8.037134, 41.831171], [-8.041351, 41.828023], [-8.041054, 41.825097], [-8.045268, 41.824425], [-8.047679, 41.821276], [-8.057045, 41.815881]]], [[[-7.872444, 41.849784], [-7.853914, 41.862386], [-7.858542, 41.862622], [-7.859456, 41.860148], [-7.864877, 41.859711], [-7.872444, 41.849784]]], [[[-7.842956, 41.872712], [-7.841283, 41.874733], [-7.842528, 41.875187], [-7.842956, 41.872712]]], [[[-7.742497, 41.833931], [-7.781568, 41.82874], [-7.792475, 41.82566], [-7.799486, 41.819922], [-7.804183, 41.810964], [-7.808004, 41.79299], [-7.807736, 41.783981], [-7.803245, 41.76592], [-7.793937, 41.747678], [-7.775626, 41.725326], [-7.773485, 41.727345], [-7.769299, 41.72373], [-7.765698, 41.723044], [-7.763888, 41.724389], [-7.761765, 41.727758], [-7.762933, 41.733839], [-7.759307, 41.737203], [-7.759597, 41.739005], [-7.75689, 41.739446], [-7.758682, 41.741476], [-7.76985, 41.74944], [-7.783279, 41.765711], [-7.787236, 41.774759], [-7.787841, 41.792779], [-7.78081, 41.805821], [-7.768594, 41.815125], [-7.756471, 41.819393], [-7.73594, 41.823538], [-7.74345, 41.825605], [-7.738919, 41.828515], [-7.742497, 41.833931]]]]}}, {"id": "10", "type": "Feature", "properties": {"fill": "#a3a3a3", "value_min": 0.25, "value_max": 0.5}, "geometry": {"type": "MultiPolygon", "coordinates": [[[[-7.739493, 41.858677], [-7.73826, 41.864299], [-7.7434, 41.872079], [-7.755369, 41.876281], [-7.768082, 41.873629], [-7.775751, 41.864705], [-7.774479, 41.855684], [-7.767913, 41.850614], [-7.75592, 41.847872], [-7.746002, 41.851647], [-7.746881, 41.855776], [-7.739493, 41.858677]]], [[[-7.820417, 41.712626], [-7.832672, 41.730196], [-7.836775, 41.739244], [-7.834654, 41.757236], [-7.837041, 41.766267], [-7.849586, 41.784407], [-7.841083, 41.801178], [-7.839017, 41.811321], [-7.841723, 41.820355], [-7.852491, 41.82947], [-7.86461, 41.832142], [-7.876688, 41.830126], [-7.890259, 41.820835], [-7.894888, 41.811872], [-7.895146, 41.802868], [-7.889444, 41.788845], [-7.885843, 41.784765], [-7.891262, 41.77581], [-7.901875, 41.765596], [-7.913909, 41.765426], [-7.93014, 41.776179], [-7.935412, 41.794242], [-7.951336, 41.794388], [-7.954407, 41.785409], [-7.954358, 41.776402], [-7.966904, 41.767509], [-7.971067, 41.758539], [-7.969466, 41.749518], [-7.962422, 41.741103], [-7.950521, 41.733448], [-7.943492, 41.731268], [-7.938625, 41.725665], [-7.93224, 41.704143], [-7.924394, 41.695063], [-7.915202, 41.688632], [-7.903274, 41.683413], [-7.877043, 41.676344], [-7.876723, 41.681253], [-7.873401, 41.686198], [-7.868896, 41.686413], [-7.868008, 41.68326], [-7.864403, 41.683701], [-7.864096, 41.685276], [-7.858987, 41.68639], [-7.857773, 41.689538], [-7.854776, 41.68818], [-7.847538, 41.695365], [-7.837309, 41.699391], [-7.835792, 41.702763], [-7.839682, 41.705924], [-7.838465, 41.709522], [-7.832453, 41.710407], [-7.825252, 41.708813], [-7.820417, 41.712626]]], [[[-8.300378, 41.75861], [-8.304371, 41.752034], [-8.301873, 41.743012], [-8.299153, 41.740706], [-8.287177, 41.736201], [-8.275123, 41.738729], [-8.269507, 41.74281], [-8.266345, 41.751797], [-8.27188, 41.760839], [-8.27485, 41.762978], [-8.280437, 41.764025], [-8.284038, 41.761109], [-8.284931, 41.757507], [-8.287033, 41.756829], [-8.298457, 41.757263], [-8.300378, 41.75861]]], [[[-8.188907, 41.751277], [-8.189239, 41.742272], [-8.181361, 41.733209], [-8.156326, 41.724021], [-8.154589, 41.705994], [-8.143486, 41.690263], [-8.132121, 41.678806], [-8.128946, 41.669775], [-8.138255, 41.660838], [-8.143901, 41.658982], [-8.156031, 41.649862], [-8.161618, 41.642996], [-8.164344, 41.634009], [-8.162312, 41.624987], [-8.156452, 41.617562], [-8.144547, 41.610107], [-8.096702, 41.598565], [-8.084712, 41.597885], [-8.072663, 41.601371], [-8.064504, 41.606218], [-8.048356, 41.622282], [-8.012283, 41.626298], [-7.996396, 41.632665], [-7.984893, 41.641571], [-7.979018, 41.650526], [-7.977052, 41.659516], [-7.977997, 41.668531], [-7.98262, 41.677579], [-7.992535, 41.686674], [-8.011193, 41.697591], [-8.034915, 41.718594], [-8.046854, 41.724151], [-8.058854, 41.725752], [-8.082919, 41.724412], [-8.094895, 41.727707], [-8.130798, 41.740115], [-8.141043, 41.750929], [-8.152769, 41.760023], [-8.166574, 41.763441], [-8.178635, 41.760993], [-8.188907, 41.751277]]], [[[-8.422989, 41.720551], [-8.425417, 41.716675], [-8.419658, 41.713362], [-8.408983, 41.716591], [-8.417948, 41.724594], [-8.422989, 41.720551]]], [[[-8.456415, 41.630964], [-8.458952, 41.626766], [-8.456481, 41.62305], [-8.444527, 41.617233], [-8.433033, 41.626641], [-8.444363, 41.636369], [-8.456415, 41.630964]]], [[[-8.537727, 41.573066], [-8.528933, 41.564256], [-8.51695, 41.562915], [-8.503332, 41.572923], [-8.504118, 41.581934], [-8.516752, 41.589475], [-8.528762, 41.587872], [-8.536203, 41.582067], [-8.537727, 41.573066]]], [[[-8.097775, 41.536295], [-8.109553, 41.536548], [-8.11257, 41.534542], [-8.116776, 41.525567], [-8.109821, 41.517008], [-8.097836, 41.517095], [-8.092992, 41.522395], [-8.092182, 41.529597], [-8.093696, 41.532974], [-8.093882, 41.533388], [-8.093898, 41.533424], [-8.097775, 41.536295]]], [[[-8.122067, 41.497636], [-8.132609, 41.489658], [-8.135273, 41.480671], [-8.129607, 41.471621], [-8.122478, 41.467202], [-8.110521, 41.465904], [-8.096561, 41.471366], [-8.091036, 41.48033], [-8.092744, 41.489351], [-8.098142, 41.495061], [-8.110057, 41.499796], [-8.122067, 41.497636]]], [[[-8.685212, 41.488544], [-8.691223, 41.483507], [-8.693313, 41.474505], [-8.688509, 41.465485], [-8.685336, 41.462944], [-8.673384, 41.458473], [-8.661407, 41.459167], [-8.650498, 41.465376], [-8.646035, 41.474369], [-8.649299, 41.483968], [-8.661238, 41.49164], [-8.667439, 41.492448], [-8.675923, 41.492472], [-8.685212, 41.488544]]], [[[-8.433635, 41.490035], [-8.440656, 41.482561], [-8.43738, 41.473538], [-8.433802, 41.470904], [-8.421836, 41.469763], [-8.415341, 41.473428], [-8.410868, 41.482413], [-8.42164, 41.491868], [-8.433635, 41.490035]]], [[[-8.553668, 41.455459], [-8.552493, 41.456029], [-8.55366, 41.456517], [-8.554187, 41.456035], [-8.553668, 41.455459]]], [[[-8.374794, 41.380039], [-8.378077, 41.37415], [-8.37267, 41.365113], [-8.363009, 41.362215], [-8.35101, 41.366523], [-8.347829, 41.373983], [-8.350873, 41.38033], [-8.354891, 41.38303], [-8.362785, 41.385203], [-8.370746, 41.383118], [-8.374794, 41.380039]]], [[[-8.64989, 41.374014], [-8.656434, 41.36631], [-8.656781, 41.357304], [-8.650026, 41.348722], [-8.638095, 41.344562], [-8.626138, 41.345389], [-8.620059, 41.348181], [-8.611628, 41.35716], [-8.611735, 41.366168], [-8.614042, 41.369653], [-8.625953, 41.377696], [-8.637907, 41.378528], [-8.64989, 41.374014]]], [[[-8.733861, 41.309506], [-8.739601, 41.303475], [-8.741267, 41.294471], [-8.733965, 41.283844], [-8.722042, 41.279481], [-8.710097, 41.280284], [-8.700116, 41.285363], [-8.694662, 41.294356], [-8.695863, 41.303367], [-8.698036, 41.3064], [-8.709949, 41.313782], [-8.721893, 41.314403], [-8.733861, 41.309506]]]]}}, {"id": "6", "type": "Feature", "properties": {"fill": "#a3a3a3", "value_min": -0.75, "value_max": -0.5}, "geometry": {"type": "MultiPolygon", "coordinates": [[[[-8.003763, 41.84937], [-8.001627, 41.83987], [-7.99552, 41.83081], [-7.982838, 41.821692], [-7.97322, 41.818141], [-7.96121, 41.816259], [-7.937098, 41.818177], [-7.924971, 41.823372], [-7.916817, 41.830095], [-7.911254, 41.839049], [-7.908257, 41.848027], [-7.908272, 41.857034], [-7.911471, 41.866071], [-7.92168, 41.877834], [-7.928044, 41.87807], [-7.935283, 41.874707], [-7.937389, 41.87516], [-7.940406, 41.871789], [-7.928898, 41.866235], [-7.920234, 41.857147], [-7.91744, 41.848114], [-7.918682, 41.839119], [-7.924801, 41.83017], [-7.937021, 41.822846], [-7.949103, 41.820382], [-7.961134, 41.82094], [-7.973114, 41.82476], [-7.982278, 41.830694], [-7.988171, 41.839752], [-7.989151, 41.848768], [-7.985655, 41.857744], [-7.976674, 41.866671], [-7.9724, 41.869398], [-7.956199, 41.87339], [-7.956362, 41.875191], [-7.960878, 41.875648], [-7.96299, 41.874075], [-7.972322, 41.875439], [-7.987996, 41.869157], [-7.990123, 41.860157], [-7.995547, 41.858138], [-7.994047, 41.855211], [-7.996162, 41.851837], [-8.003763, 41.84937]]], [[[-7.728177, 41.814004], [-7.744562, 41.812687], [-7.756676, 41.808829], [-7.767641, 41.801571], [-7.773897, 41.792631], [-7.775586, 41.783642], [-7.773736, 41.774616], [-7.769503, 41.767576], [-7.757681, 41.756787], [-7.7475, 41.752005], [-7.747786, 41.754496], [-7.743866, 41.756509], [-7.741428, 41.762021], [-7.750881, 41.765363], [-7.761578, 41.774485], [-7.764331, 41.783522], [-7.761784, 41.792501], [-7.756891, 41.797687], [-7.744735, 41.80382], [-7.732674, 41.804995], [-7.727036, 41.803938], [-7.728177, 41.814004]]], [[[-8.236007, 41.697557], [-8.234984, 41.688544], [-8.227708, 41.681351], [-8.215745, 41.677129], [-8.203714, 41.678459], [-8.191594, 41.686877], [-8.188829, 41.697234], [-8.194906, 41.706284], [-8.203309, 41.711308], [-8.215315, 41.71248], [-8.230002, 41.706524], [-8.236007, 41.697557]], [[-8.203409, 41.703168], [-8.198166, 41.6973], [-8.202302, 41.688321], [-8.215622, 41.68726], [-8.222042, 41.697464], [-8.215424, 41.703517], [-8.203409, 41.703168]]], [[[-8.383747, 41.697584], [-8.40584, 41.689554], [-8.421099, 41.680625], [-8.427044, 41.671647], [-8.425552, 41.662633], [-8.418795, 41.653592], [-8.396357, 41.634166], [-8.384412, 41.627763], [-8.372438, 41.624515], [-8.360436, 41.624351], [-8.3484, 41.627455], [-8.336321, 41.634731], [-8.327886, 41.644089], [-8.322934, 41.662074], [-8.324492, 41.67109], [-8.328545, 41.680121], [-8.337214, 41.689179], [-8.347711, 41.695798], [-8.359692, 41.699492], [-8.371706, 41.699932], [-8.383747, 41.697584]], [[-8.371779, 41.692364], [-8.359015, 41.689302], [-8.34596, 41.680222], [-8.340698, 41.671184], [-8.339928, 41.662173], [-8.343079, 41.653184], [-8.351968, 41.644227], [-8.360284, 41.639707], [-8.372314, 41.637377], [-8.384311, 41.638403], [-8.396273, 41.643163], [-8.408197, 41.652282], [-8.415434, 41.662582], [-8.415815, 41.671591], [-8.40918, 41.680564], [-8.395855, 41.687938], [-8.383804, 41.691558], [-8.371779, 41.692364]]], [[[-8.468907, 41.571656], [-8.486192, 41.554833], [-8.489624, 41.545841], [-8.485841, 41.536817], [-8.457339, 41.520626], [-8.445375, 41.518183], [-8.433381, 41.51919], [-8.412612, 41.527459], [-8.402632, 41.536415], [-8.398556, 41.545401], [-8.398289, 41.554407], [-8.402313, 41.563435], [-8.408959, 41.568873], [-8.420901, 41.57473], [-8.432872, 41.577476], [-8.444861, 41.578209], [-8.456869, 41.576787], [-8.468907, 41.571656]], [[-8.444935, 41.569563], [-8.432964, 41.566934], [-8.426267, 41.563557], [-8.417195, 41.554504], [-8.415137, 41.545486], [-8.41867, 41.536497], [-8.429416, 41.527543], [-8.445333, 41.523092], [-8.457305, 41.524727], [-8.469241, 41.5308], [-8.477915, 41.536781], [-8.481475, 41.545804], [-8.478349, 41.554798], [-8.468973, 41.563554], [-8.456936, 41.568804], [-8.444935, 41.569563]]], [[[-8.131598, 41.374743], [-8.138433, 41.39062], [-8.144899, 41.399676], [-8.163445, 41.417827], [-8.186998, 41.436011], [-8.194944, 41.445075], [-8.197355, 41.454099], [-8.186099, 41.490049], [-8.183969, 41.508049], [-8.187926, 41.526091], [-8.193486, 41.535193], [-8.205328, 41.547116], [-8.229168, 41.558922], [-8.253111, 41.562471], [-8.277126, 41.559829], [-8.290511, 41.553792], [-8.300718, 41.544847], [-8.305796, 41.535871], [-8.307212, 41.526872], [-8.306157, 41.517858], [-8.293554, 41.481752], [-8.275984, 41.445613], [-8.275234, 41.436601], [-8.286125, 41.409647], [-8.290092, 41.382649], [-8.288674, 41.364625], [-8.284383, 41.346583], [-8.279614, 41.335269], [-8.272903, 41.325359], [-8.265709, 41.331221], [-8.269004, 41.336169], [-8.265722, 41.337748], [-8.261681, 41.345856], [-8.267468, 41.352673], [-8.273424, 41.364529], [-8.275891, 41.38256], [-8.274351, 41.391558], [-8.270484, 41.400541], [-8.263566, 41.409504], [-8.25478, 41.41698], [-8.24274, 41.423353], [-8.230743, 41.425879], [-8.218777, 41.42578], [-8.206838, 41.423446], [-8.194931, 41.418526], [-8.183051, 41.411625], [-8.170158, 41.399861], [-8.163878, 41.390808], [-8.160281, 41.379466], [-8.152544, 41.375866], [-8.151049, 41.37339], [-8.145073, 41.374742], [-8.139694, 41.377894], [-8.134016, 41.374518], [-8.131598, 41.374743]], [[-8.253267, 41.548908], [-8.241278, 41.548804], [-8.229317, 41.546324], [-8.217387, 41.541394], [-8.208791, 41.535244], [-8.200572, 41.52618], [-8.196338, 41.517143], [-8.194886, 41.508126], [-8.198348, 41.490135], [-8.206176, 41.477704], [-8.21828, 41.467176], [-8.230312, 41.462407], [-8.242304, 41.460871], [-8.254249, 41.463417], [-8.266168, 41.468288], [-8.278031, 41.478416], [-8.286222, 41.490714], [-8.292312, 41.508767], [-8.292632, 41.517776], [-8.29004, 41.526767], [-8.283953, 41.535737], [-8.277335, 41.541069], [-8.269739, 41.544655], [-8.253267, 41.548908]]], [[[-8.447818, 41.258551], [-8.459441, 41.267455], [-8.483213, 41.280749], [-8.507035, 41.288711], [-8.518962, 41.290897], [-8.530897, 41.291953], [-8.55479, 41.291054], [-8.566746, 41.289066], [-8.590678, 41.281697], [-8.602655, 41.27572], [-8.615222, 41.267095], [-8.626655, 41.254771], [-8.633834, 41.240132], [-8.634164, 41.222118], [-8.626296, 41.186851], [-8.621132, 41.178994], [-8.613374, 41.177451], [-8.608583, 41.174095], [-8.609164, 41.172066], [-8.604942, 41.164881], [-8.598689, 41.165231], [-8.607798, 41.176991], [-8.615091, 41.191247], [-8.619593, 41.204055], [-8.62278, 41.222081], [-8.619853, 41.240087], [-8.614549, 41.249077], [-8.602746, 41.260759], [-8.590764, 41.267916], [-8.578794, 41.27275], [-8.566835, 41.27557], [-8.542942, 41.277395], [-8.53101, 41.276193], [-8.507178, 41.269755], [-8.495284, 41.263863], [-8.483411, 41.255628], [-8.47141, 41.24346], [-8.469227, 41.245267], [-8.463258, 41.244384], [-8.459989, 41.246644], [-8.455512, 41.245982], [-8.455541, 41.251834], [-8.447818, 41.258551]]]]}}, {"id": "5", "type": "Feature", "properties": {"fill": "#a3a3a3", "value_min": -1.0, "value_max": -0.75}, "geometry": {"type": "MultiPolygon", "coordinates": [[[[-7.956199, 41.87339], [-7.9724, 41.869398], [-7.976674, 41.866671], [-7.985655, 41.857744], [-7.989151, 41.848768], [-7.988171, 41.839752], [-7.982278, 41.830694], [-7.973114, 41.82476], [-7.961134, 41.82094], [-7.949103, 41.820382], [-7.937021, 41.822846], [-7.924801, 41.83017], [-7.918682, 41.839119], [-7.91744, 41.848114], [-7.920234, 41.857147], [-7.928898, 41.866235], [-7.940406, 41.871789], [-7.951254, 41.871132], [-7.956199, 41.87339]], [[-7.948386, 41.86417], [-7.936395, 41.860689], [-7.931982, 41.857257], [-7.92558, 41.848191], [-7.925614, 41.839184], [-7.931912, 41.830236], [-7.936949, 41.827215], [-7.949041, 41.824158], [-7.961063, 41.825357], [-7.972014, 41.830602], [-7.978576, 41.839668], [-7.978214, 41.848671], [-7.971334, 41.857616], [-7.96045, 41.863206], [-7.948386, 41.86417]]], [[[-7.727036, 41.803938], [-7.732674, 41.804995], [-7.744735, 41.80382], [-7.756891, 41.797687], [-7.761784, 41.792501], [-7.764331, 41.783522], [-7.761578, 41.774485], [-7.750881, 41.765363], [-7.741428, 41.762021], [-7.734779, 41.767731], [-7.726937, 41.771755], [-7.725997, 41.777799], [-7.729316, 41.774133], [-7.733312, 41.772616], [-7.745317, 41.773967], [-7.75162, 41.783384], [-7.744935, 41.793553], [-7.73288, 41.794553], [-7.727149, 41.792123], [-7.723846, 41.78705], [-7.722591, 41.793347], [-7.728879, 41.797871], [-7.727036, 41.803938]]], [[[-8.203409, 41.703168], [-8.215424, 41.703517], [-8.222042, 41.697464], [-8.215622, 41.68726], [-8.202302, 41.688321], [-8.198166, 41.6973], [-8.203409, 41.703168]]], [[[-8.371779, 41.692364], [-8.383804, 41.691558], [-8.395855, 41.687938], [-8.40918, 41.680564], [-8.415815, 41.671591], [-8.415434, 41.662582], [-8.408197, 41.652282], [-8.396273, 41.643163], [-8.384311, 41.638403], [-8.372314, 41.637377], [-8.360284, 41.639707], [-8.351968, 41.644227], [-8.343079, 41.653184], [-8.339928, 41.662173], [-8.340698, 41.671184], [-8.34596, 41.680222], [-8.359015, 41.689302], [-8.371779, 41.692364]], [[-8.383857, 41.686003], [-8.371844, 41.685723], [-8.359879, 41.68064], [-8.352418, 41.671251], [-8.351944, 41.662241], [-8.357371, 41.653265], [-8.37223, 41.645991], [-8.384239, 41.645943], [-8.396206, 41.650327], [-8.407093, 41.662539], [-8.407018, 41.671546], [-8.399079, 41.680512], [-8.383857, 41.686003]]], [[[-8.444935, 41.569563], [-8.456936, 41.568804], [-8.468973, 41.563554], [-8.478349, 41.554798], [-8.481475, 41.545804], [-8.477915, 41.536781], [-8.469241, 41.5308], [-8.457305, 41.524727], [-8.445333, 41.523092], [-8.429416, 41.527543], [-8.41867, 41.536497], [-8.415137, 41.545486], [-8.417195, 41.554504], [-8.426267, 41.563557], [-8.432964, 41.566934], [-8.444935, 41.569563]], [[-8.456989, 41.562468], [-8.444995, 41.562615], [-8.433046, 41.557547], [-8.429463, 41.554565], [-8.425593, 41.545539], [-8.428688, 41.536547], [-8.433261, 41.53295], [-8.445292, 41.527833], [-8.457272, 41.528679], [-8.469208, 41.534805], [-8.472035, 41.536754], [-8.47579, 41.545779], [-8.469028, 41.556887], [-8.456989, 41.562468]]], [[[-8.253267, 41.548908], [-8.269739, 41.544655], [-8.277335, 41.541069], [-8.283953, 41.535737], [-8.29004, 41.526767], [-8.292632, 41.517776], [-8.292312, 41.508767], [-8.286222, 41.490714], [-8.278031, 41.478416], [-8.266168, 41.468288], [-8.254249, 41.463417], [-8.242304, 41.460871], [-8.230312, 41.462407], [-8.21828, 41.467176], [-8.206176, 41.477704], [-8.198348, 41.490135], [-8.194886, 41.508126], [-8.196338, 41.517143], [-8.200572, 41.52618], [-8.208791, 41.535244], [-8.217387, 41.541394], [-8.229317, 41.546324], [-8.241278, 41.548804], [-8.253267, 41.548908]], [[-8.253374, 41.539606], [-8.24138, 41.54005], [-8.229422, 41.537529], [-8.217507, 41.531451], [-8.211629, 41.526256], [-8.205881, 41.51721], [-8.203735, 41.508187], [-8.204948, 41.499188], [-8.209362, 41.490212], [-8.218108, 41.481523], [-8.230157, 41.475445], [-8.242153, 41.473844], [-8.254113, 41.475291], [-8.266027, 41.48083], [-8.276378, 41.490653], [-8.281501, 41.499692], [-8.283561, 41.508712], [-8.282549, 41.517713], [-8.277459, 41.526689], [-8.265406, 41.53576], [-8.253374, 41.539606]]], [[[-8.160281, 41.379466], [-8.163878, 41.390808], [-8.170158, 41.399861], [-8.183051, 41.411625], [-8.194931, 41.418526], [-8.206838, 41.423446], [-8.218777, 41.42578], [-8.230743, 41.425879], [-8.24274, 41.423353], [-8.25478, 41.41698], [-8.263566, 41.409504], [-8.270484, 41.400541], [-8.274351, 41.391558], [-8.275891, 41.38256], [-8.273424, 41.364529], [-8.267468, 41.352673], [-8.261681, 41.345856], [-8.256483, 41.347663], [-8.249625, 41.354536], [-8.249783, 41.354648], [-8.250822, 41.355381], [-8.259037, 41.364438], [-8.262789, 41.373469], [-8.263376, 41.382481], [-8.260829, 41.391472], [-8.254202, 41.400437], [-8.242918, 41.408034], [-8.23091, 41.411709], [-8.21894, 41.412165], [-8.207005, 41.40966], [-8.19511, 41.404046], [-8.18213, 41.390939], [-8.178627, 41.381907], [-8.178599, 41.376759], [-8.168382, 41.377438], [-8.164499, 41.38059], [-8.160281, 41.379466]]], [[[-8.47141, 41.24346], [-8.483411, 41.255628], [-8.495284, 41.263863], [-8.507178, 41.269755], [-8.53101, 41.276193], [-8.542942, 41.277395], [-8.566835, 41.27557], [-8.578794, 41.27275], [-8.590764, 41.267916], [-8.602746, 41.260759], [-8.614549, 41.249077], [-8.619853, 41.240087], [-8.62278, 41.222081], [-8.619593, 41.204055], [-8.615091, 41.191247], [-8.607798, 41.176991], [-8.598689, 41.165231], [-8.59422, 41.165149], [-8.589766, 41.167193], [-8.589194, 41.170572], [-8.584939, 41.173515], [-8.599013, 41.185969], [-8.605325, 41.194999], [-8.612056, 41.213037], [-8.612851, 41.222048], [-8.611668, 41.231052], [-8.607941, 41.240047], [-8.600704, 41.24903], [-8.590834, 41.256566], [-8.578861, 41.262257], [-8.566903, 41.265375], [-8.54302, 41.266263], [-8.531096, 41.264268], [-8.519187, 41.260298], [-8.507298, 41.253869], [-8.500194, 41.248637], [-8.489155, 41.235309], [-8.486181, 41.236888], [-8.484411, 41.240495], [-8.476644, 41.237817], [-8.475756, 41.23917], [-8.471283, 41.239184], [-8.47141, 41.24346]]], [[[-8.489151, 41.235303], [-8.489151, 41.235303], [-8.48875, 41.234629], [-8.489151, 41.235303]]]]}}, {"id": "7", "type": "Feature", "properties": {"fill": "#a3a3a3", "value_min": -0.5, "value_max": -0.25}, "geometry": {"type": "MultiPolygon", "coordinates": [[[[-8.018248, 41.831379], [-8.007403, 41.821907], [-7.997327, 41.81645], [-7.985345, 41.812748], [-7.973334, 41.811004], [-7.961293, 41.811096], [-7.937178, 41.813342], [-7.925093, 41.8161], [-7.912911, 41.824479], [-7.896205, 41.847912], [-7.892408, 41.859096], [-7.900698, 41.861588], [-7.904318, 41.859795], [-7.907309, 41.865203], [-7.906095, 41.868126], [-7.910299, 41.871285], [-7.910285, 41.875562], [-7.915391, 41.879397], [-7.92168, 41.877834], [-7.911471, 41.866071], [-7.908272, 41.857034], [-7.908257, 41.848027], [-7.911254, 41.839049], [-7.916817, 41.830095], [-7.924971, 41.823372], [-7.937098, 41.818177], [-7.96121, 41.816259], [-7.97322, 41.818141], [-7.982838, 41.821692], [-7.99552, 41.83081], [-8.001627, 41.83987], [-8.003763, 41.84937], [-8.007618, 41.843072], [-8.007928, 41.838796], [-8.012753, 41.833624], [-8.013062, 41.829348], [-8.018248, 41.831379]]], [[[-7.73594, 41.823538], [-7.756471, 41.819393], [-7.768594, 41.815125], [-7.78081, 41.805821], [-7.787841, 41.792779], [-7.787236, 41.774759], [-7.783279, 41.765711], [-7.76985, 41.74944], [-7.758682, 41.741476], [-7.757758, 41.745301], [-7.749323, 41.748649], [-7.7475, 41.752005], [-7.757681, 41.756787], [-7.769503, 41.767576], [-7.773736, 41.774616], [-7.775586, 41.783642], [-7.773897, 41.792631], [-7.767641, 41.801571], [-7.756676, 41.808829], [-7.744562, 41.812687], [-7.728177, 41.814004], [-7.72995, 41.819031], [-7.73594, 41.823538]]], [[[-8.215204, 41.721566], [-8.22724, 41.720504], [-8.238828, 41.71559], [-8.250414, 41.706659], [-8.257989, 41.697701], [-8.261673, 41.688718], [-8.262093, 41.679714], [-8.255695, 41.670665], [-8.239922, 41.664396], [-8.227928, 41.662947], [-8.21591, 41.663519], [-8.203862, 41.666458], [-8.191768, 41.673033], [-8.185513, 41.679197], [-8.180901, 41.688171], [-8.180573, 41.697175], [-8.184242, 41.706209], [-8.191268, 41.712926], [-8.203211, 41.719234], [-8.215204, 41.721566]], [[-8.236007, 41.697557], [-8.230002, 41.706524], [-8.215315, 41.71248], [-8.203309, 41.711308], [-8.194906, 41.706284], [-8.188829, 41.697234], [-8.191594, 41.686877], [-8.203714, 41.678459], [-8.215745, 41.677129], [-8.227708, 41.681351], [-8.234984, 41.688544], [-8.236007, 41.697557]]], [[[-8.106944, 41.404677], [-8.151577, 41.435755], [-8.161672, 41.444837], [-8.168354, 41.453893], [-8.173158, 41.471942], [-8.170276, 41.507951], [-8.17211, 41.525979], [-8.179533, 41.544046], [-8.186366, 41.553102], [-8.205066, 41.568514], [-8.216975, 41.575519], [-8.266903, 41.59868], [-8.277999, 41.607758], [-8.282619, 41.616794], [-8.283773, 41.625808], [-8.281444, 41.661822], [-8.284322, 41.670847], [-8.292031, 41.679902], [-8.316937, 41.698067], [-8.335566, 41.708186], [-8.347541, 41.712619], [-8.35955, 41.713797], [-8.371594, 41.711371], [-8.39918, 41.698526], [-8.431913, 41.686784], [-8.443329, 41.680734], [-8.446775, 41.671744], [-8.441545, 41.662712], [-8.420274, 41.644821], [-8.403857, 41.626494], [-8.3993, 41.617463], [-8.398054, 41.608449], [-8.402758, 41.599466], [-8.420742, 41.592513], [-8.456772, 41.588428], [-8.468804, 41.584187], [-8.480895, 41.572438], [-8.50108, 41.545891], [-8.499604, 41.536877], [-8.4623, 41.518694], [-8.457393, 41.514106], [-8.445439, 41.5107], [-8.43345, 41.511314], [-8.409445, 41.515542], [-8.361377, 41.528841], [-8.349397, 41.528228], [-8.337453, 41.524007], [-8.325556, 41.515466], [-8.313725, 41.501009], [-8.307941, 41.48184], [-8.310162, 41.463838], [-8.318136, 41.436863], [-8.318013, 41.427855], [-8.308562, 41.391769], [-8.305969, 41.373738], [-8.306323, 41.355725], [-8.311694, 41.329804], [-8.31139, 41.328007], [-8.307502, 41.325762], [-8.305116, 41.326891], [-8.303024, 41.325994], [-8.303615, 41.323742], [-8.301216, 41.319694], [-8.296431, 41.316774], [-8.297618, 41.313846], [-8.296116, 41.310022], [-8.281801, 41.316569], [-8.281808, 41.319721], [-8.278828, 41.321976], [-8.278238, 41.325128], [-8.272903, 41.325359], [-8.279614, 41.335269], [-8.284383, 41.346583], [-8.288674, 41.364625], [-8.290092, 41.382649], [-8.286125, 41.409647], [-8.275234, 41.436601], [-8.275984, 41.445613], [-8.293554, 41.481752], [-8.306157, 41.517858], [-8.307212, 41.526872], [-8.305796, 41.535871], [-8.300718, 41.544847], [-8.290511, 41.553792], [-8.277126, 41.559829], [-8.253111, 41.562471], [-8.229168, 41.558922], [-8.205328, 41.547116], [-8.193486, 41.535193], [-8.187926, 41.526091], [-8.183969, 41.508049], [-8.186099, 41.490049], [-8.197355, 41.454099], [-8.194944, 41.445075], [-8.186998, 41.436011], [-8.163445, 41.417827], [-8.144899, 41.399676], [-8.138433, 41.39062], [-8.131598, 41.374743], [-8.119672, 41.376768], [-8.119672, 41.378569], [-8.116683, 41.380144], [-8.117578, 41.386447], [-8.113992, 41.386896], [-8.112795, 41.390723], [-8.110105, 41.390947], [-8.108011, 41.393648], [-8.103827, 41.392972], [-8.105321, 41.394998], [-8.10263, 41.396123], [-8.10801, 41.398825], [-8.108606, 41.403102], [-8.106944, 41.404677]], [[-8.383747, 41.697584], [-8.371706, 41.699932], [-8.359692, 41.699492], [-8.347711, 41.695798], [-8.337214, 41.689179], [-8.328545, 41.680121], [-8.324492, 41.67109], [-8.322934, 41.662074], [-8.327886, 41.644089], [-8.336321, 41.634731], [-8.3484, 41.627455], [-8.360436, 41.624351], [-8.372438, 41.624515], [-8.384412, 41.627763], [-8.396357, 41.634166], [-8.418795, 41.653592], [-8.425552, 41.662633], [-8.427044, 41.671647], [-8.421099, 41.680625], [-8.40584, 41.689554], [-8.383747, 41.697584]], [[-8.468907, 41.571656], [-8.456869, 41.576787], [-8.444861, 41.578209], [-8.432872, 41.577476], [-8.420901, 41.57473], [-8.408959, 41.568873], [-8.402313, 41.563435], [-8.398289, 41.554407], [-8.398556, 41.545401], [-8.402632, 41.536415], [-8.412612, 41.527459], [-8.433381, 41.51919], [-8.445375, 41.518183], [-8.457339, 41.520626], [-8.485841, 41.536817], [-8.489624, 41.545841], [-8.486192, 41.554833], [-8.468907, 41.571656]]], [[[-8.423822, 41.295642], [-8.471014, 41.312672], [-8.482939, 41.31553], [-8.506814, 41.318094], [-8.530719, 41.316814], [-8.542681, 41.314781], [-8.566617, 41.308632], [-8.602538, 41.294992], [-8.614518, 41.288813], [-8.631516, 41.276156], [-8.646769, 41.258188], [-8.650879, 41.249193], [-8.652547, 41.24019], [-8.651096, 41.231178], [-8.641346, 41.195339], [-8.638841, 41.196025], [-8.638231, 41.194227], [-8.634946, 41.193341], [-8.632526, 41.188624], [-8.626296, 41.186851], [-8.634164, 41.222118], [-8.633834, 41.240132], [-8.626655, 41.254771], [-8.615222, 41.267095], [-8.602655, 41.27572], [-8.590678, 41.281697], [-8.566746, 41.289066], [-8.55479, 41.291054], [-8.530897, 41.291953], [-8.518962, 41.290897], [-8.507035, 41.288711], [-8.483213, 41.280749], [-8.459441, 41.267455], [-8.447818, 41.258551], [-8.449028, 41.261982], [-8.439785, 41.262907], [-8.438023, 41.268989], [-8.434745, 41.269673], [-8.432691, 41.277107], [-8.427032, 41.279372], [-8.429143, 41.284319], [-8.426171, 41.287028], [-8.426488, 41.291079], [-8.423822, 41.295642]]], [[[-8.620486, 41.546347], [-8.624977, 41.54729], [-8.636981, 41.544758], [-8.645514, 41.53742], [-8.647743, 41.528419], [-8.64319, 41.519398], [-8.637147, 41.515035], [-8.625189, 41.510547], [-8.613198, 41.511891], [-8.602057, 41.519263], [-8.599094, 41.52826], [-8.6029, 41.53728], [-8.613002, 41.544817], [-8.620486, 41.546347]]]]}}, {"id": "4", "type": "Feature", "properties": {"fill": "#b6a27f", "value_min": -1.25, "value_max": -1.0}, "geometry": {"type": "MultiPolygon", "coordinates": [[[[-7.948386, 41.86417], [-7.96045, 41.863206], [-7.971334, 41.857616], [-7.978214, 41.848671], [-7.978576, 41.839668], [-7.972014, 41.830602], [-7.961063, 41.825357], [-7.949041, 41.824158], [-7.936949, 41.827215], [-7.931912, 41.830236], [-7.925614, 41.839184], [-7.92558, 41.848191], [-7.931982, 41.857257], [-7.936395, 41.860689], [-7.948386, 41.86417]], [[-7.970148, 41.839592], [-7.968157, 41.848581], [-7.960588, 41.85468], [-7.94851, 41.856611], [-7.936542, 41.851768], [-7.933482, 41.848264], [-7.931885, 41.839243], [-7.940518, 41.830316], [-7.948981, 41.82784], [-7.962618, 41.830518], [-7.970148, 41.839592]]], [[[-7.723846, 41.78705], [-7.727149, 41.792123], [-7.73288, 41.794553], [-7.744935, 41.793553], [-7.75162, 41.783384], [-7.745317, 41.773967], [-7.733312, 41.772616], [-7.729316, 41.774133], [-7.725997, 41.777799], [-7.727191, 41.779184], [-7.724177, 41.780299], [-7.725372, 41.781653], [-7.723846, 41.78705]]], [[[-8.383857, 41.686003], [-8.399079, 41.680512], [-8.407018, 41.671546], [-8.407093, 41.662539], [-8.396206, 41.650327], [-8.384239, 41.645943], [-8.37223, 41.645991], [-8.357371, 41.653265], [-8.351944, 41.662241], [-8.352418, 41.671251], [-8.359879, 41.68064], [-8.371844, 41.685723], [-8.383857, 41.686003]], [[-8.395977, 41.674872], [-8.383908, 41.680702], [-8.371908, 41.679096], [-8.362627, 41.671308], [-8.362286, 41.662299], [-8.372158, 41.653437], [-8.384179, 41.652263], [-8.39613, 41.658482], [-8.39943, 41.662499], [-8.399213, 41.671505], [-8.395977, 41.674872]]], [[[-8.456989, 41.562468], [-8.469028, 41.556887], [-8.47579, 41.545779], [-8.472035, 41.536754], [-8.469208, 41.534805], [-8.457272, 41.528679], [-8.445292, 41.527833], [-8.433261, 41.53295], [-8.428688, 41.536547], [-8.425593, 41.545539], [-8.429463, 41.554565], [-8.433046, 41.557547], [-8.444995, 41.562615], [-8.456989, 41.562468]], [[-8.469102, 41.547777], [-8.462148, 41.554723], [-8.457032, 41.557297], [-8.445045, 41.556716], [-8.440973, 41.554622], [-8.433995, 41.545581], [-8.43742, 41.53659], [-8.445254, 41.532364], [-8.457242, 41.532241], [-8.465682, 41.536725], [-8.470221, 41.545753], [-8.469102, 41.547777]]], [[[-8.253374, 41.539606], [-8.265406, 41.53576], [-8.277459, 41.526689], [-8.282549, 41.517713], [-8.283561, 41.508712], [-8.281501, 41.499692], [-8.276378, 41.490653], [-8.266027, 41.48083], [-8.254113, 41.475291], [-8.242153, 41.473844], [-8.230157, 41.475445], [-8.218108, 41.481523], [-8.209362, 41.490212], [-8.204948, 41.499188], [-8.203735, 41.508187], [-8.205881, 41.51721], [-8.211629, 41.526256], [-8.217507, 41.531451], [-8.229422, 41.537529], [-8.24138, 41.54005], [-8.253374, 41.539606]], [[-8.273745, 41.517658], [-8.265506, 41.526981], [-8.253459, 41.532262], [-8.241462, 41.533092], [-8.229507, 41.530326], [-8.222734, 41.526332], [-8.214068, 41.517266], [-8.211491, 41.508241], [-8.213225, 41.499245], [-8.220127, 41.490285], [-8.230054, 41.484185], [-8.242058, 41.482016], [-8.254019, 41.483498], [-8.265925, 41.489855], [-8.273609, 41.499643], [-8.275731, 41.508663], [-8.273745, 41.517658]]], [[[-8.178599, 41.376759], [-8.178627, 41.381907], [-8.18213, 41.390939], [-8.19511, 41.404046], [-8.207005, 41.40966], [-8.21894, 41.412165], [-8.23091, 41.411709], [-8.242918, 41.408034], [-8.254202, 41.400437], [-8.260829, 41.391472], [-8.263376, 41.382481], [-8.262789, 41.373469], [-8.259037, 41.364438], [-8.250822, 41.355381], [-8.249635, 41.359825], [-8.248141, 41.360052], [-8.248448, 41.364328], [-8.244651, 41.366133], [-8.25001, 41.373387], [-8.251301, 41.382403], [-8.247427, 41.391385], [-8.243063, 41.395565], [-8.231034, 41.40126], [-8.219063, 41.401855], [-8.207145, 41.398162], [-8.198098, 41.391052], [-8.193843, 41.382014], [-8.194768, 41.374275], [-8.191691, 41.376302], [-8.189299, 41.375403], [-8.178599, 41.376759]]], [[[-8.249783, 41.354648], [-8.249783, 41.354648], [-8.249625, 41.354536], [-8.249783, 41.354648]]], [[[-8.489155, 41.235309], [-8.500194, 41.248637], [-8.507298, 41.253869], [-8.519187, 41.260298], [-8.531096, 41.264268], [-8.54302, 41.266263], [-8.566903, 41.265375], [-8.578861, 41.262257], [-8.590834, 41.256566], [-8.600704, 41.24903], [-8.607941, 41.240047], [-8.611668, 41.231052], [-8.612851, 41.222048], [-8.612056, 41.213037], [-8.605325, 41.194999], [-8.599013, 41.185969], [-8.584939, 41.173515], [-8.582094, 41.177803], [-8.578825, 41.178941], [-8.58065, 41.184435], [-8.591234, 41.192407], [-8.599542, 41.203987], [-8.602929, 41.213006], [-8.603742, 41.222017], [-8.601869, 41.231018], [-8.596692, 41.240008], [-8.590902, 41.24577], [-8.57892, 41.253028], [-8.566961, 41.256611], [-8.555016, 41.257778], [-8.543085, 41.256873], [-8.531171, 41.253707], [-8.519279, 41.247634], [-8.509892, 41.239671], [-8.503697, 41.230637], [-8.501161, 41.222885], [-8.495642, 41.222227], [-8.495947, 41.223351], [-8.490894, 41.226294], [-8.487935, 41.230354], [-8.490331, 41.232373], [-8.48875, 41.234629], [-8.489151, 41.235303], [-8.489155, 41.235309]]], [[[-8.500602, 41.215908], [-8.500602, 41.215908], [-8.500585, 41.215233], [-8.500602, 41.215908]]]]}}, {"id": "9", "type": "Feature", "properties": {"fill": "#a3a3a3", "value_min": 0.0, "value_max": 0.25}, "geometry": {"type": "MultiPolygon", "coordinates": [[[[-7.841283, 41.874733], [-7.842956, 41.872712], [-7.841663, 41.866632], [-7.849515, 41.861475], [-7.853914, 41.862386], [-7.872444, 41.849784], [-7.873066, 41.844875], [-7.875463, 41.847711], [-7.888597, 41.83787], [-7.913131, 41.811474], [-7.925247, 41.80689], [-7.94934, 41.805865], [-7.964289, 41.803512], [-7.985582, 41.797759], [-7.997628, 41.797108], [-8.021648, 41.800618], [-8.045586, 41.809737], [-8.057045, 41.815881], [-8.06664, 41.817012], [-8.072961, 41.813414], [-8.078678, 41.813417], [-8.082892, 41.810493], [-8.091013, 41.812521], [-8.093421, 41.811397], [-8.093723, 41.808471], [-8.101845, 41.809824], [-8.104853, 41.81185], [-8.115984, 41.812302], [-8.123807, 41.808702], [-8.138247, 41.808477], [-8.139751, 41.813203], [-8.14276, 41.812978], [-8.144866, 41.815228], [-8.149078, 41.814777], [-8.153291, 41.817703], [-8.158106, 41.818377], [-8.165326, 41.81815], [-8.173744, 41.808019], [-8.177655, 41.808242], [-8.183676, 41.812741], [-8.190291, 41.809587], [-8.197158, 41.814129], [-8.201063, 41.808724], [-8.204973, 41.807372], [-8.205872, 41.804445], [-8.213692, 41.803765], [-8.217598, 41.80016], [-8.217589, 41.793634], [-8.224207, 41.794303], [-8.229917, 41.791598], [-8.240744, 41.791588], [-8.24074, 41.789338], [-8.244347, 41.787984], [-8.245546, 41.785731], [-8.251257, 41.784375], [-8.251845, 41.777172], [-8.256049, 41.774241], [-8.261762, 41.774235], [-8.271366, 41.766346], [-8.280437, 41.764025], [-8.27485, 41.762978], [-8.27188, 41.760839], [-8.266345, 41.751797], [-8.269507, 41.74281], [-8.275123, 41.738729], [-8.287177, 41.736201], [-8.299153, 41.740706], [-8.301873, 41.743012], [-8.304371, 41.752034], [-8.300378, 41.75861], [-8.30778, 41.758824], [-8.307785, 41.760625], [-8.311096, 41.762195], [-8.318308, 41.761283], [-8.326436, 41.765096], [-8.328234, 41.763292], [-8.336653, 41.763728], [-8.341756, 41.761468], [-8.344765, 41.762363], [-8.349267, 41.760103], [-8.351521, 41.756273], [-8.341266, 41.743244], [-8.331178, 41.734179], [-8.317763, 41.725093], [-8.299404, 41.717614], [-8.287397, 41.716307], [-8.275359, 41.717772], [-8.263285, 41.722358], [-8.239075, 41.736308], [-8.227016, 41.739184], [-8.215022, 41.736592], [-8.203069, 41.730741], [-8.179308, 41.715181], [-8.172309, 41.706123], [-8.169308, 41.697095], [-8.169232, 41.67908], [-8.173236, 41.670102], [-8.197343, 41.643251], [-8.20208, 41.634277], [-8.203471, 41.62528], [-8.20181, 41.616261], [-8.197114, 41.607221], [-8.189664, 41.598162], [-8.160603, 41.570932], [-8.154257, 41.561878], [-8.151237, 41.552848], [-8.150014, 41.51681], [-8.154757, 41.489823], [-8.153757, 41.471801], [-8.146527, 41.459687], [-8.134679, 41.450248], [-8.122778, 41.444922], [-8.098907, 41.439796], [-8.086944, 41.439273], [-8.063424, 41.44098], [-8.063721, 41.442926], [-8.067908, 41.444279], [-8.069999, 41.447206], [-8.068788, 41.462286], [-8.073872, 41.46499], [-8.074468, 41.468141], [-8.073564, 41.474668], [-8.066374, 41.482318], [-8.066069, 41.48817], [-8.072054, 41.490199], [-8.07175, 41.494925], [-8.078333, 41.49898], [-8.078332, 41.500331], [-8.093, 41.504613], [-8.089398, 41.519468], [-8.090594, 41.522169], [-8.092992, 41.522395], [-8.097836, 41.517095], [-8.109821, 41.517008], [-8.116776, 41.525567], [-8.11257, 41.534542], [-8.109553, 41.536548], [-8.097775, 41.536295], [-8.097774, 41.537927], [-8.106759, 41.543557], [-8.101666, 41.542655], [-8.094175, 41.544904], [-8.087885, 41.542876], [-8.083389, 41.5449], [-8.080687, 41.551651], [-8.074097, 41.549848], [-8.073494, 41.553449], [-8.075891, 41.554575], [-8.076188, 41.557276], [-8.079783, 41.558403], [-8.081576, 41.565157], [-8.078879, 41.56493], [-8.075279, 41.568305], [-8.073182, 41.568079], [-8.069283, 41.570553], [-8.068081, 41.573478], [-8.056684, 41.579549], [-8.052181, 41.584498], [-8.052777, 41.587649], [-8.048277, 41.590122], [-8.047974, 41.592373], [-8.031467, 41.602938], [-8.02367, 41.603156], [-8.019174, 41.601802], [-8.015872, 41.603824], [-8.013474, 41.603372], [-8.005971, 41.60629], [-8.003562, 41.611239], [-7.998761, 41.612809], [-7.999669, 41.608759], [-7.996976, 41.605829], [-7.996684, 41.602003], [-7.984685, 41.603564], [-7.982292, 41.60086], [-7.975689, 41.603552], [-7.974482, 41.606701], [-7.970882, 41.607147], [-7.969091, 41.603768], [-7.965796, 41.602413], [-7.9541, 41.602846], [-7.952606, 41.600592], [-7.947808, 41.60081], [-7.945413, 41.599456], [-7.942725, 41.595625], [-7.936132, 41.594488], [-7.93791, 41.601694], [-7.937004, 41.603718], [-7.931604, 41.604384], [-7.930979, 41.612711], [-7.925556, 41.620354], [-7.920755, 41.620796], [-7.917748, 41.623041], [-7.915933, 41.627764], [-7.913229, 41.628885], [-7.912613, 41.63361], [-7.906014, 41.633147], [-7.906884, 41.641927], [-7.897869, 41.645511], [-7.89696, 41.647985], [-7.892759, 41.647976], [-7.892145, 41.651576], [-7.902319, 41.659925], [-7.899913, 41.66127], [-7.900198, 41.665547], [-7.898396, 41.665769], [-7.896885, 41.668692], [-7.883969, 41.67069], [-7.877043, 41.676344], [-7.903274, 41.683413], [-7.915202, 41.688632], [-7.924394, 41.695063], [-7.93224, 41.704143], [-7.938625, 41.725665], [-7.943492, 41.731268], [-7.950521, 41.733448], [-7.962422, 41.741103], [-7.969466, 41.749518], [-7.971067, 41.758539], [-7.966904, 41.767509], [-7.954358, 41.776402], [-7.954407, 41.785409], [-7.951336, 41.794388], [-7.935412, 41.794242], [-7.93014, 41.776179], [-7.913909, 41.765426], [-7.901875, 41.765596], [-7.891262, 41.77581], [-7.885843, 41.784765], [-7.889444, 41.788845], [-7.895146, 41.802868], [-7.894888, 41.811872], [-7.890259, 41.820835], [-7.876688, 41.830126], [-7.86461, 41.832142], [-7.852491, 41.82947], [-7.841723, 41.820355], [-7.839017, 41.811321], [-7.841083, 41.801178], [-7.849586, 41.784407], [-7.837041, 41.766267], [-7.834654, 41.757236], [-7.836775, 41.739244], [-7.832672, 41.730196], [-7.820417, 41.712626], [-7.815291, 41.718689], [-7.808986, 41.717996], [-7.808396, 41.715744], [-7.804499, 41.714158], [-7.79939, 41.714593], [-7.79788, 41.716164], [-7.796383, 41.71526], [-7.790966, 41.717044], [-7.789449, 41.719966], [-7.78464, 41.720402], [-7.78252, 41.723546], [-7.775626, 41.725326], [-7.793937, 41.747678], [-7.803245, 41.76592], [-7.807736, 41.783981], [-7.808004, 41.79299], [-7.804183, 41.810964], [-7.799486, 41.819922], [-7.792475, 41.82566], [-7.781568, 41.82874], [-7.742497, 41.833931], [-7.74729, 41.837772], [-7.746349, 41.84407], [-7.750541, 41.847685], [-7.750532, 41.849261], [-7.743309, 41.849012], [-7.746002, 41.851647], [-7.75592, 41.847872], [-7.767913, 41.850614], [-7.774479, 41.855684], [-7.775751, 41.864705], [-7.768082, 41.873629], [-7.755369, 41.876281], [-7.7434, 41.872079], [-7.73826, 41.864299], [-7.739493, 41.858677], [-7.735698, 41.86294], [-7.734159, 41.868337], [-7.730228, 41.871024], [-7.729293, 41.875972], [-7.722351, 41.878424], [-7.720523, 41.881793], [-7.725335, 41.882935], [-7.726208, 41.887665], [-7.737044, 41.888828], [-7.737935, 41.890857], [-7.74246, 41.889747], [-7.742785, 41.885922], [-7.756022, 41.888441], [-7.758719, 41.890926], [-7.756592, 41.89407], [-7.758376, 41.898127], [-7.764097, 41.898595], [-7.779227, 41.886264], [-7.785257, 41.885157], [-7.788886, 41.882467], [-7.794007, 41.882257], [-7.796739, 41.878214], [-7.794349, 41.87438], [-7.797064, 41.873488], [-7.803381, 41.874857], [-7.804914, 41.869459], [-7.813032, 41.871958], [-7.814229, 41.873537], [-7.823863, 41.874013], [-7.825059, 41.875817], [-7.830479, 41.875831], [-7.830789, 41.874031], [-7.832894, 41.874712], [-7.83772, 41.872924], [-7.841283, 41.874733]], [[-8.188907, 41.751277], [-8.178635, 41.760993], [-8.166574, 41.763441], [-8.152769, 41.760023], [-8.141043, 41.750929], [-8.130798, 41.740115], [-8.094895, 41.727707], [-8.082919, 41.724412], [-8.058854, 41.725752], [-8.046854, 41.724151], [-8.034915, 41.718594], [-8.011193, 41.697591], [-7.992535, 41.686674], [-7.98262, 41.677579], [-7.977997, 41.668531], [-7.977052, 41.659516], [-7.979018, 41.650526], [-7.984893, 41.641571], [-7.996396, 41.632665], [-8.012283, 41.626298], [-8.048356, 41.622282], [-8.064504, 41.606218], [-8.072663, 41.601371], [-8.084712, 41.597885], [-8.096702, 41.598565], [-8.144547, 41.610107], [-8.156452, 41.617562], [-8.162312, 41.624987], [-8.164344, 41.634009], [-8.161618, 41.642996], [-8.156031, 41.649862], [-8.143901, 41.658982], [-8.138255, 41.660838], [-8.128946, 41.669775], [-8.132121, 41.678806], [-8.143486, 41.690263], [-8.154589, 41.705994], [-8.156326, 41.724021], [-8.181361, 41.733209], [-8.189239, 41.742272], [-8.188907, 41.751277]], [[-8.122067, 41.497636], [-8.110057, 41.499796], [-8.098142, 41.495061], [-8.092744, 41.489351], [-8.091036, 41.48033], [-8.096561, 41.471366], [-8.110521, 41.465904], [-8.122478, 41.467202], [-8.129607, 41.471621], [-8.135273, 41.480671], [-8.132609, 41.489658], [-8.122067, 41.497636]]], [[[-8.093898, 41.533424], [-8.093898, 41.533424], [-8.093882, 41.533388], [-8.093898, 41.533424]]], [[[-8.093696, 41.532974], [-8.092182, 41.529597], [-8.091786, 41.531848], [-8.093696, 41.532974]]], [[[-8.446824, 41.704508], [-8.431798, 41.699927], [-8.41978, 41.699814], [-8.407734, 41.702832], [-8.397709, 41.707526], [-8.388179, 41.716482], [-8.383636, 41.730998], [-8.385523, 41.730319], [-8.387332, 41.73189], [-8.393033, 41.729852], [-8.396942, 41.730518], [-8.400531, 41.726683], [-8.402934, 41.726452], [-8.404721, 41.722847], [-8.413744, 41.725076], [-8.417948, 41.724594], [-8.408983, 41.716591], [-8.419658, 41.713362], [-8.425417, 41.716675], [-8.422989, 41.720551], [-8.429643, 41.719859], [-8.430533, 41.717381], [-8.436526, 41.714214], [-8.441333, 41.714201], [-8.441618, 41.711049], [-8.446824, 41.704508]]], [[[-8.547031, 41.614662], [-8.558764, 41.609178], [-8.568492, 41.600208], [-8.57282, 41.591217], [-8.573539, 41.582212], [-8.571432, 41.573197], [-8.566116, 41.56417], [-8.553005, 41.551836], [-8.541046, 41.547397], [-8.529057, 41.547155], [-8.517047, 41.549937], [-8.505002, 41.557091], [-8.498003, 41.563892], [-8.491507, 41.572871], [-8.488752, 41.581866], [-8.489851, 41.599886], [-8.480605, 41.608657], [-8.456644, 41.603695], [-8.444645, 41.603462], [-8.432623, 41.605958], [-8.427471, 41.608599], [-8.420539, 41.615165], [-8.418313, 41.626568], [-8.423196, 41.635599], [-8.432293, 41.64361], [-8.444254, 41.649055], [-8.456247, 41.650897], [-8.468265, 41.649799], [-8.48059, 41.64488], [-8.490623, 41.635918], [-8.499615, 41.617943], [-8.504544, 41.61691], [-8.528541, 41.618151], [-8.542242, 41.616227], [-8.543431, 41.61462], [-8.547031, 41.614662]], [[-8.456415, 41.630964], [-8.444363, 41.636369], [-8.433033, 41.626641], [-8.444527, 41.617233], [-8.456481, 41.62305], [-8.458952, 41.626766], [-8.456415, 41.630964]], [[-8.537727, 41.573066], [-8.536203, 41.582067], [-8.528762, 41.587872], [-8.516752, 41.589475], [-8.504118, 41.581934], [-8.503332, 41.572923], [-8.51695, 41.562915], [-8.528933, 41.564256], [-8.537727, 41.573066]]], [[[-8.80331, 41.236129], [-8.782362, 41.222493], [-8.77366, 41.213468], [-8.75892, 41.186415], [-8.751481, 41.177391], [-8.738991, 41.168355], [-8.722539, 41.16204], [-8.710627, 41.160242], [-8.698706, 41.160543], [-8.686775, 41.163054], [-8.674827, 41.168691], [-8.665503, 41.177173], [-8.660133, 41.186165], [-8.658452, 41.195168], [-8.659641, 41.20418], [-8.663857, 41.2132], [-8.674549, 41.224816], [-8.684303, 41.231274], [-8.692626, 41.240304], [-8.68965, 41.249304], [-8.664961, 41.276258], [-8.650309, 41.295834], [-8.638308, 41.306116], [-8.602376, 41.321745], [-8.586955, 41.330051], [-8.574729, 41.339014], [-8.558365, 41.356968], [-8.538933, 41.383915], [-8.500636, 41.410778], [-8.479024, 41.428697], [-8.470032, 41.433752], [-8.434123, 41.433985], [-8.422136, 41.435934], [-8.410131, 41.439883], [-8.398089, 41.447647], [-8.38355, 41.464255], [-8.378888, 41.473237], [-8.378765, 41.482244], [-8.38574, 41.487605], [-8.387699, 41.491299], [-8.403628, 41.50039], [-8.409568, 41.501964], [-8.421539, 41.503175], [-8.457532, 41.497568], [-8.460641, 41.500672], [-8.46433, 41.509696], [-8.472861, 41.518743], [-8.481294, 41.522484], [-8.493273, 41.523312], [-8.507908, 41.518898], [-8.51638, 41.509927], [-8.517369, 41.506545], [-8.523406, 41.500949], [-8.529414, 41.497998], [-8.553382, 41.497091], [-8.601378, 41.485136], [-8.613349, 41.486412], [-8.673102, 41.514623], [-8.685066, 41.518791], [-8.697034, 41.522411], [-8.720992, 41.525344], [-8.744975, 41.522686], [-8.768978, 41.513637], [-8.786632, 41.501738], [-8.804086, 41.481208], [-8.798552, 41.474753], [-8.7983, 41.468544], [-8.801548, 41.4468], [-8.806115, 41.43713], [-8.807354, 41.425915], [-8.811211, 41.415789], [-8.80331, 41.236129]], [[-8.685212, 41.488544], [-8.675923, 41.492472], [-8.667439, 41.492448], [-8.661238, 41.49164], [-8.649299, 41.483968], [-8.646035, 41.474369], [-8.650498, 41.465376], [-8.661407, 41.459167], [-8.673384, 41.458473], [-8.685336, 41.462944], [-8.688509, 41.465485], [-8.693313, 41.474505], [-8.691223, 41.483507], [-8.685212, 41.488544]], [[-8.433635, 41.490035], [-8.42164, 41.491868], [-8.410868, 41.482413], [-8.415341, 41.473428], [-8.421836, 41.469763], [-8.433802, 41.470904], [-8.43738, 41.473538], [-8.440656, 41.482561], [-8.433635, 41.490035]], [[-8.553668, 41.455459], [-8.554187, 41.456035], [-8.55366, 41.456517], [-8.552493, 41.456029], [-8.553668, 41.455459]], [[-8.64989, 41.374014], [-8.637907, 41.378528], [-8.625953, 41.377696], [-8.614042, 41.369653], [-8.611735, 41.366168], [-8.611628, 41.35716], [-8.620059, 41.348181], [-8.626138, 41.345389], [-8.638095, 41.344562], [-8.650026, 41.348722], [-8.656781, 41.357304], [-8.656434, 41.36631], [-8.64989, 41.374014]], [[-8.733861, 41.309506], [-8.721893, 41.314403], [-8.709949, 41.313782], [-8.698036, 41.3064], [-8.695863, 41.303367], [-8.694662, 41.294356], [-8.700116, 41.285363], [-8.710097, 41.280284], [-8.722042, 41.279481], [-8.733965, 41.283844], [-8.741267, 41.294471], [-8.739601, 41.303475], [-8.733861, 41.309506]]], [[[-8.349679, 41.500071], [-8.36457, 41.491174], [-8.368283, 41.482187], [-8.355857, 41.47311], [-8.349965, 41.47147], [-8.337979, 41.472445], [-8.326633, 41.48195], [-8.326928, 41.49096], [-8.337702, 41.499623], [-8.349679, 41.500071]]], [[[-8.374494, 41.41143], [-8.386464, 41.410829], [-8.398453, 41.408257], [-8.410998, 41.401346], [-8.419546, 41.392382], [-8.422842, 41.383391], [-8.423559, 41.374387], [-8.421462, 41.365369], [-8.41655, 41.356336], [-8.407327, 41.347282], [-8.399063, 41.342034], [-8.387156, 41.337186], [-8.375226, 41.334891], [-8.363274, 41.335061], [-8.351293, 41.338021], [-8.336364, 41.346894], [-8.327175, 41.358961], [-8.324154, 41.373846], [-8.326907, 41.384948], [-8.338719, 41.399598], [-8.350612, 41.406552], [-8.374494, 41.41143]], [[-8.374794, 41.380039], [-8.370746, 41.383118], [-8.362785, 41.385203], [-8.354891, 41.38303], [-8.350873, 41.38033], [-8.347829, 41.373983], [-8.35101, 41.366523], [-8.363009, 41.362215], [-8.37267, 41.365113], [-8.378077, 41.37415], [-8.374794, 41.380039]]]]}}]}