{"type": "FeatureCollection", "features": [{"id": "7", "type": "Feature", "properties": {"fill": "#a3a3a3", "value_min": 0.0, "value_max": -0.25}, "geometry": {"type": "MultiPolygon", "coordinates": [[[[-7.888561, 41.811811], [-7.882741, 41.802748], [-7.877247, 41.79817], [-7.865249, 41.795987], [-7.853148, 41.799574], [-7.849192, 41.802417], [-7.844647, 41.811378], [-7.84731, 41.820412], [-7.852695, 41.825006], [-7.864662, 41.829216], [-7.876732, 41.827645], [-7.885291, 41.820786], [-7.888561, 41.811811]]], [[[-8.287876, 41.742926], [-8.286073, 41.742914], [-8.280262, 41.751885], [-8.286974, 41.754547], [-8.291621, 41.751956], [-8.287876, 41.742926]]], [[[-7.815291, 41.718609], [-7.830261, 41.734334], [-7.842159, 41.741374], [-7.854098, 41.746248], [-7.866095, 41.747956], [-7.890158, 41.747463], [-7.902231, 41.74475], [-7.928543, 41.73113], [-7.94804, 41.713296], [-7.950947, 41.70729], [-7.963156, 41.695474], [-7.975137, 41.697764], [-7.983283, 41.704606], [-7.987125, 41.713647], [-7.987202, 41.731662], [-7.991948, 41.74071], [-7.998425, 41.745933], [-8.010383, 41.750409], [-8.02242, 41.749781], [-8.038799, 41.741112], [-8.046702, 41.734429], [-8.058801, 41.729357], [-8.070937, 41.721524], [-8.081866, 41.705436], [-8.113363, 41.678663], [-8.111633, 41.669642], [-8.095853, 41.659366], [-8.071898, 41.654714], [-8.062051, 41.651234], [-8.036174, 41.634259], [-8.024229, 41.630161], [-8.012247, 41.628672], [-8.000228, 41.629558], [-7.988838, 41.632599], [-7.976068, 41.639047], [-7.962531, 41.650379], [-7.951669, 41.662796], [-7.939631, 41.664417], [-7.898731, 41.656155], [-7.902319, 41.66015], [-7.899913, 41.66127], [-7.900198, 41.665547], [-7.898396, 41.665769], [-7.897186, 41.668467], [-7.892682, 41.668683], [-7.892377, 41.670033], [-7.888171, 41.670925], [-7.883969, 41.67069], [-7.880358, 41.673159], [-7.877044, 41.676077], [-7.876723, 41.681253], [-7.873401, 41.686198], [-7.868896, 41.686413], [-7.867408, 41.683258], [-7.864403, 41.683701], [-7.864096, 41.685276], [-7.860493, 41.685268], [-7.857773, 41.689538], [-7.854776, 41.68818], [-7.847538, 41.695365], [-7.837309, 41.699391], [-7.835792, 41.702763], [-7.839682, 41.705924], [-7.838465, 41.709522], [-7.832453, 41.710407], [-7.825252, 41.708813], [-7.818621, 41.713522], [-7.815291, 41.718609]], [[-7.889106, 41.730755], [-7.876851, 41.721629], [-7.877329, 41.712627], [-7.884613, 41.703691], [-7.890987, 41.699278], [-7.903011, 41.698927], [-7.914896, 41.706818], [-7.918159, 41.713019], [-7.915822, 41.722003], [-7.902467, 41.730868], [-7.889106, 41.730755]], [[-8.083387, 41.691451], [-8.073873, 41.687358], [-8.067699, 41.678301], [-8.073894, 41.669344], [-8.083756, 41.66544], [-8.095749, 41.666771], [-8.100016, 41.669552], [-8.104543, 41.678594], [-8.095439, 41.688905], [-8.083387, 41.691451]], [[-8.015386, 41.668858], [-8.008449, 41.659791], [-8.011857, 41.654183], [-8.016072, 41.65085], [-8.02395, 41.648674], [-8.031306, 41.650979], [-8.03588, 41.653985], [-8.039699, 41.660057], [-8.035682, 41.667238], [-8.023602, 41.67175], [-8.015386, 41.668858]]], [[[-8.1487, 41.705951], [-8.143324, 41.702474], [-8.131286, 41.703913], [-8.125328, 41.714782], [-8.131068, 41.720108], [-8.14312, 41.717864], [-8.147313, 41.714948], [-8.1487, 41.705951]]], [[[-8.227423, 41.705205], [-8.233711, 41.697542], [-8.23187, 41.688523], [-8.227667, 41.684759], [-8.215714, 41.679617], [-8.203689, 41.680479], [-8.192017, 41.688249], [-8.1899, 41.697242], [-8.198316, 41.706308], [-8.203341, 41.708734], [-8.215346, 41.709915], [-8.227423, 41.705205]]], [[[-8.383826, 41.689298], [-8.395873, 41.685941], [-8.407838, 41.680557], [-8.420028, 41.672244], [-8.432092, 41.666479], [-8.468173, 41.660973], [-8.483453, 41.6539], [-8.492257, 41.644932], [-8.496305, 41.635943], [-8.495957, 41.626934], [-8.491476, 41.617907], [-8.482891, 41.608862], [-8.468667, 41.600934], [-8.456695, 41.597515], [-8.444705, 41.596463], [-8.432696, 41.597605], [-8.420665, 41.601135], [-8.408604, 41.607837], [-8.388739, 41.626414], [-8.35578, 41.644249], [-8.347804, 41.653211], [-8.344315, 41.662198], [-8.34495, 41.671209], [-8.350326, 41.680246], [-8.359818, 41.686792], [-8.371804, 41.689851], [-8.383826, 41.689298]]], [[[-8.684823, 41.568865], [-8.699512, 41.555588], [-8.709105, 41.537598], [-8.714715, 41.501583], [-8.713829, 41.483565], [-8.710154, 41.474549], [-8.702905, 41.465523], [-8.697316, 41.461792], [-8.685369, 41.456083], [-8.673406, 41.454165], [-8.661429, 41.454905], [-8.649434, 41.459027], [-8.63995, 41.465343], [-8.622245, 41.483301], [-8.601323, 41.494195], [-8.579553, 41.510175], [-8.572646, 41.519157], [-8.569619, 41.528153], [-8.569952, 41.537162], [-8.573318, 41.546182], [-8.579365, 41.555212], [-8.588145, 41.564251], [-8.600839, 41.573026], [-8.612801, 41.578449], [-8.624781, 41.581185], [-8.648771, 41.581687], [-8.660778, 41.57958], [-8.672796, 41.575413], [-8.684823, 41.568865]], [[-8.617006, 41.528321], [-8.624461, 41.519338], [-8.62569, 41.519342], [-8.631491, 41.528368], [-8.625064, 41.532213], [-8.617006, 41.528321]]], [[[-8.505228, 41.527345], [-8.514599, 41.518927], [-8.515258, 41.509922], [-8.510053, 41.500893], [-8.493524, 41.491172], [-8.481557, 41.489586], [-8.469553, 41.492645], [-8.459949, 41.500668], [-8.458045, 41.509667], [-8.46259, 41.518696], [-8.481243, 41.528961], [-8.493216, 41.530622], [-8.505228, 41.527345]]], [[[-8.134055, 41.497102], [-8.149364, 41.489783], [-8.155792, 41.480823], [-8.157296, 41.471827], [-8.155626, 41.462807], [-8.150033, 41.453759], [-8.146653, 41.450101], [-8.134776, 41.442932], [-8.122848, 41.439738], [-8.110878, 41.439733], [-8.098866, 41.442782], [-8.086801, 41.449524], [-8.077536, 41.462208], [-8.076403, 41.471206], [-8.079011, 41.480234], [-8.087678, 41.489311], [-8.11008, 41.498133], [-8.122049, 41.499018], [-8.134055, 41.497102]], [[-8.110177, 41.491056], [-8.105907, 41.489454], [-8.098643, 41.48039], [-8.103014, 41.471417], [-8.110506, 41.466994], [-8.122478, 41.467239], [-8.129502, 41.47162], [-8.133986, 41.480661], [-8.12714, 41.489617], [-8.122153, 41.491335], [-8.110177, 41.491056]]], [[[-8.421738, 41.480841], [-8.421711, 41.483789], [-8.430243, 41.48251], [-8.421738, 41.480841]]], [[[-8.153566, 41.375866], [-8.157059, 41.390758], [-8.162751, 41.399807], [-8.173142, 41.40889], [-8.183018, 41.414258], [-8.206879, 41.420073], [-8.218843, 41.420244], [-8.230831, 41.418427], [-8.242839, 41.414874], [-8.254883, 41.407973], [-8.262882, 41.400492], [-8.268416, 41.39152], [-8.270937, 41.382529], [-8.270984, 41.373522], [-8.267375, 41.361017], [-8.258177, 41.347661], [-8.249622, 41.353072], [-8.251123, 41.356897], [-8.248141, 41.360052], [-8.248448, 41.364328], [-8.245461, 41.364781], [-8.244272, 41.368384], [-8.241287, 41.370413], [-8.235497, 41.370643], [-8.239066, 41.373315], [-8.241928, 41.382341], [-8.234877, 41.391302], [-8.231127, 41.393343], [-8.219154, 41.394246], [-8.211042, 41.391141], [-8.204118, 41.382086], [-8.205462, 41.376744], [-8.199163, 41.377423], [-8.194677, 41.374275], [-8.191691, 41.376302], [-8.189299, 41.375403], [-8.184818, 41.376756], [-8.168382, 41.377438], [-8.1642, 41.38059], [-8.153566, 41.375866]]], [[[-8.489738, 41.232896], [-8.503933, 41.248654], [-8.519613, 41.257728], [-8.543036, 41.263958], [-8.566914, 41.263724], [-8.589092, 41.257997], [-8.606938, 41.249051], [-8.618527, 41.240082], [-8.634599, 41.222119], [-8.638809, 41.215185], [-8.650764, 41.210348], [-8.655906, 41.213177], [-8.67458, 41.218728], [-8.686501, 41.220461], [-8.698437, 41.219312], [-8.713164, 41.213333], [-8.721703, 41.204347], [-8.724375, 41.195345], [-8.722439, 41.185644], [-8.71057, 41.173144], [-8.698671, 41.168237], [-8.686758, 41.166649], [-8.671833, 41.168184], [-8.655052, 41.173478], [-8.655366, 41.175467], [-8.647955, 41.180228], [-8.647696, 41.185181], [-8.640035, 41.196245], [-8.634946, 41.193341], [-8.632526, 41.188624], [-8.625658, 41.186628], [-8.621132, 41.178994], [-8.613374, 41.177451], [-8.608583, 41.174095], [-8.609164, 41.172066], [-8.604942, 41.164881], [-8.59422, 41.165149], [-8.589174, 41.167645], [-8.589194, 41.170572], [-8.583263, 41.174422], [-8.582094, 41.177803], [-8.578825, 41.178941], [-8.581296, 41.191762], [-8.575958, 41.195609], [-8.576894, 41.201908], [-8.574515, 41.202593], [-8.57423, 41.20462], [-8.567971, 41.204644], [-8.565895, 41.206227], [-8.567697, 41.208246], [-8.566512, 41.209376], [-8.559636, 41.206251], [-8.554271, 41.20627], [-8.549521, 41.209214], [-8.544157, 41.209458], [-8.54238, 41.211265], [-8.532257, 41.213102], [-8.52653, 41.202542], [-8.523236, 41.200077], [-8.518471, 41.200543], [-8.51163, 41.203042], [-8.510456, 41.206197], [-8.505693, 41.207113], [-8.504239, 41.213646], [-8.500076, 41.21546], [-8.50308, 41.219502], [-8.502204, 41.222656], [-8.495642, 41.222227], [-8.48801, 41.230354], [-8.488105, 41.230579], [-8.488235, 41.230764], [-8.488263, 41.230804], [-8.489738, 41.232896]]]]}}, {"id": "6", "type": "Feature", "properties": {"fill": "#a3a3a3", "value_min": -0.25, "value_max": -0.0}, "geometry": {"type": "MultiPolygon", "coordinates": [[[[-8.439618, 41.714431], [-8.441632, 41.713975], [-8.4446, 41.70654], [-8.453868, 41.697961], [-8.453255, 41.695487], [-8.461659, 41.694563], [-8.467939, 41.689593], [-8.478124, 41.685061], [-8.482012, 41.682123], [-8.484371, 41.674238], [-8.49308, 41.674886], [-8.499963, 41.671038], [-8.50927, 41.671233], [-8.51018, 41.672806], [-8.511967, 41.670324], [-8.509856, 41.668755], [-8.522103, 41.658811], [-8.525706, 41.659023], [-8.527769, 41.652714], [-8.534066, 41.652017], [-8.537355, 41.64998], [-8.537634, 41.646602], [-8.543876, 41.637352], [-8.543855, 41.633976], [-8.536342, 41.631977], [-8.535128, 41.62973], [-8.543431, 41.61462], [-8.554533, 41.615255], [-8.557244, 41.617046], [-8.562639, 41.61635], [-8.568056, 41.619031], [-8.570735, 41.616095], [-8.577321, 41.614269], [-8.581231, 41.615829], [-8.585766, 41.620988], [-8.591462, 41.620515], [-8.596534, 41.616668], [-8.601628, 41.615972], [-8.603996, 41.611686], [-8.613256, 41.606696], [-8.619881, 41.610269], [-8.621338, 41.604636], [-8.628833, 41.604378], [-8.636302, 41.600744], [-8.64075, 41.594422], [-8.645536, 41.593051], [-8.646744, 41.594171], [-8.649125, 41.591909], [-8.656622, 41.5921], [-8.660788, 41.588255], [-8.663794, 41.589141], [-8.665265, 41.585758], [-8.66948, 41.587989], [-8.684455, 41.586117], [-8.685608, 41.58071], [-8.697261, 41.576376], [-8.701703, 41.570277], [-8.707704, 41.570923], [-8.712485, 41.569323], [-8.716422, 41.573805], [-8.720316, 41.57356], [-8.725151, 41.577811], [-8.726633, 41.576003], [-8.734424, 41.575737], [-8.736564, 41.580228], [-8.738354, 41.579318], [-8.740778, 41.582006], [-8.74467, 41.581535], [-8.750711, 41.58623], [-8.756374, 41.582823], [-8.75635, 41.580347], [-8.762327, 41.578514], [-8.764443, 41.580303], [-8.767441, 41.580286], [-8.769874, 41.583874], [-8.768997, 41.58613], [-8.773228, 41.589482], [-8.775371, 41.593972], [-8.78556, 41.593464], [-8.797327, 41.600599], [-8.804218, 41.600109], [-8.80456, 41.604158], [-8.809434, 41.611332], [-8.828644, 41.609656], [-8.82839, 41.585633], [-8.818497, 41.554794], [-8.8221, 41.547542], [-8.821965, 41.534907], [-8.815926, 41.525624], [-8.81063, 41.5101], [-8.813279, 41.503483], [-8.812636, 41.496944], [-8.804699, 41.482068], [-8.798552, 41.474753], [-8.80154, 41.446836], [-8.806115, 41.43713], [-8.807354, 41.425915], [-8.811211, 41.415789], [-8.799695, 41.14406], [-8.67527, 41.147484], [-8.676193, 41.146567], [-8.674793, 41.146932], [-8.674204, 41.147693], [-8.674849, 41.153767], [-8.672489, 41.15648], [-8.66117, 41.156307], [-8.662078, 41.158104], [-8.660313, 41.160813], [-8.657033, 41.160378], [-8.654961, 41.161963], [-8.653222, 41.168049], [-8.655052, 41.173478], [-8.671833, 41.168184], [-8.686758, 41.166649], [-8.698671, 41.168237], [-8.71057, 41.173144], [-8.722439, 41.185644], [-8.724375, 41.195345], [-8.721703, 41.204347], [-8.713164, 41.213333], [-8.698437, 41.219312], [-8.686501, 41.220461], [-8.67458, 41.218728], [-8.655906, 41.213177], [-8.650764, 41.210348], [-8.638809, 41.215185], [-8.634599, 41.222119], [-8.618527, 41.240082], [-8.606938, 41.249051], [-8.589092, 41.257997], [-8.566914, 41.263724], [-8.543036, 41.263958], [-8.519613, 41.257728], [-8.503933, 41.248654], [-8.489738, 41.232896], [-8.484411, 41.240495], [-8.476346, 41.237818], [-8.475756, 41.23917], [-8.470986, 41.23941], [-8.471604, 41.243459], [-8.469227, 41.245267], [-8.463258, 41.244384], [-8.459989, 41.246644], [-8.454323, 41.246886], [-8.455541, 41.251834], [-8.452276, 41.25522], [-8.449891, 41.255452], [-8.449304, 41.257479], [-8.447812, 41.257258], [-8.449028, 41.261982], [-8.439785, 41.262907], [-8.438023, 41.268989], [-8.434745, 41.269673], [-8.432691, 41.277107], [-8.427032, 41.279372], [-8.429143, 41.284319], [-8.426171, 41.287028], [-8.426488, 41.291079], [-8.425013, 41.294909], [-8.422037, 41.296942], [-8.422647, 41.299867], [-8.407744, 41.304856], [-8.407337, 41.306207], [-8.435125, 41.318306], [-8.470805, 41.338525], [-8.482729, 41.342015], [-8.494702, 41.339347], [-8.548729, 41.311892], [-8.57377, 41.30298], [-8.590574, 41.298342], [-8.614486, 41.294281], [-8.638369, 41.295029], [-8.650295, 41.298346], [-8.662206, 41.30486], [-8.686014, 41.322128], [-8.729095, 41.348489], [-8.738085, 41.357517], [-8.742449, 41.366535], [-8.7428, 41.375543], [-8.739438, 41.384543], [-8.731559, 41.393533], [-8.718195, 41.402508], [-8.695057, 41.411457], [-8.661615, 41.419004], [-8.600621, 41.429183], [-8.590091, 41.438154], [-8.585254, 41.456151], [-8.579824, 41.465139], [-8.565509, 41.475188], [-8.553514, 41.477786], [-8.541546, 41.476511], [-8.529611, 41.470772], [-8.522445, 41.464915], [-8.516866, 41.455884], [-8.51455, 41.446867], [-8.518901, 41.419863], [-8.518054, 41.414158], [-8.517378, 41.410849], [-8.506219, 41.396838], [-8.494321, 41.388523], [-8.48238, 41.386083], [-8.470388, 41.390024], [-8.422253, 41.422772], [-8.410193, 41.433068], [-8.401188, 41.446333], [-8.397254, 41.45532], [-8.3937, 41.473316], [-8.396501, 41.50936], [-8.395457, 41.518362], [-8.391846, 41.527351], [-8.384659, 41.53632], [-8.373204, 41.545401], [-8.36115, 41.551905], [-8.337089, 41.559654], [-8.313068, 41.563139], [-8.277071, 41.56475], [-8.269658, 41.571676], [-8.253375, 41.616608], [-8.24105, 41.634541], [-8.230226, 41.643476], [-8.167694, 41.676668], [-8.1436, 41.681644], [-8.13548, 41.696845], [-8.131363, 41.698226], [-8.119165, 41.711404], [-8.10712, 41.713175], [-8.09993, 41.705579], [-8.101457, 41.696584], [-8.119551, 41.683098], [-8.134815, 41.678826], [-8.131634, 41.678028], [-8.127695, 41.669765], [-8.069284, 41.633279], [-8.059298, 41.62419], [-8.039571, 41.597919], [-8.031467, 41.602938], [-8.02367, 41.603156], [-8.019174, 41.601802], [-8.015872, 41.603824], [-8.013474, 41.603372], [-8.005971, 41.60629], [-8.003562, 41.611239], [-7.998761, 41.612809], [-7.999669, 41.608759], [-7.996976, 41.605829], [-7.996684, 41.602003], [-7.984685, 41.603564], [-7.982292, 41.60086], [-7.975689, 41.603552], [-7.974482, 41.606701], [-7.970882, 41.607147], [-7.969091, 41.603768], [-7.965796, 41.602413], [-7.9541, 41.602846], [-7.952606, 41.600592], [-7.947808, 41.60081], [-7.945413, 41.599456], [-7.942725, 41.595625], [-7.936132, 41.594488], [-7.93791, 41.601694], [-7.937004, 41.603718], [-7.931604, 41.604384], [-7.930979, 41.612711], [-7.925556, 41.620354], [-7.920755, 41.620796], [-7.917748, 41.623041], [-7.915933, 41.627764], [-7.913229, 41.628885], [-7.912613, 41.63361], [-7.906014, 41.633147], [-7.906884, 41.641927], [-7.897869, 41.645511], [-7.89696, 41.647985], [-7.892759, 41.647976], [-7.892145, 41.651576], [-7.898731, 41.656155], [-7.939631, 41.664417], [-7.951669, 41.662796], [-7.962531, 41.650379], [-7.976068, 41.639047], [-7.988838, 41.632599], [-8.000228, 41.629558], [-8.012247, 41.628672], [-8.024229, 41.630161], [-8.036174, 41.634259], [-8.062051, 41.651234], [-8.071898, 41.654714], [-8.095853, 41.659366], [-8.111633, 41.669642], [-8.113363, 41.678663], [-8.081866, 41.705436], [-8.070937, 41.721524], [-8.058801, 41.729357], [-8.046702, 41.734429], [-8.038799, 41.741112], [-8.02242, 41.749781], [-8.010383, 41.750409], [-7.998425, 41.745933], [-7.991948, 41.74071], [-7.987202, 41.731662], [-7.987125, 41.713647], [-7.983283, 41.704606], [-7.975137, 41.697764], [-7.963156, 41.695474], [-7.950947, 41.70729], [-7.94804, 41.713296], [-7.928543, 41.73113], [-7.902231, 41.74475], [-7.890158, 41.747463], [-7.866095, 41.747956], [-7.854098, 41.746248], [-7.842159, 41.741374], [-7.830261, 41.734334], [-7.815291, 41.718609], [-7.808986, 41.717996], [-7.808396, 41.715744], [-7.803298, 41.714154], [-7.790966, 41.717044], [-7.789449, 41.719966], [-7.78464, 41.720402], [-7.78252, 41.723546], [-7.776204, 41.724652], [-7.773786, 41.727346], [-7.770798, 41.72441], [-7.765698, 41.723044], [-7.761765, 41.727758], [-7.762933, 41.733839], [-7.759307, 41.737203], [-7.759597, 41.739005], [-7.75689, 41.739446], [-7.758687, 41.740577], [-7.757758, 41.745301], [-7.748417, 41.749321], [-7.747786, 41.754496], [-7.743866, 41.756509], [-7.740214, 41.763924], [-7.726937, 41.771755], [-7.7254, 41.777152], [-7.727191, 41.779184], [-7.724177, 41.780299], [-7.725372, 41.781653], [-7.722296, 41.792446], [-7.728879, 41.797871], [-7.72705, 41.801691], [-7.728171, 41.814974], [-7.732041, 41.821514], [-7.74345, 41.825605], [-7.738918, 41.82874], [-7.742196, 41.833928], [-7.74729, 41.837772], [-7.746349, 41.84407], [-7.750246, 41.846784], [-7.750532, 41.849261], [-7.743309, 41.849012], [-7.746901, 41.8524], [-7.746881, 41.855776], [-7.73843, 41.859348], [-7.734159, 41.868337], [-7.730228, 41.871024], [-7.729293, 41.875972], [-7.722351, 41.878424], [-7.720523, 41.881793], [-7.725335, 41.882935], [-7.726208, 41.887665], [-7.737044, 41.888828], [-7.737935, 41.890857], [-7.74246, 41.889747], [-7.742785, 41.885922], [-7.756022, 41.888441], [-7.758719, 41.890926], [-7.756592, 41.89407], [-7.758076, 41.897901], [-7.764097, 41.898595], [-7.779227, 41.886264], [-7.785257, 41.885157], [-7.788886, 41.882467], [-7.794007, 41.882257], [-7.796739, 41.878214], [-7.794349, 41.87438], [-7.797064, 41.873488], [-7.803381, 41.874857], [-7.804914, 41.869459], [-7.813032, 41.871958], [-7.814229, 41.873537], [-7.823863, 41.874013], [-7.825059, 41.875817], [-7.830479, 41.875831], [-7.830789, 41.874031], [-7.832894, 41.874712], [-7.83772, 41.872924], [-7.842528, 41.875187], [-7.841663, 41.866632], [-7.849515, 41.861475], [-7.858542, 41.862622], [-7.859456, 41.860148], [-7.864877, 41.859711], [-7.87033, 41.851395], [-7.873043, 41.850501], [-7.873066, 41.844875], [-7.879056, 41.85254], [-7.886268, 41.855932], [-7.888076, 41.855486], [-7.891675, 41.859094], [-7.900698, 41.861588], [-7.904318, 41.859795], [-7.907309, 41.865203], [-7.906095, 41.868126], [-7.910299, 41.871285], [-7.909985, 41.875111], [-7.915391, 41.879397], [-7.921118, 41.877833], [-7.928044, 41.87807], [-7.935283, 41.874707], [-7.937389, 41.87516], [-7.941618, 41.870891], [-7.951254, 41.871132], [-7.956367, 41.87339], [-7.956362, 41.875191], [-7.960878, 41.875648], [-7.962085, 41.874416], [-7.945248, 41.866386], [-7.924521, 41.850245], [-7.912784, 41.832006], [-7.897922, 41.793888], [-7.896297, 41.784866], [-7.899826, 41.775893], [-7.913974, 41.761564], [-7.926101, 41.755699], [-7.950228, 41.751447], [-7.96224, 41.752418], [-7.974195, 41.757003], [-7.993075, 41.767741], [-8.019466, 41.785983], [-8.039786, 41.804168], [-8.052196, 41.819081], [-8.057314, 41.815656], [-8.064534, 41.81701], [-8.06995, 41.816113], [-8.070855, 41.814313], [-8.078678, 41.813417], [-8.082892, 41.810493], [-8.09145, 41.812071], [-8.098317, 41.768615], [-8.105622, 41.750658], [-8.111674, 41.741698], [-8.126071, 41.732802], [-8.143001, 41.726816], [-8.162886, 41.715062], [-8.167258, 41.710533], [-8.179281, 41.7103], [-8.214657, 41.724435], [-8.230519, 41.733549], [-8.235178, 41.742587], [-8.240494, 41.791588], [-8.24074, 41.789338], [-8.244347, 41.787984], [-8.245546, 41.785731], [-8.251257, 41.784375], [-8.251845, 41.777172], [-8.257551, 41.773564], [-8.261762, 41.774235], [-8.271366, 41.766346], [-8.280681, 41.764083], [-8.284038, 41.761109], [-8.284931, 41.757507], [-8.305674, 41.758152], [-8.311096, 41.762195], [-8.318308, 41.761283], [-8.325233, 41.765098], [-8.328234, 41.763292], [-8.336653, 41.763728], [-8.341756, 41.761468], [-8.344765, 41.762363], [-8.349267, 41.760103], [-8.352557, 41.755145], [-8.349814, 41.744122], [-8.352516, 41.743441], [-8.352203, 41.739616], [-8.357897, 41.735103], [-8.362407, 41.735994], [-8.368703, 41.73193], [-8.374122, 41.734845], [-8.384922, 41.73032], [-8.387332, 41.73189], [-8.393033, 41.729852], [-8.396942, 41.730518], [-8.398738, 41.728906], [-8.395756, 41.72553], [-8.396103, 41.716524], [-8.407703, 41.706214], [-8.419741, 41.704173], [-8.431738, 41.706718], [-8.439618, 41.714431]], [[-7.888561, 41.811811], [-7.885291, 41.820786], [-7.876732, 41.827645], [-7.864662, 41.829216], [-7.852695, 41.825006], [-7.84731, 41.820412], [-7.844647, 41.811378], [-7.849192, 41.802417], [-7.853148, 41.799574], [-7.865249, 41.795987], [-7.877247, 41.79817], [-7.882741, 41.802748], [-7.888561, 41.811811]], [[-7.731538, 41.792171], [-7.725136, 41.783094], [-7.733263, 41.775104], [-7.745246, 41.777628], [-7.748945, 41.783355], [-7.744988, 41.790852], [-7.731538, 41.792171]], [[-8.287876, 41.742926], [-8.291621, 41.751956], [-8.286974, 41.754547], [-8.280262, 41.751885], [-8.286073, 41.742914], [-8.287876, 41.742926]], [[-8.1487, 41.705951], [-8.147313, 41.714948], [-8.14312, 41.717864], [-8.131068, 41.720108], [-8.125328, 41.714782], [-8.131286, 41.703913], [-8.143324, 41.702474], [-8.1487, 41.705951]], [[-8.227423, 41.705205], [-8.215346, 41.709915], [-8.203341, 41.708734], [-8.198316, 41.706308], [-8.1899, 41.697242], [-8.192017, 41.688249], [-8.203689, 41.680479], [-8.215714, 41.679617], [-8.227667, 41.684759], [-8.23187, 41.688523], [-8.233711, 41.697542], [-8.227423, 41.705205]], [[-8.383826, 41.689298], [-8.371804, 41.689851], [-8.359818, 41.686792], [-8.350326, 41.680246], [-8.34495, 41.671209], [-8.344315, 41.662198], [-8.347804, 41.653211], [-8.35578, 41.644249], [-8.388739, 41.626414], [-8.408604, 41.607837], [-8.420665, 41.601135], [-8.432696, 41.597605], [-8.444705, 41.596463], [-8.456695, 41.597515], [-8.468667, 41.600934], [-8.482891, 41.608862], [-8.491476, 41.617907], [-8.495957, 41.626934], [-8.496305, 41.635943], [-8.492257, 41.644932], [-8.483453, 41.6539], [-8.468173, 41.660973], [-8.432092, 41.666479], [-8.420028, 41.672244], [-8.407838, 41.680557], [-8.395873, 41.685941], [-8.383826, 41.689298]], [[-8.684823, 41.568865], [-8.672796, 41.575413], [-8.660778, 41.57958], [-8.648771, 41.581687], [-8.624781, 41.581185], [-8.612801, 41.578449], [-8.600839, 41.573026], [-8.588145, 41.564251], [-8.579365, 41.555212], [-8.573318, 41.546182], [-8.569952, 41.537162], [-8.569619, 41.528153], [-8.572646, 41.519157], [-8.579553, 41.510175], [-8.601323, 41.494195], [-8.622245, 41.483301], [-8.63995, 41.465343], [-8.649434, 41.459027], [-8.661429, 41.454905], [-8.673406, 41.454165], [-8.685369, 41.456083], [-8.697316, 41.461792], [-8.702905, 41.465523], [-8.710154, 41.474549], [-8.713829, 41.483565], [-8.714715, 41.501583], [-8.709105, 41.537598], [-8.699512, 41.555588], [-8.684823, 41.568865]], [[-8.505228, 41.527345], [-8.493216, 41.530622], [-8.481243, 41.528961], [-8.46259, 41.518696], [-8.458045, 41.509667], [-8.459949, 41.500668], [-8.469553, 41.492645], [-8.481557, 41.489586], [-8.493524, 41.491172], [-8.510053, 41.500893], [-8.515258, 41.509922], [-8.514599, 41.518927], [-8.505228, 41.527345]], [[-8.421738, 41.480841], [-8.430243, 41.48251], [-8.421711, 41.483789], [-8.421738, 41.480841]]], [[[-8.074742, 41.496854], [-8.075111, 41.496953], [-8.075341, 41.497015], [-8.110012, 41.503086], [-8.169833, 41.509971], [-8.185865, 41.51707], [-8.205472, 41.535347], [-8.22927, 41.550326], [-8.253165, 41.557748], [-8.265151, 41.558335], [-8.27326, 41.544677], [-8.277445, 41.531166], [-8.278789, 41.51769], [-8.275095, 41.499652], [-8.259148, 41.472528], [-8.257939, 41.463513], [-8.261176, 41.454526], [-8.268306, 41.445565], [-8.296339, 41.418717], [-8.301635, 41.409742], [-8.303914, 41.400748], [-8.30541, 41.355719], [-8.313494, 41.332737], [-8.310792, 41.327557], [-8.308701, 41.327561], [-8.307502, 41.325762], [-8.305116, 41.326891], [-8.303024, 41.325994], [-8.303615, 41.323742], [-8.301216, 41.319694], [-8.296431, 41.316774], [-8.297618, 41.313846], [-8.295817, 41.310022], [-8.281801, 41.316569], [-8.281808, 41.319721], [-8.278828, 41.321976], [-8.278238, 41.325128], [-8.273161, 41.325134], [-8.269582, 41.326939], [-8.265709, 41.331221], [-8.269004, 41.336169], [-8.263339, 41.340902], [-8.262751, 41.345405], [-8.258177, 41.347661], [-8.267375, 41.361017], [-8.270984, 41.373522], [-8.270937, 41.382529], [-8.268416, 41.39152], [-8.262882, 41.400492], [-8.254883, 41.407973], [-8.242839, 41.414874], [-8.230831, 41.418427], [-8.218843, 41.420244], [-8.206879, 41.420073], [-8.183018, 41.414258], [-8.173142, 41.40889], [-8.162751, 41.399807], [-8.157059, 41.390758], [-8.153566, 41.375866], [-8.150152, 41.37339], [-8.139694, 41.377894], [-8.133418, 41.374292], [-8.119672, 41.376768], [-8.119672, 41.378569], [-8.116683, 41.380144], [-8.117578, 41.386447], [-8.113992, 41.386896], [-8.112795, 41.390723], [-8.110105, 41.390947], [-8.108011, 41.393648], [-8.103827, 41.392972], [-8.105321, 41.394998], [-8.10263, 41.396123], [-8.10801, 41.398825], [-8.108606, 41.403102], [-8.104419, 41.406252], [-8.104119, 41.408728], [-8.101727, 41.409403], [-8.102025, 41.411204], [-8.092756, 41.411201], [-8.09126, 41.414352], [-8.079893, 41.41975], [-8.077503, 41.416597], [-8.070923, 41.41862], [-8.066739, 41.416142], [-8.061654, 41.417489], [-8.059852, 41.424916], [-8.055959, 41.429415], [-8.05745, 41.432793], [-8.056549, 41.436394], [-8.069999, 41.447206], [-8.068788, 41.462286], [-8.073872, 41.46499], [-8.074164, 41.473543], [-8.066374, 41.482318], [-8.066069, 41.48817], [-8.072054, 41.490199], [-8.07175, 41.494925], [-8.074742, 41.496854]], [[-8.134055, 41.497102], [-8.122049, 41.499018], [-8.11008, 41.498133], [-8.087678, 41.489311], [-8.079011, 41.480234], [-8.076403, 41.471206], [-8.077536, 41.462208], [-8.086801, 41.449524], [-8.098866, 41.442782], [-8.110878, 41.439733], [-8.122848, 41.439738], [-8.134776, 41.442932], [-8.146653, 41.450101], [-8.150033, 41.453759], [-8.155626, 41.462807], [-8.157296, 41.471827], [-8.155792, 41.480823], [-8.149364, 41.489783], [-8.134055, 41.497102]]], [[[-8.488263, 41.230804], [-8.488263, 41.230804], [-8.488235, 41.230764], [-8.488263, 41.230804]]], [[[-8.488105, 41.230579], [-8.488105, 41.230579], [-8.48801, 41.230354], [-8.488105, 41.230579]]], [[[-7.957374, 41.839477], [-7.948833, 41.83689], [-7.941701, 41.839334], [-7.944293, 41.848364], [-7.9486, 41.851083], [-7.957374, 41.839477]]]]}}, {"id": "8", "type": "Feature", "properties": {"fill": "#a3a3a3", "value_min": 0.25, "value_max": -0.5}, "geometry": {"type": "MultiPolygon", "coordinates": [[[[-7.889106, 41.730755], [-7.902467, 41.730868], [-7.915822, 41.722003], [-7.918159, 41.713019], [-7.914896, 41.706818], [-7.903011, 41.698927], [-7.890987, 41.699278], [-7.884613, 41.703691], [-7.877329, 41.712627], [-7.876851, 41.721629], [-7.889106, 41.730755]]], [[[-8.083387, 41.691451], [-8.095439, 41.688905], [-8.104543, 41.678594], [-8.100016, 41.669552], [-8.095749, 41.666771], [-8.083756, 41.66544], [-8.073894, 41.669344], [-8.067699, 41.678301], [-8.073873, 41.687358], [-8.083387, 41.691451]], [[-8.08353, 41.681378], [-8.080752, 41.678406], [-8.083614, 41.675481], [-8.095624, 41.675739], [-8.097526, 41.678539], [-8.095552, 41.680887], [-8.08353, 41.681378]]], [[[-8.015386, 41.668858], [-8.023602, 41.67175], [-8.035682, 41.667238], [-8.039699, 41.660057], [-8.03588, 41.653985], [-8.031306, 41.650979], [-8.02395, 41.648674], [-8.016072, 41.65085], [-8.011857, 41.654183], [-8.008449, 41.659791], [-8.015386, 41.668858]]], [[[-8.617006, 41.528321], [-8.625064, 41.532213], [-8.631491, 41.528368], [-8.62569, 41.519342], [-8.624461, 41.519338], [-8.617006, 41.528321]]], [[[-8.110177, 41.491056], [-8.122153, 41.491335], [-8.12714, 41.489617], [-8.133986, 41.480661], [-8.129502, 41.47162], [-8.122478, 41.467239], [-8.110506, 41.466994], [-8.103014, 41.471417], [-8.098643, 41.48039], [-8.105907, 41.489454], [-8.110177, 41.491056]]], [[[-8.205462, 41.376744], [-8.204118, 41.382086], [-8.211042, 41.391141], [-8.219154, 41.394246], [-8.231127, 41.393343], [-8.234877, 41.391302], [-8.241928, 41.382341], [-8.239066, 41.373315], [-8.235497, 41.370643], [-8.224854, 41.370878], [-8.21738, 41.368182], [-8.211712, 41.376065], [-8.205462, 41.376744]]]]}}, {"id": "4", "type": "Feature", "properties": {"fill": "#a3a3a3", "value_min": -0.75, "value_max": -0.5}, "geometry": {"type": "MultiPolygon", "coordinates": [[[[-7.973328, 41.811354], [-7.982598, 41.803676], [-7.984776, 41.794688], [-7.982421, 41.785661], [-7.972669, 41.776567], [-7.96192, 41.772287], [-7.949902, 41.771461], [-7.937872, 41.771362], [-7.925812, 41.773074], [-7.920384, 41.776088], [-7.912961, 41.785025], [-7.912201, 41.794024], [-7.915967, 41.803067], [-7.925161, 41.812046], [-7.937128, 41.816401], [-7.949163, 41.816696], [-7.961225, 41.815337], [-7.973328, 41.811354]], [[-7.949306, 41.807939], [-7.937278, 41.80732], [-7.929368, 41.803192], [-7.922035, 41.794117], [-7.923459, 41.785123], [-7.937772, 41.777398], [-7.949806, 41.777304], [-7.96177, 41.781554], [-7.967118, 41.785524], [-7.969029, 41.794548], [-7.9618, 41.80349], [-7.949306, 41.807939]]], [[[-8.20257, 41.771089], [-8.209919, 41.76043], [-8.211925, 41.751437], [-8.210598, 41.742421], [-8.203889, 41.733367], [-8.191116, 41.725097], [-8.179145, 41.72096], [-8.167116, 41.721535], [-8.145473, 41.732948], [-8.136299, 41.741886], [-8.133332, 41.750871], [-8.134261, 41.759885], [-8.1424, 41.771993], [-8.154334, 41.779384], [-8.166325, 41.782672], [-8.178359, 41.782615], [-8.190437, 41.779092], [-8.20257, 41.771089]], [[-8.166538, 41.766187], [-8.152902, 41.760024], [-8.146587, 41.75097], [-8.147102, 41.741967], [-8.155201, 41.73302], [-8.167036, 41.72769], [-8.179056, 41.72796], [-8.189946, 41.73327], [-8.196888, 41.742326], [-8.196549, 41.75133], [-8.190686, 41.759314], [-8.178575, 41.7657], [-8.166538, 41.766187]]], [[[-8.119429, 41.692049], [-8.110871, 41.696657], [-8.119275, 41.703321], [-8.124883, 41.696765], [-8.119429, 41.692049]]], [[[-8.155894, 41.660332], [-8.173213, 41.652087], [-8.182134, 41.643144], [-8.187196, 41.634173], [-8.188517, 41.625175], [-8.186749, 41.616155], [-8.1806, 41.606341], [-8.16873, 41.596117], [-8.156804, 41.590494], [-8.144841, 41.58786], [-8.132837, 41.588381], [-8.120776, 41.593064], [-8.116581, 41.597623], [-8.101127, 41.624525], [-8.098104, 41.633508], [-8.101134, 41.642539], [-8.119914, 41.656445], [-8.13187, 41.660455], [-8.14386, 41.662073], [-8.155894, 41.660332]], [[-8.131954, 41.65426], [-8.120006, 41.649675], [-8.111416, 41.642619], [-8.109152, 41.633595], [-8.112789, 41.624616], [-8.120459, 41.616346], [-8.13255, 41.609788], [-8.144558, 41.609332], [-8.159953, 41.615963], [-8.167104, 41.625022], [-8.168046, 41.634036], [-8.164546, 41.643018], [-8.156032, 41.649779], [-8.143962, 41.654327], [-8.131954, 41.65426]]], [[[-8.080681, 41.560219], [-8.097151, 41.566337], [-8.109123, 41.56792], [-8.121124, 41.567349], [-8.133192, 41.561802], [-8.143072, 41.552788], [-8.147799, 41.543816], [-8.14891, 41.534817], [-8.145525, 41.525784], [-8.137019, 41.516713], [-8.12189, 41.510786], [-8.109945, 41.507992], [-8.0924, 41.507164], [-8.090598, 41.515381], [-8.097889, 41.513281], [-8.109868, 41.513608], [-8.119428, 41.51658], [-8.128716, 41.525658], [-8.128619, 41.534665], [-8.121455, 41.542947], [-8.109402, 41.547604], [-8.097419, 41.547122], [-8.087885, 41.542897], [-8.083389, 41.5449], [-8.080687, 41.551651], [-8.074396, 41.549848], [-8.072897, 41.551197], [-8.076188, 41.557276], [-8.079484, 41.558178], [-8.080681, 41.560219]]], [[[-8.361498, 41.51659], [-8.370641, 41.509222], [-8.376609, 41.500247], [-8.378888, 41.491252], [-8.378693, 41.482243], [-8.373952, 41.467769], [-8.362102, 41.455003], [-8.350184, 41.449452], [-8.338226, 41.44816], [-8.326238, 41.449681], [-8.314092, 41.454854], [-8.303107, 41.463795], [-8.297669, 41.47277], [-8.296007, 41.481767], [-8.297139, 41.490781], [-8.300755, 41.499811], [-8.306896, 41.508855], [-8.313577, 41.515008], [-8.325502, 41.520725], [-8.337468, 41.522612], [-8.349466, 41.521337], [-8.361498, 41.51659]], [[-8.337619, 41.507724], [-8.325674, 41.504127], [-8.320144, 41.499927], [-8.314424, 41.490886], [-8.314287, 41.481878], [-8.31988, 41.472903], [-8.326044, 41.468448], [-8.338052, 41.465246], [-8.350013, 41.466594], [-8.360632, 41.473137], [-8.366168, 41.482175], [-8.366273, 41.491183], [-8.360838, 41.50016], [-8.349613, 41.506645], [-8.337619, 41.507724]]], [[[-8.661753, 41.39244], [-8.675113, 41.38438], [-8.682609, 41.375393], [-8.685218, 41.366393], [-8.684367, 41.357383], [-8.68006, 41.348363], [-8.671605, 41.339331], [-8.662064, 41.332406], [-8.650145, 41.326476], [-8.638213, 41.323308], [-8.626269, 41.32247], [-8.614312, 41.323805], [-8.597776, 41.330089], [-8.586204, 41.339056], [-8.580435, 41.348043], [-8.578425, 41.357043], [-8.579233, 41.366054], [-8.583111, 41.375076], [-8.591495, 41.384113], [-8.607402, 41.393176], [-8.625838, 41.3978], [-8.637799, 41.398023], [-8.649771, 41.39633], [-8.661753, 41.39244]], [[-8.637898, 41.380204], [-8.625941, 41.379759], [-8.614711, 41.375186], [-8.607228, 41.366153], [-8.606479, 41.357143], [-8.611926, 41.348153], [-8.62616, 41.341581], [-8.638112, 41.341601], [-8.650039, 41.346232], [-8.658851, 41.35731], [-8.658555, 41.366317], [-8.651382, 41.375303], [-8.637898, 41.380204]]], [[[-8.374767, 41.382952], [-8.37936, 41.374157], [-8.374942, 41.364595], [-8.363022, 41.360879], [-8.351036, 41.363965], [-8.345806, 41.373971], [-8.350142, 41.383003], [-8.362771, 41.386599], [-8.374767, 41.382952]]]]}}, {"id": "3", "type": "Feature", "properties": {"fill": "#a3a3a3", "value_min": -1.0, "value_max": -0.75}, "geometry": {"type": "MultiPolygon", "coordinates": [[[[-7.949306, 41.807939], [-7.9618, 41.80349], [-7.969029, 41.794548], [-7.967118, 41.785524], [-7.96177, 41.781554], [-7.949806, 41.777304], [-7.937772, 41.777398], [-7.923459, 41.785123], [-7.922035, 41.794117], [-7.929368, 41.803192], [-7.937278, 41.80732], [-7.949306, 41.807939]], [[-7.937406, 41.799572], [-7.931268, 41.794203], [-7.932673, 41.785209], [-7.937689, 41.782446], [-7.949726, 41.782218], [-7.956119, 41.785425], [-7.957669, 41.794446], [-7.949431, 41.800314], [-7.937406, 41.799572]]], [[[-8.166538, 41.766187], [-8.178575, 41.7657], [-8.190686, 41.759314], [-8.196549, 41.75133], [-8.196888, 41.742326], [-8.189946, 41.73327], [-8.179056, 41.72796], [-8.167036, 41.72769], [-8.155201, 41.73302], [-8.147102, 41.741967], [-8.146587, 41.75097], [-8.152902, 41.760024], [-8.166538, 41.766187]], [[-8.166667, 41.756205], [-8.158233, 41.751056], [-8.155492, 41.742029], [-8.166969, 41.732887], [-8.178971, 41.734622], [-8.186299, 41.742251], [-8.18344, 41.751238], [-8.178714, 41.754803], [-8.166667, 41.756205]]], [[[-8.131954, 41.65426], [-8.143962, 41.654327], [-8.156032, 41.649779], [-8.164546, 41.643018], [-8.168046, 41.634036], [-8.167104, 41.625022], [-8.159953, 41.615963], [-8.144558, 41.609332], [-8.13255, 41.609788], [-8.120459, 41.616346], [-8.112789, 41.624616], [-8.109152, 41.633595], [-8.111416, 41.642619], [-8.120006, 41.649675], [-8.131954, 41.65426]], [[-8.132026, 41.648868], [-8.119177, 41.642679], [-8.115676, 41.633645], [-8.12134, 41.624681], [-8.132432, 41.618621], [-8.144425, 41.61937], [-8.15313, 41.62492], [-8.156873, 41.633955], [-8.152609, 41.64293], [-8.144049, 41.647822], [-8.132026, 41.648868]]], [[[-8.087885, 41.542897], [-8.097419, 41.547122], [-8.109402, 41.547604], [-8.121455, 41.542947], [-8.128619, 41.534665], [-8.128716, 41.525658], [-8.119428, 41.51658], [-8.109868, 41.513608], [-8.097889, 41.513281], [-8.090598, 41.515381], [-8.089398, 41.519468], [-8.090594, 41.522169], [-8.093588, 41.52307], [-8.091786, 41.531848], [-8.097775, 41.536127], [-8.097774, 41.537927], [-8.106759, 41.543557], [-8.101666, 41.542655], [-8.094175, 41.544904], [-8.087885, 41.542897]], [[-8.097648, 41.530588], [-8.095634, 41.525403], [-8.097744, 41.523683], [-8.109743, 41.522759], [-8.113353, 41.525541], [-8.109595, 41.533522], [-8.097648, 41.530588]]], [[[-8.337619, 41.507724], [-8.349613, 41.506645], [-8.360838, 41.50016], [-8.366273, 41.491183], [-8.366168, 41.482175], [-8.360632, 41.473137], [-8.350013, 41.466594], [-8.338052, 41.465246], [-8.326044, 41.468448], [-8.31988, 41.472903], [-8.314287, 41.481878], [-8.314424, 41.490886], [-8.320144, 41.499927], [-8.325674, 41.504127], [-8.337619, 41.507724]], [[-8.337748, 41.495123], [-8.331598, 41.490987], [-8.332245, 41.481983], [-8.337917, 41.478484], [-8.349876, 41.480336], [-8.351711, 41.482095], [-8.352097, 41.491104], [-8.349746, 41.493377], [-8.337748, 41.495123]]], [[[-8.637898, 41.380204], [-8.651382, 41.375303], [-8.658555, 41.366317], [-8.658851, 41.35731], [-8.650039, 41.346232], [-8.638112, 41.341601], [-8.62616, 41.341581], [-8.611926, 41.348153], [-8.606479, 41.357143], [-8.607228, 41.366153], [-8.614711, 41.375186], [-8.625941, 41.379759], [-8.637898, 41.380204]]]]}}, {"id": "5", "type": "Feature", "properties": {"fill": "#a3a3a3", "value_min": -0.5, "value_max": -0.25}, "geometry": {"type": "MultiPolygon", "coordinates": [[[[-8.052196, 41.819081], [-8.039786, 41.804168], [-8.019466, 41.785983], [-7.993075, 41.767741], [-7.974195, 41.757003], [-7.96224, 41.752418], [-7.950228, 41.751447], [-7.926101, 41.755699], [-7.913974, 41.761564], [-7.899826, 41.775893], [-7.896297, 41.784866], [-7.897922, 41.793888], [-7.912784, 41.832006], [-7.924521, 41.850245], [-7.945248, 41.866386], [-7.962085, 41.874416], [-7.973828, 41.875216], [-7.987996, 41.869157], [-7.990123, 41.860157], [-7.995547, 41.858138], [-7.994047, 41.855211], [-7.996162, 41.851837], [-8.003089, 41.850494], [-8.005804, 41.847346], [-8.007928, 41.838796], [-8.012753, 41.833624], [-8.013363, 41.829124], [-8.017873, 41.831379], [-8.02901, 41.829589], [-8.037134, 41.831171], [-8.041351, 41.828023], [-8.041054, 41.825097], [-8.045268, 41.824425], [-8.046775, 41.821951], [-8.052196, 41.819081]], [[-7.957374, 41.839477], [-7.9486, 41.851083], [-7.944293, 41.848364], [-7.941701, 41.839334], [-7.948833, 41.83689], [-7.957374, 41.839477]], [[-7.973328, 41.811354], [-7.961225, 41.815337], [-7.949163, 41.816696], [-7.937128, 41.816401], [-7.925161, 41.812046], [-7.915967, 41.803067], [-7.912201, 41.794024], [-7.912961, 41.785025], [-7.920384, 41.776088], [-7.925812, 41.773074], [-7.937872, 41.771362], [-7.949902, 41.771461], [-7.96192, 41.772287], [-7.972669, 41.776567], [-7.982421, 41.785661], [-7.984776, 41.794688], [-7.982598, 41.803676], [-7.973328, 41.811354]]], [[[-8.240494, 41.791588], [-8.235178, 41.742587], [-8.230519, 41.733549], [-8.214657, 41.724435], [-8.179281, 41.7103], [-8.167258, 41.710533], [-8.162886, 41.715062], [-8.143001, 41.726816], [-8.126071, 41.732802], [-8.111674, 41.741698], [-8.105622, 41.750658], [-8.098317, 41.768615], [-8.09145, 41.812071], [-8.093421, 41.811397], [-8.093723, 41.808471], [-8.101845, 41.809824], [-8.104853, 41.81185], [-8.115984, 41.812302], [-8.123807, 41.808702], [-8.138247, 41.808477], [-8.139751, 41.813203], [-8.14276, 41.812978], [-8.145769, 41.815453], [-8.149078, 41.814777], [-8.153893, 41.817928], [-8.161415, 41.818376], [-8.165326, 41.81815], [-8.173744, 41.808019], [-8.177054, 41.808017], [-8.182773, 41.812516], [-8.190291, 41.809587], [-8.197158, 41.814129], [-8.201063, 41.808724], [-8.204973, 41.807372], [-8.205872, 41.804445], [-8.213692, 41.803765], [-8.217598, 41.80016], [-8.217589, 41.793634], [-8.224207, 41.794303], [-8.229917, 41.791598], [-8.240494, 41.791588]], [[-8.20257, 41.771089], [-8.190437, 41.779092], [-8.178359, 41.782615], [-8.166325, 41.782672], [-8.154334, 41.779384], [-8.1424, 41.771993], [-8.134261, 41.759885], [-8.133332, 41.750871], [-8.136299, 41.741886], [-8.145473, 41.732948], [-8.167116, 41.721535], [-8.179145, 41.72096], [-8.191116, 41.725097], [-8.203889, 41.733367], [-8.210598, 41.742421], [-8.211925, 41.751437], [-8.209919, 41.76043], [-8.20257, 41.771089]]], [[[-7.731538, 41.792171], [-7.744988, 41.790852], [-7.748945, 41.783355], [-7.745246, 41.777628], [-7.733263, 41.775104], [-7.725136, 41.783094], [-7.731538, 41.792171]]], [[[-8.439618, 41.714431], [-8.431738, 41.706718], [-8.419741, 41.704173], [-8.407703, 41.706214], [-8.396103, 41.716524], [-8.395756, 41.72553], [-8.398738, 41.728906], [-8.400531, 41.726683], [-8.402934, 41.726452], [-8.404721, 41.722847], [-8.417349, 41.725067], [-8.422737, 41.720552], [-8.429643, 41.719859], [-8.430833, 41.717155], [-8.436526, 41.714214], [-8.439618, 41.714431]]], [[[-8.039571, 41.597919], [-8.059298, 41.62419], [-8.069284, 41.633279], [-8.127695, 41.669765], [-8.131634, 41.678028], [-8.134815, 41.678826], [-8.119551, 41.683098], [-8.101457, 41.696584], [-8.09993, 41.705579], [-8.10712, 41.713175], [-8.119165, 41.711404], [-8.131363, 41.698226], [-8.13548, 41.696845], [-8.1436, 41.681644], [-8.167694, 41.676668], [-8.230226, 41.643476], [-8.24105, 41.634541], [-8.253375, 41.616608], [-8.269658, 41.571676], [-8.277071, 41.56475], [-8.313068, 41.563139], [-8.337089, 41.559654], [-8.36115, 41.551905], [-8.373204, 41.545401], [-8.384659, 41.53632], [-8.391846, 41.527351], [-8.395457, 41.518362], [-8.396501, 41.50936], [-8.3937, 41.473316], [-8.397254, 41.45532], [-8.401188, 41.446333], [-8.410193, 41.433068], [-8.422253, 41.422772], [-8.470388, 41.390024], [-8.48238, 41.386083], [-8.494321, 41.388523], [-8.506219, 41.396838], [-8.517378, 41.410849], [-8.518054, 41.414158], [-8.518901, 41.419863], [-8.51455, 41.446867], [-8.516866, 41.455884], [-8.522445, 41.464915], [-8.529611, 41.470772], [-8.541546, 41.476511], [-8.553514, 41.477786], [-8.565509, 41.475188], [-8.579824, 41.465139], [-8.585254, 41.456151], [-8.590091, 41.438154], [-8.600621, 41.429183], [-8.661615, 41.419004], [-8.695057, 41.411457], [-8.718195, 41.402508], [-8.731559, 41.393533], [-8.739438, 41.384543], [-8.7428, 41.375543], [-8.742449, 41.366535], [-8.738085, 41.357517], [-8.729095, 41.348489], [-8.686014, 41.322128], [-8.662206, 41.30486], [-8.650295, 41.298346], [-8.638369, 41.295029], [-8.614486, 41.294281], [-8.590574, 41.298342], [-8.57377, 41.30298], [-8.548729, 41.311892], [-8.494702, 41.339347], [-8.482729, 41.342015], [-8.470805, 41.338525], [-8.435125, 41.318306], [-8.407337, 41.306207], [-8.402979, 41.307568], [-8.401801, 41.311398], [-8.399712, 41.311628], [-8.400316, 41.313202], [-8.396738, 41.314336], [-8.398835, 41.316131], [-8.393775, 41.31997], [-8.393489, 41.323122], [-8.391105, 41.324253], [-8.386325, 41.323588], [-8.380382, 41.331254], [-8.375305, 41.33104], [-8.37201, 41.328346], [-8.361563, 41.329718], [-8.358276, 41.329049], [-8.357673, 41.327249], [-8.350207, 41.327264], [-8.346032, 41.328847], [-8.342462, 41.333131], [-8.333215, 41.336299], [-8.326363, 41.342163], [-8.324568, 41.341041], [-8.323376, 41.341943], [-8.316788, 41.335876], [-8.313802, 41.336331], [-8.313494, 41.332737], [-8.30541, 41.355719], [-8.303914, 41.400748], [-8.301635, 41.409742], [-8.296339, 41.418717], [-8.268306, 41.445565], [-8.261176, 41.454526], [-8.257939, 41.463513], [-8.259148, 41.472528], [-8.275095, 41.499652], [-8.278789, 41.51769], [-8.277445, 41.531166], [-8.27326, 41.544677], [-8.265151, 41.558335], [-8.253165, 41.557748], [-8.22927, 41.550326], [-8.205472, 41.535347], [-8.185865, 41.51707], [-8.169833, 41.509971], [-8.110012, 41.503086], [-8.075341, 41.497015], [-8.078332, 41.500331], [-8.092402, 41.504163], [-8.0924, 41.507164], [-8.109945, 41.507992], [-8.12189, 41.510786], [-8.137019, 41.516713], [-8.145525, 41.525784], [-8.14891, 41.534817], [-8.147799, 41.543816], [-8.143072, 41.552788], [-8.133192, 41.561802], [-8.121124, 41.567349], [-8.109123, 41.56792], [-8.097151, 41.566337], [-8.080681, 41.560219], [-8.081576, 41.565157], [-8.078879, 41.56493], [-8.075279, 41.568305], [-8.073182, 41.568079], [-8.069283, 41.570553], [-8.068081, 41.573478], [-8.056684, 41.579549], [-8.052181, 41.584498], [-8.052777, 41.587649], [-8.039571, 41.597919]], [[-8.119429, 41.692049], [-8.124883, 41.696765], [-8.119275, 41.703321], [-8.110871, 41.696657], [-8.119429, 41.692049]], [[-8.155894, 41.660332], [-8.14386, 41.662073], [-8.13187, 41.660455], [-8.119914, 41.656445], [-8.101134, 41.642539], [-8.098104, 41.633508], [-8.101127, 41.624525], [-8.116581, 41.597623], [-8.120776, 41.593064], [-8.132837, 41.588381], [-8.144841, 41.58786], [-8.156804, 41.590494], [-8.16873, 41.596117], [-8.1806, 41.606341], [-8.186749, 41.616155], [-8.188517, 41.625175], [-8.187196, 41.634173], [-8.182134, 41.643144], [-8.173213, 41.652087], [-8.155894, 41.660332]], [[-8.361498, 41.51659], [-8.349466, 41.521337], [-8.337468, 41.522612], [-8.325502, 41.520725], [-8.313577, 41.515008], [-8.306896, 41.508855], [-8.300755, 41.499811], [-8.297139, 41.490781], [-8.296007, 41.481767], [-8.297669, 41.47277], [-8.303107, 41.463795], [-8.314092, 41.454854], [-8.326238, 41.449681], [-8.338226, 41.44816], [-8.350184, 41.449452], [-8.362102, 41.455003], [-8.373952, 41.467769], [-8.378693, 41.482243], [-8.378888, 41.491252], [-8.376609, 41.500247], [-8.370641, 41.509222], [-8.361498, 41.51659]], [[-8.661753, 41.39244], [-8.649771, 41.39633], [-8.637799, 41.398023], [-8.625838, 41.3978], [-8.607402, 41.393176], [-8.591495, 41.384113], [-8.583111, 41.375076], [-8.579233, 41.366054], [-8.578425, 41.357043], [-8.580435, 41.348043], [-8.586204, 41.339056], [-8.597776, 41.330089], [-8.614312, 41.323805], [-8.626269, 41.32247], [-8.638213, 41.323308], [-8.650145, 41.326476], [-8.662064, 41.332406], [-8.671605, 41.339331], [-8.68006, 41.348363], [-8.684367, 41.357383], [-8.685218, 41.366393], [-8.682609, 41.375393], [-8.675113, 41.38438], [-8.661753, 41.39244]], [[-8.374767, 41.382952], [-8.362771, 41.386599], [-8.350142, 41.383003], [-8.345806, 41.373971], [-8.351036, 41.363965], [-8.363022, 41.360879], [-8.374942, 41.364595], [-8.37936, 41.374157], [-8.374767, 41.382952]]], [[[-8.075111, 41.496953], [-8.075111, 41.496953], [-8.074742, 41.496854], [-8.075111, 41.496953]]]]}}, {"id": "0", "type": "Feature", "properties": {"fill": "#e57b10", "value_min": -1.75, "value_max": -1.5}, "geometry": {"type": "Polygon", "coordinates": [[[-8.132232, 41.633516], [-8.13195, 41.633769], [-8.132224, 41.63413], [-8.132831, 41.633776], [-8.132232, 41.633516]]]}}, {"id": "2", "type": "Feature", "properties": {"fill": "#b6a27f", "value_min": -1.25, "value_max": -1.0}, "geometry": {"type": "MultiPolygon", "coordinates": [[[[-7.937406, 41.799572], [-7.949431, 41.800314], [-7.957669, 41.794446], [-7.956119, 41.785425], [-7.949726, 41.782218], [-7.937689, 41.782446], [-7.932673, 41.785209], [-7.931268, 41.794203], [-7.937406, 41.799572]]], [[[-8.166667, 41.756205], [-8.178714, 41.754803], [-8.18344, 41.751238], [-8.186299, 41.742251], [-8.178971, 41.734622], [-8.166969, 41.732887], [-8.155492, 41.742029], [-8.158233, 41.751056], [-8.166667, 41.756205]], [[-8.165627, 41.742103], [-8.166863, 41.741104], [-8.170829, 41.742141], [-8.166824, 41.74414], [-8.165627, 41.742103]]], [[[-8.132026, 41.648868], [-8.144049, 41.647822], [-8.152609, 41.64293], [-8.156873, 41.633955], [-8.15313, 41.62492], [-8.144425, 41.61937], [-8.132432, 41.618621], [-8.12134, 41.624681], [-8.115676, 41.633645], [-8.119177, 41.642679], [-8.132026, 41.648868]], [[-8.129423, 41.642757], [-8.122951, 41.633701], [-8.132342, 41.625284], [-8.144299, 41.628892], [-8.147891, 41.633888], [-8.144152, 41.640021], [-8.13896, 41.642829], [-8.132091, 41.64401], [-8.129423, 41.642757]]], [[[-8.097648, 41.530588], [-8.109595, 41.533522], [-8.113353, 41.525541], [-8.109743, 41.522759], [-8.097744, 41.523683], [-8.095634, 41.525403], [-8.097648, 41.530588]]], [[[-8.337748, 41.495123], [-8.349746, 41.493377], [-8.352097, 41.491104], [-8.351711, 41.482095], [-8.349876, 41.480336], [-8.337917, 41.478484], [-8.332245, 41.481983], [-8.331598, 41.490987], [-8.337748, 41.495123]]]]}}, {"id": "9", "type": "Feature", "properties": {"fill": "#a3a3a3", "value_min": 0.5, "value_max": -0.75}, "geometry": {"type": "Polygon", "coordinates": [[[-8.08353, 41.681378], [-8.095552, 41.680887], [-8.097526, 41.678539], [-8.095624, 41.675739], [-8.083614, 41.675481], [-8.080752, 41.678406], [-8.08353, 41.681378]]]}}, {"id": "1", "type": "Feature", "properties": {"fill": "#e19f31", "value_min": -1.5, "value_max": -1.25}, "geometry": {"type": "MultiPolygon", "coordinates": [[[[-8.165627, 41.742103], [-8.166824, 41.74414], [-8.170829, 41.742141], [-8.166863, 41.741104], [-8.165627, 41.742103]]], [[[-8.129423, 41.642757], [-8.132091, 41.64401], [-8.13896, 41.642829], [-8.144152, 41.640021], [-8.147891, 41.633888], [-8.144299, 41.628892], [-8.132342, 41.625284], [-8.122951, 41.633701], [-8.129423, 41.642757]], [[-8.132232, 41.633516], [-8.132831, 41.633776], [-8.132224, 41.63413], [-8.13195, 41.633769], [-8.132232, 41.633516]]]]}}]}