{"type": "FeatureCollection", "features": [{"id": "9", "type": "Feature", "properties": {"fill": "#a3a3a3", "value_min": -0.25, "value_max": 0.0}, "geometry": {"type": "MultiPolygon", "coordinates": [[[[-8.443018, 41.70992], [-8.431792, 41.700542], [-8.419797, 41.6979], [-8.407763, 41.69973], [-8.395736, 41.707515], [-8.391704, 41.716501], [-8.393523, 41.725518], [-8.397555, 41.729841], [-8.400531, 41.726683], [-8.402934, 41.726452], [-8.404721, 41.722847], [-8.417349, 41.725067], [-8.422737, 41.720552], [-8.429643, 41.719859], [-8.430533, 41.717381], [-8.435927, 41.714441], [-8.441333, 41.714201], [-8.443018, 41.70992]]], [[[-8.15508, 41.722583], [-8.167214, 41.713905], [-8.17923, 41.714268], [-8.20316, 41.723337], [-8.21517, 41.724362], [-8.227218, 41.722285], [-8.239042, 41.715592], [-8.247991, 41.706643], [-8.251525, 41.69766], [-8.251359, 41.688651], [-8.246691, 41.679614], [-8.239807, 41.67422], [-8.227854, 41.669166], [-8.215859, 41.667694], [-8.203827, 41.669308], [-8.191759, 41.673705], [-8.182926, 41.679178], [-8.17263, 41.688112], [-8.167457, 41.695114], [-8.143449, 41.693089], [-8.131369, 41.697764], [-8.114434, 41.714699], [-8.118985, 41.724567], [-8.13093, 41.73033], [-8.142971, 41.729039], [-8.15508, 41.722583]], [[-8.13108, 41.719179], [-8.126359, 41.71479], [-8.128941, 41.705803], [-8.131288, 41.703774], [-8.14331, 41.703527], [-8.147266, 41.70594], [-8.147098, 41.714946], [-8.143121, 41.717793], [-8.13108, 41.719179]], [[-8.215319, 41.712186], [-8.203304, 41.711725], [-8.193057, 41.706271], [-8.187357, 41.697224], [-8.19049, 41.688239], [-8.203693, 41.680137], [-8.215714, 41.679643], [-8.22766, 41.685371], [-8.2309, 41.688516], [-8.233034, 41.697538], [-8.22756, 41.706508], [-8.215319, 41.712186]]], [[[-8.047788, 41.660832], [-8.046539, 41.651106], [-8.036064, 41.641608], [-8.024107, 41.638285], [-8.00899, 41.641782], [-7.999007, 41.650702], [-7.99718, 41.659693], [-8.001793, 41.668741], [-8.01154, 41.674955], [-8.023525, 41.676815], [-8.03558, 41.674085], [-8.043436, 41.669095], [-8.047788, 41.660832]], [[-8.023344, 41.668926], [-8.011541, 41.659818], [-8.020865, 41.650891], [-8.023932, 41.649864], [-8.035829, 41.657372], [-8.037059, 41.660034], [-8.023344, 41.668926]]], [[[-8.456311, 41.6433], [-8.465605, 41.635804], [-8.467727, 41.626807], [-8.462224, 41.617774], [-8.456554, 41.614362], [-8.444572, 41.611989], [-8.432544, 41.614988], [-8.42844, 41.617611], [-8.423138, 41.626592], [-8.425314, 41.63561], [-8.432306, 41.642028], [-8.444285, 41.645442], [-8.456311, 41.6433]]], [[[-8.660877, 41.560665], [-8.667154, 41.555499], [-8.672941, 41.546586], [-8.674814, 41.537506], [-8.6725, 41.528492], [-8.666706, 41.519468], [-8.655142, 41.510427], [-8.637221, 41.501907], [-8.625256, 41.498947], [-8.613271, 41.49956], [-8.601264, 41.503814], [-8.591516, 41.510218], [-8.58356, 41.519197], [-8.580405, 41.528193], [-8.580801, 41.537202], [-8.588981, 41.551423], [-8.600911, 41.56124], [-8.612873, 41.566388], [-8.624852, 41.568913], [-8.636846, 41.568928], [-8.648854, 41.566384], [-8.660877, 41.560665]], [[-8.624983, 41.546233], [-8.613009, 41.543636], [-8.604622, 41.537286], [-8.600456, 41.528265], [-8.603314, 41.519267], [-8.613198, 41.511947], [-8.625193, 41.509901], [-8.637155, 41.513624], [-8.644989, 41.519403], [-8.648811, 41.528422], [-8.645659, 41.53742], [-8.636986, 41.543954], [-8.624983, 41.546233]]], [[[-8.515205, 41.518929], [-8.515274, 41.509922], [-8.509481, 41.50089], [-8.493512, 41.492677], [-8.481534, 41.492492], [-8.469513, 41.497444], [-8.460251, 41.509677], [-8.462054, 41.518693], [-8.469292, 41.524613], [-8.481229, 41.530696], [-8.493203, 41.532338], [-8.505215, 41.529081], [-8.515205, 41.518929]], [[-8.481291, 41.52294], [-8.47304, 41.518744], [-8.468727, 41.509717], [-8.481473, 41.500089], [-8.493437, 41.502352], [-8.500417, 41.509859], [-8.497655, 41.518854], [-8.493287, 41.521615], [-8.481291, 41.52294]]], [[[-8.265603, 41.518355], [-8.268047, 41.508615], [-8.265802, 41.500755], [-8.253949, 41.489569], [-8.242008, 41.486267], [-8.230015, 41.487476], [-8.223882, 41.49031], [-8.214492, 41.499254], [-8.212522, 41.508248], [-8.215716, 41.517277], [-8.229535, 41.528], [-8.241494, 41.530337], [-8.253506, 41.528142], [-8.265603, 41.518355]], [[-8.241676, 41.514694], [-8.234596, 41.508397], [-8.241836, 41.501046], [-8.253894, 41.508524], [-8.241676, 41.514694]]], [[[-8.134222, 41.484572], [-8.136904, 41.480683], [-8.134116, 41.471655], [-8.122513, 41.464615], [-8.110539, 41.464546], [-8.099111, 41.471386], [-8.096416, 41.480372], [-8.103391, 41.489434], [-8.110164, 41.49202], [-8.122138, 41.492432], [-8.13033, 41.489641], [-8.134222, 41.484572]]], [[[-8.161954, 41.37969], [-8.16502, 41.390816], [-8.171611, 41.399872], [-8.183082, 41.409177], [-8.194978, 41.414772], [-8.206911, 41.417391], [-8.218872, 41.417873], [-8.230855, 41.416389], [-8.242868, 41.412337], [-8.254922, 41.404543], [-8.265011, 41.391499], [-8.267607, 41.382508], [-8.267585, 41.3735], [-8.265086, 41.364476], [-8.255005, 41.349915], [-8.249622, 41.353072], [-8.251123, 41.356897], [-8.248141, 41.360052], [-8.248448, 41.364328], [-8.245461, 41.364926], [-8.251122, 41.373394], [-8.252124, 41.382408], [-8.248194, 41.39139], [-8.243053, 41.396373], [-8.231023, 41.402135], [-8.219048, 41.403143], [-8.206339, 41.400116], [-8.194224, 41.391025], [-8.190217, 41.381989], [-8.190786, 41.376303], [-8.175853, 41.376309], [-8.173463, 41.377661], [-8.168382, 41.377438], [-8.164499, 41.38059], [-8.161954, 41.37969]]], [[[-8.733813, 41.321117], [-8.750751, 41.312507], [-8.757881, 41.303514], [-8.760517, 41.294512], [-8.759354, 41.285502], [-8.754169, 41.276483], [-8.745963, 41.269373], [-8.734046, 41.263854], [-8.722117, 41.261709], [-8.710178, 41.262065], [-8.698226, 41.265167], [-8.686251, 41.272788], [-8.679099, 41.285306], [-8.679, 41.294314], [-8.682484, 41.303331], [-8.690779, 41.312361], [-8.697987, 41.317041], [-8.709607, 41.321418], [-8.721858, 41.322719], [-8.733813, 41.321117]]], [[[-8.487788, 41.236207], [-8.497731, 41.248627], [-8.507279, 41.256334], [-8.519165, 41.26325], [-8.53107, 41.267917], [-8.542987, 41.270983], [-8.566855, 41.272676], [-8.578801, 41.271582], [-8.597805, 41.267035], [-8.61825, 41.258097], [-8.630011, 41.249128], [-8.636534, 41.240141], [-8.639724, 41.222135], [-8.632275, 41.188626], [-8.625658, 41.186628], [-8.621132, 41.178994], [-8.613374, 41.177451], [-8.608583, 41.174095], [-8.609164, 41.172066], [-8.604942, 41.164881], [-8.600767, 41.164222], [-8.589766, 41.167193], [-8.589194, 41.170572], [-8.583263, 41.174422], [-8.582094, 41.177803], [-8.578825, 41.178941], [-8.581296, 41.191762], [-8.57655, 41.194984], [-8.588507, 41.203948], [-8.593684, 41.212974], [-8.594658, 41.221985], [-8.591725, 41.230983], [-8.583046, 41.239959], [-8.567028, 41.246455], [-8.555088, 41.247109], [-8.543171, 41.244626], [-8.531283, 41.238125], [-8.524574, 41.230725], [-8.521199, 41.221703], [-8.521851, 41.212698], [-8.52713, 41.203335], [-8.523236, 41.200077], [-8.520554, 41.200086], [-8.51163, 41.203042], [-8.510456, 41.206197], [-8.505693, 41.207113], [-8.504239, 41.213646], [-8.500076, 41.21546], [-8.50308, 41.219502], [-8.502204, 41.222656], [-8.495642, 41.222227], [-8.495947, 41.223351], [-8.490894, 41.226294], [-8.487935, 41.230354], [-8.490333, 41.232598], [-8.487788, 41.236207]]]]}}, {"id": "10", "type": "Feature", "properties": {"fill": "#a3a3a3", "value_min": 0.0, "value_max": 0.25}, "geometry": {"type": "MultiPolygon", "coordinates": [[[[-8.13108, 41.719179], [-8.143121, 41.717793], [-8.147098, 41.714946], [-8.147266, 41.70594], [-8.14331, 41.703527], [-8.131288, 41.703774], [-8.128941, 41.705803], [-8.126359, 41.71479], [-8.13108, 41.719179]]], [[[-8.215319, 41.712186], [-8.22756, 41.706508], [-8.233034, 41.697538], [-8.2309, 41.688516], [-8.22766, 41.685371], [-8.215714, 41.679643], [-8.203693, 41.680137], [-8.19049, 41.688239], [-8.187357, 41.697224], [-8.193057, 41.706271], [-8.203304, 41.711725], [-8.215319, 41.712186]], [[-8.20345, 41.69985], [-8.201104, 41.69732], [-8.203536, 41.692942], [-8.21554, 41.693989], [-8.21739, 41.697432], [-8.215475, 41.699348], [-8.20345, 41.69985]]], [[[-8.023344, 41.668926], [-8.037059, 41.660034], [-8.035829, 41.657372], [-8.023932, 41.649864], [-8.020865, 41.650891], [-8.011541, 41.659818], [-8.023344, 41.668926]]], [[[-8.624983, 41.546233], [-8.636986, 41.543954], [-8.645659, 41.53742], [-8.648811, 41.528422], [-8.644989, 41.519403], [-8.637155, 41.513624], [-8.625193, 41.509901], [-8.613198, 41.511947], [-8.603314, 41.519267], [-8.600456, 41.528265], [-8.604622, 41.537286], [-8.613009, 41.543636], [-8.624983, 41.546233]]], [[[-8.481291, 41.52294], [-8.493287, 41.521615], [-8.497655, 41.518854], [-8.500417, 41.509859], [-8.493437, 41.502352], [-8.481473, 41.500089], [-8.468727, 41.509717], [-8.47304, 41.518744], [-8.481291, 41.52294]]], [[[-8.241676, 41.514694], [-8.253894, 41.508524], [-8.241836, 41.501046], [-8.234596, 41.508397], [-8.241676, 41.514694]]], [[[-8.190786, 41.376303], [-8.190217, 41.381989], [-8.194224, 41.391025], [-8.206339, 41.400116], [-8.219048, 41.403143], [-8.231023, 41.402135], [-8.243053, 41.396373], [-8.248194, 41.39139], [-8.252124, 41.382408], [-8.251122, 41.373394], [-8.245461, 41.364926], [-8.244272, 41.368384], [-8.239197, 41.371315], [-8.232024, 41.369971], [-8.224854, 41.370878], [-8.21738, 41.368182], [-8.211712, 41.376065], [-8.200358, 41.377648], [-8.194677, 41.374275], [-8.190786, 41.376303]], [[-8.217909, 41.382181], [-8.219328, 41.379731], [-8.228404, 41.382251], [-8.219283, 41.383479], [-8.217909, 41.382181]]], [[[-8.52713, 41.203335], [-8.521851, 41.212698], [-8.521199, 41.221703], [-8.524574, 41.230725], [-8.531283, 41.238125], [-8.543171, 41.244626], [-8.555088, 41.247109], [-8.567028, 41.246455], [-8.583046, 41.239959], [-8.591725, 41.230983], [-8.594658, 41.221985], [-8.593684, 41.212974], [-8.588507, 41.203948], [-8.57655, 41.194984], [-8.576894, 41.201908], [-8.574515, 41.202593], [-8.57423, 41.20462], [-8.567971, 41.204644], [-8.565895, 41.206227], [-8.567697, 41.208246], [-8.566512, 41.209376], [-8.559636, 41.206251], [-8.554271, 41.20627], [-8.549521, 41.209214], [-8.544157, 41.209458], [-8.54238, 41.211265], [-8.532257, 41.213102], [-8.52713, 41.203335]]]]}}, {"id": "8", "type": "Feature", "properties": {"fill": "#a3a3a3", "value_min": -0.5, "value_max": -0.25}, "geometry": {"type": "MultiPolygon", "coordinates": [[[[-8.818034, 41.610792], [-8.827917, 41.583842], [-8.818497, 41.554794], [-8.8221, 41.547542], [-8.822134, 41.536263], [-8.816872, 41.528227], [-8.804921, 41.516678], [-8.792958, 41.509733], [-8.769016, 41.502926], [-8.745059, 41.501213], [-8.697124, 41.503077], [-8.673169, 41.501302], [-8.661204, 41.498029], [-8.647184, 41.492388], [-8.637308, 41.486272], [-8.625349, 41.48281], [-8.613365, 41.483758], [-8.601362, 41.487776], [-8.565305, 41.505743], [-8.553305, 41.508313], [-8.541336, 41.50626], [-8.505549, 41.4852], [-8.493594, 41.482153], [-8.481609, 41.483069], [-8.469589, 41.488182], [-8.456217, 41.500651], [-8.450224, 41.50963], [-8.449573, 41.518634], [-8.459776, 41.52769], [-8.475038, 41.536768], [-8.484182, 41.545817], [-8.486943, 41.554836], [-8.48094, 41.566778], [-8.468859, 41.577494], [-8.456831, 41.58131], [-8.420795, 41.586627], [-8.407211, 41.590482], [-8.342526, 41.617152], [-8.300273, 41.637387], [-8.288229, 41.640784], [-8.240161, 41.644113], [-8.216083, 41.649248], [-8.191939, 41.659326], [-8.167756, 41.671856], [-8.15569, 41.675928], [-8.127631, 41.678772], [-8.10753, 41.683549], [-8.100138, 41.687567], [-8.095346, 41.695544], [-8.092462, 41.714527], [-8.094818, 41.733179], [-8.099548, 41.741604], [-8.10662, 41.749227], [-8.118544, 41.756806], [-8.130523, 41.760494], [-8.144422, 41.759961], [-8.150603, 41.751], [-8.154186, 41.742019], [-8.166962, 41.733396], [-8.178968, 41.734852], [-8.188818, 41.742269], [-8.197444, 41.760344], [-8.202667, 41.763209], [-8.214705, 41.762539], [-8.226807, 41.756568], [-8.250069, 41.733678], [-8.263273, 41.723429], [-8.287452, 41.711291], [-8.299493, 41.709383], [-8.311495, 41.711082], [-8.32345, 41.717286], [-8.332485, 41.725179], [-8.339804, 41.734229], [-8.35176, 41.756272], [-8.352545, 41.751769], [-8.349814, 41.744122], [-8.352516, 41.743441], [-8.352203, 41.739616], [-8.357897, 41.735103], [-8.362407, 41.735994], [-8.368703, 41.73193], [-8.374122, 41.734845], [-8.384922, 41.73032], [-8.387332, 41.73189], [-8.397555, 41.729841], [-8.393523, 41.725518], [-8.391704, 41.716501], [-8.395736, 41.707515], [-8.407763, 41.69973], [-8.419797, 41.6979], [-8.431792, 41.700542], [-8.443018, 41.70992], [-8.4446, 41.70654], [-8.453868, 41.697961], [-8.453255, 41.695487], [-8.461659, 41.694563], [-8.482012, 41.682123], [-8.484371, 41.674238], [-8.49308, 41.674886], [-8.499963, 41.671038], [-8.50927, 41.671233], [-8.51018, 41.672806], [-8.511967, 41.670324], [-8.509856, 41.668755], [-8.522103, 41.658811], [-8.525706, 41.659023], [-8.527769, 41.652714], [-8.534066, 41.652017], [-8.537355, 41.64998], [-8.537634, 41.646602], [-8.543876, 41.637352], [-8.543855, 41.633976], [-8.536342, 41.631977], [-8.535128, 41.62973], [-8.543431, 41.61462], [-8.554533, 41.615255], [-8.557244, 41.617046], [-8.562639, 41.61635], [-8.568056, 41.619031], [-8.570735, 41.616095], [-8.577321, 41.614269], [-8.581231, 41.615829], [-8.585766, 41.620988], [-8.591462, 41.620515], [-8.596534, 41.616668], [-8.601628, 41.615972], [-8.603996, 41.611686], [-8.613256, 41.606696], [-8.619881, 41.610269], [-8.621338, 41.604636], [-8.628833, 41.604378], [-8.636302, 41.600744], [-8.64075, 41.594422], [-8.645536, 41.593051], [-8.646744, 41.594171], [-8.649125, 41.591909], [-8.656622, 41.5921], [-8.660788, 41.588255], [-8.663794, 41.589141], [-8.665265, 41.585758], [-8.66948, 41.587989], [-8.684455, 41.586117], [-8.685608, 41.58071], [-8.697261, 41.576376], [-8.701703, 41.570277], [-8.707704, 41.570923], [-8.712485, 41.569323], [-8.716422, 41.573805], [-8.720316, 41.57356], [-8.725151, 41.577811], [-8.726633, 41.576003], [-8.734424, 41.575737], [-8.736564, 41.580228], [-8.738354, 41.579318], [-8.740778, 41.582006], [-8.74467, 41.581535], [-8.750711, 41.58623], [-8.75993, 41.578527], [-8.767441, 41.580286], [-8.769874, 41.583874], [-8.768997, 41.58613], [-8.773228, 41.589482], [-8.774165, 41.593303], [-8.78556, 41.593464], [-8.797327, 41.600599], [-8.804218, 41.600109], [-8.80456, 41.604158], [-8.808527, 41.610662], [-8.818034, 41.610792]], [[-8.15508, 41.722583], [-8.142971, 41.729039], [-8.13093, 41.73033], [-8.118985, 41.724567], [-8.114434, 41.714699], [-8.131369, 41.697764], [-8.143449, 41.693089], [-8.167457, 41.695114], [-8.17263, 41.688112], [-8.182926, 41.679178], [-8.191759, 41.673705], [-8.203827, 41.669308], [-8.215859, 41.667694], [-8.227854, 41.669166], [-8.239807, 41.67422], [-8.246691, 41.679614], [-8.251359, 41.688651], [-8.251525, 41.69766], [-8.247991, 41.706643], [-8.239042, 41.715592], [-8.227218, 41.722285], [-8.21517, 41.724362], [-8.20316, 41.723337], [-8.17923, 41.714268], [-8.167214, 41.713905], [-8.15508, 41.722583]], [[-8.456311, 41.6433], [-8.444285, 41.645442], [-8.432306, 41.642028], [-8.425314, 41.63561], [-8.423138, 41.626592], [-8.42844, 41.617611], [-8.432544, 41.614988], [-8.444572, 41.611989], [-8.456554, 41.614362], [-8.462224, 41.617774], [-8.467727, 41.626807], [-8.465605, 41.635804], [-8.456311, 41.6433]], [[-8.660877, 41.560665], [-8.648854, 41.566384], [-8.636846, 41.568928], [-8.624852, 41.568913], [-8.612873, 41.566388], [-8.600911, 41.56124], [-8.588981, 41.551423], [-8.580801, 41.537202], [-8.580405, 41.528193], [-8.58356, 41.519197], [-8.591516, 41.510218], [-8.601264, 41.503814], [-8.613271, 41.49956], [-8.625256, 41.498947], [-8.637221, 41.501907], [-8.655142, 41.510427], [-8.666706, 41.519468], [-8.6725, 41.528492], [-8.674814, 41.537506], [-8.672941, 41.546586], [-8.667154, 41.555499], [-8.660877, 41.560665]], [[-8.515205, 41.518929], [-8.505215, 41.529081], [-8.493203, 41.532338], [-8.481229, 41.530696], [-8.469292, 41.524613], [-8.462054, 41.518693], [-8.460251, 41.509677], [-8.469513, 41.497444], [-8.481534, 41.492492], [-8.493512, 41.492677], [-8.509481, 41.50089], [-8.515274, 41.509922], [-8.515205, 41.518929]]], [[[-8.023378, 41.686555], [-8.05174, 41.678171], [-8.065662, 41.669278], [-8.068337, 41.660292], [-8.061948, 41.633219], [-8.072269, 41.628891], [-8.084269, 41.62924], [-8.096336, 41.624765], [-8.101694, 41.615522], [-8.099494, 41.606498], [-8.096641, 41.602938], [-8.084689, 41.599545], [-8.072653, 41.602095], [-8.065053, 41.606223], [-8.060479, 41.614059], [-8.04839, 41.619949], [-8.024444, 41.615902], [-8.012434, 41.616441], [-8.000384, 41.619478], [-7.98827, 41.626567], [-7.982399, 41.632542], [-7.977395, 41.641505], [-7.975782, 41.650498], [-7.976701, 41.659513], [-7.980409, 41.668553], [-7.988654, 41.677633], [-7.999382, 41.684269], [-8.011356, 41.686962], [-8.023378, 41.686555]], [[-8.047788, 41.660832], [-8.043436, 41.669095], [-8.03558, 41.674085], [-8.023525, 41.676815], [-8.01154, 41.674955], [-8.001793, 41.668741], [-7.99718, 41.659693], [-7.999007, 41.650702], [-8.00899, 41.641782], [-8.024107, 41.638285], [-8.036064, 41.641608], [-8.046539, 41.651106], [-8.047788, 41.660832]]], [[[-8.067573, 41.48063], [-8.077045, 41.489226], [-8.098099, 41.498164], [-8.110046, 41.50063], [-8.133994, 41.501733], [-8.158001, 41.49829], [-8.169985, 41.498084], [-8.181834, 41.508583], [-8.192316, 41.526122], [-8.200469, 41.535187], [-8.217333, 41.545851], [-8.229278, 41.54959], [-8.241259, 41.550441], [-8.253273, 41.548354], [-8.265336, 41.541992], [-8.271202, 41.535657], [-8.277522, 41.524265], [-8.278804, 41.508683], [-8.27619, 41.499659], [-8.26599, 41.484136], [-8.254124, 41.474342], [-8.233131, 41.46335], [-8.22393, 41.454281], [-8.228172, 41.445302], [-8.266756, 41.416144], [-8.278779, 41.400593], [-8.282526, 41.391609], [-8.284286, 41.382613], [-8.283917, 41.364595], [-8.279504, 41.345321], [-8.271075, 41.326862], [-8.265709, 41.331221], [-8.269004, 41.336169], [-8.263339, 41.340902], [-8.262751, 41.345405], [-8.256483, 41.347663], [-8.255005, 41.349915], [-8.265086, 41.364476], [-8.267585, 41.3735], [-8.267607, 41.382508], [-8.265011, 41.391499], [-8.254922, 41.404543], [-8.242868, 41.412337], [-8.230855, 41.416389], [-8.218872, 41.417873], [-8.206911, 41.417391], [-8.194978, 41.414772], [-8.183082, 41.409177], [-8.171611, 41.399872], [-8.16502, 41.390816], [-8.161954, 41.37969], [-8.152544, 41.375866], [-8.151049, 41.37339], [-8.145073, 41.374742], [-8.139694, 41.377894], [-8.133418, 41.374292], [-8.119672, 41.376768], [-8.119672, 41.378569], [-8.116683, 41.380144], [-8.117578, 41.386447], [-8.113992, 41.386896], [-8.112795, 41.390723], [-8.110105, 41.390947], [-8.108011, 41.393648], [-8.103827, 41.392972], [-8.105321, 41.394998], [-8.10263, 41.396123], [-8.10801, 41.398825], [-8.108606, 41.403102], [-8.104419, 41.406252], [-8.104119, 41.408728], [-8.101727, 41.409403], [-8.102025, 41.411204], [-8.092756, 41.411201], [-8.09126, 41.414352], [-8.081986, 41.4193], [-8.078697, 41.419524], [-8.078484, 41.417498], [-8.06404, 41.443151], [-8.067908, 41.444279], [-8.069999, 41.447206], [-8.068788, 41.462286], [-8.073872, 41.46499], [-8.074468, 41.468141], [-8.073564, 41.474668], [-8.067573, 41.48063]], [[-8.265603, 41.518355], [-8.253506, 41.528142], [-8.241494, 41.530337], [-8.229535, 41.528], [-8.215716, 41.517277], [-8.212522, 41.508248], [-8.214492, 41.499254], [-8.223882, 41.49031], [-8.230015, 41.487476], [-8.242008, 41.486267], [-8.253949, 41.489569], [-8.265802, 41.500755], [-8.268047, 41.508615], [-8.265603, 41.518355]], [[-8.134222, 41.484572], [-8.13033, 41.489641], [-8.122138, 41.492432], [-8.110164, 41.49202], [-8.103391, 41.489434], [-8.096416, 41.480372], [-8.099111, 41.471386], [-8.110539, 41.464546], [-8.122513, 41.464615], [-8.134116, 41.471655], [-8.136904, 41.480683], [-8.134222, 41.484572]]], [[[-8.445582, 41.262216], [-8.47691, 41.284565], [-8.506947, 41.300523], [-8.55461, 41.317438], [-8.63813, 41.338317], [-8.65675, 41.348296], [-8.676926, 41.36637], [-8.697698, 41.379559], [-8.745461, 41.39835], [-8.811155, 41.417194], [-8.799695, 41.14406], [-8.674793, 41.146932], [-8.674849, 41.153767], [-8.672489, 41.15648], [-8.66117, 41.156307], [-8.662078, 41.158104], [-8.660313, 41.160813], [-8.657033, 41.160378], [-8.654961, 41.161963], [-8.653231, 41.169174], [-8.655366, 41.175467], [-8.647955, 41.180228], [-8.647696, 41.185181], [-8.640929, 41.196241], [-8.634946, 41.193341], [-8.632275, 41.188626], [-8.639724, 41.222135], [-8.636534, 41.240141], [-8.630011, 41.249128], [-8.61825, 41.258097], [-8.597805, 41.267035], [-8.578801, 41.271582], [-8.566855, 41.272676], [-8.542987, 41.270983], [-8.53107, 41.267917], [-8.519165, 41.26325], [-8.507279, 41.256334], [-8.497731, 41.248627], [-8.487788, 41.236207], [-8.484411, 41.240495], [-8.476644, 41.237817], [-8.475756, 41.23917], [-8.471283, 41.239184], [-8.471604, 41.243459], [-8.469227, 41.245267], [-8.463258, 41.244384], [-8.459989, 41.246644], [-8.455512, 41.245982], [-8.455541, 41.251834], [-8.452276, 41.25522], [-8.449891, 41.255452], [-8.449304, 41.257479], [-8.447812, 41.257258], [-8.449028, 41.261982], [-8.445582, 41.262216]], [[-8.733813, 41.321117], [-8.721858, 41.322719], [-8.709607, 41.321418], [-8.697987, 41.317041], [-8.690779, 41.312361], [-8.682484, 41.303331], [-8.679, 41.294314], [-8.679099, 41.285306], [-8.686251, 41.272788], [-8.698226, 41.265167], [-8.710178, 41.262065], [-8.722117, 41.261709], [-8.734046, 41.263854], [-8.745963, 41.269373], [-8.754169, 41.276483], [-8.759354, 41.285502], [-8.760517, 41.294512], [-8.757881, 41.303514], [-8.750751, 41.312507], [-8.733813, 41.321117]]]]}}, {"id": "1", "type": "Feature", "properties": {"fill": "#b11c1c", "value_min": -2.25, "value_max": -2.0}, "geometry": {"type": "Polygon", "coordinates": [[[-8.361728, 41.493143], [-8.363082, 41.482158], [-8.354513, 41.473103], [-8.349973, 41.470647], [-8.338007, 41.469675], [-8.329445, 41.472959], [-8.320905, 41.481917], [-8.320917, 41.490924], [-8.325742, 41.49755], [-8.337664, 41.503346], [-8.349654, 41.502578], [-8.354474, 41.500125], [-8.361728, 41.493143]], [[-8.33773, 41.496873], [-8.32924, 41.490973], [-8.329695, 41.481968], [-8.337936, 41.476629], [-8.349898, 41.478164], [-8.354284, 41.482109], [-8.354563, 41.491118], [-8.349725, 41.495452], [-8.33773, 41.496873]]]}}, {"id": "0", "type": "Feature", "properties": {"fill": "#a21c1c", "value_min": -2.5, "value_max": -2.25}, "geometry": {"type": "Polygon", "coordinates": [[[-8.33773, 41.496873], [-8.349725, 41.495452], [-8.354563, 41.491118], [-8.354284, 41.482109], [-8.349898, 41.478164], [-8.337936, 41.476629], [-8.329695, 41.481968], [-8.32924, 41.490973], [-8.33773, 41.496873]]]}}, {"id": "3", "type": "Feature", "properties": {"fill": "#e57b10", "value_min": -1.75, "value_max": -1.5}, "geometry": {"type": "MultiPolygon", "coordinates": [[[[-8.154106, 41.633934], [-8.14905, 41.62489], [-8.14439, 41.622022], [-8.1324, 41.620981], [-8.125859, 41.624716], [-8.117915, 41.633662], [-8.121343, 41.642696], [-8.132041, 41.647774], [-8.144071, 41.646157], [-8.149574, 41.642908], [-8.154106, 41.633934]], [[-8.130948, 41.642769], [-8.124592, 41.633713], [-8.132321, 41.626861], [-8.144272, 41.63096], [-8.146409, 41.633877], [-8.144184, 41.637618], [-8.13492, 41.642798], [-8.130948, 41.642769]]], [[[-8.373623, 41.501982], [-8.379751, 41.491257], [-8.380321, 41.482252], [-8.377378, 41.473229], [-8.373943, 41.468716], [-8.362062, 41.459046], [-8.350123, 41.455624], [-8.338153, 41.455353], [-8.326152, 41.457993], [-8.314096, 41.465803], [-8.308645, 41.472836], [-8.305945, 41.481827], [-8.306726, 41.49084], [-8.313699, 41.503482], [-8.325587, 41.512505], [-8.337537, 41.51578], [-8.349524, 41.515548], [-8.361546, 41.511714], [-8.373623, 41.501982]], [[-8.349594, 41.508572], [-8.337606, 41.509034], [-8.325663, 41.505144], [-8.319274, 41.499922], [-8.313822, 41.490882], [-8.313462, 41.481873], [-8.318249, 41.472894], [-8.326062, 41.466696], [-8.338073, 41.46316], [-8.35004, 41.463907], [-8.361963, 41.469238], [-8.366188, 41.473168], [-8.370795, 41.482201], [-8.370574, 41.491207], [-8.365302, 41.500185], [-8.361629, 41.50328], [-8.349594, 41.508572]]]]}}, {"id": "7", "type": "Feature", "properties": {"fill": "#a3a3a3", "value_min": -0.75, "value_max": -0.5}, "geometry": {"type": "MultiPolygon", "coordinates": [[[[-8.818034, 41.610792], [-8.828644, 41.609656], [-8.827917, 41.583842], [-8.818034, 41.610792]]], [[[-8.35176, 41.756272], [-8.339804, 41.734229], [-8.332485, 41.725179], [-8.32345, 41.717286], [-8.311495, 41.711082], [-8.299493, 41.709383], [-8.287452, 41.711291], [-8.263273, 41.723429], [-8.250069, 41.733678], [-8.226807, 41.756568], [-8.214705, 41.762539], [-8.202667, 41.763209], [-8.197444, 41.760344], [-8.188818, 41.742269], [-8.178968, 41.734852], [-8.166962, 41.733396], [-8.154186, 41.742019], [-8.150603, 41.751], [-8.144422, 41.759961], [-8.130523, 41.760494], [-8.118544, 41.756806], [-8.10662, 41.749227], [-8.099548, 41.741604], [-8.094818, 41.733179], [-8.092462, 41.714527], [-8.095346, 41.695544], [-8.100138, 41.687567], [-8.10753, 41.683549], [-8.127631, 41.678772], [-8.15569, 41.675928], [-8.167756, 41.671856], [-8.191939, 41.659326], [-8.216083, 41.649248], [-8.240161, 41.644113], [-8.288229, 41.640784], [-8.300273, 41.637387], [-8.342526, 41.617152], [-8.407211, 41.590482], [-8.420795, 41.586627], [-8.456831, 41.58131], [-8.468859, 41.577494], [-8.48094, 41.566778], [-8.486943, 41.554836], [-8.484182, 41.545817], [-8.475038, 41.536768], [-8.459776, 41.52769], [-8.449573, 41.518634], [-8.450224, 41.50963], [-8.456217, 41.500651], [-8.469589, 41.488182], [-8.481609, 41.483069], [-8.493594, 41.482153], [-8.505549, 41.4852], [-8.541336, 41.50626], [-8.553305, 41.508313], [-8.565305, 41.505743], [-8.601362, 41.487776], [-8.613365, 41.483758], [-8.625349, 41.48281], [-8.637308, 41.486272], [-8.647184, 41.492388], [-8.661204, 41.498029], [-8.673169, 41.501302], [-8.697124, 41.503077], [-8.745059, 41.501213], [-8.769016, 41.502926], [-8.792958, 41.509733], [-8.804921, 41.516678], [-8.816872, 41.528227], [-8.822134, 41.536263], [-8.820421, 41.530712], [-8.815926, 41.525624], [-8.81063, 41.5101], [-8.813279, 41.503483], [-8.812636, 41.496944], [-8.804699, 41.482068], [-8.798552, 41.474753], [-8.80154, 41.446836], [-8.806115, 41.43713], [-8.807354, 41.425915], [-8.811155, 41.417194], [-8.745461, 41.39835], [-8.697698, 41.379559], [-8.676926, 41.36637], [-8.65675, 41.348296], [-8.63813, 41.338317], [-8.55461, 41.317438], [-8.506947, 41.300523], [-8.47691, 41.284565], [-8.445582, 41.262216], [-8.439785, 41.262907], [-8.438023, 41.268989], [-8.434745, 41.269673], [-8.432691, 41.277107], [-8.427032, 41.279372], [-8.429143, 41.284319], [-8.426171, 41.287028], [-8.426488, 41.291079], [-8.425013, 41.294909], [-8.422037, 41.296942], [-8.422647, 41.299867], [-8.407744, 41.304856], [-8.406262, 41.307335], [-8.402979, 41.307568], [-8.402096, 41.310457], [-8.423161, 41.320092], [-8.43734, 41.329417], [-8.48249, 41.372205], [-8.494382, 41.380708], [-8.5063, 41.386192], [-8.554061, 41.39795], [-8.577925, 41.407371], [-8.589845, 41.414538], [-8.604465, 41.429196], [-8.60821, 41.438217], [-8.608604, 41.447226], [-8.606128, 41.456225], [-8.600419, 41.465212], [-8.591777, 41.47419], [-8.577434, 41.483215], [-8.565425, 41.487818], [-8.553435, 41.489349], [-8.541466, 41.487945], [-8.529519, 41.483507], [-8.505667, 41.469691], [-8.493729, 41.464864], [-8.481752, 41.465049], [-8.469707, 41.473759], [-8.433429, 41.513766], [-8.409702, 41.536451], [-8.397723, 41.545396], [-8.373097, 41.556469], [-8.349069, 41.560962], [-8.325101, 41.559315], [-8.313158, 41.554617], [-8.301279, 41.544185], [-8.296955, 41.535817], [-8.285665, 41.499718], [-8.270471, 41.463593], [-8.270044, 41.454583], [-8.27284, 41.445593], [-8.299601, 41.409729], [-8.303677, 41.391739], [-8.305955, 41.355723], [-8.313202, 41.33527], [-8.31139, 41.328007], [-8.307502, 41.325762], [-8.305116, 41.326891], [-8.303024, 41.325994], [-8.303615, 41.323742], [-8.301216, 41.319694], [-8.296431, 41.316774], [-8.297618, 41.313846], [-8.296116, 41.310022], [-8.281801, 41.316569], [-8.281808, 41.319721], [-8.278828, 41.321976], [-8.278238, 41.325128], [-8.273161, 41.325134], [-8.271075, 41.326862], [-8.279504, 41.345321], [-8.283917, 41.364595], [-8.284286, 41.382613], [-8.282526, 41.391609], [-8.278779, 41.400593], [-8.266756, 41.416144], [-8.228172, 41.445302], [-8.22393, 41.454281], [-8.233131, 41.46335], [-8.254124, 41.474342], [-8.26599, 41.484136], [-8.27619, 41.499659], [-8.278804, 41.508683], [-8.277522, 41.524265], [-8.271202, 41.535657], [-8.265336, 41.541992], [-8.253273, 41.548354], [-8.241259, 41.550441], [-8.229278, 41.54959], [-8.217333, 41.545851], [-8.200469, 41.535187], [-8.192316, 41.526122], [-8.181834, 41.508583], [-8.169985, 41.498084], [-8.158001, 41.49829], [-8.133994, 41.501733], [-8.110046, 41.50063], [-8.098099, 41.498164], [-8.077045, 41.489226], [-8.067573, 41.48063], [-8.066069, 41.48817], [-8.072054, 41.490199], [-8.072348, 41.495601], [-8.078333, 41.49898], [-8.078332, 41.500331], [-8.092402, 41.504163], [-8.0927, 41.506048], [-8.11161, 41.507513], [-8.121902, 41.50988], [-8.139779, 41.516734], [-8.148399, 41.525806], [-8.152036, 41.53484], [-8.152628, 41.543851], [-8.14991, 41.561846], [-8.153994, 41.570883], [-8.184267, 41.589116], [-8.193093, 41.598186], [-8.198183, 41.607229], [-8.199816, 41.616247], [-8.198642, 41.625246], [-8.194469, 41.634224], [-8.187937, 41.643185], [-8.167933, 41.658128], [-8.155856, 41.663208], [-8.143812, 41.665649], [-8.1318, 41.665725], [-8.11982, 41.663361], [-8.107881, 41.658111], [-8.09843, 41.651525], [-8.094213, 41.642485], [-8.097943, 41.633507], [-8.111448, 41.615598], [-8.119795, 41.588641], [-8.120116, 41.579636], [-8.109059, 41.572577], [-8.081576, 41.564983], [-8.078879, 41.56493], [-8.075279, 41.568305], [-8.073182, 41.568079], [-8.069283, 41.570553], [-8.068081, 41.573478], [-8.056684, 41.579549], [-8.052181, 41.584498], [-8.052777, 41.587649], [-8.037169, 41.600242], [-8.031467, 41.602938], [-8.02367, 41.603156], [-8.019174, 41.601802], [-8.015872, 41.603824], [-8.013474, 41.603372], [-8.005971, 41.60629], [-8.003562, 41.611239], [-7.99936, 41.61281], [-7.998462, 41.612359], [-7.999669, 41.608759], [-7.996976, 41.605829], [-7.996684, 41.602003], [-7.984685, 41.603564], [-7.982292, 41.60086], [-7.975689, 41.603552], [-7.974482, 41.606701], [-7.970882, 41.607147], [-7.969091, 41.603768], [-7.965796, 41.602413], [-7.9541, 41.602846], [-7.952606, 41.600592], [-7.947808, 41.60081], [-7.945413, 41.599456], [-7.942725, 41.595625], [-7.936132, 41.594488], [-7.93791, 41.601694], [-7.937004, 41.603718], [-7.931604, 41.604384], [-7.930073, 41.614735], [-7.925255, 41.620579], [-7.918952, 41.621918], [-7.915933, 41.627764], [-7.913281, 41.628885], [-7.973889, 41.704523], [-7.979333, 41.713578], [-7.981984, 41.731616], [-7.985711, 41.740656], [-7.998332, 41.751884], [-8.022254, 41.760724], [-8.037462, 41.768121], [-8.056935, 41.786297], [-8.078979, 41.812913], [-8.082892, 41.810493], [-8.091013, 41.812521], [-8.093421, 41.811397], [-8.093723, 41.808471], [-8.101845, 41.809824], [-8.104853, 41.81185], [-8.115984, 41.812302], [-8.123807, 41.808702], [-8.138247, 41.808477], [-8.139751, 41.813203], [-8.14276, 41.812978], [-8.145769, 41.815453], [-8.149078, 41.814777], [-8.153893, 41.817928], [-8.161415, 41.818376], [-8.165326, 41.81815], [-8.173744, 41.808019], [-8.177054, 41.808017], [-8.182773, 41.812516], [-8.190291, 41.809587], [-8.197158, 41.814129], [-8.201063, 41.808724], [-8.204973, 41.807372], [-8.205872, 41.804445], [-8.213692, 41.803765], [-8.217598, 41.80016], [-8.217589, 41.793634], [-8.224207, 41.794303], [-8.229917, 41.791598], [-8.240744, 41.791588], [-8.24074, 41.789338], [-8.244347, 41.787984], [-8.245546, 41.785731], [-8.251257, 41.784375], [-8.251845, 41.777172], [-8.257551, 41.773564], [-8.261762, 41.774235], [-8.271366, 41.766346], [-8.280681, 41.764083], [-8.284038, 41.761109], [-8.284931, 41.757507], [-8.305674, 41.758152], [-8.311096, 41.762195], [-8.318308, 41.761283], [-8.326436, 41.765096], [-8.328234, 41.763292], [-8.336653, 41.763728], [-8.341756, 41.761468], [-8.344765, 41.762363], [-8.349267, 41.760103], [-8.35176, 41.756272]], [[-8.046872, 41.722955], [-8.031633, 41.714031], [-8.029513, 41.705006], [-8.038277, 41.696073], [-8.047322, 41.692456], [-8.059333, 41.692864], [-8.064802, 41.696292], [-8.070598, 41.705346], [-8.06781, 41.71433], [-8.05891, 41.721909], [-8.046872, 41.722955]], [[-8.023378, 41.686555], [-8.011356, 41.686962], [-7.999382, 41.684269], [-7.988654, 41.677633], [-7.980409, 41.668553], [-7.976701, 41.659513], [-7.975782, 41.650498], [-7.977395, 41.641505], [-7.982399, 41.632542], [-7.98827, 41.626567], [-8.000384, 41.619478], [-8.012434, 41.616441], [-8.024444, 41.615902], [-8.04839, 41.619949], [-8.060479, 41.614059], [-8.065053, 41.606223], [-8.072653, 41.602095], [-8.084689, 41.599545], [-8.096641, 41.602938], [-8.099494, 41.606498], [-8.101694, 41.615522], [-8.096336, 41.624765], [-8.084269, 41.62924], [-8.072269, 41.628891], [-8.061948, 41.633219], [-8.068337, 41.660292], [-8.065662, 41.669278], [-8.05174, 41.678171], [-8.023378, 41.686555]]], [[[-8.06404, 41.443151], [-8.078484, 41.417498], [-8.076905, 41.416597], [-8.070325, 41.41862], [-8.066739, 41.416142], [-8.061654, 41.417489], [-8.059852, 41.424916], [-8.055959, 41.429415], [-8.05745, 41.432793], [-8.056549, 41.436394], [-8.057743, 41.438645], [-8.061033, 41.438872], [-8.063424, 41.4409], [-8.06404, 41.443151]]], [[[-7.950159, 41.755671], [-7.938094, 41.757879], [-7.937842, 41.758237], [-7.95008, 41.760539], [-7.952772, 41.758374], [-7.950159, 41.755671]]], [[[-7.8339, 41.710186], [-7.834581, 41.712201], [-7.842602, 41.716671], [-7.854608, 41.717555], [-7.862129, 41.712477], [-7.866025, 41.703509], [-7.858878, 41.694431], [-7.855074, 41.691301], [-7.851459, 41.691308], [-7.847538, 41.695365], [-7.837309, 41.699391], [-7.835792, 41.702763], [-7.839679, 41.706599], [-7.838465, 41.709522], [-7.8339, 41.710186]]]]}}, {"id": "11", "type": "Feature", "properties": {"fill": "#a3a3a3", "value_min": 0.25, "value_max": 0.5}, "geometry": {"type": "MultiPolygon", "coordinates": [[[[-8.20345, 41.69985], [-8.215475, 41.699348], [-8.21739, 41.697432], [-8.21554, 41.693989], [-8.203536, 41.692942], [-8.201104, 41.69732], [-8.20345, 41.69985]]], [[[-8.217909, 41.382181], [-8.219283, 41.383479], [-8.228404, 41.382251], [-8.219328, 41.379731], [-8.217909, 41.382181]]]]}}, {"id": "2", "type": "Feature", "properties": {"fill": "#c93e18", "value_min": -2.0, "value_max": -1.75}, "geometry": {"type": "MultiPolygon", "coordinates": [[[[-8.130948, 41.642769], [-8.13492, 41.642798], [-8.144184, 41.637618], [-8.146409, 41.633877], [-8.144272, 41.63096], [-8.132321, 41.626861], [-8.124592, 41.633713], [-8.130948, 41.642769]]], [[[-8.349594, 41.508572], [-8.361629, 41.50328], [-8.365302, 41.500185], [-8.370574, 41.491207], [-8.370795, 41.482201], [-8.366188, 41.473168], [-8.361963, 41.469238], [-8.35004, 41.463907], [-8.338073, 41.46316], [-8.326062, 41.466696], [-8.318249, 41.472894], [-8.313462, 41.481873], [-8.313822, 41.490882], [-8.319274, 41.499922], [-8.325663, 41.505144], [-8.337606, 41.509034], [-8.349594, 41.508572]], [[-8.361728, 41.493143], [-8.354474, 41.500125], [-8.349654, 41.502578], [-8.337664, 41.503346], [-8.325742, 41.49755], [-8.320917, 41.490924], [-8.320905, 41.481917], [-8.329445, 41.472959], [-8.338007, 41.469675], [-8.349973, 41.470647], [-8.354513, 41.473103], [-8.363082, 41.482158], [-8.361728, 41.493143]]]]}}, {"id": "6", "type": "Feature", "properties": {"fill": "#a3a3a3", "value_min": -1.0, "value_max": -0.75}, "geometry": {"type": "MultiPolygon", "coordinates": [[[[-8.078979, 41.812913], [-8.056935, 41.786297], [-8.037462, 41.768121], [-8.022254, 41.760724], [-7.998332, 41.751884], [-7.985711, 41.740656], [-7.981984, 41.731616], [-7.979333, 41.713578], [-7.973889, 41.704523], [-7.913281, 41.628885], [-7.912613, 41.63361], [-7.906014, 41.633147], [-7.906884, 41.641927], [-7.897869, 41.645511], [-7.89696, 41.647985], [-7.892759, 41.647976], [-7.892145, 41.651576], [-7.902319, 41.659925], [-7.899913, 41.66127], [-7.900198, 41.665547], [-7.898396, 41.665769], [-7.896885, 41.668692], [-7.883969, 41.67069], [-7.879755, 41.673607], [-7.877044, 41.676077], [-7.876723, 41.681253], [-7.873401, 41.686198], [-7.868896, 41.686413], [-7.868008, 41.68326], [-7.864403, 41.683701], [-7.864096, 41.685276], [-7.858987, 41.68639], [-7.857773, 41.689538], [-7.854776, 41.68818], [-7.851459, 41.691308], [-7.855074, 41.691301], [-7.858878, 41.694431], [-7.866025, 41.703509], [-7.862129, 41.712477], [-7.854608, 41.717555], [-7.842602, 41.716671], [-7.834581, 41.712201], [-7.8339, 41.710186], [-7.825252, 41.708813], [-7.818621, 41.713522], [-7.815291, 41.718689], [-7.808986, 41.717996], [-7.808396, 41.715744], [-7.803298, 41.714154], [-7.790966, 41.717044], [-7.789449, 41.719966], [-7.784087, 41.721075], [-7.806318, 41.728573], [-7.818302, 41.730747], [-7.842342, 41.731164], [-7.854398, 41.729392], [-7.866528, 41.723339], [-7.87898, 41.698607], [-7.891209, 41.686333], [-7.903255, 41.68451], [-7.915221, 41.68748], [-7.927107, 41.695306], [-7.934369, 41.704163], [-7.937485, 41.713199], [-7.937275, 41.722204], [-7.933355, 41.731174], [-7.918097, 41.749046], [-7.916368, 41.758036], [-7.921186, 41.767088], [-7.937857, 41.772239], [-7.961914, 41.772639], [-7.973918, 41.774411], [-7.979048, 41.776624], [-7.99156, 41.785741], [-7.998936, 41.794813], [-8.010591, 41.812927], [-8.019166, 41.83138], [-8.02901, 41.829589], [-8.037134, 41.831171], [-8.041351, 41.828023], [-8.041054, 41.825097], [-8.045268, 41.824425], [-8.046775, 41.821951], [-8.056712, 41.81588], [-8.06664, 41.817012], [-8.072961, 41.813414], [-8.078979, 41.812913]], [[-7.950159, 41.755671], [-7.952772, 41.758374], [-7.95008, 41.760539], [-7.937842, 41.758237], [-7.938094, 41.757879], [-7.950159, 41.755671]]], [[[-7.813053, 41.872633], [-7.813053, 41.872633], [-7.813029, 41.872563], [-7.813053, 41.872633]]], [[[-7.812821, 41.871957], [-7.805899, 41.856015], [-7.799423, 41.846941], [-7.78868, 41.837822], [-7.780284, 41.833509], [-7.768298, 41.830563], [-7.756266, 41.829986], [-7.740404, 41.8317], [-7.74729, 41.837772], [-7.746349, 41.84407], [-7.750246, 41.846784], [-7.750532, 41.849261], [-7.743309, 41.849012], [-7.746901, 41.8524], [-7.746881, 41.855776], [-7.73843, 41.859348], [-7.734159, 41.868337], [-7.730228, 41.871024], [-7.729293, 41.875972], [-7.720533, 41.880218], [-7.720523, 41.881793], [-7.725335, 41.882935], [-7.726208, 41.887665], [-7.737044, 41.888828], [-7.73944, 41.891087], [-7.74246, 41.889747], [-7.742785, 41.885922], [-7.756022, 41.888441], [-7.758719, 41.890926], [-7.756592, 41.89407], [-7.758076, 41.897901], [-7.764097, 41.898595], [-7.779227, 41.886264], [-7.785257, 41.885157], [-7.788886, 41.882467], [-7.794309, 41.882033], [-7.796739, 41.878214], [-7.794954, 41.873932], [-7.803381, 41.874857], [-7.804914, 41.869459], [-7.812821, 41.871957]]], [[[-8.046872, 41.722955], [-8.05891, 41.721909], [-8.06781, 41.71433], [-8.070598, 41.705346], [-8.064802, 41.696292], [-8.059333, 41.692864], [-8.047322, 41.692456], [-8.038277, 41.696073], [-8.029513, 41.705006], [-8.031633, 41.714031], [-8.046872, 41.722955]]], [[[-8.081576, 41.564983], [-8.109059, 41.572577], [-8.120116, 41.579636], [-8.119795, 41.588641], [-8.111448, 41.615598], [-8.097943, 41.633507], [-8.094213, 41.642485], [-8.09843, 41.651525], [-8.107881, 41.658111], [-8.11982, 41.663361], [-8.1318, 41.665725], [-8.143812, 41.665649], [-8.155856, 41.663208], [-8.167933, 41.658128], [-8.187937, 41.643185], [-8.194469, 41.634224], [-8.198642, 41.625246], [-8.199816, 41.616247], [-8.198183, 41.607229], [-8.193093, 41.598186], [-8.184267, 41.589116], [-8.153994, 41.570883], [-8.14991, 41.561846], [-8.152628, 41.543851], [-8.152036, 41.53484], [-8.148399, 41.525806], [-8.139779, 41.516734], [-8.121902, 41.50988], [-8.11161, 41.507513], [-8.0927, 41.506048], [-8.089698, 41.518337], [-8.097868, 41.514761], [-8.10985, 41.514936], [-8.115018, 41.516546], [-8.125462, 41.525633], [-8.124817, 41.534636], [-8.121514, 41.538564], [-8.109443, 41.54458], [-8.096273, 41.543621], [-8.094175, 41.544904], [-8.087885, 41.542876], [-8.083389, 41.5449], [-8.080687, 41.551651], [-8.074396, 41.549848], [-8.072897, 41.551197], [-8.076188, 41.557276], [-8.080082, 41.558854], [-8.081576, 41.564983]], [[-8.143916, 41.657808], [-8.131902, 41.658073], [-8.119935, 41.654902], [-8.114293, 41.651649], [-8.106196, 41.642579], [-8.106657, 41.633575], [-8.120486, 41.614378], [-8.132591, 41.606746], [-8.144627, 41.604057], [-8.156595, 41.606535], [-8.1685, 41.614006], [-8.175066, 41.625079], [-8.174963, 41.634086], [-8.170287, 41.643059], [-8.159926, 41.651991], [-8.143916, 41.657808]]], [[[-8.313202, 41.33527], [-8.305955, 41.355723], [-8.303677, 41.391739], [-8.299601, 41.409729], [-8.27284, 41.445593], [-8.270044, 41.454583], [-8.270471, 41.463593], [-8.285665, 41.499718], [-8.296955, 41.535817], [-8.301279, 41.544185], [-8.313158, 41.554617], [-8.325101, 41.559315], [-8.349069, 41.560962], [-8.373097, 41.556469], [-8.397723, 41.545396], [-8.409702, 41.536451], [-8.433429, 41.513766], [-8.469707, 41.473759], [-8.481752, 41.465049], [-8.493729, 41.464864], [-8.505667, 41.469691], [-8.529519, 41.483507], [-8.541466, 41.487945], [-8.553435, 41.489349], [-8.565425, 41.487818], [-8.577434, 41.483215], [-8.591777, 41.47419], [-8.600419, 41.465212], [-8.606128, 41.456225], [-8.608604, 41.447226], [-8.60821, 41.438217], [-8.604465, 41.429196], [-8.589845, 41.414538], [-8.577925, 41.407371], [-8.554061, 41.39795], [-8.5063, 41.386192], [-8.494382, 41.380708], [-8.48249, 41.372205], [-8.43734, 41.329417], [-8.423161, 41.320092], [-8.402096, 41.310457], [-8.399712, 41.311628], [-8.400018, 41.313428], [-8.396738, 41.314336], [-8.398835, 41.316131], [-8.393775, 41.31997], [-8.393489, 41.323122], [-8.391105, 41.324253], [-8.386325, 41.323588], [-8.380382, 41.331254], [-8.375305, 41.33104], [-8.37201, 41.328346], [-8.361563, 41.329718], [-8.358276, 41.329049], [-8.357673, 41.327249], [-8.350207, 41.327264], [-8.346032, 41.328847], [-8.342462, 41.333131], [-8.333215, 41.336299], [-8.326363, 41.342163], [-8.324568, 41.341041], [-8.323376, 41.341943], [-8.320676, 41.338121], [-8.313202, 41.33527]], [[-8.337326, 41.536522], [-8.325365, 41.533938], [-8.313448, 41.527239], [-8.301602, 41.514136], [-8.294481, 41.499773], [-8.288814, 41.481723], [-8.28873, 41.463707], [-8.29247, 41.454723], [-8.302367, 41.44291], [-8.314434, 41.433721], [-8.340428, 41.418978], [-8.345062, 41.409997], [-8.33183, 41.391906], [-8.327604, 41.382874], [-8.32639, 41.373859], [-8.328154, 41.364862], [-8.333726, 41.355887], [-8.339215, 41.350575], [-8.351229, 41.344517], [-8.363202, 41.342471], [-8.375145, 41.343451], [-8.387058, 41.347621], [-8.398652, 41.356244], [-8.404711, 41.365283], [-8.406918, 41.374302], [-8.406194, 41.383306], [-8.402712, 41.392296], [-8.390587, 41.410247], [-8.392524, 41.419265], [-8.403963, 41.428332], [-8.434008, 41.447226], [-8.445891, 41.457675], [-8.449944, 41.464591], [-8.452025, 41.473609], [-8.450363, 41.482608], [-8.444307, 41.491587], [-8.433552, 41.4996], [-8.406989, 41.509415], [-8.373344, 41.53091], [-8.361317, 41.534991], [-8.349311, 41.536836], [-8.337326, 41.536522]], [[-8.553515, 41.477722], [-8.541547, 41.476334], [-8.529613, 41.470495], [-8.522687, 41.464916], [-8.517734, 41.455888], [-8.516971, 41.446877], [-8.521323, 41.437888], [-8.529897, 41.431184], [-8.541893, 41.427254], [-8.553863, 41.426962], [-8.56581, 41.430069], [-8.577727, 41.438017], [-8.583299, 41.447137], [-8.583802, 41.456146], [-8.57957, 41.465138], [-8.565509, 41.47522], [-8.553515, 41.477722]]]]}}, {"id": "5", "type": "Feature", "properties": {"fill": "#b6a27f", "value_min": -1.25, "value_max": -1.0}, "geometry": {"type": "MultiPolygon", "coordinates": [[[[-8.019166, 41.83138], [-8.010591, 41.812927], [-7.998936, 41.794813], [-7.99156, 41.785741], [-7.979048, 41.776624], [-7.973918, 41.774411], [-7.961914, 41.772639], [-7.937857, 41.772239], [-7.921186, 41.767088], [-7.916368, 41.758036], [-7.918097, 41.749046], [-7.933355, 41.731174], [-7.937275, 41.722204], [-7.937485, 41.713199], [-7.934369, 41.704163], [-7.927107, 41.695306], [-7.915221, 41.68748], [-7.903255, 41.68451], [-7.891209, 41.686333], [-7.87898, 41.698607], [-7.866528, 41.723339], [-7.854398, 41.729392], [-7.842342, 41.731164], [-7.818302, 41.730747], [-7.806318, 41.728573], [-7.784087, 41.721075], [-7.78252, 41.723546], [-7.776204, 41.724652], [-7.773786, 41.727346], [-7.7678, 41.723276], [-7.763888, 41.724389], [-7.761765, 41.727758], [-7.762933, 41.733839], [-7.759307, 41.737203], [-7.759597, 41.739005], [-7.75689, 41.739446], [-7.758687, 41.740577], [-7.757758, 41.745301], [-7.748417, 41.749321], [-7.747786, 41.754496], [-7.743866, 41.756509], [-7.743243, 41.760099], [-7.757518, 41.765219], [-7.766973, 41.774543], [-7.769409, 41.783576], [-7.766673, 41.792554], [-7.756826, 41.801032], [-7.74471, 41.805097], [-7.732658, 41.80581], [-7.727032, 41.804685], [-7.72995, 41.819031], [-7.73594, 41.823554], [-7.74345, 41.825605], [-7.738919, 41.828515], [-7.740404, 41.8317], [-7.756266, 41.829986], [-7.768298, 41.830563], [-7.780284, 41.833509], [-7.78868, 41.837822], [-7.799423, 41.846941], [-7.805899, 41.856015], [-7.812821, 41.871957], [-7.813029, 41.872563], [-7.813053, 41.872633], [-7.823863, 41.874013], [-7.825059, 41.875817], [-7.830479, 41.875831], [-7.830789, 41.874031], [-7.832894, 41.874712], [-7.83772, 41.872924], [-7.842528, 41.875187], [-7.841663, 41.866632], [-7.849515, 41.861475], [-7.858542, 41.862622], [-7.859456, 41.860148], [-7.864877, 41.859711], [-7.87033, 41.851395], [-7.873043, 41.850501], [-7.873367, 41.844875], [-7.879056, 41.85254], [-7.886268, 41.855932], [-7.888076, 41.855486], [-7.891675, 41.859094], [-7.900698, 41.861588], [-7.904318, 41.859795], [-7.907309, 41.865203], [-7.906095, 41.868126], [-7.910299, 41.871285], [-7.909985, 41.875111], [-7.915391, 41.879397], [-7.921118, 41.877833], [-7.928044, 41.87807], [-7.935283, 41.874707], [-7.937389, 41.87516], [-7.941618, 41.870891], [-7.951254, 41.871132], [-7.956367, 41.87339], [-7.956362, 41.875191], [-7.960878, 41.875648], [-7.962086, 41.874074], [-7.973828, 41.875216], [-7.987996, 41.869157], [-7.990123, 41.860157], [-7.995547, 41.858138], [-7.994047, 41.855211], [-7.996162, 41.851837], [-8.003089, 41.850494], [-8.005804, 41.847346], [-8.007928, 41.838796], [-8.012753, 41.833624], [-8.013062, 41.829348], [-8.019166, 41.83138]], [[-7.948361, 41.865678], [-7.936336, 41.864207], [-7.922206, 41.857166], [-7.91428, 41.848084], [-7.912613, 41.842106], [-7.904151, 41.829975], [-7.900791, 41.829087], [-7.888658, 41.834354], [-7.87658, 41.83634], [-7.864555, 41.835251], [-7.852602, 41.830186], [-7.842982, 41.820368], [-7.84033, 41.811335], [-7.841948, 41.802344], [-7.847278, 41.793391], [-7.847512, 41.784387], [-7.841464, 41.780014], [-7.833889, 41.766235], [-7.835088, 41.757241], [-7.843706, 41.748321], [-7.854141, 41.743859], [-7.866201, 41.741912], [-7.878198, 41.743577], [-7.884517, 41.748724], [-7.888508, 41.75777], [-7.887865, 41.766771], [-7.878609, 41.784694], [-7.902884, 41.802942], [-7.910951, 41.812026], [-7.912936, 41.822992], [-7.916311, 41.812077], [-7.914785, 41.803055], [-7.915781, 41.794058], [-7.922783, 41.785117], [-7.937725, 41.780239], [-7.949755, 41.780451], [-7.961664, 41.785475], [-7.966059, 41.794522], [-7.96133, 41.808856], [-7.957892, 41.812461], [-7.976169, 41.830639], [-7.979624, 41.839677], [-7.978297, 41.848672], [-7.971439, 41.857617], [-7.960441, 41.863754], [-7.948361, 41.865678]], [[-7.89039, 41.733961], [-7.880674, 41.721666], [-7.88282, 41.71268], [-7.8909, 41.704331], [-7.902942, 41.702941], [-7.91576, 41.712996], [-7.915169, 41.721997], [-7.90244, 41.732484], [-7.89039, 41.733961]]], [[[-8.143916, 41.657808], [-8.159926, 41.651991], [-8.170287, 41.643059], [-8.174963, 41.634086], [-8.175066, 41.625079], [-8.1685, 41.614006], [-8.156595, 41.606535], [-8.144627, 41.604057], [-8.132591, 41.606746], [-8.120486, 41.614378], [-8.106657, 41.633575], [-8.106196, 41.642579], [-8.114293, 41.651649], [-8.119935, 41.654902], [-8.131902, 41.658073], [-8.143916, 41.657808]], [[-8.13018, 41.65177], [-8.120027, 41.648136], [-8.113948, 41.642639], [-8.11259, 41.633621], [-8.120384, 41.621876], [-8.132474, 41.615461], [-8.144486, 41.614738], [-8.156417, 41.620253], [-8.160929, 41.624977], [-8.163176, 41.634001], [-8.15903, 41.642977], [-8.156089, 41.645356], [-8.143999, 41.651594], [-8.13018, 41.65177]]], [[[-8.096273, 41.543621], [-8.109443, 41.54458], [-8.121514, 41.538564], [-8.124817, 41.534636], [-8.125462, 41.525633], [-8.115018, 41.516546], [-8.10985, 41.514936], [-8.097868, 41.514761], [-8.089698, 41.518337], [-8.090594, 41.522169], [-8.093588, 41.52307], [-8.09209, 41.524645], [-8.092385, 41.532749], [-8.095978, 41.534325], [-8.098073, 41.538152], [-8.106759, 41.543106], [-8.096273, 41.543621]]], [[[-8.337326, 41.536522], [-8.349311, 41.536836], [-8.361317, 41.534991], [-8.373344, 41.53091], [-8.406989, 41.509415], [-8.433552, 41.4996], [-8.444307, 41.491587], [-8.450363, 41.482608], [-8.452025, 41.473609], [-8.449944, 41.464591], [-8.445891, 41.457675], [-8.434008, 41.447226], [-8.403963, 41.428332], [-8.392524, 41.419265], [-8.390587, 41.410247], [-8.402712, 41.392296], [-8.406194, 41.383306], [-8.406918, 41.374302], [-8.404711, 41.365283], [-8.398652, 41.356244], [-8.387058, 41.347621], [-8.375145, 41.343451], [-8.363202, 41.342471], [-8.351229, 41.344517], [-8.339215, 41.350575], [-8.333726, 41.355887], [-8.328154, 41.364862], [-8.32639, 41.373859], [-8.327604, 41.382874], [-8.33183, 41.391906], [-8.345062, 41.409997], [-8.340428, 41.418978], [-8.314434, 41.433721], [-8.302367, 41.44291], [-8.29247, 41.454723], [-8.28873, 41.463707], [-8.288814, 41.481723], [-8.294481, 41.499773], [-8.301602, 41.514136], [-8.313448, 41.527239], [-8.325365, 41.533938], [-8.337326, 41.536522]], [[-8.349437, 41.524252], [-8.337451, 41.52424], [-8.325496, 41.521238], [-8.313588, 41.51397], [-8.302878, 41.499824], [-8.29783, 41.481778], [-8.298827, 41.472777], [-8.302997, 41.463795], [-8.314234, 41.452688], [-8.326267, 41.446905], [-8.338268, 41.443992], [-8.350244, 41.443515], [-8.363411, 41.44613], [-8.374121, 41.450194], [-8.381849, 41.455238], [-8.391419, 41.464297], [-8.396587, 41.473331], [-8.39739, 41.482343], [-8.394939, 41.491337], [-8.381294, 41.50928], [-8.373494, 41.515315], [-8.36145, 41.521471], [-8.349437, 41.524252]], [[-8.421646, 41.491096], [-8.409732, 41.483911], [-8.401584, 41.482365], [-8.409782, 41.478379], [-8.412942, 41.473416], [-8.421828, 41.470713], [-8.433776, 41.473846], [-8.436772, 41.482543], [-8.433663, 41.486816], [-8.421646, 41.491096]]], [[[-8.553515, 41.477722], [-8.565509, 41.47522], [-8.57957, 41.465138], [-8.583802, 41.456146], [-8.583299, 41.447137], [-8.577727, 41.438017], [-8.56581, 41.430069], [-8.553863, 41.426962], [-8.541893, 41.427254], [-8.529897, 41.431184], [-8.521323, 41.437888], [-8.516971, 41.446877], [-8.517734, 41.455888], [-8.522687, 41.464916], [-8.529613, 41.470495], [-8.541547, 41.476334], [-8.553515, 41.477722]], [[-8.543705, 41.465002], [-8.536108, 41.455964], [-8.540273, 41.446973], [-8.553747, 41.443904], [-8.560697, 41.447053], [-8.566476, 41.456082], [-8.557909, 41.465057], [-8.553591, 41.466583], [-8.543705, 41.465002]]]]}}, {"id": "4", "type": "Feature", "properties": {"fill": "#e19f31", "value_min": -1.5, "value_max": -1.25}, "geometry": {"type": "MultiPolygon", "coordinates": [[[[-7.948361, 41.865678], [-7.960441, 41.863754], [-7.971439, 41.857617], [-7.978297, 41.848672], [-7.979624, 41.839677], [-7.976169, 41.830639], [-7.957892, 41.812461], [-7.96133, 41.808856], [-7.966059, 41.794522], [-7.961664, 41.785475], [-7.949755, 41.780451], [-7.937725, 41.780239], [-7.922783, 41.785117], [-7.915781, 41.794058], [-7.914785, 41.803055], [-7.916311, 41.812077], [-7.912936, 41.822992], [-7.910951, 41.812026], [-7.902884, 41.802942], [-7.878609, 41.784694], [-7.887865, 41.766771], [-7.888508, 41.75777], [-7.884517, 41.748724], [-7.878198, 41.743577], [-7.866201, 41.741912], [-7.854141, 41.743859], [-7.843706, 41.748321], [-7.835088, 41.757241], [-7.833889, 41.766235], [-7.841464, 41.780014], [-7.847512, 41.784387], [-7.847278, 41.793391], [-7.841948, 41.802344], [-7.84033, 41.811335], [-7.842982, 41.820368], [-7.852602, 41.830186], [-7.864555, 41.835251], [-7.87658, 41.83634], [-7.888658, 41.834354], [-7.900791, 41.829087], [-7.904151, 41.829975], [-7.912613, 41.842106], [-7.91428, 41.848084], [-7.922206, 41.857166], [-7.936336, 41.864207], [-7.948361, 41.865678]]], [[[-7.727032, 41.804685], [-7.732658, 41.80581], [-7.74471, 41.805097], [-7.756826, 41.801032], [-7.766673, 41.792554], [-7.769409, 41.783576], [-7.766973, 41.774543], [-7.757518, 41.765219], [-7.743243, 41.760099], [-7.739912, 41.764148], [-7.726937, 41.771755], [-7.7254, 41.777152], [-7.727191, 41.779184], [-7.724177, 41.780299], [-7.725372, 41.781653], [-7.722296, 41.792446], [-7.728879, 41.797871], [-7.727032, 41.804685]]], [[[-7.89039, 41.733961], [-7.90244, 41.732484], [-7.915169, 41.721997], [-7.91576, 41.712996], [-7.902942, 41.702941], [-7.8909, 41.704331], [-7.88282, 41.71268], [-7.880674, 41.721666], [-7.89039, 41.733961]]], [[[-8.13018, 41.65177], [-8.143999, 41.651594], [-8.156089, 41.645356], [-8.15903, 41.642977], [-8.163176, 41.634001], [-8.160929, 41.624977], [-8.156417, 41.620253], [-8.144486, 41.614738], [-8.132474, 41.615461], [-8.120384, 41.621876], [-8.11259, 41.633621], [-8.113948, 41.642639], [-8.120027, 41.648136], [-8.13018, 41.65177]], [[-8.154106, 41.633934], [-8.149574, 41.642908], [-8.144071, 41.646157], [-8.132041, 41.647774], [-8.121343, 41.642696], [-8.117915, 41.633662], [-8.125859, 41.624716], [-8.1324, 41.620981], [-8.14439, 41.622022], [-8.14905, 41.62489], [-8.154106, 41.633934]]], [[[-8.349437, 41.524252], [-8.36145, 41.521471], [-8.373494, 41.515315], [-8.381294, 41.50928], [-8.394939, 41.491337], [-8.39739, 41.482343], [-8.396587, 41.473331], [-8.391419, 41.464297], [-8.381849, 41.455238], [-8.374121, 41.450194], [-8.363411, 41.44613], [-8.350244, 41.443515], [-8.338268, 41.443992], [-8.326267, 41.446905], [-8.314234, 41.452688], [-8.302997, 41.463795], [-8.298827, 41.472777], [-8.29783, 41.481778], [-8.302878, 41.499824], [-8.313588, 41.51397], [-8.325496, 41.521238], [-8.337451, 41.52424], [-8.349437, 41.524252]], [[-8.373623, 41.501982], [-8.361546, 41.511714], [-8.349524, 41.515548], [-8.337537, 41.51578], [-8.325587, 41.512505], [-8.313699, 41.503482], [-8.306726, 41.49084], [-8.305945, 41.481827], [-8.308645, 41.472836], [-8.314096, 41.465803], [-8.326152, 41.457993], [-8.338153, 41.455353], [-8.350123, 41.455624], [-8.362062, 41.459046], [-8.373943, 41.468716], [-8.377378, 41.473229], [-8.380321, 41.482252], [-8.379751, 41.491257], [-8.373623, 41.501982]]], [[[-8.421646, 41.491096], [-8.433663, 41.486816], [-8.436772, 41.482543], [-8.433776, 41.473846], [-8.421828, 41.470713], [-8.412942, 41.473416], [-8.409782, 41.478379], [-8.401584, 41.482365], [-8.409732, 41.483911], [-8.421646, 41.491096]]], [[[-8.543705, 41.465002], [-8.553591, 41.466583], [-8.557909, 41.465057], [-8.566476, 41.456082], [-8.560697, 41.447053], [-8.553747, 41.443904], [-8.540273, 41.446973], [-8.536108, 41.455964], [-8.543705, 41.465002]]]]}}]}