{"type": "FeatureCollection", "features": [{"id": "9", "type": "Feature", "properties": {"fill": "#a3a3a3", "value_min": 0.25, "value_max": 0.5}, "geometry": {"type": "MultiPolygon", "coordinates": [[[[-8.523297, 41.659032], [-8.527992, 41.645085], [-8.536017, 41.631528], [-8.535128, 41.62973], [-8.542257, 41.618676], [-8.542536, 41.615299], [-8.547625, 41.61483], [-8.552625, 41.606932], [-8.557315, 41.591158], [-8.555385, 41.573136], [-8.550749, 41.564111], [-8.541008, 41.552802], [-8.519414, 41.536962], [-8.515473, 41.527938], [-8.515717, 41.509924], [-8.513588, 41.500908], [-8.492629, 41.464788], [-8.486946, 41.446747], [-8.485448, 41.428726], [-8.487075, 41.419725], [-8.496046, 41.40175], [-8.506262, 41.391248], [-8.518272, 41.384579], [-8.530251, 41.381988], [-8.542207, 41.382459], [-8.554149, 41.38512], [-8.589955, 41.396968], [-8.61385, 41.402123], [-8.637769, 41.403429], [-8.661713, 41.400248], [-8.683099, 41.39341], [-8.733626, 41.367228], [-8.775727, 41.348589], [-8.791351, 41.339611], [-8.806906, 41.327464], [-8.803318, 41.236311], [-8.793831, 41.233923], [-8.781901, 41.233024], [-8.75803, 41.23465], [-8.698332, 41.241993], [-8.6864, 41.241675], [-8.674476, 41.239519], [-8.662569, 41.234493], [-8.650693, 41.223854], [-8.644212, 41.213141], [-8.638308, 41.194452], [-8.634946, 41.193341], [-8.632526, 41.188624], [-8.625658, 41.186628], [-8.621132, 41.178994], [-8.613374, 41.177451], [-8.608583, 41.174095], [-8.609164, 41.172066], [-8.604942, 41.164881], [-8.600767, 41.164222], [-8.589766, 41.167193], [-8.589194, 41.170572], [-8.583263, 41.174422], [-8.582094, 41.177803], [-8.578825, 41.178941], [-8.581296, 41.191762], [-8.575958, 41.195609], [-8.576894, 41.201908], [-8.574515, 41.202593], [-8.57423, 41.20462], [-8.567971, 41.204644], [-8.565895, 41.206227], [-8.567697, 41.208246], [-8.566512, 41.209376], [-8.559636, 41.206251], [-8.554271, 41.20627], [-8.549521, 41.209214], [-8.544157, 41.209458], [-8.54238, 41.211265], [-8.532257, 41.213102], [-8.52713, 41.203215], [-8.523236, 41.200077], [-8.51163, 41.203042], [-8.510456, 41.206197], [-8.505693, 41.207113], [-8.504239, 41.213646], [-8.500076, 41.21546], [-8.50308, 41.219502], [-8.502204, 41.222656], [-8.495642, 41.222227], [-8.495947, 41.223351], [-8.490894, 41.226294], [-8.487935, 41.230354], [-8.490331, 41.232373], [-8.489156, 41.235528], [-8.486181, 41.236888], [-8.484411, 41.240495], [-8.476346, 41.237818], [-8.475756, 41.23917], [-8.470986, 41.23941], [-8.471604, 41.243459], [-8.469227, 41.245267], [-8.463258, 41.244384], [-8.459989, 41.246644], [-8.454323, 41.246886], [-8.455541, 41.251834], [-8.452276, 41.25522], [-8.449891, 41.255452], [-8.449304, 41.257479], [-8.447812, 41.257258], [-8.449028, 41.261982], [-8.439785, 41.262907], [-8.438023, 41.268989], [-8.434745, 41.269673], [-8.432691, 41.277107], [-8.427032, 41.279372], [-8.429143, 41.284319], [-8.426171, 41.287028], [-8.426488, 41.291079], [-8.425013, 41.294909], [-8.422037, 41.296942], [-8.422647, 41.299867], [-8.407744, 41.304856], [-8.406262, 41.307335], [-8.403277, 41.307342], [-8.401801, 41.311398], [-8.399712, 41.311628], [-8.400316, 41.313202], [-8.396738, 41.314336], [-8.398835, 41.316131], [-8.393775, 41.31997], [-8.393489, 41.323122], [-8.391105, 41.324253], [-8.386325, 41.323588], [-8.380382, 41.331254], [-8.375305, 41.33104], [-8.37201, 41.328346], [-8.361563, 41.329718], [-8.358276, 41.329049], [-8.357673, 41.327249], [-8.350207, 41.327264], [-8.346032, 41.328847], [-8.342462, 41.333131], [-8.333215, 41.336299], [-8.326363, 41.342163], [-8.324568, 41.341041], [-8.323376, 41.341943], [-8.320676, 41.338121], [-8.312604, 41.334983], [-8.313794, 41.333405], [-8.31139, 41.328007], [-8.307502, 41.325762], [-8.305116, 41.326891], [-8.303024, 41.325994], [-8.303615, 41.323742], [-8.301216, 41.319694], [-8.296431, 41.316774], [-8.297618, 41.313846], [-8.295817, 41.310022], [-8.281801, 41.316569], [-8.281808, 41.319721], [-8.278828, 41.321976], [-8.278238, 41.325128], [-8.273161, 41.325134], [-8.269582, 41.326939], [-8.265709, 41.331221], [-8.269004, 41.336169], [-8.263339, 41.340902], [-8.262751, 41.345405], [-8.256483, 41.347663], [-8.255889, 41.349689], [-8.249622, 41.353072], [-8.251123, 41.356897], [-8.248141, 41.360052], [-8.248448, 41.364328], [-8.245461, 41.364781], [-8.244272, 41.368384], [-8.239197, 41.371315], [-8.232024, 41.369971], [-8.224854, 41.370878], [-8.21738, 41.368182], [-8.214399, 41.373587], [-8.208127, 41.376968], [-8.199163, 41.377423], [-8.194677, 41.374275], [-8.191691, 41.376302], [-8.189299, 41.375403], [-8.184818, 41.376756], [-8.168382, 41.377438], [-8.164499, 41.38059], [-8.152544, 41.375866], [-8.151049, 41.37339], [-8.145073, 41.374742], [-8.139694, 41.377894], [-8.133418, 41.374292], [-8.119672, 41.376768], [-8.119672, 41.378569], [-8.116683, 41.380144], [-8.117578, 41.386447], [-8.113992, 41.386896], [-8.112795, 41.390723], [-8.110105, 41.390947], [-8.108011, 41.393648], [-8.103827, 41.392972], [-8.105321, 41.394998], [-8.10263, 41.396123], [-8.10801, 41.398825], [-8.108606, 41.403102], [-8.104419, 41.406252], [-8.104119, 41.408728], [-8.101727, 41.409403], [-8.102025, 41.411204], [-8.092756, 41.411201], [-8.09126, 41.414352], [-8.079893, 41.41975], [-8.077503, 41.416597], [-8.070923, 41.41862], [-8.066739, 41.416142], [-8.061953, 41.417264], [-8.059852, 41.424916], [-8.055959, 41.429415], [-8.057743, 41.438645], [-8.061033, 41.438872], [-8.064916, 41.444052], [-8.067908, 41.444279], [-8.069999, 41.447206], [-8.068788, 41.462286], [-8.073872, 41.46499], [-8.074468, 41.468141], [-8.073564, 41.474668], [-8.066374, 41.482318], [-8.066069, 41.48817], [-8.072054, 41.490199], [-8.07175, 41.494925], [-8.078333, 41.49898], [-8.078332, 41.500331], [-8.093, 41.504613], [-8.089398, 41.519242], [-8.090594, 41.522169], [-8.093588, 41.52307], [-8.091487, 41.531173], [-8.097775, 41.536127], [-8.097774, 41.537927], [-8.106759, 41.543557], [-8.101666, 41.542655], [-8.094175, 41.544904], [-8.087885, 41.542876], [-8.083389, 41.5449], [-8.080687, 41.551651], [-8.074097, 41.549848], [-8.073494, 41.553449], [-8.075891, 41.554575], [-8.076188, 41.557276], [-8.079783, 41.558403], [-8.081576, 41.565157], [-8.078879, 41.56493], [-8.075279, 41.568305], [-8.073182, 41.568079], [-8.069283, 41.570553], [-8.068081, 41.573478], [-8.056684, 41.579549], [-8.052181, 41.584498], [-8.052777, 41.587649], [-8.037169, 41.600242], [-8.031467, 41.602938], [-8.02367, 41.603156], [-8.019174, 41.601802], [-8.015872, 41.603824], [-8.013474, 41.603372], [-8.005971, 41.60629], [-8.003562, 41.611239], [-7.99936, 41.61281], [-7.998462, 41.612359], [-7.999669, 41.608759], [-7.996976, 41.605829], [-7.996983, 41.602228], [-7.995036, 41.602226], [-7.993734, 41.614628], [-7.986865, 41.641589], [-7.987113, 41.659605], [-7.990401, 41.668641], [-8.008275, 41.695818], [-8.008857, 41.70483], [-8.004212, 41.713797], [-7.998866, 41.717519], [-7.995141, 41.722725], [-7.990608, 41.731692], [-7.991179, 41.740704], [-7.998343, 41.75122], [-8.010269, 41.757837], [-8.044206, 41.768178], [-8.056192, 41.777284], [-8.07001, 41.79541], [-8.080006, 41.812292], [-8.084998, 41.810493], [-8.091013, 41.812521], [-8.093421, 41.811397], [-8.093723, 41.808471], [-8.101845, 41.809824], [-8.104853, 41.81185], [-8.115984, 41.812302], [-8.123807, 41.808702], [-8.138247, 41.808477], [-8.139751, 41.813203], [-8.14276, 41.812978], [-8.145769, 41.815453], [-8.149078, 41.814777], [-8.153893, 41.817928], [-8.161415, 41.818376], [-8.165326, 41.81815], [-8.173744, 41.808019], [-8.177054, 41.808017], [-8.182773, 41.812516], [-8.190291, 41.809587], [-8.197158, 41.814129], [-8.201063, 41.808724], [-8.204973, 41.807372], [-8.205872, 41.804445], [-8.213692, 41.803765], [-8.217598, 41.80016], [-8.217589, 41.793634], [-8.224207, 41.794303], [-8.229917, 41.791598], [-8.240744, 41.791588], [-8.24074, 41.789338], [-8.244347, 41.787984], [-8.245546, 41.785731], [-8.251257, 41.784375], [-8.251845, 41.777172], [-8.257551, 41.773564], [-8.261762, 41.774235], [-8.271366, 41.766346], [-8.280681, 41.764083], [-8.284038, 41.761109], [-8.284931, 41.757507], [-8.305674, 41.758152], [-8.311096, 41.762195], [-8.318308, 41.761283], [-8.325233, 41.765098], [-8.328234, 41.763292], [-8.336653, 41.763728], [-8.341756, 41.761468], [-8.344765, 41.762363], [-8.349267, 41.760103], [-8.352557, 41.755145], [-8.349814, 41.744122], [-8.352516, 41.743441], [-8.352203, 41.739616], [-8.357897, 41.735103], [-8.362407, 41.735994], [-8.368703, 41.73193], [-8.374122, 41.734845], [-8.384922, 41.73032], [-8.387032, 41.731891], [-8.393033, 41.729852], [-8.396942, 41.730518], [-8.400531, 41.726683], [-8.402934, 41.726452], [-8.404721, 41.722847], [-8.417349, 41.725067], [-8.422737, 41.720552], [-8.429643, 41.719859], [-8.430533, 41.717381], [-8.435927, 41.714441], [-8.441632, 41.713975], [-8.4446, 41.70654], [-8.453868, 41.697961], [-8.453255, 41.695487], [-8.461659, 41.694563], [-8.482012, 41.682123], [-8.484371, 41.674238], [-8.49308, 41.674886], [-8.499963, 41.671038], [-8.50927, 41.671233], [-8.51018, 41.672806], [-8.511967, 41.670324], [-8.509856, 41.668755], [-8.512252, 41.667847], [-8.511944, 41.666498], [-8.523297, 41.659032]]], [[[-7.836782, 41.873822], [-7.835064, 41.865322], [-7.825192, 41.847208], [-7.815458, 41.838101], [-7.802097, 41.828956], [-7.792506, 41.823991], [-7.768572, 41.816272], [-7.744528, 41.814415], [-7.728767, 41.81574], [-7.732041, 41.821514], [-7.74345, 41.825605], [-7.738918, 41.82874], [-7.742196, 41.833928], [-7.74729, 41.837772], [-7.746349, 41.84407], [-7.750246, 41.846784], [-7.750532, 41.849261], [-7.743309, 41.849012], [-7.746901, 41.8524], [-7.746881, 41.855776], [-7.73843, 41.859348], [-7.734159, 41.868337], [-7.730228, 41.871024], [-7.729293, 41.875972], [-7.720533, 41.880218], [-7.720523, 41.881793], [-7.725335, 41.882935], [-7.726208, 41.887665], [-7.737044, 41.888828], [-7.73944, 41.891087], [-7.74246, 41.889747], [-7.742785, 41.885922], [-7.756022, 41.888441], [-7.758719, 41.890926], [-7.756592, 41.89407], [-7.758076, 41.897901], [-7.764097, 41.898595], [-7.779227, 41.886264], [-7.785257, 41.885157], [-7.788886, 41.882467], [-7.794007, 41.882257], [-7.796739, 41.878214], [-7.794349, 41.87438], [-7.797064, 41.873488], [-7.803381, 41.874857], [-7.804914, 41.869459], [-7.813032, 41.871958], [-7.814229, 41.873537], [-7.823863, 41.874013], [-7.825059, 41.875817], [-7.830479, 41.875831], [-7.830789, 41.874031], [-7.836782, 41.873822]]], [[[-7.984754, 41.870279], [-7.985586, 41.869599], [-7.985853, 41.86938], [-7.988601, 41.867133], [-7.990123, 41.860157], [-7.995041, 41.858138], [-7.995246, 41.857843], [-7.994047, 41.855211], [-7.996521, 41.851612], [-7.995789, 41.839819], [-7.990676, 41.830768], [-7.978879, 41.821657], [-7.96124, 41.81438], [-7.949217, 41.813368], [-7.937136, 41.815923], [-7.915368, 41.830081], [-7.909318, 41.839031], [-7.908223, 41.848027], [-7.91113, 41.857061], [-7.917463, 41.866128], [-7.924162, 41.87168], [-7.933171, 41.875898], [-7.937389, 41.87516], [-7.941618, 41.870891], [-7.951254, 41.871132], [-7.956367, 41.87339], [-7.956362, 41.875191], [-7.960878, 41.875648], [-7.962086, 41.874074], [-7.973828, 41.875216], [-7.984754, 41.870279]]], [[[-7.888755, 41.828732], [-7.894968, 41.82088], [-7.894524, 41.811869], [-7.886022, 41.80278], [-7.877233, 41.798937], [-7.865202, 41.79863], [-7.855789, 41.802483], [-7.847942, 41.811411], [-7.847776, 41.820416], [-7.852648, 41.827599], [-7.864576, 41.834099], [-7.876614, 41.834379], [-7.888755, 41.828732]]], [[[-7.960295, 41.79447], [-7.957887, 41.785441], [-7.949758, 41.780279], [-7.9377, 41.781784], [-7.933572, 41.785218], [-7.931029, 41.794201], [-7.937359, 41.802385], [-7.944395, 41.803331], [-7.949325, 41.806779], [-7.960295, 41.79447]]], [[[-7.955086, 41.758395], [-7.950156, 41.755831], [-7.9381, 41.757546], [-7.938022, 41.762224], [-7.949949, 41.768549], [-7.955086, 41.758395]]], [[[-7.87468, 41.757635], [-7.866021, 41.752148], [-7.853959, 41.75408], [-7.848884, 41.75738], [-7.850085, 41.766399], [-7.853678, 41.769871], [-7.865669, 41.772141], [-7.873106, 41.766627], [-7.87468, 41.757635]]], [[[-7.838678, 41.707722], [-7.839845, 41.712255], [-7.842655, 41.713757], [-7.854658, 41.714758], [-7.856934, 41.712426], [-7.859272, 41.703442], [-7.854956, 41.697975], [-7.842919, 41.699047], [-7.837634, 41.703668], [-7.839682, 41.705924], [-7.838678, 41.707722]]], [[[-8.678878, 41.474466], [-8.67333, 41.469222], [-8.661351, 41.469881], [-8.657875, 41.474405], [-8.660556, 41.483421], [-8.675407, 41.483463], [-8.678878, 41.474466]]], [[[-8.553682, 41.453407], [-8.547477, 41.456009], [-8.553652, 41.457694], [-8.555284, 41.456039], [-8.553682, 41.453407]]]]}}, {"id": "8", "type": "Feature", "properties": {"fill": "#a3a3a3", "value_min": 0.0, "value_max": 0.25}, "geometry": {"type": "MultiPolygon", "coordinates": [[[[-8.738584, 41.579542], [-8.740778, 41.582006], [-8.74467, 41.581535], [-8.746796, 41.58445], [-8.75101, 41.586228], [-8.756374, 41.582823], [-8.75635, 41.580347], [-8.762327, 41.578514], [-8.764443, 41.580303], [-8.767441, 41.580286], [-8.769874, 41.583874], [-8.768997, 41.58613], [-8.773228, 41.589482], [-8.775371, 41.593972], [-8.78556, 41.593464], [-8.797327, 41.600599], [-8.804218, 41.600109], [-8.80456, 41.604158], [-8.809434, 41.611332], [-8.828644, 41.609656], [-8.82839, 41.585633], [-8.818497, 41.554794], [-8.8221, 41.547542], [-8.821965, 41.534907], [-8.815926, 41.525624], [-8.81063, 41.5101], [-8.813279, 41.503483], [-8.812636, 41.496944], [-8.804699, 41.482068], [-8.798552, 41.474753], [-8.80154, 41.446836], [-8.806115, 41.43713], [-8.807354, 41.425915], [-8.811193, 41.416638], [-8.806906, 41.327464], [-8.791351, 41.339611], [-8.775727, 41.348589], [-8.733626, 41.367228], [-8.683099, 41.39341], [-8.661713, 41.400248], [-8.637769, 41.403429], [-8.61385, 41.402123], [-8.589955, 41.396968], [-8.554149, 41.38512], [-8.542207, 41.382459], [-8.530251, 41.381988], [-8.518272, 41.384579], [-8.506262, 41.391248], [-8.496046, 41.40175], [-8.487075, 41.419725], [-8.485448, 41.428726], [-8.486946, 41.446747], [-8.492629, 41.464788], [-8.513588, 41.500908], [-8.515717, 41.509924], [-8.515473, 41.527938], [-8.519414, 41.536962], [-8.541008, 41.552802], [-8.550749, 41.564111], [-8.555385, 41.573136], [-8.557315, 41.591158], [-8.552625, 41.606932], [-8.547625, 41.61483], [-8.554533, 41.615255], [-8.557244, 41.617046], [-8.562639, 41.61635], [-8.568056, 41.619031], [-8.570735, 41.616095], [-8.577321, 41.614269], [-8.581231, 41.615829], [-8.585766, 41.620988], [-8.591462, 41.620515], [-8.596534, 41.616668], [-8.601628, 41.615972], [-8.603996, 41.611686], [-8.609369, 41.608287], [-8.614156, 41.606692], [-8.619881, 41.610269], [-8.621338, 41.604636], [-8.630324, 41.603276], [-8.612695, 41.596107], [-8.600744, 41.588422], [-8.588812, 41.577993], [-8.570082, 41.555177], [-8.559661, 41.537123], [-8.557328, 41.528107], [-8.559394, 41.5101], [-8.56491, 41.501113], [-8.577393, 41.489519], [-8.601432, 41.476418], [-8.613419, 41.474708], [-8.625381, 41.477185], [-8.647623, 41.492389], [-8.661203, 41.498224], [-8.673166, 41.501783], [-8.709087, 41.507304], [-8.720909, 41.510605], [-8.736852, 41.51965], [-8.744639, 41.528675], [-8.749214, 41.537693], [-8.751017, 41.546704], [-8.748049, 41.564712], [-8.738584, 41.579542]], [[-8.678878, 41.474466], [-8.675407, 41.483463], [-8.660556, 41.483421], [-8.657875, 41.474405], [-8.661351, 41.469881], [-8.67333, 41.469222], [-8.678878, 41.474466]], [[-8.553682, 41.453407], [-8.555284, 41.456039], [-8.553652, 41.457694], [-8.547477, 41.456009], [-8.553682, 41.453407]]], [[[-8.536017, 41.631528], [-8.527992, 41.645085], [-8.523297, 41.659032], [-8.525706, 41.659023], [-8.527769, 41.652714], [-8.534066, 41.652017], [-8.537355, 41.64998], [-8.537634, 41.646602], [-8.543876, 41.637352], [-8.543855, 41.633976], [-8.536017, 41.631528]]], [[[-8.080006, 41.812292], [-8.07001, 41.79541], [-8.056192, 41.777284], [-8.044206, 41.768178], [-8.010269, 41.757837], [-7.998343, 41.75122], [-7.991179, 41.740704], [-7.990608, 41.731692], [-7.995141, 41.722725], [-7.998866, 41.717519], [-8.004212, 41.713797], [-8.008857, 41.70483], [-8.008275, 41.695818], [-7.990401, 41.668641], [-7.987113, 41.659605], [-7.986865, 41.641589], [-7.993734, 41.614628], [-7.995036, 41.602226], [-7.984685, 41.603564], [-7.982292, 41.60086], [-7.975689, 41.603552], [-7.974482, 41.606701], [-7.970882, 41.607147], [-7.969091, 41.603768], [-7.965796, 41.602413], [-7.9541, 41.602846], [-7.952606, 41.600592], [-7.947808, 41.60081], [-7.945413, 41.599456], [-7.942725, 41.595625], [-7.936132, 41.594488], [-7.938214, 41.600344], [-7.937004, 41.603718], [-7.931604, 41.604384], [-7.930073, 41.614735], [-7.925255, 41.620579], [-7.920755, 41.620796], [-7.917748, 41.623041], [-7.915933, 41.627764], [-7.913229, 41.628885], [-7.912613, 41.63361], [-7.906014, 41.633147], [-7.907487, 41.641067], [-7.915951, 41.643979], [-7.927847, 41.650715], [-7.939705, 41.659934], [-7.951505, 41.672921], [-7.959902, 41.686383], [-7.964417, 41.704438], [-7.963512, 41.713437], [-7.960799, 41.722419], [-7.954419, 41.731368], [-7.914074, 41.755634], [-7.902002, 41.758152], [-7.890027, 41.75503], [-7.881447, 41.748695], [-7.855328, 41.739431], [-7.844316, 41.730313], [-7.854493, 41.724045], [-7.864308, 41.712499], [-7.866822, 41.706607], [-7.866943, 41.699694], [-7.858852, 41.688415], [-7.857473, 41.689537], [-7.854776, 41.68818], [-7.847538, 41.695365], [-7.837912, 41.698942], [-7.835796, 41.701863], [-7.837634, 41.703668], [-7.842919, 41.699047], [-7.854956, 41.697975], [-7.859272, 41.703442], [-7.856934, 41.712426], [-7.854658, 41.714758], [-7.842655, 41.713757], [-7.839845, 41.712255], [-7.838678, 41.707722], [-7.838465, 41.709522], [-7.832753, 41.710408], [-7.825252, 41.708813], [-7.818621, 41.713522], [-7.815291, 41.718689], [-7.808986, 41.717996], [-7.808396, 41.715744], [-7.803298, 41.714154], [-7.790966, 41.717044], [-7.789449, 41.719966], [-7.78464, 41.720402], [-7.78252, 41.723546], [-7.776204, 41.724652], [-7.773786, 41.727346], [-7.7678, 41.723276], [-7.763888, 41.724389], [-7.761765, 41.727758], [-7.762933, 41.733839], [-7.759307, 41.737203], [-7.759597, 41.739005], [-7.75689, 41.739446], [-7.758687, 41.740577], [-7.757758, 41.745301], [-7.748417, 41.749321], [-7.747786, 41.754496], [-7.743866, 41.756509], [-7.740214, 41.763924], [-7.726937, 41.771755], [-7.7254, 41.777152], [-7.727191, 41.779184], [-7.724177, 41.780299], [-7.725372, 41.781653], [-7.722296, 41.792446], [-7.728879, 41.797871], [-7.727026, 41.805517], [-7.728767, 41.81574], [-7.744528, 41.814415], [-7.768572, 41.816272], [-7.792506, 41.823991], [-7.802097, 41.828956], [-7.815458, 41.838101], [-7.825192, 41.847208], [-7.835064, 41.865322], [-7.836782, 41.873822], [-7.838021, 41.872924], [-7.842528, 41.875187], [-7.841663, 41.866632], [-7.848912, 41.861698], [-7.858542, 41.862622], [-7.859456, 41.860148], [-7.865481, 41.859262], [-7.87033, 41.851395], [-7.873043, 41.850501], [-7.873367, 41.844875], [-7.879056, 41.85254], [-7.886268, 41.855932], [-7.888076, 41.855486], [-7.891675, 41.859094], [-7.900698, 41.861588], [-7.904318, 41.859795], [-7.907309, 41.865203], [-7.906095, 41.868126], [-7.910299, 41.871285], [-7.909985, 41.875111], [-7.91479, 41.879171], [-7.928044, 41.87807], [-7.933171, 41.875898], [-7.924162, 41.87168], [-7.917463, 41.866128], [-7.91113, 41.857061], [-7.908223, 41.848027], [-7.909318, 41.839031], [-7.915368, 41.830081], [-7.937136, 41.815923], [-7.949217, 41.813368], [-7.96124, 41.81438], [-7.978879, 41.821657], [-7.990676, 41.830768], [-7.995789, 41.839819], [-7.996521, 41.851612], [-8.003089, 41.850494], [-8.005804, 41.847346], [-8.007928, 41.838796], [-8.012753, 41.833624], [-8.013363, 41.829124], [-8.017873, 41.831379], [-8.02901, 41.829589], [-8.037134, 41.831171], [-8.041351, 41.828023], [-8.041054, 41.825097], [-8.045268, 41.824425], [-8.046775, 41.821951], [-8.056712, 41.81588], [-8.06664, 41.817012], [-8.072961, 41.813414], [-8.077775, 41.813641], [-8.080006, 41.812292]], [[-7.888755, 41.828732], [-7.876614, 41.834379], [-7.864576, 41.834099], [-7.852648, 41.827599], [-7.847776, 41.820416], [-7.847942, 41.811411], [-7.855789, 41.802483], [-7.865202, 41.79863], [-7.877233, 41.798937], [-7.886022, 41.80278], [-7.894524, 41.811869], [-7.894968, 41.82088], [-7.888755, 41.828732]], [[-7.960295, 41.79447], [-7.949325, 41.806779], [-7.944395, 41.803331], [-7.937359, 41.802385], [-7.931029, 41.794201], [-7.933572, 41.785218], [-7.9377, 41.781784], [-7.949758, 41.780279], [-7.957887, 41.785441], [-7.960295, 41.79447]], [[-7.955086, 41.758395], [-7.949949, 41.768549], [-7.938022, 41.762224], [-7.9381, 41.757546], [-7.950156, 41.755831], [-7.955086, 41.758395]], [[-7.87468, 41.757635], [-7.873106, 41.766627], [-7.865669, 41.772141], [-7.853678, 41.769871], [-7.850085, 41.766399], [-7.848884, 41.75738], [-7.853959, 41.75408], [-7.866021, 41.752148], [-7.87468, 41.757635]]], [[[-7.995246, 41.857843], [-7.995246, 41.857843], [-7.995041, 41.858138], [-7.995246, 41.857843]]], [[[-7.988601, 41.867133], [-7.985853, 41.86938], [-7.987996, 41.869157], [-7.988601, 41.867133]]], [[[-7.985586, 41.869599], [-7.985586, 41.869599], [-7.984754, 41.870279], [-7.985586, 41.869599]]], [[[-8.638308, 41.194452], [-8.644212, 41.213141], [-8.650693, 41.223854], [-8.662569, 41.234493], [-8.674476, 41.239519], [-8.6864, 41.241675], [-8.698332, 41.241993], [-8.75803, 41.23465], [-8.781901, 41.233024], [-8.793831, 41.233923], [-8.803318, 41.236311], [-8.799695, 41.14406], [-8.674793, 41.146932], [-8.674849, 41.153767], [-8.672489, 41.15648], [-8.66117, 41.156307], [-8.662078, 41.158104], [-8.660313, 41.160813], [-8.657033, 41.160378], [-8.654961, 41.161963], [-8.653231, 41.169174], [-8.655366, 41.175467], [-8.647955, 41.180228], [-8.647696, 41.185181], [-8.641225, 41.196014], [-8.638841, 41.196025], [-8.638308, 41.194452]]]]}}, {"id": "7", "type": "Feature", "properties": {"fill": "#a3a3a3", "value_min": -0.25, "value_max": 0.0}, "geometry": {"type": "MultiPolygon", "coordinates": [[[[-7.858852, 41.688415], [-7.866943, 41.699694], [-7.866822, 41.706607], [-7.864308, 41.712499], [-7.854493, 41.724045], [-7.844316, 41.730313], [-7.855328, 41.739431], [-7.881447, 41.748695], [-7.890027, 41.75503], [-7.902002, 41.758152], [-7.914074, 41.755634], [-7.954419, 41.731368], [-7.960799, 41.722419], [-7.963512, 41.713437], [-7.964417, 41.704438], [-7.959902, 41.686383], [-7.951505, 41.672921], [-7.939705, 41.659934], [-7.927847, 41.650715], [-7.915951, 41.643979], [-7.907487, 41.641067], [-7.897869, 41.645511], [-7.89696, 41.647985], [-7.892759, 41.647976], [-7.892145, 41.651576], [-7.902319, 41.659925], [-7.899913, 41.66127], [-7.900198, 41.665547], [-7.898396, 41.665769], [-7.896885, 41.668692], [-7.882465, 41.671588], [-7.877044, 41.676077], [-7.876724, 41.68102], [-7.879363, 41.676565], [-7.891483, 41.67036], [-7.903506, 41.669781], [-7.915476, 41.672286], [-7.927388, 41.678385], [-7.936462, 41.686169], [-7.943159, 41.695237], [-7.946467, 41.704275], [-7.94676, 41.713284], [-7.943835, 41.722264], [-7.936236, 41.731201], [-7.914252, 41.745061], [-7.902181, 41.747683], [-7.89018, 41.746183], [-7.87502, 41.739625], [-7.862223, 41.730492], [-7.863507, 41.721498], [-7.866618, 41.718226], [-7.871552, 41.703563], [-7.874046, 41.685574], [-7.876323, 41.681703], [-7.873401, 41.686198], [-7.868896, 41.686413], [-7.868008, 41.68326], [-7.864403, 41.683701], [-7.864096, 41.685276], [-7.858987, 41.68639], [-7.858852, 41.688415]]], [[[-7.876422, 41.681534], [-7.876422, 41.681534], [-7.876587, 41.681253], [-7.876422, 41.681534]]], [[[-8.738584, 41.579542], [-8.748049, 41.564712], [-8.751017, 41.546704], [-8.749214, 41.537693], [-8.744639, 41.528675], [-8.736852, 41.51965], [-8.720909, 41.510605], [-8.709087, 41.507304], [-8.673166, 41.501783], [-8.661203, 41.498224], [-8.647623, 41.492389], [-8.625381, 41.477185], [-8.613419, 41.474708], [-8.601432, 41.476418], [-8.577393, 41.489519], [-8.56491, 41.501113], [-8.559394, 41.5101], [-8.557328, 41.528107], [-8.559661, 41.537123], [-8.570082, 41.555177], [-8.588812, 41.577993], [-8.600744, 41.588422], [-8.612695, 41.596107], [-8.630324, 41.603276], [-8.6366, 41.600518], [-8.639873, 41.597352], [-8.640152, 41.59465], [-8.645536, 41.593051], [-8.646744, 41.594171], [-8.649125, 41.591909], [-8.656622, 41.5921], [-8.660788, 41.588255], [-8.663794, 41.589141], [-8.665265, 41.585758], [-8.66948, 41.587989], [-8.684455, 41.586117], [-8.685608, 41.58071], [-8.697261, 41.576376], [-8.701703, 41.570277], [-8.707704, 41.570923], [-8.712485, 41.569323], [-8.716422, 41.573805], [-8.720316, 41.57356], [-8.725151, 41.577811], [-8.726633, 41.576003], [-8.734424, 41.575737], [-8.736539, 41.577527], [-8.736262, 41.580004], [-8.738584, 41.579542]], [[-8.63681, 41.575295], [-8.612848, 41.570516], [-8.600893, 41.564256], [-8.588959, 41.554816], [-8.581645, 41.546212], [-8.577218, 41.537189], [-8.575017, 41.528173], [-8.575941, 41.519169], [-8.579846, 41.510176], [-8.589303, 41.500451], [-8.601326, 41.49376], [-8.613321, 41.491158], [-8.625294, 41.492346], [-8.637254, 41.495891], [-8.666888, 41.510461], [-8.679884, 41.519506], [-8.686914, 41.528533], [-8.690148, 41.537549], [-8.689439, 41.546554], [-8.684817, 41.555549], [-8.675806, 41.564531], [-8.660818, 41.571992], [-8.648809, 41.574679], [-8.63681, 41.575295]]]]}}, {"id": "6", "type": "Feature", "properties": {"fill": "#a3a3a3", "value_min": -0.5, "value_max": -0.25}, "geometry": {"type": "MultiPolygon", "coordinates": [[[[-7.876323, 41.681703], [-7.874046, 41.685574], [-7.871552, 41.703563], [-7.866618, 41.718226], [-7.863507, 41.721498], [-7.862223, 41.730492], [-7.87502, 41.739625], [-7.89018, 41.746183], [-7.902181, 41.747683], [-7.914252, 41.745061], [-7.936236, 41.731201], [-7.943835, 41.722264], [-7.94676, 41.713284], [-7.946467, 41.704275], [-7.943159, 41.695237], [-7.936462, 41.686169], [-7.927388, 41.678385], [-7.915476, 41.672286], [-7.903506, 41.669781], [-7.891483, 41.67036], [-7.879363, 41.676565], [-7.876724, 41.68102], [-7.876587, 41.681253], [-7.876422, 41.681534], [-7.876323, 41.681703]], [[-7.890276, 41.740589], [-7.878331, 41.735927], [-7.87092, 41.730578], [-7.868876, 41.721551], [-7.879028, 41.695876], [-7.891226, 41.685332], [-7.903278, 41.683164], [-7.915244, 41.686079], [-7.927137, 41.693485], [-7.934677, 41.704166], [-7.936089, 41.713186], [-7.933743, 41.722171], [-7.92572, 41.731103], [-7.914365, 41.738378], [-7.902281, 41.741807], [-7.890276, 41.740589]]], [[[-8.63681, 41.575295], [-8.648809, 41.574679], [-8.660818, 41.571992], [-8.675806, 41.564531], [-8.684817, 41.555549], [-8.689439, 41.546554], [-8.690148, 41.537549], [-8.686914, 41.528533], [-8.679884, 41.519506], [-8.666888, 41.510461], [-8.637254, 41.495891], [-8.625294, 41.492346], [-8.613321, 41.491158], [-8.601326, 41.49376], [-8.589303, 41.500451], [-8.579846, 41.510176], [-8.575941, 41.519169], [-8.575017, 41.528173], [-8.577218, 41.537189], [-8.581645, 41.546212], [-8.588959, 41.554816], [-8.600893, 41.564256], [-8.612848, 41.570516], [-8.63681, 41.575295]], [[-8.636897, 41.559767], [-8.624904, 41.559843], [-8.612929, 41.55698], [-8.600976, 41.550734], [-8.589395, 41.537233], [-8.586825, 41.528216], [-8.589194, 41.517703], [-8.594098, 41.510228], [-8.601258, 41.504774], [-8.613266, 41.500456], [-8.625249, 41.500187], [-8.637213, 41.503306], [-8.649163, 41.509175], [-8.66173, 41.519454], [-8.667089, 41.528477], [-8.667441, 41.537485], [-8.66302, 41.54648], [-8.651224, 41.555452], [-8.636897, 41.559767]]]]}}, {"id": "5", "type": "Feature", "properties": {"fill": "#a3a3a3", "value_min": -0.75, "value_max": -0.5}, "geometry": {"type": "MultiPolygon", "coordinates": [[[[-7.890276, 41.740589], [-7.902281, 41.741807], [-7.914365, 41.738378], [-7.92572, 41.731103], [-7.933743, 41.722171], [-7.936089, 41.713186], [-7.934677, 41.704166], [-7.927137, 41.693485], [-7.915244, 41.686079], [-7.903278, 41.683164], [-7.891226, 41.685332], [-7.879028, 41.695876], [-7.868876, 41.721551], [-7.87092, 41.730578], [-7.878331, 41.735927], [-7.890276, 41.740589]], [[-7.902354, 41.737512], [-7.89034, 41.736865], [-7.878416, 41.731066], [-7.872671, 41.721588], [-7.874763, 41.712602], [-7.879682, 41.703643], [-7.891093, 41.693094], [-7.903145, 41.691], [-7.915415, 41.694979], [-7.925422, 41.70408], [-7.928286, 41.713113], [-7.926015, 41.722099], [-7.918079, 41.731032], [-7.902354, 41.737512]]], [[[-8.636897, 41.559767], [-8.651224, 41.555452], [-8.66302, 41.54648], [-8.667441, 41.537485], [-8.667089, 41.528477], [-8.66173, 41.519454], [-8.649163, 41.509175], [-8.637213, 41.503306], [-8.625249, 41.500187], [-8.613266, 41.500456], [-8.601258, 41.504774], [-8.594098, 41.510228], [-8.589194, 41.517703], [-8.586825, 41.528216], [-8.589395, 41.537233], [-8.600976, 41.550734], [-8.612929, 41.55698], [-8.624904, 41.559843], [-8.636897, 41.559767]], [[-8.624963, 41.549681], [-8.612989, 41.54699], [-8.601052, 41.538367], [-8.596595, 41.528251], [-8.59841, 41.51925], [-8.608172, 41.510276], [-8.613222, 41.507897], [-8.625211, 41.506681], [-8.638472, 41.510376], [-8.650226, 41.519419], [-8.654068, 41.528438], [-8.651957, 41.537439], [-8.648992, 41.540908], [-8.636962, 41.548244], [-8.624963, 41.549681]]]]}}, {"id": "4", "type": "Feature", "properties": {"fill": "#a3a3a3", "value_min": -1.0, "value_max": -0.75}, "geometry": {"type": "MultiPolygon", "coordinates": [[[[-7.902354, 41.737512], [-7.918079, 41.731032], [-7.926015, 41.722099], [-7.928286, 41.713113], [-7.925422, 41.70408], [-7.915415, 41.694979], [-7.903145, 41.691], [-7.891093, 41.693094], [-7.879682, 41.703643], [-7.874763, 41.712602], [-7.872671, 41.721588], [-7.878416, 41.731066], [-7.89034, 41.736865], [-7.902354, 41.737512]], [[-7.890399, 41.73346], [-7.87852, 41.725055], [-7.876465, 41.721625], [-7.877772, 41.712631], [-7.891006, 41.698132], [-7.903047, 41.696778], [-7.917658, 41.704007], [-7.922455, 41.713059], [-7.920718, 41.72205], [-7.914537, 41.728151], [-7.902414, 41.733982], [-7.890399, 41.73346]]], [[[-8.624963, 41.549681], [-8.636962, 41.548244], [-8.648992, 41.540908], [-8.651957, 41.537439], [-8.654068, 41.528438], [-8.650226, 41.519419], [-8.638472, 41.510376], [-8.625211, 41.506681], [-8.613222, 41.507897], [-8.608172, 41.510276], [-8.59841, 41.51925], [-8.596595, 41.528251], [-8.601052, 41.538367], [-8.612989, 41.54699], [-8.624963, 41.549681]], [[-8.613045, 41.537578], [-8.606622, 41.528286], [-8.609189, 41.519287], [-8.613172, 41.51617], [-8.625172, 41.513537], [-8.637132, 41.51775], [-8.639285, 41.519386], [-8.642551, 41.528403], [-8.637023, 41.537296], [-8.625015, 41.540651], [-8.613045, 41.537578]]]]}}, {"id": "3", "type": "Feature", "properties": {"fill": "#b6a27f", "value_min": -1.25, "value_max": -1.0}, "geometry": {"type": "MultiPolygon", "coordinates": [[[[-7.890399, 41.73346], [-7.902414, 41.733982], [-7.914537, 41.728151], [-7.920718, 41.72205], [-7.922455, 41.713059], [-7.917658, 41.704007], [-7.903047, 41.696778], [-7.891006, 41.698132], [-7.877772, 41.712631], [-7.876465, 41.721625], [-7.87852, 41.725055], [-7.890399, 41.73346]], [[-7.902474, 41.730473], [-7.890456, 41.730109], [-7.880299, 41.721663], [-7.881082, 41.712664], [-7.890932, 41.70246], [-7.902972, 41.701194], [-7.908719, 41.703922], [-7.917084, 41.713008], [-7.915422, 41.722], [-7.902474, 41.730473]]], [[[-8.613045, 41.537578], [-8.625015, 41.540651], [-8.637023, 41.537296], [-8.642551, 41.528403], [-8.639285, 41.519386], [-8.637132, 41.51775], [-8.625172, 41.513537], [-8.613172, 41.51617], [-8.609189, 41.519287], [-8.606622, 41.528286], [-8.613045, 41.537578]], [[-8.624637, 41.528346], [-8.62509, 41.527822], [-8.625426, 41.528349], [-8.624637, 41.528346]]]]}}, {"id": "2", "type": "Feature", "properties": {"fill": "#e19f31", "value_min": -1.5, "value_max": -1.25}, "geometry": {"type": "MultiPolygon", "coordinates": [[[[-7.902474, 41.730473], [-7.915422, 41.722], [-7.917084, 41.713008], [-7.908719, 41.703922], [-7.902972, 41.701194], [-7.890932, 41.70246], [-7.881082, 41.712664], [-7.880299, 41.721663], [-7.890456, 41.730109], [-7.902474, 41.730473]], [[-7.89051, 41.726962], [-7.884182, 41.721701], [-7.884533, 41.712697], [-7.890866, 41.706274], [-7.902898, 41.705533], [-7.911813, 41.712959], [-7.910393, 41.721952], [-7.902531, 41.727116], [-7.89051, 41.726962]]], [[[-8.624637, 41.528346], [-8.625426, 41.528349], [-8.62509, 41.527822], [-8.624637, 41.528346]]]]}}, {"id": "1", "type": "Feature", "properties": {"fill": "#e57b10", "value_min": -1.75, "value_max": -1.5}, "geometry": {"type": "Polygon", "coordinates": [[[-7.89051, 41.726962], [-7.902531, 41.727116], [-7.910393, 41.721952], [-7.911813, 41.712959], [-7.902898, 41.705533], [-7.890866, 41.706274], [-7.884533, 41.712697], [-7.884182, 41.721701], [-7.89051, 41.726962]], [[-7.890565, 41.723816], [-7.888066, 41.721738], [-7.887985, 41.712731], [-7.890804, 41.70987], [-7.902826, 41.709752], [-7.906617, 41.712909], [-7.905411, 41.721905], [-7.902588, 41.723758], [-7.890565, 41.723816]]]}}, {"id": "0", "type": "Feature", "properties": {"fill": "#c93e18", "value_min": -2.0, "value_max": -1.75}, "geometry": {"type": "Polygon", "coordinates": [[[-7.890565, 41.723816], [-7.902588, 41.723758], [-7.905411, 41.721905], [-7.906617, 41.712909], [-7.902826, 41.709752], [-7.890804, 41.70987], [-7.887985, 41.712731], [-7.888066, 41.721738], [-7.890565, 41.723816]]]}}]}