{"type": "FeatureCollection", "features": [{"id": "5", "type": "Feature", "properties": {"fill": "#90a4bc", "value_min": 1.0, "value_max": -1.25}, "geometry": {"type": "MultiPolygon", "coordinates": [[[[-7.889665, 41.857064], [-7.900528, 41.844433], [-7.907984, 41.830011], [-7.909551, 41.821019], [-7.908345, 41.812001], [-7.893861, 41.784842], [-7.894693, 41.75783], [-7.889714, 41.748775], [-7.878241, 41.741098], [-7.866275, 41.737716], [-7.85425, 41.737692], [-7.842184, 41.73999], [-7.824049, 41.748121], [-7.816929, 41.757055], [-7.813754, 41.766029], [-7.808774, 41.792998], [-7.804253, 41.801958], [-7.796235, 41.810881], [-7.780591, 41.817324], [-7.739246, 41.824235], [-7.74345, 41.825605], [-7.738919, 41.828515], [-7.739511, 41.830049], [-7.76837, 41.826783], [-7.80443, 41.83029], [-7.81145, 41.829053], [-7.81655, 41.826086], [-7.831724, 41.784227], [-7.828685, 41.766182], [-7.830541, 41.757195], [-7.837859, 41.748262], [-7.842073, 41.746152], [-7.854173, 41.742033], [-7.866205, 41.741683], [-7.878164, 41.745563], [-7.882864, 41.748708], [-7.888431, 41.757769], [-7.888062, 41.766773], [-7.882246, 41.78473], [-7.897649, 41.802892], [-7.900957, 41.811931], [-7.900699, 41.820935], [-7.896547, 41.829902], [-7.88859, 41.838254], [-7.874869, 41.845693], [-7.879056, 41.85254], [-7.889665, 41.857064]]], [[[-7.87276, 41.846174], [-7.864323, 41.848389], [-7.840192, 41.850567], [-7.830734, 41.856271], [-7.82446, 41.875054], [-7.830479, 41.875831], [-7.830789, 41.874031], [-7.832894, 41.874712], [-7.838021, 41.872924], [-7.842528, 41.875187], [-7.841663, 41.866632], [-7.849515, 41.861475], [-7.858542, 41.862622], [-7.859456, 41.860148], [-7.864877, 41.859711], [-7.87033, 41.851395], [-7.873043, 41.850501], [-7.87276, 41.846174]]], [[[-8.136858, 41.705862], [-8.131078, 41.705819], [-8.129241, 41.714812], [-8.131114, 41.716661], [-8.142688, 41.714913], [-8.136858, 41.705862]]], [[[-8.373541, 41.510464], [-8.380471, 41.500268], [-8.382647, 41.482265], [-8.378026, 41.464225], [-8.372077, 41.455185], [-8.362186, 41.446441], [-8.350272, 41.440695], [-8.338314, 41.439447], [-8.326326, 41.441167], [-8.314302, 41.4463], [-8.302237, 41.455007], [-8.295303, 41.463748], [-8.292105, 41.472736], [-8.293192, 41.490757], [-8.302864, 41.508831], [-8.313546, 41.517975], [-8.325476, 41.52318], [-8.337446, 41.524706], [-8.349443, 41.523609], [-8.361472, 41.51926], [-8.373541, 41.510464]], [[-8.349532, 41.514756], [-8.337538, 41.51574], [-8.325578, 41.513388], [-8.313671, 41.506112], [-8.308006, 41.499855], [-8.30393, 41.490823], [-8.303161, 41.481811], [-8.305611, 41.472818], [-8.314127, 41.46285], [-8.326167, 41.456578], [-8.338158, 41.454805], [-8.350119, 41.456054], [-8.362039, 41.461442], [-8.371923, 41.473199], [-8.37484, 41.482223], [-8.374721, 41.491229], [-8.371171, 41.500217], [-8.361566, 41.509611], [-8.349532, 41.514756]]], [[[-8.398189, 41.392272], [-8.404588, 41.383298], [-8.407201, 41.374304], [-8.406729, 41.365294], [-8.402949, 41.356267], [-8.394585, 41.347215], [-8.387109, 41.342199], [-8.375494, 41.338106], [-8.36326, 41.336503], [-8.351295, 41.337818], [-8.339302, 41.341921], [-8.332088, 41.34687], [-8.323845, 41.355829], [-8.319918, 41.364814], [-8.318925, 41.373815], [-8.320579, 41.382833], [-8.325277, 41.391868], [-8.338674, 41.403999], [-8.350596, 41.408171], [-8.362555, 41.408718], [-8.37454, 41.406612], [-8.386555, 41.401226], [-8.398189, 41.392272]], [[-8.36273, 41.390849], [-8.350792, 41.388441], [-8.343286, 41.382964], [-8.33914, 41.373933], [-8.34243, 41.364944], [-8.351094, 41.358141], [-8.363072, 41.355719], [-8.374996, 41.358954], [-8.382214, 41.365165], [-8.385048, 41.374188], [-8.380741, 41.383172], [-8.374721, 41.38766], [-8.36273, 41.390849]]], [[[-8.619789, 41.178775], [-8.625677, 41.204074], [-8.633757, 41.222116], [-8.638732, 41.229165], [-8.65061, 41.239279], [-8.662518, 41.244427], [-8.674441, 41.246636], [-8.686374, 41.247125], [-8.710252, 41.245239], [-8.736338, 41.240412], [-8.758033, 41.233811], [-8.780166, 41.222489], [-8.791147, 41.213501], [-8.801862, 41.199265], [-8.799695, 41.14406], [-8.750473, 41.145154], [-8.76503, 41.159403], [-8.769658, 41.168421], [-8.772389, 41.186442], [-8.770381, 41.195446], [-8.766412, 41.204446], [-8.759207, 41.213439], [-8.748209, 41.222423], [-8.729764, 41.231389], [-8.71029, 41.236603], [-8.69835, 41.238159], [-8.674489, 41.237074], [-8.662574, 41.233373], [-8.650682, 41.225883], [-8.640413, 41.213129], [-8.636388, 41.204109], [-8.63366, 41.190195], [-8.632526, 41.188624], [-8.625658, 41.186628], [-8.62263, 41.180113], [-8.619789, 41.178775]]]]}}, {"id": "4", "type": "Feature", "properties": {"fill": "#a3a3a3", "value_min": 0.75, "value_max": -1.0}, "geometry": {"type": "MultiPolygon", "coordinates": [[[[-7.82446, 41.875054], [-7.830734, 41.856271], [-7.840192, 41.850567], [-7.864323, 41.848389], [-7.87276, 41.846174], [-7.873066, 41.844875], [-7.874869, 41.845693], [-7.88859, 41.838254], [-7.896547, 41.829902], [-7.900699, 41.820935], [-7.900957, 41.811931], [-7.897649, 41.802892], [-7.882246, 41.78473], [-7.888062, 41.766773], [-7.888431, 41.757769], [-7.882864, 41.748708], [-7.878164, 41.745563], [-7.866205, 41.741683], [-7.854173, 41.742033], [-7.842073, 41.746152], [-7.837859, 41.748262], [-7.830541, 41.757195], [-7.828685, 41.766182], [-7.831724, 41.784227], [-7.81655, 41.826086], [-7.81145, 41.829053], [-7.80443, 41.83029], [-7.76837, 41.826783], [-7.739511, 41.830049], [-7.743526, 41.834833], [-7.756207, 41.833059], [-7.768243, 41.833396], [-7.780236, 41.836037], [-7.792163, 41.842223], [-7.798172, 41.846928], [-7.803117, 41.855986], [-7.804503, 41.865007], [-7.802609, 41.874404], [-7.804591, 41.873735], [-7.805215, 41.86946], [-7.814229, 41.873537], [-7.818448, 41.872873], [-7.82446, 41.875054]], [[-7.864539, 41.836181], [-7.852539, 41.833722], [-7.845379, 41.829399], [-7.838599, 41.820324], [-7.837676, 41.811308], [-7.841527, 41.80234], [-7.853304, 41.79087], [-7.865396, 41.787603], [-7.877354, 41.792014], [-7.889244, 41.800456], [-7.895021, 41.811874], [-7.893475, 41.820866], [-7.888781, 41.827239], [-7.876609, 41.834642], [-7.864539, 41.836181]], [[-7.853489, 41.780449], [-7.841655, 41.769387], [-7.839928, 41.766297], [-7.839942, 41.75729], [-7.848641, 41.748371], [-7.854099, 41.7462], [-7.866143, 41.745244], [-7.878073, 41.75079], [-7.883163, 41.757718], [-7.881768, 41.766711], [-7.877694, 41.772504], [-7.865506, 41.781379], [-7.853489, 41.780449]]], [[[-8.349532, 41.514756], [-8.361566, 41.509611], [-8.371171, 41.500217], [-8.374721, 41.491229], [-8.37484, 41.482223], [-8.371923, 41.473199], [-8.362039, 41.461442], [-8.350119, 41.456054], [-8.338158, 41.454805], [-8.326167, 41.456578], [-8.314127, 41.46285], [-8.305611, 41.472818], [-8.303161, 41.481811], [-8.30393, 41.490823], [-8.308006, 41.499855], [-8.313671, 41.506112], [-8.325578, 41.513388], [-8.337538, 41.51574], [-8.349532, 41.514756]], [[-8.349603, 41.507664], [-8.33761, 41.508659], [-8.325662, 41.505328], [-8.318383, 41.499917], [-8.312809, 41.490876], [-8.312436, 41.481866], [-8.317322, 41.472888], [-8.326065, 41.466426], [-8.33807, 41.463494], [-8.350031, 41.464855], [-8.361938, 41.471754], [-8.367914, 41.482185], [-8.36787, 41.491192], [-8.362703, 41.500171], [-8.349603, 41.507664]]], [[[-8.36273, 41.390849], [-8.374721, 41.38766], [-8.380741, 41.383172], [-8.385048, 41.374188], [-8.382214, 41.365165], [-8.374996, 41.358954], [-8.363072, 41.355719], [-8.351094, 41.358141], [-8.34243, 41.364944], [-8.33914, 41.373933], [-8.343286, 41.382964], [-8.350792, 41.388441], [-8.36273, 41.390849]]], [[[-8.63366, 41.190195], [-8.636388, 41.204109], [-8.640413, 41.213129], [-8.650682, 41.225883], [-8.662574, 41.233373], [-8.674489, 41.237074], [-8.69835, 41.238159], [-8.71029, 41.236603], [-8.729764, 41.231389], [-8.748209, 41.222423], [-8.759207, 41.213439], [-8.766412, 41.204446], [-8.770381, 41.195446], [-8.772389, 41.186442], [-8.769658, 41.168421], [-8.76503, 41.159403], [-8.750473, 41.145154], [-8.67527, 41.147484], [-8.676193, 41.146567], [-8.674793, 41.146932], [-8.674204, 41.147693], [-8.674849, 41.153678], [-8.686833, 41.150754], [-8.698754, 41.150029], [-8.710666, 41.151351], [-8.722568, 41.155018], [-8.734458, 41.16206], [-8.741096, 41.16836], [-8.746321, 41.176679], [-8.749171, 41.186394], [-8.748707, 41.195401], [-8.745264, 41.204401], [-8.7385, 41.213394], [-8.725958, 41.222373], [-8.710327, 41.228278], [-8.698386, 41.230427], [-8.686453, 41.230582], [-8.674531, 41.228507], [-8.662626, 41.223348], [-8.651555, 41.213164], [-8.646735, 41.204141], [-8.644939, 41.189245], [-8.640929, 41.196241], [-8.634946, 41.193341], [-8.63366, 41.190195]]], [[[-8.653227, 41.16869], [-8.662952, 41.15975], [-8.669214, 41.156538], [-8.66117, 41.156307], [-8.662078, 41.158104], [-8.660313, 41.160813], [-8.657033, 41.160378], [-8.654961, 41.161963], [-8.653227, 41.16869]]], [[[-8.674552, 41.153828], [-8.674552, 41.153828], [-8.67467, 41.153768], [-8.674552, 41.153828]]]]}}, {"id": "3", "type": "Feature", "properties": {"fill": "#a3a3a3", "value_min": 0.5, "value_max": -0.75}, "geometry": {"type": "MultiPolygon", "coordinates": [[[[-7.802609, 41.874404], [-7.804503, 41.865007], [-7.803117, 41.855986], [-7.798172, 41.846928], [-7.792163, 41.842223], [-7.780236, 41.836037], [-7.768243, 41.833396], [-7.756207, 41.833059], [-7.743526, 41.834833], [-7.74729, 41.837772], [-7.745768, 41.840615], [-7.756095, 41.838855], [-7.768115, 41.840069], [-7.782562, 41.846764], [-7.789397, 41.855843], [-7.790666, 41.864863], [-7.787583, 41.873837], [-7.779354, 41.882452], [-7.767192, 41.888151], [-7.756351, 41.889568], [-7.758719, 41.890926], [-7.756592, 41.89407], [-7.758076, 41.897901], [-7.764097, 41.898595], [-7.779227, 41.886264], [-7.785257, 41.885157], [-7.788886, 41.882467], [-7.794309, 41.882033], [-7.796739, 41.878214], [-7.794954, 41.873932], [-7.802609, 41.874404]]], [[[-7.741571, 41.887418], [-7.731144, 41.882476], [-7.726414, 41.877088], [-7.720533, 41.880218], [-7.720523, 41.881793], [-7.725335, 41.882935], [-7.726208, 41.887665], [-7.737044, 41.888828], [-7.739741, 41.891088], [-7.74246, 41.889747], [-7.741571, 41.887418]]], [[[-7.864539, 41.836181], [-7.876609, 41.834642], [-7.888781, 41.827239], [-7.893475, 41.820866], [-7.895021, 41.811874], [-7.889244, 41.800456], [-7.877354, 41.792014], [-7.865396, 41.787603], [-7.853304, 41.79087], [-7.841527, 41.80234], [-7.837676, 41.811308], [-7.838599, 41.820324], [-7.845379, 41.829399], [-7.852539, 41.833722], [-7.864539, 41.836181]], [[-7.864691, 41.827556], [-7.851921, 41.820458], [-7.849089, 41.811423], [-7.854683, 41.802472], [-7.86522, 41.797594], [-7.877237, 41.79872], [-7.883085, 41.802752], [-7.889085, 41.811816], [-7.885325, 41.820787], [-7.876747, 41.826781], [-7.864691, 41.827556]]], [[[-7.853489, 41.780449], [-7.865506, 41.781379], [-7.877694, 41.772504], [-7.881768, 41.766711], [-7.883163, 41.757718], [-7.878073, 41.75079], [-7.866143, 41.745244], [-7.854099, 41.7462], [-7.848641, 41.748371], [-7.839942, 41.75729], [-7.839928, 41.766297], [-7.841655, 41.769387], [-7.853489, 41.780449]], [[-7.853683, 41.769568], [-7.849994, 41.766398], [-7.847823, 41.757369], [-7.854001, 41.751711], [-7.866077, 41.748956], [-7.877866, 41.757667], [-7.874086, 41.766636], [-7.865677, 41.771685], [-7.853683, 41.769568]]], [[[-8.349603, 41.507664], [-8.362703, 41.500171], [-8.36787, 41.491192], [-8.367914, 41.482185], [-8.361938, 41.471754], [-8.350031, 41.464855], [-8.33807, 41.463494], [-8.326065, 41.466426], [-8.317322, 41.472888], [-8.312436, 41.481866], [-8.312809, 41.490876], [-8.318383, 41.499917], [-8.325662, 41.505328], [-8.33761, 41.508659], [-8.349603, 41.507664]], [[-8.337671, 41.502632], [-8.325749, 41.496931], [-8.321108, 41.490925], [-8.321137, 41.481918], [-8.325968, 41.47577], [-8.337999, 41.470423], [-8.351958, 41.473089], [-8.360922, 41.482146], [-8.361017, 41.491154], [-8.349665, 41.501474], [-8.337671, 41.502632]]], [[[-8.644939, 41.189245], [-8.646735, 41.204141], [-8.651555, 41.213164], [-8.662626, 41.223348], [-8.674531, 41.228507], [-8.686453, 41.230582], [-8.698386, 41.230427], [-8.710327, 41.228278], [-8.725958, 41.222373], [-8.7385, 41.213394], [-8.745264, 41.204401], [-8.748707, 41.195401], [-8.749171, 41.186394], [-8.746321, 41.176679], [-8.741096, 41.16836], [-8.734458, 41.16206], [-8.722568, 41.155018], [-8.710666, 41.151351], [-8.698754, 41.150029], [-8.686833, 41.150754], [-8.674849, 41.153678], [-8.67467, 41.153768], [-8.674552, 41.153828], [-8.672489, 41.15648], [-8.669214, 41.156538], [-8.662952, 41.15975], [-8.653227, 41.16869], [-8.655366, 41.175467], [-8.647955, 41.180228], [-8.647696, 41.185181], [-8.644939, 41.189245]], [[-8.686489, 41.222911], [-8.674574, 41.219884], [-8.662684, 41.212033], [-8.657494, 41.204173], [-8.655582, 41.19516], [-8.657273, 41.186157], [-8.662864, 41.177064], [-8.674826, 41.168853], [-8.686764, 41.165435], [-8.698685, 41.165213], [-8.710593, 41.168048], [-8.722483, 41.175266], [-8.730146, 41.186351], [-8.731324, 41.195361], [-8.728611, 41.204363], [-8.720902, 41.213353], [-8.710367, 41.219247], [-8.700094, 41.222308], [-8.686489, 41.222911]]]]}}, {"id": "2", "type": "Feature", "properties": {"fill": "#a3a3a3", "value_min": 0.25, "value_max": -0.5}, "geometry": {"type": "MultiPolygon", "coordinates": [[[[-7.756351, 41.889568], [-7.767192, 41.888151], [-7.779354, 41.882452], [-7.787583, 41.873837], [-7.790666, 41.864863], [-7.789397, 41.855843], [-7.782562, 41.846764], [-7.768115, 41.840069], [-7.756095, 41.838855], [-7.745768, 41.840615], [-7.746349, 41.84407], [-7.749631, 41.846557], [-7.755971, 41.845258], [-7.767973, 41.847465], [-7.777313, 41.855715], [-7.778408, 41.864733], [-7.771377, 41.873664], [-7.767422, 41.876164], [-7.755328, 41.878383], [-7.743336, 41.875338], [-7.735159, 41.865414], [-7.734159, 41.868337], [-7.730228, 41.871024], [-7.729293, 41.875972], [-7.726414, 41.877088], [-7.731144, 41.882476], [-7.741571, 41.887418], [-7.742785, 41.885922], [-7.745495, 41.885931], [-7.750001, 41.887971], [-7.756022, 41.888441], [-7.756351, 41.889568]]], [[[-7.743308, 41.849149], [-7.743308, 41.849149], [-7.743468, 41.849012], [-7.743308, 41.849149]]], [[[-7.864691, 41.827556], [-7.876747, 41.826781], [-7.885325, 41.820787], [-7.889085, 41.811816], [-7.883085, 41.802752], [-7.877237, 41.79872], [-7.86522, 41.797594], [-7.854683, 41.802472], [-7.849089, 41.811423], [-7.851921, 41.820458], [-7.864691, 41.827556]], [[-7.86484, 41.819126], [-7.859699, 41.811529], [-7.865077, 41.805685], [-7.877109, 41.806043], [-7.881298, 41.811741], [-7.876883, 41.818966], [-7.86484, 41.819126]]], [[[-7.853683, 41.769568], [-7.865677, 41.771685], [-7.874086, 41.766636], [-7.877866, 41.757667], [-7.866077, 41.748956], [-7.854001, 41.751711], [-7.847823, 41.757369], [-7.849994, 41.766398], [-7.853683, 41.769568]], [[-7.857107, 41.757462], [-7.865978, 41.754617], [-7.870001, 41.757589], [-7.865807, 41.764301], [-7.857107, 41.757462]]], [[[-8.337671, 41.502632], [-8.349665, 41.501474], [-8.361017, 41.491154], [-8.360922, 41.482146], [-8.351958, 41.473089], [-8.337999, 41.470423], [-8.325968, 41.47577], [-8.321137, 41.481918], [-8.321108, 41.490925], [-8.325749, 41.496931], [-8.337671, 41.502632]], [[-8.337744, 41.495484], [-8.331013, 41.490983], [-8.33157, 41.481979], [-8.337922, 41.478018], [-8.349881, 41.479848], [-8.352234, 41.482097], [-8.352566, 41.491107], [-8.349742, 41.49378], [-8.337744, 41.495484]]], [[[-8.686489, 41.222911], [-8.700094, 41.222308], [-8.710367, 41.219247], [-8.720902, 41.213353], [-8.728611, 41.204363], [-8.731324, 41.195361], [-8.730146, 41.186351], [-8.722483, 41.175266], [-8.710593, 41.168048], [-8.698685, 41.165213], [-8.686764, 41.165435], [-8.674826, 41.168853], [-8.662864, 41.177064], [-8.657273, 41.186157], [-8.655582, 41.19516], [-8.657494, 41.204173], [-8.662684, 41.212033], [-8.674574, 41.219884], [-8.686489, 41.222911]], [[-8.686532, 41.214], [-8.67463, 41.20864], [-8.670415, 41.204211], [-8.668385, 41.195197], [-8.674751, 41.184132], [-8.686698, 41.179196], [-8.698618, 41.17977], [-8.710596, 41.186303], [-8.714443, 41.195321], [-8.712122, 41.204323], [-8.698857, 41.213297], [-8.686532, 41.214]]]]}}, {"id": "1", "type": "Feature", "properties": {"fill": "#a3a3a3", "value_min": 0.0, "value_max": -0.25}, "geometry": {"type": "MultiPolygon", "coordinates": [[[[-7.735159, 41.865414], [-7.743336, 41.875338], [-7.755328, 41.878383], [-7.767422, 41.876164], [-7.771377, 41.873664], [-7.778408, 41.864733], [-7.777313, 41.855715], [-7.767973, 41.847465], [-7.755971, 41.845258], [-7.749631, 41.846557], [-7.750532, 41.849261], [-7.743468, 41.849012], [-7.743308, 41.849149], [-7.746901, 41.8524], [-7.746881, 41.855776], [-7.739943, 41.858003], [-7.735159, 41.865414]], [[-7.75532, 41.864485], [-7.755739, 41.857204], [-7.755994, 41.864492], [-7.75532, 41.864485]]], [[[-7.86484, 41.819126], [-7.876883, 41.818966], [-7.881298, 41.811741], [-7.877109, 41.806043], [-7.865077, 41.805685], [-7.859699, 41.811529], [-7.86484, 41.819126]]], [[[-7.857107, 41.757462], [-7.865807, 41.764301], [-7.870001, 41.757589], [-7.865978, 41.754617], [-7.857107, 41.757462]]], [[[-8.337744, 41.495484], [-8.349742, 41.49378], [-8.352566, 41.491107], [-8.352234, 41.482097], [-8.349881, 41.479848], [-8.337922, 41.478018], [-8.33157, 41.481979], [-8.331013, 41.490983], [-8.337744, 41.495484]]], [[[-8.686532, 41.214], [-8.698857, 41.213297], [-8.712122, 41.204323], [-8.714443, 41.195321], [-8.710596, 41.186303], [-8.698618, 41.17977], [-8.686698, 41.179196], [-8.674751, 41.184132], [-8.668385, 41.195197], [-8.670415, 41.204211], [-8.67463, 41.20864], [-8.686532, 41.214]]]]}}, {"id": "11", "type": "Feature", "properties": {"fill": "#2048ac", "value_min": 2.5, "value_max": -2.75}, "geometry": {"type": "Polygon", "coordinates": [[[-8.420176, 41.722134], [-8.423858, 41.716667], [-8.419657, 41.713535], [-8.410321, 41.716598], [-8.419743, 41.722778], [-8.420176, 41.722134]]]}}, {"id": "9", "type": "Feature", "properties": {"fill": "#245ede", "value_min": 2.0, "value_max": -2.25}, "geometry": {"type": "MultiPolygon", "coordinates": [[[[-8.551151, 41.615493], [-8.551234, 41.615282], [-8.55124, 41.615267], [-8.559844, 41.591168], [-8.560444, 41.582163], [-8.558566, 41.573148], [-8.553469, 41.564121], [-8.543879, 41.555076], [-8.529052, 41.547956], [-8.505115, 41.542164], [-8.469293, 41.52438], [-8.457342, 41.520286], [-8.445355, 41.520443], [-8.433328, 41.525246], [-8.421895, 41.536513], [-8.41809, 41.545501], [-8.417412, 41.554505], [-8.424716, 41.581564], [-8.420028, 41.590547], [-8.40359, 41.599471], [-8.348527, 41.614878], [-8.322236, 41.626041], [-8.307358, 41.63496], [-8.275995, 41.661067], [-8.263894, 41.668927], [-8.251843, 41.672291], [-8.215819, 41.671031], [-8.203772, 41.673768], [-8.191637, 41.683466], [-8.189182, 41.68823], [-8.188383, 41.697231], [-8.191361, 41.705495], [-8.203193, 41.720648], [-8.208982, 41.724396], [-8.203035, 41.733436], [-8.179038, 41.729372], [-8.166991, 41.731144], [-8.152528, 41.742007], [-8.151201, 41.751004], [-8.154614, 41.758077], [-8.166534, 41.7665], [-8.178541, 41.768413], [-8.202627, 41.766412], [-8.208663, 41.769428], [-8.214573, 41.773423], [-8.229918, 41.792266], [-8.240744, 41.791588], [-8.24074, 41.789338], [-8.244347, 41.787984], [-8.245546, 41.785731], [-8.251257, 41.784375], [-8.251845, 41.777172], [-8.257551, 41.773564], [-8.261762, 41.774235], [-8.271366, 41.766346], [-8.280681, 41.764083], [-8.284038, 41.761109], [-8.284931, 41.757507], [-8.287033, 41.756829], [-8.298457, 41.757263], [-8.300866, 41.758835], [-8.305674, 41.758152], [-8.311096, 41.762195], [-8.318308, 41.761283], [-8.325233, 41.765098], [-8.328234, 41.763292], [-8.336653, 41.763728], [-8.341756, 41.761468], [-8.344765, 41.762363], [-8.349267, 41.760103], [-8.352557, 41.755145], [-8.34982, 41.745922], [-8.349814, 41.744122], [-8.352516, 41.743441], [-8.352203, 41.739616], [-8.357897, 41.735103], [-8.362407, 41.735994], [-8.368703, 41.73193], [-8.373548, 41.734621], [-8.369458, 41.725388], [-8.367945, 41.716373], [-8.368018, 41.698359], [-8.355591, 41.680276], [-8.352477, 41.671251], [-8.353756, 41.662251], [-8.360976, 41.653285], [-8.372211, 41.647964], [-8.384229, 41.647021], [-8.396206, 41.650316], [-8.41064, 41.662557], [-8.419982, 41.677331], [-8.44391, 41.688963], [-8.453793, 41.695485], [-8.453856, 41.695527], [-8.45476, 41.696134], [-8.461659, 41.694563], [-8.467939, 41.689593], [-8.478124, 41.685061], [-8.482012, 41.682123], [-8.484371, 41.674238], [-8.49308, 41.674886], [-8.499963, 41.671038], [-8.50927, 41.671233], [-8.51018, 41.672806], [-8.511967, 41.670324], [-8.509856, 41.668755], [-8.512252, 41.667847], [-8.514629, 41.663788], [-8.522103, 41.658811], [-8.525706, 41.659023], [-8.527769, 41.652714], [-8.534066, 41.652017], [-8.537951, 41.649302], [-8.537634, 41.646602], [-8.543876, 41.637352], [-8.543855, 41.633976], [-8.536342, 41.631977], [-8.535128, 41.62973], [-8.542257, 41.618676], [-8.542536, 41.615299], [-8.551151, 41.615493]]], [[[-7.986948, 41.603567], [-7.970075, 41.623425], [-7.961732, 41.641365], [-7.959774, 41.659361], [-7.964655, 41.686426], [-7.963891, 41.695426], [-7.95955, 41.704394], [-7.952275, 41.713335], [-7.938653, 41.723958], [-7.926423, 41.73638], [-7.920393, 41.749067], [-7.918641, 41.758058], [-7.923983, 41.794135], [-7.937302, 41.805879], [-7.949312, 41.807593], [-7.969435, 41.803559], [-8.009932, 41.779756], [-8.034156, 41.769238], [-8.046316, 41.76053], [-8.054, 41.750245], [-8.060685, 41.723279], [-8.070818, 41.705347], [-8.071335, 41.693876], [-8.078862, 41.687398], [-8.095509, 41.683932], [-8.099085, 41.678551], [-8.095686, 41.671284], [-8.092206, 41.66949], [-8.089941, 41.660465], [-8.120425, 41.618861], [-8.131196, 41.606742], [-8.134589, 41.59776], [-8.132949, 41.588741], [-8.12103, 41.574308], [-8.109143, 41.56647], [-8.09721, 41.562128], [-8.080681, 41.560077], [-8.081576, 41.565157], [-8.078879, 41.56493], [-8.075279, 41.568305], [-8.073182, 41.568079], [-8.069283, 41.570553], [-8.068081, 41.573478], [-8.056684, 41.579549], [-8.052181, 41.584498], [-8.052777, 41.587649], [-8.048277, 41.590122], [-8.047974, 41.592373], [-8.031467, 41.602938], [-8.02367, 41.603156], [-8.019174, 41.601802], [-8.015872, 41.603824], [-8.013474, 41.603372], [-8.005971, 41.60629], [-8.003562, 41.611239], [-7.99936, 41.61281], [-7.998462, 41.612359], [-7.999669, 41.608759], [-7.996976, 41.605829], [-7.996684, 41.602003], [-7.986948, 41.603567]], [[-7.937468, 41.795812], [-7.93568, 41.794244], [-7.935152, 41.785232], [-7.937747, 41.778919], [-7.944533, 41.776312], [-7.937809, 41.775136], [-7.931043, 41.767181], [-7.928373, 41.758149], [-7.938289, 41.746055], [-7.950346, 41.744196], [-7.962814, 41.749458], [-7.968782, 41.758519], [-7.966107, 41.767501], [-7.96192, 41.772265], [-7.953373, 41.776393], [-7.956728, 41.78543], [-7.954683, 41.794419], [-7.949485, 41.796988], [-7.937468, 41.795812]], [[-8.084263, 41.629659], [-8.071036, 41.624286], [-8.066097, 41.615239], [-8.069806, 41.606262], [-8.084692, 41.59933], [-8.096668, 41.601025], [-8.103283, 41.606528], [-8.10575, 41.615554], [-8.096299, 41.627454], [-8.084263, 41.629659]]], [[[-7.727325, 41.8058], [-7.744707, 41.805242], [-7.756831, 41.800814], [-7.765953, 41.792546], [-7.769312, 41.783575], [-7.768318, 41.774558], [-7.757625, 41.759701], [-7.747488, 41.754052], [-7.743866, 41.756509], [-7.740214, 41.763924], [-7.735993, 41.765988], [-7.745445, 41.767436], [-7.754963, 41.774414], [-7.758414, 41.783458], [-7.753762, 41.792414], [-7.744859, 41.79745], [-7.732799, 41.798659], [-7.727382, 41.796789], [-7.728876, 41.798321], [-7.727325, 41.8058]]], [[[-7.72724, 41.79674], [-7.72724, 41.79674], [-7.727082, 41.796685], [-7.72724, 41.79674]]], [[[-7.824417, 41.709486], [-7.830608, 41.715196], [-7.842526, 41.720937], [-7.857892, 41.721442], [-7.878697, 41.714876], [-7.890579, 41.72296], [-7.902591, 41.723593], [-7.908097, 41.72193], [-7.911965, 41.71296], [-7.903515, 41.703873], [-7.891026, 41.696981], [-7.883112, 41.685662], [-7.876422, 41.681399], [-7.873401, 41.686198], [-7.868896, 41.686413], [-7.868008, 41.68326], [-7.864403, 41.683701], [-7.864096, 41.685276], [-7.858987, 41.68639], [-7.857773, 41.689538], [-7.854776, 41.68818], [-7.847538, 41.695365], [-7.837912, 41.698942], [-7.835792, 41.702763], [-7.839682, 41.705924], [-7.838465, 41.709522], [-7.824417, 41.709486]], [[-7.850148, 41.712358], [-7.843568, 41.703285], [-7.854934, 41.699199], [-7.860326, 41.703453], [-7.85683, 41.712425], [-7.850148, 41.712358]]], [[[-8.119464, 41.689485], [-8.107427, 41.691001], [-8.101756, 41.696586], [-8.107308, 41.699575], [-8.119299, 41.701592], [-8.123494, 41.696754], [-8.119464, 41.689485]]], [[[-8.09036, 41.543552], [-8.097405, 41.54807], [-8.109417, 41.546503], [-8.121536, 41.536942], [-8.123029, 41.525615], [-8.109834, 41.516065], [-8.097852, 41.515962], [-8.090295, 41.520502], [-8.090594, 41.522169], [-8.093588, 41.52307], [-8.09209, 41.524645], [-8.092385, 41.532749], [-8.095978, 41.534325], [-8.098073, 41.538152], [-8.106759, 41.543106], [-8.10616, 41.543782], [-8.101666, 41.542655], [-8.094475, 41.544904], [-8.09036, 41.543552]]], [[[-8.089756, 41.543102], [-8.089756, 41.543102], [-8.089981, 41.54329], [-8.089756, 41.543102]]], [[[-8.090026, 41.543327], [-8.090026, 41.543327], [-8.090281, 41.543501], [-8.090026, 41.543327]]], [[[-8.565585, 41.463845], [-8.569537, 41.456094], [-8.565013, 41.447069], [-8.553753, 41.442962], [-8.541766, 41.445314], [-8.539535, 41.44697], [-8.534981, 41.455959], [-8.541616, 41.466627], [-8.553574, 41.469039], [-8.565585, 41.463845]]], [[[-8.213421, 41.374038], [-8.209216, 41.382121], [-8.219191, 41.391174], [-8.23118, 41.388878], [-8.236154, 41.382303], [-8.2329, 41.373274], [-8.219438, 41.370574], [-8.214696, 41.37277], [-8.213538, 41.373812], [-8.213503, 41.37388], [-8.213421, 41.374038]]], [[[-8.661257, 41.366324], [-8.660913, 41.357316], [-8.65444, 41.348289], [-8.650044, 41.34534], [-8.638113, 41.341307], [-8.62616, 41.341581], [-8.614179, 41.346422], [-8.605986, 41.357141], [-8.605981, 41.366149], [-8.611718, 41.375176], [-8.625926, 41.382388], [-8.637882, 41.38303], [-8.649862, 41.379399], [-8.655511, 41.375315], [-8.661257, 41.366324]]], [[[-8.526532, 41.202956], [-8.519024, 41.212686], [-8.517396, 41.221687], [-8.519862, 41.230705], [-8.53125, 41.242679], [-8.543149, 41.247748], [-8.555075, 41.24908], [-8.567023, 41.247109], [-8.579, 41.24061], [-8.585744, 41.230961], [-8.58758, 41.22196], [-8.585259, 41.212944], [-8.579234, 41.204117], [-8.575948, 41.202137], [-8.57423, 41.20462], [-8.568566, 41.204416], [-8.565895, 41.206227], [-8.567697, 41.208246], [-8.566512, 41.209376], [-8.559636, 41.206251], [-8.554271, 41.20627], [-8.549521, 41.209214], [-8.544157, 41.209458], [-8.54238, 41.211265], [-8.533747, 41.213097], [-8.529858, 41.210859], [-8.530444, 41.209056], [-8.526532, 41.202956]]]]}}, {"id": "6", "type": "Feature", "properties": {"fill": "#71a5e5", "value_min": 1.25, "value_max": -1.5}, "geometry": {"type": "MultiPolygon", "coordinates": [[[[-7.927273, 41.878069], [-7.928937, 41.857229], [-7.927408, 41.839201], [-7.92195, 41.821136], [-7.903389, 41.784934], [-7.901367, 41.757894], [-7.898408, 41.748859], [-7.890255, 41.74181], [-7.878333, 41.735835], [-7.866356, 41.733136], [-7.84229, 41.734072], [-7.818165, 41.738241], [-7.80603, 41.744171], [-7.801649, 41.74789], [-7.797326, 41.756852], [-7.794163, 41.783839], [-7.791201, 41.792815], [-7.785079, 41.801757], [-7.768659, 41.811695], [-7.756552, 41.815247], [-7.730732, 41.819484], [-7.732041, 41.821514], [-7.739246, 41.824235], [-7.780591, 41.817324], [-7.796235, 41.810881], [-7.804253, 41.801958], [-7.808774, 41.792998], [-7.813754, 41.766029], [-7.816929, 41.757055], [-7.824049, 41.748121], [-7.842184, 41.73999], [-7.85425, 41.737692], [-7.866275, 41.737716], [-7.878241, 41.741098], [-7.889714, 41.748775], [-7.894693, 41.75783], [-7.893861, 41.784842], [-7.908345, 41.812001], [-7.909551, 41.821019], [-7.907984, 41.830011], [-7.900528, 41.844433], [-7.889665, 41.857064], [-7.891675, 41.859094], [-7.898893, 41.86136], [-7.902203, 41.861591], [-7.904318, 41.859795], [-7.907309, 41.865203], [-7.906095, 41.868126], [-7.910299, 41.871285], [-7.909985, 41.875111], [-7.91479, 41.879171], [-7.927273, 41.878069]]], [[[-8.143055, 41.722771], [-8.152974, 41.714989], [-8.15334, 41.705985], [-8.143365, 41.699398], [-8.131319, 41.70147], [-8.126536, 41.705784], [-8.121764, 41.714755], [-8.131017, 41.72391], [-8.143055, 41.722771]], [[-8.136858, 41.705862], [-8.142688, 41.714913], [-8.131114, 41.716661], [-8.129241, 41.714812], [-8.131078, 41.705819], [-8.136858, 41.705862]]], [[[-8.309376, 41.32756], [-8.302765, 41.337688], [-8.297384, 41.355671], [-8.296516, 41.37368], [-8.298566, 41.409723], [-8.296199, 41.418716], [-8.273165, 41.454603], [-8.271352, 41.463599], [-8.272021, 41.47261], [-8.286588, 41.508731], [-8.291502, 41.517769], [-8.299407, 41.526825], [-8.313368, 41.53477], [-8.325326, 41.537665], [-8.337308, 41.538256], [-8.361337, 41.532962], [-8.373391, 41.526022], [-8.382146, 41.518292], [-8.38865, 41.509319], [-8.391836, 41.500329], [-8.394273, 41.437289], [-8.398603, 41.428305], [-8.422427, 41.403106], [-8.430189, 41.392435], [-8.436888, 41.374453], [-8.436734, 41.356437], [-8.429277, 41.338385], [-8.4219, 41.32934], [-8.411211, 41.320298], [-8.399487, 41.313429], [-8.396738, 41.314336], [-8.398835, 41.316131], [-8.393775, 41.31997], [-8.393489, 41.323122], [-8.391105, 41.324253], [-8.386325, 41.323588], [-8.380382, 41.331254], [-8.375305, 41.33104], [-8.37201, 41.328346], [-8.361563, 41.329718], [-8.358276, 41.329049], [-8.357673, 41.327249], [-8.350207, 41.327264], [-8.346032, 41.328847], [-8.342462, 41.333131], [-8.333215, 41.336299], [-8.326363, 41.342163], [-8.324568, 41.341041], [-8.323376, 41.341943], [-8.316788, 41.335876], [-8.313802, 41.336331], [-8.31169, 41.328456], [-8.309376, 41.32756]], [[-8.373541, 41.510464], [-8.361472, 41.51926], [-8.349443, 41.523609], [-8.337446, 41.524706], [-8.325476, 41.52318], [-8.313546, 41.517975], [-8.302864, 41.508831], [-8.293192, 41.490757], [-8.292105, 41.472736], [-8.295303, 41.463748], [-8.302237, 41.455007], [-8.314302, 41.4463], [-8.326326, 41.441167], [-8.338314, 41.439447], [-8.350272, 41.440695], [-8.362186, 41.446441], [-8.372077, 41.455185], [-8.378026, 41.464225], [-8.382647, 41.482265], [-8.380471, 41.500268], [-8.373541, 41.510464]], [[-8.398189, 41.392272], [-8.386555, 41.401226], [-8.37454, 41.406612], [-8.362555, 41.408718], [-8.350596, 41.408171], [-8.338674, 41.403999], [-8.325277, 41.391868], [-8.320579, 41.382833], [-8.318925, 41.373815], [-8.319918, 41.364814], [-8.323845, 41.355829], [-8.332088, 41.34687], [-8.339302, 41.341921], [-8.351295, 41.337818], [-8.36326, 41.336503], [-8.375494, 41.338106], [-8.387109, 41.342199], [-8.394585, 41.347215], [-8.402949, 41.356267], [-8.406729, 41.365294], [-8.407201, 41.374304], [-8.404588, 41.383298], [-8.398189, 41.392272]]], [[[-8.59707, 41.165138], [-8.626757, 41.236882], [-8.638615, 41.250489], [-8.65052, 41.256242], [-8.662446, 41.258283], [-8.686323, 41.257649], [-8.769908, 41.250413], [-8.803649, 41.244731], [-8.801862, 41.199265], [-8.791147, 41.213501], [-8.780166, 41.222489], [-8.758033, 41.233811], [-8.736338, 41.240412], [-8.710252, 41.245239], [-8.686374, 41.247125], [-8.674441, 41.246636], [-8.662518, 41.244427], [-8.65061, 41.239279], [-8.638732, 41.229165], [-8.633757, 41.222116], [-8.625677, 41.204074], [-8.619789, 41.178775], [-8.613374, 41.177451], [-8.608583, 41.174095], [-8.609164, 41.172066], [-8.604942, 41.164881], [-8.59707, 41.165138]]]]}}, {"id": "7", "type": "Feature", "properties": {"fill": "#5093f6", "value_min": 1.5, "value_max": -1.75}, "geometry": {"type": "MultiPolygon", "coordinates": [[[[-8.009715, 41.837898], [-8.000499, 41.830854], [-7.979141, 41.821659], [-7.937136, 41.81591], [-7.925215, 41.808785], [-7.915195, 41.794052], [-7.912386, 41.785019], [-7.908636, 41.748956], [-7.902319, 41.739563], [-7.878438, 41.729789], [-7.866457, 41.727374], [-7.842402, 41.727858], [-7.8304, 41.726685], [-7.790661, 41.718009], [-7.789449, 41.719966], [-7.78464, 41.720402], [-7.78252, 41.723546], [-7.776204, 41.724652], [-7.773786, 41.727346], [-7.770798, 41.72441], [-7.766504, 41.723046], [-7.764784, 41.729486], [-7.779114, 41.765666], [-7.780844, 41.774692], [-7.780555, 41.783695], [-7.777582, 41.79267], [-7.7698, 41.801594], [-7.756682, 41.808502], [-7.74458, 41.811745], [-7.727882, 41.813077], [-7.730732, 41.819484], [-7.756552, 41.815247], [-7.768659, 41.811695], [-7.785079, 41.801757], [-7.791201, 41.792815], [-7.794163, 41.783839], [-7.797326, 41.756852], [-7.801649, 41.74789], [-7.80603, 41.744171], [-7.818165, 41.738241], [-7.84229, 41.734072], [-7.866356, 41.733136], [-7.878333, 41.735835], [-7.890255, 41.74181], [-7.898408, 41.748859], [-7.901367, 41.757894], [-7.903389, 41.784934], [-7.92195, 41.821136], [-7.927408, 41.839201], [-7.928937, 41.857229], [-7.927273, 41.878069], [-7.935283, 41.874707], [-7.937389, 41.87516], [-7.941618, 41.870891], [-7.951254, 41.871132], [-7.956367, 41.87339], [-7.956362, 41.875191], [-7.960878, 41.875648], [-7.96299, 41.874075], [-7.972322, 41.875439], [-7.987996, 41.869157], [-7.990123, 41.860157], [-7.995547, 41.858138], [-7.994047, 41.855211], [-7.996765, 41.851162], [-8.00339, 41.85027], [-8.007618, 41.843072], [-8.007928, 41.838796], [-8.009715, 41.837898]]], [[[-8.142929, 41.732186], [-8.157272, 41.724028], [-8.16608, 41.715085], [-8.167194, 41.706086], [-8.163207, 41.69705], [-8.155499, 41.690537], [-8.143501, 41.689163], [-8.131375, 41.69729], [-8.119183, 41.710086], [-8.110336, 41.714667], [-8.109374, 41.723667], [-8.118857, 41.733946], [-8.130852, 41.736099], [-8.142929, 41.732186]], [[-8.143055, 41.722771], [-8.131017, 41.72391], [-8.121764, 41.714755], [-8.126536, 41.705784], [-8.131319, 41.70147], [-8.143365, 41.699398], [-8.15334, 41.705985], [-8.152974, 41.714989], [-8.143055, 41.722771]]], [[[-8.25981, 41.346083], [-8.267376, 41.360937], [-8.270293, 41.373517], [-8.270464, 41.382526], [-8.266985, 41.395718], [-8.254835, 41.41221], [-8.242764, 41.421302], [-8.215619, 41.43621], [-8.20485, 41.445143], [-8.199802, 41.454116], [-8.199577, 41.463122], [-8.202921, 41.472152], [-8.210028, 41.481209], [-8.218049, 41.486427], [-8.241952, 41.491078], [-8.25387, 41.496468], [-8.256691, 41.499534], [-8.260737, 41.508568], [-8.259042, 41.517564], [-8.251318, 41.535529], [-8.25598, 41.544567], [-8.267855, 41.55365], [-8.289093, 41.562118], [-8.301059, 41.564587], [-8.325034, 41.565677], [-8.34906, 41.561811], [-8.361093, 41.557757], [-8.373146, 41.551405], [-8.385227, 41.541869], [-8.398156, 41.527384], [-8.409475, 41.509428], [-8.409988, 41.500423], [-8.405888, 41.482387], [-8.409866, 41.469118], [-8.421933, 41.458802], [-8.445214, 41.446554], [-8.464238, 41.428629], [-8.489998, 41.392716], [-8.502184, 41.365746], [-8.507068, 41.338744], [-8.506402, 41.320726], [-8.504003, 41.311708], [-8.492248, 41.293642], [-8.453659, 41.25274], [-8.452573, 41.254994], [-8.447812, 41.257258], [-8.449028, 41.261982], [-8.439785, 41.262907], [-8.438023, 41.268989], [-8.434745, 41.269673], [-8.432691, 41.277107], [-8.427032, 41.279372], [-8.429143, 41.284319], [-8.426171, 41.287028], [-8.426488, 41.291079], [-8.425013, 41.294909], [-8.422037, 41.296942], [-8.422647, 41.299867], [-8.407744, 41.304856], [-8.406262, 41.307335], [-8.403277, 41.307342], [-8.399487, 41.313429], [-8.411211, 41.320298], [-8.4219, 41.32934], [-8.429277, 41.338385], [-8.436734, 41.356437], [-8.436888, 41.374453], [-8.430189, 41.392435], [-8.422427, 41.403106], [-8.398603, 41.428305], [-8.394273, 41.437289], [-8.391836, 41.500329], [-8.38865, 41.509319], [-8.382146, 41.518292], [-8.373391, 41.526022], [-8.361337, 41.532962], [-8.337308, 41.538256], [-8.325326, 41.537665], [-8.313368, 41.53477], [-8.299407, 41.526825], [-8.291502, 41.517769], [-8.286588, 41.508731], [-8.272021, 41.47261], [-8.271352, 41.463599], [-8.273165, 41.454603], [-8.296199, 41.418716], [-8.298566, 41.409723], [-8.296516, 41.37368], [-8.297384, 41.355671], [-8.302765, 41.337688], [-8.309376, 41.32756], [-8.307502, 41.325762], [-8.305116, 41.326891], [-8.303024, 41.325994], [-8.303615, 41.323742], [-8.301216, 41.319694], [-8.296431, 41.316774], [-8.296415, 41.310472], [-8.293133, 41.310927], [-8.292241, 41.312504], [-8.289255, 41.312508], [-8.284488, 41.316341], [-8.281801, 41.316569], [-8.281808, 41.319721], [-8.278828, 41.321976], [-8.278238, 41.325128], [-8.273161, 41.325134], [-8.269582, 41.326939], [-8.265709, 41.331221], [-8.269004, 41.336169], [-8.263339, 41.340902], [-8.262751, 41.345405], [-8.25981, 41.346083]]], [[[-8.578973, 41.17894], [-8.579582, 41.179388], [-8.579722, 41.179528], [-8.579807, 41.179612], [-8.580022, 41.179827], [-8.591244, 41.19087], [-8.603628, 41.213009], [-8.606803, 41.231035], [-8.605927, 41.267063], [-8.61054, 41.276087], [-8.614574, 41.279326], [-8.626488, 41.284126], [-8.638421, 41.285722], [-8.650366, 41.285126], [-8.662321, 41.282644], [-8.698204, 41.269964], [-8.712768, 41.26738], [-8.73403, 41.267849], [-8.763547, 41.276503], [-8.779773, 41.285543], [-8.805969, 41.303682], [-8.803649, 41.244731], [-8.769908, 41.250413], [-8.686323, 41.257649], [-8.662446, 41.258283], [-8.65052, 41.256242], [-8.638615, 41.250489], [-8.626757, 41.236882], [-8.59707, 41.165138], [-8.589766, 41.167193], [-8.589194, 41.170572], [-8.585925, 41.17171], [-8.582094, 41.177803], [-8.578973, 41.17894]]], [[[-8.134176, 41.488017], [-8.14032, 41.480709], [-8.139394, 41.471695], [-8.134467, 41.466197], [-8.122562, 41.460983], [-8.11058, 41.461571], [-8.098506, 41.468759], [-8.095082, 41.480362], [-8.102156, 41.489425], [-8.110157, 41.492465], [-8.12213, 41.493011], [-8.132796, 41.48966], [-8.134176, 41.488017]]]]}}, {"id": "8", "type": "Feature", "properties": {"fill": "#3171ee", "value_min": 1.75, "value_max": -2.0}, "geometry": {"type": "MultiPolygon", "coordinates": [[[[-8.55124, 41.615267], [-8.554533, 41.615255], [-8.557244, 41.617046], [-8.562639, 41.61635], [-8.568056, 41.619031], [-8.570735, 41.616095], [-8.577321, 41.614269], [-8.581231, 41.615829], [-8.585766, 41.620988], [-8.591462, 41.620515], [-8.596534, 41.616668], [-8.601628, 41.615972], [-8.603996, 41.611686], [-8.613256, 41.606696], [-8.619881, 41.610269], [-8.621338, 41.604636], [-8.628833, 41.604378], [-8.636302, 41.600744], [-8.64075, 41.594422], [-8.645536, 41.593051], [-8.646744, 41.594171], [-8.649125, 41.591909], [-8.656622, 41.5921], [-8.660788, 41.588255], [-8.663794, 41.589141], [-8.665265, 41.585758], [-8.66948, 41.587989], [-8.684455, 41.586117], [-8.685608, 41.58071], [-8.697261, 41.576376], [-8.701703, 41.570277], [-8.707704, 41.570923], [-8.711586, 41.569327], [-8.716422, 41.573805], [-8.720316, 41.57356], [-8.725151, 41.577811], [-8.726633, 41.576003], [-8.734424, 41.575737], [-8.736564, 41.580228], [-8.738354, 41.579318], [-8.740778, 41.582006], [-8.74467, 41.581535], [-8.750711, 41.58623], [-8.756374, 41.582823], [-8.75635, 41.580347], [-8.762327, 41.578514], [-8.764443, 41.580303], [-8.767441, 41.580286], [-8.769874, 41.583874], [-8.768997, 41.58613], [-8.773228, 41.589482], [-8.775371, 41.593972], [-8.78556, 41.593464], [-8.797327, 41.600599], [-8.804218, 41.600109], [-8.80456, 41.604158], [-8.809434, 41.611332], [-8.828644, 41.609656], [-8.82839, 41.585633], [-8.818497, 41.554794], [-8.8221, 41.547542], [-8.821965, 41.534907], [-8.815926, 41.525624], [-8.81063, 41.5101], [-8.813279, 41.503483], [-8.812636, 41.496944], [-8.804699, 41.482068], [-8.798552, 41.474753], [-8.80154, 41.446836], [-8.806115, 41.43713], [-8.807354, 41.425915], [-8.811193, 41.416638], [-8.805969, 41.303682], [-8.779773, 41.285543], [-8.763547, 41.276503], [-8.73403, 41.267849], [-8.712768, 41.26738], [-8.698204, 41.269964], [-8.662321, 41.282644], [-8.650366, 41.285126], [-8.638421, 41.285722], [-8.626488, 41.284126], [-8.614574, 41.279326], [-8.61054, 41.276087], [-8.605927, 41.267063], [-8.606803, 41.231035], [-8.603628, 41.213009], [-8.591244, 41.19087], [-8.580022, 41.179827], [-8.581296, 41.191762], [-8.575958, 41.195609], [-8.577183, 41.200557], [-8.575948, 41.202137], [-8.579234, 41.204117], [-8.585259, 41.212944], [-8.58758, 41.22196], [-8.585744, 41.230961], [-8.579, 41.24061], [-8.567023, 41.247109], [-8.555075, 41.24908], [-8.543149, 41.247748], [-8.53125, 41.242679], [-8.519862, 41.230705], [-8.517396, 41.221687], [-8.519024, 41.212686], [-8.526532, 41.202956], [-8.523236, 41.200077], [-8.520554, 41.200086], [-8.51163, 41.203042], [-8.510456, 41.206197], [-8.506583, 41.206435], [-8.504239, 41.213646], [-8.500076, 41.21546], [-8.50308, 41.219502], [-8.502204, 41.222656], [-8.495642, 41.222227], [-8.495947, 41.223351], [-8.490894, 41.226294], [-8.487935, 41.230354], [-8.490331, 41.232373], [-8.489156, 41.235528], [-8.486181, 41.236888], [-8.484411, 41.240495], [-8.476644, 41.237817], [-8.475756, 41.23917], [-8.471283, 41.239184], [-8.471604, 41.243459], [-8.469227, 41.245267], [-8.463258, 41.244384], [-8.459989, 41.246644], [-8.454323, 41.246886], [-8.455834, 41.250933], [-8.453659, 41.25274], [-8.492248, 41.293642], [-8.504003, 41.311708], [-8.506402, 41.320726], [-8.507068, 41.338744], [-8.502184, 41.365746], [-8.489998, 41.392716], [-8.464238, 41.428629], [-8.445214, 41.446554], [-8.421933, 41.458802], [-8.409866, 41.469118], [-8.405888, 41.482387], [-8.409988, 41.500423], [-8.409475, 41.509428], [-8.398156, 41.527384], [-8.385227, 41.541869], [-8.373146, 41.551405], [-8.361093, 41.557757], [-8.34906, 41.561811], [-8.325034, 41.565677], [-8.301059, 41.564587], [-8.289093, 41.562118], [-8.267855, 41.55365], [-8.25598, 41.544567], [-8.251318, 41.535529], [-8.259042, 41.517564], [-8.260737, 41.508568], [-8.256691, 41.499534], [-8.25387, 41.496468], [-8.241952, 41.491078], [-8.218049, 41.486427], [-8.210028, 41.481209], [-8.202921, 41.472152], [-8.199577, 41.463122], [-8.199802, 41.454116], [-8.20485, 41.445143], [-8.215619, 41.43621], [-8.242764, 41.421302], [-8.254835, 41.41221], [-8.266985, 41.395718], [-8.270464, 41.382526], [-8.270293, 41.373517], [-8.267376, 41.360937], [-8.25981, 41.346083], [-8.249622, 41.353072], [-8.251123, 41.356897], [-8.248141, 41.360052], [-8.248448, 41.364328], [-8.245461, 41.364781], [-8.244272, 41.368384], [-8.241287, 41.370413], [-8.224854, 41.370878], [-8.21738, 41.368182], [-8.214696, 41.37277], [-8.219438, 41.370574], [-8.2329, 41.373274], [-8.236154, 41.382303], [-8.23118, 41.388878], [-8.219191, 41.391174], [-8.209216, 41.382121], [-8.213421, 41.374038], [-8.211712, 41.376065], [-8.200657, 41.377648], [-8.194976, 41.374275], [-8.191691, 41.376302], [-8.175853, 41.376309], [-8.173463, 41.377661], [-8.168382, 41.377438], [-8.164499, 41.38059], [-8.152544, 41.375866], [-8.151049, 41.37339], [-8.145073, 41.374742], [-8.139694, 41.377894], [-8.133418, 41.374292], [-8.125051, 41.375193], [-8.119672, 41.376768], [-8.119672, 41.378569], [-8.116683, 41.380144], [-8.117877, 41.385771], [-8.113992, 41.386896], [-8.112795, 41.390723], [-8.110105, 41.390947], [-8.108011, 41.393648], [-8.103827, 41.392972], [-8.105321, 41.394998], [-8.10263, 41.396123], [-8.10801, 41.398825], [-8.108606, 41.403102], [-8.104419, 41.406252], [-8.104119, 41.408728], [-8.101727, 41.409403], [-8.102025, 41.411204], [-8.092756, 41.411201], [-8.09126, 41.414352], [-8.079893, 41.41975], [-8.077503, 41.416597], [-8.070923, 41.41862], [-8.066739, 41.416142], [-8.061654, 41.417489], [-8.059852, 41.424916], [-8.055959, 41.429415], [-8.05745, 41.432793], [-8.056549, 41.436394], [-8.069999, 41.447206], [-8.068788, 41.462286], [-8.073872, 41.46499], [-8.074468, 41.468141], [-8.073564, 41.474668], [-8.066374, 41.482318], [-8.066069, 41.48817], [-8.072054, 41.490199], [-8.07175, 41.494925], [-8.078333, 41.49898], [-8.078332, 41.500331], [-8.093, 41.504613], [-8.090295, 41.520502], [-8.097852, 41.515962], [-8.109834, 41.516065], [-8.123029, 41.525615], [-8.121536, 41.536942], [-8.109417, 41.546503], [-8.097405, 41.54807], [-8.09036, 41.543552], [-8.090281, 41.543501], [-8.090026, 41.543327], [-8.089981, 41.54329], [-8.089756, 41.543102], [-8.083389, 41.5449], [-8.080687, 41.551651], [-8.074396, 41.549848], [-8.072897, 41.551197], [-8.076188, 41.557276], [-8.080681, 41.560077], [-8.09721, 41.562128], [-8.109143, 41.56647], [-8.12103, 41.574308], [-8.132949, 41.588741], [-8.134589, 41.59776], [-8.131196, 41.606742], [-8.120425, 41.618861], [-8.089941, 41.660465], [-8.092206, 41.66949], [-8.095686, 41.671284], [-8.099085, 41.678551], [-8.095509, 41.683932], [-8.078862, 41.687398], [-8.071335, 41.693876], [-8.070818, 41.705347], [-8.060685, 41.723279], [-8.054, 41.750245], [-8.046316, 41.76053], [-8.034156, 41.769238], [-8.009932, 41.779756], [-7.969435, 41.803559], [-7.949312, 41.807593], [-7.937302, 41.805879], [-7.923983, 41.794135], [-7.918641, 41.758058], [-7.920393, 41.749067], [-7.926423, 41.73638], [-7.938653, 41.723958], [-7.952275, 41.713335], [-7.95955, 41.704394], [-7.963891, 41.695426], [-7.964655, 41.686426], [-7.959774, 41.659361], [-7.961732, 41.641365], [-7.970075, 41.623425], [-7.986948, 41.603567], [-7.984685, 41.603564], [-7.982292, 41.60086], [-7.975689, 41.603552], [-7.974482, 41.606701], [-7.970882, 41.607147], [-7.969091, 41.603768], [-7.965796, 41.602413], [-7.9541, 41.602846], [-7.952606, 41.600592], [-7.947808, 41.60081], [-7.945413, 41.599456], [-7.942725, 41.595625], [-7.936132, 41.594488], [-7.93791, 41.601694], [-7.937004, 41.603718], [-7.931604, 41.604384], [-7.930979, 41.612711], [-7.925556, 41.620354], [-7.920755, 41.620796], [-7.917748, 41.623041], [-7.915933, 41.627764], [-7.913229, 41.628885], [-7.912613, 41.63361], [-7.906014, 41.633147], [-7.906884, 41.641927], [-7.897869, 41.645511], [-7.89696, 41.647985], [-7.892759, 41.647976], [-7.892145, 41.651576], [-7.902319, 41.659925], [-7.899913, 41.66127], [-7.900198, 41.665547], [-7.898396, 41.665769], [-7.896885, 41.668692], [-7.882465, 41.671588], [-7.877044, 41.676077], [-7.876422, 41.681399], [-7.883112, 41.685662], [-7.891026, 41.696981], [-7.903515, 41.703873], [-7.911965, 41.71296], [-7.908097, 41.72193], [-7.902591, 41.723593], [-7.890579, 41.72296], [-7.878697, 41.714876], [-7.857892, 41.721442], [-7.842526, 41.720937], [-7.830608, 41.715196], [-7.824417, 41.709486], [-7.818621, 41.713522], [-7.815291, 41.718689], [-7.808986, 41.717996], [-7.808396, 41.715744], [-7.804499, 41.714158], [-7.79939, 41.714593], [-7.79788, 41.716164], [-7.796383, 41.71526], [-7.790661, 41.718009], [-7.8304, 41.726685], [-7.842402, 41.727858], [-7.866457, 41.727374], [-7.878438, 41.729789], [-7.902319, 41.739563], [-7.908636, 41.748956], [-7.912386, 41.785019], [-7.915195, 41.794052], [-7.925215, 41.808785], [-7.937136, 41.81591], [-7.979141, 41.821659], [-8.000499, 41.830854], [-8.009715, 41.837898], [-8.013965, 41.828899], [-8.017873, 41.831379], [-8.02901, 41.829589], [-8.037134, 41.831171], [-8.041351, 41.828023], [-8.041054, 41.825097], [-8.045268, 41.824425], [-8.046775, 41.821951], [-8.056712, 41.81588], [-8.06664, 41.817012], [-8.072961, 41.813414], [-8.078678, 41.813417], [-8.082892, 41.810493], [-8.091013, 41.812521], [-8.093421, 41.811397], [-8.093723, 41.808471], [-8.101845, 41.809824], [-8.104853, 41.81185], [-8.115984, 41.812302], [-8.123807, 41.808702], [-8.138247, 41.808477], [-8.139751, 41.813203], [-8.14276, 41.812978], [-8.144866, 41.815228], [-8.149078, 41.814777], [-8.153291, 41.817703], [-8.158106, 41.818377], [-8.165326, 41.81815], [-8.173744, 41.808019], [-8.177655, 41.808242], [-8.183676, 41.812741], [-8.190291, 41.809587], [-8.197158, 41.814129], [-8.201063, 41.808724], [-8.204973, 41.807372], [-8.205872, 41.804445], [-8.213692, 41.803765], [-8.217598, 41.80016], [-8.217589, 41.793634], [-8.224207, 41.794303], [-8.229918, 41.792266], [-8.214573, 41.773423], [-8.208663, 41.769428], [-8.202627, 41.766412], [-8.178541, 41.768413], [-8.166534, 41.7665], [-8.154614, 41.758077], [-8.151201, 41.751004], [-8.152528, 41.742007], [-8.166991, 41.731144], [-8.179038, 41.729372], [-8.203035, 41.733436], [-8.208982, 41.724396], [-8.203193, 41.720648], [-8.191361, 41.705495], [-8.188383, 41.697231], [-8.189182, 41.68823], [-8.191637, 41.683466], [-8.203772, 41.673768], [-8.215819, 41.671031], [-8.251843, 41.672291], [-8.263894, 41.668927], [-8.275995, 41.661067], [-8.307358, 41.63496], [-8.322236, 41.626041], [-8.348527, 41.614878], [-8.40359, 41.599471], [-8.420028, 41.590547], [-8.424716, 41.581564], [-8.417412, 41.554505], [-8.41809, 41.545501], [-8.421895, 41.536513], [-8.433328, 41.525246], [-8.445355, 41.520443], [-8.457342, 41.520286], [-8.469293, 41.52438], [-8.505115, 41.542164], [-8.529052, 41.547956], [-8.543879, 41.555076], [-8.553469, 41.564121], [-8.558566, 41.573148], [-8.560444, 41.582163], [-8.559844, 41.591168], [-8.55124, 41.615267]], [[-8.142929, 41.732186], [-8.130852, 41.736099], [-8.118857, 41.733946], [-8.109374, 41.723667], [-8.110336, 41.714667], [-8.119183, 41.710086], [-8.131375, 41.69729], [-8.143501, 41.689163], [-8.155499, 41.690537], [-8.163207, 41.69705], [-8.167194, 41.706086], [-8.16608, 41.715085], [-8.157272, 41.724028], [-8.142929, 41.732186]], [[-8.119464, 41.689485], [-8.123494, 41.696754], [-8.119299, 41.701592], [-8.107308, 41.699575], [-8.101756, 41.696586], [-8.107427, 41.691001], [-8.119464, 41.689485]], [[-8.134176, 41.488017], [-8.132796, 41.48966], [-8.12213, 41.493011], [-8.110157, 41.492465], [-8.102156, 41.489425], [-8.095082, 41.480362], [-8.098506, 41.468759], [-8.11058, 41.461571], [-8.122562, 41.460983], [-8.134467, 41.466197], [-8.139394, 41.471695], [-8.14032, 41.480709], [-8.134176, 41.488017]], [[-8.565585, 41.463845], [-8.553574, 41.469039], [-8.541616, 41.466627], [-8.534981, 41.455959], [-8.539535, 41.44697], [-8.541766, 41.445314], [-8.553753, 41.442962], [-8.565013, 41.447069], [-8.569537, 41.456094], [-8.565585, 41.463845]], [[-8.661257, 41.366324], [-8.655511, 41.375315], [-8.649862, 41.379399], [-8.637882, 41.38303], [-8.625926, 41.382388], [-8.611718, 41.375176], [-8.605981, 41.366149], [-8.605986, 41.357141], [-8.614179, 41.346422], [-8.62616, 41.341581], [-8.638113, 41.341307], [-8.650044, 41.34534], [-8.65444, 41.348289], [-8.660913, 41.357316], [-8.661257, 41.366324]]], [[[-8.579807, 41.179612], [-8.579807, 41.179612], [-8.579722, 41.179528], [-8.579807, 41.179612]]], [[[-8.579582, 41.179388], [-8.579582, 41.179388], [-8.578973, 41.17894], [-8.579582, 41.179388]]], [[[-7.727882, 41.813077], [-7.74458, 41.811745], [-7.756682, 41.808502], [-7.7698, 41.801594], [-7.777582, 41.79267], [-7.780555, 41.783695], [-7.780844, 41.774692], [-7.779114, 41.765666], [-7.764784, 41.729486], [-7.766504, 41.723046], [-7.761765, 41.727758], [-7.762933, 41.733839], [-7.759307, 41.737203], [-7.759597, 41.739005], [-7.75689, 41.739446], [-7.758687, 41.740577], [-7.757758, 41.745301], [-7.748417, 41.749321], [-7.747488, 41.754052], [-7.757625, 41.759701], [-7.768318, 41.774558], [-7.769312, 41.783575], [-7.765953, 41.792546], [-7.756831, 41.800814], [-7.744707, 41.805242], [-7.727325, 41.8058], [-7.727882, 41.813077]]], [[[-8.551234, 41.615282], [-8.551234, 41.615282], [-8.551151, 41.615493], [-8.551234, 41.615282]]], [[[-8.213503, 41.37388], [-8.213503, 41.37388], [-8.213538, 41.373812], [-8.213503, 41.37388]]]]}}, {"id": "10", "type": "Feature", "properties": {"fill": "#2253c5", "value_min": 2.25, "value_max": -2.5}, "geometry": {"type": "MultiPolygon", "coordinates": [[[[-7.937468, 41.795812], [-7.949485, 41.796988], [-7.954683, 41.794419], [-7.956728, 41.78543], [-7.953373, 41.776393], [-7.96192, 41.772265], [-7.966107, 41.767501], [-7.968782, 41.758519], [-7.962814, 41.749458], [-7.950346, 41.744196], [-7.938289, 41.746055], [-7.928373, 41.758149], [-7.931043, 41.767181], [-7.937809, 41.775136], [-7.944533, 41.776312], [-7.937747, 41.778919], [-7.935152, 41.785232], [-7.93568, 41.794244], [-7.937468, 41.795812]]], [[[-7.727382, 41.796789], [-7.732799, 41.798659], [-7.744859, 41.79745], [-7.753762, 41.792414], [-7.758414, 41.783458], [-7.754963, 41.774414], [-7.745445, 41.767436], [-7.735993, 41.765988], [-7.726937, 41.771755], [-7.7254, 41.777152], [-7.727191, 41.779184], [-7.724177, 41.780299], [-7.725372, 41.781653], [-7.722296, 41.792446], [-7.727082, 41.796685], [-7.72724, 41.79674], [-7.727382, 41.796789]]], [[[-8.45476, 41.696134], [-8.45476, 41.696134], [-8.453856, 41.695527], [-8.45476, 41.696134]]], [[[-8.453793, 41.695485], [-8.44391, 41.688963], [-8.419982, 41.677331], [-8.41064, 41.662557], [-8.396206, 41.650316], [-8.384229, 41.647021], [-8.372211, 41.647964], [-8.360976, 41.653285], [-8.353756, 41.662251], [-8.352477, 41.671251], [-8.355591, 41.680276], [-8.368018, 41.698359], [-8.367945, 41.716373], [-8.369458, 41.725388], [-8.373548, 41.734621], [-8.384922, 41.73032], [-8.387032, 41.731891], [-8.393033, 41.729852], [-8.396942, 41.730518], [-8.400531, 41.726683], [-8.402934, 41.726452], [-8.404721, 41.722847], [-8.417349, 41.725067], [-8.419743, 41.722778], [-8.410321, 41.716598], [-8.419657, 41.713535], [-8.423858, 41.716667], [-8.420176, 41.722134], [-8.422737, 41.720552], [-8.429643, 41.719859], [-8.430533, 41.717381], [-8.435927, 41.714441], [-8.441632, 41.713975], [-8.441618, 41.711049], [-8.453868, 41.697961], [-8.453793, 41.695485]]], [[[-7.850148, 41.712358], [-7.85683, 41.712425], [-7.860326, 41.703453], [-7.854934, 41.699199], [-7.843568, 41.703285], [-7.850148, 41.712358]]], [[[-8.084263, 41.629659], [-8.096299, 41.627454], [-8.10575, 41.615554], [-8.103283, 41.606528], [-8.096668, 41.601025], [-8.084692, 41.59933], [-8.069806, 41.606262], [-8.066097, 41.615239], [-8.071036, 41.624286], [-8.084263, 41.629659]]]]}}, {"id": "0", "type": "Feature", "properties": {"fill": "#a3a3a3", "value_min": -0.25, "value_max": -0.0}, "geometry": {"type": "Polygon", "coordinates": [[[-7.75532, 41.864485], [-7.755994, 41.864492], [-7.755739, 41.857204], [-7.75532, 41.864485]]]}}]}