{"type": "FeatureCollection", "features": [{"id": "8", "type": "Feature", "properties": {"fill": "#a3a3a3", "value_min": 0.25, "value_max": -0.5}, "geometry": {"type": "Polygon", "coordinates": [[[-8.698426, 41.221588], [-8.710373, 41.217832], [-8.718866, 41.213348], [-8.727611, 41.204361], [-8.731077, 41.195361], [-8.730696, 41.186352], [-8.726259, 41.177334], [-8.715227, 41.168299], [-8.698695, 41.162929], [-8.686775, 41.16298], [-8.67484, 41.166068], [-8.662881, 41.173596], [-8.654731, 41.186149], [-8.653505, 41.195154], [-8.655825, 41.204169], [-8.662678, 41.213287], [-8.674575, 41.219704], [-8.686493, 41.222274], [-8.698426, 41.221588]], [[-8.686571, 41.205877], [-8.683071, 41.204247], [-8.679411, 41.195229], [-8.686651, 41.189121], [-8.698564, 41.191499], [-8.701609, 41.195288], [-8.698821, 41.204289], [-8.686571, 41.205877]]]}}, {"id": "9", "type": "Feature", "properties": {"fill": "#a3a3a3", "value_min": 0.5, "value_max": -0.75}, "geometry": {"type": "Polygon", "coordinates": [[[-8.686571, 41.205877], [-8.698821, 41.204289], [-8.701609, 41.195288], [-8.698564, 41.191499], [-8.686651, 41.189121], [-8.679411, 41.195229], [-8.683071, 41.204247], [-8.686571, 41.205877]]]}}, {"id": "1", "type": "Feature", "properties": {"fill": "#e19f31", "value_min": -1.5, "value_max": -1.25}, "geometry": {"type": "Polygon", "coordinates": [[[-8.745823, 41.305341], [-8.748743, 41.294487], [-8.745892, 41.28777], [-8.73399, 41.277638], [-8.722062, 41.274619], [-8.71012, 41.275185], [-8.698157, 41.280178], [-8.692292, 41.285342], [-8.688619, 41.29434], [-8.690783, 41.303354], [-8.698013, 41.311421], [-8.709936, 41.316714], [-8.721879, 41.317793], [-8.733838, 41.315087], [-8.738784, 41.31248], [-8.745823, 41.305341]], [[-8.710002, 41.301747], [-8.70687, 41.294388], [-8.710051, 41.29076], [-8.721995, 41.290442], [-8.725987, 41.294435], [-8.721943, 41.302633], [-8.710002, 41.301747]]]}}, {"id": "0", "type": "Feature", "properties": {"fill": "#e57b10", "value_min": -1.75, "value_max": -1.5}, "geometry": {"type": "Polygon", "coordinates": [[[-8.710002, 41.301747], [-8.721943, 41.302633], [-8.725987, 41.294435], [-8.721995, 41.290442], [-8.710051, 41.29076], [-8.70687, 41.294388], [-8.710002, 41.301747]]]}}, {"id": "7", "type": "Feature", "properties": {"fill": "#a3a3a3", "value_min": 0.0, "value_max": -0.25}, "geometry": {"type": "MultiPolygon", "coordinates": [[[[-8.434658, 41.715569], [-8.424935, 41.707665], [-8.419721, 41.706439], [-8.413426, 41.707607], [-8.407671, 41.709707], [-8.401732, 41.716554], [-8.403387, 41.724651], [-8.406223, 41.722843], [-8.417349, 41.725067], [-8.41974, 41.722135], [-8.429643, 41.719859], [-8.430533, 41.717381], [-8.434658, 41.715569]]], [[[-8.468356, 41.638776], [-8.47111, 41.63583], [-8.47333, 41.626833], [-8.469264, 41.617807], [-8.456596, 41.609314], [-8.444612, 41.607266], [-8.432588, 41.609895], [-8.423152, 41.617585], [-8.420865, 41.626581], [-8.425146, 41.635609], [-8.432309, 41.641713], [-8.444279, 41.646153], [-8.456291, 41.645643], [-8.468356, 41.638776]]], [[[-8.433762, 41.475444], [-8.421195, 41.473458], [-8.415019, 41.482434], [-8.42166, 41.489558], [-8.43366, 41.487229], [-8.437401, 41.482546], [-8.433762, 41.475444]]], [[[-8.656239, 41.36631], [-8.655539, 41.3573], [-8.65002, 41.349865], [-8.638098, 41.344037], [-8.62615, 41.343313], [-8.614174, 41.347203], [-8.605823, 41.35714], [-8.605842, 41.366148], [-8.612469, 41.375178], [-8.625935, 41.380826], [-8.637895, 41.380774], [-8.649881, 41.375836], [-8.656239, 41.36631]]], [[[-8.632876, 41.189073], [-8.636378, 41.204109], [-8.641247, 41.213132], [-8.64981, 41.222166], [-8.662597, 41.228953], [-8.674514, 41.231868], [-8.686443, 41.232657], [-8.701723, 41.23132], [-8.722269, 41.225801], [-8.73068, 41.222384], [-8.744808, 41.213408], [-8.753956, 41.20442], [-8.762698, 41.186422], [-8.762, 41.168405], [-8.758044, 41.159389], [-8.745678, 41.145259], [-8.674793, 41.146932], [-8.674849, 41.153767], [-8.672489, 41.15648], [-8.66117, 41.156307], [-8.662078, 41.158104], [-8.660313, 41.160813], [-8.657033, 41.160378], [-8.654961, 41.161963], [-8.653231, 41.169174], [-8.655366, 41.175467], [-8.647955, 41.180228], [-8.647696, 41.185181], [-8.640929, 41.196241], [-8.634946, 41.193341], [-8.632876, 41.189073]], [[-8.698426, 41.221588], [-8.686493, 41.222274], [-8.674575, 41.219704], [-8.662678, 41.213287], [-8.655825, 41.204169], [-8.653505, 41.195154], [-8.654731, 41.186149], [-8.662881, 41.173596], [-8.67484, 41.166068], [-8.686775, 41.16298], [-8.698695, 41.162929], [-8.715227, 41.168299], [-8.726259, 41.177334], [-8.730696, 41.186352], [-8.731077, 41.195361], [-8.727611, 41.204361], [-8.718866, 41.213348], [-8.710373, 41.217832], [-8.698426, 41.221588]]]]}}, {"id": "2", "type": "Feature", "properties": {"fill": "#b6a27f", "value_min": -1.25, "value_max": -1.0}, "geometry": {"type": "MultiPolygon", "coordinates": [[[[-7.914578, 41.712985], [-7.902934, 41.703435], [-7.890894, 41.704677], [-7.883127, 41.712683], [-7.881977, 41.721679], [-7.890467, 41.729502], [-7.902491, 41.729492], [-7.913219, 41.721979], [-7.914578, 41.712985]]], [[[-8.757719, 41.318756], [-8.76416, 41.312535], [-8.768521, 41.303536], [-8.769171, 41.29453], [-8.766386, 41.285516], [-8.757878, 41.275897], [-8.740924, 41.267446], [-8.722105, 41.264675], [-8.710163, 41.265533], [-8.69821, 41.268569], [-8.684205, 41.276313], [-8.677097, 41.285301], [-8.675117, 41.294303], [-8.677093, 41.303316], [-8.683249, 41.312341], [-8.697959, 41.323003], [-8.709888, 41.327429], [-8.72183, 41.329246], [-8.733782, 41.328759], [-8.745744, 41.325672], [-8.757719, 41.318756]], [[-8.745823, 41.305341], [-8.738784, 41.31248], [-8.733838, 41.315087], [-8.721879, 41.317793], [-8.709936, 41.316714], [-8.698013, 41.311421], [-8.690783, 41.303354], [-8.688619, 41.29434], [-8.692292, 41.285342], [-8.698157, 41.280178], [-8.71012, 41.275185], [-8.722062, 41.274619], [-8.73399, 41.277638], [-8.745892, 41.28777], [-8.748743, 41.294487], [-8.745823, 41.305341]]]]}}, {"id": "6", "type": "Feature", "properties": {"fill": "#a3a3a3", "value_min": -0.25, "value_max": -0.0}, "geometry": {"type": "MultiPolygon", "coordinates": [[[[-7.758718, 41.891076], [-7.767172, 41.889182], [-7.779367, 41.881766], [-7.785425, 41.873814], [-7.788086, 41.864835], [-7.786786, 41.855815], [-7.780059, 41.84537], [-7.768169, 41.837277], [-7.756209, 41.832969], [-7.741252, 41.832124], [-7.74729, 41.837772], [-7.746349, 41.84407], [-7.750246, 41.846784], [-7.750532, 41.849261], [-7.743309, 41.849012], [-7.746901, 41.8524], [-7.746881, 41.855776], [-7.73843, 41.859348], [-7.734159, 41.868337], [-7.730228, 41.871024], [-7.729293, 41.875972], [-7.720533, 41.880218], [-7.720523, 41.881793], [-7.725335, 41.882935], [-7.725619, 41.885516], [-7.731337, 41.888808], [-7.737044, 41.888828], [-7.737336, 41.890383], [-7.737419, 41.890405], [-7.737637, 41.890462], [-7.739157, 41.890861], [-7.739441, 41.890935], [-7.739742, 41.891014], [-7.74246, 41.889747], [-7.742785, 41.885922], [-7.756022, 41.888441], [-7.758718, 41.891076]]], [[[-8.608351, 41.609192], [-8.588762, 41.585925], [-8.562729, 41.546142], [-8.559289, 41.537122], [-8.559615, 41.519108], [-8.57057, 41.501135], [-8.589059, 41.483187], [-8.595948, 41.474204], [-8.61222, 41.43823], [-8.619314, 41.429247], [-8.635406, 41.420291], [-8.66166, 41.410493], [-8.675465, 41.402396], [-8.683596, 41.393411], [-8.687057, 41.384413], [-8.687362, 41.375406], [-8.680697, 41.357372], [-8.673645, 41.348345], [-8.662035, 41.338087], [-8.638203, 41.325209], [-8.614339, 41.319335], [-8.602395, 41.318573], [-8.578479, 41.321624], [-8.555263, 41.329933], [-8.538884, 41.338876], [-8.47557, 41.383643], [-8.44716, 41.401525], [-8.430155, 41.41045], [-8.365897, 41.437136], [-8.351913, 41.446066], [-8.346812, 41.455045], [-8.361875, 41.478173], [-8.363284, 41.491167], [-8.358574, 41.500148], [-8.349597, 41.508226], [-8.337566, 41.513012], [-8.325571, 41.514047], [-8.313618, 41.511129], [-8.301749, 41.500492], [-8.288714, 41.481722], [-8.278079, 41.474125], [-8.266148, 41.470064], [-8.254193, 41.46828], [-8.242217, 41.468367], [-8.230217, 41.470432], [-8.218188, 41.474835], [-8.20872, 41.4812], [-8.201408, 41.490157], [-8.198732, 41.499145], [-8.19905, 41.508155], [-8.202007, 41.517183], [-8.207942, 41.526231], [-8.217464, 41.534974], [-8.229371, 41.541794], [-8.241312, 41.545884], [-8.277198, 41.553366], [-8.289114, 41.560181], [-8.298322, 41.571855], [-8.314422, 41.598973], [-8.323371, 41.608034], [-8.339886, 41.617137], [-8.360445, 41.623445], [-8.384359, 41.633285], [-8.396299, 41.640361], [-8.408215, 41.650365], [-8.418009, 41.662595], [-8.419396, 41.671609], [-8.414036, 41.680589], [-8.395831, 41.690445], [-8.344445, 41.707234], [-8.335761, 41.716191], [-8.334733, 41.725192], [-8.343817, 41.762139], [-8.343863, 41.762288], [-8.343887, 41.762364], [-8.349267, 41.760103], [-8.352557, 41.755145], [-8.349814, 41.744122], [-8.352516, 41.743441], [-8.352203, 41.739616], [-8.357897, 41.735103], [-8.362407, 41.735994], [-8.368703, 41.73193], [-8.374122, 41.734845], [-8.384922, 41.73032], [-8.387032, 41.731891], [-8.393033, 41.729852], [-8.396942, 41.730518], [-8.403387, 41.724651], [-8.401732, 41.716554], [-8.407671, 41.709707], [-8.413426, 41.707607], [-8.419721, 41.706439], [-8.424935, 41.707665], [-8.434658, 41.715569], [-8.441632, 41.713975], [-8.4446, 41.70654], [-8.453868, 41.697961], [-8.453255, 41.695487], [-8.461659, 41.694563], [-8.482012, 41.682123], [-8.484371, 41.674238], [-8.49308, 41.674886], [-8.499963, 41.671038], [-8.50927, 41.671233], [-8.51018, 41.672806], [-8.511967, 41.670324], [-8.509856, 41.668755], [-8.522103, 41.658811], [-8.525706, 41.659023], [-8.527769, 41.652714], [-8.534066, 41.652017], [-8.537355, 41.64998], [-8.537634, 41.646602], [-8.543876, 41.637352], [-8.543855, 41.633976], [-8.536342, 41.631977], [-8.535128, 41.62973], [-8.543431, 41.61462], [-8.554533, 41.615255], [-8.557244, 41.617046], [-8.562639, 41.61635], [-8.568056, 41.619031], [-8.570735, 41.616095], [-8.577321, 41.614269], [-8.581231, 41.615829], [-8.586066, 41.620987], [-8.591462, 41.620515], [-8.596534, 41.616668], [-8.601628, 41.615972], [-8.603996, 41.611686], [-8.608351, 41.609192]], [[-8.468356, 41.638776], [-8.456291, 41.645643], [-8.444279, 41.646153], [-8.432309, 41.641713], [-8.425146, 41.635609], [-8.420865, 41.626581], [-8.423152, 41.617585], [-8.432588, 41.609895], [-8.444612, 41.607266], [-8.456596, 41.609314], [-8.469264, 41.617807], [-8.47333, 41.626833], [-8.47111, 41.63583], [-8.468356, 41.638776]], [[-8.433762, 41.475444], [-8.437401, 41.482546], [-8.43366, 41.487229], [-8.42166, 41.489558], [-8.415019, 41.482434], [-8.421195, 41.473458], [-8.433762, 41.475444]], [[-8.656239, 41.36631], [-8.649881, 41.375836], [-8.637895, 41.380774], [-8.625935, 41.380826], [-8.612469, 41.375178], [-8.605842, 41.366148], [-8.605823, 41.35714], [-8.614174, 41.347203], [-8.62615, 41.343313], [-8.638098, 41.344037], [-8.65002, 41.349865], [-8.655539, 41.3573], [-8.656239, 41.36631]]], [[[-7.728184, 41.812755], [-7.732511, 41.813302], [-7.744622, 41.809622], [-7.756815, 41.801631], [-7.762886, 41.792513], [-7.764444, 41.783523], [-7.761472, 41.774484], [-7.751401, 41.765368], [-7.741432, 41.761325], [-7.739912, 41.764148], [-7.726937, 41.771755], [-7.7254, 41.777152], [-7.727191, 41.779184], [-7.724177, 41.780299], [-7.725372, 41.781653], [-7.722296, 41.792446], [-7.728879, 41.797871], [-7.72705, 41.801691], [-7.728184, 41.812755]]], [[[-7.950203, 41.752965], [-7.938141, 41.755058], [-7.935383, 41.758214], [-7.938003, 41.763396], [-7.949986, 41.766292], [-7.956714, 41.75841], [-7.950203, 41.752965]]], [[[-8.022621, 41.73651], [-8.025823, 41.731996], [-8.022742, 41.728569], [-8.010773, 41.725007], [-8.0011, 41.731783], [-8.006359, 41.740836], [-8.0105, 41.74276], [-8.018327, 41.740939], [-8.022621, 41.73651]]], [[[-8.251263, 41.722309], [-8.271713, 41.706796], [-8.278006, 41.697829], [-8.280247, 41.688836], [-8.278466, 41.679818], [-8.273679, 41.67078], [-8.263811, 41.661711], [-8.252029, 41.656191], [-8.240044, 41.654036], [-8.216008, 41.655415], [-8.191877, 41.664303], [-8.172016, 41.6791], [-8.166899, 41.68807], [-8.165345, 41.697066], [-8.169219, 41.706101], [-8.180149, 41.715187], [-8.191164, 41.721235], [-8.215095, 41.730533], [-8.227109, 41.731429], [-8.239163, 41.728831], [-8.251263, 41.722309]]], [[[-8.070922, 41.722603], [-8.079496, 41.714424], [-8.079612, 41.705418], [-8.070872, 41.696341], [-8.059376, 41.689935], [-8.047362, 41.68977], [-8.034059, 41.696037], [-8.027854, 41.704992], [-8.028333, 41.714003], [-8.034865, 41.721918], [-8.046811, 41.727076], [-8.058831, 41.727271], [-8.070922, 41.722603]]], [[[-7.858053, 41.70343], [-7.854922, 41.699857], [-7.842458, 41.703274], [-7.848744, 41.712344], [-7.854684, 41.71328], [-7.858053, 41.70343]]], [[[-8.131347, 41.69942], [-8.135069, 41.696842], [-8.131426, 41.693489], [-8.11948, 41.688318], [-8.104071, 41.696605], [-8.102898, 41.705602], [-8.107167, 41.709748], [-8.11916, 41.711742], [-8.131347, 41.69942]]], [[[-8.107745, 41.615569], [-8.107575, 41.606561], [-8.09674, 41.595861], [-8.084768, 41.593951], [-8.074004, 41.597288], [-8.064188, 41.606216], [-8.062857, 41.615212], [-8.067729, 41.624259], [-8.072286, 41.6277], [-8.084235, 41.631598], [-8.096275, 41.629177], [-8.107745, 41.615569]]], [[[-8.134063, 41.496531], [-8.147699, 41.489771], [-8.154104, 41.480811], [-8.153949, 41.471803], [-8.147989, 41.462751], [-8.134625, 41.454279], [-8.122693, 41.451246], [-8.110718, 41.451473], [-8.098695, 41.455158], [-8.089166, 41.4623], [-8.084029, 41.471267], [-8.084285, 41.480276], [-8.090354, 41.489332], [-8.110085, 41.497783], [-8.122052, 41.498766], [-8.134063, 41.496531]]], [[[-8.595225, 41.16537], [-8.626803, 41.228827], [-8.638683, 41.238173], [-8.650597, 41.241829], [-8.662524, 41.243131], [-8.686396, 41.242396], [-8.710279, 41.239147], [-8.734168, 41.233854], [-8.76895, 41.222467], [-8.802108, 41.205526], [-8.799695, 41.14406], [-8.745678, 41.145259], [-8.758044, 41.159389], [-8.762, 41.168405], [-8.762698, 41.186422], [-8.753956, 41.20442], [-8.744808, 41.213408], [-8.73068, 41.222384], [-8.722269, 41.225801], [-8.701723, 41.23132], [-8.686443, 41.232657], [-8.674514, 41.231868], [-8.662597, 41.228953], [-8.64981, 41.222166], [-8.641247, 41.213132], [-8.636378, 41.204109], [-8.632876, 41.189073], [-8.625658, 41.186628], [-8.621132, 41.178994], [-8.613374, 41.177451], [-8.608583, 41.174095], [-8.609164, 41.172066], [-8.604942, 41.164881], [-8.595225, 41.16537]]]]}}, {"id": "5", "type": "Feature", "properties": {"fill": "#a3a3a3", "value_min": -0.5, "value_max": -0.25}, "geometry": {"type": "MultiPolygon", "coordinates": [[[[-8.608351, 41.609192], [-8.614156, 41.606692], [-8.619881, 41.610269], [-8.621338, 41.604636], [-8.628833, 41.604378], [-8.6366, 41.600518], [-8.639873, 41.597352], [-8.640152, 41.59465], [-8.645536, 41.593051], [-8.646744, 41.594171], [-8.649125, 41.591909], [-8.656622, 41.5921], [-8.660788, 41.588255], [-8.663794, 41.589141], [-8.665265, 41.585758], [-8.66948, 41.587989], [-8.684455, 41.586117], [-8.685608, 41.58071], [-8.697261, 41.576376], [-8.701703, 41.570277], [-8.707704, 41.570923], [-8.712485, 41.569323], [-8.716422, 41.573805], [-8.720316, 41.57356], [-8.725151, 41.577811], [-8.726633, 41.576003], [-8.734424, 41.575737], [-8.736564, 41.580228], [-8.738354, 41.579318], [-8.740778, 41.582006], [-8.74467, 41.581535], [-8.750711, 41.58623], [-8.75993, 41.578527], [-8.767441, 41.580286], [-8.769874, 41.583874], [-8.768997, 41.58613], [-8.773228, 41.589482], [-8.774165, 41.593303], [-8.78556, 41.593464], [-8.797327, 41.600599], [-8.804218, 41.600109], [-8.80456, 41.604158], [-8.809434, 41.611332], [-8.828644, 41.609656], [-8.82839, 41.585633], [-8.818497, 41.554794], [-8.8221, 41.547542], [-8.821965, 41.534907], [-8.815926, 41.525624], [-8.81063, 41.5101], [-8.813279, 41.503483], [-8.812636, 41.496944], [-8.804699, 41.482068], [-8.798552, 41.474753], [-8.80154, 41.446836], [-8.806115, 41.43713], [-8.807354, 41.425915], [-8.811166, 41.417099], [-8.808445, 41.366469], [-8.7934, 41.370651], [-8.769476, 41.372934], [-8.74557, 41.370493], [-8.721688, 41.362713], [-8.685926, 41.340542], [-8.649437, 41.312243], [-8.640694, 41.303208], [-8.635353, 41.294184], [-8.633549, 41.28517], [-8.636401, 41.276172], [-8.644615, 41.267189], [-8.663485, 41.258238], [-8.686349, 41.252281], [-8.722182, 41.246346], [-8.757998, 41.24344], [-8.781865, 41.244007], [-8.803753, 41.247387], [-8.802108, 41.205526], [-8.76895, 41.222467], [-8.734168, 41.233854], [-8.710279, 41.239147], [-8.686396, 41.242396], [-8.662524, 41.243131], [-8.650597, 41.241829], [-8.638683, 41.238173], [-8.626803, 41.228827], [-8.595225, 41.16537], [-8.589174, 41.167645], [-8.589194, 41.170572], [-8.583263, 41.174422], [-8.582094, 41.177803], [-8.578825, 41.178941], [-8.581296, 41.191762], [-8.575958, 41.195609], [-8.577183, 41.200557], [-8.57405, 41.204621], [-8.582283, 41.212933], [-8.584742, 41.22195], [-8.582761, 41.230951], [-8.579029, 41.236182], [-8.573587, 41.239925], [-8.56705, 41.243094], [-8.555107, 41.244409], [-8.538633, 41.23979], [-8.528355, 41.230741], [-8.525349, 41.22172], [-8.527184, 41.21272], [-8.530145, 41.208994], [-8.52713, 41.203215], [-8.523236, 41.200077], [-8.51163, 41.203042], [-8.510456, 41.206197], [-8.505693, 41.207113], [-8.504239, 41.213646], [-8.500076, 41.21546], [-8.50308, 41.219502], [-8.502204, 41.222656], [-8.495642, 41.222227], [-8.495947, 41.223351], [-8.490894, 41.226294], [-8.487935, 41.230354], [-8.490331, 41.232373], [-8.489156, 41.235528], [-8.486181, 41.236888], [-8.484411, 41.240495], [-8.476346, 41.237818], [-8.475756, 41.23917], [-8.470986, 41.23941], [-8.471604, 41.243459], [-8.469227, 41.245267], [-8.463258, 41.244384], [-8.459989, 41.246644], [-8.454323, 41.246886], [-8.455541, 41.251834], [-8.452276, 41.25522], [-8.449891, 41.255452], [-8.449304, 41.257479], [-8.447812, 41.257258], [-8.449028, 41.261982], [-8.439785, 41.262907], [-8.438023, 41.268989], [-8.434745, 41.269673], [-8.432691, 41.277107], [-8.427032, 41.279372], [-8.429143, 41.284319], [-8.426171, 41.287028], [-8.426488, 41.291079], [-8.425013, 41.294909], [-8.422037, 41.296942], [-8.422647, 41.299867], [-8.407744, 41.304856], [-8.406262, 41.307335], [-8.403277, 41.307342], [-8.401801, 41.311398], [-8.399712, 41.311628], [-8.400316, 41.313202], [-8.396738, 41.314336], [-8.398835, 41.316131], [-8.393775, 41.31997], [-8.393489, 41.323122], [-8.391105, 41.324253], [-8.386325, 41.323588], [-8.380382, 41.331254], [-8.375305, 41.33104], [-8.37201, 41.328346], [-8.361563, 41.329718], [-8.358276, 41.329049], [-8.357673, 41.327249], [-8.350207, 41.327264], [-8.346032, 41.328847], [-8.342462, 41.333131], [-8.333215, 41.336299], [-8.326363, 41.342163], [-8.324568, 41.341041], [-8.323376, 41.341943], [-8.320676, 41.338121], [-8.312604, 41.334983], [-8.313794, 41.333405], [-8.31139, 41.328007], [-8.307502, 41.325762], [-8.305116, 41.326891], [-8.303024, 41.325994], [-8.303615, 41.323742], [-8.301216, 41.319694], [-8.296431, 41.316774], [-8.297618, 41.313846], [-8.295817, 41.310022], [-8.281801, 41.316569], [-8.279132, 41.324451], [-8.272266, 41.32536], [-8.265709, 41.331221], [-8.269004, 41.336169], [-8.263339, 41.340902], [-8.262751, 41.345405], [-8.256483, 41.347663], [-8.255889, 41.349689], [-8.249622, 41.353072], [-8.251123, 41.356897], [-8.248141, 41.360052], [-8.248448, 41.364328], [-8.245461, 41.364781], [-8.244272, 41.368384], [-8.241287, 41.370413], [-8.224854, 41.370878], [-8.21738, 41.368182], [-8.214399, 41.373587], [-8.208127, 41.376968], [-8.199163, 41.377423], [-8.194677, 41.374275], [-8.191691, 41.376302], [-8.189299, 41.375403], [-8.184818, 41.376756], [-8.168382, 41.377438], [-8.164499, 41.38059], [-8.152544, 41.375866], [-8.151049, 41.37339], [-8.145073, 41.374742], [-8.139694, 41.377894], [-8.133418, 41.374292], [-8.125051, 41.375193], [-8.119672, 41.376768], [-8.119672, 41.378569], [-8.116683, 41.380144], [-8.117877, 41.385771], [-8.113992, 41.386896], [-8.112795, 41.390723], [-8.110105, 41.390947], [-8.108011, 41.393648], [-8.103827, 41.392972], [-8.105321, 41.394998], [-8.10263, 41.396123], [-8.10801, 41.398825], [-8.108606, 41.403102], [-8.104419, 41.406252], [-8.104119, 41.408728], [-8.101727, 41.409403], [-8.102025, 41.411204], [-8.092756, 41.411201], [-8.09126, 41.414352], [-8.079893, 41.41975], [-8.077503, 41.416597], [-8.070923, 41.41862], [-8.066739, 41.416142], [-8.061953, 41.417264], [-8.059852, 41.424916], [-8.055959, 41.429415], [-8.05745, 41.432793], [-8.056549, 41.436394], [-8.069999, 41.447206], [-8.068788, 41.462286], [-8.073872, 41.46499], [-8.074468, 41.468141], [-8.073564, 41.474668], [-8.066374, 41.482318], [-8.066069, 41.48817], [-8.072054, 41.490199], [-8.07175, 41.494925], [-8.078333, 41.49898], [-8.078332, 41.500331], [-8.093, 41.504613], [-8.089398, 41.519242], [-8.090594, 41.522169], [-8.093588, 41.52307], [-8.091487, 41.531173], [-8.097775, 41.536127], [-8.097774, 41.537927], [-8.106759, 41.543557], [-8.101666, 41.542655], [-8.094175, 41.544904], [-8.087885, 41.542876], [-8.083389, 41.5449], [-8.080687, 41.551651], [-8.074097, 41.549848], [-8.073494, 41.553449], [-8.075891, 41.554575], [-8.076188, 41.557276], [-8.079783, 41.558403], [-8.081576, 41.565157], [-8.078879, 41.56493], [-8.075279, 41.568305], [-8.073182, 41.568079], [-8.069283, 41.570553], [-8.068081, 41.573478], [-8.056684, 41.579549], [-8.052181, 41.584498], [-8.052777, 41.587649], [-8.037169, 41.600242], [-8.031467, 41.602938], [-8.02367, 41.603156], [-8.019174, 41.601802], [-8.015872, 41.603824], [-8.013474, 41.603372], [-8.005971, 41.60629], [-8.003562, 41.611239], [-7.99936, 41.61281], [-7.998462, 41.612359], [-7.999669, 41.608759], [-7.996976, 41.605829], [-7.996684, 41.602003], [-7.984685, 41.603564], [-7.982292, 41.60086], [-7.975689, 41.603552], [-7.974482, 41.606701], [-7.970882, 41.607147], [-7.969091, 41.603768], [-7.965796, 41.602413], [-7.9541, 41.602846], [-7.952606, 41.600592], [-7.947808, 41.60081], [-7.945413, 41.599456], [-7.942725, 41.595625], [-7.936132, 41.594488], [-7.93791, 41.601694], [-7.937004, 41.603718], [-7.931604, 41.604384], [-7.930979, 41.612711], [-7.925556, 41.620354], [-7.920755, 41.620796], [-7.917748, 41.623041], [-7.915933, 41.627764], [-7.913229, 41.628885], [-7.912613, 41.63361], [-7.906014, 41.633147], [-7.906884, 41.641927], [-7.897869, 41.645511], [-7.89696, 41.647985], [-7.892759, 41.647976], [-7.892145, 41.651576], [-7.896936, 41.65466], [-7.903759, 41.654868], [-7.915718, 41.657874], [-7.927642, 41.663046], [-7.939507, 41.671969], [-7.950045, 41.686293], [-7.954743, 41.70435], [-7.953708, 41.713348], [-7.949924, 41.72232], [-7.942296, 41.731257], [-7.917987, 41.749045], [-7.912111, 41.757996], [-7.910599, 41.766988], [-7.913687, 41.778564], [-7.925448, 41.794827], [-7.937346, 41.803202], [-7.961364, 41.806736], [-7.973351, 41.809951], [-7.9853, 41.815587], [-7.99379, 41.821788], [-8.001689, 41.830864], [-8.006635, 41.843746], [-8.007928, 41.838796], [-8.012753, 41.833624], [-8.013363, 41.829124], [-8.017873, 41.831379], [-8.02901, 41.829589], [-8.037134, 41.831171], [-8.041351, 41.828023], [-8.041054, 41.825097], [-8.045268, 41.824425], [-8.046775, 41.821951], [-8.056712, 41.81588], [-8.06664, 41.817012], [-8.072961, 41.813414], [-8.078678, 41.813417], [-8.082892, 41.810493], [-8.091013, 41.812521], [-8.093421, 41.811397], [-8.093723, 41.808471], [-8.101845, 41.809824], [-8.104853, 41.81185], [-8.115984, 41.812302], [-8.123807, 41.808702], [-8.138247, 41.808477], [-8.139751, 41.813203], [-8.14276, 41.812978], [-8.144866, 41.815228], [-8.149078, 41.814777], [-8.153291, 41.817703], [-8.158106, 41.818377], [-8.165326, 41.81815], [-8.173744, 41.808019], [-8.177655, 41.808242], [-8.183676, 41.812741], [-8.190291, 41.809587], [-8.197158, 41.814129], [-8.201063, 41.808724], [-8.204973, 41.807372], [-8.205872, 41.804445], [-8.213692, 41.803765], [-8.217598, 41.80016], [-8.217589, 41.793634], [-8.224207, 41.794303], [-8.229917, 41.791598], [-8.240744, 41.791588], [-8.24074, 41.789338], [-8.244347, 41.787984], [-8.245546, 41.785731], [-8.251257, 41.784375], [-8.251845, 41.777172], [-8.257551, 41.773564], [-8.261762, 41.774235], [-8.271366, 41.766346], [-8.280681, 41.764083], [-8.284038, 41.761109], [-8.284931, 41.757507], [-8.287033, 41.756829], [-8.298457, 41.757263], [-8.300866, 41.758835], [-8.305674, 41.758152], [-8.311096, 41.762195], [-8.318308, 41.761283], [-8.325233, 41.765098], [-8.328234, 41.763292], [-8.336653, 41.763728], [-8.338452, 41.762149], [-8.343817, 41.762139], [-8.334733, 41.725192], [-8.335761, 41.716191], [-8.344445, 41.707234], [-8.395831, 41.690445], [-8.414036, 41.680589], [-8.419396, 41.671609], [-8.418009, 41.662595], [-8.408215, 41.650365], [-8.396299, 41.640361], [-8.384359, 41.633285], [-8.360445, 41.623445], [-8.339886, 41.617137], [-8.323371, 41.608034], [-8.314422, 41.598973], [-8.298322, 41.571855], [-8.289114, 41.560181], [-8.277198, 41.553366], [-8.241312, 41.545884], [-8.229371, 41.541794], [-8.217464, 41.534974], [-8.207942, 41.526231], [-8.202007, 41.517183], [-8.19905, 41.508155], [-8.198732, 41.499145], [-8.201408, 41.490157], [-8.20872, 41.4812], [-8.218188, 41.474835], [-8.230217, 41.470432], [-8.242217, 41.468367], [-8.254193, 41.46828], [-8.266148, 41.470064], [-8.278079, 41.474125], [-8.288714, 41.481722], [-8.301749, 41.500492], [-8.313618, 41.511129], [-8.325571, 41.514047], [-8.337566, 41.513012], [-8.349597, 41.508226], [-8.358574, 41.500148], [-8.363284, 41.491167], [-8.361875, 41.478173], [-8.346812, 41.455045], [-8.351913, 41.446066], [-8.365897, 41.437136], [-8.430155, 41.41045], [-8.44716, 41.401525], [-8.47557, 41.383643], [-8.538884, 41.338876], [-8.555263, 41.329933], [-8.578479, 41.321624], [-8.602395, 41.318573], [-8.614339, 41.319335], [-8.638203, 41.325209], [-8.662035, 41.338087], [-8.673645, 41.348345], [-8.680697, 41.357372], [-8.687362, 41.375406], [-8.687057, 41.384413], [-8.683596, 41.393411], [-8.675465, 41.402396], [-8.66166, 41.410493], [-8.635406, 41.420291], [-8.619314, 41.429247], [-8.61222, 41.43823], [-8.595948, 41.474204], [-8.589059, 41.483187], [-8.57057, 41.501135], [-8.559615, 41.519108], [-8.559289, 41.537122], [-8.562729, 41.546142], [-8.588762, 41.585925], [-8.608351, 41.609192]], [[-7.950203, 41.752965], [-7.956714, 41.75841], [-7.949986, 41.766292], [-7.938003, 41.763396], [-7.935383, 41.758214], [-7.938141, 41.755058], [-7.950203, 41.752965]], [[-8.022621, 41.73651], [-8.018327, 41.740939], [-8.0105, 41.74276], [-8.006359, 41.740836], [-8.0011, 41.731783], [-8.010773, 41.725007], [-8.022742, 41.728569], [-8.025823, 41.731996], [-8.022621, 41.73651]], [[-8.251263, 41.722309], [-8.239163, 41.728831], [-8.227109, 41.731429], [-8.215095, 41.730533], [-8.191164, 41.721235], [-8.180149, 41.715187], [-8.169219, 41.706101], [-8.165345, 41.697066], [-8.166899, 41.68807], [-8.172016, 41.6791], [-8.191877, 41.664303], [-8.216008, 41.655415], [-8.240044, 41.654036], [-8.252029, 41.656191], [-8.263811, 41.661711], [-8.273679, 41.67078], [-8.278466, 41.679818], [-8.280247, 41.688836], [-8.278006, 41.697829], [-8.271713, 41.706796], [-8.251263, 41.722309]], [[-8.070922, 41.722603], [-8.058831, 41.727271], [-8.046811, 41.727076], [-8.034865, 41.721918], [-8.028333, 41.714003], [-8.027854, 41.704992], [-8.034059, 41.696037], [-8.047362, 41.68977], [-8.059376, 41.689935], [-8.070872, 41.696341], [-8.079612, 41.705418], [-8.079496, 41.714424], [-8.070922, 41.722603]], [[-8.131347, 41.69942], [-8.11916, 41.711742], [-8.107167, 41.709748], [-8.102898, 41.705602], [-8.104071, 41.696605], [-8.11948, 41.688318], [-8.131426, 41.693489], [-8.135069, 41.696842], [-8.131347, 41.69942]], [[-8.13211, 41.642598], [-8.126051, 41.633724], [-8.132303, 41.62822], [-8.145199, 41.633868], [-8.13211, 41.642598]], [[-8.107745, 41.615569], [-8.096275, 41.629177], [-8.084235, 41.631598], [-8.072286, 41.6277], [-8.067729, 41.624259], [-8.062857, 41.615212], [-8.064188, 41.606216], [-8.074004, 41.597288], [-8.084768, 41.593951], [-8.09674, 41.595861], [-8.107575, 41.606561], [-8.107745, 41.615569]], [[-8.134063, 41.496531], [-8.122052, 41.498766], [-8.110085, 41.497783], [-8.090354, 41.489332], [-8.084285, 41.480276], [-8.084029, 41.471267], [-8.089166, 41.4623], [-8.098695, 41.455158], [-8.110718, 41.451473], [-8.122693, 41.451246], [-8.134625, 41.454279], [-8.147989, 41.462751], [-8.153949, 41.471803], [-8.154104, 41.480811], [-8.147699, 41.489771], [-8.134063, 41.496531]], [[-8.673217, 41.491832], [-8.661242, 41.490815], [-8.651597, 41.483394], [-8.650462, 41.474383], [-8.661378, 41.464756], [-8.673356, 41.464102], [-8.677272, 41.465454], [-8.687588, 41.47449], [-8.686691, 41.483495], [-8.673217, 41.491832]]], [[[-7.84332, 41.865511], [-7.828172, 41.849103], [-7.809926, 41.82003], [-7.806093, 41.801977], [-7.801109, 41.747884], [-7.806151, 41.737597], [-7.81828, 41.731949], [-7.854448, 41.726542], [-7.866651, 41.716302], [-7.871398, 41.703562], [-7.870121, 41.685965], [-7.868896, 41.686413], [-7.867408, 41.683258], [-7.864403, 41.683701], [-7.864096, 41.685276], [-7.860493, 41.685268], [-7.857773, 41.689538], [-7.854776, 41.68818], [-7.847538, 41.695365], [-7.837309, 41.699391], [-7.835792, 41.702763], [-7.839682, 41.705924], [-7.838465, 41.709522], [-7.832453, 41.710407], [-7.825252, 41.708813], [-7.818621, 41.713522], [-7.815291, 41.718689], [-7.808986, 41.717996], [-7.808396, 41.715744], [-7.803298, 41.714154], [-7.790966, 41.717044], [-7.789449, 41.719966], [-7.78464, 41.720402], [-7.78252, 41.723546], [-7.776204, 41.724652], [-7.773786, 41.727346], [-7.770798, 41.72441], [-7.765698, 41.723044], [-7.761765, 41.727758], [-7.762933, 41.733839], [-7.759307, 41.737203], [-7.759597, 41.739005], [-7.75689, 41.739446], [-7.758687, 41.740577], [-7.757758, 41.745301], [-7.748417, 41.749321], [-7.747786, 41.754496], [-7.743866, 41.756509], [-7.743242, 41.760333], [-7.741432, 41.761325], [-7.751401, 41.765368], [-7.761472, 41.774484], [-7.764444, 41.783523], [-7.762886, 41.792513], [-7.756815, 41.801631], [-7.744622, 41.809622], [-7.732511, 41.813302], [-7.728184, 41.812755], [-7.732041, 41.821514], [-7.743152, 41.825154], [-7.742839, 41.827178], [-7.738919, 41.828515], [-7.741252, 41.832124], [-7.756209, 41.832969], [-7.768169, 41.837277], [-7.780059, 41.84537], [-7.786786, 41.855815], [-7.788086, 41.864835], [-7.785425, 41.873814], [-7.779367, 41.881766], [-7.767172, 41.889182], [-7.758718, 41.891076], [-7.756592, 41.89407], [-7.758076, 41.897901], [-7.764097, 41.898595], [-7.779227, 41.886264], [-7.785257, 41.885157], [-7.788886, 41.882467], [-7.794007, 41.882257], [-7.796739, 41.878214], [-7.794349, 41.87438], [-7.797064, 41.873488], [-7.803381, 41.874857], [-7.804914, 41.869459], [-7.813032, 41.871958], [-7.814229, 41.873537], [-7.823863, 41.874013], [-7.825059, 41.875817], [-7.830479, 41.875831], [-7.830789, 41.874031], [-7.832894, 41.874712], [-7.83772, 41.872924], [-7.842528, 41.875187], [-7.841663, 41.866632], [-7.84332, 41.865511]], [[-7.858053, 41.70343], [-7.854684, 41.71328], [-7.848744, 41.712344], [-7.842458, 41.703274], [-7.854922, 41.699857], [-7.858053, 41.70343]]], [[[-7.739742, 41.891014], [-7.739742, 41.891014], [-7.739441, 41.890935], [-7.739742, 41.891014]]], [[[-7.739157, 41.890861], [-7.739157, 41.890861], [-7.737637, 41.890462], [-7.739157, 41.890861]]], [[[-7.737419, 41.890405], [-7.737419, 41.890405], [-7.737336, 41.890383], [-7.737419, 41.890405]]], [[[-7.731337, 41.888808], [-7.725619, 41.885516], [-7.726208, 41.887665], [-7.731337, 41.888808]]], [[[-8.343887, 41.762364], [-8.343887, 41.762364], [-8.343863, 41.762288], [-8.343887, 41.762364]]], [[[-8.573761, 41.204397], [-8.573761, 41.204397], [-8.573932, 41.204529], [-8.573761, 41.204397]]]]}}, {"id": "3", "type": "Feature", "properties": {"fill": "#a3a3a3", "value_min": -1.0, "value_max": -0.75}, "geometry": {"type": "MultiPolygon", "coordinates": [[[[-7.876696, 41.829679], [-7.888855, 41.822957], [-7.893052, 41.811855], [-7.888492, 41.802804], [-7.877288, 41.795813], [-7.865265, 41.795056], [-7.851228, 41.802437], [-7.847331, 41.811405], [-7.850107, 41.82044], [-7.864654, 41.829638], [-7.876696, 41.829679]]], [[[-7.866019, 41.752284], [-7.854318, 41.757434], [-7.865769, 41.766475], [-7.872418, 41.757613], [-7.866019, 41.752284]]], [[[-7.914426, 41.734758], [-7.92657, 41.722104], [-7.928945, 41.71312], [-7.926085, 41.704086], [-7.915109, 41.694121], [-7.90315, 41.690737], [-7.891088, 41.693369], [-7.878857, 41.705676], [-7.875381, 41.712608], [-7.872415, 41.721586], [-7.872815, 41.730597], [-7.87829, 41.738311], [-7.890247, 41.742262], [-7.902313, 41.73994], [-7.914426, 41.734758]], [[-7.914578, 41.712985], [-7.913219, 41.721979], [-7.902491, 41.729492], [-7.890467, 41.729502], [-7.881977, 41.721679], [-7.883127, 41.712683], [-7.890894, 41.704677], [-7.902934, 41.703435], [-7.914578, 41.712985]]], [[[-8.769604, 41.336886], [-8.780509, 41.330583], [-8.790238, 41.321593], [-8.795748, 41.312596], [-8.798465, 41.303593], [-8.798427, 41.294585], [-8.795542, 41.285572], [-8.789703, 41.276554], [-8.778947, 41.267526], [-8.757061, 41.258474], [-8.746013, 41.25636], [-8.722143, 41.255501], [-8.701423, 41.258343], [-8.686299, 41.262794], [-8.676559, 41.267284], [-8.665445, 41.27626], [-8.660529, 41.285253], [-8.659633, 41.294258], [-8.662581, 41.303275], [-8.668369, 41.312299], [-8.677955, 41.321334], [-8.697907, 41.334279], [-8.721775, 41.342293], [-8.733722, 41.343687], [-8.745676, 41.343329], [-8.757636, 41.341126], [-8.769604, 41.336886]], [[-8.757719, 41.318756], [-8.745744, 41.325672], [-8.733782, 41.328759], [-8.72183, 41.329246], [-8.709888, 41.327429], [-8.697959, 41.323003], [-8.683249, 41.312341], [-8.677093, 41.303316], [-8.675117, 41.294303], [-8.677097, 41.285301], [-8.684205, 41.276313], [-8.69821, 41.268569], [-8.710163, 41.265533], [-8.722105, 41.264675], [-8.740924, 41.267446], [-8.757878, 41.275897], [-8.766386, 41.285516], [-8.769171, 41.29453], [-8.768521, 41.303536], [-8.76416, 41.312535], [-8.757719, 41.318756]]]]}}, {"id": "4", "type": "Feature", "properties": {"fill": "#a3a3a3", "value_min": -0.75, "value_max": -0.5}, "geometry": {"type": "MultiPolygon", "coordinates": [[[[-8.006635, 41.843746], [-8.001689, 41.830864], [-7.99379, 41.821788], [-7.9853, 41.815587], [-7.973351, 41.809951], [-7.961364, 41.806736], [-7.937346, 41.803202], [-7.925448, 41.794827], [-7.913687, 41.778564], [-7.910599, 41.766988], [-7.912111, 41.757996], [-7.917987, 41.749045], [-7.942296, 41.731257], [-7.949924, 41.72232], [-7.953708, 41.713348], [-7.954743, 41.70435], [-7.950045, 41.686293], [-7.939507, 41.671969], [-7.927642, 41.663046], [-7.915718, 41.657874], [-7.903759, 41.654868], [-7.896936, 41.65466], [-7.902319, 41.659925], [-7.899913, 41.66127], [-7.900198, 41.665547], [-7.898396, 41.665769], [-7.896885, 41.668692], [-7.882465, 41.671588], [-7.877044, 41.676077], [-7.876723, 41.681253], [-7.873702, 41.685973], [-7.870121, 41.685965], [-7.871398, 41.703562], [-7.866651, 41.716302], [-7.854448, 41.726542], [-7.81828, 41.731949], [-7.806151, 41.737597], [-7.801109, 41.747884], [-7.806093, 41.801977], [-7.809926, 41.82003], [-7.828172, 41.849103], [-7.84332, 41.865511], [-7.849515, 41.861475], [-7.858542, 41.862622], [-7.859456, 41.860148], [-7.864877, 41.859711], [-7.87033, 41.851395], [-7.873043, 41.850501], [-7.873367, 41.844875], [-7.879056, 41.85254], [-7.886268, 41.855932], [-7.888076, 41.855486], [-7.891675, 41.859094], [-7.900698, 41.861588], [-7.904318, 41.859795], [-7.907309, 41.865203], [-7.906095, 41.868126], [-7.910299, 41.871285], [-7.909985, 41.875111], [-7.915391, 41.879397], [-7.921118, 41.877833], [-7.928044, 41.87807], [-7.935283, 41.874707], [-7.937389, 41.87516], [-7.941618, 41.870891], [-7.951254, 41.871132], [-7.956367, 41.87339], [-7.956362, 41.875191], [-7.960878, 41.875648], [-7.96299, 41.874075], [-7.972322, 41.875439], [-7.987996, 41.869157], [-7.990123, 41.860157], [-7.995547, 41.858138], [-7.994044, 41.856786], [-7.994954, 41.853411], [-7.996765, 41.851162], [-8.00339, 41.85027], [-8.006635, 41.843746]], [[-7.876696, 41.829679], [-7.864654, 41.829638], [-7.850107, 41.82044], [-7.847331, 41.811405], [-7.851228, 41.802437], [-7.865265, 41.795056], [-7.877288, 41.795813], [-7.888492, 41.802804], [-7.893052, 41.811855], [-7.888855, 41.822957], [-7.876696, 41.829679]], [[-7.866019, 41.752284], [-7.872418, 41.757613], [-7.865769, 41.766475], [-7.854318, 41.757434], [-7.866019, 41.752284]], [[-7.914426, 41.734758], [-7.902313, 41.73994], [-7.890247, 41.742262], [-7.87829, 41.738311], [-7.872815, 41.730597], [-7.872415, 41.721586], [-7.875381, 41.712608], [-7.878857, 41.705676], [-7.891088, 41.693369], [-7.90315, 41.690737], [-7.915109, 41.694121], [-7.926085, 41.704086], [-7.928945, 41.71312], [-7.92657, 41.722104], [-7.914426, 41.734758]]], [[[-8.13211, 41.642598], [-8.145199, 41.633868], [-8.132303, 41.62822], [-8.126051, 41.633724], [-8.13211, 41.642598]]], [[[-8.673217, 41.491832], [-8.686691, 41.483495], [-8.687588, 41.47449], [-8.677272, 41.465454], [-8.673356, 41.464102], [-8.661378, 41.464756], [-8.650462, 41.474383], [-8.651597, 41.483394], [-8.661242, 41.490815], [-8.673217, 41.491832]]], [[[-8.803753, 41.247387], [-8.781865, 41.244007], [-8.757998, 41.24344], [-8.722182, 41.246346], [-8.686349, 41.252281], [-8.663485, 41.258238], [-8.644615, 41.267189], [-8.636401, 41.276172], [-8.633549, 41.28517], [-8.635353, 41.294184], [-8.640694, 41.303208], [-8.649437, 41.312243], [-8.685926, 41.340542], [-8.721688, 41.362713], [-8.74557, 41.370493], [-8.769476, 41.372934], [-8.7934, 41.370651], [-8.808445, 41.366469], [-8.803753, 41.247387]], [[-8.769604, 41.336886], [-8.757636, 41.341126], [-8.745676, 41.343329], [-8.733722, 41.343687], [-8.721775, 41.342293], [-8.697907, 41.334279], [-8.677955, 41.321334], [-8.668369, 41.312299], [-8.662581, 41.303275], [-8.659633, 41.294258], [-8.660529, 41.285253], [-8.665445, 41.27626], [-8.676559, 41.267284], [-8.686299, 41.262794], [-8.701423, 41.258343], [-8.722143, 41.255501], [-8.746013, 41.25636], [-8.757061, 41.258474], [-8.778947, 41.267526], [-8.789703, 41.276554], [-8.795542, 41.285572], [-8.798427, 41.294585], [-8.798465, 41.303593], [-8.795748, 41.312596], [-8.790238, 41.321593], [-8.780509, 41.330583], [-8.769604, 41.336886]]], [[[-8.530145, 41.208994], [-8.527184, 41.21272], [-8.525349, 41.22172], [-8.528355, 41.230741], [-8.538633, 41.23979], [-8.555107, 41.244409], [-8.56705, 41.243094], [-8.573587, 41.239925], [-8.579029, 41.236182], [-8.582761, 41.230951], [-8.584742, 41.22195], [-8.582283, 41.212933], [-8.57405, 41.204621], [-8.573932, 41.204529], [-8.573761, 41.204397], [-8.567971, 41.204644], [-8.565895, 41.206227], [-8.567697, 41.208246], [-8.566512, 41.209376], [-8.559636, 41.206251], [-8.554271, 41.20627], [-8.549521, 41.209214], [-8.544157, 41.209458], [-8.54238, 41.211265], [-8.533747, 41.213097], [-8.529858, 41.210859], [-8.530145, 41.208994]]]]}}]}