{"type": "FeatureCollection", "features": [{"id": "12", "type": "Feature", "properties": {"fill": "#a3a3a3", "value_min": 0.25, "value_max": 0.5}, "geometry": {"type": "MultiPolygon", "coordinates": [[[[-8.287081, 41.744862], [-8.281623, 41.751894], [-8.286981, 41.753912], [-8.290058, 41.751946], [-8.287081, 41.744862]]], [[[-8.166871, 41.740504], [-8.164856, 41.742097], [-8.166806, 41.745468], [-8.17334, 41.742159], [-8.166871, 41.740504]]], [[[-8.528818, 41.580159], [-8.530708, 41.573038], [-8.528885, 41.570914], [-8.516925, 41.566312], [-8.505643, 41.572933], [-8.510013, 41.581959], [-8.516786, 41.584897], [-8.527313, 41.582031], [-8.528818, 41.580159]]], [[[-8.457152, 41.542954], [-8.450279, 41.54566], [-8.457116, 41.54733], [-8.458686, 41.545699], [-8.457152, 41.542954]]], [[[-8.253648, 41.515742], [-8.258603, 41.508554], [-8.253833, 41.499679], [-8.241876, 41.497574], [-8.237682, 41.49941], [-8.230341, 41.508369], [-8.239145, 41.517434], [-8.241632, 41.518499], [-8.253648, 41.515742]]], [[[-8.433726, 41.479621], [-8.421787, 41.475298], [-8.416133, 41.48244], [-8.42168, 41.48736], [-8.433686, 41.484214], [-8.433726, 41.479621]]], [[[-8.379813, 41.374159], [-8.376025, 41.365131], [-8.363024, 41.360689], [-8.351036, 41.3639], [-8.345894, 41.373972], [-8.350842, 41.383475], [-8.362771, 41.386619], [-8.374996, 41.383141], [-8.379813, 41.374159]]], [[[-8.698469, 41.212378], [-8.710892, 41.20432], [-8.713388, 41.195318], [-8.709438, 41.1863], [-8.698617, 41.180008], [-8.686698, 41.179101], [-8.674753, 41.183684], [-8.671971, 41.1862], [-8.667733, 41.195196], [-8.670052, 41.20421], [-8.67463, 41.208494], [-8.685363, 41.213261], [-8.698469, 41.212378]]]]}}, {"id": "10", "type": "Feature", "properties": {"fill": "#a3a3a3", "value_min": -0.25, "value_max": 0.0}, "geometry": {"type": "MultiPolygon", "coordinates": [[[[-7.804066, 41.874183], [-7.801822, 41.855973], [-7.796871, 41.846914], [-7.780318, 41.831727], [-7.768388, 41.825855], [-7.756413, 41.822411], [-7.733243, 41.821749], [-7.743152, 41.825154], [-7.742839, 41.827178], [-7.738918, 41.82874], [-7.742196, 41.833928], [-7.74729, 41.837772], [-7.745767, 41.840663], [-7.756082, 41.83951], [-7.768078, 41.842001], [-7.776031, 41.846694], [-7.783366, 41.855779], [-7.784491, 41.864797], [-7.780786, 41.873765], [-7.767284, 41.883364], [-7.755187, 41.885682], [-7.743163, 41.884189], [-7.729294, 41.875949], [-7.720533, 41.880218], [-7.720523, 41.881793], [-7.725335, 41.882935], [-7.726208, 41.887665], [-7.737044, 41.888828], [-7.73944, 41.891087], [-7.74246, 41.889747], [-7.742785, 41.885922], [-7.756022, 41.888441], [-7.758719, 41.890926], [-7.756592, 41.89407], [-7.758076, 41.897901], [-7.764097, 41.898595], [-7.779227, 41.886264], [-7.785257, 41.885157], [-7.788886, 41.882467], [-7.794309, 41.882033], [-7.796739, 41.878214], [-7.794954, 41.873932], [-7.804066, 41.874183]]], [[[-7.953961, 41.872156], [-7.960309, 41.871928], [-7.972427, 41.86769], [-7.983947, 41.857729], [-7.987904, 41.848757], [-7.98744, 41.839746], [-7.982609, 41.830697], [-7.973145, 41.822811], [-7.961205, 41.816549], [-7.949203, 41.81427], [-7.937086, 41.818927], [-7.924858, 41.830112], [-7.919975, 41.839131], [-7.919086, 41.84813], [-7.924353, 41.860301], [-7.936252, 41.869264], [-7.944319, 41.871346], [-7.953961, 41.872156]], [[-7.948532, 41.855264], [-7.936571, 41.850038], [-7.933021, 41.839253], [-7.936844, 41.833543], [-7.948985, 41.827585], [-7.962083, 41.830513], [-7.968998, 41.839582], [-7.96637, 41.848565], [-7.960614, 41.853117], [-7.948532, 41.855264]]], [[[-7.960923, 41.794475], [-7.956235, 41.785426], [-7.94971, 41.783217], [-7.937675, 41.783268], [-7.931976, 41.785203], [-7.928048, 41.794173], [-7.937289, 41.806666], [-7.949276, 41.809747], [-7.955504, 41.803433], [-7.960923, 41.794475]], [[-7.93749, 41.794477], [-7.949578, 41.791288], [-7.950545, 41.794381], [-7.949511, 41.795397], [-7.93749, 41.794477]]], [[[-7.723918, 41.78705], [-7.726163, 41.792112], [-7.732854, 41.795883], [-7.744923, 41.794169], [-7.750307, 41.78337], [-7.745275, 41.77614], [-7.736757, 41.774215], [-7.732206, 41.774165], [-7.726893, 41.778865], [-7.726028, 41.77963], [-7.725986, 41.779667], [-7.725774, 41.779854], [-7.725683, 41.779935], [-7.725521, 41.780078], [-7.725381, 41.780202], [-7.725267, 41.780302], [-7.725014, 41.780527], [-7.723918, 41.78705]]], [[[-8.325939, 41.765097], [-8.328494, 41.752177], [-8.326451, 41.743158], [-8.321142, 41.73412], [-8.31005, 41.725047], [-8.29937, 41.720739], [-8.287358, 41.71981], [-8.27531, 41.722102], [-8.263222, 41.727827], [-8.255148, 41.733711], [-8.246895, 41.742664], [-8.242564, 41.751643], [-8.241948, 41.760646], [-8.24532, 41.769675], [-8.252534, 41.777171], [-8.257551, 41.773564], [-8.261762, 41.774235], [-8.272002, 41.766345], [-8.264159, 41.76079], [-8.260408, 41.751759], [-8.262966, 41.742769], [-8.275185, 41.733196], [-8.287233, 41.731097], [-8.299529, 41.73399], [-8.309359, 41.743057], [-8.311303, 41.752075], [-8.307782, 41.759703], [-8.311096, 41.762195], [-8.318308, 41.761283], [-8.325939, 41.765097]]], [[[-8.190568, 41.768687], [-8.201197, 41.76037], [-8.204161, 41.751383], [-8.201585, 41.742358], [-8.193492, 41.733295], [-8.179071, 41.726777], [-8.167051, 41.726504], [-8.154963, 41.731456], [-8.144382, 41.741947], [-8.142835, 41.750942], [-8.146461, 41.759976], [-8.154494, 41.767196], [-8.166467, 41.771685], [-8.178492, 41.772189], [-8.190568, 41.768687]], [[-8.166641, 41.758228], [-8.155165, 41.751033], [-8.153747, 41.742016], [-8.16698, 41.732047], [-8.178991, 41.733091], [-8.188383, 41.742266], [-8.186727, 41.751261], [-8.178682, 41.757313], [-8.166641, 41.758228]]], [[[-7.91461, 41.723815], [-7.918643, 41.713023], [-7.914898, 41.706677], [-7.902992, 41.700022], [-7.890938, 41.702085], [-7.881444, 41.712667], [-7.879928, 41.721659], [-7.88905, 41.730755], [-7.902456, 41.731515], [-7.91461, 41.723815]], [[-7.890525, 41.726117], [-7.885776, 41.721716], [-7.886338, 41.712715], [-7.890839, 41.707848], [-7.902874, 41.70697], [-7.910156, 41.712943], [-7.908656, 41.721936], [-7.902549, 41.726061], [-7.890525, 41.726117]]], [[[-8.071157, 41.70626], [-8.064143, 41.696286], [-8.059325, 41.693406], [-8.047321, 41.692555], [-8.039726, 41.696085], [-8.034275, 41.705046], [-8.039912, 41.7141], [-8.046932, 41.718859], [-8.058935, 41.720168], [-8.069116, 41.714341], [-8.071157, 41.70626]], [[-8.047022, 41.712811], [-8.041053, 41.705103], [-8.047242, 41.697869], [-8.059246, 41.698863], [-8.064799, 41.705299], [-8.059035, 41.71328], [-8.047022, 41.712811]]], [[[-8.119442, 41.691064], [-8.108002, 41.696635], [-8.119249, 41.705246], [-8.126212, 41.696775], [-8.119442, 41.691064]], [[-8.118293, 41.696715], [-8.119372, 41.69619], [-8.120012, 41.696728], [-8.119354, 41.697527], [-8.118293, 41.696715]]], [[[-8.320677, 41.33845], [-8.312447, 41.355762], [-8.310298, 41.373764], [-8.313127, 41.391796], [-8.321576, 41.418869], [-8.320007, 41.427867], [-8.312829, 41.436832], [-8.301906, 41.445773], [-8.278222, 41.46127], [-8.242189, 41.470762], [-8.230161, 41.475142], [-8.21809, 41.483009], [-8.211467, 41.490226], [-8.206375, 41.499198], [-8.204281, 41.508191], [-8.205111, 41.517204], [-8.209215, 41.52624], [-8.218167, 41.535308], [-8.229371, 41.541788], [-8.24132, 41.545244], [-8.26528, 41.546902], [-8.301294, 41.542799], [-8.313282, 41.542941], [-8.361175, 41.54943], [-8.376031, 41.554288], [-8.404886, 41.572455], [-8.420854, 41.579986], [-8.456751, 41.59086], [-8.492586, 41.611224], [-8.50455, 41.616132], [-8.516535, 41.618519], [-8.528536, 41.61882], [-8.542539, 41.615735], [-8.544423, 41.614842], [-8.554836, 41.609163], [-8.562668, 41.600186], [-8.565951, 41.591191], [-8.566191, 41.582185], [-8.563859, 41.573168], [-8.552968, 41.557202], [-8.541037, 41.548675], [-8.529072, 41.545174], [-8.4931, 41.545471], [-8.481149, 41.540647], [-8.477655, 41.53678], [-8.441711, 41.518596], [-8.439014, 41.509576], [-8.459963, 41.482654], [-8.464178, 41.473666], [-8.465761, 41.464666], [-8.465114, 41.455655], [-8.45339, 41.41957], [-8.455524, 41.401565], [-8.463264, 41.374579], [-8.464027, 41.356567], [-8.457185, 41.33852], [-8.447, 41.326862], [-8.438702, 41.320416], [-8.423226, 41.312732], [-8.40298, 41.307624], [-8.401801, 41.311398], [-8.399712, 41.311628], [-8.400316, 41.313202], [-8.396738, 41.314336], [-8.398835, 41.316131], [-8.393775, 41.31997], [-8.393489, 41.323122], [-8.391105, 41.324253], [-8.386325, 41.323588], [-8.380382, 41.331254], [-8.375305, 41.33104], [-8.37201, 41.328346], [-8.361563, 41.329718], [-8.358276, 41.329049], [-8.357673, 41.327249], [-8.350207, 41.327264], [-8.346032, 41.328847], [-8.342462, 41.333131], [-8.333215, 41.336299], [-8.326363, 41.342163], [-8.324568, 41.341041], [-8.323376, 41.341943], [-8.320677, 41.33845]], [[-8.528688, 41.598027], [-8.516681, 41.598986], [-8.504703, 41.596229], [-8.495816, 41.590905], [-8.487755, 41.581862], [-8.485854, 41.572846], [-8.491803, 41.563865], [-8.504999, 41.557403], [-8.517007, 41.555258], [-8.528988, 41.556741], [-8.541755, 41.564075], [-8.547159, 41.573104], [-8.547185, 41.582111], [-8.541622, 41.591096], [-8.528688, 41.598027]], [[-8.456981, 41.563392], [-8.444995, 41.562633], [-8.433055, 41.556605], [-8.426315, 41.545542], [-8.429606, 41.536552], [-8.445272, 41.530201], [-8.457246, 41.531796], [-8.466802, 41.53673], [-8.473765, 41.545769], [-8.472965, 41.554773], [-8.469009, 41.559171], [-8.456981, 41.563392]], [[-8.253475, 41.530835], [-8.241487, 41.530921], [-8.229546, 41.527051], [-8.219173, 41.517301], [-8.217733, 41.512703], [-8.21664, 41.508276], [-8.219208, 41.499286], [-8.229997, 41.48899], [-8.242023, 41.484988], [-8.254003, 41.484843], [-8.265944, 41.488218], [-8.270985, 41.490619], [-8.279725, 41.499681], [-8.281398, 41.508699], [-8.276845, 41.517678], [-8.266217, 41.526618], [-8.253475, 41.530835]], [[-8.33757, 41.512539], [-8.325617, 41.509639], [-8.31371, 41.502396], [-8.310495, 41.49987], [-8.306328, 41.490837], [-8.307604, 41.481837], [-8.313669, 41.472866], [-8.326089, 41.46411], [-8.338102, 41.460328], [-8.35008, 41.459899], [-8.362029, 41.462477], [-8.373954, 41.467639], [-8.385914, 41.469173], [-8.392143, 41.4643], [-8.409974, 41.457184], [-8.421957, 41.45621], [-8.433909, 41.458553], [-8.445803, 41.467961], [-8.448584, 41.473592], [-8.448444, 41.482599], [-8.442618, 41.491578], [-8.43356, 41.498736], [-8.421543, 41.502728], [-8.409566, 41.50223], [-8.385681, 41.493887], [-8.361576, 41.508647], [-8.349557, 41.512224], [-8.33757, 41.512539]], [[-8.362584, 41.405722], [-8.350646, 41.403123], [-8.338749, 41.396634], [-8.334086, 41.391919], [-8.328287, 41.382878], [-8.326342, 41.373859], [-8.327621, 41.364859], [-8.332646, 41.35588], [-8.339229, 41.349164], [-8.351246, 41.342824], [-8.363221, 41.340485], [-8.375168, 41.341007], [-8.387087, 41.344579], [-8.398963, 41.35283], [-8.406833, 41.365294], [-8.407727, 41.374307], [-8.405423, 41.383302], [-8.398597, 41.392678], [-8.386556, 41.401051], [-8.374554, 41.405131], [-8.362584, 41.405722]]], [[[-8.097199, 41.543554], [-8.109447, 41.544321], [-8.121509, 41.538914], [-8.125547, 41.534641], [-8.125801, 41.525636], [-8.11395, 41.516538], [-8.109843, 41.515406], [-8.097861, 41.515297], [-8.089647, 41.519468], [-8.090594, 41.522169], [-8.093588, 41.52307], [-8.09209, 41.524645], [-8.092385, 41.532749], [-8.095978, 41.534325], [-8.098073, 41.538152], [-8.106759, 41.543106], [-8.097199, 41.543554]], [[-8.100443, 41.534448], [-8.097605, 41.533739], [-8.094447, 41.525393], [-8.097756, 41.522849], [-8.109752, 41.522044], [-8.114653, 41.525551], [-8.110766, 41.534528], [-8.100443, 41.534448]]], [[[-8.697136, 41.500437], [-8.716078, 41.492579], [-8.725374, 41.483594], [-8.729911, 41.474597], [-8.731129, 41.465592], [-8.729729, 41.456581], [-8.725459, 41.447564], [-8.718118, 41.438539], [-8.697922, 41.420472], [-8.695128, 41.411457], [-8.70128, 41.384451], [-8.700239, 41.37544], [-8.691988, 41.357403], [-8.674781, 41.339341], [-8.662078, 41.329749], [-8.638253, 41.316], [-8.626334, 41.31112], [-8.614412, 41.30684], [-8.590544, 41.303062], [-8.578595, 41.303647], [-8.566627, 41.307145], [-8.554623, 41.315643], [-8.544158, 41.32989], [-8.540856, 41.347892], [-8.54677, 41.365931], [-8.563032, 41.384009], [-8.575467, 41.393063], [-8.601856, 41.407141], [-8.635819, 41.420292], [-8.644088, 41.429326], [-8.631334, 41.456308], [-8.629809, 41.465311], [-8.631238, 41.474323], [-8.636955, 41.483349], [-8.647616, 41.492389], [-8.661202, 41.49851], [-8.673168, 41.501439], [-8.685147, 41.502068], [-8.697136, 41.500437]], [[-8.667481, 41.492448], [-8.661238, 41.491493], [-8.6493, 41.483895], [-8.645764, 41.474369], [-8.649401, 41.464995], [-8.661415, 41.45756], [-8.673394, 41.456479], [-8.68535, 41.460116], [-8.691965, 41.465494], [-8.695694, 41.474511], [-8.693057, 41.483512], [-8.685208, 41.489415], [-8.67321, 41.49312], [-8.667481, 41.492448]], [[-8.637849, 41.38893], [-8.625892, 41.388358], [-8.612903, 41.384187], [-8.60044, 41.375137], [-8.595031, 41.366111], [-8.594116, 41.3571], [-8.597482, 41.348104], [-8.607724, 41.339131], [-8.614239, 41.336161], [-8.626202, 41.334105], [-8.638147, 41.335251], [-8.649334, 41.339266], [-8.661563, 41.34831], [-8.667089, 41.357334], [-8.668234, 41.366345], [-8.661824, 41.37874], [-8.649824, 41.386379], [-8.637849, 41.38893]]], [[[-8.497578, 41.221996], [-8.503587, 41.239644], [-8.510558, 41.248682], [-8.519217, 41.256208], [-8.531104, 41.263075], [-8.543015, 41.266913], [-8.55494, 41.269035], [-8.566882, 41.268573], [-8.578839, 41.265721], [-8.614736, 41.251839], [-8.626687, 41.249212], [-8.698332, 41.242056], [-8.745203, 41.231425], [-8.768067, 41.222465], [-8.783884, 41.213488], [-8.801801, 41.197711], [-8.799695, 41.14406], [-8.708981, 41.14606], [-8.722587, 41.150569], [-8.734475, 41.157801], [-8.744117, 41.168367], [-8.748316, 41.177384], [-8.749643, 41.186395], [-8.748188, 41.1954], [-8.74388, 41.204398], [-8.734246, 41.2145], [-8.721832, 41.222363], [-8.710335, 41.226491], [-8.686456, 41.230019], [-8.674528, 41.229086], [-8.662612, 41.226009], [-8.654307, 41.22218], [-8.643395, 41.213139], [-8.63797, 41.204114], [-8.635043, 41.19334], [-8.632526, 41.188624], [-8.625658, 41.186628], [-8.621132, 41.178994], [-8.613374, 41.177451], [-8.608583, 41.174095], [-8.609164, 41.172066], [-8.604942, 41.164881], [-8.59422, 41.165149], [-8.589174, 41.167645], [-8.589194, 41.170572], [-8.583263, 41.174422], [-8.582094, 41.177803], [-8.578825, 41.178941], [-8.581296, 41.191762], [-8.575958, 41.195609], [-8.576894, 41.201908], [-8.574515, 41.202593], [-8.57423, 41.20462], [-8.567971, 41.204644], [-8.565895, 41.206227], [-8.567697, 41.208246], [-8.566512, 41.209376], [-8.559636, 41.206251], [-8.554271, 41.20627], [-8.549521, 41.209214], [-8.544157, 41.209458], [-8.54238, 41.211265], [-8.532257, 41.213102], [-8.52653, 41.202542], [-8.523236, 41.200077], [-8.520554, 41.200086], [-8.51163, 41.203042], [-8.510456, 41.206197], [-8.505693, 41.207113], [-8.504239, 41.213646], [-8.500076, 41.21546], [-8.50308, 41.219502], [-8.502204, 41.222656], [-8.497578, 41.221996]]]]}}, {"id": "11", "type": "Feature", "properties": {"fill": "#a3a3a3", "value_min": 0.0, "value_max": 0.25}, "geometry": {"type": "MultiPolygon", "coordinates": [[[[-7.729294, 41.875949], [-7.743163, 41.884189], [-7.755187, 41.885682], [-7.767284, 41.883364], [-7.780786, 41.873765], [-7.784491, 41.864797], [-7.783366, 41.855779], [-7.776031, 41.846694], [-7.768078, 41.842001], [-7.756082, 41.83951], [-7.745767, 41.840663], [-7.746349, 41.84407], [-7.750246, 41.846784], [-7.750532, 41.849261], [-7.743309, 41.849012], [-7.746901, 41.8524], [-7.746881, 41.855776], [-7.739943, 41.858003], [-7.736611, 41.861368], [-7.734159, 41.868337], [-7.730228, 41.871024], [-7.729294, 41.875949]]], [[[-7.948532, 41.855264], [-7.960614, 41.853117], [-7.96637, 41.848565], [-7.968998, 41.839582], [-7.962083, 41.830513], [-7.948985, 41.827585], [-7.936844, 41.833543], [-7.933021, 41.839253], [-7.936571, 41.850038], [-7.948532, 41.855264]]], [[[-7.93749, 41.794477], [-7.949511, 41.795397], [-7.950545, 41.794381], [-7.949578, 41.791288], [-7.93749, 41.794477]]], [[[-8.307782, 41.759703], [-8.311303, 41.752075], [-8.309359, 41.743057], [-8.299529, 41.73399], [-8.287233, 41.731097], [-8.275185, 41.733196], [-8.262966, 41.742769], [-8.260408, 41.751759], [-8.264159, 41.76079], [-8.272002, 41.766345], [-8.280681, 41.764083], [-8.284038, 41.761109], [-8.284931, 41.757507], [-8.287033, 41.756829], [-8.298457, 41.757263], [-8.300866, 41.758835], [-8.305674, 41.758152], [-8.307782, 41.759703]], [[-8.287081, 41.744862], [-8.290058, 41.751946], [-8.286981, 41.753912], [-8.281623, 41.751894], [-8.287081, 41.744862]]], [[[-8.166641, 41.758228], [-8.178682, 41.757313], [-8.186727, 41.751261], [-8.188383, 41.742266], [-8.178991, 41.733091], [-8.16698, 41.732047], [-8.153747, 41.742016], [-8.155165, 41.751033], [-8.166641, 41.758228]], [[-8.166871, 41.740504], [-8.17334, 41.742159], [-8.166806, 41.745468], [-8.164856, 41.742097], [-8.166871, 41.740504]]], [[[-7.890525, 41.726117], [-7.902549, 41.726061], [-7.908656, 41.721936], [-7.910156, 41.712943], [-7.902874, 41.70697], [-7.890839, 41.707848], [-7.886338, 41.712715], [-7.885776, 41.721716], [-7.890525, 41.726117]]], [[[-8.047022, 41.712811], [-8.059035, 41.71328], [-8.064799, 41.705299], [-8.059246, 41.698863], [-8.047242, 41.697869], [-8.041053, 41.705103], [-8.047022, 41.712811]]], [[[-8.118293, 41.696715], [-8.119354, 41.697527], [-8.120012, 41.696728], [-8.119372, 41.69619], [-8.118293, 41.696715]]], [[[-8.528688, 41.598027], [-8.541622, 41.591096], [-8.547185, 41.582111], [-8.547159, 41.573104], [-8.541755, 41.564075], [-8.528988, 41.556741], [-8.517007, 41.555258], [-8.504999, 41.557403], [-8.491803, 41.563865], [-8.485854, 41.572846], [-8.487755, 41.581862], [-8.495816, 41.590905], [-8.504703, 41.596229], [-8.516681, 41.598986], [-8.528688, 41.598027]], [[-8.528818, 41.580159], [-8.527313, 41.582031], [-8.516786, 41.584897], [-8.510013, 41.581959], [-8.505643, 41.572933], [-8.516925, 41.566312], [-8.528885, 41.570914], [-8.530708, 41.573038], [-8.528818, 41.580159]]], [[[-8.456981, 41.563392], [-8.469009, 41.559171], [-8.472965, 41.554773], [-8.473765, 41.545769], [-8.466802, 41.53673], [-8.457246, 41.531796], [-8.445272, 41.530201], [-8.429606, 41.536552], [-8.426315, 41.545542], [-8.433055, 41.556605], [-8.444995, 41.562633], [-8.456981, 41.563392]], [[-8.457152, 41.542954], [-8.458686, 41.545699], [-8.457116, 41.54733], [-8.450279, 41.54566], [-8.457152, 41.542954]]], [[[-8.100443, 41.534448], [-8.110766, 41.534528], [-8.114653, 41.525551], [-8.109752, 41.522044], [-8.097756, 41.522849], [-8.094447, 41.525393], [-8.097605, 41.533739], [-8.100443, 41.534448]]], [[[-8.253475, 41.530835], [-8.266217, 41.526618], [-8.276845, 41.517678], [-8.281398, 41.508699], [-8.279725, 41.499681], [-8.270985, 41.490619], [-8.265944, 41.488218], [-8.254003, 41.484843], [-8.242023, 41.484988], [-8.229997, 41.48899], [-8.219208, 41.499286], [-8.21664, 41.508276], [-8.217733, 41.512703], [-8.219173, 41.517301], [-8.229546, 41.527051], [-8.241487, 41.530921], [-8.253475, 41.530835]], [[-8.253648, 41.515742], [-8.241632, 41.518499], [-8.239145, 41.517434], [-8.230341, 41.508369], [-8.237682, 41.49941], [-8.241876, 41.497574], [-8.253833, 41.499679], [-8.258603, 41.508554], [-8.253648, 41.515742]]], [[[-8.33757, 41.512539], [-8.349557, 41.512224], [-8.361576, 41.508647], [-8.385681, 41.493887], [-8.409566, 41.50223], [-8.421543, 41.502728], [-8.43356, 41.498736], [-8.442618, 41.491578], [-8.448444, 41.482599], [-8.448584, 41.473592], [-8.445803, 41.467961], [-8.433909, 41.458553], [-8.421957, 41.45621], [-8.409974, 41.457184], [-8.392143, 41.4643], [-8.385914, 41.469173], [-8.373954, 41.467639], [-8.362029, 41.462477], [-8.35008, 41.459899], [-8.338102, 41.460328], [-8.326089, 41.46411], [-8.313669, 41.472866], [-8.307604, 41.481837], [-8.306328, 41.490837], [-8.310495, 41.49987], [-8.31371, 41.502396], [-8.325617, 41.509639], [-8.33757, 41.512539]], [[-8.433726, 41.479621], [-8.433686, 41.484214], [-8.42168, 41.48736], [-8.416133, 41.48244], [-8.421787, 41.475298], [-8.433726, 41.479621]]], [[[-8.667481, 41.492448], [-8.67321, 41.49312], [-8.685208, 41.489415], [-8.693057, 41.483512], [-8.695694, 41.474511], [-8.691965, 41.465494], [-8.68535, 41.460116], [-8.673394, 41.456479], [-8.661415, 41.45756], [-8.649401, 41.464995], [-8.645764, 41.474369], [-8.6493, 41.483895], [-8.661238, 41.491493], [-8.667481, 41.492448]]], [[[-8.362584, 41.405722], [-8.374554, 41.405131], [-8.386556, 41.401051], [-8.398597, 41.392678], [-8.405423, 41.383302], [-8.407727, 41.374307], [-8.406833, 41.365294], [-8.398963, 41.35283], [-8.387087, 41.344579], [-8.375168, 41.341007], [-8.363221, 41.340485], [-8.351246, 41.342824], [-8.339229, 41.349164], [-8.332646, 41.35588], [-8.327621, 41.364859], [-8.326342, 41.373859], [-8.328287, 41.382878], [-8.334086, 41.391919], [-8.338749, 41.396634], [-8.350646, 41.403123], [-8.362584, 41.405722]], [[-8.379813, 41.374159], [-8.374996, 41.383141], [-8.362771, 41.386619], [-8.350842, 41.383475], [-8.345894, 41.373972], [-8.351036, 41.3639], [-8.363024, 41.360689], [-8.376025, 41.365131], [-8.379813, 41.374159]]], [[[-8.637849, 41.38893], [-8.649824, 41.386379], [-8.661824, 41.37874], [-8.668234, 41.366345], [-8.667089, 41.357334], [-8.661563, 41.34831], [-8.649334, 41.339266], [-8.638147, 41.335251], [-8.626202, 41.334105], [-8.614239, 41.336161], [-8.607724, 41.339131], [-8.597482, 41.348104], [-8.594116, 41.3571], [-8.595031, 41.366111], [-8.60044, 41.375137], [-8.612903, 41.384187], [-8.625892, 41.388358], [-8.637849, 41.38893]]], [[[-8.635043, 41.19334], [-8.63797, 41.204114], [-8.643395, 41.213139], [-8.654307, 41.22218], [-8.662612, 41.226009], [-8.674528, 41.229086], [-8.686456, 41.230019], [-8.710335, 41.226491], [-8.721832, 41.222363], [-8.734246, 41.2145], [-8.74388, 41.204398], [-8.748188, 41.1954], [-8.749643, 41.186395], [-8.748316, 41.177384], [-8.744117, 41.168367], [-8.734475, 41.157801], [-8.722587, 41.150569], [-8.708981, 41.14606], [-8.674793, 41.146932], [-8.674849, 41.153767], [-8.672489, 41.15648], [-8.66117, 41.156307], [-8.662078, 41.158104], [-8.660313, 41.160813], [-8.657033, 41.160378], [-8.654961, 41.161963], [-8.653231, 41.169174], [-8.655366, 41.175467], [-8.647955, 41.180228], [-8.647696, 41.185181], [-8.641225, 41.196014], [-8.638841, 41.196025], [-8.638231, 41.194227], [-8.635043, 41.19334]], [[-8.698469, 41.212378], [-8.685363, 41.213261], [-8.67463, 41.208494], [-8.670052, 41.20421], [-8.667733, 41.195196], [-8.671971, 41.1862], [-8.674753, 41.183684], [-8.686698, 41.179101], [-8.698617, 41.180008], [-8.709438, 41.1863], [-8.713388, 41.195318], [-8.710892, 41.20432], [-8.698469, 41.212378]]]]}}, {"id": "6", "type": "Feature", "properties": {"fill": "#b6a27f", "value_min": -1.25, "value_max": -1.0}, "geometry": {"type": "MultiPolygon", "coordinates": [[[[-7.889014, 41.81375], [-7.889082, 41.809805], [-7.885279, 41.802773], [-7.877262, 41.797269], [-7.865234, 41.79681], [-7.853835, 41.802463], [-7.849364, 41.811425], [-7.852911, 41.820468], [-7.864705, 41.826797], [-7.876757, 41.8262], [-7.885089, 41.820785], [-7.889014, 41.81375]]], [[[-7.998088, 41.767586], [-8.022285, 41.758659], [-8.031844, 41.75006], [-8.034972, 41.74108], [-8.032653, 41.732053], [-8.022849, 41.721462], [-8.010923, 41.71524], [-7.998951, 41.712076], [-7.986929, 41.712125], [-7.974858, 41.715335], [-7.938559, 41.729664], [-7.921582, 41.740071], [-7.910543, 41.748974], [-7.905604, 41.757934], [-7.907341, 41.766958], [-7.913811, 41.771209], [-7.925787, 41.774564], [-7.961866, 41.775627], [-7.973913, 41.774687], [-7.998088, 41.767586]], [[-7.949869, 41.773482], [-7.937843, 41.773107], [-7.925857, 41.770332], [-7.91925, 41.76707], [-7.915855, 41.758031], [-7.919625, 41.74906], [-7.926305, 41.743481], [-7.938442, 41.736745], [-7.950508, 41.734228], [-7.962514, 41.73543], [-7.973264, 41.740545], [-7.981751, 41.749627], [-7.981225, 41.75863], [-7.973298, 41.767566], [-7.961925, 41.771966], [-7.949869, 41.773482]], [[-7.998473, 41.742852], [-7.994839, 41.740736], [-7.993991, 41.731721], [-7.9987, 41.728222], [-8.010777, 41.724722], [-8.023004, 41.731972], [-8.020657, 41.740959], [-8.010452, 41.745916], [-7.998473, 41.742852]]], [[[-8.452083, 41.699767], [-8.443854, 41.69548], [-8.431863, 41.692436], [-8.419848, 41.692267], [-8.407809, 41.694639], [-8.3981, 41.698521], [-8.384546, 41.707456], [-8.37865, 41.716431], [-8.378004, 41.725435], [-8.380422, 41.732183], [-8.384922, 41.73032], [-8.387032, 41.731891], [-8.394602, 41.730298], [-8.391601, 41.725508], [-8.39128, 41.716499], [-8.397788, 41.707526], [-8.40774, 41.702206], [-8.419778, 41.700023], [-8.431779, 41.70206], [-8.443112, 41.709556], [-8.452083, 41.699767]]], [[[-7.810167, 41.717775], [-7.818407, 41.725041], [-7.830345, 41.729711], [-7.842352, 41.730625], [-7.854414, 41.728497], [-7.866613, 41.718487], [-7.869697, 41.712552], [-7.872695, 41.703575], [-7.872875, 41.694569], [-7.86998, 41.685965], [-7.867999, 41.68551], [-7.868008, 41.68326], [-7.864403, 41.683701], [-7.864096, 41.685276], [-7.858987, 41.68639], [-7.857773, 41.689538], [-7.855175, 41.688406], [-7.863259, 41.694475], [-7.868111, 41.70353], [-7.865249, 41.712508], [-7.854551, 41.720742], [-7.84224, 41.721286], [-7.830606, 41.715284], [-7.827088, 41.712125], [-7.82627, 41.708815], [-7.818621, 41.713522], [-7.815291, 41.718689], [-7.810167, 41.717775]]], [[[-7.854775, 41.68835], [-7.854775, 41.68835], [-7.855075, 41.688366], [-7.854775, 41.68835]]], [[[-8.131176, 41.712051], [-8.13113, 41.715536], [-8.13628, 41.714865], [-8.131176, 41.712051]]], [[[-8.235587, 41.697555], [-8.235405, 41.688546], [-8.22852, 41.679493], [-8.215786, 41.673721], [-8.203771, 41.673849], [-8.191681, 41.679926], [-8.185328, 41.688202], [-8.184965, 41.697207], [-8.192256, 41.706265], [-8.203306, 41.711531], [-8.215317, 41.71232], [-8.227392, 41.707796], [-8.235587, 41.697555]], [[-8.203426, 41.701794], [-8.198828, 41.697304], [-8.203114, 41.688327], [-8.215609, 41.688311], [-8.219986, 41.69745], [-8.215447, 41.701622], [-8.203426, 41.701794]]], [[[-7.977739, 41.603105], [-7.966882, 41.623397], [-7.964145, 41.641386], [-7.967645, 41.659432], [-7.972834, 41.668485], [-7.981563, 41.67757], [-7.987411, 41.681399], [-7.999378, 41.684531], [-8.011395, 41.684426], [-8.023438, 41.682549], [-8.047581, 41.674896], [-8.059613, 41.67366], [-8.075639, 41.687372], [-8.083384, 41.691663], [-8.095414, 41.690703], [-8.109371, 41.678632], [-8.112421, 41.669648], [-8.10823, 41.651602], [-8.113568, 41.633629], [-8.12036, 41.623633], [-8.138231, 41.606795], [-8.139901, 41.5978], [-8.134952, 41.588756], [-8.120719, 41.579641], [-8.09705, 41.573599], [-8.069583, 41.570551], [-8.068081, 41.573478], [-8.062384, 41.575501], [-8.055484, 41.580673], [-8.052181, 41.584498], [-8.052777, 41.587649], [-8.048277, 41.590122], [-8.047974, 41.592373], [-8.031467, 41.602938], [-8.02367, 41.603156], [-8.019174, 41.601802], [-8.015872, 41.603824], [-8.013474, 41.603372], [-8.005971, 41.60629], [-8.003562, 41.611239], [-7.999061, 41.612809], [-7.999669, 41.608759], [-7.996976, 41.605829], [-7.996684, 41.602003], [-7.984685, 41.603564], [-7.982292, 41.60086], [-7.97791, 41.60288], [-7.977789, 41.603038], [-7.977739, 41.603105]], [[-8.083465, 41.685969], [-8.075688, 41.678366], [-8.078867, 41.669384], [-8.083755, 41.665529], [-8.095748, 41.666838], [-8.101976, 41.678574], [-8.095492, 41.685167], [-8.083465, 41.685969]], [[-8.023551, 41.675131], [-8.011558, 41.673726], [-8.002079, 41.668743], [-7.996276, 41.659686], [-7.996946, 41.650684], [-8.003527, 41.641734], [-8.012144, 41.635398], [-8.024225, 41.630448], [-8.031374, 41.623958], [-8.036599, 41.605988], [-8.042214, 41.597028], [-8.055445, 41.58813], [-8.072922, 41.58328], [-8.084926, 41.582759], [-8.096902, 41.584242], [-8.109043, 41.588558], [-8.119769, 41.597648], [-8.122255, 41.606674], [-8.119241, 41.615658], [-8.108255, 41.631006], [-8.096105, 41.641307], [-8.084035, 41.645732], [-8.060013, 41.646113], [-8.054539, 41.651173], [-8.050698, 41.660148], [-8.042055, 41.669083], [-8.023551, 41.675131]]], [[[-8.660928, 41.551038], [-8.664686, 41.546485], [-8.667536, 41.537486], [-8.665984, 41.528474], [-8.659762, 41.519448], [-8.648496, 41.510407], [-8.637206, 41.504633], [-8.625244, 41.500991], [-8.613268, 41.500182], [-8.601268, 41.503132], [-8.590751, 41.510216], [-8.584889, 41.519202], [-8.583917, 41.528206], [-8.58905, 41.540461], [-8.600963, 41.55277], [-8.612917, 41.559039], [-8.624893, 41.56188], [-8.636885, 41.561996], [-8.648893, 41.559123], [-8.660928, 41.551038]], [[-8.624954, 41.55127], [-8.612979, 41.548703], [-8.601037, 41.540722], [-8.594574, 41.528244], [-8.596261, 41.519243], [-8.601204, 41.513579], [-8.613226, 41.507169], [-8.625212, 41.506606], [-8.63798, 41.510374], [-8.649977, 41.519419], [-8.654397, 41.528439], [-8.653151, 41.537443], [-8.648981, 41.542883], [-8.636952, 41.549939], [-8.624954, 41.55127]]], [[[-8.50226, 41.509867], [-8.49519, 41.500829], [-8.481486, 41.498538], [-8.477008, 41.500747], [-8.467953, 41.509713], [-8.473147, 41.518744], [-8.481294, 41.522569], [-8.493287, 41.521516], [-8.498337, 41.518857], [-8.50226, 41.509867]], [[-8.478688, 41.509762], [-8.481414, 41.507543], [-8.487287, 41.509801], [-8.481361, 41.514202], [-8.478688, 41.509762]]], [[[-8.088809, 41.503515], [-8.133894, 41.5092], [-8.145878, 41.509131], [-8.157913, 41.505076], [-8.1652, 41.498907], [-8.171003, 41.489941], [-8.176643, 41.471967], [-8.176995, 41.453955], [-8.174949, 41.435925], [-8.176557, 41.426929], [-8.182914, 41.422628], [-8.21886, 41.418859], [-8.230853, 41.416561], [-8.242869, 41.412252], [-8.254925, 41.404343], [-8.264543, 41.391496], [-8.266939, 41.382503], [-8.266735, 41.373494], [-8.264021, 41.36447], [-8.254099, 41.350512], [-8.249622, 41.353072], [-8.251123, 41.356897], [-8.248141, 41.360052], [-8.247552, 41.364413], [-8.253128, 41.373407], [-8.254053, 41.382421], [-8.25037, 41.391404], [-8.243026, 41.398696], [-8.231, 41.404098], [-8.21902, 41.405486], [-8.207076, 41.403806], [-8.19792, 41.400058], [-8.187422, 41.390977], [-8.18416, 41.381946], [-8.184673, 41.376756], [-8.169578, 41.377212], [-8.1642, 41.38059], [-8.158223, 41.378791], [-8.150152, 41.37339], [-8.139404, 41.377894], [-8.135558, 41.383952], [-8.124418, 41.390515], [-8.108311, 41.393246], [-8.106972, 41.393423], [-8.104424, 41.393759], [-8.105321, 41.394998], [-8.10263, 41.396123], [-8.10801, 41.398825], [-8.108606, 41.403102], [-8.104419, 41.406252], [-8.104119, 41.408728], [-8.101727, 41.409403], [-8.102025, 41.411204], [-8.092756, 41.411201], [-8.09126, 41.414352], [-8.079893, 41.41975], [-8.077503, 41.416597], [-8.070923, 41.41862], [-8.066739, 41.416142], [-8.061654, 41.417489], [-8.059852, 41.424916], [-8.055959, 41.429415], [-8.05745, 41.432793], [-8.056549, 41.436394], [-8.057743, 41.438645], [-8.061033, 41.438872], [-8.063424, 41.4409], [-8.064916, 41.443861], [-8.075013, 41.436547], [-8.087055, 41.431362], [-8.099059, 41.428854], [-8.111033, 41.428391], [-8.122983, 41.429762], [-8.1349, 41.433561], [-8.146782, 41.440219], [-8.151669, 41.444764], [-8.158963, 41.453824], [-8.163171, 41.462863], [-8.16473, 41.471881], [-8.163883, 41.480883], [-8.158078, 41.492353], [-8.151715, 41.498808], [-8.145974, 41.501848], [-8.133956, 41.50459], [-8.121973, 41.5046], [-8.098055, 41.501324], [-8.085068, 41.498297], [-8.072052, 41.492567], [-8.07175, 41.494925], [-8.078333, 41.49898], [-8.078332, 41.500331], [-8.088809, 41.503515]]], [[[-8.73386, 41.309777], [-8.740667, 41.303477], [-8.742687, 41.294474], [-8.737932, 41.285455], [-8.73397, 41.282628], [-8.722047, 41.278363], [-8.710103, 41.279014], [-8.698135, 41.284882], [-8.693561, 41.294353], [-8.695799, 41.303367], [-8.698038, 41.305868], [-8.709952, 41.313035], [-8.721896, 41.313929], [-8.73386, 41.309777]]]]}}, {"id": "5", "type": "Feature", "properties": {"fill": "#e19f31", "value_min": -1.5, "value_max": -1.25}, "geometry": {"type": "MultiPolygon", "coordinates": [[[[-7.949869, 41.773482], [-7.961925, 41.771966], [-7.973298, 41.767566], [-7.981225, 41.75863], [-7.981751, 41.749627], [-7.973264, 41.740545], [-7.962514, 41.73543], [-7.950508, 41.734228], [-7.938442, 41.736745], [-7.926305, 41.743481], [-7.919625, 41.74906], [-7.915855, 41.758031], [-7.91925, 41.76707], [-7.925857, 41.770332], [-7.937843, 41.773107], [-7.949869, 41.773482]], [[-7.949902, 41.771439], [-7.937878, 41.770956], [-7.927401, 41.767147], [-7.922154, 41.758091], [-7.927187, 41.749131], [-7.93835, 41.742334], [-7.950397, 41.741052], [-7.96236, 41.744968], [-7.967774, 41.749503], [-7.970603, 41.758535], [-7.964106, 41.767483], [-7.949902, 41.771439]]], [[[-7.998473, 41.742852], [-8.010452, 41.745916], [-8.020657, 41.740959], [-8.023004, 41.731972], [-8.010777, 41.724722], [-7.9987, 41.728222], [-7.993991, 41.731721], [-7.994839, 41.740736], [-7.998473, 41.742852]]], [[[-8.443112, 41.709556], [-8.431779, 41.70206], [-8.419778, 41.700023], [-8.40774, 41.702206], [-8.397788, 41.707526], [-8.39128, 41.716499], [-8.391601, 41.725508], [-8.394602, 41.730298], [-8.398141, 41.72984], [-8.405884, 41.722844], [-8.404109, 41.716566], [-8.407646, 41.712445], [-8.419703, 41.708371], [-8.431767, 41.717153], [-8.436526, 41.714214], [-8.441333, 41.714201], [-8.443112, 41.709556]]], [[[-7.82627, 41.708815], [-7.827088, 41.712125], [-7.830606, 41.715284], [-7.84224, 41.721286], [-7.854551, 41.720742], [-7.865249, 41.712508], [-7.868111, 41.70353], [-7.863259, 41.694475], [-7.855175, 41.688406], [-7.855075, 41.688366], [-7.854775, 41.68835], [-7.847538, 41.695365], [-7.837309, 41.699391], [-7.835792, 41.702763], [-7.839682, 41.705924], [-7.838465, 41.709522], [-7.832453, 41.710407], [-7.82627, 41.708815]], [[-7.842673, 41.712711], [-7.839775, 41.703247], [-7.842896, 41.700303], [-7.854956, 41.697952], [-7.86028, 41.703452], [-7.857654, 41.712433], [-7.854658, 41.714739], [-7.842673, 41.712711]]], [[[-8.203426, 41.701794], [-8.215447, 41.701622], [-8.219986, 41.69745], [-8.215609, 41.688311], [-8.203114, 41.688327], [-8.198828, 41.697304], [-8.203426, 41.701794]]], [[[-8.083465, 41.685969], [-8.095492, 41.685167], [-8.101976, 41.678574], [-8.095748, 41.666838], [-8.083755, 41.665529], [-8.078867, 41.669384], [-8.075688, 41.678366], [-8.083465, 41.685969]]], [[[-8.023551, 41.675131], [-8.042055, 41.669083], [-8.050698, 41.660148], [-8.054539, 41.651173], [-8.060013, 41.646113], [-8.084035, 41.645732], [-8.096105, 41.641307], [-8.108255, 41.631006], [-8.119241, 41.615658], [-8.122255, 41.606674], [-8.119769, 41.597648], [-8.109043, 41.588558], [-8.096902, 41.584242], [-8.084926, 41.582759], [-8.072922, 41.58328], [-8.055445, 41.58813], [-8.042214, 41.597028], [-8.036599, 41.605988], [-8.031374, 41.623958], [-8.024225, 41.630448], [-8.012144, 41.635398], [-8.003527, 41.641734], [-7.996946, 41.650684], [-7.996276, 41.659686], [-8.002079, 41.668743], [-8.011558, 41.673726], [-8.023551, 41.675131]], [[-8.023672, 41.667116], [-8.013241, 41.659832], [-8.023925, 41.650315], [-8.036151, 41.660027], [-8.023672, 41.667116]], [[-8.072196, 41.633956], [-8.058048, 41.62418], [-8.054376, 41.615143], [-8.05654, 41.606153], [-8.065707, 41.597221], [-8.072771, 41.593803], [-8.0848, 41.591641], [-8.096778, 41.593105], [-8.10868, 41.600156], [-8.113052, 41.606603], [-8.112946, 41.61561], [-8.107273, 41.624573], [-8.096218, 41.633251], [-8.084169, 41.636301], [-8.072196, 41.633956]]], [[[-8.624954, 41.55127], [-8.636952, 41.549939], [-8.648981, 41.542883], [-8.653151, 41.537443], [-8.654397, 41.528439], [-8.649977, 41.519419], [-8.63798, 41.510374], [-8.625212, 41.506606], [-8.613226, 41.507169], [-8.601204, 41.513579], [-8.596261, 41.519243], [-8.594574, 41.528244], [-8.601037, 41.540722], [-8.612979, 41.548703], [-8.624954, 41.55127]], [[-8.625006, 41.542226], [-8.613035, 41.539316], [-8.60455, 41.528279], [-8.607116, 41.51928], [-8.613181, 41.514802], [-8.625177, 41.51267], [-8.640302, 41.519389], [-8.643894, 41.528407], [-8.637013, 41.539073], [-8.625006, 41.542226]]], [[[-8.478688, 41.509762], [-8.481361, 41.514202], [-8.487287, 41.509801], [-8.481414, 41.507543], [-8.478688, 41.509762]]], [[[-8.072052, 41.492567], [-8.085068, 41.498297], [-8.098055, 41.501324], [-8.121973, 41.5046], [-8.133956, 41.50459], [-8.145974, 41.501848], [-8.151715, 41.498808], [-8.158078, 41.492353], [-8.163883, 41.480883], [-8.16473, 41.471881], [-8.163171, 41.462863], [-8.158963, 41.453824], [-8.151669, 41.444764], [-8.146782, 41.440219], [-8.1349, 41.433561], [-8.122983, 41.429762], [-8.111033, 41.428391], [-8.099059, 41.428854], [-8.087055, 41.431362], [-8.075013, 41.436547], [-8.064916, 41.443861], [-8.067908, 41.444279], [-8.069999, 41.447206], [-8.068788, 41.462286], [-8.073375, 41.464764], [-8.081748, 41.453234], [-8.086798, 41.449697], [-8.098835, 41.445039], [-8.110827, 41.443482], [-8.122782, 41.444689], [-8.134704, 41.448382], [-8.146562, 41.457036], [-8.151081, 41.462774], [-8.154709, 41.471808], [-8.154786, 41.480816], [-8.150955, 41.489795], [-8.146074, 41.494209], [-8.134013, 41.500311], [-8.122013, 41.501668], [-8.098912, 41.498407], [-8.086194, 41.492744], [-8.079779, 41.489248], [-8.073269, 41.480188], [-8.072246, 41.475343], [-8.066074, 41.483218], [-8.066069, 41.48817], [-8.071755, 41.489974], [-8.072052, 41.492567]]], [[[-8.184673, 41.376756], [-8.18416, 41.381946], [-8.187422, 41.390977], [-8.19792, 41.400058], [-8.207076, 41.403806], [-8.21902, 41.405486], [-8.231, 41.404098], [-8.243026, 41.398696], [-8.25037, 41.391404], [-8.254053, 41.382421], [-8.253128, 41.373407], [-8.247552, 41.364413], [-8.245461, 41.364781], [-8.244272, 41.368384], [-8.239197, 41.371315], [-8.22647, 41.370426], [-8.23139, 41.370991], [-8.234403, 41.373284], [-8.237653, 41.382313], [-8.231159, 41.390589], [-8.217197, 41.391183], [-8.207662, 41.38211], [-8.210741, 41.37584], [-8.200358, 41.377648], [-8.194677, 41.374275], [-8.191691, 41.376302], [-8.189299, 41.375403], [-8.184673, 41.376756]]], [[[-8.214397, 41.372025], [-8.219449, 41.369619], [-8.222163, 41.369931], [-8.21738, 41.368182], [-8.214397, 41.372025]]], [[[-8.22258, 41.369979], [-8.22258, 41.369979], [-8.223358, 41.370069], [-8.22258, 41.369979]]]]}}, {"id": "4", "type": "Feature", "properties": {"fill": "#e57b10", "value_min": -1.75, "value_max": -1.5}, "geometry": {"type": "MultiPolygon", "coordinates": [[[[-7.949902, 41.771439], [-7.964106, 41.767483], [-7.970603, 41.758535], [-7.967774, 41.749503], [-7.96236, 41.744968], [-7.950397, 41.741052], [-7.93835, 41.742334], [-7.927187, 41.749131], [-7.922154, 41.758091], [-7.927401, 41.767147], [-7.937878, 41.770956], [-7.949902, 41.771439]], [[-7.937914, 41.768804], [-7.933512, 41.767203], [-7.927909, 41.758144], [-7.934505, 41.749199], [-7.938275, 41.746904], [-7.95032, 41.74579], [-7.95773, 41.749412], [-7.963663, 41.758473], [-7.956763, 41.767417], [-7.949935, 41.769397], [-7.937914, 41.768804]]], [[[-8.431767, 41.717153], [-8.419703, 41.708371], [-8.407646, 41.712445], [-8.404109, 41.716566], [-8.405884, 41.722844], [-8.417349, 41.725067], [-8.41974, 41.722135], [-8.429643, 41.719859], [-8.431767, 41.717153]]], [[[-7.842673, 41.712711], [-7.854658, 41.714739], [-7.857654, 41.712433], [-7.86028, 41.703452], [-7.854956, 41.697952], [-7.842896, 41.700303], [-7.839775, 41.703247], [-7.842673, 41.712711]]], [[[-8.023672, 41.667116], [-8.036151, 41.660027], [-8.023925, 41.650315], [-8.013241, 41.659832], [-8.023672, 41.667116]]], [[[-8.072196, 41.633956], [-8.084169, 41.636301], [-8.096218, 41.633251], [-8.107273, 41.624573], [-8.112946, 41.61561], [-8.113052, 41.606603], [-8.10868, 41.600156], [-8.096778, 41.593105], [-8.0848, 41.591641], [-8.072771, 41.593803], [-8.065707, 41.597221], [-8.05654, 41.606153], [-8.054376, 41.615143], [-8.058048, 41.62418], [-8.072196, 41.633956]], [[-8.084255, 41.630226], [-8.070341, 41.62428], [-8.065669, 41.615235], [-8.069247, 41.606257], [-8.072632, 41.603515], [-8.084696, 41.59904], [-8.096674, 41.600577], [-8.104306, 41.606536], [-8.106732, 41.615562], [-8.101008, 41.624524], [-8.096288, 41.628229], [-8.084255, 41.630226]]], [[[-8.625006, 41.542226], [-8.637013, 41.539073], [-8.643894, 41.528407], [-8.640302, 41.519389], [-8.625177, 41.51267], [-8.613181, 41.514802], [-8.607116, 41.51928], [-8.60455, 41.528279], [-8.613035, 41.539316], [-8.625006, 41.542226]], [[-8.618794, 41.528327], [-8.625127, 41.521264], [-8.62965, 41.528362], [-8.625069, 41.531299], [-8.618794, 41.528327]]], [[[-8.072246, 41.475343], [-8.073269, 41.480188], [-8.079779, 41.489248], [-8.086194, 41.492744], [-8.098912, 41.498407], [-8.122013, 41.501668], [-8.134013, 41.500311], [-8.146074, 41.494209], [-8.150955, 41.489795], [-8.154786, 41.480816], [-8.154709, 41.471808], [-8.151081, 41.462774], [-8.146562, 41.457036], [-8.134704, 41.448382], [-8.122782, 41.444689], [-8.110827, 41.443482], [-8.098835, 41.445039], [-8.086798, 41.449697], [-8.081748, 41.453234], [-8.073375, 41.464764], [-8.074164, 41.473543], [-8.072246, 41.475343]], [[-8.118597, 41.498559], [-8.110081, 41.498058], [-8.098156, 41.49404], [-8.089426, 41.489324], [-8.083281, 41.480268], [-8.083286, 41.471261], [-8.08921, 41.462301], [-8.098681, 41.456138], [-8.11069, 41.4535], [-8.122653, 41.454233], [-8.134565, 41.458779], [-8.145795, 41.471742], [-8.146821, 41.480757], [-8.142746, 41.489734], [-8.134076, 41.49552], [-8.118597, 41.498559]]], [[[-8.210741, 41.37584], [-8.207662, 41.38211], [-8.217197, 41.391183], [-8.231159, 41.390589], [-8.237653, 41.382313], [-8.234403, 41.373284], [-8.23139, 41.370991], [-8.22647, 41.370426], [-8.223358, 41.370069], [-8.22258, 41.369979], [-8.222163, 41.369931], [-8.219449, 41.369619], [-8.214397, 41.372025], [-8.214399, 41.373587], [-8.210741, 41.37584]]]]}}, {"id": "3", "type": "Feature", "properties": {"fill": "#c93e18", "value_min": -2.0, "value_max": -1.75}, "geometry": {"type": "MultiPolygon", "coordinates": [[[[-7.937914, 41.768804], [-7.949935, 41.769397], [-7.956763, 41.767417], [-7.963663, 41.758473], [-7.95773, 41.749412], [-7.95032, 41.74579], [-7.938275, 41.746904], [-7.934505, 41.749199], [-7.927909, 41.758144], [-7.933512, 41.767203], [-7.937914, 41.768804]], [[-7.937969, 41.765431], [-7.932777, 41.75819], [-7.938191, 41.752023], [-7.95024, 41.750727], [-7.95779, 41.758419], [-7.949969, 41.767354], [-7.937969, 41.765431]]], [[[-8.084255, 41.630226], [-8.096288, 41.628229], [-8.101008, 41.624524], [-8.106732, 41.615562], [-8.104306, 41.606536], [-8.096674, 41.600577], [-8.084696, 41.59904], [-8.072632, 41.603515], [-8.069247, 41.606257], [-8.065669, 41.615235], [-8.070341, 41.62428], [-8.084255, 41.630226]], [[-8.082685, 41.624379], [-8.074949, 41.61531], [-8.084604, 41.605549], [-8.096572, 41.60789], [-8.100714, 41.615515], [-8.096374, 41.622098], [-8.088432, 41.624425], [-8.082685, 41.624379]]], [[[-8.618794, 41.528327], [-8.625069, 41.531299], [-8.62965, 41.528362], [-8.625127, 41.521264], [-8.618794, 41.528327]]], [[[-8.118597, 41.498559], [-8.134076, 41.49552], [-8.142746, 41.489734], [-8.146821, 41.480757], [-8.145795, 41.471742], [-8.134565, 41.458779], [-8.122653, 41.454233], [-8.11069, 41.4535], [-8.098681, 41.456138], [-8.08921, 41.462301], [-8.083286, 41.471261], [-8.083281, 41.480268], [-8.089426, 41.489324], [-8.098156, 41.49404], [-8.110081, 41.498058], [-8.118597, 41.498559]], [[-8.122102, 41.495072], [-8.110128, 41.494633], [-8.098213, 41.489942], [-8.091509, 41.480334], [-8.093449, 41.471342], [-8.098543, 41.466123], [-8.110585, 41.461232], [-8.12255, 41.46185], [-8.134439, 41.468313], [-8.13734, 41.471679], [-8.139792, 41.480705], [-8.135246, 41.489678], [-8.122102, 41.495072]]]]}}, {"id": "0", "type": "Feature", "properties": {"fill": "#951d1d", "value_min": -2.75, "value_max": -2.5}, "geometry": {"type": "Polygon", "coordinates": [[[-8.122321, 41.47883], [-8.110352, 41.478272], [-8.108543, 41.480467], [-8.110287, 41.482979], [-8.12227, 41.482618], [-8.123637, 41.480583], [-8.122321, 41.47883]]]}}, {"id": "8", "type": "Feature", "properties": {"fill": "#a3a3a3", "value_min": -0.75, "value_max": -0.5}, "geometry": {"type": "MultiPolygon", "coordinates": [[[[-8.609143, 41.608513], [-8.614156, 41.606692], [-8.619881, 41.610269], [-8.621338, 41.604636], [-8.628833, 41.604378], [-8.6366, 41.600518], [-8.639873, 41.597352], [-8.640152, 41.59465], [-8.645536, 41.593051], [-8.646744, 41.594171], [-8.649125, 41.591909], [-8.656622, 41.5921], [-8.660788, 41.588255], [-8.663794, 41.589141], [-8.665265, 41.585758], [-8.66948, 41.587989], [-8.684455, 41.586117], [-8.685608, 41.58071], [-8.697261, 41.576376], [-8.701703, 41.570277], [-8.707704, 41.570923], [-8.712485, 41.569323], [-8.716422, 41.573805], [-8.720316, 41.57356], [-8.725151, 41.577811], [-8.726633, 41.576003], [-8.734424, 41.575737], [-8.736564, 41.580228], [-8.738354, 41.579318], [-8.740778, 41.582006], [-8.74467, 41.581535], [-8.750711, 41.58623], [-8.75993, 41.578527], [-8.767441, 41.580286], [-8.769874, 41.583874], [-8.768997, 41.58613], [-8.773228, 41.589482], [-8.774165, 41.593303], [-8.78556, 41.593464], [-8.797327, 41.600599], [-8.804218, 41.600109], [-8.80456, 41.604158], [-8.809434, 41.611332], [-8.828644, 41.609656], [-8.82839, 41.585633], [-8.821576, 41.567535], [-8.821869, 41.563361], [-8.764228, 41.537724], [-8.738156, 41.528661], [-8.68509, 41.513695], [-8.661168, 41.505049], [-8.63583, 41.492352], [-8.613404, 41.477285], [-8.590404, 41.465177], [-8.571845, 41.447095], [-8.565723, 41.443065], [-8.553778, 41.439307], [-8.541799, 41.440665], [-8.530458, 41.446933], [-8.515513, 41.464886], [-8.481652, 41.477649], [-8.469607, 41.485964], [-8.455937, 41.50065], [-8.451902, 41.509638], [-8.456651, 41.518668], [-8.48121, 41.5331], [-8.493178, 41.535556], [-8.505171, 41.534865], [-8.529186, 41.529405], [-8.541169, 41.529911], [-8.553106, 41.537156], [-8.584305, 41.573244], [-8.609143, 41.608513]], [[-8.648779, 41.58028], [-8.636783, 41.580107], [-8.6248, 41.57798], [-8.612832, 41.573303], [-8.600876, 41.566917], [-8.588944, 41.557177], [-8.57924, 41.546204], [-8.569754, 41.528154], [-8.568977, 41.519144], [-8.571703, 41.510146], [-8.579879, 41.501169], [-8.589335, 41.495383], [-8.601336, 41.492048], [-8.613317, 41.491883], [-8.625283, 41.494338], [-8.659358, 41.510439], [-8.672757, 41.519486], [-8.682573, 41.528521], [-8.688093, 41.537543], [-8.690246, 41.546556], [-8.688873, 41.55556], [-8.684853, 41.562581], [-8.672298, 41.573529], [-8.660785, 41.57832], [-8.648779, 41.58028]], [[-8.485189, 41.527806], [-8.481254, 41.527561], [-8.464472, 41.518704], [-8.460697, 41.509679], [-8.464978, 41.500692], [-8.469523, 41.496245], [-8.481549, 41.490554], [-8.493536, 41.48958], [-8.505486, 41.493456], [-8.514575, 41.500912], [-8.516814, 41.509929], [-8.513359, 41.518922], [-8.505251, 41.524358], [-8.493233, 41.528501], [-8.485189, 41.527806]]], [[[-8.514632, 41.664283], [-8.468212, 41.656347], [-8.432184, 41.655934], [-8.420132, 41.660605], [-8.40973, 41.67156], [-8.396634, 41.680499], [-8.383872, 41.684391], [-8.371845, 41.68559], [-8.359842, 41.684347], [-8.347866, 41.680397], [-8.337499, 41.671166], [-8.334173, 41.66214], [-8.331987, 41.635106], [-8.328303, 41.626077], [-8.321225, 41.617028], [-8.297979, 41.598874], [-8.281772, 41.589767], [-8.229078, 41.566439], [-8.217165, 41.559815], [-8.205277, 41.551293], [-8.193456, 41.537637], [-8.18904, 41.526099], [-8.190478, 41.508095], [-8.197233, 41.490127], [-8.206198, 41.475898], [-8.218318, 41.463976], [-8.230387, 41.456023], [-8.267194, 41.43655], [-8.278654, 41.427615], [-8.28665, 41.418657], [-8.291373, 41.409679], [-8.294924, 41.391686], [-8.294032, 41.310925], [-8.281801, 41.316569], [-8.281808, 41.319721], [-8.278828, 41.321976], [-8.278238, 41.325128], [-8.273161, 41.325134], [-8.269582, 41.326939], [-8.265709, 41.331221], [-8.269001, 41.334818], [-8.26764, 41.337071], [-8.276596, 41.355542], [-8.280274, 41.37358], [-8.278763, 41.391586], [-8.27542, 41.400572], [-8.2668, 41.412169], [-8.254726, 41.421708], [-8.218627, 41.438311], [-8.206561, 41.446125], [-8.194365, 41.464342], [-8.17937, 41.499009], [-8.169788, 41.513484], [-8.157722, 41.519847], [-8.145756, 41.518398], [-8.109934, 41.508772], [-8.0921, 41.507829], [-8.0906, 41.512811], [-8.097914, 41.511452], [-8.109889, 41.512089], [-8.126215, 41.516632], [-8.137458, 41.525724], [-8.140438, 41.534754], [-8.135556, 41.543724], [-8.121342, 41.551286], [-8.109325, 41.553197], [-8.097345, 41.552418], [-8.082788, 41.547264], [-8.080687, 41.551651], [-8.074396, 41.549848], [-8.072897, 41.551197], [-8.076787, 41.5576], [-8.077202, 41.557727], [-8.077386, 41.557784], [-8.077686, 41.557876], [-8.079783, 41.558519], [-8.10918, 41.563752], [-8.145146, 41.564722], [-8.15711, 41.566977], [-8.169026, 41.573056], [-8.177832, 41.580063], [-8.193044, 41.598185], [-8.210286, 41.625327], [-8.219286, 41.634395], [-8.240091, 41.650098], [-8.250961, 41.661628], [-8.256352, 41.67067], [-8.258721, 41.679692], [-8.258176, 41.688696], [-8.254522, 41.697679], [-8.247826, 41.706642], [-8.236333, 41.715574], [-8.227247, 41.719885], [-8.215205, 41.721534], [-8.203206, 41.719646], [-8.167329, 41.704979], [-8.143051, 41.723076], [-8.130999, 41.725195], [-8.127506, 41.723806], [-8.121736, 41.714755], [-8.12766, 41.705793], [-8.131311, 41.702079], [-8.14339, 41.697517], [-8.150095, 41.696954], [-8.156885, 41.687997], [-8.152981, 41.678961], [-8.143705, 41.673758], [-8.131693, 41.673663], [-8.119611, 41.678718], [-8.095347, 41.695469], [-8.083307, 41.697106], [-8.059476, 41.683023], [-8.047475, 41.682131], [-8.031156, 41.687006], [-8.016792, 41.695891], [-8.015372, 41.704886], [-8.052996, 41.74123], [-8.057712, 41.750276], [-8.059689, 41.759299], [-8.05824, 41.768294], [-8.053413, 41.777261], [-8.041664, 41.78617], [-8.033858, 41.789078], [-8.021798, 41.790765], [-7.997759, 41.788741], [-7.949796, 41.777923], [-7.937766, 41.77774], [-7.913627, 41.782141], [-7.905767, 41.784956], [-7.90202, 41.793927], [-7.903718, 41.811957], [-7.901088, 41.820939], [-7.894689, 41.829884], [-7.888628, 41.836057], [-7.876468, 41.842726], [-7.864389, 41.844623], [-7.852382, 41.842512], [-7.840458, 41.835836], [-7.833561, 41.82928], [-7.827396, 41.82021], [-7.824003, 41.811169], [-7.823411, 41.775135], [-7.818723, 41.76608], [-7.810921, 41.756993], [-7.774091, 41.726568], [-7.7678, 41.723276], [-7.763888, 41.724389], [-7.761765, 41.727758], [-7.762933, 41.733839], [-7.759307, 41.737203], [-7.759597, 41.739005], [-7.75689, 41.739446], [-7.758687, 41.740577], [-7.757758, 41.745301], [-7.748719, 41.749167], [-7.757751, 41.753166], [-7.773124, 41.765603], [-7.779245, 41.774675], [-7.790756, 41.810823], [-7.839114, 41.873602], [-7.839222, 41.873765], [-7.839264, 41.873828], [-7.842528, 41.875187], [-7.841663, 41.866632], [-7.848912, 41.861698], [-7.858542, 41.862622], [-7.859456, 41.860148], [-7.865481, 41.859262], [-7.87033, 41.851395], [-7.873043, 41.850501], [-7.873066, 41.844875], [-7.879956, 41.853217], [-7.888076, 41.855486], [-7.891675, 41.859094], [-7.896425, 41.859779], [-7.919768, 41.812109], [-7.91745, 41.794074], [-7.92313, 41.78512], [-7.937721, 41.780504], [-7.949753, 41.78057], [-7.965798, 41.785512], [-7.985424, 41.807764], [-8.005265, 41.821888], [-8.013061, 41.829586], [-8.014266, 41.828899], [-8.017873, 41.831379], [-8.02901, 41.829589], [-8.037134, 41.831171], [-8.041351, 41.828023], [-8.041054, 41.825097], [-8.045268, 41.824425], [-8.046775, 41.821951], [-8.056712, 41.81588], [-8.06664, 41.817012], [-8.072961, 41.813414], [-8.078678, 41.813417], [-8.082892, 41.810493], [-8.091013, 41.812521], [-8.093421, 41.811397], [-8.093723, 41.808471], [-8.101845, 41.809824], [-8.104853, 41.81185], [-8.115984, 41.812302], [-8.123807, 41.808702], [-8.138247, 41.808477], [-8.139751, 41.813203], [-8.14276, 41.812978], [-8.144866, 41.815228], [-8.149078, 41.814777], [-8.153291, 41.817703], [-8.158106, 41.818377], [-8.165326, 41.81815], [-8.171039, 41.811991], [-8.154016, 41.803574], [-8.14209, 41.795208], [-8.133534, 41.7869], [-8.12245, 41.768802], [-8.120808, 41.759783], [-8.121876, 41.750784], [-8.127778, 41.741822], [-8.139807, 41.732906], [-8.167144, 41.719303], [-8.179165, 41.719434], [-8.215061, 41.733394], [-8.227074, 41.734288], [-8.239155, 41.729517], [-8.263389, 41.713227], [-8.287558, 41.701649], [-8.299601, 41.699412], [-8.311615, 41.699886], [-8.323572, 41.705689], [-8.335443, 41.720094], [-8.346111, 41.743272], [-8.350191, 41.757401], [-8.352557, 41.755145], [-8.34982, 41.745922], [-8.349814, 41.744122], [-8.352516, 41.743441], [-8.352203, 41.739616], [-8.357897, 41.735103], [-8.362407, 41.735994], [-8.363681, 41.734866], [-8.361287, 41.725343], [-8.361454, 41.716337], [-8.365542, 41.707353], [-8.377822, 41.698413], [-8.407885, 41.686341], [-8.419934, 41.682725], [-8.431962, 41.681185], [-8.443974, 41.681549], [-8.45597, 41.68383], [-8.469738, 41.689009], [-8.482012, 41.682123], [-8.484371, 41.674238], [-8.49308, 41.674886], [-8.499963, 41.671038], [-8.50927, 41.671233], [-8.51018, 41.672806], [-8.511967, 41.670324], [-8.509856, 41.668755], [-8.514632, 41.664283]], [[-8.058809, 41.728799], [-8.046839, 41.725194], [-8.034939, 41.716972], [-8.026553, 41.704981], [-8.029758, 41.696001], [-8.035307, 41.69235], [-8.047388, 41.687975], [-8.059389, 41.688998], [-8.071849, 41.696349], [-8.081518, 41.705433], [-8.084105, 41.714461], [-8.078677, 41.723425], [-8.07085, 41.727586], [-8.058809, 41.728799]], [[-8.10712, 41.713147], [-8.097434, 41.70556], [-8.100778, 41.696579], [-8.11952, 41.685399], [-8.129069, 41.68779], [-8.133196, 41.696828], [-8.119172, 41.710883], [-8.10712, 41.713147]]], [[[-7.914367, 41.738213], [-7.935111, 41.722184], [-7.940908, 41.713231], [-7.943438, 41.704247], [-7.939197, 41.690855], [-7.92738, 41.67887], [-7.915452, 41.673711], [-7.903447, 41.673252], [-7.891335, 41.678984], [-7.878986, 41.698252], [-7.866808, 41.730537], [-7.866834, 41.739545], [-7.878119, 41.748153], [-7.890136, 41.74871], [-7.902219, 41.745414], [-7.914367, 41.738213]], [[-7.902358, 41.737285], [-7.890323, 41.737881], [-7.878403, 41.731816], [-7.874658, 41.721608], [-7.877086, 41.712625], [-7.883, 41.703675], [-7.891054, 41.69534], [-7.903136, 41.691559], [-7.915992, 41.694984], [-7.92564, 41.704082], [-7.927478, 41.713106], [-7.924437, 41.722084], [-7.915236, 41.731005], [-7.902358, 41.737285]]], [[[-8.15615, 41.640714], [-8.158143, 41.633964], [-8.147574, 41.624879], [-8.144363, 41.624049], [-8.132351, 41.624635], [-8.122992, 41.633701], [-8.12526, 41.642725], [-8.132028, 41.648747], [-8.144024, 41.649661], [-8.155685, 41.642953], [-8.15615, 41.640714]]], [[[-8.80421, 41.258989], [-8.781836, 41.252752], [-8.757974, 41.249827], [-8.722163, 41.250785], [-8.698275, 41.254568], [-8.684253, 41.258297], [-8.665344, 41.267252], [-8.655953, 41.276232], [-8.652237, 41.285228], [-8.652428, 41.294237], [-8.656089, 41.303255], [-8.673242, 41.321321], [-8.697888, 41.338375], [-8.721743, 41.349737], [-8.745626, 41.356194], [-8.769529, 41.358118], [-8.793446, 41.355873], [-8.807872, 41.351941], [-8.80421, 41.258989]], [[-8.745736, 41.327891], [-8.733777, 41.33013], [-8.721827, 41.330057], [-8.709887, 41.32785], [-8.697958, 41.323162], [-8.68317, 41.312341], [-8.676855, 41.303315], [-8.674658, 41.294302], [-8.676387, 41.285299], [-8.686245, 41.273984], [-8.699386, 41.267345], [-8.722109, 41.263693], [-8.734044, 41.264495], [-8.745971, 41.267218], [-8.763205, 41.276502], [-8.77059, 41.285525], [-8.773845, 41.294539], [-8.773297, 41.303546], [-8.768894, 41.312545], [-8.759535, 41.321533], [-8.745736, 41.327891]]]]}}, {"id": "9", "type": "Feature", "properties": {"fill": "#a3a3a3", "value_min": -0.5, "value_max": -0.25}, "geometry": {"type": "MultiPolygon", "coordinates": [[[[-7.839264, 41.873828], [-7.839264, 41.873828], [-7.839222, 41.873765], [-7.839264, 41.873828]]], [[[-7.839114, 41.873602], [-7.790756, 41.810823], [-7.779245, 41.774675], [-7.773124, 41.765603], [-7.757751, 41.753166], [-7.748719, 41.749167], [-7.746897, 41.752242], [-7.747786, 41.754496], [-7.743866, 41.756509], [-7.740214, 41.763924], [-7.726937, 41.771755], [-7.7254, 41.777152], [-7.726893, 41.778865], [-7.732206, 41.774165], [-7.736757, 41.774215], [-7.745275, 41.77614], [-7.750307, 41.78337], [-7.744923, 41.794169], [-7.732854, 41.795883], [-7.726163, 41.792112], [-7.723918, 41.78705], [-7.722591, 41.793347], [-7.728879, 41.797871], [-7.72705, 41.801691], [-7.728171, 41.814974], [-7.733243, 41.821749], [-7.756413, 41.822411], [-7.768388, 41.825855], [-7.780318, 41.831727], [-7.796871, 41.846914], [-7.801822, 41.855973], [-7.804066, 41.874183], [-7.804914, 41.869459], [-7.813032, 41.871958], [-7.814229, 41.873537], [-7.823863, 41.874013], [-7.825059, 41.875817], [-7.839114, 41.873602]]], [[[-7.725014, 41.780527], [-7.725014, 41.780527], [-7.725267, 41.780302], [-7.725014, 41.780527]]], [[[-7.725381, 41.780202], [-7.725381, 41.780202], [-7.725521, 41.780078], [-7.725381, 41.780202]]], [[[-7.725683, 41.779935], [-7.725683, 41.779935], [-7.725774, 41.779854], [-7.725683, 41.779935]]], [[[-7.725986, 41.779667], [-7.725986, 41.779667], [-7.726028, 41.77963], [-7.725986, 41.779667]]], [[[-8.013061, 41.829586], [-8.005265, 41.821888], [-7.985424, 41.807764], [-7.965798, 41.785512], [-7.949753, 41.78057], [-7.937721, 41.780504], [-7.92313, 41.78512], [-7.91745, 41.794074], [-7.919768, 41.812109], [-7.896425, 41.859779], [-7.900698, 41.861588], [-7.904318, 41.859795], [-7.907309, 41.865203], [-7.906095, 41.868126], [-7.910299, 41.871285], [-7.909985, 41.875111], [-7.915391, 41.879397], [-7.928949, 41.877847], [-7.935283, 41.874707], [-7.937389, 41.87516], [-7.941015, 41.871115], [-7.944319, 41.871346], [-7.936252, 41.869264], [-7.924353, 41.860301], [-7.919086, 41.84813], [-7.919975, 41.839131], [-7.924858, 41.830112], [-7.937086, 41.818927], [-7.949203, 41.81427], [-7.961205, 41.816549], [-7.973145, 41.822811], [-7.982609, 41.830697], [-7.98744, 41.839746], [-7.987904, 41.848757], [-7.983947, 41.857729], [-7.972427, 41.86769], [-7.960309, 41.871928], [-7.953961, 41.872156], [-7.956367, 41.87339], [-7.956362, 41.875191], [-7.960878, 41.875648], [-7.96299, 41.874075], [-7.972322, 41.875439], [-7.987996, 41.869157], [-7.990123, 41.860157], [-7.995547, 41.858138], [-7.994047, 41.855211], [-7.996162, 41.851837], [-8.003089, 41.850494], [-8.005804, 41.847346], [-8.007928, 41.838796], [-8.012753, 41.833624], [-8.013061, 41.829586]], [[-7.960923, 41.794475], [-7.955504, 41.803433], [-7.949276, 41.809747], [-7.937289, 41.806666], [-7.928048, 41.794173], [-7.931976, 41.785203], [-7.937675, 41.783268], [-7.94971, 41.783217], [-7.956235, 41.785426], [-7.960923, 41.794475]]], [[[-8.350191, 41.757401], [-8.346111, 41.743272], [-8.335443, 41.720094], [-8.323572, 41.705689], [-8.311615, 41.699886], [-8.299601, 41.699412], [-8.287558, 41.701649], [-8.263389, 41.713227], [-8.239155, 41.729517], [-8.227074, 41.734288], [-8.215061, 41.733394], [-8.179165, 41.719434], [-8.167144, 41.719303], [-8.139807, 41.732906], [-8.127778, 41.741822], [-8.121876, 41.750784], [-8.120808, 41.759783], [-8.12245, 41.768802], [-8.133534, 41.7869], [-8.14209, 41.795208], [-8.154016, 41.803574], [-8.171039, 41.811991], [-8.173744, 41.808019], [-8.177054, 41.808017], [-8.182773, 41.812516], [-8.190291, 41.809587], [-8.197158, 41.814129], [-8.201063, 41.808724], [-8.204973, 41.807372], [-8.205872, 41.804445], [-8.213692, 41.803765], [-8.217598, 41.80016], [-8.217589, 41.793634], [-8.224207, 41.794303], [-8.229917, 41.791598], [-8.240744, 41.791588], [-8.24074, 41.789338], [-8.244347, 41.787984], [-8.245546, 41.785731], [-8.251257, 41.784375], [-8.252534, 41.777171], [-8.24532, 41.769675], [-8.241948, 41.760646], [-8.242564, 41.751643], [-8.246895, 41.742664], [-8.255148, 41.733711], [-8.263222, 41.727827], [-8.27531, 41.722102], [-8.287358, 41.71981], [-8.29937, 41.720739], [-8.31005, 41.725047], [-8.321142, 41.73412], [-8.326451, 41.743158], [-8.328494, 41.752177], [-8.325939, 41.765097], [-8.328234, 41.763292], [-8.336653, 41.763728], [-8.341756, 41.761468], [-8.344765, 41.762363], [-8.349267, 41.760103], [-8.350191, 41.757401]], [[-8.190568, 41.768687], [-8.178492, 41.772189], [-8.166467, 41.771685], [-8.154494, 41.767196], [-8.146461, 41.759976], [-8.142835, 41.750942], [-8.144382, 41.741947], [-8.154963, 41.731456], [-8.167051, 41.726504], [-8.179071, 41.726777], [-8.193492, 41.733295], [-8.201585, 41.742358], [-8.204161, 41.751383], [-8.201197, 41.76037], [-8.190568, 41.768687]]], [[[-7.902358, 41.737285], [-7.915236, 41.731005], [-7.924437, 41.722084], [-7.927478, 41.713106], [-7.92564, 41.704082], [-7.915992, 41.694984], [-7.903136, 41.691559], [-7.891054, 41.69534], [-7.883, 41.703675], [-7.877086, 41.712625], [-7.874658, 41.721608], [-7.878403, 41.731816], [-7.890323, 41.737881], [-7.902358, 41.737285]], [[-7.91461, 41.723815], [-7.902456, 41.731515], [-7.88905, 41.730755], [-7.879928, 41.721659], [-7.881444, 41.712667], [-7.890938, 41.702085], [-7.902992, 41.700022], [-7.914898, 41.706677], [-7.918643, 41.713023], [-7.91461, 41.723815]]], [[[-8.058809, 41.728799], [-8.07085, 41.727586], [-8.078677, 41.723425], [-8.084105, 41.714461], [-8.081518, 41.705433], [-8.071849, 41.696349], [-8.059389, 41.688998], [-8.047388, 41.687975], [-8.035307, 41.69235], [-8.029758, 41.696001], [-8.026553, 41.704981], [-8.034939, 41.716972], [-8.046839, 41.725194], [-8.058809, 41.728799]], [[-8.071157, 41.70626], [-8.069116, 41.714341], [-8.058935, 41.720168], [-8.046932, 41.718859], [-8.039912, 41.7141], [-8.034275, 41.705046], [-8.039726, 41.696085], [-8.047321, 41.692555], [-8.059325, 41.693406], [-8.064143, 41.696286], [-8.071157, 41.70626]]], [[[-8.10712, 41.713147], [-8.119172, 41.710883], [-8.133196, 41.696828], [-8.129069, 41.68779], [-8.11952, 41.685399], [-8.100778, 41.696579], [-8.097434, 41.70556], [-8.10712, 41.713147]], [[-8.119442, 41.691064], [-8.126212, 41.696775], [-8.119249, 41.705246], [-8.108002, 41.696635], [-8.119442, 41.691064]]], [[[-8.294032, 41.310925], [-8.294924, 41.391686], [-8.291373, 41.409679], [-8.28665, 41.418657], [-8.278654, 41.427615], [-8.267194, 41.43655], [-8.230387, 41.456023], [-8.218318, 41.463976], [-8.206198, 41.475898], [-8.197233, 41.490127], [-8.190478, 41.508095], [-8.18904, 41.526099], [-8.193456, 41.537637], [-8.205277, 41.551293], [-8.217165, 41.559815], [-8.229078, 41.566439], [-8.281772, 41.589767], [-8.297979, 41.598874], [-8.321225, 41.617028], [-8.328303, 41.626077], [-8.331987, 41.635106], [-8.334173, 41.66214], [-8.337499, 41.671166], [-8.347866, 41.680397], [-8.359842, 41.684347], [-8.371845, 41.68559], [-8.383872, 41.684391], [-8.396634, 41.680499], [-8.40973, 41.67156], [-8.420132, 41.660605], [-8.432184, 41.655934], [-8.468212, 41.656347], [-8.514632, 41.664283], [-8.522103, 41.658811], [-8.525706, 41.659023], [-8.527769, 41.652714], [-8.534066, 41.652017], [-8.537951, 41.649302], [-8.537634, 41.646602], [-8.543876, 41.637352], [-8.543855, 41.633976], [-8.536342, 41.631977], [-8.535128, 41.62973], [-8.542539, 41.615735], [-8.528536, 41.61882], [-8.516535, 41.618519], [-8.50455, 41.616132], [-8.492586, 41.611224], [-8.456751, 41.59086], [-8.420854, 41.579986], [-8.404886, 41.572455], [-8.376031, 41.554288], [-8.361175, 41.54943], [-8.313282, 41.542941], [-8.301294, 41.542799], [-8.26528, 41.546902], [-8.24132, 41.545244], [-8.229371, 41.541788], [-8.218167, 41.535308], [-8.209215, 41.52624], [-8.205111, 41.517204], [-8.204281, 41.508191], [-8.206375, 41.499198], [-8.211467, 41.490226], [-8.21809, 41.483009], [-8.230161, 41.475142], [-8.242189, 41.470762], [-8.278222, 41.46127], [-8.301906, 41.445773], [-8.312829, 41.436832], [-8.320007, 41.427867], [-8.321576, 41.418869], [-8.313127, 41.391796], [-8.310298, 41.373764], [-8.312447, 41.355762], [-8.320677, 41.33845], [-8.316788, 41.335876], [-8.313802, 41.336331], [-8.310792, 41.327557], [-8.308701, 41.327561], [-8.307502, 41.325762], [-8.305116, 41.326891], [-8.303024, 41.325994], [-8.303615, 41.323742], [-8.301216, 41.319694], [-8.296431, 41.316774], [-8.296415, 41.310472], [-8.294032, 41.310925]]], [[[-8.609143, 41.608513], [-8.584305, 41.573244], [-8.553106, 41.537156], [-8.541169, 41.529911], [-8.529186, 41.529405], [-8.505171, 41.534865], [-8.493178, 41.535556], [-8.48121, 41.5331], [-8.456651, 41.518668], [-8.451902, 41.509638], [-8.455937, 41.50065], [-8.469607, 41.485964], [-8.481652, 41.477649], [-8.515513, 41.464886], [-8.530458, 41.446933], [-8.541799, 41.440665], [-8.553778, 41.439307], [-8.565723, 41.443065], [-8.571845, 41.447095], [-8.590404, 41.465177], [-8.613404, 41.477285], [-8.63583, 41.492352], [-8.661168, 41.505049], [-8.68509, 41.513695], [-8.738156, 41.528661], [-8.764228, 41.537724], [-8.821869, 41.563361], [-8.818497, 41.554794], [-8.8221, 41.547542], [-8.821965, 41.534907], [-8.815926, 41.525624], [-8.81063, 41.5101], [-8.813279, 41.503483], [-8.812976, 41.498005], [-8.804699, 41.482068], [-8.798552, 41.474753], [-8.80154, 41.446836], [-8.806115, 41.43713], [-8.807354, 41.425915], [-8.811166, 41.417099], [-8.807872, 41.351941], [-8.793446, 41.355873], [-8.769529, 41.358118], [-8.745626, 41.356194], [-8.721743, 41.349737], [-8.697888, 41.338375], [-8.673242, 41.321321], [-8.656089, 41.303255], [-8.652428, 41.294237], [-8.652237, 41.285228], [-8.655953, 41.276232], [-8.665344, 41.267252], [-8.684253, 41.258297], [-8.698275, 41.254568], [-8.722163, 41.250785], [-8.757974, 41.249827], [-8.781836, 41.252752], [-8.80421, 41.258989], [-8.801801, 41.197711], [-8.783884, 41.213488], [-8.768067, 41.222465], [-8.745203, 41.231425], [-8.698332, 41.242056], [-8.626687, 41.249212], [-8.614736, 41.251839], [-8.578839, 41.265721], [-8.566882, 41.268573], [-8.55494, 41.269035], [-8.543015, 41.266913], [-8.531104, 41.263075], [-8.519217, 41.256208], [-8.510558, 41.248682], [-8.503587, 41.239644], [-8.497578, 41.221996], [-8.493861, 41.223583], [-8.487935, 41.230354], [-8.490333, 41.232598], [-8.484411, 41.240495], [-8.476346, 41.237818], [-8.475756, 41.23917], [-8.470986, 41.23941], [-8.471604, 41.243459], [-8.469227, 41.245267], [-8.463258, 41.244384], [-8.459989, 41.246644], [-8.454323, 41.246886], [-8.455541, 41.251834], [-8.452276, 41.25522], [-8.449891, 41.255452], [-8.449304, 41.257479], [-8.447812, 41.257258], [-8.449028, 41.261982], [-8.439785, 41.262907], [-8.438023, 41.268989], [-8.434745, 41.269673], [-8.432691, 41.277107], [-8.427032, 41.279372], [-8.429143, 41.284319], [-8.426171, 41.287028], [-8.426488, 41.291079], [-8.425013, 41.294909], [-8.422037, 41.296942], [-8.422647, 41.299867], [-8.40298, 41.307624], [-8.423226, 41.312732], [-8.438702, 41.320416], [-8.447, 41.326862], [-8.457185, 41.33852], [-8.464027, 41.356567], [-8.463264, 41.374579], [-8.455524, 41.401565], [-8.45339, 41.41957], [-8.465114, 41.455655], [-8.465761, 41.464666], [-8.464178, 41.473666], [-8.459963, 41.482654], [-8.439014, 41.509576], [-8.441711, 41.518596], [-8.477655, 41.53678], [-8.481149, 41.540647], [-8.4931, 41.545471], [-8.529072, 41.545174], [-8.541037, 41.548675], [-8.552968, 41.557202], [-8.563859, 41.573168], [-8.566191, 41.582185], [-8.565951, 41.591191], [-8.562668, 41.600186], [-8.554836, 41.609163], [-8.544423, 41.614842], [-8.554533, 41.615255], [-8.557244, 41.617046], [-8.562639, 41.61635], [-8.568056, 41.619031], [-8.570735, 41.616095], [-8.577321, 41.614269], [-8.581231, 41.615829], [-8.585766, 41.620988], [-8.591462, 41.620515], [-8.596534, 41.616668], [-8.601628, 41.615972], [-8.603996, 41.611686], [-8.609143, 41.608513]], [[-8.697136, 41.500437], [-8.685147, 41.502068], [-8.673168, 41.501439], [-8.661202, 41.49851], [-8.647616, 41.492389], [-8.636955, 41.483349], [-8.631238, 41.474323], [-8.629809, 41.465311], [-8.631334, 41.456308], [-8.644088, 41.429326], [-8.635819, 41.420292], [-8.601856, 41.407141], [-8.575467, 41.393063], [-8.563032, 41.384009], [-8.54677, 41.365931], [-8.540856, 41.347892], [-8.544158, 41.32989], [-8.554623, 41.315643], [-8.566627, 41.307145], [-8.578595, 41.303647], [-8.590544, 41.303062], [-8.614412, 41.30684], [-8.626334, 41.31112], [-8.638253, 41.316], [-8.662078, 41.329749], [-8.674781, 41.339341], [-8.691988, 41.357403], [-8.700239, 41.37544], [-8.70128, 41.384451], [-8.695128, 41.411457], [-8.697922, 41.420472], [-8.718118, 41.438539], [-8.725459, 41.447564], [-8.729729, 41.456581], [-8.731129, 41.465592], [-8.729911, 41.474597], [-8.725374, 41.483594], [-8.716078, 41.492579], [-8.697136, 41.500437]]], [[[-8.082788, 41.547264], [-8.097345, 41.552418], [-8.109325, 41.553197], [-8.121342, 41.551286], [-8.135556, 41.543724], [-8.140438, 41.534754], [-8.137458, 41.525724], [-8.126215, 41.516632], [-8.109889, 41.512089], [-8.097914, 41.511452], [-8.0906, 41.512811], [-8.089647, 41.519468], [-8.097861, 41.515297], [-8.109843, 41.515406], [-8.11395, 41.516538], [-8.125801, 41.525636], [-8.125547, 41.534641], [-8.121509, 41.538914], [-8.109447, 41.544321], [-8.097199, 41.543554], [-8.094175, 41.544904], [-8.087885, 41.542876], [-8.083389, 41.5449], [-8.082788, 41.547264]]]]}}, {"id": "7", "type": "Feature", "properties": {"fill": "#a3a3a3", "value_min": -1.0, "value_max": -0.75}, "geometry": {"type": "MultiPolygon", "coordinates": [[[[-7.774091, 41.726568], [-7.810921, 41.756993], [-7.818723, 41.76608], [-7.823411, 41.775135], [-7.824003, 41.811169], [-7.827396, 41.82021], [-7.833561, 41.82928], [-7.840458, 41.835836], [-7.852382, 41.842512], [-7.864389, 41.844623], [-7.876468, 41.842726], [-7.888628, 41.836057], [-7.894689, 41.829884], [-7.901088, 41.820939], [-7.903718, 41.811957], [-7.90202, 41.793927], [-7.905767, 41.784956], [-7.913627, 41.782141], [-7.937766, 41.77774], [-7.949796, 41.777923], [-7.997759, 41.788741], [-8.021798, 41.790765], [-8.033858, 41.789078], [-8.041664, 41.78617], [-8.053413, 41.777261], [-8.05824, 41.768294], [-8.059689, 41.759299], [-8.057712, 41.750276], [-8.052996, 41.74123], [-8.015372, 41.704886], [-8.016792, 41.695891], [-8.031156, 41.687006], [-8.047475, 41.682131], [-8.059476, 41.683023], [-8.083307, 41.697106], [-8.095347, 41.695469], [-8.119611, 41.678718], [-8.131693, 41.673663], [-8.143705, 41.673758], [-8.152981, 41.678961], [-8.156885, 41.687997], [-8.150095, 41.696954], [-8.14339, 41.697517], [-8.131311, 41.702079], [-8.12766, 41.705793], [-8.121736, 41.714755], [-8.127506, 41.723806], [-8.130999, 41.725195], [-8.143051, 41.723076], [-8.167329, 41.704979], [-8.203206, 41.719646], [-8.215205, 41.721534], [-8.227247, 41.719885], [-8.236333, 41.715574], [-8.247826, 41.706642], [-8.254522, 41.697679], [-8.258176, 41.688696], [-8.258721, 41.679692], [-8.256352, 41.67067], [-8.250961, 41.661628], [-8.240091, 41.650098], [-8.219286, 41.634395], [-8.210286, 41.625327], [-8.193044, 41.598185], [-8.177832, 41.580063], [-8.169026, 41.573056], [-8.15711, 41.566977], [-8.145146, 41.564722], [-8.10918, 41.563752], [-8.079783, 41.558519], [-8.081576, 41.565157], [-8.078879, 41.56493], [-8.077678, 41.566956], [-8.069583, 41.570551], [-8.09705, 41.573599], [-8.120719, 41.579641], [-8.134952, 41.588756], [-8.139901, 41.5978], [-8.138231, 41.606795], [-8.12036, 41.623633], [-8.113568, 41.633629], [-8.10823, 41.651602], [-8.112421, 41.669648], [-8.109371, 41.678632], [-8.095414, 41.690703], [-8.083384, 41.691663], [-8.075639, 41.687372], [-8.059613, 41.67366], [-8.047581, 41.674896], [-8.023438, 41.682549], [-8.011395, 41.684426], [-7.999378, 41.684531], [-7.987411, 41.681399], [-7.981563, 41.67757], [-7.972834, 41.668485], [-7.967645, 41.659432], [-7.964145, 41.641386], [-7.966882, 41.623397], [-7.977739, 41.603105], [-7.975689, 41.603552], [-7.974482, 41.606701], [-7.970882, 41.607147], [-7.969091, 41.603768], [-7.965796, 41.602413], [-7.9541, 41.602846], [-7.952606, 41.600592], [-7.947808, 41.60081], [-7.945413, 41.599456], [-7.942725, 41.595625], [-7.935832, 41.594713], [-7.93791, 41.601694], [-7.937004, 41.603718], [-7.931604, 41.604384], [-7.930979, 41.612711], [-7.925556, 41.620354], [-7.920755, 41.620796], [-7.917748, 41.623041], [-7.915933, 41.627764], [-7.913229, 41.628885], [-7.912613, 41.63361], [-7.906014, 41.633147], [-7.906884, 41.641927], [-7.897869, 41.645511], [-7.89696, 41.647985], [-7.892759, 41.647976], [-7.892145, 41.651576], [-7.902319, 41.659925], [-7.899913, 41.66127], [-7.900198, 41.665547], [-7.898396, 41.665769], [-7.896885, 41.668692], [-7.882465, 41.671588], [-7.877044, 41.676077], [-7.876723, 41.681253], [-7.873702, 41.685973], [-7.86998, 41.685965], [-7.872875, 41.694569], [-7.872695, 41.703575], [-7.869697, 41.712552], [-7.866613, 41.718487], [-7.854414, 41.728497], [-7.842352, 41.730625], [-7.830345, 41.729711], [-7.818407, 41.725041], [-7.810167, 41.717775], [-7.804499, 41.714158], [-7.79939, 41.714593], [-7.79788, 41.716164], [-7.796383, 41.71526], [-7.790966, 41.717044], [-7.789449, 41.719966], [-7.78464, 41.720402], [-7.78252, 41.723546], [-7.776204, 41.724652], [-7.774091, 41.726568]], [[-7.889014, 41.81375], [-7.885089, 41.820785], [-7.876757, 41.8262], [-7.864705, 41.826797], [-7.852911, 41.820468], [-7.849364, 41.811425], [-7.853835, 41.802463], [-7.865234, 41.79681], [-7.877262, 41.797269], [-7.885279, 41.802773], [-7.889082, 41.809805], [-7.889014, 41.81375]], [[-7.998088, 41.767586], [-7.973913, 41.774687], [-7.961866, 41.775627], [-7.925787, 41.774564], [-7.913811, 41.771209], [-7.907341, 41.766958], [-7.905604, 41.757934], [-7.910543, 41.748974], [-7.921582, 41.740071], [-7.938559, 41.729664], [-7.974858, 41.715335], [-7.986929, 41.712125], [-7.998951, 41.712076], [-8.010923, 41.71524], [-8.022849, 41.721462], [-8.032653, 41.732053], [-8.034972, 41.74108], [-8.031844, 41.75006], [-8.022285, 41.758659], [-7.998088, 41.767586]], [[-7.914367, 41.738213], [-7.902219, 41.745414], [-7.890136, 41.74871], [-7.878119, 41.748153], [-7.866834, 41.739545], [-7.866808, 41.730537], [-7.878986, 41.698252], [-7.891335, 41.678984], [-7.903447, 41.673252], [-7.915452, 41.673711], [-7.92738, 41.67887], [-7.939197, 41.690855], [-7.943438, 41.704247], [-7.940908, 41.713231], [-7.935111, 41.722184], [-7.914367, 41.738213]], [[-8.131176, 41.712051], [-8.13628, 41.714865], [-8.13113, 41.715536], [-8.131176, 41.712051]], [[-8.235587, 41.697555], [-8.227392, 41.707796], [-8.215317, 41.71232], [-8.203306, 41.711531], [-8.192256, 41.706265], [-8.184965, 41.697207], [-8.185328, 41.688202], [-8.191681, 41.679926], [-8.203771, 41.673849], [-8.215786, 41.673721], [-8.22852, 41.679493], [-8.235405, 41.688546], [-8.235587, 41.697555]], [[-8.15615, 41.640714], [-8.155685, 41.642953], [-8.144024, 41.649661], [-8.132028, 41.648747], [-8.12526, 41.642725], [-8.122992, 41.633701], [-8.132351, 41.624635], [-8.144363, 41.624049], [-8.147574, 41.624879], [-8.158143, 41.633964], [-8.15615, 41.640714]]], [[[-8.077686, 41.557876], [-8.077686, 41.557876], [-8.077386, 41.557784], [-8.077686, 41.557876]]], [[[-8.077202, 41.557727], [-8.077202, 41.557727], [-8.076787, 41.5576], [-8.077202, 41.557727]]], [[[-8.0921, 41.507829], [-8.109934, 41.508772], [-8.145756, 41.518398], [-8.157722, 41.519847], [-8.169788, 41.513484], [-8.17937, 41.499009], [-8.194365, 41.464342], [-8.206561, 41.446125], [-8.218627, 41.438311], [-8.254726, 41.421708], [-8.2668, 41.412169], [-8.27542, 41.400572], [-8.278763, 41.391586], [-8.280274, 41.37358], [-8.276596, 41.355542], [-8.26764, 41.337071], [-8.263339, 41.340902], [-8.262751, 41.345405], [-8.256483, 41.347663], [-8.254099, 41.350512], [-8.264021, 41.36447], [-8.266735, 41.373494], [-8.266939, 41.382503], [-8.264543, 41.391496], [-8.254925, 41.404343], [-8.242869, 41.412252], [-8.230853, 41.416561], [-8.21886, 41.418859], [-8.182914, 41.422628], [-8.176557, 41.426929], [-8.174949, 41.435925], [-8.176995, 41.453955], [-8.176643, 41.471967], [-8.171003, 41.489941], [-8.1652, 41.498907], [-8.157913, 41.505076], [-8.145878, 41.509131], [-8.133894, 41.5092], [-8.088809, 41.503515], [-8.093, 41.504613], [-8.0921, 41.507829]]], [[[-7.977789, 41.603038], [-7.977789, 41.603038], [-7.97791, 41.60288], [-7.977789, 41.603038]]], [[[-8.104424, 41.393759], [-8.106972, 41.393423], [-8.103827, 41.392972], [-8.104424, 41.393759]]], [[[-8.108311, 41.393246], [-8.124418, 41.390515], [-8.135558, 41.383952], [-8.139404, 41.377894], [-8.133418, 41.374292], [-8.119672, 41.376768], [-8.119672, 41.378569], [-8.116683, 41.380144], [-8.117578, 41.386447], [-8.114589, 41.386446], [-8.112795, 41.390723], [-8.110105, 41.390947], [-8.108311, 41.393246]]], [[[-8.469738, 41.689009], [-8.45597, 41.68383], [-8.443974, 41.681549], [-8.431962, 41.681185], [-8.419934, 41.682725], [-8.407885, 41.686341], [-8.377822, 41.698413], [-8.365542, 41.707353], [-8.361454, 41.716337], [-8.361287, 41.725343], [-8.363681, 41.734866], [-8.368703, 41.73193], [-8.373822, 41.734846], [-8.380422, 41.732183], [-8.378004, 41.725435], [-8.37865, 41.716431], [-8.384546, 41.707456], [-8.3981, 41.698521], [-8.407809, 41.694639], [-8.419848, 41.692267], [-8.431863, 41.692436], [-8.443854, 41.69548], [-8.452083, 41.699767], [-8.453868, 41.697961], [-8.453255, 41.695487], [-8.461659, 41.694563], [-8.469738, 41.689009]]], [[[-8.648779, 41.58028], [-8.660785, 41.57832], [-8.672298, 41.573529], [-8.684853, 41.562581], [-8.688873, 41.55556], [-8.690246, 41.546556], [-8.688093, 41.537543], [-8.682573, 41.528521], [-8.672757, 41.519486], [-8.659358, 41.510439], [-8.625283, 41.494338], [-8.613317, 41.491883], [-8.601336, 41.492048], [-8.589335, 41.495383], [-8.579879, 41.501169], [-8.571703, 41.510146], [-8.568977, 41.519144], [-8.569754, 41.528154], [-8.57924, 41.546204], [-8.588944, 41.557177], [-8.600876, 41.566917], [-8.612832, 41.573303], [-8.6248, 41.57798], [-8.636783, 41.580107], [-8.648779, 41.58028]], [[-8.660928, 41.551038], [-8.648893, 41.559123], [-8.636885, 41.561996], [-8.624893, 41.56188], [-8.612917, 41.559039], [-8.600963, 41.55277], [-8.58905, 41.540461], [-8.583917, 41.528206], [-8.584889, 41.519202], [-8.590751, 41.510216], [-8.601268, 41.503132], [-8.613268, 41.500182], [-8.625244, 41.500991], [-8.637206, 41.504633], [-8.648496, 41.510407], [-8.659762, 41.519448], [-8.665984, 41.528474], [-8.667536, 41.537486], [-8.664686, 41.546485], [-8.660928, 41.551038]]], [[[-8.485189, 41.527806], [-8.493233, 41.528501], [-8.505251, 41.524358], [-8.513359, 41.518922], [-8.516814, 41.509929], [-8.514575, 41.500912], [-8.505486, 41.493456], [-8.493536, 41.48958], [-8.481549, 41.490554], [-8.469523, 41.496245], [-8.464978, 41.500692], [-8.460697, 41.509679], [-8.464472, 41.518704], [-8.481254, 41.527561], [-8.485189, 41.527806]], [[-8.50226, 41.509867], [-8.498337, 41.518857], [-8.493287, 41.521516], [-8.481294, 41.522569], [-8.473147, 41.518744], [-8.467953, 41.509713], [-8.477008, 41.500747], [-8.481486, 41.498538], [-8.49519, 41.500829], [-8.50226, 41.509867]]], [[[-8.745736, 41.327891], [-8.759535, 41.321533], [-8.768894, 41.312545], [-8.773297, 41.303546], [-8.773845, 41.294539], [-8.77059, 41.285525], [-8.763205, 41.276502], [-8.745971, 41.267218], [-8.734044, 41.264495], [-8.722109, 41.263693], [-8.699386, 41.267345], [-8.686245, 41.273984], [-8.676387, 41.285299], [-8.674658, 41.294302], [-8.676855, 41.303315], [-8.68317, 41.312341], [-8.697958, 41.323162], [-8.709887, 41.32785], [-8.721827, 41.330057], [-8.733777, 41.33013], [-8.745736, 41.327891]], [[-8.73386, 41.309777], [-8.721896, 41.313929], [-8.709952, 41.313035], [-8.698038, 41.305868], [-8.695799, 41.303367], [-8.693561, 41.294353], [-8.698135, 41.284882], [-8.710103, 41.279014], [-8.722047, 41.278363], [-8.73397, 41.282628], [-8.737932, 41.285455], [-8.742687, 41.294474], [-8.740667, 41.303477], [-8.73386, 41.309777]]]]}}, {"id": "2", "type": "Feature", "properties": {"fill": "#b11c1c", "value_min": -2.25, "value_max": -2.0}, "geometry": {"type": "MultiPolygon", "coordinates": [[[[-7.937969, 41.765431], [-7.949969, 41.767354], [-7.95779, 41.758419], [-7.95024, 41.750727], [-7.938191, 41.752023], [-7.932777, 41.75819], [-7.937969, 41.765431]], [[-7.938078, 41.758842], [-7.938097, 41.757718], [-7.950149, 41.756263], [-7.952217, 41.758369], [-7.950075, 41.760815], [-7.938078, 41.758842]]], [[[-8.082685, 41.624379], [-8.088432, 41.624425], [-8.096374, 41.622098], [-8.100714, 41.615515], [-8.096572, 41.60789], [-8.084604, 41.605549], [-8.074949, 41.61531], [-8.082685, 41.624379]]], [[[-8.122102, 41.495072], [-8.135246, 41.489678], [-8.139792, 41.480705], [-8.13734, 41.471679], [-8.134439, 41.468313], [-8.12255, 41.46185], [-8.110585, 41.461232], [-8.098543, 41.466123], [-8.093449, 41.471342], [-8.091509, 41.480334], [-8.098213, 41.489942], [-8.110128, 41.494633], [-8.122102, 41.495072]], [[-8.110175, 41.491207], [-8.105804, 41.489453], [-8.099235, 41.480394], [-8.104954, 41.471432], [-8.110485, 41.468512], [-8.122454, 41.468971], [-8.126736, 41.471599], [-8.132451, 41.48065], [-8.126503, 41.489612], [-8.122152, 41.491369], [-8.110175, 41.491207]]]]}}, {"id": "1", "type": "Feature", "properties": {"fill": "#a21c1c", "value_min": -2.5, "value_max": -2.25}, "geometry": {"type": "MultiPolygon", "coordinates": [[[[-7.938078, 41.758842], [-7.950075, 41.760815], [-7.952217, 41.758369], [-7.950149, 41.756263], [-7.938097, 41.757718], [-7.938078, 41.758842]]], [[[-8.110175, 41.491207], [-8.122152, 41.491369], [-8.126503, 41.489612], [-8.132451, 41.48065], [-8.126736, 41.471599], [-8.122454, 41.468971], [-8.110485, 41.468512], [-8.104954, 41.471432], [-8.099235, 41.480394], [-8.105804, 41.489453], [-8.110175, 41.491207]], [[-8.122321, 41.47883], [-8.123637, 41.480583], [-8.12227, 41.482618], [-8.110287, 41.482979], [-8.108543, 41.480467], [-8.110352, 41.478272], [-8.122321, 41.47883]]]]}}]}