{"type": "FeatureCollection", "features": [{"id": "2", "type": "Feature", "properties": {"fill": "#b6a27f", "value_min": -1.25, "value_max": -1.0}, "geometry": {"type": "Polygon", "coordinates": [[[-8.649564, 41.18022], [-8.646806, 41.195133], [-8.650773, 41.208643], [-8.662273, 41.222203], [-8.674531, 41.228456], [-8.686451, 41.231019], [-8.698382, 41.231235], [-8.710322, 41.22937], [-8.727958, 41.222377], [-8.739338, 41.213396], [-8.745291, 41.204401], [-8.748015, 41.195399], [-8.747782, 41.186391], [-8.744621, 41.177376], [-8.734445, 41.165313], [-8.722555, 41.158062], [-8.710653, 41.154226], [-8.698741, 41.152862], [-8.68682, 41.15365], [-8.674886, 41.156857], [-8.662934, 41.163272], [-8.654501, 41.172095], [-8.655366, 41.175467], [-8.649564, 41.18022]], [[-8.698436, 41.219408], [-8.686505, 41.219616], [-8.674593, 41.216002], [-8.66246, 41.204188], [-8.660835, 41.195175], [-8.663364, 41.186175], [-8.674794, 41.175478], [-8.686734, 41.171664], [-8.698655, 41.171629], [-8.713779, 41.177303], [-8.722506, 41.186333], [-8.724819, 41.195346], [-8.722562, 41.204349], [-8.714223, 41.213336], [-8.698436, 41.219408]]]}}, {"id": "1", "type": "Feature", "properties": {"fill": "#e19f31", "value_min": -1.5, "value_max": -1.25}, "geometry": {"type": "Polygon", "coordinates": [[[-8.698436, 41.219408], [-8.714223, 41.213336], [-8.722562, 41.204349], [-8.724819, 41.195346], [-8.722506, 41.186333], [-8.713779, 41.177303], [-8.698655, 41.171629], [-8.686734, 41.171664], [-8.674794, 41.175478], [-8.663364, 41.186175], [-8.660835, 41.195175], [-8.66246, 41.204188], [-8.674593, 41.216002], [-8.686505, 41.219616], [-8.698436, 41.219408]], [[-8.685582, 41.195246], [-8.686626, 41.194364], [-8.690867, 41.19526], [-8.686607, 41.198201], [-8.685582, 41.195246]]]}}, {"id": "0", "type": "Feature", "properties": {"fill": "#e57b10", "value_min": -1.75, "value_max": -1.5}, "geometry": {"type": "Polygon", "coordinates": [[[-8.685582, 41.195246], [-8.686607, 41.198201], [-8.690867, 41.19526], [-8.686626, 41.194364], [-8.685582, 41.195246]]]}}, {"id": "3", "type": "Feature", "properties": {"fill": "#a3a3a3", "value_min": -1.0, "value_max": -0.75}, "geometry": {"type": "MultiPolygon", "coordinates": [[[[-8.361744, 41.491487], [-8.36178, 41.482151], [-8.349965, 41.471401], [-8.338002, 41.470114], [-8.325971, 41.47548], [-8.321092, 41.481918], [-8.321078, 41.490925], [-8.325745, 41.497311], [-8.337666, 41.503152], [-8.349657, 41.502197], [-8.361744, 41.491487]]], [[[-8.633243, 41.189747], [-8.635795, 41.204107], [-8.639431, 41.213126], [-8.650668, 41.228532], [-8.662556, 41.236978], [-8.674467, 41.241443], [-8.68639, 41.243744], [-8.698322, 41.244179], [-8.710261, 41.243234], [-8.734152, 41.237803], [-8.749088, 41.231433], [-8.762388, 41.222453], [-8.776323, 41.204466], [-8.779337, 41.195463], [-8.779551, 41.177448], [-8.776801, 41.168435], [-8.770233, 41.157532], [-8.75754, 41.144998], [-8.674793, 41.146932], [-8.674849, 41.153767], [-8.672489, 41.15648], [-8.66117, 41.156307], [-8.662078, 41.158104], [-8.660313, 41.160813], [-8.657033, 41.160378], [-8.654961, 41.161963], [-8.653222, 41.168049], [-8.654501, 41.172095], [-8.662934, 41.163272], [-8.674886, 41.156857], [-8.68682, 41.15365], [-8.698741, 41.152862], [-8.710653, 41.154226], [-8.722555, 41.158062], [-8.734445, 41.165313], [-8.744621, 41.177376], [-8.747782, 41.186391], [-8.748015, 41.195399], [-8.745291, 41.204401], [-8.739338, 41.213396], [-8.727958, 41.222377], [-8.710322, 41.22937], [-8.698382, 41.231235], [-8.686451, 41.231019], [-8.674531, 41.228456], [-8.662273, 41.222203], [-8.650773, 41.208643], [-8.646806, 41.195133], [-8.649564, 41.18022], [-8.647955, 41.180228], [-8.647696, 41.185181], [-8.640929, 41.196241], [-8.634946, 41.193341], [-8.633243, 41.189747]]]]}}, {"id": "4", "type": "Feature", "properties": {"fill": "#a3a3a3", "value_min": -0.75, "value_max": -0.5}, "geometry": {"type": "MultiPolygon", "coordinates": [[[[-7.948812, 41.838161], [-7.946854, 41.839381], [-7.948754, 41.841712], [-7.951671, 41.839425], [-7.948812, 41.838161]]], [[[-7.877362, 41.757662], [-7.866068, 41.749505], [-7.85399, 41.752327], [-7.848594, 41.757377], [-7.851274, 41.766411], [-7.853704, 41.768369], [-7.865692, 41.770804], [-7.873417, 41.76663], [-7.877362, 41.757662]]], [[[-8.096552, 41.609322], [-8.084589, 41.606631], [-8.076693, 41.615324], [-8.084341, 41.624125], [-8.096391, 41.620892], [-8.1, 41.615509], [-8.096552, 41.609322]]], [[[-8.361578, 41.508422], [-8.369852, 41.50021], [-8.37327, 41.491221], [-8.373157, 41.482213], [-8.369677, 41.473187], [-8.362006, 41.464823], [-8.350088, 41.459131], [-8.338125, 41.458065], [-8.326125, 41.460616], [-8.314064, 41.468865], [-8.307771, 41.481838], [-8.308478, 41.49085], [-8.312848, 41.499884], [-8.325607, 41.510611], [-8.337554, 41.514109], [-8.349544, 41.513556], [-8.361578, 41.508422]], [[-8.361744, 41.491487], [-8.349657, 41.502197], [-8.337666, 41.503152], [-8.325745, 41.497311], [-8.321078, 41.490925], [-8.321092, 41.481918], [-8.325971, 41.47548], [-8.338002, 41.470114], [-8.349965, 41.471401], [-8.36178, 41.482151], [-8.361744, 41.491487]]], [[[-8.721997, 41.289979], [-8.710051, 41.29082], [-8.708184, 41.294391], [-8.71002, 41.297833], [-8.72196, 41.298741], [-8.725005, 41.294433], [-8.721997, 41.289979]]], [[[-8.615982, 41.17744], [-8.62574, 41.213083], [-8.638681, 41.23859], [-8.650551, 41.250411], [-8.674362, 41.262675], [-8.71014, 41.270641], [-8.722077, 41.271199], [-8.734023, 41.269537], [-8.75792, 41.26451], [-8.769872, 41.260512], [-8.781826, 41.255538], [-8.803552, 41.242272], [-8.799695, 41.14406], [-8.75754, 41.144998], [-8.770233, 41.157532], [-8.776801, 41.168435], [-8.779551, 41.177448], [-8.779337, 41.195463], [-8.776323, 41.204466], [-8.762388, 41.222453], [-8.749088, 41.231433], [-8.734152, 41.237803], [-8.710261, 41.243234], [-8.698322, 41.244179], [-8.68639, 41.243744], [-8.674467, 41.241443], [-8.662556, 41.236978], [-8.650668, 41.228532], [-8.639431, 41.213126], [-8.635795, 41.204107], [-8.633243, 41.189747], [-8.631331, 41.188179], [-8.627456, 41.187971], [-8.62263, 41.180113], [-8.615982, 41.17744]]]]}}, {"id": "5", "type": "Feature", "properties": {"fill": "#a3a3a3", "value_min": -0.5, "value_max": -0.25}, "geometry": {"type": "MultiPolygon", "coordinates": [[[[-7.737932, 41.860922], [-7.737118, 41.864286], [-7.743366, 41.873846], [-7.755341, 41.877719], [-7.767429, 41.8758], [-7.770935, 41.87366], [-7.777874, 41.864727], [-7.77613, 41.855702], [-7.767932, 41.849643], [-7.755936, 41.847055], [-7.750533, 41.849128], [-7.750189, 41.84926], [-7.745537, 41.851045], [-7.746881, 41.855776], [-7.739943, 41.858003], [-7.737932, 41.860922]]], [[[-7.956364, 41.874499], [-7.972399, 41.86947], [-7.976269, 41.866667], [-7.984422, 41.857733], [-7.987534, 41.848754], [-7.98609, 41.839734], [-7.979877, 41.830672], [-7.973085, 41.826597], [-7.961111, 41.822356], [-7.949086, 41.821423], [-7.937017, 41.823099], [-7.917752, 41.830104], [-7.909069, 41.839028], [-7.907761, 41.848023], [-7.911747, 41.857067], [-7.924206, 41.869065], [-7.937995, 41.874098], [-7.94222, 41.870892], [-7.951254, 41.871132], [-7.954864, 41.872262], [-7.956364, 41.874499]], [[-7.948812, 41.838161], [-7.951671, 41.839425], [-7.948754, 41.841712], [-7.946854, 41.839381], [-7.948812, 41.838161]]], [[[-7.89586, 41.820889], [-7.895375, 41.811877], [-7.889236, 41.800875], [-7.88006, 41.793715], [-7.877733, 41.784686], [-7.889336, 41.766785], [-7.8892, 41.757777], [-7.882677, 41.748707], [-7.866201, 41.741946], [-7.854175, 41.741937], [-7.842077, 41.745932], [-7.837794, 41.748261], [-7.831309, 41.757202], [-7.830803, 41.766204], [-7.834708, 41.775251], [-7.849483, 41.793413], [-7.842686, 41.811358], [-7.844386, 41.820382], [-7.852602, 41.830193], [-7.86455, 41.835552], [-7.876583, 41.836137], [-7.888702, 41.831764], [-7.89586, 41.820889]], [[-7.877362, 41.757662], [-7.873417, 41.76663], [-7.865692, 41.770804], [-7.853704, 41.768369], [-7.851274, 41.766411], [-7.848594, 41.757377], [-7.85399, 41.752327], [-7.866068, 41.749505], [-7.877362, 41.757662]]], [[[-8.131241, 41.707247], [-8.129414, 41.714813], [-8.131114, 41.716674], [-8.14308, 41.714916], [-8.131241, 41.707247]]], [[[-8.095478, 41.686166], [-8.102586, 41.678579], [-8.098597, 41.669541], [-8.095744, 41.667124], [-8.083737, 41.666806], [-8.08026, 41.669395], [-8.074985, 41.67836], [-8.083441, 41.687646], [-8.095478, 41.686166]]], [[[-8.108304, 41.627449], [-8.116349, 41.615636], [-8.117463, 41.606637], [-8.112633, 41.597593], [-8.108759, 41.594369], [-8.09683, 41.589363], [-8.084847, 41.588371], [-8.072822, 41.59024], [-8.060581, 41.597179], [-8.054163, 41.606134], [-8.053503, 41.615136], [-8.057775, 41.624178], [-8.07217, 41.63581], [-8.08413, 41.639057], [-8.096165, 41.637032], [-8.108304, 41.627449]], [[-8.096552, 41.609322], [-8.1, 41.615509], [-8.096391, 41.620892], [-8.084341, 41.624125], [-8.076693, 41.615324], [-8.084589, 41.606631], [-8.096552, 41.609322]]], [[[-8.373434, 41.521587], [-8.383368, 41.509291], [-8.385903, 41.500297], [-8.384893, 41.473269], [-8.378662, 41.455221], [-8.374127, 41.449569], [-8.362229, 41.442004], [-8.35029, 41.438842], [-8.338328, 41.438117], [-8.326345, 41.439372], [-8.314332, 41.443447], [-8.299796, 41.454768], [-8.294598, 41.463744], [-8.292727, 41.47274], [-8.295083, 41.490769], [-8.303447, 41.508835], [-8.313514, 41.520967], [-8.325427, 41.527893], [-8.33738, 41.531247], [-8.349366, 41.531297], [-8.361384, 41.528166], [-8.373434, 41.521587]], [[-8.361578, 41.508422], [-8.349544, 41.513556], [-8.337554, 41.514109], [-8.325607, 41.510611], [-8.312848, 41.499884], [-8.308478, 41.49085], [-8.307771, 41.481838], [-8.314064, 41.468865], [-8.326125, 41.460616], [-8.338125, 41.458065], [-8.350088, 41.459131], [-8.362006, 41.464823], [-8.369677, 41.473187], [-8.373157, 41.482213], [-8.37327, 41.491221], [-8.369852, 41.50021], [-8.361578, 41.508422]]], [[[-8.57283, 41.456106], [-8.569924, 41.447088], [-8.565722, 41.443272], [-8.553781, 41.438908], [-8.541799, 41.440548], [-8.533211, 41.446944], [-8.530284, 41.45594], [-8.535598, 41.464969], [-8.5416, 41.468856], [-8.553562, 41.470888], [-8.568259, 41.465096], [-8.57283, 41.456106]]], [[[-8.588566, 41.170574], [-8.603153, 41.193525], [-8.610915, 41.213033], [-8.621536, 41.267116], [-8.626866, 41.276141], [-8.635172, 41.285175], [-8.667371, 41.312296], [-8.697914, 41.332768], [-8.721773, 41.342651], [-8.733714, 41.345676], [-8.769562, 41.348599], [-8.80757, 41.344293], [-8.803552, 41.242272], [-8.781826, 41.255538], [-8.769872, 41.260512], [-8.75792, 41.26451], [-8.734023, 41.269537], [-8.722077, 41.271199], [-8.71014, 41.270641], [-8.674362, 41.262675], [-8.650551, 41.250411], [-8.638681, 41.23859], [-8.62574, 41.213083], [-8.615982, 41.17744], [-8.613374, 41.177451], [-8.608583, 41.174095], [-8.609164, 41.172066], [-8.605845, 41.166228], [-8.602852, 41.164214], [-8.59422, 41.165149], [-8.589174, 41.167645], [-8.588566, 41.170574]], [[-8.721997, 41.289979], [-8.725005, 41.294433], [-8.72196, 41.298741], [-8.71002, 41.297833], [-8.708184, 41.294391], [-8.710051, 41.29082], [-8.721997, 41.289979]]]]}}, {"id": "6", "type": "Feature", "properties": {"fill": "#a3a3a3", "value_min": -0.25, "value_max": 0.0}, "geometry": {"type": "MultiPolygon", "coordinates": [[[[-8.594352, 41.618478], [-8.596534, 41.616668], [-8.601628, 41.615972], [-8.603996, 41.611686], [-8.613256, 41.606696], [-8.619881, 41.610269], [-8.621338, 41.604636], [-8.628833, 41.604378], [-8.636302, 41.600744], [-8.64075, 41.594422], [-8.645536, 41.593051], [-8.646744, 41.594171], [-8.649125, 41.591909], [-8.656622, 41.5921], [-8.660788, 41.588255], [-8.663794, 41.589141], [-8.665265, 41.585758], [-8.66948, 41.587989], [-8.684455, 41.586117], [-8.685608, 41.58071], [-8.697261, 41.576376], [-8.701703, 41.570277], [-8.707704, 41.570923], [-8.711586, 41.569327], [-8.716422, 41.573805], [-8.720316, 41.57356], [-8.725151, 41.577811], [-8.726633, 41.576003], [-8.734424, 41.575737], [-8.736564, 41.580228], [-8.738354, 41.579318], [-8.740778, 41.582006], [-8.74467, 41.581535], [-8.750711, 41.58623], [-8.756374, 41.582823], [-8.75635, 41.580347], [-8.762327, 41.578514], [-8.764443, 41.580303], [-8.767441, 41.580286], [-8.769874, 41.583874], [-8.768997, 41.58613], [-8.773228, 41.589482], [-8.775371, 41.593972], [-8.78556, 41.593464], [-8.797327, 41.600599], [-8.804218, 41.600109], [-8.80456, 41.604158], [-8.809434, 41.611332], [-8.828644, 41.609656], [-8.82839, 41.585633], [-8.818497, 41.554794], [-8.8221, 41.547542], [-8.821965, 41.534907], [-8.815926, 41.525624], [-8.81063, 41.5101], [-8.813279, 41.503483], [-8.812636, 41.496944], [-8.804699, 41.482068], [-8.798552, 41.474753], [-8.80154, 41.446836], [-8.806115, 41.43713], [-8.807354, 41.425915], [-8.811166, 41.417099], [-8.80757, 41.344293], [-8.769562, 41.348599], [-8.733714, 41.345676], [-8.721773, 41.342651], [-8.697914, 41.332768], [-8.667371, 41.312296], [-8.635172, 41.285175], [-8.626866, 41.276141], [-8.621536, 41.267116], [-8.610915, 41.213033], [-8.603153, 41.193525], [-8.588566, 41.170574], [-8.583263, 41.174422], [-8.582094, 41.177803], [-8.578825, 41.178941], [-8.581296, 41.191762], [-8.577934, 41.193801], [-8.588096, 41.203946], [-8.593111, 41.212972], [-8.594874, 41.221986], [-8.594068, 41.230991], [-8.590486, 41.239986], [-8.582663, 41.248966], [-8.578923, 41.252604], [-8.566945, 41.259042], [-8.554983, 41.262672], [-8.543038, 41.263665], [-8.531108, 41.262521], [-8.519197, 41.258914], [-8.502298, 41.248647], [-8.494804, 41.239606], [-8.490007, 41.227675], [-8.487935, 41.230354], [-8.490331, 41.232373], [-8.489156, 41.235528], [-8.486181, 41.236888], [-8.484411, 41.240495], [-8.476346, 41.237818], [-8.475756, 41.23917], [-8.470986, 41.23941], [-8.471604, 41.243459], [-8.469227, 41.245267], [-8.463258, 41.244384], [-8.459989, 41.246644], [-8.454323, 41.246886], [-8.455541, 41.251834], [-8.452276, 41.25522], [-8.449891, 41.255452], [-8.449304, 41.257479], [-8.447812, 41.257258], [-8.449028, 41.261982], [-8.439785, 41.262907], [-8.438023, 41.268989], [-8.434745, 41.269673], [-8.432691, 41.277107], [-8.427032, 41.279372], [-8.429143, 41.284319], [-8.426171, 41.287028], [-8.426488, 41.291079], [-8.425013, 41.294909], [-8.422037, 41.296942], [-8.422647, 41.299867], [-8.407744, 41.304856], [-8.406262, 41.307335], [-8.403277, 41.307342], [-8.401801, 41.311398], [-8.399712, 41.311628], [-8.400316, 41.313202], [-8.396738, 41.314336], [-8.398835, 41.316131], [-8.393775, 41.31997], [-8.393489, 41.323122], [-8.391105, 41.324253], [-8.386325, 41.323588], [-8.380382, 41.331254], [-8.375305, 41.33104], [-8.37201, 41.328346], [-8.361563, 41.329718], [-8.358276, 41.329049], [-8.357673, 41.327249], [-8.350207, 41.327264], [-8.346032, 41.328847], [-8.342462, 41.333131], [-8.333215, 41.336299], [-8.326363, 41.342163], [-8.324568, 41.341041], [-8.323376, 41.341943], [-8.320676, 41.338121], [-8.312604, 41.334983], [-8.313794, 41.333405], [-8.31139, 41.328007], [-8.307502, 41.325762], [-8.305116, 41.326891], [-8.303024, 41.325994], [-8.303615, 41.323742], [-8.301216, 41.319694], [-8.296431, 41.316774], [-8.297618, 41.313846], [-8.295817, 41.310022], [-8.281801, 41.316569], [-8.281808, 41.319721], [-8.278828, 41.321976], [-8.278238, 41.325128], [-8.273161, 41.325134], [-8.269582, 41.326939], [-8.265709, 41.331221], [-8.269004, 41.336169], [-8.263339, 41.340902], [-8.262751, 41.345405], [-8.256483, 41.347663], [-8.255889, 41.349689], [-8.249622, 41.353072], [-8.251123, 41.356897], [-8.248141, 41.360052], [-8.248448, 41.364328], [-8.245461, 41.364781], [-8.244272, 41.368384], [-8.239174, 41.371315], [-8.241519, 41.373331], [-8.243199, 41.383795], [-8.238225, 41.391324], [-8.231078, 41.397473], [-8.224549, 41.400241], [-8.219017, 41.405717], [-8.216617, 41.409194], [-8.218957, 41.418218], [-8.231721, 41.436319], [-8.26614, 41.470797], [-8.27793, 41.487596], [-8.283408, 41.499704], [-8.287942, 41.517747], [-8.286377, 41.544759], [-8.268746, 41.589685], [-8.270448, 41.598703], [-8.281915, 41.607782], [-8.343816, 41.635174], [-8.348286, 41.638758], [-8.353928, 41.644238], [-8.354855, 41.662258], [-8.358083, 41.671283], [-8.369412, 41.680353], [-8.38389, 41.682517], [-8.39253, 41.680477], [-8.406268, 41.671542], [-8.410456, 41.662556], [-8.40871, 41.65354], [-8.399922, 41.63548], [-8.40262, 41.626487], [-8.40985, 41.617517], [-8.420596, 41.608838], [-8.444699, 41.597169], [-8.456781, 41.587258], [-8.490361, 41.545844], [-8.4917, 41.536843], [-8.460373, 41.518685], [-8.457391, 41.514399], [-8.445461, 41.508075], [-8.433484, 41.50738], [-8.421525, 41.504795], [-8.409619, 41.496308], [-8.404102, 41.482378], [-8.405693, 41.473379], [-8.409892, 41.466266], [-8.421937, 41.458384], [-8.433926, 41.45666], [-8.445881, 41.458824], [-8.455833, 41.464619], [-8.464307, 41.473667], [-8.46963, 41.483159], [-8.493507, 41.493329], [-8.505244, 41.500872], [-8.512206, 41.509909], [-8.51724, 41.523892], [-8.52098, 41.527961], [-8.553087, 41.539993], [-8.574701, 41.555194], [-8.583036, 41.564232], [-8.593341, 41.582284], [-8.596888, 41.600311], [-8.594352, 41.618478]], [[-8.373434, 41.521587], [-8.361384, 41.528166], [-8.349366, 41.531297], [-8.33738, 41.531247], [-8.325427, 41.527893], [-8.313514, 41.520967], [-8.303447, 41.508835], [-8.295083, 41.490769], [-8.292727, 41.47274], [-8.294598, 41.463744], [-8.299796, 41.454768], [-8.314332, 41.443447], [-8.326345, 41.439372], [-8.338328, 41.438117], [-8.35029, 41.438842], [-8.362229, 41.442004], [-8.374127, 41.449569], [-8.378662, 41.455221], [-8.384893, 41.473269], [-8.385903, 41.500297], [-8.383368, 41.509291], [-8.373434, 41.521587]], [[-8.57283, 41.456106], [-8.568259, 41.465096], [-8.553562, 41.470888], [-8.5416, 41.468856], [-8.535598, 41.464969], [-8.530284, 41.45594], [-8.533211, 41.446944], [-8.541799, 41.440548], [-8.553781, 41.438908], [-8.565722, 41.443272], [-8.569924, 41.447088], [-8.57283, 41.456106]], [[-8.649715, 41.40664], [-8.637747, 41.407445], [-8.625788, 41.406404], [-8.601905, 41.398995], [-8.589984, 41.392424], [-8.579046, 41.384068], [-8.571053, 41.375031], [-8.567109, 41.366009], [-8.565983, 41.356997], [-8.567671, 41.347996], [-8.572958, 41.339008], [-8.584453, 41.330042], [-8.590392, 41.327296], [-8.602364, 41.323719], [-8.614321, 41.322363], [-8.638204, 41.324962], [-8.65013, 41.329206], [-8.662046, 41.335808], [-8.676806, 41.348354], [-8.683142, 41.357379], [-8.686553, 41.366396], [-8.687394, 41.375406], [-8.685033, 41.384407], [-8.673689, 41.397605], [-8.661696, 41.403552], [-8.649715, 41.40664]]], [[[-8.089372, 41.812296], [-8.069774, 41.802108], [-8.045756, 41.798278], [-8.009639, 41.798792], [-7.949287, 41.809093], [-7.937252, 41.808889], [-7.925272, 41.805371], [-7.914408, 41.794045], [-7.911447, 41.78501], [-7.907742, 41.757955], [-7.900691, 41.74888], [-7.883271, 41.739706], [-7.86635, 41.733451], [-7.842328, 41.731941], [-7.83029, 41.732748], [-7.818217, 41.73541], [-7.811586, 41.738986], [-7.80599, 41.746301], [-7.803688, 41.756918], [-7.805038, 41.792959], [-7.799119, 41.810911], [-7.792615, 41.818204], [-7.780459, 41.8243], [-7.740405, 41.831638], [-7.74729, 41.837772], [-7.746349, 41.84407], [-7.750246, 41.846784], [-7.750533, 41.849128], [-7.755936, 41.847055], [-7.767932, 41.849643], [-7.77613, 41.855702], [-7.777874, 41.864727], [-7.770935, 41.87366], [-7.767429, 41.8758], [-7.755341, 41.877719], [-7.743366, 41.873846], [-7.737118, 41.864286], [-7.737932, 41.860922], [-7.734159, 41.868337], [-7.730228, 41.871024], [-7.729293, 41.875972], [-7.722351, 41.878424], [-7.720523, 41.881793], [-7.725335, 41.882935], [-7.726208, 41.887665], [-7.737044, 41.888828], [-7.737935, 41.890857], [-7.74246, 41.889747], [-7.742785, 41.885922], [-7.756022, 41.888441], [-7.758719, 41.890926], [-7.756592, 41.89407], [-7.758076, 41.897901], [-7.763193, 41.898593], [-7.779227, 41.886264], [-7.785257, 41.885157], [-7.788886, 41.882467], [-7.794007, 41.882257], [-7.796739, 41.878214], [-7.794349, 41.87438], [-7.797064, 41.873488], [-7.803381, 41.874857], [-7.804914, 41.869459], [-7.813032, 41.871958], [-7.814229, 41.873537], [-7.823863, 41.874013], [-7.825059, 41.875817], [-7.830479, 41.875831], [-7.830789, 41.874031], [-7.832894, 41.874712], [-7.83772, 41.872924], [-7.842528, 41.875187], [-7.841663, 41.866632], [-7.849515, 41.861475], [-7.858542, 41.862622], [-7.859456, 41.860148], [-7.864877, 41.859711], [-7.87033, 41.851395], [-7.873043, 41.850501], [-7.873066, 41.844875], [-7.879056, 41.85254], [-7.886268, 41.855932], [-7.888076, 41.855486], [-7.891675, 41.859094], [-7.900698, 41.861588], [-7.904318, 41.859795], [-7.907309, 41.865203], [-7.906095, 41.868126], [-7.910299, 41.871285], [-7.909985, 41.875111], [-7.91479, 41.879171], [-7.928044, 41.87807], [-7.937995, 41.874098], [-7.924206, 41.869065], [-7.911747, 41.857067], [-7.907761, 41.848023], [-7.909069, 41.839028], [-7.917752, 41.830104], [-7.937017, 41.823099], [-7.949086, 41.821423], [-7.961111, 41.822356], [-7.973085, 41.826597], [-7.979877, 41.830672], [-7.98609, 41.839734], [-7.987534, 41.848754], [-7.984422, 41.857733], [-7.976269, 41.866667], [-7.972399, 41.86947], [-7.956364, 41.874499], [-7.960576, 41.875647], [-7.962086, 41.874074], [-7.973828, 41.875216], [-7.987996, 41.869157], [-7.990123, 41.860157], [-7.995547, 41.858138], [-7.994047, 41.855211], [-7.996162, 41.851837], [-8.003089, 41.850494], [-8.005804, 41.847346], [-8.007928, 41.838796], [-8.012753, 41.833624], [-8.013363, 41.829124], [-8.017873, 41.831379], [-8.02901, 41.829589], [-8.037134, 41.831171], [-8.041351, 41.828023], [-8.041054, 41.825097], [-8.045268, 41.824425], [-8.047679, 41.821276], [-8.057314, 41.815656], [-8.06664, 41.817012], [-8.072961, 41.813414], [-8.078678, 41.813417], [-8.082892, 41.810493], [-8.089372, 41.812296]], [[-7.89586, 41.820889], [-7.888702, 41.831764], [-7.876583, 41.836137], [-7.86455, 41.835552], [-7.852602, 41.830193], [-7.844386, 41.820382], [-7.842686, 41.811358], [-7.849483, 41.793413], [-7.834708, 41.775251], [-7.830803, 41.766204], [-7.831309, 41.757202], [-7.837794, 41.748261], [-7.842077, 41.745932], [-7.854175, 41.741937], [-7.866201, 41.741946], [-7.882677, 41.748707], [-7.8892, 41.757777], [-7.889336, 41.766785], [-7.877733, 41.784686], [-7.88006, 41.793715], [-7.889236, 41.800875], [-7.895375, 41.811877], [-7.89586, 41.820889]]], [[[-7.745537, 41.851045], [-7.750189, 41.84926], [-7.743309, 41.849012], [-7.745537, 41.851045]]], [[[-7.953272, 41.601719], [-7.970958, 41.623433], [-7.984478, 41.632561], [-8.000118, 41.636727], [-8.024081, 41.639974], [-8.036008, 41.645354], [-8.042035, 41.651069], [-8.045446, 41.660104], [-8.033799, 41.687028], [-8.035359, 41.68884], [-8.059256, 41.698128], [-8.066394, 41.705312], [-8.070932, 41.721911], [-8.084678, 41.741487], [-8.094611, 41.74795], [-8.10662, 41.749294], [-8.118678, 41.747036], [-8.142894, 41.734832], [-8.159605, 41.724045], [-8.167337, 41.715094], [-8.167358, 41.702752], [-8.160141, 41.688021], [-8.157752, 41.678996], [-8.160466, 41.670009], [-8.167918, 41.659269], [-8.18009, 41.646569], [-8.217776, 41.616371], [-8.22491, 41.607412], [-8.224647, 41.598403], [-8.214867, 41.589329], [-8.200881, 41.580226], [-8.169154, 41.56306], [-8.157223, 41.558323], [-8.145272, 41.555217], [-8.106861, 41.552512], [-8.082488, 41.548031], [-8.080687, 41.551651], [-8.074396, 41.549848], [-8.072897, 41.551197], [-8.076188, 41.557276], [-8.080082, 41.558854], [-8.081576, 41.565157], [-8.078879, 41.56493], [-8.075279, 41.568305], [-8.073182, 41.568079], [-8.069283, 41.570553], [-8.068081, 41.573478], [-8.056684, 41.579549], [-8.052181, 41.584498], [-8.052777, 41.587649], [-8.048277, 41.590122], [-8.047974, 41.592373], [-8.031467, 41.602938], [-8.02367, 41.603156], [-8.019174, 41.601802], [-8.015872, 41.603824], [-8.013474, 41.603372], [-8.005971, 41.60629], [-8.003562, 41.611239], [-7.998761, 41.612809], [-7.999669, 41.608759], [-7.996976, 41.605829], [-7.996684, 41.602003], [-7.984685, 41.603564], [-7.982292, 41.60086], [-7.975689, 41.603552], [-7.974482, 41.606701], [-7.970882, 41.607147], [-7.969091, 41.603768], [-7.965796, 41.602413], [-7.9541, 41.602846], [-7.953272, 41.601719]], [[-8.131241, 41.707247], [-8.14308, 41.714916], [-8.131114, 41.716674], [-8.129414, 41.714813], [-8.131241, 41.707247]], [[-8.095079, 41.714643], [-8.091911, 41.705516], [-8.095234, 41.703549], [-8.097863, 41.696556], [-8.119571, 41.681598], [-8.131591, 41.681268], [-8.139817, 41.687871], [-8.135585, 41.696846], [-8.131363, 41.69823], [-8.119163, 41.711498], [-8.108328, 41.714652], [-8.107069, 41.716856], [-8.095079, 41.714643]], [[-8.095478, 41.686166], [-8.083441, 41.687646], [-8.074985, 41.67836], [-8.08026, 41.669395], [-8.083737, 41.666806], [-8.095744, 41.667124], [-8.098597, 41.669541], [-8.102586, 41.678579], [-8.095478, 41.686166]], [[-8.132134, 41.640809], [-8.129056, 41.633747], [-8.132272, 41.630541], [-8.144781, 41.633865], [-8.132134, 41.640809]], [[-8.108304, 41.627449], [-8.096165, 41.637032], [-8.08413, 41.639057], [-8.07217, 41.63581], [-8.057775, 41.624178], [-8.053503, 41.615136], [-8.054163, 41.606134], [-8.060581, 41.597179], [-8.072822, 41.59024], [-8.084847, 41.588371], [-8.09683, 41.589363], [-8.108759, 41.594369], [-8.112633, 41.597593], [-8.117463, 41.606637], [-8.116349, 41.615636], [-8.108304, 41.627449]]], [[[-7.952885, 41.601043], [-7.952885, 41.601043], [-7.953203, 41.601599], [-7.952885, 41.601043]]]]}}, {"id": "7", "type": "Feature", "properties": {"fill": "#a3a3a3", "value_min": 0.0, "value_max": 0.25}, "geometry": {"type": "MultiPolygon", "coordinates": [[[[-8.594352, 41.618478], [-8.596888, 41.600311], [-8.593341, 41.582284], [-8.583036, 41.564232], [-8.574701, 41.555194], [-8.553087, 41.539993], [-8.52098, 41.527961], [-8.51724, 41.523892], [-8.512206, 41.509909], [-8.505244, 41.500872], [-8.493507, 41.493329], [-8.46963, 41.483159], [-8.464307, 41.473667], [-8.455833, 41.464619], [-8.445881, 41.458824], [-8.433926, 41.45666], [-8.421937, 41.458384], [-8.409892, 41.466266], [-8.405693, 41.473379], [-8.404102, 41.482378], [-8.409619, 41.496308], [-8.421525, 41.504795], [-8.433484, 41.50738], [-8.445461, 41.508075], [-8.457391, 41.514399], [-8.460373, 41.518685], [-8.4917, 41.536843], [-8.490361, 41.545844], [-8.456781, 41.587258], [-8.444699, 41.597169], [-8.420596, 41.608838], [-8.40985, 41.617517], [-8.40262, 41.626487], [-8.399922, 41.63548], [-8.40871, 41.65354], [-8.410456, 41.662556], [-8.406268, 41.671542], [-8.39253, 41.680477], [-8.38389, 41.682517], [-8.369412, 41.680353], [-8.358083, 41.671283], [-8.354855, 41.662258], [-8.353928, 41.644238], [-8.348286, 41.638758], [-8.343816, 41.635174], [-8.281915, 41.607782], [-8.270448, 41.598703], [-8.268746, 41.589685], [-8.286377, 41.544759], [-8.287942, 41.517747], [-8.283408, 41.499704], [-8.27793, 41.487596], [-8.26614, 41.470797], [-8.231721, 41.436319], [-8.218957, 41.418218], [-8.216617, 41.409194], [-8.219017, 41.405717], [-8.224549, 41.400241], [-8.231078, 41.397473], [-8.238225, 41.391324], [-8.243199, 41.383795], [-8.241519, 41.373331], [-8.239174, 41.371315], [-8.232024, 41.369971], [-8.224854, 41.370878], [-8.21738, 41.368182], [-8.214399, 41.373587], [-8.208127, 41.376968], [-8.199163, 41.377423], [-8.194677, 41.374275], [-8.191691, 41.376302], [-8.189299, 41.375403], [-8.184818, 41.376756], [-8.168382, 41.377438], [-8.164499, 41.38059], [-8.152544, 41.375866], [-8.151049, 41.37339], [-8.145073, 41.374742], [-8.139694, 41.377894], [-8.133418, 41.374292], [-8.125051, 41.375193], [-8.119672, 41.376768], [-8.119672, 41.378569], [-8.116683, 41.380144], [-8.117877, 41.385771], [-8.113992, 41.386896], [-8.112795, 41.390723], [-8.110105, 41.390947], [-8.108011, 41.393648], [-8.103827, 41.392972], [-8.105321, 41.394998], [-8.10263, 41.396123], [-8.10801, 41.398825], [-8.108606, 41.403102], [-8.104419, 41.406252], [-8.104119, 41.408728], [-8.101727, 41.409403], [-8.102025, 41.411204], [-8.092756, 41.411201], [-8.09126, 41.414352], [-8.079893, 41.41975], [-8.077503, 41.416597], [-8.070923, 41.41862], [-8.066739, 41.416142], [-8.061654, 41.417489], [-8.059852, 41.424916], [-8.055959, 41.429415], [-8.05745, 41.432793], [-8.056549, 41.436394], [-8.069999, 41.447206], [-8.068788, 41.462286], [-8.073872, 41.46499], [-8.074468, 41.468141], [-8.073564, 41.474668], [-8.066374, 41.482318], [-8.066069, 41.48817], [-8.072054, 41.490199], [-8.07175, 41.494925], [-8.078333, 41.49898], [-8.078332, 41.500331], [-8.093, 41.504613], [-8.089398, 41.519242], [-8.090594, 41.522169], [-8.093588, 41.52307], [-8.091487, 41.531173], [-8.097775, 41.536127], [-8.097774, 41.537927], [-8.106759, 41.543106], [-8.10616, 41.543782], [-8.101666, 41.542655], [-8.094175, 41.544904], [-8.087885, 41.542876], [-8.083389, 41.5449], [-8.082488, 41.548031], [-8.106861, 41.552512], [-8.145272, 41.555217], [-8.157223, 41.558323], [-8.169154, 41.56306], [-8.200881, 41.580226], [-8.214867, 41.589329], [-8.224647, 41.598403], [-8.22491, 41.607412], [-8.217776, 41.616371], [-8.18009, 41.646569], [-8.167918, 41.659269], [-8.160466, 41.670009], [-8.157752, 41.678996], [-8.160141, 41.688021], [-8.167358, 41.702752], [-8.167337, 41.715094], [-8.159605, 41.724045], [-8.142894, 41.734832], [-8.118678, 41.747036], [-8.10662, 41.749294], [-8.094611, 41.74795], [-8.084678, 41.741487], [-8.070932, 41.721911], [-8.066394, 41.705312], [-8.059256, 41.698128], [-8.035359, 41.68884], [-8.033799, 41.687028], [-8.045446, 41.660104], [-8.042035, 41.651069], [-8.036008, 41.645354], [-8.024081, 41.639974], [-8.000118, 41.636727], [-7.984478, 41.632561], [-7.970958, 41.623433], [-7.953272, 41.601719], [-7.953203, 41.601599], [-7.952885, 41.601043], [-7.947808, 41.60081], [-7.942126, 41.595399], [-7.935832, 41.594713], [-7.93791, 41.601694], [-7.937004, 41.603718], [-7.931604, 41.604384], [-7.930979, 41.612711], [-7.925556, 41.620354], [-7.920755, 41.620796], [-7.917748, 41.623041], [-7.915933, 41.627764], [-7.913229, 41.628885], [-7.912613, 41.63361], [-7.906014, 41.633147], [-7.906884, 41.641927], [-7.897869, 41.645511], [-7.89696, 41.647985], [-7.892759, 41.647976], [-7.892145, 41.651576], [-7.902319, 41.659925], [-7.899913, 41.66127], [-7.900198, 41.665547], [-7.898396, 41.665769], [-7.896885, 41.668692], [-7.883969, 41.67069], [-7.879755, 41.673607], [-7.877044, 41.676077], [-7.876723, 41.681253], [-7.873401, 41.686198], [-7.868896, 41.686413], [-7.867408, 41.683258], [-7.864403, 41.683701], [-7.864096, 41.685276], [-7.860493, 41.685268], [-7.857773, 41.689538], [-7.854776, 41.68818], [-7.847538, 41.695365], [-7.837309, 41.699391], [-7.835792, 41.702763], [-7.839682, 41.705924], [-7.838465, 41.709522], [-7.832453, 41.710407], [-7.825252, 41.708813], [-7.818621, 41.713522], [-7.815291, 41.718689], [-7.808986, 41.717996], [-7.808396, 41.715744], [-7.803298, 41.714154], [-7.790966, 41.717044], [-7.789449, 41.719966], [-7.78464, 41.720402], [-7.78252, 41.723546], [-7.776204, 41.724652], [-7.773786, 41.727346], [-7.770798, 41.72441], [-7.765698, 41.723044], [-7.761765, 41.727758], [-7.762933, 41.733839], [-7.759307, 41.737203], [-7.759597, 41.739005], [-7.75689, 41.739446], [-7.75868, 41.741729], [-7.769821, 41.750929], [-7.779782, 41.765673], [-7.783854, 41.78373], [-7.782063, 41.792718], [-7.777218, 41.801673], [-7.766178, 41.810562], [-7.756561, 41.814735], [-7.730549, 41.819477], [-7.73594, 41.823554], [-7.743152, 41.825154], [-7.742839, 41.827178], [-7.738919, 41.828515], [-7.740405, 41.831638], [-7.780459, 41.8243], [-7.792615, 41.818204], [-7.799119, 41.810911], [-7.805038, 41.792959], [-7.803688, 41.756918], [-7.80599, 41.746301], [-7.811586, 41.738986], [-7.818217, 41.73541], [-7.83029, 41.732748], [-7.842328, 41.731941], [-7.86635, 41.733451], [-7.883271, 41.739706], [-7.900691, 41.74888], [-7.907742, 41.757955], [-7.911447, 41.78501], [-7.914408, 41.794045], [-7.925272, 41.805371], [-7.937252, 41.808889], [-7.949287, 41.809093], [-8.009639, 41.798792], [-8.045756, 41.798278], [-8.069774, 41.802108], [-8.089372, 41.812296], [-8.093421, 41.811397], [-8.093723, 41.808471], [-8.101845, 41.809824], [-8.104853, 41.81185], [-8.115984, 41.812302], [-8.123807, 41.808702], [-8.138247, 41.808477], [-8.139751, 41.813203], [-8.14276, 41.812978], [-8.145769, 41.815453], [-8.149078, 41.814777], [-8.153893, 41.817928], [-8.161415, 41.818376], [-8.165326, 41.81815], [-8.173744, 41.808019], [-8.177054, 41.808017], [-8.182773, 41.812516], [-8.190291, 41.809587], [-8.197158, 41.814129], [-8.201063, 41.808724], [-8.204973, 41.807372], [-8.205872, 41.804445], [-8.213692, 41.803765], [-8.217598, 41.80016], [-8.217589, 41.793634], [-8.224207, 41.794303], [-8.229917, 41.791598], [-8.240744, 41.791588], [-8.24074, 41.789338], [-8.244347, 41.787984], [-8.245546, 41.785731], [-8.251257, 41.784375], [-8.251845, 41.777172], [-8.257551, 41.773564], [-8.261762, 41.774235], [-8.271366, 41.766346], [-8.280681, 41.764083], [-8.284038, 41.761109], [-8.284931, 41.757507], [-8.305674, 41.758152], [-8.311096, 41.762195], [-8.318308, 41.761283], [-8.325233, 41.765098], [-8.328234, 41.763292], [-8.336653, 41.763728], [-8.341756, 41.761468], [-8.344765, 41.762363], [-8.349267, 41.760103], [-8.352557, 41.755145], [-8.349814, 41.744122], [-8.352516, 41.743441], [-8.352203, 41.739616], [-8.357897, 41.735103], [-8.362407, 41.735994], [-8.368703, 41.73193], [-8.374122, 41.734845], [-8.384922, 41.73032], [-8.387032, 41.731891], [-8.393033, 41.729852], [-8.396942, 41.730518], [-8.400531, 41.726683], [-8.402934, 41.726452], [-8.404721, 41.722847], [-8.417349, 41.725067], [-8.422737, 41.720552], [-8.429643, 41.719859], [-8.430533, 41.717381], [-8.435927, 41.714441], [-8.441632, 41.713975], [-8.4446, 41.70654], [-8.453868, 41.697961], [-8.453255, 41.695487], [-8.461659, 41.694563], [-8.467939, 41.689593], [-8.478124, 41.685061], [-8.482012, 41.682123], [-8.484371, 41.674238], [-8.49308, 41.674886], [-8.499963, 41.671038], [-8.50927, 41.671233], [-8.51018, 41.672806], [-8.511967, 41.670324], [-8.509856, 41.668755], [-8.512252, 41.667847], [-8.514629, 41.663788], [-8.522103, 41.658811], [-8.525706, 41.659023], [-8.527769, 41.652714], [-8.534066, 41.652017], [-8.537951, 41.649302], [-8.537634, 41.646602], [-8.543876, 41.637352], [-8.543855, 41.633976], [-8.536342, 41.631977], [-8.535128, 41.62973], [-8.543431, 41.61462], [-8.554533, 41.615255], [-8.557244, 41.617046], [-8.562639, 41.61635], [-8.568056, 41.619031], [-8.570735, 41.616095], [-8.577321, 41.614269], [-8.581231, 41.615829], [-8.585766, 41.620988], [-8.591462, 41.620515], [-8.594352, 41.618478]], [[-7.902392, 41.735262], [-7.890398, 41.733501], [-7.88353, 41.730701], [-7.870109, 41.721563], [-7.868123, 41.712537], [-7.869899, 41.703547], [-7.876259, 41.694603], [-7.891179, 41.688083], [-7.90319, 41.688348], [-7.915133, 41.69268], [-7.926777, 41.704092], [-7.929755, 41.713127], [-7.927192, 41.72211], [-7.918385, 41.731035], [-7.902392, 41.735262]], [[-8.203365, 41.706786], [-8.195382, 41.69728], [-8.19922, 41.6883], [-8.203631, 41.685221], [-8.215651, 41.684872], [-8.222227, 41.688458], [-8.226181, 41.697492], [-8.215375, 41.707532], [-8.203365, 41.706786]], [[-8.241483, 41.531245], [-8.229521, 41.529186], [-8.223841, 41.526339], [-8.213713, 41.517263], [-8.210817, 41.508236], [-8.212954, 41.499243], [-8.222418, 41.490301], [-8.230021, 41.486931], [-8.242014, 41.485727], [-8.256516, 41.490526], [-8.265825, 41.498701], [-8.269048, 41.508621], [-8.267123, 41.517616], [-8.257738, 41.526563], [-8.253495, 41.529121], [-8.241483, 41.531245]], [[-8.110164, 41.492003], [-8.104412, 41.489442], [-8.098485, 41.480389], [-8.104509, 41.471428], [-8.110487, 41.468359], [-8.122458, 41.468689], [-8.127638, 41.471606], [-8.133635, 41.480659], [-8.12815, 41.489625], [-8.122141, 41.492209], [-8.110164, 41.492003]]], [[[-8.095079, 41.714643], [-8.107069, 41.716856], [-8.108328, 41.714652], [-8.119163, 41.711498], [-8.131363, 41.69823], [-8.135585, 41.696846], [-8.139817, 41.687871], [-8.131591, 41.681268], [-8.119571, 41.681598], [-8.097863, 41.696556], [-8.095234, 41.703549], [-8.091911, 41.705516], [-8.095079, 41.714643]], [[-8.115807, 41.696695], [-8.11939, 41.694901], [-8.121327, 41.696738], [-8.119333, 41.699094], [-8.115807, 41.696695]]], [[[-8.132134, 41.640809], [-8.144781, 41.633865], [-8.132272, 41.630541], [-8.129056, 41.633747], [-8.132134, 41.640809]]], [[[-8.649715, 41.40664], [-8.661696, 41.403552], [-8.673689, 41.397605], [-8.685033, 41.384407], [-8.687394, 41.375406], [-8.686553, 41.366396], [-8.683142, 41.357379], [-8.676806, 41.348354], [-8.662046, 41.335808], [-8.65013, 41.329206], [-8.638204, 41.324962], [-8.614321, 41.322363], [-8.602364, 41.323719], [-8.590392, 41.327296], [-8.584453, 41.330042], [-8.572958, 41.339008], [-8.567671, 41.347996], [-8.565983, 41.356997], [-8.567109, 41.366009], [-8.571053, 41.375031], [-8.579046, 41.384068], [-8.589984, 41.392424], [-8.601905, 41.398995], [-8.625788, 41.406404], [-8.637747, 41.407445], [-8.649715, 41.40664]], [[-8.626009, 41.367962], [-8.623654, 41.366208], [-8.622767, 41.357197], [-8.626086, 41.354512], [-8.638043, 41.353978], [-8.642398, 41.35726], [-8.641556, 41.366265], [-8.637962, 41.368677], [-8.626009, 41.367962]]], [[[-8.490007, 41.227675], [-8.494804, 41.239606], [-8.502298, 41.248647], [-8.519197, 41.258914], [-8.531108, 41.262521], [-8.543038, 41.263665], [-8.554983, 41.262672], [-8.566945, 41.259042], [-8.578923, 41.252604], [-8.582663, 41.248966], [-8.590486, 41.239986], [-8.594068, 41.230991], [-8.594874, 41.221986], [-8.593111, 41.212972], [-8.588096, 41.203946], [-8.577934, 41.193801], [-8.575958, 41.195609], [-8.576894, 41.201908], [-8.574515, 41.202593], [-8.57423, 41.20462], [-8.567971, 41.204644], [-8.565895, 41.206227], [-8.567697, 41.208246], [-8.566512, 41.209376], [-8.559636, 41.206251], [-8.554271, 41.20627], [-8.549521, 41.209214], [-8.544157, 41.209458], [-8.54238, 41.211265], [-8.532257, 41.213102], [-8.52713, 41.203215], [-8.523236, 41.200077], [-8.51163, 41.203042], [-8.510456, 41.206197], [-8.505693, 41.207113], [-8.504239, 41.213646], [-8.500076, 41.21546], [-8.50308, 41.219502], [-8.502204, 41.222656], [-8.495642, 41.222227], [-8.490007, 41.227675]]]]}}, {"id": "8", "type": "Feature", "properties": {"fill": "#a3a3a3", "value_min": 0.25, "value_max": 0.5}, "geometry": {"type": "MultiPolygon", "coordinates": [[[[-7.730549, 41.819477], [-7.756561, 41.814735], [-7.766178, 41.810562], [-7.777218, 41.801673], [-7.782063, 41.792718], [-7.783854, 41.78373], [-7.779782, 41.765673], [-7.769821, 41.750929], [-7.75868, 41.741729], [-7.757456, 41.745525], [-7.748417, 41.749321], [-7.747786, 41.754496], [-7.743559, 41.757573], [-7.757542, 41.763998], [-7.766121, 41.774534], [-7.768134, 41.783563], [-7.765613, 41.792542], [-7.757012, 41.801456], [-7.744685, 41.806376], [-7.727318, 41.806942], [-7.730549, 41.819477]]], [[[-7.902392, 41.735262], [-7.918385, 41.731035], [-7.927192, 41.72211], [-7.929755, 41.713127], [-7.926777, 41.704092], [-7.915133, 41.69268], [-7.90319, 41.688348], [-7.891179, 41.688083], [-7.876259, 41.694603], [-7.869899, 41.703547], [-7.868123, 41.712537], [-7.870109, 41.721563], [-7.88353, 41.730701], [-7.890398, 41.733501], [-7.902392, 41.735262]], [[-7.890574, 41.72325], [-7.888309, 41.721741], [-7.887421, 41.712725], [-7.890811, 41.709514], [-7.902827, 41.709727], [-7.906449, 41.712908], [-7.904967, 41.721901], [-7.902596, 41.723285], [-7.890574, 41.72325]]], [[[-8.203365, 41.706786], [-8.215375, 41.707532], [-8.226181, 41.697492], [-8.222227, 41.688458], [-8.215651, 41.684872], [-8.203631, 41.685221], [-8.19922, 41.6883], [-8.195382, 41.69728], [-8.203365, 41.706786]]], [[[-8.115807, 41.696695], [-8.119333, 41.699094], [-8.121327, 41.696738], [-8.11939, 41.694901], [-8.115807, 41.696695]]], [[[-8.241483, 41.531245], [-8.253495, 41.529121], [-8.257738, 41.526563], [-8.267123, 41.517616], [-8.269048, 41.508621], [-8.265825, 41.498701], [-8.256516, 41.490526], [-8.242014, 41.485727], [-8.230021, 41.486931], [-8.222418, 41.490301], [-8.212954, 41.499243], [-8.210817, 41.508236], [-8.213713, 41.517263], [-8.223841, 41.526339], [-8.229521, 41.529186], [-8.241483, 41.531245]]], [[[-8.110164, 41.492003], [-8.122141, 41.492209], [-8.12815, 41.489625], [-8.133635, 41.480659], [-8.127638, 41.471606], [-8.122458, 41.468689], [-8.110487, 41.468359], [-8.104509, 41.471428], [-8.098485, 41.480389], [-8.104412, 41.489442], [-8.110164, 41.492003]]], [[[-8.626009, 41.367962], [-8.637962, 41.368677], [-8.641556, 41.366265], [-8.642398, 41.35726], [-8.638043, 41.353978], [-8.626086, 41.354512], [-8.622767, 41.357197], [-8.623654, 41.366208], [-8.626009, 41.367962]]]]}}, {"id": "9", "type": "Feature", "properties": {"fill": "#a3a3a3", "value_min": 0.5, "value_max": 0.75}, "geometry": {"type": "MultiPolygon", "coordinates": [[[[-7.727318, 41.806942], [-7.744685, 41.806376], [-7.757012, 41.801456], [-7.765613, 41.792542], [-7.768134, 41.783563], [-7.766121, 41.774534], [-7.757542, 41.763998], [-7.743559, 41.757573], [-7.740214, 41.763924], [-7.726937, 41.771755], [-7.725999, 41.77752], [-7.728976, 41.774129], [-7.733315, 41.772443], [-7.74532, 41.773828], [-7.751658, 41.783385], [-7.744937, 41.793487], [-7.732882, 41.794476], [-7.727224, 41.792123], [-7.723834, 41.787065], [-7.722591, 41.793347], [-7.728879, 41.797871], [-7.727318, 41.806942]]], [[[-7.890574, 41.72325], [-7.902596, 41.723285], [-7.904967, 41.721901], [-7.906449, 41.712908], [-7.902827, 41.709727], [-7.890811, 41.709514], [-7.887421, 41.712725], [-7.888309, 41.721741], [-7.890574, 41.72325]]]]}}, {"id": "10", "type": "Feature", "properties": {"fill": "#a3a3a3", "value_min": 0.75, "value_max": 1.0}, "geometry": {"type": "Polygon", "coordinates": [[[-7.723834, 41.787065], [-7.727224, 41.792123], [-7.732882, 41.794476], [-7.744937, 41.793487], [-7.751658, 41.783385], [-7.74532, 41.773828], [-7.733315, 41.772443], [-7.728976, 41.774129], [-7.725999, 41.77752], [-7.727191, 41.779184], [-7.724177, 41.780299], [-7.725372, 41.781653], [-7.723834, 41.787065]]]}}]}