{"type": "FeatureCollection", "features": [{"id": "0", "type": "Feature", "properties": {"fill": "#951d1d", "value_min": -2.75, "value_max": -2.5}, "geometry": {"type": "Polygon", "coordinates": [[[-8.686622, 41.195078], [-8.686418, 41.195248], [-8.686619, 41.195792], [-8.687397, 41.195251], [-8.686622, 41.195078]]]}}, {"id": "1", "type": "Feature", "properties": {"fill": "#a21c1c", "value_min": -2.5, "value_max": -2.25}, "geometry": {"type": "MultiPolygon", "coordinates": [[[[-8.420572, 41.722133], [-8.424197, 41.716669], [-8.419655, 41.713769], [-8.410748, 41.7166], [-8.419144, 41.723313], [-8.420572, 41.722133]]], [[[-8.3608, 41.491153], [-8.360654, 41.482145], [-8.349945, 41.473422], [-8.337976, 41.472712], [-8.32489, 41.48194], [-8.325794, 41.492559], [-8.33769, 41.50078], [-8.349676, 41.500329], [-8.3608, 41.491153]]], [[[-8.720799, 41.204344], [-8.723637, 41.195343], [-8.721723, 41.186331], [-8.710561, 41.175124], [-8.698658, 41.171012], [-8.686739, 41.1707], [-8.674801, 41.17404], [-8.661438, 41.186169], [-8.659192, 41.195171], [-8.661229, 41.204185], [-8.669747, 41.213217], [-8.674594, 41.215886], [-8.686509, 41.218832], [-8.698442, 41.218176], [-8.711788, 41.21333], [-8.720799, 41.204344]], [[-8.686622, 41.195078], [-8.687397, 41.195251], [-8.686619, 41.195792], [-8.686418, 41.195248], [-8.686622, 41.195078]]]]}}, {"id": "3", "type": "Feature", "properties": {"fill": "#c93e18", "value_min": -2.0, "value_max": -1.75}, "geometry": {"type": "MultiPolygon", "coordinates": [[[[-7.877701, 41.772106], [-7.883399, 41.766727], [-7.885347, 41.757739], [-7.879107, 41.748672], [-7.866172, 41.743597], [-7.85413, 41.744455], [-7.845204, 41.748336], [-7.838041, 41.757271], [-7.839708, 41.766294], [-7.841675, 41.768299], [-7.853578, 41.77549], [-7.865594, 41.776395], [-7.877701, 41.772106]], [[-7.853735, 41.766655], [-7.849714, 41.757388], [-7.853976, 41.75312], [-7.866061, 41.749876], [-7.876365, 41.757652], [-7.871173, 41.766608], [-7.865722, 41.769155], [-7.853735, 41.766655]]], [[[-8.446368, 41.705184], [-8.431806, 41.698933], [-8.419794, 41.698326], [-8.40775, 41.701092], [-8.395283, 41.707513], [-8.388073, 41.716482], [-8.38686, 41.725482], [-8.389145, 41.730986], [-8.396942, 41.730518], [-8.400025, 41.727135], [-8.39835, 41.725543], [-8.397688, 41.716533], [-8.4077, 41.706589], [-8.419739, 41.704359], [-8.431736, 41.706952], [-8.438526, 41.714209], [-8.43863, 41.714337], [-8.438708, 41.714433], [-8.441632, 41.713975], [-8.441618, 41.711049], [-8.446368, 41.705184]]], [[[-8.150394, 41.633907], [-8.144353, 41.624817], [-8.132381, 41.622406], [-8.127445, 41.624728], [-8.118927, 41.63367], [-8.12476, 41.642722], [-8.132066, 41.645874], [-8.1453, 41.642876], [-8.150394, 41.633907]]], [[[-8.361494, 41.516946], [-8.385555, 41.507212], [-8.397559, 41.504957], [-8.421511, 41.506331], [-8.433511, 41.504303], [-8.445542, 41.49853], [-8.453736, 41.491632], [-8.458338, 41.482646], [-8.458681, 41.47364], [-8.453907, 41.46461], [-8.445885, 41.458316], [-8.438458, 41.455528], [-8.421984, 41.453073], [-8.386001, 41.460004], [-8.350133, 41.454599], [-8.338151, 41.455474], [-8.326142, 41.458928], [-8.318512, 41.463888], [-8.310531, 41.472848], [-8.307766, 41.481838], [-8.308499, 41.49085], [-8.312405, 41.499881], [-8.325585, 41.512723], [-8.337523, 41.517183], [-8.349496, 41.518346], [-8.361494, 41.516946]], [[-8.349593, 41.508626], [-8.337613, 41.508327], [-8.325682, 41.503398], [-8.316385, 41.490897], [-8.316143, 41.481889], [-8.321441, 41.472913], [-8.326038, 41.469027], [-8.338058, 41.464674], [-8.350033, 41.464605], [-8.36197, 41.468498], [-8.369068, 41.473184], [-8.374179, 41.482219], [-8.373671, 41.491224], [-8.368173, 41.500201], [-8.361615, 41.504624], [-8.349593, 41.508626]], [[-8.421617, 41.494448], [-8.412994, 41.491431], [-8.405578, 41.482386], [-8.409757, 41.4734], [-8.421852, 41.467979], [-8.433815, 41.469427], [-8.439417, 41.473548], [-8.442547, 41.482571], [-8.433611, 41.492857], [-8.421617, 41.494448]]], [[[-8.619407, 41.178551], [-8.621122, 41.195052], [-8.628846, 41.213093], [-8.635939, 41.222123], [-8.648886, 41.231171], [-8.662561, 41.23602], [-8.674485, 41.237888], [-8.686416, 41.238243], [-8.710295, 41.235475], [-8.726033, 41.231381], [-8.746183, 41.222419], [-8.758622, 41.213438], [-8.766971, 41.204447], [-8.772092, 41.195449], [-8.775042, 41.186447], [-8.774533, 41.16843], [-8.770232, 41.157869], [-8.760428, 41.144934], [-8.67527, 41.147484], [-8.676193, 41.146567], [-8.674793, 41.146932], [-8.674204, 41.147693], [-8.674249, 41.153184], [-8.686834, 41.150621], [-8.698753, 41.150418], [-8.710662, 41.152242], [-8.722561, 41.156627], [-8.734447, 41.164885], [-8.743407, 41.177373], [-8.745603, 41.186386], [-8.744956, 41.195392], [-8.741374, 41.204392], [-8.733764, 41.213383], [-8.719898, 41.222358], [-8.698395, 41.228396], [-8.686461, 41.228978], [-8.674536, 41.227455], [-8.660565, 41.222198], [-8.649559, 41.213158], [-8.644037, 41.204133], [-8.64175, 41.194662], [-8.640929, 41.196241], [-8.638841, 41.196025], [-8.638231, 41.194227], [-8.634946, 41.193341], [-8.632526, 41.188624], [-8.627456, 41.187971], [-8.62263, 41.180113], [-8.619407, 41.178551]]], [[[-8.654683, 41.164527], [-8.659499, 41.160592], [-8.656143, 41.160832], [-8.654683, 41.164527]]], [[[-8.660331, 41.159913], [-8.664884, 41.15719], [-8.66117, 41.156307], [-8.662078, 41.158104], [-8.660331, 41.159913]]], [[[-8.667423, 41.156104], [-8.667423, 41.156104], [-8.667544, 41.156053], [-8.667423, 41.156104]]]]}}, {"id": "4", "type": "Feature", "properties": {"fill": "#e57b10", "value_min": -1.75, "value_max": -1.5}, "geometry": {"type": "MultiPolygon", "coordinates": [[[[-7.724451, 41.78455], [-7.73044, 41.792159], [-7.732909, 41.793085], [-7.745307, 41.792322], [-7.751506, 41.783383], [-7.745321, 41.773781], [-7.73331, 41.772715], [-7.726675, 41.778732], [-7.7258, 41.779854], [-7.725683, 41.780004], [-7.725625, 41.780079], [-7.7251, 41.780752], [-7.724451, 41.78455]]], [[[-7.877516, 41.78272], [-7.88889, 41.775787], [-7.894775, 41.766837], [-7.895489, 41.757837], [-7.890143, 41.748292], [-7.878252, 41.740487], [-7.866285, 41.737154], [-7.854257, 41.737305], [-7.842185, 41.739941], [-7.826485, 41.748146], [-7.820955, 41.757097], [-7.821242, 41.766106], [-7.829489, 41.776814], [-7.841407, 41.78318], [-7.853402, 41.78535], [-7.865443, 41.784969], [-7.877516, 41.78272]], [[-7.877701, 41.772106], [-7.865594, 41.776395], [-7.853578, 41.77549], [-7.841675, 41.768299], [-7.839708, 41.766294], [-7.838041, 41.757271], [-7.845204, 41.748336], [-7.85413, 41.744455], [-7.866172, 41.743597], [-7.879107, 41.748672], [-7.885347, 41.757739], [-7.883399, 41.766727], [-7.877701, 41.772106]]], [[[-8.456557, 41.695295], [-8.443884, 41.692021], [-8.431872, 41.691469], [-8.419843, 41.692793], [-8.401468, 41.698538], [-8.385601, 41.707462], [-8.377257, 41.716424], [-8.374308, 41.725415], [-8.374923, 41.734393], [-8.384922, 41.73032], [-8.387032, 41.731891], [-8.389145, 41.730986], [-8.38686, 41.725482], [-8.388073, 41.716482], [-8.395283, 41.707513], [-8.40775, 41.701092], [-8.419794, 41.698326], [-8.431806, 41.698933], [-8.446368, 41.705184], [-8.453868, 41.697961], [-8.453255, 41.695487], [-8.456557, 41.695295]]], [[[-8.156072, 41.646661], [-8.160335, 41.642987], [-8.164392, 41.634009], [-8.16305, 41.624993], [-8.156461, 41.616892], [-8.144542, 41.610498], [-8.132559, 41.609153], [-8.120524, 41.611587], [-8.111897, 41.615602], [-8.103584, 41.624544], [-8.104572, 41.633559], [-8.109352, 41.642603], [-8.119992, 41.650733], [-8.131954, 41.65423], [-8.14398, 41.653008], [-8.156072, 41.646661]], [[-8.150394, 41.633907], [-8.1453, 41.642876], [-8.132066, 41.645874], [-8.12476, 41.642722], [-8.118927, 41.63367], [-8.127445, 41.624728], [-8.132381, 41.622406], [-8.144353, 41.624817], [-8.150394, 41.633907]]], [[[-8.468441, 41.62837], [-8.464441, 41.617785], [-8.456572, 41.61225], [-8.444591, 41.609798], [-8.432559, 41.613242], [-8.428104, 41.61761], [-8.425783, 41.626605], [-8.430536, 41.635636], [-8.444312, 41.642285], [-8.456325, 41.64162], [-8.465823, 41.635805], [-8.468441, 41.62837]]], [[[-8.096476, 41.614793], [-8.084492, 41.613462], [-8.083136, 41.615376], [-8.084438, 41.617305], [-8.096453, 41.616435], [-8.098261, 41.615495], [-8.096476, 41.614793]]], [[[-8.10047, 41.538918], [-8.109515, 41.539371], [-8.116985, 41.534576], [-8.1193, 41.525586], [-8.109804, 41.518252], [-8.097815, 41.518625], [-8.092997, 41.522395], [-8.091786, 41.531848], [-8.10047, 41.538918]]], [[[-8.409347, 41.526296], [-8.445388, 41.516578], [-8.457385, 41.51506], [-8.481289, 41.52321], [-8.493288, 41.521408], [-8.497774, 41.518855], [-8.503248, 41.509871], [-8.501673, 41.491849], [-8.505579, 41.481201], [-8.517576, 41.478629], [-8.541509, 41.481797], [-8.553493, 41.480885], [-8.565497, 41.477023], [-8.577534, 41.467712], [-8.583317, 41.456144], [-8.58258, 41.447134], [-8.577111, 41.438107], [-8.565809, 41.430204], [-8.553865, 41.426673], [-8.5419, 41.42626], [-8.529146, 41.428913], [-8.510491, 41.437842], [-8.505877, 41.442067], [-8.493876, 41.445978], [-8.458048, 41.435518], [-8.43413, 41.433219], [-8.338272, 41.443566], [-8.326266, 41.446976], [-8.314229, 41.45319], [-8.30397, 41.463801], [-8.30014, 41.472785], [-8.299312, 41.481787], [-8.304048, 41.499831], [-8.309327, 41.50887], [-8.313579, 41.514821], [-8.325459, 41.524806], [-8.337387, 41.530481], [-8.349345, 41.533373], [-8.361324, 41.534265], [-8.38532, 41.532029], [-8.409347, 41.526296]], [[-8.361494, 41.516946], [-8.349496, 41.518346], [-8.337523, 41.517183], [-8.325585, 41.512723], [-8.312405, 41.499881], [-8.308499, 41.49085], [-8.307766, 41.481838], [-8.310531, 41.472848], [-8.318512, 41.463888], [-8.326142, 41.458928], [-8.338151, 41.455474], [-8.350133, 41.454599], [-8.386001, 41.460004], [-8.421984, 41.453073], [-8.438458, 41.455528], [-8.445885, 41.458316], [-8.453907, 41.46461], [-8.458681, 41.47364], [-8.458338, 41.482646], [-8.453736, 41.491632], [-8.445542, 41.49853], [-8.433511, 41.504303], [-8.421511, 41.506331], [-8.397559, 41.504957], [-8.385555, 41.507212], [-8.361494, 41.516946]]], [[[-8.55813, 41.206706], [-8.551196, 41.212816], [-8.547825, 41.221811], [-8.555209, 41.229285], [-8.567144, 41.228871], [-8.579102, 41.224748], [-8.609651, 41.240053], [-8.626708, 41.245507], [-8.650558, 41.249091], [-8.67443, 41.248854], [-8.698312, 41.246423], [-8.746086, 41.237656], [-8.767873, 41.231473], [-8.781926, 41.225651], [-8.802442, 41.21403], [-8.799695, 41.14406], [-8.760428, 41.144934], [-8.770232, 41.157869], [-8.774533, 41.16843], [-8.775042, 41.186447], [-8.772092, 41.195449], [-8.766971, 41.204447], [-8.758622, 41.213438], [-8.746183, 41.222419], [-8.726033, 41.231381], [-8.710295, 41.235475], [-8.686416, 41.238243], [-8.674485, 41.237888], [-8.662561, 41.23602], [-8.648886, 41.231171], [-8.635939, 41.222123], [-8.628846, 41.213093], [-8.621122, 41.195052], [-8.619407, 41.178551], [-8.613374, 41.177451], [-8.608583, 41.174095], [-8.609164, 41.172066], [-8.604942, 41.164881], [-8.59422, 41.165149], [-8.589174, 41.167645], [-8.589194, 41.170572], [-8.583263, 41.174422], [-8.582094, 41.177803], [-8.578825, 41.178941], [-8.581296, 41.191762], [-8.575958, 41.195609], [-8.576894, 41.201908], [-8.574515, 41.202593], [-8.57423, 41.20462], [-8.567971, 41.204644], [-8.565895, 41.206227], [-8.567697, 41.208246], [-8.566512, 41.209376], [-8.558799, 41.206254], [-8.558149, 41.206693], [-8.55813, 41.206706]]]]}}, {"id": "5", "type": "Feature", "properties": {"fill": "#e19f31", "value_min": -1.5, "value_max": -1.25}, "geometry": {"type": "MultiPolygon", "coordinates": [[[[-8.522378, 41.65881], [-8.511176, 41.636007], [-8.497554, 41.617934], [-8.467105, 41.590775], [-8.459839, 41.581734], [-8.459776, 41.572726], [-8.466759, 41.563752], [-8.477542, 41.554794], [-8.495688, 41.545868], [-8.521273, 41.53697], [-8.541563, 41.528045], [-8.572816, 41.501143], [-8.597108, 41.483216], [-8.606626, 41.474241], [-8.618416, 41.456266], [-8.627491, 41.429273], [-8.626339, 41.420262], [-8.621442, 41.411238], [-8.611381, 41.402197], [-8.585649, 41.384092], [-8.55433, 41.358522], [-8.542423, 41.351639], [-8.530477, 41.350498], [-8.518497, 41.354124], [-8.506496, 41.360221], [-8.45689, 41.392564], [-8.420965, 41.410404], [-8.386365, 41.421326], [-8.326429, 41.431209], [-8.314411, 41.43588], [-8.30236, 41.44353], [-8.292737, 41.454725], [-8.289515, 41.463712], [-8.29038, 41.481733], [-8.3016, 41.51437], [-8.313351, 41.536423], [-8.325187, 41.551009], [-8.337086, 41.560002], [-8.349016, 41.566192], [-8.387191, 41.58137], [-8.396784, 41.588383], [-8.402122, 41.599463], [-8.405652, 41.617496], [-8.415607, 41.635561], [-8.43223, 41.650792], [-8.449292, 41.662749], [-8.450857, 41.671764], [-8.437627, 41.680707], [-8.389632, 41.698476], [-8.372709, 41.707392], [-8.36124, 41.716336], [-8.354444, 41.725305], [-8.351434, 41.734295], [-8.351053, 41.743894], [-8.352516, 41.743441], [-8.352203, 41.739616], [-8.357897, 41.735103], [-8.362407, 41.735994], [-8.368703, 41.73193], [-8.371416, 41.7344], [-8.374923, 41.734393], [-8.374308, 41.725415], [-8.377257, 41.716424], [-8.385601, 41.707462], [-8.401468, 41.698538], [-8.419843, 41.692793], [-8.431872, 41.691469], [-8.443884, 41.692021], [-8.456557, 41.695295], [-8.461659, 41.694563], [-8.482012, 41.682123], [-8.484371, 41.674238], [-8.49308, 41.674886], [-8.499963, 41.671038], [-8.50927, 41.671233], [-8.51018, 41.672806], [-8.511967, 41.670324], [-8.509856, 41.668755], [-8.522378, 41.65881]], [[-8.468441, 41.62837], [-8.465823, 41.635805], [-8.456325, 41.64162], [-8.444312, 41.642285], [-8.430536, 41.635636], [-8.425783, 41.626605], [-8.428104, 41.61761], [-8.432559, 41.613242], [-8.444591, 41.609798], [-8.456572, 41.61225], [-8.464441, 41.617785], [-8.468441, 41.62837]], [[-8.409347, 41.526296], [-8.38532, 41.532029], [-8.361324, 41.534265], [-8.349345, 41.533373], [-8.337387, 41.530481], [-8.325459, 41.524806], [-8.313579, 41.514821], [-8.309327, 41.50887], [-8.304048, 41.499831], [-8.299312, 41.481787], [-8.30014, 41.472785], [-8.30397, 41.463801], [-8.314229, 41.45319], [-8.326266, 41.446976], [-8.338272, 41.443566], [-8.43413, 41.433219], [-8.458048, 41.435518], [-8.493876, 41.445978], [-8.505877, 41.442067], [-8.510491, 41.437842], [-8.529146, 41.428913], [-8.5419, 41.42626], [-8.553865, 41.426673], [-8.565809, 41.430204], [-8.577111, 41.438107], [-8.58258, 41.447134], [-8.583317, 41.456144], [-8.577534, 41.467712], [-8.565497, 41.477023], [-8.553493, 41.480885], [-8.541509, 41.481797], [-8.517576, 41.478629], [-8.505579, 41.481201], [-8.501673, 41.491849], [-8.503248, 41.509871], [-8.497774, 41.518855], [-8.493288, 41.521408], [-8.481289, 41.52321], [-8.457385, 41.51506], [-8.445388, 41.516578], [-8.409347, 41.526296]]], [[[-8.352342, 41.75177], [-8.352342, 41.75177], [-8.352548, 41.752614], [-8.352342, 41.75177]]], [[[-7.727914, 41.807889], [-7.744663, 41.807518], [-7.756753, 41.80485], [-7.781011, 41.795223], [-7.793084, 41.793215], [-7.805078, 41.795452], [-7.840955, 41.808291], [-7.852995, 41.808205], [-7.865125, 41.802989], [-7.877173, 41.802368], [-7.88915, 41.805848], [-7.913242, 41.804939], [-7.937241, 41.809532], [-7.949293, 41.808708], [-7.960677, 41.80348], [-7.966373, 41.794524], [-7.961671, 41.785475], [-7.949746, 41.781025], [-7.937718, 41.7807], [-7.925648, 41.782859], [-7.913705, 41.777511], [-7.90854, 41.748955], [-7.901227, 41.739879], [-7.878419, 41.730868], [-7.866437, 41.72849], [-7.762355, 41.729709], [-7.762933, 41.733839], [-7.759307, 41.737203], [-7.759597, 41.739005], [-7.75689, 41.739446], [-7.758687, 41.740577], [-7.757758, 41.745301], [-7.748417, 41.749321], [-7.747786, 41.754496], [-7.743866, 41.756509], [-7.740214, 41.763924], [-7.726937, 41.771755], [-7.725406, 41.776252], [-7.726675, 41.778732], [-7.73331, 41.772715], [-7.745321, 41.773781], [-7.751506, 41.783383], [-7.745307, 41.792322], [-7.732909, 41.793085], [-7.73044, 41.792159], [-7.724451, 41.78455], [-7.722296, 41.792446], [-7.728879, 41.797871], [-7.72705, 41.801691], [-7.727914, 41.807889]], [[-7.877516, 41.78272], [-7.865443, 41.784969], [-7.853402, 41.78535], [-7.841407, 41.78318], [-7.829489, 41.776814], [-7.821242, 41.766106], [-7.820955, 41.757097], [-7.826485, 41.748146], [-7.842185, 41.739941], [-7.854257, 41.737305], [-7.866285, 41.737154], [-7.878252, 41.740487], [-7.890143, 41.748292], [-7.895489, 41.757837], [-7.894775, 41.766837], [-7.88889, 41.775787], [-7.877516, 41.78272]]], [[[-7.7251, 41.780752], [-7.7251, 41.780752], [-7.725625, 41.780079], [-7.7251, 41.780752]]], [[[-7.725683, 41.780004], [-7.725683, 41.780004], [-7.7258, 41.779854], [-7.725683, 41.780004]]], [[[-8.126975, 41.696781], [-8.119507, 41.686315], [-8.107448, 41.689418], [-8.101136, 41.696582], [-8.107235, 41.704845], [-8.11924, 41.705873], [-8.126975, 41.696781]]], [[[-8.070826, 41.569878], [-8.055979, 41.597142], [-8.054771, 41.606139], [-8.056619, 41.615161], [-8.061958, 41.624212], [-8.072189, 41.634446], [-8.095925, 41.654179], [-8.10783, 41.661795], [-8.119775, 41.666649], [-8.131779, 41.66725], [-8.143816, 41.665397], [-8.155888, 41.660758], [-8.16799, 41.6537], [-8.179196, 41.643123], [-8.184934, 41.634157], [-8.1873, 41.625167], [-8.186604, 41.616154], [-8.182536, 41.607118], [-8.17486, 41.598056], [-8.134868, 41.570741], [-8.133334, 41.561722], [-8.140675, 41.543763], [-8.141764, 41.534763], [-8.139523, 41.525739], [-8.131172, 41.516669], [-8.121866, 41.512549], [-8.109926, 41.509375], [-8.091501, 41.508952], [-8.091196, 41.516767], [-8.089398, 41.519468], [-8.090594, 41.522169], [-8.092997, 41.522395], [-8.097815, 41.518625], [-8.109804, 41.518252], [-8.1193, 41.525586], [-8.116985, 41.534576], [-8.109515, 41.539371], [-8.10047, 41.538918], [-8.106459, 41.543782], [-8.101666, 41.542655], [-8.094175, 41.544904], [-8.087885, 41.542876], [-8.083389, 41.5449], [-8.080687, 41.551651], [-8.074097, 41.549848], [-8.073494, 41.553449], [-8.075891, 41.554575], [-8.076188, 41.557276], [-8.079783, 41.558403], [-8.082176, 41.564032], [-8.070826, 41.569878]], [[-8.156072, 41.646661], [-8.14398, 41.653008], [-8.131954, 41.65423], [-8.119992, 41.650733], [-8.109352, 41.642603], [-8.104572, 41.633559], [-8.103584, 41.624544], [-8.111897, 41.615602], [-8.120524, 41.611587], [-8.132559, 41.609153], [-8.144542, 41.610498], [-8.156461, 41.616892], [-8.16305, 41.624993], [-8.164392, 41.634009], [-8.160335, 41.642987], [-8.156072, 41.646661]], [[-8.096476, 41.614793], [-8.098261, 41.615495], [-8.096453, 41.616435], [-8.084438, 41.617305], [-8.083136, 41.615376], [-8.084492, 41.613462], [-8.096476, 41.614793]]], [[[-8.455401, 41.251835], [-8.483202, 41.282161], [-8.506933, 41.302346], [-8.530708, 41.318349], [-8.54264, 41.320719], [-8.554597, 41.319357], [-8.566572, 41.315352], [-8.602519, 41.298222], [-8.639306, 41.276181], [-8.658087, 41.26723], [-8.6873, 41.258305], [-8.722155, 41.252834], [-8.746032, 41.251636], [-8.769901, 41.252283], [-8.80408, 41.25569], [-8.802442, 41.21403], [-8.781926, 41.225651], [-8.767873, 41.231473], [-8.746086, 41.237656], [-8.698312, 41.246423], [-8.67443, 41.248854], [-8.650558, 41.249091], [-8.626708, 41.245507], [-8.609651, 41.240053], [-8.579102, 41.224748], [-8.567144, 41.228871], [-8.555209, 41.229285], [-8.547825, 41.221811], [-8.551196, 41.212816], [-8.55813, 41.206706], [-8.554271, 41.20627], [-8.549521, 41.209214], [-8.544157, 41.209458], [-8.54238, 41.211265], [-8.532257, 41.213102], [-8.52713, 41.203215], [-8.523236, 41.200077], [-8.51163, 41.203042], [-8.510456, 41.206197], [-8.505693, 41.207113], [-8.504239, 41.213646], [-8.500076, 41.21546], [-8.50308, 41.219502], [-8.502204, 41.222656], [-8.495642, 41.222227], [-8.495947, 41.223351], [-8.490894, 41.226294], [-8.487935, 41.230354], [-8.490331, 41.232373], [-8.489156, 41.235528], [-8.486181, 41.236888], [-8.484411, 41.240495], [-8.476644, 41.237817], [-8.475756, 41.23917], [-8.471283, 41.239184], [-8.471604, 41.243459], [-8.469227, 41.245267], [-8.463258, 41.244384], [-8.459989, 41.246644], [-8.454323, 41.246886], [-8.455401, 41.251835]]], [[[-8.558149, 41.206693], [-8.558149, 41.206693], [-8.558799, 41.206254], [-8.558149, 41.206693]]]]}}, {"id": "2", "type": "Feature", "properties": {"fill": "#b11c1c", "value_min": -2.25, "value_max": -2.0}, "geometry": {"type": "MultiPolygon", "coordinates": [[[[-7.853735, 41.766655], [-7.865722, 41.769155], [-7.871173, 41.766608], [-7.876365, 41.757652], [-7.866061, 41.749876], [-7.853976, 41.75312], [-7.849714, 41.757388], [-7.853735, 41.766655]]], [[[-8.438708, 41.714433], [-8.438708, 41.714433], [-8.43863, 41.714337], [-8.438708, 41.714433]]], [[[-8.438526, 41.714209], [-8.431736, 41.706952], [-8.419739, 41.704359], [-8.4077, 41.706589], [-8.397688, 41.716533], [-8.39835, 41.725543], [-8.400025, 41.727135], [-8.402934, 41.726452], [-8.404721, 41.722847], [-8.413744, 41.725076], [-8.417349, 41.725067], [-8.419144, 41.723313], [-8.410748, 41.7166], [-8.419655, 41.713769], [-8.424197, 41.716669], [-8.420572, 41.722133], [-8.422737, 41.720552], [-8.429643, 41.719859], [-8.430833, 41.717155], [-8.438526, 41.714209]]], [[[-8.349593, 41.508626], [-8.361615, 41.504624], [-8.368173, 41.500201], [-8.373671, 41.491224], [-8.374179, 41.482219], [-8.369068, 41.473184], [-8.36197, 41.468498], [-8.350033, 41.464605], [-8.338058, 41.464674], [-8.326038, 41.469027], [-8.321441, 41.472913], [-8.316143, 41.481889], [-8.316385, 41.490897], [-8.325682, 41.503398], [-8.337613, 41.508327], [-8.349593, 41.508626]], [[-8.3608, 41.491153], [-8.349676, 41.500329], [-8.33769, 41.50078], [-8.325794, 41.492559], [-8.32489, 41.48194], [-8.337976, 41.472712], [-8.349945, 41.473422], [-8.360654, 41.482145], [-8.3608, 41.491153]]], [[[-8.421617, 41.494448], [-8.433611, 41.492857], [-8.442547, 41.482571], [-8.439417, 41.473548], [-8.433815, 41.469427], [-8.421852, 41.467979], [-8.409757, 41.4734], [-8.405578, 41.482386], [-8.412994, 41.491431], [-8.421617, 41.494448]]], [[[-8.64175, 41.194662], [-8.644037, 41.204133], [-8.649559, 41.213158], [-8.660565, 41.222198], [-8.674536, 41.227455], [-8.686461, 41.228978], [-8.698395, 41.228396], [-8.719898, 41.222358], [-8.733764, 41.213383], [-8.741374, 41.204392], [-8.744956, 41.195392], [-8.745603, 41.186386], [-8.743407, 41.177373], [-8.734447, 41.164885], [-8.722561, 41.156627], [-8.710662, 41.152242], [-8.698753, 41.150418], [-8.686834, 41.150621], [-8.674249, 41.153184], [-8.672489, 41.15648], [-8.669814, 41.157168], [-8.667544, 41.156053], [-8.667423, 41.156104], [-8.664884, 41.15719], [-8.660331, 41.159913], [-8.659499, 41.160592], [-8.654683, 41.164527], [-8.653231, 41.169174], [-8.655366, 41.175467], [-8.647955, 41.180228], [-8.647696, 41.185181], [-8.64175, 41.194662]], [[-8.720799, 41.204344], [-8.711788, 41.21333], [-8.698442, 41.218176], [-8.686509, 41.218832], [-8.674594, 41.215886], [-8.669747, 41.213217], [-8.661229, 41.204185], [-8.659192, 41.195171], [-8.661438, 41.186169], [-8.674801, 41.17404], [-8.686739, 41.1707], [-8.698658, 41.171012], [-8.710561, 41.175124], [-8.721723, 41.186331], [-8.723637, 41.195343], [-8.720799, 41.204344]]]]}}, {"id": "6", "type": "Feature", "properties": {"fill": "#b6a27f", "value_min": -1.25, "value_max": -1.0}, "geometry": {"type": "Polygon", "coordinates": [[[-8.522378, 41.65881], [-8.525706, 41.659023], [-8.527769, 41.652714], [-8.534066, 41.652017], [-8.537355, 41.64998], [-8.537634, 41.646602], [-8.543876, 41.637352], [-8.543855, 41.633976], [-8.536342, 41.631977], [-8.535132, 41.630406], [-8.543431, 41.61462], [-8.554533, 41.615255], [-8.557244, 41.617046], [-8.562639, 41.61635], [-8.568056, 41.619031], [-8.570735, 41.616095], [-8.577321, 41.614269], [-8.581231, 41.615829], [-8.585766, 41.620988], [-8.591462, 41.620515], [-8.596534, 41.616668], [-8.601628, 41.615972], [-8.603996, 41.611686], [-8.613256, 41.606696], [-8.619881, 41.610269], [-8.621338, 41.604636], [-8.628833, 41.604378], [-8.636302, 41.600744], [-8.64075, 41.594422], [-8.645536, 41.593051], [-8.646744, 41.594171], [-8.649125, 41.591909], [-8.656622, 41.5921], [-8.660788, 41.588255], [-8.663794, 41.589141], [-8.665265, 41.585758], [-8.66948, 41.587989], [-8.684455, 41.586117], [-8.685608, 41.58071], [-8.697261, 41.576376], [-8.701703, 41.570277], [-8.707704, 41.570923], [-8.712485, 41.569323], [-8.716422, 41.573805], [-8.720316, 41.57356], [-8.725151, 41.577811], [-8.726633, 41.576003], [-8.734424, 41.575737], [-8.736564, 41.580228], [-8.738354, 41.579318], [-8.740778, 41.582006], [-8.74467, 41.581535], [-8.750711, 41.58623], [-8.756374, 41.582823], [-8.75635, 41.580347], [-8.762327, 41.578514], [-8.764443, 41.580303], [-8.767441, 41.580286], [-8.769874, 41.583874], [-8.768997, 41.58613], [-8.773228, 41.589482], [-8.775371, 41.593972], [-8.78556, 41.593464], [-8.797327, 41.600599], [-8.804218, 41.600109], [-8.80456, 41.604158], [-8.809434, 41.611332], [-8.828644, 41.609656], [-8.82839, 41.585633], [-8.818497, 41.554794], [-8.8221, 41.547542], [-8.821965, 41.534907], [-8.815926, 41.525624], [-8.81063, 41.5101], [-8.813279, 41.503483], [-8.812636, 41.496944], [-8.804699, 41.482068], [-8.798552, 41.474753], [-8.80154, 41.446836], [-8.806115, 41.43713], [-8.807354, 41.425915], [-8.811202, 41.416419], [-8.80408, 41.25569], [-8.769901, 41.252283], [-8.746032, 41.251636], [-8.722155, 41.252834], [-8.6873, 41.258305], [-8.658087, 41.26723], [-8.639306, 41.276181], [-8.602519, 41.298222], [-8.566572, 41.315352], [-8.554597, 41.319357], [-8.54264, 41.320719], [-8.530708, 41.318349], [-8.506933, 41.302346], [-8.483202, 41.282161], [-8.455401, 41.251835], [-8.452276, 41.25522], [-8.449891, 41.255452], [-8.449304, 41.257479], [-8.447812, 41.257258], [-8.449028, 41.261982], [-8.439785, 41.262907], [-8.438023, 41.268989], [-8.434745, 41.269673], [-8.432691, 41.277107], [-8.427032, 41.279372], [-8.429143, 41.284319], [-8.426171, 41.287028], [-8.426488, 41.291079], [-8.425013, 41.294909], [-8.422037, 41.296942], [-8.422647, 41.299867], [-8.407744, 41.304856], [-8.406262, 41.307335], [-8.403277, 41.307342], [-8.39924, 41.313429], [-8.411166, 41.325242], [-8.419924, 41.338338], [-8.424889, 41.356378], [-8.421657, 41.374377], [-8.416822, 41.383361], [-8.408402, 41.392325], [-8.394944, 41.401263], [-8.374521, 41.40853], [-8.362538, 41.410447], [-8.326628, 41.411964], [-8.31464, 41.414189], [-8.302619, 41.419335], [-8.290568, 41.427114], [-8.279621, 41.436628], [-8.272823, 41.445593], [-8.27047, 41.454586], [-8.271921, 41.463602], [-8.28794, 41.499732], [-8.292734, 41.526784], [-8.289297, 41.543554], [-8.283842, 41.553751], [-8.277103, 41.561929], [-8.265015, 41.570308], [-8.252977, 41.57406], [-8.240977, 41.574528], [-8.217057, 41.568729], [-8.205133, 41.563029], [-8.190287, 41.55313], [-8.181033, 41.544057], [-8.157811, 41.512945], [-8.145904, 41.50719], [-8.09807, 41.500221], [-8.072052, 41.492459], [-8.07175, 41.494925], [-8.078333, 41.49898], [-8.078332, 41.500331], [-8.093, 41.504613], [-8.091501, 41.508952], [-8.109926, 41.509375], [-8.121866, 41.512549], [-8.131172, 41.516669], [-8.139523, 41.525739], [-8.141764, 41.534763], [-8.140675, 41.543763], [-8.133334, 41.561722], [-8.134868, 41.570741], [-8.17486, 41.598056], [-8.182536, 41.607118], [-8.186604, 41.616154], [-8.1873, 41.625167], [-8.184934, 41.634157], [-8.179196, 41.643123], [-8.16799, 41.6537], [-8.155888, 41.660758], [-8.143816, 41.665397], [-8.131779, 41.66725], [-8.119775, 41.666649], [-8.10783, 41.661795], [-8.095925, 41.654179], [-8.072189, 41.634446], [-8.061958, 41.624212], [-8.056619, 41.615161], [-8.054771, 41.606139], [-8.055979, 41.597142], [-8.070826, 41.569878], [-8.068081, 41.573478], [-8.056684, 41.579549], [-8.052181, 41.584498], [-8.052777, 41.587649], [-8.037169, 41.600242], [-8.031467, 41.602938], [-8.02367, 41.603156], [-8.019174, 41.601802], [-8.005971, 41.60629], [-8.005367, 41.608582], [-8.024453, 41.615336], [-8.036356, 41.621995], [-8.048227, 41.631077], [-8.05937, 41.642205], [-8.065508, 41.651262], [-8.066716, 41.660279], [-8.058328, 41.678225], [-8.047432, 41.687142], [-8.03529, 41.693469], [-8.02321, 41.697627], [-8.011169, 41.69918], [-7.987174, 41.696555], [-7.975217, 41.692703], [-7.964466, 41.686424], [-7.954145, 41.677324], [-7.947212, 41.668254], [-7.94065, 41.650179], [-7.942494, 41.632182], [-7.952381, 41.618848], [-7.964506, 41.611231], [-7.976564, 41.607669], [-7.998472, 41.607367], [-7.996684, 41.602003], [-7.984685, 41.603564], [-7.983492, 41.600861], [-7.975689, 41.603552], [-7.974482, 41.606701], [-7.970882, 41.607147], [-7.969091, 41.603768], [-7.965796, 41.602413], [-7.9541, 41.602846], [-7.952606, 41.600592], [-7.947808, 41.60081], [-7.945413, 41.599456], [-7.942725, 41.595625], [-7.936132, 41.594488], [-7.93791, 41.601694], [-7.937004, 41.603718], [-7.931604, 41.604384], [-7.930979, 41.612711], [-7.925556, 41.620354], [-7.920755, 41.620796], [-7.917748, 41.623041], [-7.915933, 41.627764], [-7.913229, 41.628885], [-7.912613, 41.63361], [-7.906014, 41.633147], [-7.906884, 41.641927], [-7.897869, 41.645511], [-7.89696, 41.647985], [-7.892759, 41.647976], [-7.892145, 41.651576], [-7.902319, 41.659925], [-7.899913, 41.66127], [-7.900198, 41.665547], [-7.898396, 41.665769], [-7.896885, 41.668692], [-7.883969, 41.67069], [-7.879755, 41.673607], [-7.877044, 41.676077], [-7.876723, 41.681253], [-7.873401, 41.686198], [-7.868896, 41.686413], [-7.868008, 41.68326], [-7.864403, 41.683701], [-7.864096, 41.685276], [-7.858987, 41.68639], [-7.857773, 41.689538], [-7.854776, 41.68818], [-7.851459, 41.691348], [-7.855083, 41.690797], [-7.866959, 41.698781], [-7.869234, 41.703541], [-7.864755, 41.712503], [-7.854627, 41.716474], [-7.84264, 41.714568], [-7.838178, 41.712238], [-7.836989, 41.709293], [-7.832453, 41.710407], [-7.825252, 41.708813], [-7.818621, 41.713522], [-7.815291, 41.718689], [-7.808986, 41.717996], [-7.808396, 41.715744], [-7.804499, 41.714158], [-7.79939, 41.714593], [-7.79788, 41.716164], [-7.796383, 41.71526], [-7.790966, 41.717044], [-7.789449, 41.719966], [-7.78464, 41.720402], [-7.78252, 41.723546], [-7.776204, 41.724652], [-7.773786, 41.727346], [-7.770798, 41.72441], [-7.765698, 41.723044], [-7.761765, 41.727758], [-7.762355, 41.729709], [-7.866437, 41.72849], [-7.878419, 41.730868], [-7.901227, 41.739879], [-7.90854, 41.748955], [-7.913705, 41.777511], [-7.925648, 41.782859], [-7.937718, 41.7807], [-7.949746, 41.781025], [-7.961671, 41.785475], [-7.966373, 41.794524], [-7.960677, 41.80348], [-7.949293, 41.808708], [-7.937241, 41.809532], [-7.913242, 41.804939], [-7.88915, 41.805848], [-7.877173, 41.802368], [-7.865125, 41.802989], [-7.852995, 41.808205], [-7.840955, 41.808291], [-7.805078, 41.795452], [-7.793084, 41.793215], [-7.781011, 41.795223], [-7.756753, 41.80485], [-7.744663, 41.807518], [-7.727914, 41.807889], [-7.729953, 41.818668], [-7.768598, 41.814899], [-7.780633, 41.815158], [-7.792623, 41.817783], [-7.804563, 41.823177], [-7.823742, 41.838186], [-7.845287, 41.864251], [-7.849515, 41.861475], [-7.858542, 41.862622], [-7.859456, 41.860148], [-7.864877, 41.859711], [-7.87033, 41.851395], [-7.873043, 41.850501], [-7.873367, 41.844875], [-7.879056, 41.85254], [-7.886268, 41.855932], [-7.888076, 41.855486], [-7.891675, 41.859094], [-7.900698, 41.861588], [-7.904318, 41.859795], [-7.907309, 41.865203], [-7.906095, 41.868126], [-7.910299, 41.871285], [-7.909985, 41.875111], [-7.915391, 41.879397], [-7.921118, 41.877833], [-7.928044, 41.87807], [-7.935283, 41.874707], [-7.937389, 41.87516], [-7.941618, 41.870891], [-7.951254, 41.871132], [-7.956367, 41.87339], [-7.956362, 41.875191], [-7.960878, 41.875648], [-7.962086, 41.874074], [-7.973828, 41.875216], [-7.987996, 41.869157], [-7.990123, 41.860157], [-7.995547, 41.858138], [-7.994047, 41.855211], [-7.996162, 41.851837], [-8.003089, 41.850494], [-8.005804, 41.847346], [-8.007928, 41.838796], [-8.012753, 41.833624], [-8.013363, 41.829124], [-8.017873, 41.831379], [-8.02901, 41.829589], [-8.037134, 41.831171], [-8.041351, 41.828023], [-8.041054, 41.825097], [-8.045268, 41.824425], [-8.047679, 41.821276], [-8.057314, 41.815656], [-8.06664, 41.817012], [-8.072961, 41.813414], [-8.078678, 41.813417], [-8.082892, 41.810493], [-8.091013, 41.812521], [-8.093421, 41.811397], [-8.093723, 41.808471], [-8.105765, 41.81185], [-8.09521, 41.795611], [-8.088995, 41.777549], [-8.088637, 41.759532], [-8.090922, 41.750543], [-8.102293, 41.732619], [-8.106897, 41.72927], [-8.131319, 41.701493], [-8.142111, 41.696895], [-8.160997, 41.67902], [-8.179858, 41.664843], [-8.204054, 41.650905], [-8.228187, 41.641234], [-8.240234, 41.637927], [-8.28835, 41.629827], [-8.324469, 41.619906], [-8.348503, 41.617272], [-8.360501, 41.617706], [-8.372486, 41.619563], [-8.384449, 41.623844], [-8.396389, 41.630768], [-8.421144, 41.653603], [-8.427239, 41.662641], [-8.426843, 41.671646], [-8.417985, 41.680609], [-8.40039, 41.689526], [-8.383764, 41.695743], [-8.359669, 41.701815], [-8.347636, 41.703237], [-8.311582, 41.702906], [-8.299539, 41.705148], [-8.275367, 41.717077], [-8.263246, 41.725759], [-8.255292, 41.733712], [-8.24938, 41.742681], [-8.245843, 41.760671], [-8.248682, 41.785728], [-8.252156, 41.782798], [-8.251845, 41.777172], [-8.257551, 41.773564], [-8.261762, 41.774235], [-8.271366, 41.766346], [-8.280681, 41.764083], [-8.284038, 41.761109], [-8.284931, 41.757507], [-8.287033, 41.756829], [-8.298457, 41.757263], [-8.300866, 41.758835], [-8.305674, 41.758152], [-8.311096, 41.762195], [-8.318308, 41.761283], [-8.326436, 41.765096], [-8.328234, 41.763292], [-8.336653, 41.763728], [-8.341756, 41.761468], [-8.344765, 41.762363], [-8.349267, 41.760103], [-8.352548, 41.752614], [-8.352342, 41.75177], [-8.34982, 41.745922], [-8.351053, 41.743894], [-8.351434, 41.734295], [-8.354444, 41.725305], [-8.36124, 41.716336], [-8.372709, 41.707392], [-8.389632, 41.698476], [-8.437627, 41.680707], [-8.450857, 41.671764], [-8.449292, 41.662749], [-8.43223, 41.650792], [-8.415607, 41.635561], [-8.405652, 41.617496], [-8.402122, 41.599463], [-8.396784, 41.588383], [-8.387191, 41.58137], [-8.349016, 41.566192], [-8.337086, 41.560002], [-8.325187, 41.551009], [-8.313351, 41.536423], [-8.3016, 41.51437], [-8.29038, 41.481733], [-8.289515, 41.463712], [-8.292737, 41.454725], [-8.30236, 41.44353], [-8.314411, 41.43588], [-8.326429, 41.431209], [-8.386365, 41.421326], [-8.420965, 41.410404], [-8.45689, 41.392564], [-8.506496, 41.360221], [-8.518497, 41.354124], [-8.530477, 41.350498], [-8.542423, 41.351639], [-8.55433, 41.358522], [-8.585649, 41.384092], [-8.611381, 41.402197], [-8.621442, 41.411238], [-8.626339, 41.420262], [-8.627491, 41.429273], [-8.618416, 41.456266], [-8.606626, 41.474241], [-8.597108, 41.483216], [-8.572816, 41.501143], [-8.541563, 41.528045], [-8.521273, 41.53697], [-8.495688, 41.545868], [-8.477542, 41.554794], [-8.466759, 41.563752], [-8.459776, 41.572726], [-8.459839, 41.581734], [-8.467105, 41.590775], [-8.497554, 41.617934], [-8.511176, 41.636007], [-8.522378, 41.65881]], [[-7.937922, 41.768312], [-7.935477, 41.767222], [-7.930068, 41.758165], [-7.93827, 41.747224], [-7.950322, 41.74565], [-7.957375, 41.749409], [-7.963279, 41.758469], [-7.956175, 41.767412], [-7.94994, 41.769134], [-7.937922, 41.768312]], [[-8.126975, 41.696781], [-8.11924, 41.705873], [-8.107235, 41.704845], [-8.101136, 41.696582], [-8.107448, 41.689418], [-8.119507, 41.686315], [-8.126975, 41.696781]], [[-8.528694, 41.597237], [-8.516696, 41.59702], [-8.50473, 41.592599], [-8.495006, 41.581894], [-8.494577, 41.572885], [-8.500818, 41.563905], [-8.504972, 41.561011], [-8.516994, 41.55698], [-8.528985, 41.557169], [-8.540946, 41.561536], [-8.545302, 41.564089], [-8.551209, 41.57312], [-8.550918, 41.582126], [-8.544072, 41.591106], [-8.528694, 41.597237]], [[-8.6369, 41.559283], [-8.624906, 41.559613], [-8.61293, 41.556891], [-8.600978, 41.550353], [-8.591816, 41.537242], [-8.590764, 41.528231], [-8.59341, 41.519233], [-8.600949, 41.510252], [-8.613248, 41.503506], [-8.625242, 41.501378], [-8.637217, 41.50251], [-8.655224, 41.510427], [-8.664653, 41.519462], [-8.668476, 41.528481], [-8.667834, 41.537486], [-8.662487, 41.546478], [-8.649712, 41.555447], [-8.6369, 41.559283]], [[-8.733718, 41.344555], [-8.721767, 41.344173], [-8.709825, 41.341805], [-8.697892, 41.337455], [-8.685973, 41.330663], [-8.674635, 41.321325], [-8.667592, 41.312297], [-8.664738, 41.303281], [-8.665317, 41.294275], [-8.669603, 41.285279], [-8.678873, 41.276298], [-8.698217, 41.267164], [-8.722108, 41.263841], [-8.734044, 41.264484], [-8.7488, 41.267464], [-8.767689, 41.276511], [-8.777443, 41.285538], [-8.782424, 41.294556], [-8.784595, 41.303568], [-8.783648, 41.312573], [-8.779684, 41.321574], [-8.771782, 41.330566], [-8.757644, 41.339114], [-8.745677, 41.343007], [-8.733718, 41.344555]]]}}, {"id": "7", "type": "Feature", "properties": {"fill": "#a3a3a3", "value_min": -1.0, "value_max": -0.75}, "geometry": {"type": "MultiPolygon", "coordinates": [[[[-7.845287, 41.864251], [-7.823742, 41.838186], [-7.804563, 41.823177], [-7.792623, 41.817783], [-7.780633, 41.815158], [-7.768598, 41.814899], [-7.729953, 41.818668], [-7.73594, 41.823554], [-7.74315, 41.825502], [-7.76841, 41.824708], [-7.780405, 41.82717], [-7.792348, 41.832428], [-7.808881, 41.84704], [-7.814231, 41.856102], [-7.81887, 41.873099], [-7.823863, 41.874013], [-7.825059, 41.875817], [-7.830479, 41.875831], [-7.830789, 41.874031], [-7.832894, 41.874712], [-7.83772, 41.872924], [-7.842528, 41.875187], [-7.841663, 41.866632], [-7.845287, 41.864251]]], [[[-8.248682, 41.785728], [-8.245843, 41.760671], [-8.24938, 41.742681], [-8.255292, 41.733712], [-8.263246, 41.725759], [-8.275367, 41.717077], [-8.299539, 41.705148], [-8.311582, 41.702906], [-8.347636, 41.703237], [-8.359669, 41.701815], [-8.383764, 41.695743], [-8.40039, 41.689526], [-8.417985, 41.680609], [-8.426843, 41.671646], [-8.427239, 41.662641], [-8.421144, 41.653603], [-8.396389, 41.630768], [-8.384449, 41.623844], [-8.372486, 41.619563], [-8.360501, 41.617706], [-8.348503, 41.617272], [-8.324469, 41.619906], [-8.28835, 41.629827], [-8.240234, 41.637927], [-8.228187, 41.641234], [-8.204054, 41.650905], [-8.179858, 41.664843], [-8.160997, 41.67902], [-8.142111, 41.696895], [-8.131319, 41.701493], [-8.106897, 41.72927], [-8.102293, 41.732619], [-8.090922, 41.750543], [-8.088637, 41.759532], [-8.088995, 41.777549], [-8.09521, 41.795611], [-8.105765, 41.81185], [-8.117188, 41.812302], [-8.123807, 41.808702], [-8.138247, 41.808477], [-8.139751, 41.813203], [-8.14276, 41.812978], [-8.145769, 41.815453], [-8.149078, 41.814777], [-8.153893, 41.817928], [-8.161415, 41.818376], [-8.165326, 41.81815], [-8.173744, 41.808019], [-8.177054, 41.808017], [-8.182773, 41.812516], [-8.190291, 41.809587], [-8.197158, 41.814129], [-8.201063, 41.808724], [-8.204973, 41.807372], [-8.205872, 41.804445], [-8.213692, 41.803765], [-8.217598, 41.80016], [-8.217589, 41.793634], [-8.224207, 41.794303], [-8.229917, 41.791598], [-8.240744, 41.791588], [-8.24074, 41.789338], [-8.244347, 41.787984], [-8.245546, 41.785731], [-8.248682, 41.785728]], [[-8.178366, 41.782122], [-8.166335, 41.781853], [-8.154347, 41.778422], [-8.142408, 41.771408], [-8.133656, 41.75988], [-8.131895, 41.75086], [-8.133405, 41.741864], [-8.142972, 41.728948], [-8.167236, 41.712189], [-8.17158, 41.706118], [-8.177515, 41.688147], [-8.184892, 41.679192], [-8.191753, 41.674206], [-8.203826, 41.669359], [-8.215861, 41.66753], [-8.227857, 41.668874], [-8.239812, 41.673776], [-8.247252, 41.679617], [-8.252002, 41.688656], [-8.252583, 41.697666], [-8.24945, 41.706653], [-8.225365, 41.733514], [-8.213658, 41.760456], [-8.206577, 41.769414], [-8.190434, 41.779329], [-8.178366, 41.782122]], [[-8.371782, 41.69211], [-8.352905, 41.689268], [-8.338172, 41.680177], [-8.332563, 41.671137], [-8.331577, 41.662125], [-8.335143, 41.653138], [-8.343118, 41.644177], [-8.360316, 41.636501], [-8.372332, 41.635451], [-8.384325, 41.636942], [-8.396287, 41.641713], [-8.410796, 41.653551], [-8.416007, 41.662585], [-8.415386, 41.671589], [-8.407099, 41.680553], [-8.395868, 41.686466], [-8.383815, 41.690444], [-8.371782, 41.69211]]], [[[-7.937922, 41.768312], [-7.94994, 41.769134], [-7.956175, 41.767412], [-7.963279, 41.758469], [-7.957375, 41.749409], [-7.950322, 41.74565], [-7.93827, 41.747224], [-7.930068, 41.758165], [-7.935477, 41.767222], [-7.937922, 41.768312]]], [[[-7.836989, 41.709293], [-7.838178, 41.712238], [-7.84264, 41.714568], [-7.854627, 41.716474], [-7.864755, 41.712503], [-7.869234, 41.703541], [-7.866959, 41.698781], [-7.855083, 41.690797], [-7.851459, 41.691348], [-7.847538, 41.695365], [-7.837309, 41.699391], [-7.835792, 41.702763], [-7.839679, 41.706599], [-7.838465, 41.709522], [-7.836989, 41.709293]]], [[[-7.998472, 41.607367], [-7.976564, 41.607669], [-7.964506, 41.611231], [-7.952381, 41.618848], [-7.942494, 41.632182], [-7.94065, 41.650179], [-7.947212, 41.668254], [-7.954145, 41.677324], [-7.964466, 41.686424], [-7.975217, 41.692703], [-7.987174, 41.696555], [-8.011169, 41.69918], [-8.02321, 41.697627], [-8.03529, 41.693469], [-8.047432, 41.687142], [-8.058328, 41.678225], [-8.066716, 41.660279], [-8.065508, 41.651262], [-8.05937, 41.642205], [-8.048227, 41.631077], [-8.036356, 41.621995], [-8.024453, 41.615336], [-8.005367, 41.608582], [-8.003262, 41.611464], [-7.998761, 41.612809], [-7.998472, 41.607367]], [[-8.023428, 41.683207], [-8.011419, 41.682827], [-7.997716, 41.677712], [-7.987768, 41.668618], [-7.983683, 41.659575], [-7.984582, 41.650576], [-7.990545, 41.641621], [-8.000139, 41.635352], [-8.012189, 41.632491], [-8.024185, 41.633081], [-8.036138, 41.636663], [-8.043794, 41.642077], [-8.051718, 41.651149], [-8.053451, 41.660171], [-8.049635, 41.669146], [-8.035493, 41.67992], [-8.023428, 41.683207]]], [[[-8.528694, 41.597237], [-8.544072, 41.591106], [-8.550918, 41.582126], [-8.551209, 41.57312], [-8.545302, 41.564089], [-8.540946, 41.561536], [-8.528985, 41.557169], [-8.516994, 41.55698], [-8.504972, 41.561011], [-8.500818, 41.563905], [-8.494577, 41.572885], [-8.495006, 41.581894], [-8.50473, 41.592599], [-8.516696, 41.59702], [-8.528694, 41.597237]]], [[[-8.072052, 41.492459], [-8.09807, 41.500221], [-8.145904, 41.50719], [-8.157811, 41.512945], [-8.181033, 41.544057], [-8.190287, 41.55313], [-8.205133, 41.563029], [-8.217057, 41.568729], [-8.240977, 41.574528], [-8.252977, 41.57406], [-8.265015, 41.570308], [-8.277103, 41.561929], [-8.283842, 41.553751], [-8.289297, 41.543554], [-8.292734, 41.526784], [-8.28794, 41.499732], [-8.271921, 41.463602], [-8.27047, 41.454586], [-8.272823, 41.445593], [-8.279621, 41.436628], [-8.290568, 41.427114], [-8.302619, 41.419335], [-8.31464, 41.414189], [-8.326628, 41.411964], [-8.362538, 41.410447], [-8.374521, 41.40853], [-8.394944, 41.401263], [-8.408402, 41.392325], [-8.416822, 41.383361], [-8.421657, 41.374377], [-8.424889, 41.356378], [-8.419924, 41.338338], [-8.411166, 41.325242], [-8.39924, 41.313429], [-8.396738, 41.314336], [-8.398835, 41.316131], [-8.393775, 41.31997], [-8.393489, 41.323122], [-8.391105, 41.324253], [-8.386325, 41.323588], [-8.380382, 41.331254], [-8.375305, 41.33104], [-8.37201, 41.328346], [-8.361563, 41.329718], [-8.358276, 41.329049], [-8.357673, 41.327249], [-8.350207, 41.327264], [-8.346032, 41.328847], [-8.342462, 41.333131], [-8.333215, 41.336299], [-8.326363, 41.342163], [-8.324568, 41.341041], [-8.323376, 41.341943], [-8.316788, 41.335876], [-8.313802, 41.336331], [-8.310792, 41.327557], [-8.308701, 41.327561], [-8.307502, 41.325762], [-8.305116, 41.326891], [-8.303024, 41.325994], [-8.303615, 41.323742], [-8.301216, 41.319694], [-8.296431, 41.316774], [-8.297618, 41.313846], [-8.296116, 41.310022], [-8.281801, 41.316569], [-8.281214, 41.321072], [-8.279057, 41.321975], [-8.303442, 41.342293], [-8.315331, 41.348296], [-8.35126, 41.341354], [-8.363206, 41.341999], [-8.375126, 41.34538], [-8.387007, 41.353016], [-8.394479, 41.36523], [-8.394714, 41.374239], [-8.390507, 41.383224], [-8.378775, 41.392169], [-8.362676, 41.396351], [-8.350719, 41.395799], [-8.336441, 41.391933], [-8.314997, 41.380191], [-8.302994, 41.384271], [-8.278625, 41.4096], [-8.254664, 41.42713], [-8.230565, 41.441009], [-8.218547, 41.444962], [-8.206554, 41.446695], [-8.182692, 41.44032], [-8.170791, 41.434834], [-8.15891, 41.428039], [-8.147067, 41.41847], [-8.132028, 41.39958], [-8.127693, 41.390539], [-8.124516, 41.376093], [-8.119672, 41.376768], [-8.119672, 41.378569], [-8.116683, 41.380144], [-8.117877, 41.385771], [-8.113992, 41.386896], [-8.112795, 41.390723], [-8.110105, 41.390947], [-8.108011, 41.393648], [-8.103827, 41.392972], [-8.105321, 41.394998], [-8.10263, 41.396123], [-8.10801, 41.398825], [-8.108606, 41.403102], [-8.104419, 41.406252], [-8.104119, 41.408728], [-8.101727, 41.409403], [-8.102025, 41.411204], [-8.092756, 41.411201], [-8.09126, 41.414352], [-8.079893, 41.41975], [-8.077503, 41.416597], [-8.070923, 41.41862], [-8.066739, 41.416142], [-8.061953, 41.417264], [-8.059852, 41.424916], [-8.055959, 41.429415], [-8.057743, 41.438645], [-8.061033, 41.438872], [-8.064916, 41.444052], [-8.067908, 41.444279], [-8.069999, 41.447206], [-8.068788, 41.462286], [-8.073872, 41.46499], [-8.074164, 41.473543], [-8.066374, 41.482318], [-8.066069, 41.48817], [-8.071755, 41.489974], [-8.072052, 41.492459]], [[-8.24129, 41.547814], [-8.229315, 41.546513], [-8.217372, 41.542617], [-8.205473, 41.535251], [-8.196522, 41.526152], [-8.187924, 41.508077], [-8.186811, 41.490054], [-8.18925, 41.481064], [-8.19501, 41.472097], [-8.20638, 41.461021], [-8.218404, 41.456896], [-8.230353, 41.458888], [-8.242268, 41.463954], [-8.254178, 41.469629], [-8.266051, 41.478703], [-8.277848, 41.494891], [-8.282324, 41.508705], [-8.282299, 41.517712], [-8.279489, 41.526702], [-8.272717, 41.535666], [-8.26534, 41.541635], [-8.253298, 41.546257], [-8.24129, 41.547814]], [[-8.122105, 41.494833], [-8.110135, 41.494094], [-8.098217, 41.489615], [-8.091041, 41.48033], [-8.091349, 41.471325], [-8.097854, 41.462369], [-8.110657, 41.455919], [-8.122641, 41.455106], [-8.134573, 41.458224], [-8.140748, 41.462697], [-8.146066, 41.471744], [-8.145441, 41.480747], [-8.138541, 41.489703], [-8.122105, 41.494833]]], [[[-8.6369, 41.559283], [-8.649712, 41.555447], [-8.662487, 41.546478], [-8.667834, 41.537486], [-8.668476, 41.528481], [-8.664653, 41.519462], [-8.655224, 41.510427], [-8.637217, 41.50251], [-8.625242, 41.501378], [-8.613248, 41.503506], [-8.600949, 41.510252], [-8.59341, 41.519233], [-8.590764, 41.528231], [-8.591816, 41.537242], [-8.600978, 41.550353], [-8.61293, 41.556891], [-8.624906, 41.559613], [-8.6369, 41.559283]]], [[[-8.733718, 41.344555], [-8.745677, 41.343007], [-8.757644, 41.339114], [-8.771782, 41.330566], [-8.779684, 41.321574], [-8.783648, 41.312573], [-8.784595, 41.303568], [-8.782424, 41.294556], [-8.777443, 41.285538], [-8.767689, 41.276511], [-8.7488, 41.267464], [-8.734044, 41.264484], [-8.722108, 41.263841], [-8.698217, 41.267164], [-8.678873, 41.276298], [-8.669603, 41.285279], [-8.665317, 41.294275], [-8.664738, 41.303281], [-8.667592, 41.312297], [-8.674635, 41.321325], [-8.685973, 41.330663], [-8.697892, 41.337455], [-8.709825, 41.341805], [-8.721767, 41.344173], [-8.733718, 41.344555]], [[-8.72188, 41.317481], [-8.709936, 41.316622], [-8.700118, 41.312386], [-8.691731, 41.303356], [-8.690463, 41.294345], [-8.695354, 41.28535], [-8.710107, 41.278025], [-8.722051, 41.27742], [-8.733975, 41.281324], [-8.740295, 41.285461], [-8.745629, 41.29448], [-8.744697, 41.303486], [-8.736764, 41.312476], [-8.72188, 41.317481]]]]}}, {"id": "8", "type": "Feature", "properties": {"fill": "#a3a3a3", "value_min": -0.75, "value_max": -0.5}, "geometry": {"type": "MultiPolygon", "coordinates": [[[[-7.81887, 41.873099], [-7.814231, 41.856102], [-7.808881, 41.84704], [-7.792348, 41.832428], [-7.780405, 41.82717], [-7.76841, 41.824708], [-7.74315, 41.825502], [-7.742839, 41.827178], [-7.738919, 41.828515], [-7.742201, 41.833198], [-7.756234, 41.83167], [-7.768256, 41.832758], [-7.782063, 41.837752], [-7.79363, 41.84688], [-7.799391, 41.855947], [-7.801495, 41.864976], [-7.800768, 41.874174], [-7.804288, 41.874184], [-7.804914, 41.869459], [-7.813032, 41.871958], [-7.814229, 41.873537], [-7.81887, 41.873099]]], [[[-8.178366, 41.782122], [-8.190434, 41.779329], [-8.206577, 41.769414], [-8.213658, 41.760456], [-8.225365, 41.733514], [-8.24945, 41.706653], [-8.252583, 41.697666], [-8.252002, 41.688656], [-8.247252, 41.679617], [-8.239812, 41.673776], [-8.227857, 41.668874], [-8.215861, 41.66753], [-8.203826, 41.669359], [-8.191753, 41.674206], [-8.184892, 41.679192], [-8.177515, 41.688147], [-8.17158, 41.706118], [-8.167236, 41.712189], [-8.142972, 41.728948], [-8.133405, 41.741864], [-8.131895, 41.75086], [-8.133656, 41.75988], [-8.142408, 41.771408], [-8.154347, 41.778422], [-8.166335, 41.781853], [-8.178366, 41.782122]], [[-8.166582, 41.762809], [-8.154624, 41.757309], [-8.149483, 41.750992], [-8.148739, 41.741979], [-8.155936, 41.733025], [-8.167039, 41.727453], [-8.17907, 41.726843], [-8.192137, 41.733285], [-8.196615, 41.742324], [-8.194376, 41.751315], [-8.190735, 41.755399], [-8.178618, 41.76232], [-8.166582, 41.762809]], [[-8.215305, 41.713277], [-8.203283, 41.713433], [-8.192663, 41.706268], [-8.188818, 41.697234], [-8.192227, 41.688251], [-8.203682, 41.681077], [-8.215703, 41.680522], [-8.229759, 41.688509], [-8.232321, 41.697533], [-8.227539, 41.706508], [-8.215305, 41.713277]]], [[[-8.371782, 41.69211], [-8.383815, 41.690444], [-8.395868, 41.686466], [-8.407099, 41.680553], [-8.415386, 41.671589], [-8.416007, 41.662585], [-8.410796, 41.653551], [-8.396287, 41.641713], [-8.384325, 41.636942], [-8.372332, 41.635451], [-8.360316, 41.636501], [-8.343118, 41.644177], [-8.335143, 41.653138], [-8.331577, 41.662125], [-8.332563, 41.671137], [-8.338172, 41.680177], [-8.352905, 41.689268], [-8.371782, 41.69211]], [[-8.383864, 41.685319], [-8.371845, 41.685583], [-8.359869, 41.681655], [-8.350157, 41.671238], [-8.349586, 41.662228], [-8.354648, 41.653249], [-8.36019, 41.649219], [-8.372239, 41.645071], [-8.384245, 41.645341], [-8.396211, 41.64982], [-8.400899, 41.6535], [-8.407173, 41.662539], [-8.406506, 41.671543], [-8.397674, 41.680504], [-8.383864, 41.685319]]], [[[-8.023428, 41.683207], [-8.035493, 41.67992], [-8.049635, 41.669146], [-8.053451, 41.660171], [-8.051718, 41.651149], [-8.043794, 41.642077], [-8.036138, 41.636663], [-8.024185, 41.633081], [-8.012189, 41.632491], [-8.000139, 41.635352], [-7.990545, 41.641621], [-7.984582, 41.650576], [-7.983683, 41.659575], [-7.987768, 41.668618], [-7.997716, 41.677712], [-8.011419, 41.682827], [-8.023428, 41.683207]], [[-8.02355, 41.675181], [-8.011571, 41.672874], [-8.005035, 41.668769], [-8.000533, 41.659723], [-8.003322, 41.65074], [-8.012004, 41.644589], [-8.024039, 41.642769], [-8.035991, 41.646486], [-8.041062, 41.651061], [-8.044181, 41.660094], [-8.039331, 41.66906], [-8.035613, 41.671836], [-8.02355, 41.675181]]], [[[-8.24129, 41.547814], [-8.253298, 41.546257], [-8.26534, 41.541635], [-8.272717, 41.535666], [-8.279489, 41.526702], [-8.282299, 41.517712], [-8.282324, 41.508705], [-8.277848, 41.494891], [-8.266051, 41.478703], [-8.254178, 41.469629], [-8.242268, 41.463954], [-8.230353, 41.458888], [-8.218404, 41.456896], [-8.20638, 41.461021], [-8.19501, 41.472097], [-8.18925, 41.481064], [-8.186811, 41.490054], [-8.187924, 41.508077], [-8.196522, 41.526152], [-8.205473, 41.535251], [-8.217372, 41.542617], [-8.229315, 41.546513], [-8.24129, 41.547814]], [[-8.253441, 41.533772], [-8.241437, 41.535204], [-8.22947, 41.533427], [-8.217556, 41.527344], [-8.208673, 41.517229], [-8.206185, 41.508204], [-8.207144, 41.499204], [-8.212386, 41.490232], [-8.218061, 41.485442], [-8.230097, 41.480571], [-8.242083, 41.479861], [-8.254025, 41.482959], [-8.265912, 41.491037], [-8.271784, 41.499631], [-8.274147, 41.508653], [-8.272654, 41.517651], [-8.2655, 41.527471], [-8.253441, 41.533772]]], [[[-8.122105, 41.494833], [-8.138541, 41.489703], [-8.145441, 41.480747], [-8.146066, 41.471744], [-8.140748, 41.462697], [-8.134573, 41.458224], [-8.122641, 41.455106], [-8.110657, 41.455919], [-8.097854, 41.462369], [-8.091349, 41.471325], [-8.091041, 41.48033], [-8.098217, 41.489615], [-8.110135, 41.494094], [-8.122105, 41.494833]]], [[[-8.124516, 41.376093], [-8.127693, 41.390539], [-8.132028, 41.39958], [-8.147067, 41.41847], [-8.15891, 41.428039], [-8.170791, 41.434834], [-8.182692, 41.44032], [-8.206554, 41.446695], [-8.218547, 41.444962], [-8.230565, 41.441009], [-8.254664, 41.42713], [-8.278625, 41.4096], [-8.302994, 41.384271], [-8.314997, 41.380191], [-8.336441, 41.391933], [-8.350719, 41.395799], [-8.362676, 41.396351], [-8.378775, 41.392169], [-8.390507, 41.383224], [-8.394714, 41.374239], [-8.394479, 41.36523], [-8.387007, 41.353016], [-8.375126, 41.34538], [-8.363206, 41.341999], [-8.35126, 41.341354], [-8.315331, 41.348296], [-8.303442, 41.342293], [-8.279057, 41.321975], [-8.278238, 41.325128], [-8.272266, 41.32536], [-8.265709, 41.331221], [-8.269004, 41.336169], [-8.263339, 41.340902], [-8.262751, 41.345405], [-8.259179, 41.346309], [-8.268099, 41.355488], [-8.273132, 41.364528], [-8.275002, 41.373547], [-8.274293, 41.38255], [-8.270825, 41.391536], [-8.264099, 41.4005], [-8.254881, 41.408157], [-8.242842, 41.41456], [-8.230839, 41.41776], [-8.21886, 41.418854], [-8.206907, 41.417724], [-8.194981, 41.414486], [-8.183096, 41.40807], [-8.173524, 41.399885], [-8.167173, 41.390832], [-8.163947, 41.380365], [-8.152544, 41.375866], [-8.151049, 41.37339], [-8.145073, 41.374742], [-8.139694, 41.377894], [-8.133418, 41.374292], [-8.124516, 41.376093]]], [[[-8.72188, 41.317481], [-8.736764, 41.312476], [-8.744697, 41.303486], [-8.745629, 41.29448], [-8.740295, 41.285461], [-8.733975, 41.281324], [-8.722051, 41.27742], [-8.710107, 41.278025], [-8.695354, 41.28535], [-8.690463, 41.294345], [-8.691731, 41.303356], [-8.700118, 41.312386], [-8.709936, 41.316622], [-8.72188, 41.317481]]]]}}, {"id": "9", "type": "Feature", "properties": {"fill": "#a3a3a3", "value_min": -0.5, "value_max": -0.25}, "geometry": {"type": "MultiPolygon", "coordinates": [[[[-7.800768, 41.874174], [-7.801495, 41.864976], [-7.799391, 41.855947], [-7.79363, 41.84688], [-7.782063, 41.837752], [-7.768256, 41.832758], [-7.756234, 41.83167], [-7.742201, 41.833198], [-7.74729, 41.837772], [-7.746675, 41.839885], [-7.7561, 41.8386], [-7.768109, 41.840379], [-7.780504, 41.846742], [-7.787263, 41.85582], [-7.788773, 41.864843], [-7.785939, 41.873819], [-7.779372, 41.881501], [-7.767194, 41.888047], [-7.756617, 41.889763], [-7.758719, 41.890926], [-7.756592, 41.89407], [-7.758076, 41.897901], [-7.764097, 41.898595], [-7.779227, 41.886264], [-7.785257, 41.885157], [-7.788886, 41.882467], [-7.794309, 41.882033], [-7.796739, 41.878214], [-7.794954, 41.873932], [-7.800768, 41.874174]]], [[[-7.741867, 41.888264], [-7.731121, 41.883656], [-7.725213, 41.877533], [-7.722351, 41.878424], [-7.720523, 41.881793], [-7.725335, 41.882935], [-7.726208, 41.887665], [-7.737044, 41.888828], [-7.73944, 41.891087], [-7.74246, 41.889747], [-7.741867, 41.888264]]], [[[-8.166582, 41.762809], [-8.178618, 41.76232], [-8.190735, 41.755399], [-8.194376, 41.751315], [-8.196615, 41.742324], [-8.192137, 41.733285], [-8.17907, 41.726843], [-8.167039, 41.727453], [-8.155936, 41.733025], [-8.148739, 41.741979], [-8.149483, 41.750992], [-8.154624, 41.757309], [-8.166582, 41.762809]], [[-8.166761, 41.748988], [-8.162582, 41.742081], [-8.166898, 41.738347], [-8.178885, 41.741373], [-8.178855, 41.743741], [-8.166761, 41.748988]]], [[[-8.215305, 41.713277], [-8.227539, 41.706508], [-8.232321, 41.697533], [-8.229759, 41.688509], [-8.215703, 41.680522], [-8.203682, 41.681077], [-8.192227, 41.688251], [-8.188818, 41.697234], [-8.192663, 41.706268], [-8.203283, 41.713433], [-8.215305, 41.713277]]], [[[-8.383864, 41.685319], [-8.397674, 41.680504], [-8.406506, 41.671543], [-8.407173, 41.662539], [-8.400899, 41.6535], [-8.396211, 41.64982], [-8.384245, 41.645341], [-8.372239, 41.645071], [-8.36019, 41.649219], [-8.354648, 41.653249], [-8.349586, 41.662228], [-8.350157, 41.671238], [-8.359869, 41.681655], [-8.371845, 41.685583], [-8.383864, 41.685319]], [[-8.383913, 41.680145], [-8.371912, 41.678763], [-8.362331, 41.671306], [-8.361863, 41.662297], [-8.372159, 41.65329], [-8.384179, 41.652279], [-8.396128, 41.658721], [-8.399101, 41.662497], [-8.398566, 41.671502], [-8.383913, 41.680145]]], [[[-8.02355, 41.675181], [-8.035613, 41.671836], [-8.039331, 41.66906], [-8.044181, 41.660094], [-8.041062, 41.651061], [-8.035991, 41.646486], [-8.024039, 41.642769], [-8.012004, 41.644589], [-8.003322, 41.65074], [-8.000533, 41.659723], [-8.005035, 41.668769], [-8.011571, 41.672874], [-8.02355, 41.675181]], [[-8.023652, 41.668428], [-8.012296, 41.659824], [-8.023921, 41.65063], [-8.036215, 41.660027], [-8.023652, 41.668428]]], [[[-8.253441, 41.533772], [-8.2655, 41.527471], [-8.272654, 41.517651], [-8.274147, 41.508653], [-8.271784, 41.499631], [-8.265912, 41.491037], [-8.254025, 41.482959], [-8.242083, 41.479861], [-8.230097, 41.480571], [-8.218061, 41.485442], [-8.212386, 41.490232], [-8.207144, 41.499204], [-8.206185, 41.508204], [-8.208673, 41.517229], [-8.217556, 41.527344], [-8.22947, 41.533427], [-8.241437, 41.535204], [-8.253441, 41.533772]], [[-8.241542, 41.526202], [-8.229596, 41.522838], [-8.222664, 41.517324], [-8.218912, 41.508291], [-8.221559, 41.499302], [-8.229958, 41.49232], [-8.24197, 41.489524], [-8.253918, 41.492284], [-8.262562, 41.499572], [-8.265994, 41.508602], [-8.262329, 41.517585], [-8.253551, 41.524188], [-8.241542, 41.526202]]], [[[-8.163947, 41.380365], [-8.167173, 41.390832], [-8.173524, 41.399885], [-8.183096, 41.40807], [-8.194981, 41.414486], [-8.206907, 41.417724], [-8.21886, 41.418854], [-8.230839, 41.41776], [-8.242842, 41.41456], [-8.254881, 41.408157], [-8.264099, 41.4005], [-8.270825, 41.391536], [-8.274293, 41.38255], [-8.275002, 41.373547], [-8.273132, 41.364528], [-8.268099, 41.355488], [-8.259179, 41.346309], [-8.249622, 41.353072], [-8.251123, 41.356897], [-8.248143, 41.360893], [-8.248213, 41.360952], [-8.248442, 41.361146], [-8.252273, 41.364394], [-8.257234, 41.373434], [-8.257685, 41.382444], [-8.253851, 41.391427], [-8.244092, 41.400371], [-8.230985, 41.405377], [-8.219012, 41.406132], [-8.207078, 41.403662], [-8.199795, 41.400071], [-8.189786, 41.390993], [-8.186179, 41.381961], [-8.18654, 41.375855], [-8.168382, 41.377438], [-8.163947, 41.380365]]]]}}, {"id": "10", "type": "Feature", "properties": {"fill": "#a3a3a3", "value_min": -0.25, "value_max": -0.0}, "geometry": {"type": "MultiPolygon", "coordinates": [[[[-7.756617, 41.889763], [-7.767194, 41.888047], [-7.779372, 41.881501], [-7.785939, 41.873819], [-7.788773, 41.864843], [-7.787263, 41.85582], [-7.780504, 41.846742], [-7.768109, 41.840379], [-7.7561, 41.8386], [-7.746675, 41.839885], [-7.746349, 41.84407], [-7.750241, 41.847636], [-7.755955, 41.846039], [-7.767938, 41.849288], [-7.774825, 41.855688], [-7.775831, 41.864705], [-7.768599, 41.873635], [-7.755356, 41.876968], [-7.743365, 41.8739], [-7.735814, 41.864272], [-7.736127, 41.862492], [-7.734159, 41.868337], [-7.730228, 41.871024], [-7.729293, 41.875972], [-7.725213, 41.877533], [-7.731121, 41.883656], [-7.741867, 41.888264], [-7.742785, 41.885922], [-7.745495, 41.885931], [-7.750001, 41.887971], [-7.756022, 41.888441], [-7.756617, 41.889763]]], [[[-7.743762, 41.849914], [-7.747524, 41.848576], [-7.743912, 41.848789], [-7.743762, 41.849914]]], [[[-8.166761, 41.748988], [-8.178855, 41.743741], [-8.178885, 41.741373], [-8.166898, 41.738347], [-8.162582, 41.742081], [-8.166761, 41.748988]]], [[[-8.383913, 41.680145], [-8.398566, 41.671502], [-8.399101, 41.662497], [-8.396128, 41.658721], [-8.384179, 41.652279], [-8.372159, 41.65329], [-8.361863, 41.662297], [-8.362331, 41.671306], [-8.371912, 41.678763], [-8.383913, 41.680145]], [[-8.377961, 41.671392], [-8.37722, 41.662381], [-8.384098, 41.660688], [-8.386975, 41.662433], [-8.386522, 41.671438], [-8.383983, 41.672758], [-8.377961, 41.671392]]], [[[-8.023652, 41.668428], [-8.036215, 41.660027], [-8.023921, 41.65063], [-8.012296, 41.659824], [-8.023652, 41.668428]]], [[[-8.241542, 41.526202], [-8.253551, 41.524188], [-8.262329, 41.517585], [-8.265994, 41.508602], [-8.262562, 41.499572], [-8.253918, 41.492284], [-8.24197, 41.489524], [-8.229958, 41.49232], [-8.221559, 41.499302], [-8.218912, 41.508291], [-8.222664, 41.517324], [-8.229596, 41.522838], [-8.241542, 41.526202]], [[-8.241648, 41.517142], [-8.231925, 41.508379], [-8.241862, 41.498793], [-8.253774, 41.504775], [-8.255478, 41.508534], [-8.253695, 41.511729], [-8.241648, 41.517142]]], [[[-8.18654, 41.375855], [-8.186179, 41.381961], [-8.189786, 41.390993], [-8.199795, 41.400071], [-8.207078, 41.403662], [-8.219012, 41.406132], [-8.230985, 41.405377], [-8.244092, 41.400371], [-8.253851, 41.391427], [-8.257685, 41.382444], [-8.257234, 41.373434], [-8.252273, 41.364394], [-8.248442, 41.361146], [-8.248448, 41.364328], [-8.245461, 41.364781], [-8.243973, 41.368609], [-8.239197, 41.371315], [-8.234846, 41.370644], [-8.238548, 41.373311], [-8.241478, 41.382338], [-8.234226, 41.391298], [-8.231132, 41.392921], [-8.219161, 41.39369], [-8.212765, 41.391153], [-8.205216, 41.382094], [-8.206537, 41.376969], [-8.199163, 41.377423], [-8.194976, 41.374275], [-8.191691, 41.376302], [-8.18654, 41.375855]]], [[[-8.248213, 41.360952], [-8.248213, 41.360952], [-8.248143, 41.360893], [-8.248213, 41.360952]]]]}}, {"id": "11", "type": "Feature", "properties": {"fill": "#a3a3a3", "value_min": 0.0, "value_max": -0.25}, "geometry": {"type": "MultiPolygon", "coordinates": [[[[-7.736127, 41.862492], [-7.735814, 41.864272], [-7.743365, 41.8739], [-7.755356, 41.876968], [-7.768599, 41.873635], [-7.775831, 41.864705], [-7.774825, 41.855688], [-7.767938, 41.849288], [-7.755955, 41.846039], [-7.750241, 41.847636], [-7.750532, 41.849261], [-7.747524, 41.848576], [-7.743762, 41.849914], [-7.746901, 41.8524], [-7.746881, 41.855776], [-7.739943, 41.858003], [-7.736127, 41.862492]]], [[[-8.377961, 41.671392], [-8.383983, 41.672758], [-8.386522, 41.671438], [-8.386975, 41.662433], [-8.384098, 41.660688], [-8.37722, 41.662381], [-8.377961, 41.671392]]], [[[-8.241648, 41.517142], [-8.253695, 41.511729], [-8.255478, 41.508534], [-8.253774, 41.504775], [-8.241862, 41.498793], [-8.231925, 41.508379], [-8.241648, 41.517142]]], [[[-8.206537, 41.376969], [-8.205216, 41.382094], [-8.212765, 41.391153], [-8.219161, 41.39369], [-8.231132, 41.392921], [-8.234226, 41.391298], [-8.241478, 41.382338], [-8.238548, 41.373311], [-8.234846, 41.370644], [-8.224854, 41.370878], [-8.21738, 41.368182], [-8.212011, 41.375839], [-8.206537, 41.376969]]]]}}]}