{"type": "FeatureCollection", "features": [{"id": "10", "type": "Feature", "properties": {"fill": "#5093f6", "value_min": 1.5, "value_max": -1.75}, "geometry": {"type": "MultiPolygon", "coordinates": [[[[-8.010685, 41.730717], [-8.008755, 41.73185], [-8.010624, 41.734725], [-8.012946, 41.731886], [-8.010685, 41.730717]]], [[[-8.148433, 41.705949], [-8.143321, 41.702737], [-8.131287, 41.703818], [-8.125344, 41.714782], [-8.131052, 41.721324], [-8.143086, 41.720436], [-8.14932, 41.714962], [-8.148433, 41.705949]], [[-8.129621, 41.714815], [-8.131232, 41.707932], [-8.142144, 41.714909], [-8.131116, 41.716529], [-8.129621, 41.714815]]], [[[-8.361512, 41.515155], [-8.3736, 41.504347], [-8.379327, 41.491254], [-8.37704, 41.473227], [-8.371698, 41.464191], [-8.362097, 41.455566], [-8.350178, 41.450123], [-8.338222, 41.448479], [-8.326241, 41.44945], [-8.314225, 41.453565], [-8.302161, 41.462103], [-8.294857, 41.472753], [-8.293182, 41.48175], [-8.294209, 41.490763], [-8.301703, 41.504798], [-8.313575, 41.515225], [-8.325511, 41.519799], [-8.337482, 41.521245], [-8.349482, 41.519697], [-8.361512, 41.515155]], [[-8.337551, 41.514458], [-8.32559, 41.512226], [-8.31368, 41.505223], [-8.308456, 41.499857], [-8.304255, 41.490825], [-8.30374, 41.481814], [-8.306878, 41.472826], [-8.314102, 41.465254], [-8.326142, 41.458974], [-8.338134, 41.457213], [-8.350092, 41.458689], [-8.362007, 41.464752], [-8.369635, 41.473187], [-8.373034, 41.482213], [-8.372961, 41.49122], [-8.36916, 41.500206], [-8.361586, 41.507638], [-8.349547, 41.513211], [-8.337551, 41.514458]]], [[[-8.745806, 41.309741], [-8.751549, 41.303501], [-8.754447, 41.294499], [-8.753166, 41.285489], [-8.745941, 41.275123], [-8.734029, 41.268064], [-8.722101, 41.26545], [-8.710156, 41.267118], [-8.698192, 41.272441], [-8.687594, 41.28533], [-8.685994, 41.294333], [-8.689198, 41.303349], [-8.697816, 41.31238], [-8.709933, 41.317373], [-8.721875, 41.318668], [-8.733832, 41.316542], [-8.745806, 41.309741]], [[-8.710029, 41.295768], [-8.710038, 41.293575], [-8.721983, 41.293359], [-8.722964, 41.294428], [-8.721971, 41.296246], [-8.710029, 41.295768]]], [[[-8.654954, 41.175694], [-8.650073, 41.186135], [-8.650695, 41.204153], [-8.655214, 41.213175], [-8.662632, 41.222134], [-8.674524, 41.230022], [-8.686434, 41.234623], [-8.698357, 41.236661], [-8.710291, 41.236424], [-8.722237, 41.23332], [-8.739602, 41.222404], [-8.746957, 41.213413], [-8.751174, 41.204414], [-8.752536, 41.195409], [-8.751334, 41.186399], [-8.747272, 41.177382], [-8.734449, 41.164232], [-8.722556, 41.157972], [-8.710651, 41.154709], [-8.698737, 41.153779], [-8.686813, 41.155021], [-8.674876, 41.158865], [-8.66292, 41.166109], [-8.655364, 41.175173], [-8.655131, 41.175468], [-8.655069, 41.175548], [-8.654954, 41.175694]], [[-8.698435, 41.219744], [-8.686506, 41.219481], [-8.674597, 41.215166], [-8.664633, 41.204195], [-8.662731, 41.195181], [-8.666279, 41.186183], [-8.674783, 41.177711], [-8.686725, 41.173438], [-8.698648, 41.173217], [-8.7115, 41.177298], [-8.721402, 41.18633], [-8.724431, 41.195345], [-8.722683, 41.204349], [-8.714962, 41.213338], [-8.698435, 41.219744]]]]}}, {"id": "11", "type": "Feature", "properties": {"fill": "#3171ee", "value_min": 1.75, "value_max": -2.0}, "geometry": {"type": "MultiPolygon", "coordinates": [[[[-8.129621, 41.714815], [-8.131116, 41.716529], [-8.142144, 41.714909], [-8.131232, 41.707932], [-8.129621, 41.714815]]], [[[-8.337551, 41.514458], [-8.349547, 41.513211], [-8.361586, 41.507638], [-8.36916, 41.500206], [-8.372961, 41.49122], [-8.373034, 41.482213], [-8.369635, 41.473187], [-8.362007, 41.464752], [-8.350092, 41.458689], [-8.338134, 41.457213], [-8.326142, 41.458974], [-8.314102, 41.465254], [-8.306878, 41.472826], [-8.30374, 41.481814], [-8.304255, 41.490825], [-8.308456, 41.499857], [-8.31368, 41.505223], [-8.32559, 41.512226], [-8.337551, 41.514458]], [[-8.349605, 41.507466], [-8.33761, 41.508612], [-8.32566, 41.505516], [-8.317803, 41.499913], [-8.313802, 41.493679], [-8.311966, 41.481864], [-8.317168, 41.472887], [-8.326062, 41.46669], [-8.338064, 41.464015], [-8.350025, 41.4654], [-8.36254, 41.473148], [-8.367512, 41.482183], [-8.367509, 41.49119], [-8.361653, 41.500789], [-8.349605, 41.507466]]], [[[-8.710029, 41.295768], [-8.721971, 41.296246], [-8.722964, 41.294428], [-8.721983, 41.293359], [-8.710038, 41.293575], [-8.710029, 41.295768]]], [[[-8.698435, 41.219744], [-8.714962, 41.213338], [-8.722683, 41.204349], [-8.724431, 41.195345], [-8.721402, 41.18633], [-8.7115, 41.177298], [-8.698648, 41.173217], [-8.686725, 41.173438], [-8.674783, 41.177711], [-8.666279, 41.186183], [-8.662731, 41.195181], [-8.664633, 41.204195], [-8.674597, 41.215166], [-8.686506, 41.219481], [-8.698435, 41.219744]]]]}}, {"id": "13", "type": "Feature", "properties": {"fill": "#2253c5", "value_min": 2.25, "value_max": -2.5}, "geometry": {"type": "Polygon", "coordinates": [[[-8.361742, 41.491688], [-8.361839, 41.481885], [-8.349969, 41.471008], [-8.338009, 41.469515], [-8.327833, 41.47295], [-8.319503, 41.481908], [-8.319456, 41.490916], [-8.325729, 41.498866], [-8.337661, 41.503618], [-8.349656, 41.502381], [-8.361742, 41.491688]], [[-8.337717, 41.498169], [-8.326813, 41.490959], [-8.327237, 41.481954], [-8.337949, 41.475409], [-8.349907, 41.477259], [-8.354988, 41.482113], [-8.355269, 41.491122], [-8.349715, 41.496427], [-8.337717, 41.498169]]]}}, {"id": "14", "type": "Feature", "properties": {"fill": "#2048ac", "value_min": 2.5, "value_max": -2.75}, "geometry": {"type": "Polygon", "coordinates": [[[-8.337717, 41.498169], [-8.349715, 41.496427], [-8.355269, 41.491122], [-8.354988, 41.482113], [-8.349907, 41.477259], [-8.337949, 41.475409], [-8.327237, 41.481954], [-8.326813, 41.490959], [-8.337717, 41.498169]], [[-8.336973, 41.491018], [-8.337839, 41.482016], [-8.337882, 41.48199], [-8.341236, 41.491042], [-8.336973, 41.491018]]]}}, {"id": "8", "type": "Feature", "properties": {"fill": "#90a4bc", "value_min": 1.0, "value_max": -1.25}, "geometry": {"type": "MultiPolygon", "coordinates": [[[[-7.963569, 41.874301], [-7.972354, 41.872275], [-7.982149, 41.866719], [-7.990769, 41.857789], [-7.994065, 41.848811], [-7.99364, 41.8398], [-7.988984, 41.830753], [-7.977495, 41.821644], [-7.961221, 41.815582], [-7.949193, 41.814868], [-7.937102, 41.817987], [-7.924911, 41.826982], [-7.917342, 41.839107], [-7.916361, 41.848104], [-7.919048, 41.857136], [-7.926942, 41.866217], [-7.939504, 41.872886], [-7.941618, 41.870891], [-7.951254, 41.871132], [-7.956367, 41.87339], [-7.956362, 41.87504], [-7.958169, 41.875051], [-7.959976, 41.875063], [-7.961784, 41.874713], [-7.963569, 41.874301]], [[-7.948536, 41.854974], [-7.936577, 41.849676], [-7.93321, 41.839255], [-7.936837, 41.833994], [-7.94196, 41.830329], [-7.948979, 41.827969], [-7.96175, 41.83051], [-7.968946, 41.839581], [-7.966218, 41.848564], [-7.960618, 41.852869], [-7.948536, 41.854974]]], [[[-7.949902, 41.785368], [-7.937608, 41.787312], [-7.934967, 41.794237], [-7.937439, 41.797564], [-7.949453, 41.79893], [-7.953541, 41.794408], [-7.949902, 41.785368]]], [[[-7.877837, 41.764314], [-7.879471, 41.757682], [-7.866097, 41.747859], [-7.854037, 41.749673], [-7.846007, 41.757351], [-7.848455, 41.766382], [-7.853673, 41.770133], [-7.86567, 41.772085], [-7.876788, 41.766663], [-7.877837, 41.764314]]], [[[-8.178797, 41.748263], [-8.180719, 41.742212], [-8.178905, 41.739792], [-8.166972, 41.73264], [-8.163692, 41.724075], [-8.164201, 41.715072], [-8.161967, 41.706048], [-8.155408, 41.697465], [-8.143447, 41.693206], [-8.139746, 41.696877], [-8.131348, 41.699325], [-8.119144, 41.712953], [-8.114238, 41.714697], [-8.111, 41.723679], [-8.114273, 41.732712], [-8.118811, 41.7373], [-8.130777, 41.741708], [-8.142788, 41.742847], [-8.154763, 41.746731], [-8.159771, 41.751067], [-8.166705, 41.753318], [-8.174416, 41.751173], [-8.178797, 41.748263]], [[-8.130961, 41.728045], [-8.12491, 41.723786], [-8.121068, 41.71475], [-8.131318, 41.701572], [-8.143372, 41.698879], [-8.154698, 41.705995], [-8.155848, 41.715011], [-8.148454, 41.723963], [-8.142992, 41.72748], [-8.130961, 41.728045]]], [[[-8.04659, 41.742025], [-8.046346, 41.732168], [-8.041351, 41.723119], [-8.023007, 41.711027], [-8.011019, 41.708964], [-7.998955, 41.711789], [-7.986956, 41.722653], [-7.984834, 41.731641], [-7.987617, 41.740672], [-7.998321, 41.752626], [-8.010269, 41.757823], [-8.022283, 41.75878], [-8.034356, 41.755886], [-8.042694, 41.750151], [-8.04659, 41.742025]], [[-8.010426, 41.747606], [-7.998483, 41.742207], [-7.994521, 41.731726], [-7.998748, 41.72514], [-8.010844, 41.720369], [-8.022803, 41.724524], [-8.029448, 41.732026], [-8.027833, 41.74102], [-8.022488, 41.745299], [-8.010426, 41.747606]]], [[[-8.144004, 41.651167], [-8.156512, 41.642959], [-8.160083, 41.633978], [-8.155817, 41.62494], [-8.144427, 41.619244], [-8.132412, 41.620064], [-8.120282, 41.629436], [-8.1174, 41.633658], [-8.11748, 41.642666], [-8.120049, 41.64653], [-8.131983, 41.652054], [-8.144004, 41.651167]], [[-8.132008, 41.642777], [-8.126646, 41.633729], [-8.132297, 41.628647], [-8.145382, 41.63387], [-8.144205, 41.636022], [-8.132008, 41.642777]]], [[[-8.082787, 41.548368], [-8.09734, 41.552754], [-8.109321, 41.553497], [-8.121332, 41.551994], [-8.13338, 41.54775], [-8.140787, 41.543763], [-8.149828, 41.534823], [-8.153957, 41.525847], [-8.154132, 41.516841], [-8.149315, 41.507798], [-8.145934, 41.504838], [-8.134022, 41.499628], [-8.098158, 41.493856], [-8.086184, 41.493416], [-8.075341, 41.497121], [-8.078332, 41.500331], [-8.093, 41.504613], [-8.089398, 41.519242], [-8.090578, 41.521719], [-8.097862, 41.515246], [-8.109849, 41.514986], [-8.113683, 41.516536], [-8.122516, 41.525611], [-8.118536, 41.534588], [-8.109521, 41.538883], [-8.099272, 41.538167], [-8.106759, 41.543557], [-8.101666, 41.542655], [-8.094175, 41.544904], [-8.087885, 41.542876], [-8.083389, 41.5449], [-8.082488, 41.548217], [-8.082605, 41.548276], [-8.082787, 41.548368]]], [[[-8.09906, 41.538153], [-8.09906, 41.538153], [-8.098073, 41.538084], [-8.09906, 41.538153]]], [[[-8.318181, 41.336774], [-8.308225, 41.346729], [-8.303533, 41.355708], [-8.300743, 41.364699], [-8.295696, 41.400698], [-8.290073, 41.409671], [-8.236487, 41.454365], [-8.214858, 41.481242], [-8.209728, 41.490214], [-8.207174, 41.499204], [-8.207671, 41.508215], [-8.212, 41.517252], [-8.222772, 41.526332], [-8.229515, 41.529662], [-8.241461, 41.533125], [-8.301288, 41.543373], [-8.325253, 41.544648], [-8.349266, 41.541277], [-8.373348, 41.530468], [-8.386546, 41.518315], [-8.392391, 41.509339], [-8.395034, 41.500345], [-8.394992, 41.455308], [-8.388598, 41.428252], [-8.389569, 41.419249], [-8.410594, 41.388671], [-8.415183, 41.374345], [-8.414977, 41.365336], [-8.412323, 41.356315], [-8.406908, 41.347279], [-8.3976, 41.338224], [-8.381554, 41.329676], [-8.380382, 41.331254], [-8.377097, 41.331261], [-8.37201, 41.328346], [-8.361563, 41.329718], [-8.358276, 41.329049], [-8.357673, 41.327249], [-8.350207, 41.327264], [-8.346032, 41.328847], [-8.342462, 41.333131], [-8.333215, 41.336299], [-8.326363, 41.342163], [-8.324568, 41.341041], [-8.323376, 41.341943], [-8.318181, 41.336774]], [[-8.337389, 41.530276], [-8.325406, 41.529908], [-8.313449, 41.527116], [-8.295978, 41.517796], [-8.282868, 41.499701], [-8.277708, 41.481654], [-8.277572, 41.472645], [-8.280091, 41.463654], [-8.286095, 41.454684], [-8.296745, 41.445742], [-8.314396, 41.437343], [-8.326396, 41.434456], [-8.338369, 41.434019], [-8.350314, 41.436464], [-8.362239, 41.441036], [-8.374118, 41.45054], [-8.382529, 41.464249], [-8.384912, 41.473269], [-8.385908, 41.49129], [-8.384318, 41.500289], [-8.379916, 41.509272], [-8.373486, 41.516202], [-8.361422, 41.524259], [-8.349396, 41.528328], [-8.337389, 41.530276]], [[-8.350751, 41.392595], [-8.33776, 41.382933], [-8.335128, 41.37391], [-8.337794, 41.364918], [-8.351124, 41.355107], [-8.363094, 41.353551], [-8.37502, 41.356463], [-8.384858, 41.365179], [-8.38739, 41.3742], [-8.383723, 41.383188], [-8.374693, 41.390656], [-8.369883, 41.392121], [-8.362698, 41.394063], [-8.350751, 41.392595]]], [[[-8.673307, 41.47378], [-8.66133, 41.473865], [-8.661312, 41.477304], [-8.673285, 41.478144], [-8.673307, 41.47378]]], [[[-8.624272, 41.184158], [-8.631259, 41.2131], [-8.644239, 41.249173], [-8.648467, 41.285217], [-8.651515, 41.294234], [-8.656537, 41.303257], [-8.674739, 41.321325], [-8.697898, 41.336326], [-8.721762, 41.345261], [-8.733707, 41.347317], [-8.757613, 41.347582], [-8.769572, 41.345836], [-8.790212, 41.339609], [-8.807055, 41.331243], [-8.799695, 41.14406], [-8.765029, 41.144833], [-8.78093, 41.159435], [-8.786964, 41.168454], [-8.793195, 41.186481], [-8.793846, 41.204498], [-8.786186, 41.240516], [-8.785613, 41.249523], [-8.78877, 41.276552], [-8.786657, 41.294564], [-8.776051, 41.312559], [-8.764952, 41.321545], [-8.757695, 41.325312], [-8.739816, 41.330498], [-8.721822, 41.331182], [-8.709882, 41.328967], [-8.697952, 41.324524], [-8.680621, 41.312334], [-8.67364, 41.303306], [-8.669871, 41.294288], [-8.668939, 41.285277], [-8.673502, 41.258267], [-8.670145, 41.24925], [-8.647303, 41.222158], [-8.639287, 41.204118], [-8.637462, 41.19423], [-8.634946, 41.193341], [-8.633126, 41.189072], [-8.627456, 41.187971], [-8.624272, 41.184158]]]]}}, {"id": "9", "type": "Feature", "properties": {"fill": "#71a5e5", "value_min": 1.25, "value_max": -1.5}, "geometry": {"type": "MultiPolygon", "coordinates": [[[[-7.948536, 41.854974], [-7.960618, 41.852869], [-7.966218, 41.848564], [-7.968946, 41.839581], [-7.96175, 41.83051], [-7.948979, 41.827969], [-7.94196, 41.830329], [-7.936837, 41.833994], [-7.93321, 41.839255], [-7.936577, 41.849676], [-7.948536, 41.854974]]], [[[-8.010426, 41.747606], [-8.022488, 41.745299], [-8.027833, 41.74102], [-8.029448, 41.732026], [-8.022803, 41.724524], [-8.010844, 41.720369], [-7.998748, 41.72514], [-7.994521, 41.731726], [-7.998483, 41.742207], [-8.010426, 41.747606]], [[-8.010685, 41.730717], [-8.012946, 41.731886], [-8.010624, 41.734725], [-8.008755, 41.73185], [-8.010685, 41.730717]]], [[[-8.130961, 41.728045], [-8.142992, 41.72748], [-8.148454, 41.723963], [-8.155848, 41.715011], [-8.154698, 41.705995], [-8.143372, 41.698879], [-8.131318, 41.701572], [-8.121068, 41.71475], [-8.12491, 41.723786], [-8.130961, 41.728045]], [[-8.148433, 41.705949], [-8.14932, 41.714962], [-8.143086, 41.720436], [-8.131052, 41.721324], [-8.125344, 41.714782], [-8.131287, 41.703818], [-8.143321, 41.702737], [-8.148433, 41.705949]]], [[[-8.132008, 41.642777], [-8.144205, 41.636022], [-8.145382, 41.63387], [-8.132297, 41.628647], [-8.126646, 41.633729], [-8.132008, 41.642777]]], [[[-8.099272, 41.538167], [-8.109521, 41.538883], [-8.118536, 41.534588], [-8.122516, 41.525611], [-8.113683, 41.516536], [-8.109849, 41.514986], [-8.097862, 41.515246], [-8.090578, 41.521719], [-8.093588, 41.52307], [-8.091786, 41.531848], [-8.095978, 41.534325], [-8.098073, 41.538084], [-8.09906, 41.538153], [-8.099272, 41.538167]]], [[[-8.337389, 41.530276], [-8.349396, 41.528328], [-8.361422, 41.524259], [-8.373486, 41.516202], [-8.379916, 41.509272], [-8.384318, 41.500289], [-8.385908, 41.49129], [-8.384912, 41.473269], [-8.382529, 41.464249], [-8.374118, 41.45054], [-8.362239, 41.441036], [-8.350314, 41.436464], [-8.338369, 41.434019], [-8.326396, 41.434456], [-8.314396, 41.437343], [-8.296745, 41.445742], [-8.286095, 41.454684], [-8.280091, 41.463654], [-8.277572, 41.472645], [-8.277708, 41.481654], [-8.282868, 41.499701], [-8.295978, 41.517796], [-8.313449, 41.527116], [-8.325406, 41.529908], [-8.337389, 41.530276]], [[-8.361512, 41.515155], [-8.349482, 41.519697], [-8.337482, 41.521245], [-8.325511, 41.519799], [-8.313575, 41.515225], [-8.301703, 41.504798], [-8.294209, 41.490763], [-8.293182, 41.48175], [-8.294857, 41.472753], [-8.302161, 41.462103], [-8.314225, 41.453565], [-8.326241, 41.44945], [-8.338222, 41.448479], [-8.350178, 41.450123], [-8.362097, 41.455566], [-8.371698, 41.464191], [-8.37704, 41.473227], [-8.379327, 41.491254], [-8.3736, 41.504347], [-8.361512, 41.515155]]], [[[-8.350751, 41.392595], [-8.362698, 41.394063], [-8.369883, 41.392121], [-8.374693, 41.390656], [-8.383723, 41.383188], [-8.38739, 41.3742], [-8.384858, 41.365179], [-8.37502, 41.356463], [-8.363094, 41.353551], [-8.351124, 41.355107], [-8.337794, 41.364918], [-8.335128, 41.37391], [-8.33776, 41.382933], [-8.350751, 41.392595]]], [[[-8.637462, 41.19423], [-8.639287, 41.204118], [-8.647303, 41.222158], [-8.670145, 41.24925], [-8.673502, 41.258267], [-8.668939, 41.285277], [-8.669871, 41.294288], [-8.67364, 41.303306], [-8.680621, 41.312334], [-8.697952, 41.324524], [-8.709882, 41.328967], [-8.721822, 41.331182], [-8.739816, 41.330498], [-8.757695, 41.325312], [-8.764952, 41.321545], [-8.776051, 41.312559], [-8.786657, 41.294564], [-8.78877, 41.276552], [-8.785613, 41.249523], [-8.786186, 41.240516], [-8.793846, 41.204498], [-8.793195, 41.186481], [-8.786964, 41.168454], [-8.78093, 41.159435], [-8.765029, 41.144833], [-8.674793, 41.146932], [-8.674849, 41.153767], [-8.672489, 41.15648], [-8.66117, 41.156307], [-8.662078, 41.158104], [-8.660313, 41.160813], [-8.657033, 41.160378], [-8.654961, 41.161963], [-8.653231, 41.169174], [-8.655364, 41.175173], [-8.66292, 41.166109], [-8.674876, 41.158865], [-8.686813, 41.155021], [-8.698737, 41.153779], [-8.710651, 41.154709], [-8.722556, 41.157972], [-8.734449, 41.164232], [-8.747272, 41.177382], [-8.751334, 41.186399], [-8.752536, 41.195409], [-8.751174, 41.204414], [-8.746957, 41.213413], [-8.739602, 41.222404], [-8.722237, 41.23332], [-8.710291, 41.236424], [-8.698357, 41.236661], [-8.686434, 41.234623], [-8.674524, 41.230022], [-8.662632, 41.222134], [-8.655214, 41.213175], [-8.650695, 41.204153], [-8.650073, 41.186135], [-8.654954, 41.175694], [-8.647955, 41.180228], [-8.647696, 41.185181], [-8.641225, 41.196014], [-8.638841, 41.196025], [-8.637462, 41.19423]], [[-8.745806, 41.309741], [-8.733832, 41.316542], [-8.721875, 41.318668], [-8.709933, 41.317373], [-8.697816, 41.31238], [-8.689198, 41.303349], [-8.685994, 41.294333], [-8.687594, 41.28533], [-8.698192, 41.272441], [-8.710156, 41.267118], [-8.722101, 41.26545], [-8.734029, 41.268064], [-8.745941, 41.275123], [-8.753166, 41.285489], [-8.754447, 41.294499], [-8.751549, 41.303501], [-8.745806, 41.309741]]], [[[-8.655069, 41.175548], [-8.655069, 41.175548], [-8.655131, 41.175468], [-8.655069, 41.175548]]]]}}, {"id": "1", "type": "Feature", "properties": {"fill": "#a3a3a3", "value_min": -0.75, "value_max": -0.5}, "geometry": {"type": "MultiPolygon", "coordinates": [[[[-8.227174, 41.697498], [-8.22414, 41.688471], [-8.215666, 41.683568], [-8.203646, 41.683972], [-8.197588, 41.688289], [-8.194327, 41.697273], [-8.203361, 41.707046], [-8.215373, 41.70772], [-8.218501, 41.706447], [-8.227174, 41.697498]], [[-8.203438, 41.700881], [-8.20026, 41.697314], [-8.203565, 41.690521], [-8.215578, 41.690866], [-8.219106, 41.697444], [-8.215457, 41.700835], [-8.203438, 41.700881]]], [[[-8.456396, 41.633132], [-8.459978, 41.626771], [-8.456496, 41.621289], [-8.450195, 41.617717], [-8.444534, 41.616461], [-8.440899, 41.617672], [-8.432459, 41.624614], [-8.432424, 41.628687], [-8.439836, 41.635682], [-8.444354, 41.637405], [-8.452297, 41.635742], [-8.456396, 41.633132]]], [[[-8.540798, 41.582332], [-8.542045, 41.573084], [-8.535212, 41.564049], [-8.528959, 41.560777], [-8.516974, 41.559638], [-8.506042, 41.563927], [-8.498922, 41.572904], [-8.499312, 41.581913], [-8.504761, 41.588622], [-8.516724, 41.593296], [-8.528732, 41.591925], [-8.540798, 41.582332]], [[-8.51616, 41.581985], [-8.51152, 41.572958], [-8.516901, 41.569444], [-8.526354, 41.57302], [-8.518039, 41.581993], [-8.51616, 41.581985]]]]}}, {"id": "0", "type": "Feature", "properties": {"fill": "#a3a3a3", "value_min": -1.0, "value_max": -0.75}, "geometry": {"type": "MultiPolygon", "coordinates": [[[[-8.203438, 41.700881], [-8.215457, 41.700835], [-8.219106, 41.697444], [-8.215578, 41.690866], [-8.203565, 41.690521], [-8.20026, 41.697314], [-8.203438, 41.700881]]], [[[-8.51616, 41.581985], [-8.518039, 41.581993], [-8.526354, 41.57302], [-8.516901, 41.569444], [-8.51152, 41.572958], [-8.51616, 41.581985]]]]}}, {"id": "12", "type": "Feature", "properties": {"fill": "#245ede", "value_min": 2.0, "value_max": -2.25}, "geometry": {"type": "Polygon", "coordinates": [[[-8.349605, 41.507466], [-8.361653, 41.500789], [-8.367509, 41.49119], [-8.367512, 41.482183], [-8.36254, 41.473148], [-8.350025, 41.4654], [-8.338064, 41.464015], [-8.326062, 41.46669], [-8.317168, 41.472887], [-8.311966, 41.481864], [-8.313802, 41.493679], [-8.317803, 41.499913], [-8.32566, 41.505516], [-8.33761, 41.508612], [-8.349605, 41.507466]], [[-8.361742, 41.491688], [-8.349656, 41.502381], [-8.337661, 41.503618], [-8.325729, 41.498866], [-8.319456, 41.490916], [-8.319503, 41.481908], [-8.327833, 41.47295], [-8.338009, 41.469515], [-8.349969, 41.471008], [-8.361839, 41.481885], [-8.361742, 41.491688]]]}}, {"id": "15", "type": "Feature", "properties": {"fill": "#1f3f95", "value_min": 2.75, "value_max": -3.0}, "geometry": {"type": "Polygon", "coordinates": [[[-8.336973, 41.491018], [-8.341236, 41.491042], [-8.337882, 41.48199], [-8.337839, 41.482016], [-8.336973, 41.491018]]]}}, {"id": "4", "type": "Feature", "properties": {"fill": "#a3a3a3", "value_min": 0.0, "value_max": -0.25}, "geometry": {"type": "MultiPolygon", "coordinates": [[[[-7.734743, 41.822542], [-7.756495, 41.818196], [-7.768627, 41.81338], [-7.780866, 41.802831], [-7.785993, 41.79276], [-7.786971, 41.783763], [-7.781951, 41.765696], [-7.769856, 41.749136], [-7.758686, 41.740741], [-7.757758, 41.745301], [-7.747812, 41.749995], [-7.746879, 41.755322], [-7.757612, 41.760344], [-7.769385, 41.773759], [-7.771837, 41.783602], [-7.76974, 41.792587], [-7.762518, 41.801516], [-7.756743, 41.805337], [-7.744622, 41.809632], [-7.728498, 41.810616], [-7.728761, 41.816776], [-7.732041, 41.821514], [-7.734743, 41.822542]]], [[[-7.758465, 41.740577], [-7.758465, 41.740577], [-7.758387, 41.740518], [-7.758465, 41.740577]]], [[[-7.758163, 41.74035], [-7.758163, 41.74035], [-7.758087, 41.740294], [-7.758163, 41.74035]]], [[[-7.969445, 41.758525], [-7.962345, 41.745913], [-7.950443, 41.738247], [-7.926497, 41.731946], [-7.927662, 41.713108], [-7.923759, 41.704064], [-7.915082, 41.695745], [-7.903155, 41.690424], [-7.891152, 41.689648], [-7.87791, 41.694619], [-7.870297, 41.703551], [-7.868076, 41.712536], [-7.869114, 41.721553], [-7.880937, 41.730676], [-7.890376, 41.734763], [-7.90236, 41.737192], [-7.914375, 41.73778], [-7.919901, 41.740056], [-7.917546, 41.758047], [-7.923006, 41.767105], [-7.937856, 41.772306], [-7.949882, 41.772649], [-7.965813, 41.767499], [-7.969445, 41.758525]], [[-7.937915, 41.768723], [-7.9338, 41.767206], [-7.927731, 41.758143], [-7.933367, 41.749188], [-7.938285, 41.746318], [-7.950306, 41.746621], [-7.954535, 41.749383], [-7.961422, 41.758452], [-7.955502, 41.767406], [-7.949938, 41.769253], [-7.937915, 41.768723]], [[-7.890522, 41.726267], [-7.883976, 41.721699], [-7.883255, 41.712685], [-7.890877, 41.705675], [-7.902897, 41.705634], [-7.911366, 41.712954], [-7.910253, 41.721951], [-7.902537, 41.726761], [-7.890522, 41.726267]]], [[[-8.658232, 41.590967], [-8.664847, 41.555492], [-8.66403, 41.537475], [-8.66027, 41.528457], [-8.653632, 41.51943], [-8.641401, 41.510385], [-8.613278, 41.49845], [-8.603906, 41.492247], [-8.601398, 41.483231], [-8.605813, 41.447216], [-8.604592, 41.438204], [-8.60092, 41.429184], [-8.589831, 41.416781], [-8.577903, 41.410812], [-8.56596, 41.40755], [-8.554, 41.406842], [-8.542027, 41.408222], [-8.530036, 41.411806], [-8.518026, 41.417865], [-8.505527, 41.428814], [-8.499141, 41.437794], [-8.489221, 41.464772], [-8.482539, 41.47375], [-8.469621, 41.484219], [-8.457536, 41.497011], [-8.45133, 41.509635], [-8.455903, 41.518664], [-8.483628, 41.536807], [-8.487554, 41.545832], [-8.483262, 41.55482], [-8.468918, 41.570222], [-8.456863, 41.577476], [-8.420797, 41.586406], [-8.410559, 41.590499], [-8.396956, 41.599436], [-8.38925, 41.608402], [-8.386243, 41.617394], [-8.387078, 41.626405], [-8.392561, 41.635442], [-8.419752, 41.662604], [-8.425986, 41.671642], [-8.427606, 41.680657], [-8.417821, 41.689615], [-8.398425, 41.698522], [-8.386199, 41.707465], [-8.381263, 41.716445], [-8.381233, 41.725452], [-8.383643, 41.730998], [-8.385523, 41.730319], [-8.387332, 41.73189], [-8.393033, 41.729852], [-8.396942, 41.730518], [-8.400531, 41.726683], [-8.402934, 41.726452], [-8.404721, 41.722847], [-8.417349, 41.725067], [-8.422737, 41.720552], [-8.429643, 41.719859], [-8.430533, 41.717381], [-8.435927, 41.714441], [-8.441333, 41.714201], [-8.4446, 41.70654], [-8.453868, 41.697961], [-8.453255, 41.695487], [-8.461659, 41.694563], [-8.467939, 41.689593], [-8.478124, 41.685061], [-8.482012, 41.682123], [-8.484371, 41.674238], [-8.49308, 41.674886], [-8.499963, 41.671038], [-8.50927, 41.671233], [-8.51018, 41.672806], [-8.511967, 41.670324], [-8.509856, 41.668755], [-8.512252, 41.667847], [-8.514629, 41.663788], [-8.522103, 41.658811], [-8.525706, 41.659023], [-8.527769, 41.652714], [-8.534066, 41.652017], [-8.537951, 41.649302], [-8.537634, 41.646602], [-8.543876, 41.637352], [-8.543855, 41.633976], [-8.535738, 41.631328], [-8.516381, 41.63922], [-8.492235, 41.653939], [-8.4802, 41.659059], [-8.468168, 41.661588], [-8.456155, 41.661842], [-8.44416, 41.659964], [-8.432194, 41.654886], [-8.420258, 41.646631], [-8.410248, 41.635534], [-8.40652, 41.626507], [-8.408535, 41.615327], [-8.412844, 41.608525], [-8.420652, 41.602586], [-8.432697, 41.597449], [-8.456733, 41.593024], [-8.468769, 41.588401], [-8.485862, 41.563839], [-8.502298, 41.545896], [-8.505144, 41.538365], [-8.507343, 41.536911], [-8.481248, 41.528323], [-8.464781, 41.518706], [-8.461077, 41.509681], [-8.46521, 41.500693], [-8.469522, 41.496396], [-8.48155, 41.490416], [-8.493545, 41.48846], [-8.505514, 41.489851], [-8.51745, 41.495618], [-8.522806, 41.500946], [-8.52603, 41.509967], [-8.528374, 41.527992], [-8.553099, 41.538222], [-8.564887, 41.54615], [-8.574304, 41.555193], [-8.580303, 41.564222], [-8.583804, 41.573242], [-8.583686, 41.591256], [-8.57664, 41.604988], [-8.564443, 41.61714], [-8.568056, 41.619031], [-8.570735, 41.616095], [-8.577321, 41.614269], [-8.581231, 41.615829], [-8.585766, 41.620988], [-8.591462, 41.620515], [-8.596534, 41.616668], [-8.601628, 41.615972], [-8.603996, 41.611686], [-8.613256, 41.606696], [-8.619881, 41.610269], [-8.621338, 41.604636], [-8.628833, 41.604378], [-8.636302, 41.600744], [-8.639873, 41.597352], [-8.640152, 41.59465], [-8.658232, 41.590967]], [[-8.541472, 41.486978], [-8.529526, 41.482463], [-8.520885, 41.473916], [-8.516796, 41.464892], [-8.515696, 41.45588], [-8.518073, 41.446882], [-8.524836, 41.437903], [-8.529876, 41.434018], [-8.541879, 41.429234], [-8.553855, 41.428161], [-8.565807, 41.430494], [-8.57773, 41.437525], [-8.584446, 41.447141], [-8.585919, 41.456154], [-8.583796, 41.465154], [-8.577491, 41.474467], [-8.565458, 41.482757], [-8.553453, 41.486745], [-8.541472, 41.486978]]], [[[-8.251392, 41.711222], [-8.256328, 41.706698], [-8.26111, 41.697722], [-8.262022, 41.68872], [-8.259327, 41.679696], [-8.2508, 41.670634], [-8.239921, 41.664506], [-8.227943, 41.661728], [-8.215934, 41.661522], [-8.203898, 41.663523], [-8.191813, 41.669378], [-8.181775, 41.67917], [-8.178376, 41.688153], [-8.178943, 41.697164], [-8.182625, 41.706197], [-8.191243, 41.714917], [-8.203183, 41.72148], [-8.215174, 41.724051], [-8.227199, 41.723925], [-8.239266, 41.720172], [-8.251392, 41.711222]], [[-8.215249, 41.717897], [-8.203254, 41.715742], [-8.191316, 41.709108], [-8.183996, 41.6972], [-8.184624, 41.688197], [-8.191699, 41.678536], [-8.203791, 41.672186], [-8.21582, 41.670902], [-8.227809, 41.67293], [-8.238873, 41.679562], [-8.245265, 41.688612], [-8.245717, 41.697622], [-8.239412, 41.707764], [-8.227298, 41.715592], [-8.215249, 41.717897]]], [[[-8.119437, 41.69147], [-8.109012, 41.696643], [-8.119294, 41.701932], [-8.123761, 41.696756], [-8.119437, 41.69147]], [[-8.118552, 41.696717], [-8.119371, 41.696309], [-8.119711, 41.696725], [-8.11936, 41.697133], [-8.118552, 41.696717]]], [[[-8.096229, 41.632492], [-8.106138, 41.624564], [-8.112137, 41.615603], [-8.11296, 41.606603], [-8.108694, 41.599133], [-8.096795, 41.591902], [-8.084817, 41.590445], [-8.072791, 41.592462], [-8.063762, 41.597205], [-8.05618, 41.60615], [-8.055311, 41.61515], [-8.060509, 41.6242], [-8.072218, 41.632433], [-8.076019, 41.633333], [-8.084186, 41.635105], [-8.096229, 41.632492]], [[-8.084265, 41.629494], [-8.071761, 41.624292], [-8.066442, 41.615241], [-8.069608, 41.60626], [-8.072631, 41.603636], [-8.084697, 41.598966], [-8.096674, 41.600563], [-8.103855, 41.606532], [-8.106003, 41.615556], [-8.096298, 41.627501], [-8.084265, 41.629494]]], [[[-8.649895, 41.373115], [-8.653891, 41.366303], [-8.653192, 41.357293], [-8.643559, 41.348256], [-8.638088, 41.345926], [-8.626138, 41.345363], [-8.614155, 41.350389], [-8.60825, 41.357149], [-8.60756, 41.366154], [-8.614008, 41.375395], [-8.625938, 41.380212], [-8.6379, 41.379732], [-8.649895, 41.373115]]], [[[-8.497501, 41.221996], [-8.499624, 41.230619], [-8.504877, 41.23965], [-8.519246, 41.252159], [-8.531144, 41.257483], [-8.543062, 41.260239], [-8.554997, 41.260568], [-8.566949, 41.25838], [-8.578916, 41.253656], [-8.585288, 41.248975], [-8.593857, 41.239998], [-8.598, 41.231005], [-8.599202, 41.222001], [-8.597747, 41.212988], [-8.591187, 41.200012], [-8.581288, 41.190597], [-8.579522, 41.193795], [-8.575958, 41.195609], [-8.576894, 41.201908], [-8.574221, 41.203185], [-8.579217, 41.206815], [-8.583424, 41.212937], [-8.585319, 41.221952], [-8.582531, 41.23095], [-8.579035, 41.235252], [-8.567055, 41.24226], [-8.555111, 41.243821], [-8.539147, 41.239792], [-8.528388, 41.230741], [-8.525174, 41.22172], [-8.526737, 41.212718], [-8.529844, 41.208556], [-8.52713, 41.203215], [-8.523236, 41.200077], [-8.51163, 41.203042], [-8.510456, 41.206197], [-8.505693, 41.207113], [-8.504239, 41.213646], [-8.500076, 41.21546], [-8.50308, 41.219502], [-8.502204, 41.222656], [-8.497501, 41.221996]]]]}}, {"id": "3", "type": "Feature", "properties": {"fill": "#a3a3a3", "value_min": -0.25, "value_max": -0.0}, "geometry": {"type": "MultiPolygon", "coordinates": [[[[-7.728498, 41.810616], [-7.744622, 41.809632], [-7.756743, 41.805337], [-7.762518, 41.801516], [-7.76974, 41.792587], [-7.771837, 41.783602], [-7.769385, 41.773759], [-7.757612, 41.760344], [-7.746879, 41.755322], [-7.743866, 41.756509], [-7.743242, 41.760333], [-7.735384, 41.767159], [-7.745423, 41.768531], [-7.754144, 41.774405], [-7.758461, 41.783459], [-7.754689, 41.792425], [-7.744838, 41.798522], [-7.732777, 41.799765], [-7.728864, 41.798321], [-7.72705, 41.801691], [-7.728498, 41.810616]]], [[[-7.937915, 41.768723], [-7.949938, 41.769253], [-7.955502, 41.767406], [-7.961422, 41.758452], [-7.954535, 41.749383], [-7.950306, 41.746621], [-7.938285, 41.746318], [-7.933367, 41.749188], [-7.927731, 41.758143], [-7.9338, 41.767206], [-7.937915, 41.768723]], [[-7.938043, 41.760981], [-7.93597, 41.758219], [-7.938129, 41.755743], [-7.950174, 41.75477], [-7.953463, 41.75838], [-7.950044, 41.762743], [-7.938043, 41.760981]]], [[[-7.890522, 41.726267], [-7.902537, 41.726761], [-7.910253, 41.721951], [-7.911366, 41.712954], [-7.902897, 41.705634], [-7.890877, 41.705675], [-7.883255, 41.712685], [-7.883976, 41.721699], [-7.890522, 41.726267]]], [[[-8.215249, 41.717897], [-8.227298, 41.715592], [-8.239412, 41.707764], [-8.245717, 41.697622], [-8.245265, 41.688612], [-8.238873, 41.679562], [-8.227809, 41.67293], [-8.21582, 41.670902], [-8.203791, 41.672186], [-8.191699, 41.678536], [-8.184624, 41.688197], [-8.183996, 41.6972], [-8.191316, 41.709108], [-8.203254, 41.715742], [-8.215249, 41.717897]], [[-8.215314, 41.712542], [-8.203308, 41.711345], [-8.195013, 41.706285], [-8.188917, 41.697235], [-8.191595, 41.68682], [-8.203713, 41.678562], [-8.21574, 41.67752], [-8.22168, 41.679447], [-8.227698, 41.682233], [-8.234045, 41.688537], [-8.235509, 41.697554], [-8.229861, 41.706523], [-8.215314, 41.712542]]], [[[-8.118552, 41.696717], [-8.11936, 41.697133], [-8.119711, 41.696725], [-8.119371, 41.696309], [-8.118552, 41.696717]]], [[[-8.564443, 41.61714], [-8.57664, 41.604988], [-8.583686, 41.591256], [-8.583804, 41.573242], [-8.580303, 41.564222], [-8.574304, 41.555193], [-8.564887, 41.54615], [-8.553099, 41.538222], [-8.528374, 41.527992], [-8.52603, 41.509967], [-8.522806, 41.500946], [-8.51745, 41.495618], [-8.505514, 41.489851], [-8.493545, 41.48846], [-8.48155, 41.490416], [-8.469522, 41.496396], [-8.46521, 41.500693], [-8.461077, 41.509681], [-8.464781, 41.518706], [-8.481248, 41.528323], [-8.507343, 41.536911], [-8.505144, 41.538365], [-8.502298, 41.545896], [-8.485862, 41.563839], [-8.468769, 41.588401], [-8.456733, 41.593024], [-8.432697, 41.597449], [-8.420652, 41.602586], [-8.412844, 41.608525], [-8.408535, 41.615327], [-8.40652, 41.626507], [-8.410248, 41.635534], [-8.420258, 41.646631], [-8.432194, 41.654886], [-8.44416, 41.659964], [-8.456155, 41.661842], [-8.468168, 41.661588], [-8.4802, 41.659059], [-8.492235, 41.653939], [-8.516381, 41.63922], [-8.535738, 41.631328], [-8.537198, 41.624996], [-8.543431, 41.61462], [-8.564443, 41.61714]], [[-8.444264, 41.647809], [-8.432292, 41.64363], [-8.42294, 41.635598], [-8.419274, 41.626572], [-8.420478, 41.622077], [-8.421905, 41.617579], [-8.432595, 41.609072], [-8.444623, 41.606082], [-8.456618, 41.606788], [-8.468581, 41.611349], [-8.476515, 41.61784], [-8.478736, 41.626858], [-8.475932, 41.635852], [-8.468324, 41.642648], [-8.456275, 41.647593], [-8.444264, 41.647809]], [[-8.52863, 41.60594], [-8.516625, 41.60654], [-8.504642, 41.604117], [-8.492709, 41.595466], [-8.487692, 41.581862], [-8.489519, 41.572862], [-8.495521, 41.563882], [-8.505011, 41.555877], [-8.51704, 41.550802], [-8.529034, 41.550414], [-8.540998, 41.554133], [-8.553356, 41.564121], [-8.557973, 41.573146], [-8.558128, 41.582154], [-8.552724, 41.592591], [-8.540659, 41.602036], [-8.52863, 41.60594]], [[-8.481298, 41.522007], [-8.474933, 41.518753], [-8.469415, 41.509445], [-8.481476, 41.49977], [-8.493446, 41.501213], [-8.501546, 41.509864], [-8.498081, 41.518856], [-8.493289, 41.521315], [-8.481298, 41.522007]]], [[[-8.084265, 41.629494], [-8.096298, 41.627501], [-8.106003, 41.615556], [-8.103855, 41.606532], [-8.096674, 41.600563], [-8.084697, 41.598966], [-8.072631, 41.603636], [-8.069608, 41.60626], [-8.066442, 41.615241], [-8.071761, 41.624292], [-8.084265, 41.629494]], [[-8.084339, 41.624303], [-8.076107, 41.615319], [-8.084595, 41.606185], [-8.096556, 41.609036], [-8.09987, 41.615508], [-8.096393, 41.620734], [-8.084339, 41.624303]]], [[[-8.541472, 41.486978], [-8.553453, 41.486745], [-8.565458, 41.482757], [-8.577491, 41.474467], [-8.583796, 41.465154], [-8.585919, 41.456154], [-8.584446, 41.447141], [-8.57773, 41.437525], [-8.565807, 41.430494], [-8.553855, 41.428161], [-8.541879, 41.429234], [-8.529876, 41.434018], [-8.524836, 41.437903], [-8.518073, 41.446882], [-8.515696, 41.45588], [-8.516796, 41.464892], [-8.520885, 41.473916], [-8.529526, 41.482463], [-8.541472, 41.486978]], [[-8.541616, 41.466533], [-8.534634, 41.455958], [-8.539326, 41.446969], [-8.541766, 41.445281], [-8.55375, 41.443368], [-8.562615, 41.44706], [-8.567858, 41.456087], [-8.561915, 41.465072], [-8.553578, 41.468514], [-8.541616, 41.466533]]], [[[-8.529844, 41.208556], [-8.526737, 41.212718], [-8.525174, 41.22172], [-8.528388, 41.230741], [-8.539147, 41.239792], [-8.555111, 41.243821], [-8.567055, 41.24226], [-8.579035, 41.235252], [-8.582531, 41.23095], [-8.585319, 41.221952], [-8.583424, 41.212937], [-8.579217, 41.206815], [-8.574221, 41.203185], [-8.57423, 41.20462], [-8.568566, 41.204416], [-8.565895, 41.206227], [-8.567697, 41.208246], [-8.566512, 41.209376], [-8.559636, 41.206251], [-8.554271, 41.20627], [-8.549521, 41.209214], [-8.544157, 41.209458], [-8.54238, 41.211265], [-8.532257, 41.213102], [-8.529844, 41.208556]]]]}}, {"id": "7", "type": "Feature", "properties": {"fill": "#a3a3a3", "value_min": 0.75, "value_max": -1.0}, "geometry": {"type": "MultiPolygon", "coordinates": [[[[-8.155074, 41.817927], [-8.178089, 41.803796], [-8.190251, 41.793911], [-8.202484, 41.77797], [-8.207399, 41.760413], [-8.206025, 41.751396], [-8.201489, 41.742358], [-8.193546, 41.733295], [-8.179127, 41.72237], [-8.173424, 41.715138], [-8.167373, 41.701592], [-8.155593, 41.683359], [-8.143845, 41.678894], [-8.146906, 41.669909], [-8.155836, 41.66474], [-8.169685, 41.652062], [-8.17753, 41.643111], [-8.182492, 41.63414], [-8.185097, 41.625151], [-8.184968, 41.616143], [-8.182007, 41.607115], [-8.180636, 41.603452], [-8.168744, 41.595006], [-8.165959, 41.597992], [-8.156693, 41.599017], [-8.144634, 41.603544], [-8.141457, 41.606819], [-8.132543, 41.610313], [-8.120401, 41.62066], [-8.110857, 41.633608], [-8.108124, 41.640478], [-8.099789, 41.651536], [-8.095928, 41.653984], [-8.071856, 41.657628], [-8.059841, 41.657988], [-8.0479, 41.653291], [-8.035999, 41.645997], [-8.024049, 41.642138], [-8.012037, 41.642424], [-7.996253, 41.650678], [-7.991244, 41.659641], [-7.98468, 41.686605], [-7.974978, 41.7078], [-7.97254, 41.722525], [-7.978205, 41.740589], [-7.996573, 41.767772], [-8.000251, 41.776811], [-7.997816, 41.78507], [-7.985706, 41.789866], [-7.973701, 41.787968], [-7.970707, 41.785556], [-7.949752, 41.780614], [-7.937719, 41.780608], [-7.921436, 41.785104], [-7.914608, 41.794047], [-7.912124, 41.812037], [-7.908248, 41.821007], [-7.89143, 41.847866], [-7.888376, 41.855806], [-7.891675, 41.859094], [-7.898893, 41.86136], [-7.902203, 41.861591], [-7.904318, 41.859795], [-7.907309, 41.865203], [-7.906095, 41.868126], [-7.910299, 41.871285], [-7.909985, 41.875111], [-7.915391, 41.879397], [-7.928949, 41.877847], [-7.935283, 41.874707], [-7.937389, 41.87516], [-7.939504, 41.872886], [-7.926942, 41.866217], [-7.919048, 41.857136], [-7.916361, 41.848104], [-7.917342, 41.839107], [-7.924911, 41.826982], [-7.937102, 41.817987], [-7.949193, 41.814868], [-7.961221, 41.815582], [-7.977495, 41.821644], [-7.988984, 41.830753], [-7.99364, 41.8398], [-7.994065, 41.848811], [-7.990769, 41.857789], [-7.982149, 41.866719], [-7.972354, 41.872275], [-7.963569, 41.874301], [-7.973828, 41.875216], [-7.987996, 41.869157], [-7.990123, 41.860157], [-7.995547, 41.858138], [-7.994047, 41.855211], [-7.996162, 41.851837], [-8.003089, 41.850494], [-8.005804, 41.847346], [-8.007928, 41.838796], [-8.012753, 41.833624], [-8.013363, 41.829124], [-8.017873, 41.831379], [-8.02901, 41.829589], [-8.037134, 41.831171], [-8.041351, 41.828023], [-8.041054, 41.825097], [-8.045268, 41.824425], [-8.047679, 41.821276], [-8.057314, 41.815656], [-8.06664, 41.817012], [-8.072961, 41.813414], [-8.078678, 41.813417], [-8.082892, 41.810493], [-8.091013, 41.812521], [-8.093421, 41.811397], [-8.093723, 41.808471], [-8.101845, 41.809824], [-8.104853, 41.81185], [-8.115984, 41.812302], [-8.123807, 41.808702], [-8.138247, 41.808477], [-8.139751, 41.813203], [-8.14276, 41.812978], [-8.145769, 41.815453], [-8.149078, 41.814777], [-8.155074, 41.817927]], [[-7.949902, 41.785368], [-7.953541, 41.794408], [-7.949453, 41.79893], [-7.937439, 41.797564], [-7.934967, 41.794237], [-7.937608, 41.787312], [-7.949902, 41.785368]], [[-8.178797, 41.748263], [-8.174416, 41.751173], [-8.166705, 41.753318], [-8.159771, 41.751067], [-8.154763, 41.746731], [-8.142788, 41.742847], [-8.130777, 41.741708], [-8.118811, 41.7373], [-8.114273, 41.732712], [-8.111, 41.723679], [-8.114238, 41.714697], [-8.119144, 41.712953], [-8.131348, 41.699325], [-8.139746, 41.696877], [-8.143447, 41.693206], [-8.155408, 41.697465], [-8.161967, 41.706048], [-8.164201, 41.715072], [-8.163692, 41.724075], [-8.166972, 41.73264], [-8.178905, 41.739792], [-8.180719, 41.742212], [-8.178797, 41.748263]], [[-8.04659, 41.742025], [-8.042694, 41.750151], [-8.034356, 41.755886], [-8.022283, 41.75878], [-8.010269, 41.757823], [-7.998321, 41.752626], [-7.987617, 41.740672], [-7.984834, 41.731641], [-7.986956, 41.722653], [-7.998955, 41.711789], [-8.011019, 41.708964], [-8.023007, 41.711027], [-8.041351, 41.723119], [-8.046346, 41.732168], [-8.04659, 41.742025]], [[-8.107118, 41.713327], [-8.095118, 41.711812], [-8.088122, 41.705486], [-8.088979, 41.696486], [-8.095383, 41.692948], [-8.107566, 41.680947], [-8.113329, 41.678662], [-8.119695, 41.672548], [-8.131703, 41.672907], [-8.143422, 41.678891], [-8.138569, 41.687861], [-8.132264, 41.696821], [-8.119188, 41.709683], [-8.107118, 41.713327]], [[-8.144004, 41.651167], [-8.131983, 41.652054], [-8.120049, 41.64653], [-8.11748, 41.642666], [-8.1174, 41.633658], [-8.120282, 41.629436], [-8.132412, 41.620064], [-8.144427, 41.619244], [-8.155817, 41.62494], [-8.160083, 41.633978], [-8.156512, 41.642959], [-8.144004, 41.651167]]], [[[-7.961784, 41.874713], [-7.961784, 41.874713], [-7.959976, 41.875063], [-7.961784, 41.874713]]], [[[-7.958169, 41.875051], [-7.958169, 41.875051], [-7.956362, 41.87504], [-7.958169, 41.875051]]], [[[-7.889782, 41.769255], [-7.889986, 41.757784], [-7.883761, 41.748717], [-7.866214, 41.741189], [-7.854193, 41.740886], [-7.842107, 41.744272], [-7.835003, 41.748233], [-7.829607, 41.757185], [-7.829824, 41.766194], [-7.835513, 41.775259], [-7.841472, 41.779577], [-7.853444, 41.783016], [-7.865474, 41.783216], [-7.877545, 41.781062], [-7.886215, 41.775761], [-7.889782, 41.769255]], [[-7.877837, 41.764314], [-7.876788, 41.766663], [-7.86567, 41.772085], [-7.853673, 41.770133], [-7.848455, 41.766382], [-7.846007, 41.757351], [-7.854037, 41.749673], [-7.866097, 41.747859], [-7.879471, 41.757682], [-7.877837, 41.764314]]], [[[-8.290942, 41.757178], [-8.298355, 41.751997], [-8.293988, 41.742963], [-8.287131, 41.740323], [-8.275786, 41.74285], [-8.272249, 41.751835], [-8.274929, 41.755962], [-8.284334, 41.759125], [-8.287033, 41.756829], [-8.290942, 41.757178]]], [[[-8.081576, 41.564431], [-8.133055, 41.57209], [-8.159102, 41.579928], [-8.168852, 41.586608], [-8.180824, 41.588595], [-8.276911, 41.579121], [-8.32499, 41.569991], [-8.361094, 41.557597], [-8.384093, 41.545324], [-8.395849, 41.536379], [-8.403716, 41.527413], [-8.414188, 41.500445], [-8.429725, 41.428463], [-8.449064, 41.383519], [-8.453585, 41.365526], [-8.453678, 41.347511], [-8.448363, 41.32947], [-8.43676, 41.311399], [-8.422634, 41.296925], [-8.421756, 41.30077], [-8.416982, 41.301232], [-8.407744, 41.304856], [-8.406262, 41.307335], [-8.402979, 41.307568], [-8.401801, 41.311398], [-8.399712, 41.311628], [-8.400316, 41.313202], [-8.396738, 41.314336], [-8.398835, 41.316131], [-8.393775, 41.31997], [-8.393489, 41.323122], [-8.391105, 41.324253], [-8.386325, 41.323588], [-8.381554, 41.329676], [-8.3976, 41.338224], [-8.406908, 41.347279], [-8.412323, 41.356315], [-8.414977, 41.365336], [-8.415183, 41.374345], [-8.410594, 41.388671], [-8.389569, 41.419249], [-8.388598, 41.428252], [-8.394992, 41.455308], [-8.395034, 41.500345], [-8.392391, 41.509339], [-8.386546, 41.518315], [-8.373348, 41.530468], [-8.349266, 41.541277], [-8.325253, 41.544648], [-8.301288, 41.543373], [-8.241461, 41.533125], [-8.229515, 41.529662], [-8.222772, 41.526332], [-8.212, 41.517252], [-8.207671, 41.508215], [-8.207174, 41.499204], [-8.209728, 41.490214], [-8.214858, 41.481242], [-8.236487, 41.454365], [-8.290073, 41.409671], [-8.295696, 41.400698], [-8.300743, 41.364699], [-8.303533, 41.355708], [-8.308225, 41.346729], [-8.318181, 41.336774], [-8.314699, 41.33678], [-8.312604, 41.334983], [-8.313794, 41.333405], [-8.310792, 41.327557], [-8.308701, 41.327561], [-8.307502, 41.325762], [-8.305116, 41.326891], [-8.303024, 41.325994], [-8.303615, 41.323742], [-8.301216, 41.319694], [-8.296431, 41.316774], [-8.297618, 41.313846], [-8.296116, 41.310022], [-8.292241, 41.312504], [-8.289255, 41.312508], [-8.284488, 41.316341], [-8.281801, 41.316569], [-8.279132, 41.324451], [-8.272266, 41.32536], [-8.265709, 41.331221], [-8.269004, 41.336169], [-8.263339, 41.340902], [-8.262751, 41.345405], [-8.256483, 41.347663], [-8.255889, 41.349689], [-8.249622, 41.353072], [-8.251123, 41.356897], [-8.248141, 41.360052], [-8.248448, 41.364328], [-8.245461, 41.364781], [-8.244011, 41.367709], [-8.244264, 41.368159], [-8.244271, 41.368172], [-8.247199, 41.373368], [-8.247894, 41.38238], [-8.243107, 41.391721], [-8.231068, 41.398372], [-8.219087, 41.399923], [-8.20716, 41.396916], [-8.197591, 41.391048], [-8.191749, 41.382], [-8.191603, 41.376302], [-8.189299, 41.375403], [-8.184818, 41.376756], [-8.169578, 41.377212], [-8.164499, 41.38059], [-8.152544, 41.375866], [-8.151049, 41.37339], [-8.145073, 41.374742], [-8.139694, 41.377894], [-8.133418, 41.374292], [-8.119672, 41.376768], [-8.119672, 41.378569], [-8.116683, 41.380144], [-8.117578, 41.386447], [-8.113992, 41.386896], [-8.112795, 41.390723], [-8.110105, 41.390947], [-8.108011, 41.393648], [-8.103827, 41.392972], [-8.105321, 41.394998], [-8.10263, 41.396123], [-8.10801, 41.398825], [-8.108606, 41.403102], [-8.104419, 41.406252], [-8.104119, 41.408728], [-8.101727, 41.409403], [-8.102025, 41.411204], [-8.092756, 41.411201], [-8.09126, 41.414352], [-8.079893, 41.41975], [-8.077503, 41.416597], [-8.070923, 41.41862], [-8.066739, 41.416142], [-8.061654, 41.417489], [-8.059852, 41.424916], [-8.055959, 41.429415], [-8.05745, 41.432793], [-8.056549, 41.436394], [-8.069999, 41.447206], [-8.068788, 41.462286], [-8.073872, 41.46499], [-8.074164, 41.473543], [-8.066374, 41.482318], [-8.066069, 41.48817], [-8.072054, 41.490199], [-8.07175, 41.494925], [-8.075341, 41.497121], [-8.086184, 41.493416], [-8.098158, 41.493856], [-8.134022, 41.499628], [-8.145934, 41.504838], [-8.149315, 41.507798], [-8.154132, 41.516841], [-8.153957, 41.525847], [-8.149828, 41.534823], [-8.140787, 41.543763], [-8.13338, 41.54775], [-8.121332, 41.551994], [-8.109321, 41.553497], [-8.09734, 41.552754], [-8.082787, 41.548368], [-8.080687, 41.551651], [-8.074396, 41.549848], [-8.072897, 41.551197], [-8.076188, 41.557276], [-8.080082, 41.558854], [-8.081576, 41.564431]]], [[[-8.082605, 41.548276], [-8.082605, 41.548276], [-8.082488, 41.548217], [-8.082605, 41.548276]]], [[[-8.467931, 41.545743], [-8.463208, 41.536713], [-8.457234, 41.533222], [-8.445256, 41.532126], [-8.434187, 41.536574], [-8.430915, 41.545565], [-8.440585, 41.55462], [-8.44505, 41.556159], [-8.457044, 41.555928], [-8.467931, 41.545743]]], [[[-8.707262, 41.483549], [-8.709426, 41.474547], [-8.707315, 41.465534], [-8.698736, 41.456504], [-8.685394, 41.450926], [-8.673427, 41.449882], [-8.661445, 41.451862], [-8.649438, 41.458241], [-8.643208, 41.465353], [-8.640143, 41.474351], [-8.642306, 41.483365], [-8.649263, 41.490746], [-8.66121, 41.496869], [-8.67318, 41.499036], [-8.685166, 41.498049], [-8.698854, 41.492535], [-8.707262, 41.483549]], [[-8.673307, 41.47378], [-8.673285, 41.478144], [-8.661312, 41.477304], [-8.66133, 41.473865], [-8.673307, 41.47378]]], [[[-8.807055, 41.331243], [-8.790212, 41.339609], [-8.769572, 41.345836], [-8.757613, 41.347582], [-8.733707, 41.347317], [-8.721762, 41.345261], [-8.697898, 41.336326], [-8.674739, 41.321325], [-8.656537, 41.303257], [-8.651515, 41.294234], [-8.648467, 41.285217], [-8.644239, 41.249173], [-8.631259, 41.2131], [-8.624272, 41.184158], [-8.621132, 41.178994], [-8.613374, 41.177451], [-8.608583, 41.174095], [-8.609164, 41.172066], [-8.605845, 41.166228], [-8.602086, 41.164217], [-8.615065, 41.195767], [-8.622536, 41.22208], [-8.624641, 41.240103], [-8.619829, 41.276118], [-8.620184, 41.285127], [-8.623724, 41.294146], [-8.631083, 41.303178], [-8.709742, 41.36043], [-8.733602, 41.373129], [-8.757489, 41.380788], [-8.769441, 41.382969], [-8.809179, 41.385064], [-8.807055, 41.331243]]]]}}, {"id": "5", "type": "Feature", "properties": {"fill": "#a3a3a3", "value_min": 0.25, "value_max": -0.5}, "geometry": {"type": "MultiPolygon", "coordinates": [[[[-8.658232, 41.590967], [-8.660788, 41.588255], [-8.663794, 41.589141], [-8.665265, 41.585758], [-8.66948, 41.587989], [-8.684455, 41.586117], [-8.685608, 41.58071], [-8.697261, 41.576376], [-8.701703, 41.570277], [-8.707704, 41.570923], [-8.712485, 41.569323], [-8.716422, 41.573805], [-8.720316, 41.57356], [-8.725151, 41.577811], [-8.726633, 41.576003], [-8.734424, 41.575737], [-8.736564, 41.580228], [-8.738354, 41.579318], [-8.740778, 41.582006], [-8.74467, 41.581535], [-8.750711, 41.58623], [-8.75993, 41.578527], [-8.767441, 41.580286], [-8.769874, 41.583874], [-8.768997, 41.58613], [-8.773228, 41.589482], [-8.774165, 41.593303], [-8.78556, 41.593464], [-8.797327, 41.600599], [-8.804218, 41.600109], [-8.80456, 41.604158], [-8.809434, 41.611332], [-8.828644, 41.609656], [-8.82839, 41.585633], [-8.818497, 41.554794], [-8.822263, 41.545049], [-8.80486, 41.536953], [-8.777038, 41.528743], [-8.709022, 41.521832], [-8.685074, 41.517094], [-8.661151, 41.508333], [-8.63314, 41.492344], [-8.625909, 41.483313], [-8.623348, 41.474297], [-8.62716, 41.456295], [-8.637572, 41.438784], [-8.64961, 41.426269], [-8.669713, 41.411387], [-8.678461, 41.402404], [-8.683235, 41.39341], [-8.685084, 41.384407], [-8.682495, 41.366385], [-8.671006, 41.348337], [-8.662023, 41.340343], [-8.65011, 41.332959], [-8.638188, 41.327909], [-8.626256, 41.324721], [-8.602372, 41.322419], [-8.57846, 41.32468], [-8.566484, 41.328609], [-8.550385, 41.338922], [-8.506339, 41.381004], [-8.482201, 41.408686], [-8.470665, 41.428659], [-8.464491, 41.446645], [-8.45851, 41.473639], [-8.454568, 41.482628], [-8.441484, 41.50058], [-8.436998, 41.509566], [-8.439774, 41.518587], [-8.457289, 41.526558], [-8.473514, 41.536761], [-8.47717, 41.545785], [-8.473015, 41.554773], [-8.469011, 41.558862], [-8.456964, 41.56547], [-8.444951, 41.56776], [-8.408969, 41.567764], [-8.396944, 41.571182], [-8.384898, 41.576645], [-8.363011, 41.590246], [-8.351836, 41.59919], [-8.324377, 41.62871], [-8.312268, 41.638563], [-8.300217, 41.642627], [-8.288202, 41.643246], [-8.252216, 41.64003], [-8.228187, 41.641232], [-8.204084, 41.648457], [-8.19199, 41.655221], [-8.175008, 41.670115], [-8.170629, 41.67909], [-8.170254, 41.688094], [-8.17626, 41.706152], [-8.182827, 41.715206], [-8.203089, 41.729111], [-8.22704, 41.737154], [-8.239082, 41.735761], [-8.287461, 41.710463], [-8.299514, 41.707426], [-8.311534, 41.707407], [-8.323503, 41.712321], [-8.335168, 41.725195], [-8.350759, 41.756752], [-8.352545, 41.751769], [-8.349814, 41.744122], [-8.352516, 41.743441], [-8.352203, 41.739616], [-8.356398, 41.736231], [-8.357897, 41.735103], [-8.362407, 41.735994], [-8.368703, 41.73193], [-8.371416, 41.7344], [-8.376825, 41.734389], [-8.383643, 41.730998], [-8.381233, 41.725452], [-8.381263, 41.716445], [-8.386199, 41.707465], [-8.398425, 41.698522], [-8.417821, 41.689615], [-8.427606, 41.680657], [-8.425986, 41.671642], [-8.419752, 41.662604], [-8.392561, 41.635442], [-8.387078, 41.626405], [-8.386243, 41.617394], [-8.38925, 41.608402], [-8.396956, 41.599436], [-8.410559, 41.590499], [-8.420797, 41.586406], [-8.456863, 41.577476], [-8.468918, 41.570222], [-8.483262, 41.55482], [-8.487554, 41.545832], [-8.483628, 41.536807], [-8.455903, 41.518664], [-8.45133, 41.509635], [-8.457536, 41.497011], [-8.469621, 41.484219], [-8.482539, 41.47375], [-8.489221, 41.464772], [-8.499141, 41.437794], [-8.505527, 41.428814], [-8.518026, 41.417865], [-8.530036, 41.411806], [-8.542027, 41.408222], [-8.554, 41.406842], [-8.56596, 41.40755], [-8.577903, 41.410812], [-8.589831, 41.416781], [-8.60092, 41.429184], [-8.604592, 41.438204], [-8.605813, 41.447216], [-8.601398, 41.483231], [-8.603906, 41.492247], [-8.613278, 41.49845], [-8.641401, 41.510385], [-8.653632, 41.51943], [-8.66027, 41.528457], [-8.66403, 41.537475], [-8.664847, 41.555492], [-8.658232, 41.590967]], [[-8.251392, 41.711222], [-8.239266, 41.720172], [-8.227199, 41.723925], [-8.215174, 41.724051], [-8.203183, 41.72148], [-8.191243, 41.714917], [-8.182625, 41.706197], [-8.178943, 41.697164], [-8.178376, 41.688153], [-8.181775, 41.67917], [-8.191813, 41.669378], [-8.203898, 41.663523], [-8.215934, 41.661522], [-8.227943, 41.661728], [-8.239921, 41.664506], [-8.2508, 41.670634], [-8.259327, 41.679696], [-8.262022, 41.68872], [-8.26111, 41.697722], [-8.256328, 41.706698], [-8.251392, 41.711222]], [[-8.371876, 41.682399], [-8.363867, 41.680322], [-8.352438, 41.671251], [-8.35229, 41.662243], [-8.364147, 41.653302], [-8.372176, 41.651516], [-8.384177, 41.652478], [-8.398024, 41.662492], [-8.398654, 41.671502], [-8.395975, 41.675114], [-8.383896, 41.681928], [-8.371876, 41.682399]], [[-8.649895, 41.373115], [-8.6379, 41.379732], [-8.625938, 41.380212], [-8.614008, 41.375395], [-8.60756, 41.366154], [-8.60825, 41.357149], [-8.614155, 41.350389], [-8.626138, 41.345363], [-8.638088, 41.345926], [-8.643559, 41.348256], [-8.653192, 41.357293], [-8.653891, 41.366303], [-8.649895, 41.373115]]], [[[-7.744592, 41.835878], [-7.792399, 41.829692], [-7.808072, 41.820011], [-7.812792, 41.811053], [-7.813374, 41.802053], [-7.804647, 41.765935], [-7.803267, 41.747907], [-7.806587, 41.738935], [-7.818279, 41.731999], [-7.830326, 41.730731], [-7.854365, 41.731244], [-7.866355, 41.733142], [-7.878301, 41.737658], [-7.89882, 41.748862], [-7.907823, 41.766962], [-7.913791, 41.772392], [-7.92577, 41.77554], [-7.961862, 41.775845], [-7.973962, 41.771614], [-7.978052, 41.767608], [-7.978638, 41.758607], [-7.974417, 41.749562], [-7.953533, 41.722353], [-7.944391, 41.695249], [-7.939276, 41.686038], [-7.9275, 41.671628], [-7.91565, 41.661922], [-7.892453, 41.649637], [-7.892145, 41.651576], [-7.901724, 41.658573], [-7.902017, 41.660599], [-7.899913, 41.66127], [-7.900198, 41.665547], [-7.898396, 41.665769], [-7.896885, 41.668692], [-7.883969, 41.67069], [-7.879755, 41.673607], [-7.877044, 41.676077], [-7.876723, 41.681253], [-7.873401, 41.686198], [-7.868896, 41.686413], [-7.867408, 41.683258], [-7.864403, 41.683701], [-7.864096, 41.685276], [-7.860493, 41.685268], [-7.857773, 41.689538], [-7.854776, 41.68818], [-7.847538, 41.695365], [-7.837309, 41.699391], [-7.835792, 41.702763], [-7.839682, 41.705924], [-7.838465, 41.709522], [-7.832453, 41.710407], [-7.825252, 41.708813], [-7.818621, 41.713522], [-7.815291, 41.718689], [-7.808986, 41.717996], [-7.808396, 41.715744], [-7.803298, 41.714154], [-7.790966, 41.717044], [-7.789449, 41.719966], [-7.78464, 41.720402], [-7.78252, 41.723546], [-7.776204, 41.724652], [-7.773786, 41.727346], [-7.770798, 41.72441], [-7.765698, 41.723044], [-7.761765, 41.727758], [-7.762933, 41.733839], [-7.759307, 41.737203], [-7.759597, 41.739005], [-7.75689, 41.739446], [-7.758087, 41.740294], [-7.758163, 41.74035], [-7.758387, 41.740518], [-7.758465, 41.740577], [-7.758686, 41.740741], [-7.769856, 41.749136], [-7.781951, 41.765696], [-7.786971, 41.783763], [-7.785993, 41.79276], [-7.780866, 41.802831], [-7.768627, 41.81338], [-7.756495, 41.818196], [-7.734743, 41.822542], [-7.743152, 41.825154], [-7.742839, 41.827178], [-7.738918, 41.82874], [-7.744592, 41.835878]], [[-7.969445, 41.758525], [-7.965813, 41.767499], [-7.949882, 41.772649], [-7.937856, 41.772306], [-7.923006, 41.767105], [-7.917546, 41.758047], [-7.919901, 41.740056], [-7.914375, 41.73778], [-7.90236, 41.737192], [-7.890376, 41.734763], [-7.880937, 41.730676], [-7.869114, 41.721553], [-7.868076, 41.712536], [-7.870297, 41.703551], [-7.87791, 41.694619], [-7.891152, 41.689648], [-7.903155, 41.690424], [-7.915082, 41.695745], [-7.923759, 41.704064], [-7.927662, 41.713108], [-7.926497, 41.731946], [-7.950443, 41.738247], [-7.962345, 41.745913], [-7.969445, 41.758525]]], [[[-7.887269, 41.811799], [-7.881408, 41.802735], [-7.877206, 41.800481], [-7.865174, 41.800223], [-7.857774, 41.802503], [-7.848225, 41.811414], [-7.851042, 41.820449], [-7.86471, 41.826476], [-7.87678, 41.824903], [-7.882385, 41.820758], [-7.887269, 41.811799]]], [[[-8.12781, 41.696787], [-8.122876, 41.687743], [-8.119516, 41.685672], [-8.107434, 41.690494], [-8.100871, 41.69658], [-8.104692, 41.705616], [-8.107207, 41.706862], [-8.119233, 41.706412], [-8.12781, 41.696787]], [[-8.119437, 41.69147], [-8.123761, 41.696756], [-8.119294, 41.701932], [-8.109012, 41.696643], [-8.119437, 41.69147]]], [[[-8.036195, 41.600241], [-8.03441, 41.60597], [-8.036752, 41.614996], [-8.042187, 41.624049], [-8.06014, 41.63739], [-8.072088, 41.641463], [-8.084086, 41.642181], [-8.096127, 41.639787], [-8.108279, 41.629238], [-8.118272, 41.615651], [-8.12256, 41.606676], [-8.122818, 41.597671], [-8.116125, 41.588613], [-8.108896, 41.584387], [-8.09695, 41.580772], [-8.084973, 41.579427], [-8.060952, 41.581464], [-8.052181, 41.584872], [-8.052777, 41.587649], [-8.048277, 41.590122], [-8.047974, 41.592373], [-8.036195, 41.600241]], [[-8.096229, 41.632492], [-8.084186, 41.635105], [-8.076019, 41.633333], [-8.072218, 41.632433], [-8.060509, 41.6242], [-8.055311, 41.61515], [-8.05618, 41.60615], [-8.063762, 41.597205], [-8.072791, 41.592462], [-8.084817, 41.590445], [-8.096795, 41.591902], [-8.108694, 41.599133], [-8.11296, 41.606603], [-8.112137, 41.615603], [-8.106138, 41.624564], [-8.096229, 41.632492]]], [[[-8.463548, 41.244383], [-8.47352, 41.257526], [-8.483323, 41.266823], [-8.507082, 41.282519], [-8.518987, 41.287563], [-8.530906, 41.290798], [-8.542842, 41.291806], [-8.554794, 41.290483], [-8.578755, 41.278835], [-8.590758, 41.268862], [-8.602783, 41.254569], [-8.609462, 41.240052], [-8.611117, 41.23105], [-8.609452, 41.213028], [-8.603134, 41.196634], [-8.591313, 41.179772], [-8.584559, 41.173741], [-8.582094, 41.177803], [-8.578825, 41.178941], [-8.581288, 41.190597], [-8.591187, 41.200012], [-8.597747, 41.212988], [-8.599202, 41.222001], [-8.598, 41.231005], [-8.593857, 41.239998], [-8.585288, 41.248975], [-8.578916, 41.253656], [-8.566949, 41.25838], [-8.554997, 41.260568], [-8.543062, 41.260239], [-8.531144, 41.257483], [-8.519246, 41.252159], [-8.504877, 41.23965], [-8.499624, 41.230619], [-8.497501, 41.221996], [-8.493861, 41.223583], [-8.487935, 41.230354], [-8.490333, 41.232598], [-8.484411, 41.240495], [-8.476346, 41.237818], [-8.475756, 41.23917], [-8.470986, 41.23941], [-8.471604, 41.243459], [-8.469227, 41.245267], [-8.463548, 41.244383]]]]}}, {"id": "6", "type": "Feature", "properties": {"fill": "#a3a3a3", "value_min": 0.5, "value_max": -0.75}, "geometry": {"type": "MultiPolygon", "coordinates": [[[[-8.350759, 41.756752], [-8.335168, 41.725195], [-8.323503, 41.712321], [-8.311534, 41.707407], [-8.299514, 41.707426], [-8.287461, 41.710463], [-8.239082, 41.735761], [-8.22704, 41.737154], [-8.203089, 41.729111], [-8.182827, 41.715206], [-8.17626, 41.706152], [-8.170254, 41.688094], [-8.170629, 41.67909], [-8.175008, 41.670115], [-8.19199, 41.655221], [-8.204084, 41.648457], [-8.228187, 41.641232], [-8.252216, 41.64003], [-8.288202, 41.643246], [-8.300217, 41.642627], [-8.312268, 41.638563], [-8.324377, 41.62871], [-8.351836, 41.59919], [-8.363011, 41.590246], [-8.384898, 41.576645], [-8.396944, 41.571182], [-8.408969, 41.567764], [-8.444951, 41.56776], [-8.456964, 41.56547], [-8.469011, 41.558862], [-8.473015, 41.554773], [-8.47717, 41.545785], [-8.473514, 41.536761], [-8.457289, 41.526558], [-8.439774, 41.518587], [-8.436998, 41.509566], [-8.441484, 41.50058], [-8.454568, 41.482628], [-8.45851, 41.473639], [-8.464491, 41.446645], [-8.470665, 41.428659], [-8.482201, 41.408686], [-8.506339, 41.381004], [-8.550385, 41.338922], [-8.566484, 41.328609], [-8.57846, 41.32468], [-8.602372, 41.322419], [-8.626256, 41.324721], [-8.638188, 41.327909], [-8.65011, 41.332959], [-8.662023, 41.340343], [-8.671006, 41.348337], [-8.682495, 41.366385], [-8.685084, 41.384407], [-8.683235, 41.39341], [-8.678461, 41.402404], [-8.669713, 41.411387], [-8.64961, 41.426269], [-8.637572, 41.438784], [-8.62716, 41.456295], [-8.623348, 41.474297], [-8.625909, 41.483313], [-8.63314, 41.492344], [-8.661151, 41.508333], [-8.685074, 41.517094], [-8.709022, 41.521832], [-8.777038, 41.528743], [-8.80486, 41.536953], [-8.822263, 41.545049], [-8.821376, 41.532771], [-8.815926, 41.525624], [-8.81063, 41.5101], [-8.813279, 41.503483], [-8.812636, 41.496944], [-8.804699, 41.482068], [-8.798552, 41.474753], [-8.80154, 41.446836], [-8.806115, 41.43713], [-8.807354, 41.425915], [-8.811166, 41.417099], [-8.809179, 41.385064], [-8.769441, 41.382969], [-8.757489, 41.380788], [-8.733602, 41.373129], [-8.709742, 41.36043], [-8.631083, 41.303178], [-8.623724, 41.294146], [-8.620184, 41.285127], [-8.619829, 41.276118], [-8.624641, 41.240103], [-8.622536, 41.22208], [-8.615065, 41.195767], [-8.602086, 41.164217], [-8.59422, 41.165149], [-8.589766, 41.167193], [-8.589194, 41.170572], [-8.584559, 41.173741], [-8.591313, 41.179772], [-8.603134, 41.196634], [-8.609452, 41.213028], [-8.611117, 41.23105], [-8.609462, 41.240052], [-8.602783, 41.254569], [-8.590758, 41.268862], [-8.578755, 41.278835], [-8.554794, 41.290483], [-8.542842, 41.291806], [-8.530906, 41.290798], [-8.518987, 41.287563], [-8.507082, 41.282519], [-8.483323, 41.266823], [-8.47352, 41.257526], [-8.463548, 41.244383], [-8.459989, 41.246644], [-8.454323, 41.246886], [-8.455541, 41.251834], [-8.452276, 41.25522], [-8.449891, 41.255452], [-8.449304, 41.257479], [-8.447812, 41.257258], [-8.449028, 41.261982], [-8.443657, 41.261771], [-8.438004, 41.264938], [-8.438023, 41.268989], [-8.434745, 41.269673], [-8.432691, 41.277107], [-8.427032, 41.279372], [-8.429143, 41.284319], [-8.426171, 41.287028], [-8.425606, 41.294007], [-8.422634, 41.296925], [-8.43676, 41.311399], [-8.448363, 41.32947], [-8.453678, 41.347511], [-8.453585, 41.365526], [-8.449064, 41.383519], [-8.429725, 41.428463], [-8.414188, 41.500445], [-8.403716, 41.527413], [-8.395849, 41.536379], [-8.384093, 41.545324], [-8.361094, 41.557597], [-8.32499, 41.569991], [-8.276911, 41.579121], [-8.180824, 41.588595], [-8.168852, 41.586608], [-8.159102, 41.579928], [-8.133055, 41.57209], [-8.081576, 41.564431], [-8.069883, 41.570103], [-8.069281, 41.572579], [-8.058484, 41.578199], [-8.052181, 41.584872], [-8.060952, 41.581464], [-8.084973, 41.579427], [-8.09695, 41.580772], [-8.108896, 41.584387], [-8.116125, 41.588613], [-8.122818, 41.597671], [-8.12256, 41.606676], [-8.118272, 41.615651], [-8.108279, 41.629238], [-8.096127, 41.639787], [-8.084086, 41.642181], [-8.072088, 41.641463], [-8.06014, 41.63739], [-8.042187, 41.624049], [-8.036752, 41.614996], [-8.03441, 41.60597], [-8.036195, 41.600241], [-8.031467, 41.602938], [-8.02367, 41.603156], [-8.019174, 41.601802], [-8.015872, 41.603824], [-8.013474, 41.603372], [-8.005971, 41.60629], [-8.003562, 41.611239], [-7.998761, 41.612809], [-7.999669, 41.608759], [-7.996976, 41.605829], [-7.996684, 41.602003], [-7.984685, 41.603564], [-7.982292, 41.60086], [-7.975689, 41.603552], [-7.974482, 41.606701], [-7.970882, 41.607147], [-7.969091, 41.603768], [-7.965796, 41.602413], [-7.9541, 41.602846], [-7.952606, 41.600592], [-7.947808, 41.60081], [-7.945413, 41.599456], [-7.942725, 41.595625], [-7.936733, 41.594264], [-7.93791, 41.601694], [-7.937004, 41.603718], [-7.931604, 41.604384], [-7.930073, 41.614735], [-7.925255, 41.620579], [-7.920755, 41.620796], [-7.917748, 41.623041], [-7.915933, 41.627764], [-7.913229, 41.628885], [-7.912613, 41.63361], [-7.906014, 41.633147], [-7.906884, 41.641927], [-7.897869, 41.645511], [-7.89696, 41.647985], [-7.892759, 41.647976], [-7.892453, 41.649637], [-7.91565, 41.661922], [-7.9275, 41.671628], [-7.939276, 41.686038], [-7.944391, 41.695249], [-7.953533, 41.722353], [-7.974417, 41.749562], [-7.978638, 41.758607], [-7.978052, 41.767608], [-7.973962, 41.771614], [-7.961862, 41.775845], [-7.92577, 41.77554], [-7.913791, 41.772392], [-7.907823, 41.766962], [-7.89882, 41.748862], [-7.878301, 41.737658], [-7.866355, 41.733142], [-7.854365, 41.731244], [-7.830326, 41.730731], [-7.818279, 41.731999], [-7.806587, 41.738935], [-7.803267, 41.747907], [-7.804647, 41.765935], [-7.813374, 41.802053], [-7.812792, 41.811053], [-7.808072, 41.820011], [-7.792399, 41.829692], [-7.744592, 41.835878], [-7.74729, 41.837772], [-7.746349, 41.84407], [-7.750246, 41.846784], [-7.750532, 41.849261], [-7.743309, 41.849012], [-7.746901, 41.8524], [-7.746881, 41.855776], [-7.73843, 41.859348], [-7.734159, 41.868337], [-7.730228, 41.871024], [-7.729293, 41.875972], [-7.722351, 41.878424], [-7.720523, 41.881793], [-7.725335, 41.882935], [-7.726208, 41.887665], [-7.737044, 41.888828], [-7.737935, 41.890857], [-7.74246, 41.889747], [-7.742785, 41.885922], [-7.756022, 41.888441], [-7.758719, 41.890926], [-7.756592, 41.89407], [-7.758376, 41.898127], [-7.764097, 41.898595], [-7.779227, 41.886264], [-7.785257, 41.885157], [-7.788886, 41.882467], [-7.794007, 41.882257], [-7.796739, 41.878214], [-7.794349, 41.87438], [-7.797064, 41.873488], [-7.803381, 41.874857], [-7.804914, 41.869459], [-7.813032, 41.871958], [-7.814229, 41.873537], [-7.823863, 41.874013], [-7.825059, 41.875817], [-7.830479, 41.875831], [-7.830789, 41.874031], [-7.832894, 41.874712], [-7.83772, 41.872924], [-7.842528, 41.875187], [-7.841663, 41.866632], [-7.849515, 41.861475], [-7.858542, 41.862622], [-7.859456, 41.860148], [-7.864877, 41.859711], [-7.87033, 41.851395], [-7.873043, 41.850501], [-7.873066, 41.844875], [-7.879956, 41.853217], [-7.888376, 41.855806], [-7.89143, 41.847866], [-7.908248, 41.821007], [-7.912124, 41.812037], [-7.914608, 41.794047], [-7.921436, 41.785104], [-7.937719, 41.780608], [-7.949752, 41.780614], [-7.970707, 41.785556], [-7.973701, 41.787968], [-7.985706, 41.789866], [-7.997816, 41.78507], [-8.000251, 41.776811], [-7.996573, 41.767772], [-7.978205, 41.740589], [-7.97254, 41.722525], [-7.974978, 41.7078], [-7.98468, 41.686605], [-7.991244, 41.659641], [-7.996253, 41.650678], [-8.012037, 41.642424], [-8.024049, 41.642138], [-8.035999, 41.645997], [-8.0479, 41.653291], [-8.059841, 41.657988], [-8.071856, 41.657628], [-8.095928, 41.653984], [-8.099789, 41.651536], [-8.108124, 41.640478], [-8.110857, 41.633608], [-8.120401, 41.62066], [-8.132543, 41.610313], [-8.141457, 41.606819], [-8.144634, 41.603544], [-8.156693, 41.599017], [-8.165959, 41.597992], [-8.168744, 41.595006], [-8.180636, 41.603452], [-8.182007, 41.607115], [-8.184968, 41.616143], [-8.185097, 41.625151], [-8.182492, 41.63414], [-8.17753, 41.643111], [-8.169685, 41.652062], [-8.155836, 41.66474], [-8.146906, 41.669909], [-8.143845, 41.678894], [-8.155593, 41.683359], [-8.167373, 41.701592], [-8.173424, 41.715138], [-8.179127, 41.72237], [-8.193546, 41.733295], [-8.201489, 41.742358], [-8.206025, 41.751396], [-8.207399, 41.760413], [-8.202484, 41.77797], [-8.190251, 41.793911], [-8.178089, 41.803796], [-8.155074, 41.817927], [-8.165326, 41.81815], [-8.173744, 41.808019], [-8.177655, 41.808242], [-8.183676, 41.812741], [-8.190291, 41.809587], [-8.197158, 41.814129], [-8.201063, 41.808724], [-8.204973, 41.807372], [-8.205872, 41.804445], [-8.213692, 41.803765], [-8.217598, 41.80016], [-8.217589, 41.793634], [-8.224207, 41.794303], [-8.229917, 41.791598], [-8.240744, 41.791588], [-8.24074, 41.789338], [-8.244347, 41.787984], [-8.245546, 41.785731], [-8.251257, 41.784375], [-8.251845, 41.777172], [-8.257551, 41.773564], [-8.261762, 41.774235], [-8.271366, 41.766346], [-8.280681, 41.764083], [-8.284334, 41.759125], [-8.274929, 41.755962], [-8.272249, 41.751835], [-8.275786, 41.74285], [-8.287131, 41.740323], [-8.293988, 41.742963], [-8.298355, 41.751997], [-8.290942, 41.757178], [-8.298457, 41.757263], [-8.300866, 41.758835], [-8.305674, 41.758152], [-8.311096, 41.762195], [-8.318308, 41.761283], [-8.326436, 41.765096], [-8.328234, 41.763292], [-8.336653, 41.763728], [-8.341756, 41.761468], [-8.344765, 41.762363], [-8.349267, 41.760103], [-8.350759, 41.756752]], [[-7.887269, 41.811799], [-7.882385, 41.820758], [-7.87678, 41.824903], [-7.86471, 41.826476], [-7.851042, 41.820449], [-7.848225, 41.811414], [-7.857774, 41.802503], [-7.865174, 41.800223], [-7.877206, 41.800481], [-7.881408, 41.802735], [-7.887269, 41.811799]], [[-7.889782, 41.769255], [-7.886215, 41.775761], [-7.877545, 41.781062], [-7.865474, 41.783216], [-7.853444, 41.783016], [-7.841472, 41.779577], [-7.835513, 41.775259], [-7.829824, 41.766194], [-7.829607, 41.757185], [-7.835003, 41.748233], [-7.842107, 41.744272], [-7.854193, 41.740886], [-7.866214, 41.741189], [-7.883761, 41.748717], [-7.889986, 41.757784], [-7.889782, 41.769255]], [[-8.467931, 41.545743], [-8.457044, 41.555928], [-8.44505, 41.556159], [-8.440585, 41.55462], [-8.430915, 41.545565], [-8.434187, 41.536574], [-8.445256, 41.532126], [-8.457234, 41.533222], [-8.463208, 41.536713], [-8.467931, 41.545743]], [[-8.707262, 41.483549], [-8.698854, 41.492535], [-8.685166, 41.498049], [-8.67318, 41.499036], [-8.66121, 41.496869], [-8.649263, 41.490746], [-8.642306, 41.483365], [-8.640143, 41.474351], [-8.643208, 41.465353], [-8.649438, 41.458241], [-8.661445, 41.451862], [-8.673427, 41.449882], [-8.685394, 41.450926], [-8.698736, 41.456504], [-8.707315, 41.465534], [-8.709426, 41.474547], [-8.707262, 41.483549]]], [[[-8.107118, 41.713327], [-8.119188, 41.709683], [-8.132264, 41.696821], [-8.138569, 41.687861], [-8.143422, 41.678891], [-8.131703, 41.672907], [-8.119695, 41.672548], [-8.113329, 41.678662], [-8.107566, 41.680947], [-8.095383, 41.692948], [-8.088979, 41.696486], [-8.088122, 41.705486], [-8.095118, 41.711812], [-8.107118, 41.713327]], [[-8.12781, 41.696787], [-8.119233, 41.706412], [-8.107207, 41.706862], [-8.104692, 41.705616], [-8.100871, 41.69658], [-8.107434, 41.690494], [-8.119516, 41.685672], [-8.122876, 41.687743], [-8.12781, 41.696787]]], [[[-8.371876, 41.682399], [-8.383896, 41.681928], [-8.395975, 41.675114], [-8.398654, 41.671502], [-8.398024, 41.662492], [-8.384177, 41.652478], [-8.372176, 41.651516], [-8.364147, 41.653302], [-8.35229, 41.662243], [-8.352438, 41.671251], [-8.363867, 41.680322], [-8.371876, 41.682399]]], [[[-8.191603, 41.376302], [-8.191749, 41.382], [-8.197591, 41.391048], [-8.20716, 41.396916], [-8.219087, 41.399923], [-8.231068, 41.398372], [-8.243107, 41.391721], [-8.247894, 41.38238], [-8.247199, 41.373368], [-8.244271, 41.368172], [-8.238301, 41.371316], [-8.232024, 41.369971], [-8.224854, 41.370878], [-8.21738, 41.368182], [-8.211712, 41.376065], [-8.200358, 41.377648], [-8.194677, 41.374275], [-8.191603, 41.376302]]], [[[-8.244264, 41.368159], [-8.244264, 41.368159], [-8.244011, 41.367709], [-8.244264, 41.368159]]]]}}, {"id": "2", "type": "Feature", "properties": {"fill": "#a3a3a3", "value_min": -0.5, "value_max": -0.25}, "geometry": {"type": "MultiPolygon", "coordinates": [[[[-7.728864, 41.798321], [-7.732777, 41.799765], [-7.744838, 41.798522], [-7.754689, 41.792425], [-7.758461, 41.783459], [-7.754144, 41.774405], [-7.745423, 41.768531], [-7.735384, 41.767159], [-7.726937, 41.771755], [-7.7254, 41.777152], [-7.727191, 41.779184], [-7.724177, 41.780299], [-7.725372, 41.781653], [-7.722296, 41.792446], [-7.728864, 41.798321]]], [[[-7.938043, 41.760981], [-7.950044, 41.762743], [-7.953463, 41.75838], [-7.950174, 41.75477], [-7.938129, 41.755743], [-7.93597, 41.758219], [-7.938043, 41.760981]]], [[[-8.215314, 41.712542], [-8.229861, 41.706523], [-8.235509, 41.697554], [-8.234045, 41.688537], [-8.227698, 41.682233], [-8.22168, 41.679447], [-8.21574, 41.67752], [-8.203713, 41.678562], [-8.191595, 41.68682], [-8.188917, 41.697235], [-8.195013, 41.706285], [-8.203308, 41.711345], [-8.215314, 41.712542]], [[-8.227174, 41.697498], [-8.218501, 41.706447], [-8.215373, 41.70772], [-8.203361, 41.707046], [-8.194327, 41.697273], [-8.197588, 41.688289], [-8.203646, 41.683972], [-8.215666, 41.683568], [-8.22414, 41.688471], [-8.227174, 41.697498]]], [[[-8.444264, 41.647809], [-8.456275, 41.647593], [-8.468324, 41.642648], [-8.475932, 41.635852], [-8.478736, 41.626858], [-8.476515, 41.61784], [-8.468581, 41.611349], [-8.456618, 41.606788], [-8.444623, 41.606082], [-8.432595, 41.609072], [-8.421905, 41.617579], [-8.420478, 41.622077], [-8.419274, 41.626572], [-8.42294, 41.635598], [-8.432292, 41.64363], [-8.444264, 41.647809]], [[-8.456396, 41.633132], [-8.452297, 41.635742], [-8.444354, 41.637405], [-8.439836, 41.635682], [-8.432424, 41.628687], [-8.432459, 41.624614], [-8.440899, 41.617672], [-8.444534, 41.616461], [-8.450195, 41.617717], [-8.456496, 41.621289], [-8.459978, 41.626771], [-8.456396, 41.633132]]], [[[-8.084339, 41.624303], [-8.096393, 41.620734], [-8.09987, 41.615508], [-8.096556, 41.609036], [-8.084595, 41.606185], [-8.076107, 41.615319], [-8.084339, 41.624303]]], [[[-8.52863, 41.60594], [-8.540659, 41.602036], [-8.552724, 41.592591], [-8.558128, 41.582154], [-8.557973, 41.573146], [-8.553356, 41.564121], [-8.540998, 41.554133], [-8.529034, 41.550414], [-8.51704, 41.550802], [-8.505011, 41.555877], [-8.495521, 41.563882], [-8.489519, 41.572862], [-8.487692, 41.581862], [-8.492709, 41.595466], [-8.504642, 41.604117], [-8.516625, 41.60654], [-8.52863, 41.60594]], [[-8.540798, 41.582332], [-8.528732, 41.591925], [-8.516724, 41.593296], [-8.504761, 41.588622], [-8.499312, 41.581913], [-8.498922, 41.572904], [-8.506042, 41.563927], [-8.516974, 41.559638], [-8.528959, 41.560777], [-8.535212, 41.564049], [-8.542045, 41.573084], [-8.540798, 41.582332]]], [[[-8.481298, 41.522007], [-8.493289, 41.521315], [-8.498081, 41.518856], [-8.501546, 41.509864], [-8.493446, 41.501213], [-8.481476, 41.49977], [-8.469415, 41.509445], [-8.474933, 41.518753], [-8.481298, 41.522007]]], [[[-8.541616, 41.466533], [-8.553578, 41.468514], [-8.561915, 41.465072], [-8.567858, 41.456087], [-8.562615, 41.44706], [-8.55375, 41.443368], [-8.541766, 41.445281], [-8.539326, 41.446969], [-8.534634, 41.455958], [-8.541616, 41.466533]]]]}}]}