{"type": "FeatureCollection", "features": [{"id": "2", "type": "Feature", "properties": {"fill": "#a3a3a3", "value_min": 0.25, "value_max": -0.5}, "geometry": {"type": "MultiPolygon", "coordinates": [[[[-8.062148, 41.815884], [-8.050377, 41.786243], [-8.050495, 41.777237], [-8.056375, 41.750265], [-8.054927, 41.741246], [-8.04934, 41.732193], [-8.040342, 41.723111], [-8.023053, 41.708029], [-8.017277, 41.704902], [-8.012027, 41.69585], [-8.024786, 41.686952], [-8.03545, 41.682791], [-8.047611, 41.672907], [-8.05434, 41.660178], [-8.053892, 41.651167], [-8.048068, 41.642112], [-8.036186, 41.633417], [-8.024247, 41.629011], [-8.012255, 41.628147], [-8.000215, 41.630397], [-7.988113, 41.636592], [-7.982284, 41.641548], [-7.977004, 41.650509], [-7.975295, 41.6595], [-7.976166, 41.668515], [-7.984136, 41.6866], [-7.983964, 41.695605], [-7.967551, 41.713473], [-7.963244, 41.722441], [-7.959291, 41.749426], [-7.955056, 41.758395], [-7.943349, 41.767294], [-7.937929, 41.767859], [-7.925715, 41.778878], [-7.923116, 41.78512], [-7.924627, 41.803148], [-7.92318, 41.812141], [-7.894196, 41.859324], [-7.900698, 41.861588], [-7.904318, 41.859795], [-7.907309, 41.865203], [-7.906095, 41.868126], [-7.910299, 41.871285], [-7.909985, 41.875111], [-7.915391, 41.879397], [-7.921118, 41.877833], [-7.928044, 41.87807], [-7.935283, 41.874707], [-7.937389, 41.87516], [-7.941618, 41.870891], [-7.951254, 41.871132], [-7.956367, 41.87339], [-7.956362, 41.875191], [-7.960878, 41.875648], [-7.962086, 41.874074], [-7.973828, 41.875216], [-7.987996, 41.869157], [-7.990123, 41.860157], [-7.995547, 41.858138], [-7.994047, 41.855211], [-7.996162, 41.851837], [-8.003089, 41.850494], [-8.005804, 41.847346], [-8.007928, 41.838796], [-8.012753, 41.833624], [-8.013363, 41.829124], [-8.017873, 41.831379], [-8.02901, 41.829589], [-8.037134, 41.831171], [-8.041351, 41.828023], [-8.041054, 41.825097], [-8.045268, 41.824425], [-8.046775, 41.821951], [-8.056712, 41.81588], [-8.062148, 41.815884]], [[-7.948327, 41.867748], [-7.93634, 41.863994], [-7.928604, 41.857226], [-7.923922, 41.848175], [-7.924374, 41.839173], [-7.929898, 41.830218], [-7.936989, 41.824793], [-7.949086, 41.821375], [-7.961121, 41.821778], [-7.973091, 41.826224], [-7.979338, 41.830668], [-7.984215, 41.839718], [-7.984147, 41.848724], [-7.979139, 41.857686], [-7.972502, 41.863012], [-7.960382, 41.867432], [-7.948327, 41.867748]]], [[[-7.841663, 41.866668], [-7.828091, 41.853556], [-7.810729, 41.829045], [-7.804254, 41.810965], [-7.803155, 41.783933], [-7.799316, 41.765879], [-7.789949, 41.747767], [-7.768657, 41.723728], [-7.765698, 41.723044], [-7.761765, 41.727758], [-7.763239, 41.732714], [-7.759307, 41.737203], [-7.759597, 41.739005], [-7.75689, 41.739446], [-7.758687, 41.740577], [-7.757758, 41.745301], [-7.74829, 41.749771], [-7.757733, 41.754097], [-7.76957, 41.764101], [-7.776159, 41.774642], [-7.778316, 41.783671], [-7.777983, 41.792675], [-7.772345, 41.810628], [-7.771484, 41.819626], [-7.77744, 41.828696], [-7.79403, 41.846885], [-7.798599, 41.855939], [-7.800591, 41.864967], [-7.800072, 41.874158], [-7.804288, 41.874184], [-7.805215, 41.86946], [-7.814229, 41.873537], [-7.823863, 41.874013], [-7.825059, 41.875817], [-7.830479, 41.875831], [-7.830789, 41.874031], [-7.832894, 41.874712], [-7.83772, 41.872924], [-7.842528, 41.875187], [-7.841663, 41.866668]]], [[[-8.142929, 41.732194], [-8.157143, 41.724027], [-8.166975, 41.715092], [-8.170089, 41.706107], [-8.166309, 41.697073], [-8.155515, 41.689289], [-8.143503, 41.68902], [-8.131371, 41.697593], [-8.119177, 41.710514], [-8.109809, 41.714663], [-8.105966, 41.72364], [-8.10907, 41.732671], [-8.118805, 41.737716], [-8.130837, 41.737275], [-8.142929, 41.732194]], [[-8.131105, 41.717335], [-8.128607, 41.714807], [-8.130784, 41.705817], [-8.143282, 41.705633], [-8.143986, 41.714923], [-8.131105, 41.717335]]], [[[-7.911225, 41.712953], [-7.902854, 41.708108], [-7.890803, 41.709983], [-7.888677, 41.712737], [-7.888356, 41.721741], [-7.890557, 41.724254], [-7.902555, 41.725695], [-7.910251, 41.721951], [-7.911225, 41.712953]]], [[[-8.082781, 41.548951], [-8.097326, 41.553751], [-8.109322, 41.553436], [-8.121363, 41.549703], [-8.129184, 41.543676], [-8.134098, 41.534706], [-8.133105, 41.525691], [-8.124918, 41.516622], [-8.109893, 41.511802], [-8.097919, 41.51111], [-8.0906, 41.51253], [-8.091196, 41.516767], [-8.089398, 41.519468], [-8.090594, 41.522169], [-8.093588, 41.52307], [-8.091786, 41.531848], [-8.097775, 41.536127], [-8.097774, 41.537927], [-8.106759, 41.543557], [-8.101666, 41.542655], [-8.094175, 41.544904], [-8.087885, 41.542876], [-8.083389, 41.5449], [-8.082781, 41.548951]]], [[[-8.455834, 41.25088], [-8.4714, 41.264853], [-8.483274, 41.273015], [-8.495163, 41.279586], [-8.518976, 41.288943], [-8.542824, 41.294298], [-8.602496, 41.301903], [-8.626341, 41.309777], [-8.662079, 41.329399], [-8.697813, 41.354706], [-8.721675, 41.365769], [-8.733618, 41.369092], [-8.757521, 41.372203], [-8.781438, 41.371975], [-8.808515, 41.368236], [-8.799695, 41.14406], [-8.67527, 41.147484], [-8.676193, 41.146567], [-8.674793, 41.146932], [-8.674204, 41.147693], [-8.674849, 41.153767], [-8.672489, 41.15648], [-8.66117, 41.156307], [-8.662078, 41.158104], [-8.660313, 41.160813], [-8.657033, 41.160378], [-8.654961, 41.161963], [-8.653231, 41.169174], [-8.655366, 41.175467], [-8.647955, 41.180228], [-8.647696, 41.185181], [-8.640929, 41.196241], [-8.634946, 41.193341], [-8.632526, 41.188624], [-8.625658, 41.186628], [-8.621132, 41.178994], [-8.613374, 41.177451], [-8.608583, 41.174095], [-8.609164, 41.172066], [-8.605845, 41.166228], [-8.602852, 41.164214], [-8.59422, 41.165149], [-8.589766, 41.167193], [-8.589194, 41.170572], [-8.583263, 41.174422], [-8.582094, 41.177803], [-8.578825, 41.178941], [-8.58128, 41.189506], [-8.591213, 41.195853], [-8.598228, 41.203982], [-8.602268, 41.213004], [-8.603235, 41.222015], [-8.601029, 41.231015], [-8.594329, 41.24], [-8.578949, 41.248657], [-8.566996, 41.251325], [-8.555058, 41.251522], [-8.543138, 41.249308], [-8.525563, 41.239737], [-8.518041, 41.230698], [-8.514895, 41.221677], [-8.515079, 41.21267], [-8.521422, 41.200308], [-8.51163, 41.203042], [-8.510456, 41.206197], [-8.505693, 41.207113], [-8.504239, 41.213646], [-8.500076, 41.21546], [-8.50308, 41.219502], [-8.502204, 41.222656], [-8.495642, 41.222227], [-8.495947, 41.223351], [-8.490894, 41.226294], [-8.487935, 41.230354], [-8.490331, 41.232373], [-8.489156, 41.235528], [-8.486181, 41.236888], [-8.484411, 41.240495], [-8.476644, 41.237817], [-8.475756, 41.23917], [-8.471283, 41.239184], [-8.471604, 41.243459], [-8.469227, 41.245267], [-8.463258, 41.244384], [-8.459989, 41.246644], [-8.455512, 41.245982], [-8.454329, 41.248011], [-8.455834, 41.25088]], [[-8.73169, 41.339487], [-8.709848, 41.336597], [-8.697917, 41.332211], [-8.679672, 41.321339], [-8.669183, 41.312301], [-8.657304, 41.294251], [-8.655252, 41.285237], [-8.655788, 41.276231], [-8.659564, 41.267235], [-8.668052, 41.258252], [-8.686362, 41.249543], [-8.710258, 41.243939], [-8.734135, 41.241868], [-8.746068, 41.242261], [-8.757995, 41.244115], [-8.769916, 41.24812], [-8.786153, 41.258531], [-8.793652, 41.267553], [-8.79818, 41.276569], [-8.799706, 41.294587], [-8.791982, 41.312589], [-8.783878, 41.321582], [-8.77071, 41.330564], [-8.757656, 41.335958], [-8.745694, 41.338689], [-8.73169, 41.339487]]]]}}, {"id": "3", "type": "Feature", "properties": {"fill": "#a3a3a3", "value_min": 0.5, "value_max": -0.75}, "geometry": {"type": "Polygon", "coordinates": [[[-8.792984, 41.597023], [-8.797327, 41.600599], [-8.804218, 41.600109], [-8.80456, 41.604158], [-8.809434, 41.611332], [-8.828644, 41.609656], [-8.82839, 41.585633], [-8.818497, 41.554794], [-8.8221, 41.547542], [-8.821965, 41.534907], [-8.815926, 41.525624], [-8.81063, 41.5101], [-8.813279, 41.503483], [-8.812636, 41.496944], [-8.804699, 41.482068], [-8.798552, 41.474753], [-8.80154, 41.446836], [-8.806115, 41.43713], [-8.807354, 41.425915], [-8.811166, 41.417099], [-8.808515, 41.368236], [-8.781438, 41.371975], [-8.757521, 41.372203], [-8.733618, 41.369092], [-8.721675, 41.365769], [-8.697813, 41.354706], [-8.662079, 41.329399], [-8.626341, 41.309777], [-8.602496, 41.301903], [-8.542824, 41.294298], [-8.518976, 41.288943], [-8.495163, 41.279586], [-8.483274, 41.273015], [-8.4714, 41.264853], [-8.455834, 41.25088], [-8.452573, 41.254994], [-8.447812, 41.257258], [-8.449028, 41.261982], [-8.439785, 41.262907], [-8.438023, 41.268989], [-8.434745, 41.269673], [-8.432691, 41.277107], [-8.427032, 41.279372], [-8.429143, 41.284319], [-8.426171, 41.287028], [-8.426488, 41.291079], [-8.425013, 41.294909], [-8.422037, 41.296942], [-8.422647, 41.299867], [-8.407744, 41.304856], [-8.406262, 41.307335], [-8.403277, 41.307342], [-8.401801, 41.311398], [-8.399712, 41.311628], [-8.400316, 41.313202], [-8.396738, 41.314336], [-8.398835, 41.316131], [-8.393775, 41.31997], [-8.393489, 41.323122], [-8.391105, 41.324253], [-8.386325, 41.323588], [-8.380382, 41.331254], [-8.375305, 41.33104], [-8.37201, 41.328346], [-8.361563, 41.329718], [-8.358276, 41.329049], [-8.357673, 41.327249], [-8.350207, 41.327264], [-8.346032, 41.328847], [-8.342462, 41.333131], [-8.333215, 41.336299], [-8.326363, 41.342163], [-8.324568, 41.341041], [-8.323376, 41.341943], [-8.320676, 41.338121], [-8.312604, 41.334983], [-8.313794, 41.333405], [-8.31139, 41.328007], [-8.307502, 41.325762], [-8.305116, 41.326891], [-8.303024, 41.325994], [-8.303615, 41.323742], [-8.301216, 41.319694], [-8.296431, 41.316774], [-8.297618, 41.313846], [-8.295817, 41.310022], [-8.281801, 41.316569], [-8.279132, 41.324451], [-8.272266, 41.32536], [-8.265709, 41.331221], [-8.269004, 41.336169], [-8.263339, 41.340902], [-8.262751, 41.345405], [-8.256483, 41.347663], [-8.255889, 41.349689], [-8.249622, 41.353072], [-8.251123, 41.356897], [-8.248141, 41.360052], [-8.248448, 41.364328], [-8.245461, 41.364781], [-8.244272, 41.368384], [-8.241287, 41.370413], [-8.224854, 41.370878], [-8.21738, 41.368182], [-8.214399, 41.373587], [-8.208127, 41.376968], [-8.199163, 41.377423], [-8.194677, 41.374275], [-8.191691, 41.376302], [-8.189299, 41.375403], [-8.184818, 41.376756], [-8.168382, 41.377438], [-8.164499, 41.38059], [-8.152544, 41.375866], [-8.151049, 41.37339], [-8.145073, 41.374742], [-8.139694, 41.377894], [-8.133418, 41.374292], [-8.125051, 41.375193], [-8.119672, 41.376768], [-8.119672, 41.378569], [-8.116683, 41.380144], [-8.117877, 41.385771], [-8.113992, 41.386896], [-8.112795, 41.390723], [-8.110105, 41.390947], [-8.108011, 41.393648], [-8.103827, 41.392972], [-8.105321, 41.394998], [-8.10263, 41.396123], [-8.10801, 41.398825], [-8.108606, 41.403102], [-8.104419, 41.406252], [-8.104119, 41.408728], [-8.101727, 41.409403], [-8.102025, 41.411204], [-8.092756, 41.411201], [-8.09126, 41.414352], [-8.079893, 41.41975], [-8.077503, 41.416597], [-8.070923, 41.41862], [-8.066739, 41.416142], [-8.061953, 41.417264], [-8.059852, 41.424916], [-8.055959, 41.429415], [-8.05745, 41.432793], [-8.056549, 41.436394], [-8.069999, 41.447206], [-8.068788, 41.462286], [-8.073872, 41.46499], [-8.074468, 41.468141], [-8.073564, 41.474668], [-8.066374, 41.482318], [-8.066069, 41.48817], [-8.072054, 41.490199], [-8.07175, 41.494925], [-8.078333, 41.49898], [-8.078332, 41.500331], [-8.093, 41.504613], [-8.0906, 41.51253], [-8.097919, 41.51111], [-8.109893, 41.511802], [-8.124918, 41.516622], [-8.133105, 41.525691], [-8.134098, 41.534706], [-8.129184, 41.543676], [-8.121363, 41.549703], [-8.109322, 41.553436], [-8.097326, 41.553751], [-8.082781, 41.548951], [-8.079788, 41.551876], [-8.074396, 41.549848], [-8.072897, 41.551197], [-8.076188, 41.557276], [-8.080082, 41.558854], [-8.081576, 41.565157], [-8.078879, 41.56493], [-8.075279, 41.568305], [-8.073182, 41.568079], [-8.069283, 41.570553], [-8.068081, 41.573478], [-8.056684, 41.579549], [-8.052181, 41.584498], [-8.052777, 41.587649], [-8.048277, 41.590122], [-8.047974, 41.592373], [-8.031467, 41.602938], [-8.02367, 41.603156], [-8.019174, 41.601802], [-8.015872, 41.603824], [-8.013474, 41.603372], [-8.005971, 41.60629], [-8.003562, 41.611239], [-7.998761, 41.612809], [-7.999669, 41.608759], [-7.996976, 41.605829], [-7.996684, 41.602003], [-7.984685, 41.603564], [-7.982292, 41.60086], [-7.975689, 41.603552], [-7.974482, 41.606701], [-7.970882, 41.607147], [-7.969091, 41.603768], [-7.965796, 41.602413], [-7.9541, 41.602846], [-7.952606, 41.600592], [-7.947808, 41.60081], [-7.945413, 41.599456], [-7.942725, 41.595625], [-7.936132, 41.594488], [-7.93791, 41.601694], [-7.937004, 41.603718], [-7.931604, 41.604384], [-7.930979, 41.612711], [-7.925556, 41.620354], [-7.920755, 41.620796], [-7.917748, 41.623041], [-7.915933, 41.627764], [-7.913229, 41.628885], [-7.912613, 41.63361], [-7.906014, 41.633147], [-7.906884, 41.641927], [-7.897869, 41.645511], [-7.89696, 41.647985], [-7.892759, 41.647976], [-7.892145, 41.651576], [-7.902319, 41.659925], [-7.899913, 41.66127], [-7.900198, 41.665547], [-7.898396, 41.665769], [-7.896885, 41.668692], [-7.883969, 41.67069], [-7.879755, 41.673607], [-7.877044, 41.676077], [-7.876723, 41.681253], [-7.873401, 41.686198], [-7.868896, 41.686413], [-7.867408, 41.683258], [-7.864403, 41.683701], [-7.864096, 41.685276], [-7.860493, 41.685268], [-7.857773, 41.689538], [-7.854474, 41.688502], [-7.864952, 41.694491], [-7.86949, 41.703543], [-7.8667, 41.713547], [-7.854517, 41.722707], [-7.84249, 41.722962], [-7.838956, 41.721252], [-7.830604, 41.715391], [-7.827333, 41.708818], [-7.825252, 41.708813], [-7.818621, 41.713522], [-7.815291, 41.718689], [-7.808986, 41.717996], [-7.808396, 41.715744], [-7.803298, 41.714154], [-7.790966, 41.717044], [-7.789449, 41.719966], [-7.78464, 41.720402], [-7.78252, 41.723546], [-7.776204, 41.724652], [-7.773786, 41.727346], [-7.768657, 41.723728], [-7.789949, 41.747767], [-7.799316, 41.765879], [-7.803155, 41.783933], [-7.804254, 41.810965], [-7.810729, 41.829045], [-7.828091, 41.853556], [-7.841663, 41.866668], [-7.849515, 41.861475], [-7.858542, 41.862622], [-7.859456, 41.860148], [-7.864877, 41.859711], [-7.87033, 41.851395], [-7.873043, 41.850501], [-7.873066, 41.844875], [-7.879956, 41.853217], [-7.888076, 41.855486], [-7.891675, 41.859094], [-7.894196, 41.859324], [-7.92318, 41.812141], [-7.924627, 41.803148], [-7.923116, 41.78512], [-7.925715, 41.778878], [-7.937929, 41.767859], [-7.943349, 41.767294], [-7.955056, 41.758395], [-7.959291, 41.749426], [-7.963244, 41.722441], [-7.967551, 41.713473], [-7.983964, 41.695605], [-7.984136, 41.6866], [-7.976166, 41.668515], [-7.975295, 41.6595], [-7.977004, 41.650509], [-7.982284, 41.641548], [-7.988113, 41.636592], [-8.000215, 41.630397], [-8.012255, 41.628147], [-8.024247, 41.629011], [-8.036186, 41.633417], [-8.048068, 41.642112], [-8.053892, 41.651167], [-8.05434, 41.660178], [-8.047611, 41.672907], [-8.03545, 41.682791], [-8.024786, 41.686952], [-8.012027, 41.69585], [-8.017277, 41.704902], [-8.023053, 41.708029], [-8.040342, 41.723111], [-8.04934, 41.732193], [-8.054927, 41.741246], [-8.056375, 41.750265], [-8.050495, 41.777237], [-8.050377, 41.786243], [-8.062148, 41.815884], [-8.06664, 41.817012], [-8.072961, 41.813414], [-8.078678, 41.813417], [-8.082892, 41.810493], [-8.091013, 41.812521], [-8.093421, 41.811397], [-8.093723, 41.808471], [-8.101845, 41.809824], [-8.104853, 41.81185], [-8.115984, 41.812302], [-8.123807, 41.808702], [-8.138247, 41.808477], [-8.139751, 41.813203], [-8.14276, 41.812978], [-8.144866, 41.815228], [-8.149078, 41.814777], [-8.153291, 41.817703], [-8.158106, 41.818377], [-8.165326, 41.81815], [-8.173744, 41.808019], [-8.177655, 41.808242], [-8.183676, 41.812741], [-8.190291, 41.809587], [-8.197158, 41.814129], [-8.201063, 41.808724], [-8.204973, 41.807372], [-8.205872, 41.804445], [-8.213692, 41.803765], [-8.217598, 41.80016], [-8.217589, 41.793634], [-8.224207, 41.794303], [-8.229917, 41.791598], [-8.240744, 41.791588], [-8.24074, 41.789338], [-8.244347, 41.787984], [-8.245546, 41.785731], [-8.251257, 41.784375], [-8.251845, 41.777172], [-8.257551, 41.773564], [-8.261762, 41.774235], [-8.271366, 41.766346], [-8.280681, 41.764083], [-8.284038, 41.761109], [-8.284931, 41.757507], [-8.305674, 41.758152], [-8.311096, 41.762195], [-8.318308, 41.761283], [-8.325233, 41.765098], [-8.328234, 41.763292], [-8.336653, 41.763728], [-8.341756, 41.761468], [-8.344765, 41.762363], [-8.349267, 41.760103], [-8.352557, 41.755145], [-8.349814, 41.744122], [-8.352516, 41.743441], [-8.352203, 41.739616], [-8.356398, 41.736231], [-8.357897, 41.735103], [-8.362407, 41.735994], [-8.368703, 41.73193], [-8.371416, 41.7344], [-8.376825, 41.734389], [-8.384652, 41.730546], [-8.37202, 41.716395], [-8.340343, 41.689197], [-8.329991, 41.671123], [-8.327925, 41.653096], [-8.333811, 41.608095], [-8.330068, 41.590058], [-8.319925, 41.571984], [-8.302472, 41.553865], [-8.277409, 41.53442], [-8.265476, 41.529575], [-8.240843, 41.526453], [-8.229617, 41.521024], [-8.225755, 41.517345], [-8.221626, 41.50831], [-8.223318, 41.499314], [-8.229972, 41.49112], [-8.254076, 41.478506], [-8.277215, 41.454628], [-8.288791, 41.445693], [-8.314443, 41.432912], [-8.338432, 41.42786], [-8.386341, 41.423917], [-8.446257, 41.41454], [-8.542018, 41.409407], [-8.637706, 41.414798], [-8.673573, 41.420866], [-8.705474, 41.429499], [-8.726854, 41.43856], [-8.754596, 41.456637], [-8.773005, 41.47469], [-8.790944, 41.501746], [-8.798309, 41.519774], [-8.803171, 41.546805], [-8.801, 41.573823], [-8.792984, 41.597023]], [[-7.864433, 41.842142], [-7.85244, 41.839266], [-7.840534, 41.831586], [-7.832631, 41.820263], [-7.83089, 41.811239], [-7.83238, 41.802247], [-7.841306, 41.78879], [-7.848898, 41.7844], [-7.853504, 41.779637], [-7.86558, 41.777166], [-7.877541, 41.781309], [-7.88118, 41.784719], [-7.889452, 41.788408], [-7.900782, 41.802922], [-7.902854, 41.811949], [-7.90051, 41.820933], [-7.888646, 41.835007], [-7.876502, 41.840769], [-7.864433, 41.842142]], [[-7.853691, 41.769109], [-7.849728, 41.757388], [-7.853983, 41.752718], [-7.866058, 41.750053], [-7.875545, 41.757644], [-7.872072, 41.766617], [-7.865652, 41.773075], [-7.853691, 41.769109]], [[-8.142929, 41.732194], [-8.130837, 41.737275], [-8.118805, 41.737716], [-8.10907, 41.732671], [-8.105966, 41.72364], [-8.109809, 41.714663], [-8.119177, 41.710514], [-8.131371, 41.697593], [-8.143503, 41.68902], [-8.155515, 41.689289], [-8.166309, 41.697073], [-8.170089, 41.706107], [-8.166975, 41.715092], [-8.157143, 41.724027], [-8.142929, 41.732194]], [[-7.911225, 41.712953], [-7.910251, 41.721951], [-7.902555, 41.725695], [-7.890557, 41.724254], [-7.888356, 41.721741], [-7.888677, 41.712737], [-7.890803, 41.709983], [-7.902854, 41.708108], [-7.911225, 41.712953]], [[-8.119656, 41.498567], [-8.110085, 41.497741], [-8.098161, 41.493699], [-8.089444, 41.489325], [-8.082204, 41.48026], [-8.080882, 41.471242], [-8.086661, 41.459495], [-8.098753, 41.450927], [-8.110769, 41.447764], [-8.122739, 41.447819], [-8.140167, 41.453686], [-8.151558, 41.462778], [-8.155665, 41.471815], [-8.155015, 41.480818], [-8.148435, 41.489777], [-8.134062, 41.496611], [-8.119656, 41.498567]], [[-8.625895, 41.387776], [-8.613961, 41.383313], [-8.605959, 41.375156], [-8.603338, 41.366139], [-8.605619, 41.35714], [-8.615254, 41.348165], [-8.626139, 41.345107], [-8.638089, 41.345797], [-8.650006, 41.35254], [-8.653956, 41.357295], [-8.655695, 41.366308], [-8.649865, 41.378811], [-8.637865, 41.386041], [-8.625895, 41.387776]]]}}, {"id": "1", "type": "Feature", "properties": {"fill": "#a3a3a3", "value_min": 0.0, "value_max": -0.25}, "geometry": {"type": "MultiPolygon", "coordinates": [[[[-7.800072, 41.874158], [-7.800591, 41.864967], [-7.798599, 41.855939], [-7.79403, 41.846885], [-7.77744, 41.828696], [-7.771484, 41.819626], [-7.772345, 41.810628], [-7.777983, 41.792675], [-7.778316, 41.783671], [-7.776159, 41.774642], [-7.76957, 41.764101], [-7.757733, 41.754097], [-7.74829, 41.749771], [-7.747786, 41.754496], [-7.743866, 41.756509], [-7.743242, 41.760333], [-7.733877, 41.767735], [-7.745406, 41.769415], [-7.752901, 41.774392], [-7.757992, 41.783453], [-7.754907, 41.792427], [-7.744814, 41.799785], [-7.732745, 41.801396], [-7.728359, 41.799895], [-7.727026, 41.805517], [-7.72995, 41.819031], [-7.73594, 41.823554], [-7.74345, 41.825605], [-7.738918, 41.82874], [-7.742196, 41.833928], [-7.74729, 41.837772], [-7.746349, 41.84407], [-7.750541, 41.847685], [-7.750532, 41.849261], [-7.743309, 41.849012], [-7.746901, 41.8524], [-7.746589, 41.854235], [-7.755866, 41.850665], [-7.76783, 41.854924], [-7.767619, 41.865947], [-7.755485, 41.870301], [-7.743153, 41.864352], [-7.743643, 41.85644], [-7.736611, 41.861368], [-7.734159, 41.868337], [-7.730228, 41.871024], [-7.729293, 41.875972], [-7.722351, 41.878424], [-7.720523, 41.881793], [-7.725335, 41.882935], [-7.726208, 41.887665], [-7.737044, 41.888828], [-7.737935, 41.890857], [-7.74246, 41.889747], [-7.742785, 41.885922], [-7.756022, 41.888441], [-7.758719, 41.890926], [-7.756592, 41.89407], [-7.758376, 41.898127], [-7.764097, 41.898595], [-7.779227, 41.886264], [-7.785257, 41.885157], [-7.788886, 41.882467], [-7.794007, 41.882257], [-7.796739, 41.878214], [-7.794349, 41.87438], [-7.800072, 41.874158]]], [[[-7.948327, 41.867748], [-7.960382, 41.867432], [-7.972502, 41.863012], [-7.979139, 41.857686], [-7.984147, 41.848724], [-7.984215, 41.839718], [-7.979338, 41.830668], [-7.973091, 41.826224], [-7.961121, 41.821778], [-7.949086, 41.821375], [-7.936989, 41.824793], [-7.929898, 41.830218], [-7.924374, 41.839173], [-7.923922, 41.848175], [-7.928604, 41.857226], [-7.93634, 41.863994], [-7.948327, 41.867748]], [[-7.947478, 41.839387], [-7.948807, 41.838423], [-7.951047, 41.839419], [-7.948764, 41.841055], [-7.947478, 41.839387]]], [[[-8.131105, 41.717335], [-8.143986, 41.714923], [-8.143282, 41.705633], [-8.130784, 41.705817], [-8.128607, 41.714807], [-8.131105, 41.717335]]], [[[-8.73169, 41.339487], [-8.745694, 41.338689], [-8.757656, 41.335958], [-8.77071, 41.330564], [-8.783878, 41.321582], [-8.791982, 41.312589], [-8.799706, 41.294587], [-8.79818, 41.276569], [-8.793652, 41.267553], [-8.786153, 41.258531], [-8.769916, 41.24812], [-8.757995, 41.244115], [-8.746068, 41.242261], [-8.734135, 41.241868], [-8.710258, 41.243939], [-8.686362, 41.249543], [-8.668052, 41.258252], [-8.659564, 41.267235], [-8.655788, 41.276231], [-8.655252, 41.285237], [-8.657304, 41.294251], [-8.669183, 41.312301], [-8.679672, 41.321339], [-8.697917, 41.332211], [-8.709848, 41.336597], [-8.73169, 41.339487]], [[-8.733821, 41.319378], [-8.721864, 41.32133], [-8.709921, 41.320033], [-8.69362, 41.312369], [-8.68539, 41.303339], [-8.682758, 41.294324], [-8.684515, 41.285321], [-8.692087, 41.276334], [-8.698193, 41.272364], [-8.710149, 41.268494], [-8.722092, 41.267747], [-8.734022, 41.269844], [-8.747094, 41.276468], [-8.75455, 41.285492], [-8.756682, 41.294504], [-8.75464, 41.303508], [-8.747416, 41.3125], [-8.733821, 41.319378]]], [[[-8.521422, 41.200308], [-8.515079, 41.21267], [-8.514895, 41.221677], [-8.518041, 41.230698], [-8.525563, 41.239737], [-8.543138, 41.249308], [-8.555058, 41.251522], [-8.566996, 41.251325], [-8.578949, 41.248657], [-8.594329, 41.24], [-8.601029, 41.231015], [-8.603235, 41.222015], [-8.602268, 41.213004], [-8.598228, 41.203982], [-8.591213, 41.195853], [-8.58128, 41.189506], [-8.581296, 41.191762], [-8.575958, 41.195609], [-8.576894, 41.201908], [-8.574515, 41.202593], [-8.57423, 41.20462], [-8.567971, 41.204644], [-8.565895, 41.206227], [-8.567697, 41.208246], [-8.566512, 41.209376], [-8.559636, 41.206251], [-8.554271, 41.20627], [-8.549521, 41.209214], [-8.544157, 41.209458], [-8.54238, 41.211265], [-8.532257, 41.213102], [-8.52713, 41.203215], [-8.523236, 41.200077], [-8.521422, 41.200308]]]]}}, {"id": "0", "type": "Feature", "properties": {"fill": "#a3a3a3", "value_min": -0.25, "value_max": -0.0}, "geometry": {"type": "MultiPolygon", "coordinates": [[[[-7.743643, 41.85644], [-7.743153, 41.864352], [-7.755485, 41.870301], [-7.767619, 41.865947], [-7.76783, 41.854924], [-7.755866, 41.850665], [-7.746589, 41.854235], [-7.746881, 41.855776], [-7.743643, 41.85644]]], [[[-7.947478, 41.839387], [-7.948764, 41.841055], [-7.951047, 41.839419], [-7.948807, 41.838423], [-7.947478, 41.839387]]], [[[-7.728359, 41.799895], [-7.732745, 41.801396], [-7.744814, 41.799785], [-7.754907, 41.792427], [-7.757992, 41.783453], [-7.752901, 41.774392], [-7.745406, 41.769415], [-7.733877, 41.767735], [-7.726937, 41.771755], [-7.7254, 41.777152], [-7.727191, 41.779184], [-7.724177, 41.780299], [-7.725372, 41.781653], [-7.722296, 41.792446], [-7.728581, 41.79742], [-7.728359, 41.799895]]], [[[-8.733821, 41.319378], [-8.747416, 41.3125], [-8.75464, 41.303508], [-8.756682, 41.294504], [-8.75455, 41.285492], [-8.747094, 41.276468], [-8.734022, 41.269844], [-8.722092, 41.267747], [-8.710149, 41.268494], [-8.698193, 41.272364], [-8.692087, 41.276334], [-8.684515, 41.285321], [-8.682758, 41.294324], [-8.68539, 41.303339], [-8.69362, 41.312369], [-8.709921, 41.320033], [-8.721864, 41.32133], [-8.733821, 41.319378]]]]}}, {"id": "4", "type": "Feature", "properties": {"fill": "#a3a3a3", "value_min": 0.75, "value_max": -1.0}, "geometry": {"type": "MultiPolygon", "coordinates": [[[[-7.864433, 41.842142], [-7.876502, 41.840769], [-7.888646, 41.835007], [-7.90051, 41.820933], [-7.902854, 41.811949], [-7.900782, 41.802922], [-7.889452, 41.788408], [-7.88118, 41.784719], [-7.877541, 41.781309], [-7.86558, 41.777166], [-7.853504, 41.779637], [-7.848898, 41.7844], [-7.841306, 41.78879], [-7.83238, 41.802247], [-7.83089, 41.811239], [-7.832631, 41.820263], [-7.840534, 41.831586], [-7.85244, 41.839266], [-7.864433, 41.842142]], [[-7.864709, 41.826552], [-7.853989, 41.820478], [-7.850558, 41.811437], [-7.856129, 41.802486], [-7.86521, 41.79816], [-7.877239, 41.798604], [-7.884032, 41.802761], [-7.889022, 41.813291], [-7.885184, 41.820785], [-7.876757, 41.826179], [-7.864709, 41.826552]]], [[[-7.853691, 41.769109], [-7.865652, 41.773075], [-7.872072, 41.766617], [-7.875545, 41.757644], [-7.866058, 41.750053], [-7.853983, 41.752718], [-7.849728, 41.757388], [-7.853691, 41.769109]]], [[[-8.792984, 41.597023], [-8.801, 41.573823], [-8.803171, 41.546805], [-8.798309, 41.519774], [-8.790944, 41.501746], [-8.773005, 41.47469], [-8.754596, 41.456637], [-8.726854, 41.43856], [-8.705474, 41.429499], [-8.673573, 41.420866], [-8.637706, 41.414798], [-8.542018, 41.409407], [-8.446257, 41.41454], [-8.386341, 41.423917], [-8.338432, 41.42786], [-8.314443, 41.432912], [-8.288791, 41.445693], [-8.277215, 41.454628], [-8.254076, 41.478506], [-8.229972, 41.49112], [-8.223318, 41.499314], [-8.221626, 41.50831], [-8.225755, 41.517345], [-8.229617, 41.521024], [-8.240843, 41.526453], [-8.265476, 41.529575], [-8.277409, 41.53442], [-8.302472, 41.553865], [-8.319925, 41.571984], [-8.330068, 41.590058], [-8.333811, 41.608095], [-8.327925, 41.653096], [-8.329991, 41.671123], [-8.340343, 41.689197], [-8.37202, 41.716395], [-8.384652, 41.730546], [-8.387032, 41.731891], [-8.393033, 41.729852], [-8.396942, 41.730518], [-8.400531, 41.726683], [-8.402934, 41.726452], [-8.404721, 41.722847], [-8.417349, 41.725067], [-8.422737, 41.720552], [-8.429643, 41.719859], [-8.430533, 41.717381], [-8.435927, 41.714441], [-8.441333, 41.714201], [-8.4446, 41.70654], [-8.453868, 41.697961], [-8.453255, 41.695487], [-8.461659, 41.694563], [-8.467939, 41.689593], [-8.478124, 41.685061], [-8.482012, 41.682123], [-8.484371, 41.674238], [-8.49308, 41.674886], [-8.499963, 41.671038], [-8.50927, 41.671233], [-8.51018, 41.672806], [-8.511967, 41.670324], [-8.509856, 41.668755], [-8.512252, 41.667847], [-8.514629, 41.663788], [-8.522103, 41.658811], [-8.525706, 41.659023], [-8.527769, 41.652714], [-8.534066, 41.652017], [-8.537951, 41.649302], [-8.537634, 41.646602], [-8.543876, 41.637352], [-8.543855, 41.633976], [-8.536342, 41.631977], [-8.535128, 41.62973], [-8.543431, 41.61462], [-8.554533, 41.615255], [-8.557244, 41.617046], [-8.562639, 41.61635], [-8.568056, 41.619031], [-8.570735, 41.616095], [-8.577321, 41.614269], [-8.581231, 41.615829], [-8.585766, 41.620988], [-8.591462, 41.620515], [-8.596534, 41.616668], [-8.601628, 41.615972], [-8.603996, 41.611686], [-8.613256, 41.606696], [-8.619881, 41.610269], [-8.621338, 41.604636], [-8.628833, 41.604378], [-8.636302, 41.600744], [-8.64075, 41.594422], [-8.645536, 41.593051], [-8.646744, 41.594171], [-8.649125, 41.591909], [-8.656622, 41.5921], [-8.660788, 41.588255], [-8.663794, 41.589141], [-8.665265, 41.585758], [-8.66948, 41.587989], [-8.684455, 41.586117], [-8.685608, 41.58071], [-8.697261, 41.576376], [-8.701703, 41.570277], [-8.707704, 41.570923], [-8.711586, 41.569327], [-8.716422, 41.573805], [-8.720316, 41.57356], [-8.725151, 41.577811], [-8.726633, 41.576003], [-8.734424, 41.575737], [-8.736564, 41.580228], [-8.738354, 41.579318], [-8.740778, 41.582006], [-8.74467, 41.581535], [-8.750711, 41.58623], [-8.756374, 41.582823], [-8.75635, 41.580347], [-8.762327, 41.578514], [-8.764443, 41.580303], [-8.767441, 41.580286], [-8.769874, 41.583874], [-8.768997, 41.58613], [-8.773228, 41.589482], [-8.774165, 41.593303], [-8.78556, 41.593464], [-8.792984, 41.597023]]], [[[-7.827333, 41.708818], [-7.830604, 41.715391], [-7.838956, 41.721252], [-7.84249, 41.722962], [-7.854517, 41.722707], [-7.8667, 41.713547], [-7.86949, 41.703543], [-7.864952, 41.694491], [-7.854474, 41.688502], [-7.847538, 41.695365], [-7.837309, 41.699391], [-7.835792, 41.702763], [-7.839682, 41.705924], [-7.838465, 41.709522], [-7.832453, 41.710407], [-7.827333, 41.708818]]], [[[-8.119656, 41.498567], [-8.134062, 41.496611], [-8.148435, 41.489777], [-8.155015, 41.480818], [-8.155665, 41.471815], [-8.151558, 41.462778], [-8.140167, 41.453686], [-8.122739, 41.447819], [-8.110769, 41.447764], [-8.098753, 41.450927], [-8.086661, 41.459495], [-8.080882, 41.471242], [-8.082204, 41.48026], [-8.089444, 41.489325], [-8.098161, 41.493699], [-8.110085, 41.497741], [-8.119656, 41.498567]]], [[[-8.625895, 41.387776], [-8.637865, 41.386041], [-8.649865, 41.378811], [-8.655695, 41.366308], [-8.653956, 41.357295], [-8.650006, 41.35254], [-8.638089, 41.345797], [-8.626139, 41.345107], [-8.615254, 41.348165], [-8.605619, 41.35714], [-8.603338, 41.366139], [-8.605959, 41.375156], [-8.613961, 41.383313], [-8.625895, 41.387776]]]]}}, {"id": "5", "type": "Feature", "properties": {"fill": "#90a4bc", "value_min": 1.0, "value_max": -1.25}, "geometry": {"type": "Polygon", "coordinates": [[[-7.864709, 41.826552], [-7.876757, 41.826179], [-7.885184, 41.820785], [-7.889022, 41.813291], [-7.884032, 41.802761], [-7.877239, 41.798604], [-7.86521, 41.79816], [-7.856129, 41.802486], [-7.850558, 41.811437], [-7.853989, 41.820478], [-7.864709, 41.826552]]]}}]}