{"type": "FeatureCollection", "features": [{"id": "0", "type": "Feature", "properties": {"fill": "#a3a3a3", "value_min": -0.25, "value_max": -0.0}, "geometry": {"type": "Polygon", "coordinates": [[[-8.710415, 41.208357], [-8.714316, 41.204328], [-8.716558, 41.195326], [-8.710522, 41.183979], [-8.698626, 41.177969], [-8.686706, 41.177473], [-8.674761, 41.182167], [-8.670442, 41.186195], [-8.666361, 41.195192], [-8.668391, 41.204205], [-8.674619, 41.210795], [-8.686526, 41.215316], [-8.698457, 41.214783], [-8.710415, 41.208357]]]}}, {"id": "1", "type": "Feature", "properties": {"fill": "#a3a3a3", "value_min": 0.0, "value_max": -0.25}, "geometry": {"type": "MultiPolygon", "coordinates": [[[[-7.727083, 41.796555], [-7.732798, 41.798724], [-7.744855, 41.797699], [-7.754279, 41.79242], [-7.758617, 41.78346], [-7.754496, 41.774409], [-7.745424, 41.768488], [-7.735383, 41.767283], [-7.726937, 41.771755], [-7.725406, 41.776252], [-7.727191, 41.779184], [-7.724177, 41.780299], [-7.725372, 41.781653], [-7.722296, 41.792446], [-7.726182, 41.796214], [-7.726374, 41.796287], [-7.726782, 41.796442], [-7.726973, 41.796514], [-7.727083, 41.796555]]], [[[-8.442517, 41.710691], [-8.440396, 41.707742], [-8.43177, 41.703099], [-8.419769, 41.701007], [-8.407731, 41.703226], [-8.399405, 41.707535], [-8.39217, 41.716504], [-8.392182, 41.725511], [-8.395045, 41.730297], [-8.396942, 41.730518], [-8.400531, 41.726683], [-8.402934, 41.726452], [-8.404721, 41.722847], [-8.417349, 41.725067], [-8.422737, 41.720552], [-8.429643, 41.719859], [-8.430533, 41.717381], [-8.435927, 41.714441], [-8.441333, 41.714201], [-8.442517, 41.710691]]], [[[-8.215604, 41.688719], [-8.203592, 41.688354], [-8.198649, 41.697303], [-8.203413, 41.702888], [-8.215435, 41.702628], [-8.220357, 41.697452], [-8.215604, 41.688719]]], [[[-8.359262, 41.491144], [-8.359006, 41.482135], [-8.349943, 41.473598], [-8.337983, 41.472044], [-8.325943, 41.478211], [-8.32293, 41.481929], [-8.32273, 41.490935], [-8.32577, 41.494924], [-8.337683, 41.501509], [-8.349677, 41.500284], [-8.359262, 41.491144]]], [[[-8.634485, 41.191767], [-8.636751, 41.20411], [-8.640788, 41.21313], [-8.650685, 41.22529], [-8.662576, 41.232998], [-8.674489, 41.237024], [-8.698348, 41.238529], [-8.722234, 41.234088], [-8.734186, 41.229402], [-8.746126, 41.222419], [-8.755919, 41.213432], [-8.761852, 41.204437], [-8.765735, 41.186429], [-8.764271, 41.177418], [-8.758285, 41.165358], [-8.746413, 41.152795], [-8.734577, 41.145503], [-8.674793, 41.146932], [-8.674849, 41.153767], [-8.672489, 41.15648], [-8.66117, 41.156307], [-8.662078, 41.158104], [-8.660313, 41.160813], [-8.657033, 41.160378], [-8.654961, 41.161963], [-8.653231, 41.169174], [-8.655366, 41.175467], [-8.647955, 41.180228], [-8.647696, 41.185181], [-8.641225, 41.196014], [-8.638841, 41.196025], [-8.634485, 41.191767]], [[-8.710415, 41.208357], [-8.698457, 41.214783], [-8.686526, 41.215316], [-8.674619, 41.210795], [-8.668391, 41.204205], [-8.666361, 41.195192], [-8.670442, 41.186195], [-8.674761, 41.182167], [-8.686706, 41.177473], [-8.698626, 41.177969], [-8.710522, 41.183979], [-8.716558, 41.195326], [-8.714316, 41.204328], [-8.710415, 41.208357]]]]}}, {"id": "2", "type": "Feature", "properties": {"fill": "#a3a3a3", "value_min": 0.25, "value_max": -0.5}, "geometry": {"type": "MultiPolygon", "coordinates": [[[[-7.972526, 41.861504], [-7.976708, 41.857664], [-7.981607, 41.848701], [-7.981374, 41.839692], [-7.973045, 41.829051], [-7.961093, 41.823481], [-7.949073, 41.82217], [-7.936998, 41.824243], [-7.92549, 41.830176], [-7.918425, 41.839117], [-7.918064, 41.84812], [-7.924383, 41.858474], [-7.936308, 41.865933], [-7.948315, 41.868465], [-7.960387, 41.867119], [-7.972526, 41.861504]]], [[[-7.728171, 41.814843], [-7.744541, 41.81375], [-7.759315, 41.810488], [-7.777527, 41.801677], [-7.785862, 41.792758], [-7.78903, 41.783785], [-7.788426, 41.774772], [-7.783801, 41.765716], [-7.77558, 41.756622], [-7.757457, 41.745311], [-7.748417, 41.749321], [-7.747786, 41.754496], [-7.743866, 41.756509], [-7.743242, 41.760333], [-7.735383, 41.767283], [-7.745424, 41.768488], [-7.754496, 41.774409], [-7.758617, 41.78346], [-7.754279, 41.79242], [-7.744855, 41.797699], [-7.732798, 41.798724], [-7.727083, 41.796555], [-7.728879, 41.797871], [-7.72705, 41.801691], [-7.728171, 41.814843]]], [[[-7.726973, 41.796514], [-7.726973, 41.796514], [-7.726782, 41.796442], [-7.726973, 41.796514]]], [[[-7.726374, 41.796287], [-7.726374, 41.796287], [-7.726182, 41.796214], [-7.726374, 41.796287]]], [[[-7.877681, 41.77324], [-7.882704, 41.766721], [-7.883883, 41.757725], [-7.876582, 41.748647], [-7.866155, 41.744512], [-7.854121, 41.744987], [-7.845018, 41.748334], [-7.835765, 41.757248], [-7.83536, 41.76625], [-7.84158, 41.773584], [-7.853506, 41.779529], [-7.865538, 41.779583], [-7.877681, 41.77324]]], [[[-8.1906, 41.766119], [-8.198149, 41.760348], [-8.204503, 41.751386], [-8.209786, 41.733408], [-8.220377, 41.724474], [-8.227229, 41.721383], [-8.234575, 41.715562], [-8.242942, 41.70661], [-8.246621, 41.697627], [-8.245899, 41.688616], [-8.239743, 41.679661], [-8.227815, 41.672422], [-8.215827, 41.670362], [-8.203801, 41.671439], [-8.188068, 41.679215], [-8.180683, 41.688169], [-8.177733, 41.697155], [-8.176109, 41.715158], [-8.155039, 41.725676], [-8.146717, 41.732957], [-8.142223, 41.741931], [-8.142661, 41.752335], [-8.146968, 41.75998], [-8.154507, 41.766218], [-8.166488, 41.770112], [-8.178519, 41.770088], [-8.1906, 41.766119]], [[-8.215604, 41.688719], [-8.220357, 41.697452], [-8.215435, 41.702628], [-8.203413, 41.702888], [-8.198649, 41.697303], [-8.203592, 41.688354], [-8.215604, 41.688719]]], [[[-8.455357, 41.695572], [-8.443889, 41.691494], [-8.431886, 41.689893], [-8.419864, 41.690507], [-8.407823, 41.693174], [-8.394083, 41.6985], [-8.379381, 41.707428], [-8.372667, 41.716399], [-8.370544, 41.725394], [-8.371924, 41.734399], [-8.376825, 41.734389], [-8.384922, 41.73032], [-8.387032, 41.731891], [-8.395045, 41.730297], [-8.392182, 41.725511], [-8.39217, 41.716504], [-8.399405, 41.707535], [-8.407731, 41.703226], [-8.419769, 41.701007], [-8.43177, 41.703099], [-8.440396, 41.707742], [-8.442517, 41.710691], [-8.4446, 41.70654], [-8.453868, 41.697961], [-8.453255, 41.695487], [-8.455357, 41.695572]]], [[[-8.361525, 41.513828], [-8.373625, 41.501786], [-8.377609, 41.491245], [-8.377506, 41.482237], [-8.374644, 41.473214], [-8.368092, 41.464171], [-8.362061, 41.459221], [-8.350132, 41.454688], [-8.338175, 41.453147], [-8.326188, 41.454566], [-8.314168, 41.458987], [-8.307507, 41.463822], [-8.302064, 41.471192], [-8.298854, 41.481784], [-8.299953, 41.490799], [-8.303654, 41.499828], [-8.310799, 41.508879], [-8.325535, 41.517486], [-8.337498, 41.519654], [-8.349496, 41.518289], [-8.361525, 41.513828]], [[-8.359262, 41.491144], [-8.349677, 41.500284], [-8.337683, 41.501509], [-8.32577, 41.494924], [-8.32273, 41.490935], [-8.32293, 41.481929], [-8.325943, 41.478211], [-8.337983, 41.472044], [-8.349943, 41.473598], [-8.359006, 41.482135], [-8.359262, 41.491144]]], [[[-8.144876, 41.480743], [-8.143586, 41.471726], [-8.135921, 41.462661], [-8.122618, 41.4568], [-8.110651, 41.456375], [-8.098626, 41.460151], [-8.088058, 41.471299], [-8.087372, 41.480301], [-8.092767, 41.489351], [-8.110098, 41.496838], [-8.122069, 41.497489], [-8.134099, 41.493813], [-8.140494, 41.489717], [-8.144876, 41.480743]]], [[[-8.580024, 41.178261], [-8.591223, 41.19417], [-8.600397, 41.212997], [-8.609888, 41.249061], [-8.615628, 41.258088], [-8.626578, 41.268333], [-8.638476, 41.275658], [-8.678193, 41.294311], [-8.689246, 41.30335], [-8.704091, 41.312396], [-8.709947, 41.314259], [-8.72189, 41.315122], [-8.733845, 41.313259], [-8.769746, 41.296449], [-8.805126, 41.282273], [-8.799695, 41.14406], [-8.734577, 41.145503], [-8.746413, 41.152795], [-8.758285, 41.165358], [-8.764271, 41.177418], [-8.765735, 41.186429], [-8.761852, 41.204437], [-8.755919, 41.213432], [-8.746126, 41.222419], [-8.734186, 41.229402], [-8.722234, 41.234088], [-8.698348, 41.238529], [-8.674489, 41.237024], [-8.662576, 41.232998], [-8.650685, 41.22529], [-8.640788, 41.21313], [-8.636751, 41.20411], [-8.634485, 41.191767], [-8.632526, 41.188624], [-8.625658, 41.186628], [-8.621132, 41.178994], [-8.613374, 41.177451], [-8.608583, 41.174095], [-8.609164, 41.172066], [-8.605845, 41.166228], [-8.602852, 41.164214], [-8.59422, 41.165149], [-8.589766, 41.167193], [-8.589194, 41.170572], [-8.585925, 41.17171], [-8.582094, 41.177803], [-8.580024, 41.178261]]]]}}, {"id": "3", "type": "Feature", "properties": {"fill": "#a3a3a3", "value_min": 0.5, "value_max": -0.75}, "geometry": {"type": "MultiPolygon", "coordinates": [[[[-8.570556, 41.61632], [-8.577321, 41.614269], [-8.581231, 41.615829], [-8.585766, 41.620988], [-8.591462, 41.620515], [-8.596534, 41.616668], [-8.601628, 41.615972], [-8.603996, 41.611686], [-8.613256, 41.606696], [-8.619881, 41.610269], [-8.621338, 41.604636], [-8.628833, 41.604378], [-8.636302, 41.600744], [-8.64075, 41.594422], [-8.645536, 41.593051], [-8.646744, 41.594171], [-8.649125, 41.591909], [-8.656622, 41.5921], [-8.660788, 41.588255], [-8.663794, 41.589141], [-8.665265, 41.585758], [-8.66948, 41.587989], [-8.684455, 41.586117], [-8.685608, 41.58071], [-8.697261, 41.576376], [-8.701703, 41.570277], [-8.707704, 41.570923], [-8.711586, 41.569327], [-8.716422, 41.573805], [-8.720316, 41.57356], [-8.725151, 41.577811], [-8.726633, 41.576003], [-8.734424, 41.575737], [-8.736564, 41.580228], [-8.738354, 41.579318], [-8.740778, 41.582006], [-8.74467, 41.581535], [-8.750711, 41.58623], [-8.756374, 41.582823], [-8.75635, 41.580347], [-8.762327, 41.578514], [-8.764443, 41.580303], [-8.767441, 41.580286], [-8.769874, 41.583874], [-8.768997, 41.58613], [-8.773228, 41.589482], [-8.775371, 41.593972], [-8.78556, 41.593464], [-8.797327, 41.600599], [-8.804218, 41.600109], [-8.80456, 41.604158], [-8.809434, 41.611332], [-8.828644, 41.609656], [-8.82839, 41.585633], [-8.818497, 41.554794], [-8.8221, 41.547542], [-8.821965, 41.534907], [-8.815926, 41.525624], [-8.81063, 41.5101], [-8.813279, 41.503483], [-8.812636, 41.496944], [-8.804699, 41.482068], [-8.798552, 41.474753], [-8.80154, 41.446836], [-8.806115, 41.43713], [-8.807354, 41.425915], [-8.811202, 41.416419], [-8.805126, 41.282273], [-8.769746, 41.296449], [-8.733845, 41.313259], [-8.72189, 41.315122], [-8.709947, 41.314259], [-8.704091, 41.312396], [-8.689246, 41.30335], [-8.678193, 41.294311], [-8.638476, 41.275658], [-8.626578, 41.268333], [-8.615628, 41.258088], [-8.609888, 41.249061], [-8.600397, 41.212997], [-8.591223, 41.19417], [-8.580024, 41.178261], [-8.578828, 41.179391], [-8.580327, 41.180736], [-8.581296, 41.191762], [-8.575958, 41.195609], [-8.576894, 41.201908], [-8.574515, 41.202593], [-8.57423, 41.20462], [-8.567971, 41.204644], [-8.565895, 41.206227], [-8.567697, 41.208246], [-8.566512, 41.209376], [-8.559636, 41.206251], [-8.554271, 41.20627], [-8.549521, 41.209214], [-8.544157, 41.209458], [-8.54238, 41.211265], [-8.532257, 41.213102], [-8.52713, 41.203215], [-8.523236, 41.200077], [-8.51163, 41.203042], [-8.510456, 41.206197], [-8.506583, 41.206435], [-8.504239, 41.213646], [-8.500076, 41.21546], [-8.50308, 41.219502], [-8.502204, 41.222656], [-8.495642, 41.222227], [-8.495947, 41.223351], [-8.490894, 41.226294], [-8.487935, 41.230354], [-8.490331, 41.232373], [-8.489156, 41.235528], [-8.486181, 41.236888], [-8.484411, 41.240495], [-8.476346, 41.237818], [-8.475756, 41.23917], [-8.470986, 41.23941], [-8.471604, 41.243459], [-8.469227, 41.245267], [-8.463258, 41.244384], [-8.459989, 41.246644], [-8.454323, 41.246886], [-8.455541, 41.251834], [-8.452276, 41.25522], [-8.449891, 41.255452], [-8.449304, 41.257479], [-8.447812, 41.257258], [-8.449028, 41.261982], [-8.443657, 41.261771], [-8.438004, 41.264938], [-8.438023, 41.268989], [-8.434745, 41.269673], [-8.432691, 41.277107], [-8.427032, 41.279372], [-8.429143, 41.284319], [-8.426171, 41.287028], [-8.426488, 41.291079], [-8.425013, 41.294909], [-8.422037, 41.296942], [-8.422647, 41.299867], [-8.415793, 41.302292], [-8.440109, 41.320423], [-8.455714, 41.338513], [-8.465923, 41.356576], [-8.480342, 41.392673], [-8.489869, 41.401723], [-8.50614, 41.407286], [-8.55394, 41.415721], [-8.565876, 41.420152], [-8.5778, 41.426803], [-8.588837, 41.438149], [-8.592668, 41.44717], [-8.593384, 41.45618], [-8.591662, 41.465182], [-8.587822, 41.474176], [-8.57073, 41.501135], [-8.565819, 41.519132], [-8.56557, 41.546153], [-8.573081, 41.591218], [-8.572562, 41.60923], [-8.570556, 41.61632]]], [[[-7.738918, 41.828601], [-7.738918, 41.828601], [-7.73936, 41.828517], [-7.738918, 41.828601]]], [[[-7.739521, 41.828486], [-7.768385, 41.825997], [-7.780405, 41.827174], [-7.79238, 41.830686], [-7.804528, 41.837988], [-7.813859, 41.847091], [-7.824537, 41.865214], [-7.827205, 41.875822], [-7.83772, 41.872924], [-7.842528, 41.875187], [-7.841663, 41.866632], [-7.849515, 41.861475], [-7.858542, 41.862622], [-7.859456, 41.860148], [-7.864877, 41.859711], [-7.87033, 41.851395], [-7.873043, 41.850501], [-7.873066, 41.844875], [-7.879056, 41.85254], [-7.886268, 41.855932], [-7.888076, 41.855486], [-7.891675, 41.859094], [-7.900698, 41.861588], [-7.904318, 41.859795], [-7.907309, 41.865203], [-7.906095, 41.868126], [-7.910299, 41.871285], [-7.909985, 41.875111], [-7.915391, 41.879397], [-7.921118, 41.877833], [-7.928044, 41.87807], [-7.935283, 41.874707], [-7.937389, 41.87516], [-7.941618, 41.870891], [-7.951254, 41.871132], [-7.956367, 41.87339], [-7.956362, 41.875191], [-7.960878, 41.875648], [-7.962086, 41.874074], [-7.973828, 41.875216], [-7.987996, 41.869157], [-7.990123, 41.860157], [-7.995547, 41.858138], [-7.994047, 41.855211], [-7.996162, 41.851837], [-8.003089, 41.850494], [-8.005804, 41.847346], [-8.007928, 41.838796], [-8.010941, 41.836773], [-8.013965, 41.828899], [-8.017873, 41.831379], [-8.02901, 41.829589], [-8.037134, 41.831171], [-8.041351, 41.828023], [-8.041054, 41.825097], [-8.045268, 41.824425], [-8.046775, 41.821951], [-8.056712, 41.81588], [-8.06664, 41.817012], [-8.072961, 41.813414], [-8.078678, 41.813417], [-8.082892, 41.810493], [-8.091013, 41.812521], [-8.093421, 41.811397], [-8.093723, 41.808471], [-8.101845, 41.809824], [-8.104853, 41.81185], [-8.115984, 41.812302], [-8.123807, 41.808702], [-8.138247, 41.808477], [-8.139751, 41.813203], [-8.14276, 41.812978], [-8.144866, 41.815228], [-8.149078, 41.814777], [-8.153291, 41.817703], [-8.158106, 41.818377], [-8.165326, 41.81815], [-8.173744, 41.808019], [-8.177655, 41.808242], [-8.183676, 41.812741], [-8.190291, 41.809587], [-8.197158, 41.814129], [-8.201063, 41.808724], [-8.204973, 41.807372], [-8.205872, 41.804445], [-8.213692, 41.803765], [-8.217598, 41.80016], [-8.217589, 41.793634], [-8.224207, 41.794303], [-8.229917, 41.791598], [-8.240744, 41.791588], [-8.24074, 41.789338], [-8.244347, 41.787984], [-8.245546, 41.785731], [-8.251257, 41.784375], [-8.252149, 41.77883], [-8.247399, 41.769689], [-8.245225, 41.760667], [-8.245348, 41.751661], [-8.248133, 41.742672], [-8.254222, 41.733705], [-8.263249, 41.725455], [-8.275356, 41.718054], [-8.287427, 41.713564], [-8.29947, 41.711473], [-8.311473, 41.713189], [-8.323402, 41.721942], [-8.334306, 41.743204], [-8.335849, 41.763729], [-8.341756, 41.761468], [-8.344765, 41.762363], [-8.349267, 41.760103], [-8.351959, 41.756272], [-8.352545, 41.751769], [-8.349814, 41.744122], [-8.352516, 41.743441], [-8.352203, 41.739616], [-8.357897, 41.735103], [-8.362407, 41.735994], [-8.368703, 41.73193], [-8.371924, 41.734399], [-8.370544, 41.725394], [-8.372667, 41.716399], [-8.379381, 41.707428], [-8.394083, 41.6985], [-8.407823, 41.693174], [-8.419864, 41.690507], [-8.431886, 41.689893], [-8.443889, 41.691494], [-8.455357, 41.695572], [-8.461659, 41.694563], [-8.467939, 41.689593], [-8.478124, 41.685061], [-8.482012, 41.682123], [-8.484371, 41.674238], [-8.49308, 41.674886], [-8.499963, 41.671038], [-8.50927, 41.671233], [-8.51018, 41.672806], [-8.511967, 41.670324], [-8.509856, 41.668755], [-8.512252, 41.667847], [-8.511944, 41.666498], [-8.522103, 41.658811], [-8.525706, 41.659023], [-8.527368, 41.654741], [-8.499412, 41.662978], [-8.480146, 41.665741], [-8.444089, 41.668228], [-8.432056, 41.670516], [-8.395864, 41.68689], [-8.37177, 41.693376], [-8.347726, 41.694248], [-8.335732, 41.692043], [-8.329325, 41.689133], [-8.319829, 41.68007], [-8.311926, 41.662009], [-8.307987, 41.643971], [-8.307308, 41.625952], [-8.309055, 41.616956], [-8.313749, 41.607977], [-8.322326, 41.59902], [-8.360937, 41.573521], [-8.373033, 41.563125], [-8.385159, 41.549028], [-8.397321, 41.530599], [-8.4081, 41.509421], [-8.408257, 41.500414], [-8.40451, 41.48238], [-8.405859, 41.47338], [-8.409913, 41.463938], [-8.417227, 41.455423], [-8.4219, 41.446439], [-8.4223, 41.437433], [-8.407612, 41.428351], [-8.350464, 41.421385], [-8.326579, 41.416669], [-8.306794, 41.409773], [-8.293516, 41.400685], [-8.286802, 41.391636], [-8.28078, 41.373583], [-8.274957, 41.346524], [-8.274675, 41.325132], [-8.269582, 41.326939], [-8.265709, 41.331221], [-8.269004, 41.336169], [-8.263339, 41.340902], [-8.262751, 41.345405], [-8.256483, 41.347663], [-8.255889, 41.349689], [-8.249622, 41.353072], [-8.251123, 41.356897], [-8.248141, 41.360052], [-8.248448, 41.364328], [-8.245461, 41.364781], [-8.244272, 41.368384], [-8.241287, 41.370413], [-8.224854, 41.370878], [-8.21738, 41.368182], [-8.214399, 41.373587], [-8.208127, 41.376968], [-8.199163, 41.377423], [-8.194677, 41.374275], [-8.191691, 41.376302], [-8.189299, 41.375403], [-8.184818, 41.376756], [-8.168382, 41.377438], [-8.164499, 41.38059], [-8.152544, 41.375866], [-8.151049, 41.37339], [-8.145073, 41.374742], [-8.139694, 41.377894], [-8.133418, 41.374292], [-8.125051, 41.375193], [-8.119672, 41.376768], [-8.119672, 41.378569], [-8.116683, 41.380144], [-8.117877, 41.385771], [-8.113992, 41.386896], [-8.112795, 41.390723], [-8.110105, 41.390947], [-8.108011, 41.393648], [-8.103827, 41.392972], [-8.105321, 41.394998], [-8.10263, 41.396123], [-8.10801, 41.398825], [-8.108606, 41.403102], [-8.104419, 41.406252], [-8.104119, 41.408728], [-8.101727, 41.409403], [-8.102025, 41.411204], [-8.092756, 41.411201], [-8.09126, 41.414352], [-8.079893, 41.41975], [-8.077503, 41.416597], [-8.070923, 41.41862], [-8.066739, 41.416142], [-8.061654, 41.417489], [-8.059852, 41.424916], [-8.055959, 41.429415], [-8.05745, 41.432793], [-8.056549, 41.436394], [-8.069999, 41.447206], [-8.068788, 41.462286], [-8.073872, 41.46499], [-8.074468, 41.468141], [-8.073564, 41.474668], [-8.066374, 41.482318], [-8.066069, 41.48817], [-8.072054, 41.490199], [-8.07175, 41.494925], [-8.078333, 41.49898], [-8.078332, 41.500331], [-8.093, 41.504613], [-8.0912, 41.510299], [-8.109904, 41.511005], [-8.12185, 41.513744], [-8.131909, 41.516675], [-8.14569, 41.523443], [-8.169572, 41.53039], [-8.181542, 41.531713], [-8.193537, 41.531099], [-8.201015, 41.526183], [-8.206851, 41.508209], [-8.211427, 41.499233], [-8.217974, 41.492661], [-8.230027, 41.486454], [-8.242016, 41.48555], [-8.255735, 41.490521], [-8.265554, 41.499591], [-8.268419, 41.508617], [-8.265556, 41.522558], [-8.253426, 41.535064], [-8.235887, 41.544435], [-8.23177, 41.553415], [-8.240914, 41.580497], [-8.242192, 41.589513], [-8.240123, 41.598506], [-8.234931, 41.607479], [-8.215213, 41.62536], [-8.15762, 41.669988], [-8.149418, 41.678935], [-8.137891, 41.696863], [-8.131346, 41.699472], [-8.119146, 41.712814], [-8.113097, 41.714689], [-8.107002, 41.721704], [-8.101684, 41.723607], [-8.091794, 41.732536], [-8.08604, 41.741497], [-8.070348, 41.777399], [-8.057921, 41.789566], [-8.045809, 41.794745], [-8.033743, 41.796747], [-8.021704, 41.796917], [-7.973649, 41.791261], [-7.961059, 41.78547], [-7.949719, 41.782627], [-7.925638, 41.783482], [-7.913685, 41.778672], [-7.911569, 41.776005], [-7.906986, 41.766954], [-7.901977, 41.748893], [-7.892078, 41.739791], [-7.866432, 41.728786], [-7.842438, 41.725812], [-7.830468, 41.722927], [-7.817411, 41.715155], [-7.815291, 41.718689], [-7.808986, 41.717996], [-7.808396, 41.715744], [-7.804499, 41.714158], [-7.79939, 41.714593], [-7.79788, 41.716164], [-7.796383, 41.71526], [-7.790966, 41.717044], [-7.789449, 41.719966], [-7.78464, 41.720402], [-7.78252, 41.723546], [-7.776204, 41.724652], [-7.773786, 41.727346], [-7.770798, 41.72441], [-7.765698, 41.723044], [-7.761765, 41.727758], [-7.762933, 41.733839], [-7.759307, 41.737203], [-7.759597, 41.739005], [-7.75689, 41.739446], [-7.758687, 41.740577], [-7.757457, 41.745311], [-7.77558, 41.756622], [-7.783801, 41.765716], [-7.788426, 41.774772], [-7.78903, 41.783785], [-7.785862, 41.792758], [-7.777527, 41.801677], [-7.759315, 41.810488], [-7.744541, 41.81375], [-7.728171, 41.814843], [-7.732041, 41.821514], [-7.743152, 41.825154], [-7.742839, 41.827178], [-7.739521, 41.828486]], [[-7.972526, 41.861504], [-7.960387, 41.867119], [-7.948315, 41.868465], [-7.936308, 41.865933], [-7.924383, 41.858474], [-7.918064, 41.84812], [-7.918425, 41.839117], [-7.92549, 41.830176], [-7.936998, 41.824243], [-7.949073, 41.82217], [-7.961093, 41.823481], [-7.973045, 41.829051], [-7.981374, 41.839692], [-7.981607, 41.848701], [-7.976708, 41.857664], [-7.972526, 41.861504]], [[-7.877681, 41.77324], [-7.865538, 41.779583], [-7.853506, 41.779529], [-7.84158, 41.773584], [-7.83536, 41.76625], [-7.835765, 41.757248], [-7.845018, 41.748334], [-7.854121, 41.744987], [-7.866155, 41.744512], [-7.876582, 41.748647], [-7.883883, 41.757725], [-7.882704, 41.766721], [-7.877681, 41.77324]], [[-8.1906, 41.766119], [-8.178519, 41.770088], [-8.166488, 41.770112], [-8.154507, 41.766218], [-8.146968, 41.75998], [-8.142661, 41.752335], [-8.142223, 41.741931], [-8.146717, 41.732957], [-8.155039, 41.725676], [-8.176109, 41.715158], [-8.177733, 41.697155], [-8.180683, 41.688169], [-8.188068, 41.679215], [-8.203801, 41.671439], [-8.215827, 41.670362], [-8.227815, 41.672422], [-8.239743, 41.679661], [-8.245899, 41.688616], [-8.246621, 41.697627], [-8.242942, 41.70661], [-8.234575, 41.715562], [-8.227229, 41.721383], [-8.220377, 41.724474], [-8.209786, 41.733408], [-8.204503, 41.751386], [-8.198149, 41.760348], [-8.1906, 41.766119]], [[-8.361525, 41.513828], [-8.349496, 41.518289], [-8.337498, 41.519654], [-8.325535, 41.517486], [-8.310799, 41.508879], [-8.303654, 41.499828], [-8.299953, 41.490799], [-8.298854, 41.481784], [-8.302064, 41.471192], [-8.307507, 41.463822], [-8.314168, 41.458987], [-8.326188, 41.454566], [-8.338175, 41.453147], [-8.350132, 41.454688], [-8.362061, 41.459221], [-8.368092, 41.464171], [-8.374644, 41.473214], [-8.377506, 41.482237], [-8.377609, 41.491245], [-8.373625, 41.501786], [-8.361525, 41.513828]], [[-8.144876, 41.480743], [-8.140494, 41.489717], [-8.134099, 41.493813], [-8.122069, 41.497489], [-8.110098, 41.496838], [-8.092767, 41.489351], [-8.087372, 41.480301], [-8.088058, 41.471299], [-8.098626, 41.460151], [-8.110651, 41.456375], [-8.122618, 41.4568], [-8.135921, 41.462661], [-8.143586, 41.471726], [-8.144876, 41.480743]]], [[[-8.57044, 41.616733], [-8.57044, 41.616733], [-8.570429, 41.616771], [-8.57044, 41.616733]]], [[[-8.537056, 41.650184], [-8.537056, 41.650184], [-8.537012, 41.650206], [-8.537056, 41.650184]]], [[[-8.536757, 41.650335], [-8.536757, 41.650335], [-8.536563, 41.650433], [-8.536757, 41.650335]]], [[[-8.536458, 41.650486], [-8.536458, 41.650486], [-8.536114, 41.650659], [-8.536458, 41.650486]]], [[[-8.535859, 41.650788], [-8.535859, 41.650788], [-8.535665, 41.650886], [-8.535859, 41.650788]]], [[[-8.535261, 41.65109], [-8.535261, 41.65109], [-8.535215, 41.651113], [-8.535261, 41.65109]]], [[[-8.534962, 41.651241], [-8.534962, 41.651241], [-8.534766, 41.651339], [-8.534962, 41.651241]]], [[[-8.534663, 41.651392], [-8.534663, 41.651392], [-8.533419, 41.652019], [-8.534663, 41.651392]]], [[[-8.059228, 41.700085], [-8.047217, 41.699606], [-8.043201, 41.705121], [-8.04706, 41.710195], [-8.059062, 41.711476], [-8.063622, 41.705289], [-8.059228, 41.700085]]]]}}, {"id": "4", "type": "Feature", "properties": {"fill": "#a3a3a3", "value_min": 0.75, "value_max": -1.0}, "geometry": {"type": "MultiPolygon", "coordinates": [[[[-7.827205, 41.875822], [-7.824537, 41.865214], [-7.813859, 41.847091], [-7.804528, 41.837988], [-7.79238, 41.830686], [-7.780405, 41.827174], [-7.768385, 41.825997], [-7.739521, 41.828486], [-7.73936, 41.828517], [-7.738918, 41.828601], [-7.742196, 41.833928], [-7.74729, 41.837772], [-7.746357, 41.842728], [-7.75605, 41.841131], [-7.768064, 41.842759], [-7.776466, 41.846699], [-7.784706, 41.855793], [-7.786287, 41.864816], [-7.783081, 41.873789], [-7.772619, 41.882684], [-7.767243, 41.88548], [-7.755151, 41.887521], [-7.748202, 41.88656], [-7.750001, 41.887971], [-7.756022, 41.888441], [-7.758719, 41.890926], [-7.756592, 41.89407], [-7.758076, 41.897901], [-7.764097, 41.898595], [-7.779227, 41.886264], [-7.785257, 41.885157], [-7.788886, 41.882467], [-7.794007, 41.882257], [-7.796739, 41.878214], [-7.794349, 41.87438], [-7.797064, 41.873488], [-7.803381, 41.874857], [-7.804914, 41.869459], [-7.813032, 41.871958], [-7.814229, 41.873537], [-7.818448, 41.872873], [-7.827205, 41.875822]]], [[[-7.746942, 41.886386], [-7.746942, 41.886386], [-7.745795, 41.886227], [-7.746942, 41.886386]]], [[[-7.743608, 41.885924], [-7.735697, 41.882284], [-7.728468, 41.875969], [-7.720533, 41.880218], [-7.720523, 41.881793], [-7.725335, 41.882935], [-7.726208, 41.887665], [-7.737044, 41.888828], [-7.739741, 41.891088], [-7.74246, 41.889747], [-7.741573, 41.887043], [-7.743608, 41.885924]]], [[[-8.335849, 41.763729], [-8.334306, 41.743204], [-8.323402, 41.721942], [-8.311473, 41.713189], [-8.29947, 41.711473], [-8.287427, 41.713564], [-8.275356, 41.718054], [-8.263249, 41.725455], [-8.254222, 41.733705], [-8.248133, 41.742672], [-8.245348, 41.751661], [-8.245225, 41.760667], [-8.247399, 41.769689], [-8.252149, 41.77883], [-8.251845, 41.777172], [-8.256049, 41.774241], [-8.261762, 41.774235], [-8.271366, 41.766346], [-8.280681, 41.764083], [-8.284038, 41.761109], [-8.284931, 41.757507], [-8.287033, 41.756829], [-8.298457, 41.757263], [-8.300866, 41.758835], [-8.305674, 41.758152], [-8.311096, 41.762195], [-8.318308, 41.761283], [-8.325233, 41.765098], [-8.328234, 41.763292], [-8.335849, 41.763729]], [[-8.286524, 41.751924], [-8.28701, 41.751264], [-8.287295, 41.751929], [-8.286524, 41.751924]]], [[[-7.817411, 41.715155], [-7.830468, 41.722927], [-7.842438, 41.725812], [-7.866432, 41.728786], [-7.892078, 41.739791], [-7.901977, 41.748893], [-7.906986, 41.766954], [-7.911569, 41.776005], [-7.913685, 41.778672], [-7.925638, 41.783482], [-7.949719, 41.782627], [-7.961059, 41.78547], [-7.973649, 41.791261], [-8.021704, 41.796917], [-8.033743, 41.796747], [-8.045809, 41.794745], [-8.057921, 41.789566], [-8.070348, 41.777399], [-8.08604, 41.741497], [-8.091794, 41.732536], [-8.101684, 41.723607], [-8.107002, 41.721704], [-8.113097, 41.714689], [-8.119146, 41.712814], [-8.131346, 41.699472], [-8.137891, 41.696863], [-8.149418, 41.678935], [-8.15762, 41.669988], [-8.215213, 41.62536], [-8.234931, 41.607479], [-8.240123, 41.598506], [-8.242192, 41.589513], [-8.240914, 41.580497], [-8.23177, 41.553415], [-8.235887, 41.544435], [-8.253426, 41.535064], [-8.265556, 41.522558], [-8.268419, 41.508617], [-8.265554, 41.499591], [-8.255735, 41.490521], [-8.242016, 41.48555], [-8.230027, 41.486454], [-8.217974, 41.492661], [-8.211427, 41.499233], [-8.206851, 41.508209], [-8.201015, 41.526183], [-8.193537, 41.531099], [-8.181542, 41.531713], [-8.169572, 41.53039], [-8.14569, 41.523443], [-8.131909, 41.516675], [-8.12185, 41.513744], [-8.109904, 41.511005], [-8.0912, 41.510299], [-8.091196, 41.516767], [-8.089398, 41.519468], [-8.090594, 41.522169], [-8.093588, 41.52307], [-8.091786, 41.531848], [-8.097775, 41.536127], [-8.097774, 41.537927], [-8.106759, 41.543557], [-8.101666, 41.542655], [-8.094175, 41.544904], [-8.087885, 41.542876], [-8.083389, 41.5449], [-8.080687, 41.551651], [-8.074097, 41.549848], [-8.073494, 41.553449], [-8.075891, 41.554575], [-8.076188, 41.557276], [-8.079783, 41.558403], [-8.081576, 41.565157], [-8.078879, 41.56493], [-8.075279, 41.568305], [-8.073182, 41.568079], [-8.069283, 41.570553], [-8.068081, 41.573478], [-8.056684, 41.579549], [-8.052181, 41.584498], [-8.052777, 41.587649], [-8.048277, 41.590122], [-8.045573, 41.594397], [-8.031467, 41.602938], [-8.02367, 41.603156], [-8.019174, 41.601802], [-8.015872, 41.603824], [-8.010473, 41.604494], [-8.005971, 41.60629], [-8.003562, 41.611239], [-7.99936, 41.61281], [-7.998462, 41.612359], [-7.999669, 41.608759], [-7.996976, 41.605829], [-7.996684, 41.602003], [-7.984685, 41.603564], [-7.982292, 41.60086], [-7.975689, 41.603552], [-7.974482, 41.606701], [-7.970882, 41.607147], [-7.969091, 41.603768], [-7.965796, 41.602413], [-7.9541, 41.602846], [-7.952606, 41.600592], [-7.947808, 41.60081], [-7.945413, 41.599456], [-7.942725, 41.595625], [-7.936132, 41.594488], [-7.93791, 41.601694], [-7.937004, 41.603718], [-7.931604, 41.604384], [-7.930979, 41.612711], [-7.925556, 41.620354], [-7.920755, 41.620796], [-7.917748, 41.623041], [-7.915933, 41.627764], [-7.913229, 41.628885], [-7.912613, 41.63361], [-7.906014, 41.633147], [-7.906884, 41.641927], [-7.897869, 41.645511], [-7.89696, 41.647985], [-7.892759, 41.647976], [-7.892145, 41.651576], [-7.902319, 41.659925], [-7.899913, 41.66127], [-7.900198, 41.665547], [-7.898396, 41.665769], [-7.896885, 41.668692], [-7.883969, 41.67069], [-7.879755, 41.673607], [-7.877044, 41.676077], [-7.876723, 41.681253], [-7.873401, 41.686198], [-7.868896, 41.686413], [-7.868008, 41.68326], [-7.864403, 41.683701], [-7.864096, 41.685276], [-7.858987, 41.68639], [-7.857773, 41.689538], [-7.854776, 41.68818], [-7.847538, 41.695365], [-7.837912, 41.698942], [-7.835792, 41.702763], [-7.839682, 41.705924], [-7.838465, 41.709522], [-7.832453, 41.710407], [-7.825252, 41.708813], [-7.817411, 41.715155]], [[-7.937899, 41.769693], [-7.9324, 41.767193], [-7.927362, 41.758139], [-7.932386, 41.749179], [-7.938308, 41.744879], [-7.950355, 41.743654], [-7.961866, 41.749449], [-7.966362, 41.758497], [-7.959396, 41.767441], [-7.949918, 41.77043], [-7.937899, 41.769693]], [[-8.008667, 41.740856], [-8.002461, 41.731795], [-8.010729, 41.727892], [-8.017902, 41.731928], [-8.012121, 41.740886], [-8.008667, 41.740856]], [[-8.059228, 41.700085], [-8.063622, 41.705289], [-8.059062, 41.711476], [-8.04706, 41.710195], [-8.043201, 41.705121], [-8.047217, 41.699606], [-8.059228, 41.700085]], [[-8.109365, 41.696646], [-8.119433, 41.691759], [-8.123471, 41.696754], [-8.119297, 41.701719], [-8.109365, 41.696646]], [[-8.096106, 41.641226], [-8.084095, 41.641547], [-8.072117, 41.639451], [-8.0602, 41.63328], [-8.050409, 41.624117], [-8.046455, 41.615077], [-8.046652, 41.606072], [-8.051284, 41.597103], [-8.060837, 41.58941], [-8.072904, 41.584533], [-8.084923, 41.582932], [-8.096908, 41.583804], [-8.108854, 41.587488], [-8.12333, 41.597675], [-8.128462, 41.606721], [-8.128874, 41.615731], [-8.124843, 41.624708], [-8.116378, 41.63365], [-8.108161, 41.637826], [-8.096106, 41.641226]]], [[[-8.274675, 41.325132], [-8.274957, 41.346524], [-8.28078, 41.373583], [-8.286802, 41.391636], [-8.293516, 41.400685], [-8.306794, 41.409773], [-8.326579, 41.416669], [-8.350464, 41.421385], [-8.407612, 41.428351], [-8.4223, 41.437433], [-8.4219, 41.446439], [-8.417227, 41.455423], [-8.409913, 41.463938], [-8.405859, 41.47338], [-8.40451, 41.48238], [-8.408257, 41.500414], [-8.4081, 41.509421], [-8.397321, 41.530599], [-8.385159, 41.549028], [-8.373033, 41.563125], [-8.360937, 41.573521], [-8.322326, 41.59902], [-8.313749, 41.607977], [-8.309055, 41.616956], [-8.307308, 41.625952], [-8.307987, 41.643971], [-8.311926, 41.662009], [-8.319829, 41.68007], [-8.329325, 41.689133], [-8.335732, 41.692043], [-8.347726, 41.694248], [-8.37177, 41.693376], [-8.395864, 41.68689], [-8.432056, 41.670516], [-8.444089, 41.668228], [-8.480146, 41.665741], [-8.499412, 41.662978], [-8.527368, 41.654741], [-8.528965, 41.652035], [-8.533419, 41.652019], [-8.534663, 41.651392], [-8.534766, 41.651339], [-8.534962, 41.651241], [-8.535215, 41.651113], [-8.535261, 41.65109], [-8.535665, 41.650886], [-8.535859, 41.650788], [-8.536114, 41.650659], [-8.536458, 41.650486], [-8.536563, 41.650433], [-8.536757, 41.650335], [-8.537012, 41.650206], [-8.537056, 41.650184], [-8.537634, 41.646602], [-8.543876, 41.637352], [-8.543855, 41.633976], [-8.536342, 41.631977], [-8.535128, 41.62973], [-8.542257, 41.618676], [-8.542536, 41.615299], [-8.554533, 41.615255], [-8.557244, 41.617046], [-8.562639, 41.61635], [-8.567756, 41.619032], [-8.570429, 41.616771], [-8.57044, 41.616733], [-8.570556, 41.61632], [-8.572562, 41.60923], [-8.573081, 41.591218], [-8.56557, 41.546153], [-8.565819, 41.519132], [-8.57073, 41.501135], [-8.587822, 41.474176], [-8.591662, 41.465182], [-8.593384, 41.45618], [-8.592668, 41.44717], [-8.588837, 41.438149], [-8.5778, 41.426803], [-8.565876, 41.420152], [-8.55394, 41.415721], [-8.50614, 41.407286], [-8.489869, 41.401723], [-8.480342, 41.392673], [-8.465923, 41.356576], [-8.455714, 41.338513], [-8.440109, 41.320423], [-8.415793, 41.302292], [-8.407744, 41.304856], [-8.406262, 41.307335], [-8.402979, 41.307568], [-8.401801, 41.311398], [-8.399712, 41.311628], [-8.400316, 41.313202], [-8.396738, 41.314336], [-8.398835, 41.316131], [-8.393775, 41.31997], [-8.393489, 41.323122], [-8.391105, 41.324253], [-8.386325, 41.323588], [-8.380382, 41.331254], [-8.375305, 41.33104], [-8.37201, 41.328346], [-8.361563, 41.329718], [-8.358276, 41.329049], [-8.357673, 41.327249], [-8.350207, 41.327264], [-8.346032, 41.328847], [-8.342462, 41.333131], [-8.333215, 41.336299], [-8.326363, 41.342163], [-8.324568, 41.341041], [-8.323376, 41.341943], [-8.316788, 41.335876], [-8.313802, 41.336331], [-8.310792, 41.327557], [-8.308701, 41.327561], [-8.307502, 41.325762], [-8.305116, 41.326891], [-8.303024, 41.325994], [-8.303615, 41.323742], [-8.301216, 41.319694], [-8.296431, 41.316774], [-8.297618, 41.313846], [-8.296116, 41.310022], [-8.281801, 41.316569], [-8.279132, 41.324451], [-8.274675, 41.325132]], [[-8.371967, 41.6731], [-8.36948, 41.671346], [-8.368581, 41.662334], [-8.372106, 41.658734], [-8.384144, 41.655855], [-8.39435, 41.662473], [-8.39216, 41.671468], [-8.383959, 41.675262], [-8.371967, 41.6731]], [[-8.362725, 41.39135], [-8.350788, 41.388923], [-8.341912, 41.382957], [-8.337585, 41.373924], [-8.339811, 41.364929], [-8.350865, 41.355985], [-8.363091, 41.353827], [-8.37502, 41.356481], [-8.385065, 41.36518], [-8.387284, 41.3742], [-8.382752, 41.383183], [-8.374712, 41.388594], [-8.362725, 41.39135]]]]}}, {"id": "6", "type": "Feature", "properties": {"fill": "#71a5e5", "value_min": 1.25, "value_max": -1.5}, "geometry": {"type": "Polygon", "coordinates": [[[-8.102752, 41.615531], [-8.096601, 41.605805], [-8.084621, 41.604364], [-8.080466, 41.606347], [-8.073718, 41.6153], [-8.080854, 41.624365], [-8.084316, 41.625936], [-8.096339, 41.624578], [-8.102752, 41.615531]]]}}, {"id": "5", "type": "Feature", "properties": {"fill": "#90a4bc", "value_min": 1.0, "value_max": -1.25}, "geometry": {"type": "MultiPolygon", "coordinates": [[[[-7.748202, 41.88656], [-7.755151, 41.887521], [-7.767243, 41.88548], [-7.772619, 41.882684], [-7.783081, 41.873789], [-7.786287, 41.864816], [-7.784706, 41.855793], [-7.776466, 41.846699], [-7.768064, 41.842759], [-7.75605, 41.841131], [-7.746357, 41.842728], [-7.750532, 41.849261], [-7.743309, 41.849012], [-7.746901, 41.8524], [-7.746881, 41.855776], [-7.73843, 41.859348], [-7.728468, 41.875969], [-7.735697, 41.882284], [-7.743608, 41.885924], [-7.745795, 41.886227], [-7.746942, 41.886386], [-7.748202, 41.88656]]], [[[-7.937899, 41.769693], [-7.949918, 41.77043], [-7.959396, 41.767441], [-7.966362, 41.758497], [-7.961866, 41.749449], [-7.950355, 41.743654], [-7.938308, 41.744879], [-7.932386, 41.749179], [-7.927362, 41.758139], [-7.9324, 41.767193], [-7.937899, 41.769693]]], [[[-8.286524, 41.751924], [-8.287295, 41.751929], [-8.28701, 41.751264], [-8.286524, 41.751924]]], [[[-8.008667, 41.740856], [-8.012121, 41.740886], [-8.017902, 41.731928], [-8.010729, 41.727892], [-8.002461, 41.731795], [-8.008667, 41.740856]]], [[[-8.109365, 41.696646], [-8.119297, 41.701719], [-8.123471, 41.696754], [-8.119433, 41.691759], [-8.109365, 41.696646]]], [[[-8.371967, 41.6731], [-8.383959, 41.675262], [-8.39216, 41.671468], [-8.39435, 41.662473], [-8.384144, 41.655855], [-8.372106, 41.658734], [-8.368581, 41.662334], [-8.36948, 41.671346], [-8.371967, 41.6731]]], [[[-8.096106, 41.641226], [-8.108161, 41.637826], [-8.116378, 41.63365], [-8.124843, 41.624708], [-8.128874, 41.615731], [-8.128462, 41.606721], [-8.12333, 41.597675], [-8.108854, 41.587488], [-8.096908, 41.583804], [-8.084923, 41.582932], [-8.072904, 41.584533], [-8.060837, 41.58941], [-8.051284, 41.597103], [-8.046652, 41.606072], [-8.046455, 41.615077], [-8.050409, 41.624117], [-8.0602, 41.63328], [-8.072117, 41.639451], [-8.084095, 41.641547], [-8.096106, 41.641226]], [[-8.102752, 41.615531], [-8.096339, 41.624578], [-8.084316, 41.625936], [-8.080854, 41.624365], [-8.073718, 41.6153], [-8.080466, 41.606347], [-8.084621, 41.604364], [-8.096601, 41.605805], [-8.102752, 41.615531]]], [[[-8.362725, 41.39135], [-8.374712, 41.388594], [-8.382752, 41.383183], [-8.387284, 41.3742], [-8.385065, 41.36518], [-8.37502, 41.356481], [-8.363091, 41.353827], [-8.350865, 41.355985], [-8.339811, 41.364929], [-8.337585, 41.373924], [-8.341912, 41.382957], [-8.350788, 41.388923], [-8.362725, 41.39135]]]]}}]}