{"type": "FeatureCollection", "features": [{"id": "0", "type": "Feature", "properties": {"fill": "#a3a3a3", "value_min": -0.5, "value_max": -0.25}, "geometry": {"type": "MultiPolygon", "coordinates": [[[[-8.351301, 41.482092], [-8.349872, 41.480753], [-8.337912, 41.478975], [-8.333141, 41.481988], [-8.332501, 41.490992], [-8.337753, 41.494601], [-8.34975, 41.492946], [-8.351702, 41.491102], [-8.351301, 41.482092]]], [[[-8.710419, 41.207418], [-8.71344, 41.204326], [-8.715636, 41.195324], [-8.710517, 41.185148], [-8.698621, 41.179096], [-8.6867, 41.178696], [-8.674753, 41.183708], [-8.668043, 41.195196], [-8.669966, 41.20421], [-8.674626, 41.209353], [-8.686529, 41.214626], [-8.69846, 41.214194], [-8.710419, 41.207418]]]]}}, {"id": "2", "type": "Feature", "properties": {"fill": "#a3a3a3", "value_min": 0.0, "value_max": -0.25}, "geometry": {"type": "MultiPolygon", "coordinates": [[[[-7.972619, 41.855745], [-7.977219, 41.848662], [-7.977287, 41.839656], [-7.970096, 41.830585], [-7.961045, 41.826478], [-7.949027, 41.824995], [-7.936946, 41.827379], [-7.930308, 41.830221], [-7.92249, 41.839155], [-7.922041, 41.848158], [-7.928404, 41.857224], [-7.936366, 41.862389], [-7.948374, 41.864884], [-7.960447, 41.863384], [-7.972619, 41.855745]], [[-7.945564, 41.839369], [-7.948825, 41.837346], [-7.953581, 41.839442], [-7.948728, 41.843258], [-7.945564, 41.839369]]], [[[-7.88755, 41.811802], [-7.877219, 41.799747], [-7.865206, 41.798382], [-7.85807, 41.802506], [-7.852498, 41.811457], [-7.856609, 41.820505], [-7.864727, 41.82552], [-7.876767, 41.825638], [-7.884033, 41.820774], [-7.88755, 41.811802]]], [[[-7.885017, 41.766743], [-7.885919, 41.757745], [-7.879111, 41.748672], [-7.866171, 41.743606], [-7.854137, 41.744063], [-7.843679, 41.748321], [-7.836097, 41.757251], [-7.836329, 41.76626], [-7.841575, 41.773873], [-7.853472, 41.78144], [-7.865493, 41.782101], [-7.877637, 41.775781], [-7.885017, 41.766743]], [[-7.853714, 41.767862], [-7.849008, 41.757381], [-7.853984, 41.752678], [-7.866063, 41.749752], [-7.876817, 41.757656], [-7.87256, 41.766621], [-7.865701, 41.770349], [-7.853714, 41.767862]]], [[[-8.152039, 41.705976], [-8.143353, 41.70032], [-8.131307, 41.702365], [-8.122914, 41.714764], [-8.131027, 41.723162], [-8.143065, 41.722011], [-8.151883, 41.714981], [-8.152039, 41.705976]], [[-8.130156, 41.714819], [-8.131205, 41.709955], [-8.137494, 41.714874], [-8.131126, 41.715822], [-8.130156, 41.714819]]], [[[-8.095677, 41.671906], [-8.083662, 41.672045], [-8.078923, 41.678392], [-8.083496, 41.683761], [-8.095518, 41.683287], [-8.099949, 41.678558], [-8.095677, 41.671906]]], [[[-8.108461, 41.616049], [-8.107217, 41.606558], [-8.096703, 41.598482], [-8.084722, 41.597162], [-8.072666, 41.601131], [-8.066807, 41.606237], [-8.064107, 41.615222], [-8.06835, 41.624264], [-8.072289, 41.627484], [-8.084231, 41.631889], [-8.096263, 41.630059], [-8.103145, 41.624541], [-8.108461, 41.616049]], [[-8.084407, 41.619447], [-8.080858, 41.615358], [-8.084522, 41.611375], [-8.096482, 41.614372], [-8.096452, 41.616464], [-8.084407, 41.619447]]], [[[-8.361572, 41.50903], [-8.370508, 41.500214], [-8.373868, 41.491225], [-8.373779, 41.482217], [-8.370476, 41.473191], [-8.362014, 41.463989], [-8.350095, 41.458393], [-8.338133, 41.45731], [-8.326135, 41.459631], [-8.31408, 41.467344], [-8.309689, 41.472843], [-8.306747, 41.481832], [-8.307506, 41.490844], [-8.31179, 41.499877], [-8.325597, 41.511522], [-8.337548, 41.514768], [-8.349538, 41.514142], [-8.361572, 41.50903]], [[-8.337649, 41.504833], [-8.325476, 41.499958], [-8.318867, 41.490912], [-8.318776, 41.481904], [-8.326001, 41.472546], [-8.338021, 41.468279], [-8.349984, 41.469529], [-8.356045, 41.473111], [-8.36367, 41.482161], [-8.363791, 41.491169], [-8.356456, 41.500136], [-8.34964, 41.503916], [-8.337649, 41.504833]]], [[[-8.63422, 41.191318], [-8.63664, 41.20411], [-8.645828, 41.222154], [-8.650671, 41.227918], [-8.662557, 41.236824], [-8.674466, 41.241574], [-8.686388, 41.244078], [-8.69832, 41.244669], [-8.710258, 41.243879], [-8.734148, 41.238731], [-8.751656, 41.231439], [-8.764799, 41.222458], [-8.773228, 41.213467], [-8.78175, 41.195468], [-8.783024, 41.186463], [-8.77988, 41.168441], [-8.77525, 41.159424], [-8.761441, 41.144912], [-8.674793, 41.146932], [-8.674849, 41.153767], [-8.672489, 41.15648], [-8.66117, 41.156307], [-8.662078, 41.158104], [-8.660313, 41.160813], [-8.657033, 41.160378], [-8.654961, 41.161963], [-8.653231, 41.169174], [-8.655366, 41.175467], [-8.647955, 41.180228], [-8.647696, 41.185181], [-8.641225, 41.196014], [-8.638841, 41.196025], [-8.63422, 41.191318]], [[-8.710333, 41.227054], [-8.698392, 41.229118], [-8.686461, 41.228896], [-8.674543, 41.226087], [-8.662647, 41.219315], [-8.656678, 41.213179], [-8.651525, 41.204156], [-8.649724, 41.195142], [-8.650627, 41.186137], [-8.654712, 41.177141], [-8.662912, 41.167661], [-8.674867, 41.160645], [-8.686803, 41.157251], [-8.698725, 41.156445], [-8.710636, 41.158071], [-8.722537, 41.162381], [-8.734422, 41.171021], [-8.739609, 41.177365], [-8.743301, 41.186381], [-8.743781, 41.19539], [-8.741231, 41.204392], [-8.734796, 41.213385], [-8.722602, 41.222365], [-8.710333, 41.227054]]]]}}, {"id": "1", "type": "Feature", "properties": {"fill": "#a3a3a3", "value_min": -0.25, "value_max": -0.0}, "geometry": {"type": "MultiPolygon", "coordinates": [[[[-7.945564, 41.839369], [-7.948728, 41.843258], [-7.953581, 41.839442], [-7.948825, 41.837346], [-7.945564, 41.839369]]], [[[-7.853714, 41.767862], [-7.865701, 41.770349], [-7.87256, 41.766621], [-7.876817, 41.757656], [-7.866063, 41.749752], [-7.853984, 41.752678], [-7.849008, 41.757381], [-7.853714, 41.767862]]], [[[-8.130156, 41.714819], [-8.131126, 41.715822], [-8.137494, 41.714874], [-8.131205, 41.709955], [-8.130156, 41.714819]]], [[[-8.084407, 41.619447], [-8.096452, 41.616464], [-8.096482, 41.614372], [-8.084522, 41.611375], [-8.080858, 41.615358], [-8.084407, 41.619447]]], [[[-8.337649, 41.504833], [-8.34964, 41.503916], [-8.356456, 41.500136], [-8.363791, 41.491169], [-8.36367, 41.482161], [-8.356045, 41.473111], [-8.349984, 41.469529], [-8.338021, 41.468279], [-8.326001, 41.472546], [-8.318776, 41.481904], [-8.318867, 41.490912], [-8.325476, 41.499958], [-8.337649, 41.504833]], [[-8.351301, 41.482092], [-8.351702, 41.491102], [-8.34975, 41.492946], [-8.337753, 41.494601], [-8.332501, 41.490992], [-8.333141, 41.481988], [-8.337912, 41.478975], [-8.349872, 41.480753], [-8.351301, 41.482092]]], [[[-8.710333, 41.227054], [-8.722602, 41.222365], [-8.734796, 41.213385], [-8.741231, 41.204392], [-8.743781, 41.19539], [-8.743301, 41.186381], [-8.739609, 41.177365], [-8.734422, 41.171021], [-8.722537, 41.162381], [-8.710636, 41.158071], [-8.698725, 41.156445], [-8.686803, 41.157251], [-8.674867, 41.160645], [-8.662912, 41.167661], [-8.654712, 41.177141], [-8.650627, 41.186137], [-8.649724, 41.195142], [-8.651525, 41.204156], [-8.656678, 41.213179], [-8.662647, 41.219315], [-8.674543, 41.226087], [-8.686461, 41.228896], [-8.698392, 41.229118], [-8.710333, 41.227054]], [[-8.710419, 41.207418], [-8.69846, 41.214194], [-8.686529, 41.214626], [-8.674626, 41.209353], [-8.669966, 41.20421], [-8.668043, 41.195196], [-8.674753, 41.183708], [-8.6867, 41.178696], [-8.698621, 41.179096], [-8.710517, 41.185148], [-8.715636, 41.195324], [-8.71344, 41.204326], [-8.710419, 41.207418]]]]}}, {"id": "3", "type": "Feature", "properties": {"fill": "#a3a3a3", "value_min": 0.25, "value_max": -0.5}, "geometry": {"type": "MultiPolygon", "coordinates": [[[[-8.006916, 41.843296], [-7.998186, 41.830833], [-7.983322, 41.821696], [-7.973212, 41.818653], [-7.94916, 41.816899], [-7.925057, 41.818255], [-7.913065, 41.815413], [-7.897036, 41.79388], [-7.89361, 41.78484], [-7.896872, 41.766857], [-7.896383, 41.757846], [-7.890233, 41.74878], [-7.878237, 41.741325], [-7.86628, 41.737419], [-7.854268, 41.736704], [-7.839656, 41.739273], [-7.8231, 41.748112], [-7.818273, 41.757069], [-7.817327, 41.766066], [-7.822485, 41.793139], [-7.821789, 41.820153], [-7.823496, 41.829177], [-7.833262, 41.84729], [-7.848911, 41.86186], [-7.858542, 41.862622], [-7.859456, 41.860148], [-7.864877, 41.859711], [-7.87033, 41.851395], [-7.873043, 41.850501], [-7.873367, 41.844875], [-7.879056, 41.85254], [-7.886268, 41.855932], [-7.888076, 41.855486], [-7.891675, 41.859094], [-7.900698, 41.861588], [-7.904318, 41.859795], [-7.907309, 41.865203], [-7.906095, 41.868126], [-7.910299, 41.871285], [-7.909985, 41.875111], [-7.915391, 41.879397], [-7.921118, 41.877833], [-7.928044, 41.87807], [-7.935283, 41.874707], [-7.937389, 41.87516], [-7.941618, 41.870891], [-7.951254, 41.871132], [-7.956367, 41.87339], [-7.956362, 41.875191], [-7.960878, 41.875648], [-7.96299, 41.874075], [-7.972322, 41.875439], [-7.987996, 41.869157], [-7.990123, 41.860157], [-7.995547, 41.858138], [-7.994044, 41.856786], [-7.994954, 41.853411], [-7.996765, 41.851162], [-8.00339, 41.85027], [-8.006916, 41.843296]], [[-7.972619, 41.855745], [-7.960447, 41.863384], [-7.948374, 41.864884], [-7.936366, 41.862389], [-7.928404, 41.857224], [-7.922041, 41.848158], [-7.92249, 41.839155], [-7.930308, 41.830221], [-7.936946, 41.827379], [-7.949027, 41.824995], [-7.961045, 41.826478], [-7.970096, 41.830585], [-7.977287, 41.839656], [-7.977219, 41.848662], [-7.972619, 41.855745]], [[-7.88755, 41.811802], [-7.884033, 41.820774], [-7.876767, 41.825638], [-7.864727, 41.82552], [-7.856609, 41.820505], [-7.852498, 41.811457], [-7.85807, 41.802506], [-7.865206, 41.798382], [-7.877219, 41.799747], [-7.88755, 41.811802]], [[-7.885017, 41.766743], [-7.877637, 41.775781], [-7.865493, 41.782101], [-7.853472, 41.78144], [-7.841575, 41.773873], [-7.836329, 41.76626], [-7.836097, 41.757251], [-7.843679, 41.748321], [-7.854137, 41.744063], [-7.866171, 41.743606], [-7.879111, 41.748672], [-7.885919, 41.757745], [-7.885017, 41.766743]]], [[[-8.142938, 41.731573], [-8.155733, 41.724017], [-8.1643, 41.715072], [-8.164902, 41.70607], [-8.155472, 41.692626], [-8.143486, 41.690249], [-8.13692, 41.696856], [-8.131359, 41.698459], [-8.119157, 41.71194], [-8.112052, 41.71468], [-8.110328, 41.723674], [-8.118875, 41.732581], [-8.130868, 41.734951], [-8.142938, 41.731573]], [[-8.152039, 41.705976], [-8.151883, 41.714981], [-8.143065, 41.722011], [-8.131027, 41.723162], [-8.122914, 41.714764], [-8.131307, 41.702365], [-8.143353, 41.70032], [-8.152039, 41.705976]]], [[[-8.107539, 41.682885], [-8.114227, 41.678669], [-8.116297, 41.669678], [-8.10987, 41.660621], [-8.099384, 41.651533], [-8.100902, 41.642537], [-8.121269, 41.615674], [-8.125885, 41.606702], [-8.124385, 41.597683], [-8.11524, 41.588606], [-8.108884, 41.58529], [-8.096935, 41.581853], [-8.084954, 41.580752], [-8.072948, 41.581487], [-8.060906, 41.584614], [-8.05374, 41.588116], [-8.043834, 41.597041], [-8.040335, 41.606019], [-8.041021, 41.615032], [-8.045803, 41.624079], [-8.072887, 41.651322], [-8.064513, 41.669268], [-8.063184, 41.678264], [-8.068588, 41.687315], [-8.083327, 41.695661], [-8.095373, 41.693677], [-8.107539, 41.682885]], [[-8.095677, 41.671906], [-8.099949, 41.678558], [-8.095518, 41.683287], [-8.083496, 41.683761], [-8.078923, 41.678392], [-8.083662, 41.672045], [-8.095677, 41.671906]], [[-8.108461, 41.616049], [-8.103145, 41.624541], [-8.096263, 41.630059], [-8.084231, 41.631889], [-8.072289, 41.627484], [-8.06835, 41.624264], [-8.064107, 41.615222], [-8.066807, 41.606237], [-8.072666, 41.601131], [-8.084722, 41.597162], [-8.096703, 41.598482], [-8.107217, 41.606558], [-8.108461, 41.616049]]], [[[-8.361407, 41.52582], [-8.373545, 41.518245], [-8.381355, 41.50928], [-8.384714, 41.500291], [-8.385306, 41.482279], [-8.381723, 41.464245], [-8.374101, 41.452293], [-8.362206, 41.444388], [-8.350272, 41.440693], [-8.338311, 41.439726], [-8.326329, 41.440919], [-8.314315, 41.445044], [-8.302255, 41.45336], [-8.295229, 41.463747], [-8.293329, 41.481751], [-8.298798, 41.499799], [-8.303826, 41.508837], [-8.313523, 41.520095], [-8.32544, 41.526661], [-8.337396, 41.529612], [-8.349387, 41.529205], [-8.361407, 41.52582]], [[-8.361572, 41.50903], [-8.349538, 41.514142], [-8.337548, 41.514768], [-8.325597, 41.511522], [-8.31179, 41.499877], [-8.307506, 41.490844], [-8.306747, 41.481832], [-8.309689, 41.472843], [-8.31408, 41.467344], [-8.326135, 41.459631], [-8.338133, 41.45731], [-8.350095, 41.458393], [-8.362014, 41.463989], [-8.370476, 41.473191], [-8.373779, 41.482217], [-8.373868, 41.491225], [-8.370508, 41.500214], [-8.361572, 41.50903]]], [[[-8.61409, 41.177448], [-8.626858, 41.219071], [-8.638655, 41.243306], [-8.650519, 41.256367], [-8.677697, 41.276295], [-8.69029, 41.303352], [-8.701111, 41.312389], [-8.709939, 41.315939], [-8.72188, 41.317538], [-8.733834, 41.316106], [-8.744352, 41.312493], [-8.757071, 41.303513], [-8.77537, 41.285534], [-8.804549, 41.267607], [-8.799695, 41.14406], [-8.761441, 41.144912], [-8.77525, 41.159424], [-8.77988, 41.168441], [-8.783024, 41.186463], [-8.78175, 41.195468], [-8.773228, 41.213467], [-8.764799, 41.222458], [-8.751656, 41.231439], [-8.734148, 41.238731], [-8.710258, 41.243879], [-8.69832, 41.244669], [-8.686388, 41.244078], [-8.674466, 41.241574], [-8.662557, 41.236824], [-8.650671, 41.227918], [-8.645828, 41.222154], [-8.63664, 41.20411], [-8.63422, 41.191318], [-8.632526, 41.188624], [-8.625658, 41.186628], [-8.621132, 41.178994], [-8.61409, 41.177448]]]]}}, {"id": "6", "type": "Feature", "properties": {"fill": "#90a4bc", "value_min": 1.0, "value_max": -1.25}, "geometry": {"type": "MultiPolygon", "coordinates": [[[[-7.729956, 41.818078], [-7.744491, 41.816343], [-7.7611, 41.810507], [-7.772586, 41.801624], [-7.777697, 41.792672], [-7.779238, 41.783681], [-7.778084, 41.774662], [-7.774199, 41.765614], [-7.767069, 41.756531], [-7.754142, 41.746868], [-7.747812, 41.749995], [-7.747786, 41.754496], [-7.743866, 41.756509], [-7.742339, 41.760567], [-7.757463, 41.768059], [-7.762613, 41.774497], [-7.765041, 41.783529], [-7.76247, 41.792509], [-7.756875, 41.798539], [-7.744721, 41.804517], [-7.732659, 41.8058], [-7.72703, 41.804864], [-7.729956, 41.818078]]], [[[-7.955326, 41.785418], [-7.949771, 41.779439], [-7.937713, 41.780983], [-7.93471, 41.785228], [-7.935237, 41.79424], [-7.937468, 41.795835], [-7.949492, 41.796542], [-7.953784, 41.79441], [-7.955326, 41.785418]]], [[[-7.95903, 41.758431], [-7.950248, 41.750196], [-7.938195, 41.751729], [-7.933331, 41.758195], [-7.937909, 41.769089], [-7.949893, 41.771996], [-7.95468, 41.767398], [-7.95903, 41.758431]]], [[[-8.28725, 41.742922], [-8.280574, 41.751887], [-8.286976, 41.754323], [-8.291043, 41.751952], [-8.28725, 41.742922]]], [[[-7.914534, 41.728344], [-7.922403, 41.722065], [-7.924091, 41.713074], [-7.919773, 41.704027], [-7.915014, 41.699798], [-7.903076, 41.695093], [-7.891055, 41.695289], [-7.87766, 41.703623], [-7.872734, 41.712582], [-7.875902, 41.72162], [-7.890448, 41.73059], [-7.902447, 41.732054], [-7.914534, 41.728344]]], [[[-8.21692, 41.688422], [-8.203248, 41.688328], [-8.199167, 41.697307], [-8.203416, 41.702664], [-8.215425, 41.703426], [-8.222023, 41.697464], [-8.21692, 41.688422]]], [[[-8.119379, 41.695718], [-8.117384, 41.696708], [-8.11935, 41.697812], [-8.120276, 41.69673], [-8.119379, 41.695718]]], [[[-8.265515, 41.526155], [-8.271064, 41.517641], [-8.272363, 41.508642], [-8.269731, 41.499618], [-8.265879, 41.493916], [-8.254001, 41.485021], [-8.242057, 41.482026], [-8.230075, 41.482441], [-8.218044, 41.486813], [-8.213004, 41.490236], [-8.206573, 41.4992], [-8.20497, 41.508196], [-8.207435, 41.51722], [-8.217547, 41.528075], [-8.229468, 41.533615], [-8.241438, 41.535107], [-8.253446, 41.533374], [-8.265515, 41.526155]], [[-8.237059, 41.508413], [-8.241806, 41.503573], [-8.250167, 41.508499], [-8.241701, 41.512568], [-8.237059, 41.508413]]], [[[-8.122312, 41.479539], [-8.110341, 41.47906], [-8.10908, 41.480471], [-8.110293, 41.482583], [-8.122277, 41.48213], [-8.122312, 41.479539]]], [[[-8.661824, 41.378752], [-8.668265, 41.366345], [-8.667147, 41.357334], [-8.661547, 41.34831], [-8.650073, 41.339849], [-8.638144, 41.335786], [-8.626198, 41.334923], [-8.609923, 41.339139], [-8.598647, 41.348108], [-8.594765, 41.357102], [-8.595306, 41.366111], [-8.600317, 41.375137], [-8.61395, 41.38508], [-8.62589, 41.38867], [-8.637848, 41.389137], [-8.649824, 41.386475], [-8.661824, 41.378752]]], [[[-8.52462, 41.201198], [-8.521147, 41.203687], [-8.515456, 41.212671], [-8.514111, 41.221674], [-8.516543, 41.230692], [-8.523546, 41.239729], [-8.531233, 41.24505], [-8.543137, 41.249479], [-8.555065, 41.250562], [-8.567014, 41.248492], [-8.578988, 41.242495], [-8.587924, 41.230969], [-8.589935, 41.221968], [-8.587808, 41.212953], [-8.581753, 41.203923], [-8.577181, 41.200168], [-8.57423, 41.20462], [-8.568566, 41.204416], [-8.565895, 41.206227], [-8.567697, 41.208246], [-8.566512, 41.209376], [-8.559636, 41.206251], [-8.554271, 41.20627], [-8.549521, 41.209214], [-8.544157, 41.209458], [-8.54238, 41.211265], [-8.533747, 41.213097], [-8.529858, 41.210859], [-8.529539, 41.207259], [-8.52462, 41.201198]]]]}}, {"id": "4", "type": "Feature", "properties": {"fill": "#a3a3a3", "value_min": 0.5, "value_max": -0.75}, "geometry": {"type": "MultiPolygon", "coordinates": [[[[-8.20112, 41.808724], [-8.188989, 41.787305], [-8.17927, 41.778229], [-8.166472, 41.771296], [-8.154579, 41.760775], [-8.150619, 41.751], [-8.152354, 41.742006], [-8.166996, 41.730816], [-8.186169, 41.724236], [-8.186049, 41.715228], [-8.179605, 41.697169], [-8.178921, 41.688157], [-8.180798, 41.679163], [-8.191898, 41.662635], [-8.230724, 41.634472], [-8.23787, 41.625513], [-8.241397, 41.616529], [-8.241335, 41.607521], [-8.236471, 41.598482], [-8.22475, 41.589396], [-8.189817, 41.571141], [-8.169156, 41.562866], [-8.145224, 41.558809], [-8.097275, 41.557412], [-8.073495, 41.552286], [-8.076188, 41.557276], [-8.080082, 41.558854], [-8.081576, 41.565157], [-8.078879, 41.56493], [-8.075279, 41.568305], [-8.073182, 41.568079], [-8.069283, 41.570553], [-8.068081, 41.573478], [-8.056684, 41.579549], [-8.052181, 41.584498], [-8.052777, 41.587649], [-8.048277, 41.590122], [-8.047974, 41.592373], [-8.031467, 41.602938], [-8.02367, 41.603156], [-8.019174, 41.601802], [-8.015872, 41.603824], [-8.013474, 41.603372], [-8.005971, 41.60629], [-8.003562, 41.611239], [-7.998761, 41.612809], [-7.999669, 41.608759], [-7.996976, 41.605829], [-7.996684, 41.602003], [-7.984685, 41.603564], [-7.982292, 41.60086], [-7.975689, 41.603552], [-7.974482, 41.606701], [-7.970882, 41.607147], [-7.969091, 41.603768], [-7.965796, 41.602413], [-7.9541, 41.602846], [-7.952606, 41.600592], [-7.947808, 41.60081], [-7.945413, 41.599456], [-7.942725, 41.595625], [-7.936733, 41.594264], [-7.93791, 41.601694], [-7.937004, 41.603718], [-7.931604, 41.604384], [-7.930073, 41.614735], [-7.925556, 41.620354], [-7.920755, 41.620796], [-7.917857, 41.623942], [-7.963809, 41.654761], [-7.975735, 41.660048], [-7.987778, 41.657993], [-7.994847, 41.650666], [-8.012008, 41.644295], [-8.024018, 41.644182], [-8.037787, 41.651033], [-8.04144, 41.660071], [-8.035612, 41.671911], [-8.007001, 41.6868], [-8.014662, 41.695873], [-8.04015, 41.714102], [-8.052278, 41.732217], [-8.054516, 41.750249], [-8.052519, 41.75924], [-8.046168, 41.77053], [-8.039481, 41.777145], [-8.023684, 41.786019], [-7.974404, 41.803603], [-7.949299, 41.808375], [-7.937265, 41.80809], [-7.925294, 41.804079], [-7.916237, 41.794062], [-7.913598, 41.785031], [-7.911177, 41.757987], [-7.90796, 41.74895], [-7.902226, 41.745023], [-7.892847, 41.739798], [-7.866419, 41.729539], [-7.854435, 41.727274], [-7.806418, 41.72318], [-7.794287, 41.728972], [-7.790693, 41.738768], [-7.796628, 41.783865], [-7.793506, 41.801846], [-7.789093, 41.810806], [-7.780551, 41.81947], [-7.7684, 41.82521], [-7.740405, 41.831618], [-7.74729, 41.837772], [-7.746349, 41.84407], [-7.750246, 41.846784], [-7.750532, 41.849261], [-7.743309, 41.849012], [-7.746901, 41.8524], [-7.746881, 41.855776], [-7.73843, 41.859348], [-7.734159, 41.868337], [-7.730228, 41.871024], [-7.729293, 41.875972], [-7.722351, 41.878424], [-7.720523, 41.881793], [-7.725335, 41.882935], [-7.726208, 41.887665], [-7.737044, 41.888828], [-7.737935, 41.890857], [-7.74246, 41.889747], [-7.742785, 41.885922], [-7.756022, 41.888441], [-7.758719, 41.890926], [-7.756592, 41.89407], [-7.758376, 41.898127], [-7.764097, 41.898595], [-7.779227, 41.886264], [-7.785257, 41.885157], [-7.788886, 41.882467], [-7.794007, 41.882257], [-7.796739, 41.878214], [-7.794349, 41.87438], [-7.797064, 41.873488], [-7.803381, 41.874857], [-7.804914, 41.869459], [-7.813032, 41.871958], [-7.814229, 41.873537], [-7.823863, 41.874013], [-7.825059, 41.875817], [-7.830479, 41.875831], [-7.830789, 41.874031], [-7.832894, 41.874712], [-7.83772, 41.872924], [-7.842528, 41.875187], [-7.841663, 41.866632], [-7.848911, 41.86186], [-7.833262, 41.84729], [-7.823496, 41.829177], [-7.821789, 41.820153], [-7.822485, 41.793139], [-7.817327, 41.766066], [-7.818273, 41.757069], [-7.8231, 41.748112], [-7.839656, 41.739273], [-7.854268, 41.736704], [-7.86628, 41.737419], [-7.878237, 41.741325], [-7.890233, 41.74878], [-7.896383, 41.757846], [-7.896872, 41.766857], [-7.89361, 41.78484], [-7.897036, 41.79388], [-7.913065, 41.815413], [-7.925057, 41.818255], [-7.94916, 41.816899], [-7.973212, 41.818653], [-7.983322, 41.821696], [-7.998186, 41.830833], [-8.006916, 41.843296], [-8.007928, 41.838796], [-8.012753, 41.833624], [-8.013363, 41.829124], [-8.017873, 41.831379], [-8.02901, 41.829589], [-8.037134, 41.831171], [-8.041351, 41.828023], [-8.041054, 41.825097], [-8.045268, 41.824425], [-8.046775, 41.821951], [-8.056712, 41.81588], [-8.06664, 41.817012], [-8.072961, 41.813414], [-8.078678, 41.813417], [-8.082892, 41.810493], [-8.091013, 41.812521], [-8.093421, 41.811397], [-8.093723, 41.808471], [-8.101845, 41.809824], [-8.104853, 41.81185], [-8.115984, 41.812302], [-8.123807, 41.808702], [-8.138247, 41.808477], [-8.139751, 41.813203], [-8.14276, 41.812978], [-8.144866, 41.815228], [-8.149078, 41.814777], [-8.153291, 41.817703], [-8.158106, 41.818377], [-8.165326, 41.81815], [-8.173744, 41.808019], [-8.177655, 41.808242], [-8.183676, 41.812741], [-8.190291, 41.809587], [-8.196857, 41.814129], [-8.20112, 41.808724]], [[-8.142938, 41.731573], [-8.130868, 41.734951], [-8.118875, 41.732581], [-8.110328, 41.723674], [-8.112052, 41.71468], [-8.119157, 41.71194], [-8.131359, 41.698459], [-8.13692, 41.696856], [-8.143486, 41.690249], [-8.155472, 41.692626], [-8.164902, 41.70607], [-8.1643, 41.715072], [-8.155733, 41.724017], [-8.142938, 41.731573]], [[-8.107216, 41.706233], [-8.103341, 41.696599], [-8.119485, 41.687954], [-8.127309, 41.696783], [-8.119238, 41.706072], [-8.107216, 41.706233]], [[-8.107539, 41.682885], [-8.095373, 41.693677], [-8.083327, 41.695661], [-8.068588, 41.687315], [-8.063184, 41.678264], [-8.064513, 41.669268], [-8.072887, 41.651322], [-8.045803, 41.624079], [-8.041021, 41.615032], [-8.040335, 41.606019], [-8.043834, 41.597041], [-8.05374, 41.588116], [-8.060906, 41.584614], [-8.072948, 41.581487], [-8.084954, 41.580752], [-8.096935, 41.581853], [-8.108884, 41.58529], [-8.11524, 41.588606], [-8.124385, 41.597683], [-8.125885, 41.606702], [-8.121269, 41.615674], [-8.100902, 41.642537], [-8.099384, 41.651533], [-8.10987, 41.660621], [-8.116297, 41.669678], [-8.114227, 41.678669], [-8.107539, 41.682885]], [[-8.13208, 41.644845], [-8.128986, 41.642754], [-8.124852, 41.633715], [-8.132328, 41.626382], [-8.144318, 41.627435], [-8.151369, 41.633914], [-8.145819, 41.64288], [-8.13208, 41.644845]]], [[[-8.072937, 41.552098], [-8.072937, 41.552098], [-8.072896, 41.552083], [-8.072937, 41.552098]]], [[[-8.272391, 41.32536], [-8.277402, 41.346539], [-8.274924, 41.373546], [-8.266562, 41.391508], [-8.247186, 41.418406], [-8.245676, 41.427403], [-8.247474, 41.436423], [-8.257574, 41.454503], [-8.277968, 41.484106], [-8.285023, 41.499714], [-8.290161, 41.517761], [-8.297112, 41.56284], [-8.304291, 41.571891], [-8.312929, 41.576294], [-8.324906, 41.578043], [-8.348919, 41.575898], [-8.372985, 41.568072], [-8.385046, 41.56101], [-8.397146, 41.549429], [-8.405722, 41.536431], [-8.413464, 41.518456], [-8.412453, 41.509443], [-8.403606, 41.491383], [-8.401585, 41.482365], [-8.402756, 41.473363], [-8.406881, 41.464377], [-8.409957, 41.459112], [-8.422027, 41.448275], [-8.452302, 41.428573], [-8.460593, 41.419604], [-8.464196, 41.410614], [-8.460855, 41.392583], [-8.446639, 41.369598], [-8.434781, 41.358063], [-8.422895, 41.350175], [-8.410981, 41.345806], [-8.407015, 41.34728], [-8.396287, 41.374247], [-8.387738, 41.38321], [-8.374709, 41.388983], [-8.36273, 41.390843], [-8.350792, 41.388482], [-8.339637, 41.382944], [-8.332254, 41.373893], [-8.330136, 41.364873], [-8.331831, 41.355876], [-8.339264, 41.345666], [-8.351291, 41.338273], [-8.363288, 41.333546], [-8.375305, 41.331032], [-8.37201, 41.328346], [-8.361563, 41.329718], [-8.358276, 41.329049], [-8.357673, 41.327249], [-8.350207, 41.327264], [-8.346032, 41.328847], [-8.342462, 41.333131], [-8.333215, 41.336299], [-8.326363, 41.342163], [-8.324568, 41.341041], [-8.323376, 41.341943], [-8.320676, 41.338121], [-8.312604, 41.334983], [-8.313794, 41.333405], [-8.31139, 41.328007], [-8.307502, 41.325762], [-8.305116, 41.326891], [-8.303024, 41.325994], [-8.303615, 41.323742], [-8.301216, 41.319694], [-8.296431, 41.316774], [-8.297618, 41.313846], [-8.296116, 41.310022], [-8.281801, 41.316569], [-8.281808, 41.319721], [-8.278828, 41.321976], [-8.278238, 41.325128], [-8.272391, 41.32536]], [[-8.361407, 41.52582], [-8.349387, 41.529205], [-8.337396, 41.529612], [-8.32544, 41.526661], [-8.313523, 41.520095], [-8.303826, 41.508837], [-8.298798, 41.499799], [-8.293329, 41.481751], [-8.295229, 41.463747], [-8.302255, 41.45336], [-8.314315, 41.445044], [-8.326329, 41.440919], [-8.338311, 41.439726], [-8.350272, 41.440693], [-8.362206, 41.444388], [-8.374101, 41.452293], [-8.381723, 41.464245], [-8.385306, 41.482279], [-8.384714, 41.500291], [-8.381355, 41.50928], [-8.373545, 41.518245], [-8.361407, 41.52582]]], [[[-8.583583, 41.174195], [-8.5913, 41.181811], [-8.603114, 41.199839], [-8.6103, 41.222039], [-8.610987, 41.240057], [-8.604829, 41.276067], [-8.607327, 41.285084], [-8.616674, 41.294123], [-8.650221, 41.312218], [-8.67821, 41.330342], [-8.757458, 41.389286], [-8.810229, 41.421175], [-8.804549, 41.267607], [-8.77537, 41.285534], [-8.757071, 41.303513], [-8.744352, 41.312493], [-8.733834, 41.316106], [-8.72188, 41.317538], [-8.709939, 41.315939], [-8.701111, 41.312389], [-8.69029, 41.303352], [-8.677697, 41.276295], [-8.650519, 41.256367], [-8.638655, 41.243306], [-8.626858, 41.219071], [-8.61409, 41.177448], [-8.608583, 41.174095], [-8.609164, 41.172066], [-8.605845, 41.166228], [-8.602852, 41.164214], [-8.59422, 41.165149], [-8.589766, 41.167193], [-8.589194, 41.170572], [-8.583583, 41.174195]]], [[[-8.565465, 41.481738], [-8.57748, 41.476014], [-8.587339, 41.465166], [-8.589901, 41.456168], [-8.588708, 41.447156], [-8.583058, 41.438128], [-8.570322, 41.429074], [-8.553889, 41.423068], [-8.541933, 41.421581], [-8.529962, 41.422098], [-8.517971, 41.425391], [-8.511735, 41.42884], [-8.506232, 41.437824], [-8.506018, 41.446831], [-8.508479, 41.455849], [-8.514234, 41.464881], [-8.529565, 41.477149], [-8.541508, 41.481897], [-8.553476, 41.483373], [-8.565465, 41.481738]]]]}}, {"id": "5", "type": "Feature", "properties": {"fill": "#a3a3a3", "value_min": 0.75, "value_max": -1.0}, "geometry": {"type": "MultiPolygon", "coordinates": [[[[-8.20112, 41.808724], [-8.204973, 41.807372], [-8.205872, 41.804445], [-8.214593, 41.803089], [-8.214591, 41.801513], [-8.217598, 41.80016], [-8.217589, 41.793634], [-8.224207, 41.794303], [-8.229917, 41.791598], [-8.240744, 41.791588], [-8.24074, 41.789338], [-8.244347, 41.787984], [-8.245546, 41.785731], [-8.251257, 41.784375], [-8.251845, 41.777172], [-8.257551, 41.773564], [-8.261762, 41.774235], [-8.271366, 41.766346], [-8.280681, 41.764083], [-8.284038, 41.761109], [-8.284931, 41.757507], [-8.305674, 41.758152], [-8.311096, 41.762195], [-8.318308, 41.761283], [-8.325233, 41.765098], [-8.328234, 41.763292], [-8.336653, 41.763728], [-8.341756, 41.761468], [-8.344765, 41.762363], [-8.349267, 41.760103], [-8.352557, 41.755145], [-8.349814, 41.744122], [-8.352516, 41.743441], [-8.352203, 41.739616], [-8.357897, 41.735103], [-8.362407, 41.735994], [-8.368703, 41.73193], [-8.374122, 41.734845], [-8.384922, 41.73032], [-8.387032, 41.731891], [-8.393033, 41.729852], [-8.396942, 41.730518], [-8.400531, 41.726683], [-8.402934, 41.726452], [-8.404721, 41.722847], [-8.417349, 41.725067], [-8.422737, 41.720552], [-8.429643, 41.719859], [-8.430533, 41.717381], [-8.435927, 41.714441], [-8.441333, 41.714201], [-8.4446, 41.70654], [-8.453868, 41.697961], [-8.453255, 41.695487], [-8.461659, 41.694563], [-8.467939, 41.689593], [-8.478124, 41.685061], [-8.482012, 41.682123], [-8.484371, 41.674238], [-8.49308, 41.674886], [-8.499963, 41.671038], [-8.50927, 41.671233], [-8.51018, 41.672806], [-8.511967, 41.670324], [-8.509856, 41.668755], [-8.522103, 41.658811], [-8.525706, 41.659023], [-8.527769, 41.652714], [-8.534066, 41.652017], [-8.537355, 41.64998], [-8.537634, 41.646602], [-8.543876, 41.637352], [-8.543855, 41.633976], [-8.536342, 41.631977], [-8.535128, 41.62973], [-8.543431, 41.61462], [-8.554533, 41.615255], [-8.557244, 41.617046], [-8.562639, 41.61635], [-8.568056, 41.619031], [-8.570735, 41.616095], [-8.577321, 41.614269], [-8.581231, 41.615829], [-8.585766, 41.620988], [-8.591462, 41.620515], [-8.596534, 41.616668], [-8.601628, 41.615972], [-8.603996, 41.611686], [-8.613256, 41.606696], [-8.619881, 41.610269], [-8.621338, 41.604636], [-8.628833, 41.604378], [-8.636302, 41.600744], [-8.64075, 41.594422], [-8.645536, 41.593051], [-8.646744, 41.594171], [-8.649125, 41.591909], [-8.656622, 41.5921], [-8.660788, 41.588255], [-8.663794, 41.589141], [-8.665265, 41.585758], [-8.66948, 41.587989], [-8.684455, 41.586117], [-8.685608, 41.58071], [-8.697261, 41.576376], [-8.701703, 41.570277], [-8.707704, 41.570923], [-8.711586, 41.569327], [-8.716422, 41.573805], [-8.720316, 41.57356], [-8.725151, 41.577811], [-8.726633, 41.576003], [-8.734424, 41.575737], [-8.736564, 41.580228], [-8.738354, 41.579318], [-8.740778, 41.582006], [-8.74467, 41.581535], [-8.750711, 41.58623], [-8.756374, 41.582823], [-8.75635, 41.580347], [-8.762327, 41.578514], [-8.764443, 41.580303], [-8.767441, 41.580286], [-8.769874, 41.583874], [-8.768997, 41.58613], [-8.773228, 41.589482], [-8.775371, 41.593972], [-8.78556, 41.593464], [-8.797327, 41.600599], [-8.804218, 41.600109], [-8.80456, 41.604158], [-8.809434, 41.611332], [-8.828644, 41.609656], [-8.82839, 41.585633], [-8.818497, 41.554794], [-8.8221, 41.547542], [-8.821965, 41.534907], [-8.815926, 41.525624], [-8.81063, 41.5101], [-8.813279, 41.503483], [-8.812636, 41.496944], [-8.804699, 41.482068], [-8.798552, 41.474753], [-8.80154, 41.446836], [-8.806115, 41.43713], [-8.807354, 41.425915], [-8.810229, 41.421175], [-8.757458, 41.389286], [-8.67821, 41.330342], [-8.650221, 41.312218], [-8.616674, 41.294123], [-8.607327, 41.285084], [-8.604829, 41.276067], [-8.610987, 41.240057], [-8.6103, 41.222039], [-8.603114, 41.199839], [-8.5913, 41.181811], [-8.583583, 41.174195], [-8.582094, 41.177803], [-8.578825, 41.178941], [-8.581296, 41.191762], [-8.575958, 41.195609], [-8.577181, 41.200168], [-8.581753, 41.203923], [-8.587808, 41.212953], [-8.589935, 41.221968], [-8.587924, 41.230969], [-8.578988, 41.242495], [-8.567014, 41.248492], [-8.555065, 41.250562], [-8.543137, 41.249479], [-8.531233, 41.24505], [-8.523546, 41.239729], [-8.516543, 41.230692], [-8.514111, 41.221674], [-8.515456, 41.212671], [-8.521147, 41.203687], [-8.52462, 41.201198], [-8.523236, 41.200077], [-8.518471, 41.200543], [-8.51163, 41.203042], [-8.510456, 41.206197], [-8.505693, 41.207113], [-8.504239, 41.213646], [-8.500076, 41.21546], [-8.50308, 41.219502], [-8.502204, 41.222656], [-8.495642, 41.222227], [-8.495947, 41.223351], [-8.490894, 41.226294], [-8.487935, 41.230354], [-8.490331, 41.232373], [-8.489156, 41.235528], [-8.486181, 41.236888], [-8.484411, 41.240495], [-8.476346, 41.237818], [-8.475756, 41.23917], [-8.470986, 41.23941], [-8.471604, 41.243459], [-8.469227, 41.245267], [-8.463258, 41.244384], [-8.459989, 41.246644], [-8.454323, 41.246886], [-8.455541, 41.251834], [-8.452276, 41.25522], [-8.449891, 41.255452], [-8.449304, 41.257479], [-8.447812, 41.257258], [-8.449028, 41.261982], [-8.439785, 41.262907], [-8.438023, 41.268989], [-8.434745, 41.269673], [-8.432691, 41.277107], [-8.427032, 41.279372], [-8.429143, 41.284319], [-8.426171, 41.287028], [-8.426488, 41.291079], [-8.425013, 41.294909], [-8.422037, 41.296942], [-8.422647, 41.299867], [-8.407744, 41.304856], [-8.406262, 41.307335], [-8.403277, 41.307342], [-8.401801, 41.311398], [-8.399712, 41.311628], [-8.400316, 41.313202], [-8.396738, 41.314336], [-8.398835, 41.316131], [-8.393775, 41.31997], [-8.393489, 41.323122], [-8.391105, 41.324253], [-8.386325, 41.323588], [-8.380382, 41.331254], [-8.375305, 41.331032], [-8.363288, 41.333546], [-8.351291, 41.338273], [-8.339264, 41.345666], [-8.331831, 41.355876], [-8.330136, 41.364873], [-8.332254, 41.373893], [-8.339637, 41.382944], [-8.350792, 41.388482], [-8.36273, 41.390843], [-8.374709, 41.388983], [-8.387738, 41.38321], [-8.396287, 41.374247], [-8.407015, 41.34728], [-8.410981, 41.345806], [-8.422895, 41.350175], [-8.434781, 41.358063], [-8.446639, 41.369598], [-8.460855, 41.392583], [-8.464196, 41.410614], [-8.460593, 41.419604], [-8.452302, 41.428573], [-8.422027, 41.448275], [-8.409957, 41.459112], [-8.406881, 41.464377], [-8.402756, 41.473363], [-8.401585, 41.482365], [-8.403606, 41.491383], [-8.412453, 41.509443], [-8.413464, 41.518456], [-8.405722, 41.536431], [-8.397146, 41.549429], [-8.385046, 41.56101], [-8.372985, 41.568072], [-8.348919, 41.575898], [-8.324906, 41.578043], [-8.312929, 41.576294], [-8.304291, 41.571891], [-8.297112, 41.56284], [-8.290161, 41.517761], [-8.285023, 41.499714], [-8.277968, 41.484106], [-8.257574, 41.454503], [-8.247474, 41.436423], [-8.245676, 41.427403], [-8.247186, 41.418406], [-8.266562, 41.391508], [-8.274924, 41.373546], [-8.277402, 41.346539], [-8.272391, 41.32536], [-8.265709, 41.331221], [-8.269004, 41.336169], [-8.263339, 41.340902], [-8.262751, 41.345405], [-8.256483, 41.347663], [-8.255889, 41.349689], [-8.249622, 41.353072], [-8.251123, 41.356897], [-8.248141, 41.360052], [-8.248448, 41.364328], [-8.245461, 41.364781], [-8.244272, 41.368384], [-8.241287, 41.370413], [-8.224854, 41.370878], [-8.21738, 41.368182], [-8.214399, 41.373587], [-8.208127, 41.376968], [-8.199163, 41.377423], [-8.194677, 41.374275], [-8.191691, 41.376302], [-8.189299, 41.375403], [-8.184818, 41.376756], [-8.168382, 41.377438], [-8.164499, 41.38059], [-8.152544, 41.375866], [-8.151049, 41.37339], [-8.145073, 41.374742], [-8.139694, 41.377894], [-8.133418, 41.374292], [-8.125051, 41.375193], [-8.119672, 41.376768], [-8.119672, 41.378569], [-8.116683, 41.380144], [-8.117877, 41.385771], [-8.113992, 41.386896], [-8.112795, 41.390723], [-8.110105, 41.390947], [-8.108011, 41.393648], [-8.103827, 41.392972], [-8.105321, 41.394998], [-8.10263, 41.396123], [-8.10801, 41.398825], [-8.108606, 41.403102], [-8.104419, 41.406252], [-8.104119, 41.408728], [-8.101727, 41.409403], [-8.102025, 41.411204], [-8.092756, 41.411201], [-8.09126, 41.414352], [-8.079893, 41.41975], [-8.077503, 41.416597], [-8.070923, 41.41862], [-8.066739, 41.416142], [-8.061654, 41.417489], [-8.059852, 41.424916], [-8.055959, 41.429415], [-8.05745, 41.432793], [-8.056549, 41.436394], [-8.069999, 41.447206], [-8.068788, 41.462286], [-8.073872, 41.46499], [-8.074468, 41.468141], [-8.073564, 41.474668], [-8.066374, 41.482318], [-8.066069, 41.48817], [-8.072054, 41.490199], [-8.07175, 41.494925], [-8.078333, 41.49898], [-8.078332, 41.500331], [-8.093, 41.504613], [-8.089398, 41.519242], [-8.090594, 41.522169], [-8.093588, 41.52307], [-8.091487, 41.531173], [-8.097775, 41.536127], [-8.097774, 41.537927], [-8.106759, 41.543106], [-8.10616, 41.543782], [-8.101666, 41.542655], [-8.094175, 41.544904], [-8.087885, 41.542876], [-8.083389, 41.5449], [-8.081886, 41.550977], [-8.079489, 41.551876], [-8.074097, 41.549848], [-8.072896, 41.552083], [-8.072937, 41.552098], [-8.073495, 41.552286], [-8.097275, 41.557412], [-8.145224, 41.558809], [-8.169156, 41.562866], [-8.189817, 41.571141], [-8.22475, 41.589396], [-8.236471, 41.598482], [-8.241335, 41.607521], [-8.241397, 41.616529], [-8.23787, 41.625513], [-8.230724, 41.634472], [-8.191898, 41.662635], [-8.180798, 41.679163], [-8.178921, 41.688157], [-8.179605, 41.697169], [-8.186049, 41.715228], [-8.186169, 41.724236], [-8.166996, 41.730816], [-8.152354, 41.742006], [-8.150619, 41.751], [-8.154579, 41.760775], [-8.166472, 41.771296], [-8.17927, 41.778229], [-8.188989, 41.787305], [-8.20112, 41.808724]], [[-8.28725, 41.742922], [-8.291043, 41.751952], [-8.286976, 41.754323], [-8.280574, 41.751887], [-8.28725, 41.742922]], [[-8.21692, 41.688422], [-8.222023, 41.697464], [-8.215425, 41.703426], [-8.203416, 41.702664], [-8.199167, 41.697307], [-8.203248, 41.688328], [-8.21692, 41.688422]], [[-8.265515, 41.526155], [-8.253446, 41.533374], [-8.241438, 41.535107], [-8.229468, 41.533615], [-8.217547, 41.528075], [-8.207435, 41.51722], [-8.20497, 41.508196], [-8.206573, 41.4992], [-8.213004, 41.490236], [-8.218044, 41.486813], [-8.230075, 41.482441], [-8.242057, 41.482026], [-8.254001, 41.485021], [-8.265879, 41.493916], [-8.269731, 41.499618], [-8.272363, 41.508642], [-8.271064, 41.517641], [-8.265515, 41.526155]], [[-8.565465, 41.481738], [-8.553476, 41.483373], [-8.541508, 41.481897], [-8.529565, 41.477149], [-8.514234, 41.464881], [-8.508479, 41.455849], [-8.506018, 41.446831], [-8.506232, 41.437824], [-8.511735, 41.42884], [-8.517971, 41.425391], [-8.529962, 41.422098], [-8.541933, 41.421581], [-8.553889, 41.423068], [-8.570322, 41.429074], [-8.583058, 41.438128], [-8.588708, 41.447156], [-8.589901, 41.456168], [-8.587339, 41.465166], [-8.57748, 41.476014], [-8.565465, 41.481738]], [[-8.122312, 41.479539], [-8.122277, 41.48213], [-8.110293, 41.482583], [-8.10908, 41.480471], [-8.110341, 41.47906], [-8.122312, 41.479539]], [[-8.661824, 41.378752], [-8.649824, 41.386475], [-8.637848, 41.389137], [-8.62589, 41.38867], [-8.61395, 41.38508], [-8.600317, 41.375137], [-8.595306, 41.366111], [-8.594765, 41.357102], [-8.598647, 41.348108], [-8.609923, 41.339139], [-8.626198, 41.334923], [-8.638144, 41.335786], [-8.650073, 41.339849], [-8.661547, 41.34831], [-8.667147, 41.357334], [-8.668265, 41.366345], [-8.661824, 41.378752]]], [[[-7.740405, 41.831618], [-7.7684, 41.82521], [-7.780551, 41.81947], [-7.789093, 41.810806], [-7.793506, 41.801846], [-7.796628, 41.783865], [-7.790693, 41.738768], [-7.794287, 41.728972], [-7.806418, 41.72318], [-7.854435, 41.727274], [-7.866419, 41.729539], [-7.892847, 41.739798], [-7.902226, 41.745023], [-7.90796, 41.74895], [-7.911177, 41.757987], [-7.913598, 41.785031], [-7.916237, 41.794062], [-7.925294, 41.804079], [-7.937265, 41.80809], [-7.949299, 41.808375], [-7.974404, 41.803603], [-8.023684, 41.786019], [-8.039481, 41.777145], [-8.046168, 41.77053], [-8.052519, 41.75924], [-8.054516, 41.750249], [-8.052278, 41.732217], [-8.04015, 41.714102], [-8.014662, 41.695873], [-8.007001, 41.6868], [-8.035612, 41.671911], [-8.04144, 41.660071], [-8.037787, 41.651033], [-8.024018, 41.644182], [-8.012008, 41.644295], [-7.994847, 41.650666], [-7.987778, 41.657993], [-7.975735, 41.660048], [-7.963809, 41.654761], [-7.917857, 41.623942], [-7.915933, 41.627764], [-7.913229, 41.628885], [-7.912613, 41.63361], [-7.906014, 41.633147], [-7.906884, 41.641927], [-7.897869, 41.645511], [-7.89696, 41.647985], [-7.892759, 41.647976], [-7.892145, 41.651576], [-7.902319, 41.659925], [-7.899913, 41.66127], [-7.900198, 41.665547], [-7.898396, 41.665769], [-7.897186, 41.668467], [-7.892682, 41.668683], [-7.892377, 41.670033], [-7.888171, 41.670925], [-7.883969, 41.67069], [-7.880358, 41.673159], [-7.877044, 41.676077], [-7.876723, 41.681253], [-7.873401, 41.686198], [-7.868896, 41.686413], [-7.868008, 41.68326], [-7.864403, 41.683701], [-7.864096, 41.685276], [-7.858987, 41.68639], [-7.857773, 41.689538], [-7.854776, 41.68818], [-7.847538, 41.695365], [-7.837912, 41.698942], [-7.835792, 41.702763], [-7.839682, 41.705924], [-7.838465, 41.709522], [-7.832453, 41.710407], [-7.825252, 41.708813], [-7.818621, 41.713522], [-7.815291, 41.718689], [-7.808986, 41.717996], [-7.808396, 41.715744], [-7.804499, 41.714158], [-7.79939, 41.714593], [-7.79788, 41.716164], [-7.796383, 41.71526], [-7.790966, 41.717044], [-7.789449, 41.719966], [-7.78464, 41.720402], [-7.78252, 41.723546], [-7.776204, 41.724652], [-7.773786, 41.727346], [-7.770798, 41.72441], [-7.765698, 41.723044], [-7.761765, 41.727758], [-7.762933, 41.733839], [-7.759307, 41.737203], [-7.759597, 41.739005], [-7.75689, 41.739446], [-7.758687, 41.740577], [-7.757758, 41.745301], [-7.754142, 41.746868], [-7.767069, 41.756531], [-7.774199, 41.765614], [-7.778084, 41.774662], [-7.779238, 41.783681], [-7.777697, 41.792672], [-7.772586, 41.801624], [-7.7611, 41.810507], [-7.744491, 41.816343], [-7.729956, 41.818078], [-7.732041, 41.821514], [-7.743152, 41.825154], [-7.742839, 41.827178], [-7.738919, 41.828515], [-7.740405, 41.831618]], [[-7.955326, 41.785418], [-7.953784, 41.79441], [-7.949492, 41.796542], [-7.937468, 41.795835], [-7.935237, 41.79424], [-7.93471, 41.785228], [-7.937713, 41.780983], [-7.949771, 41.779439], [-7.955326, 41.785418]], [[-7.95903, 41.758431], [-7.95468, 41.767398], [-7.949893, 41.771996], [-7.937909, 41.769089], [-7.933331, 41.758195], [-7.938195, 41.751729], [-7.950248, 41.750196], [-7.95903, 41.758431]], [[-7.914534, 41.728344], [-7.902447, 41.732054], [-7.890448, 41.73059], [-7.875902, 41.72162], [-7.872734, 41.712582], [-7.87766, 41.703623], [-7.891055, 41.695289], [-7.903076, 41.695093], [-7.915014, 41.699798], [-7.919773, 41.704027], [-7.924091, 41.713074], [-7.922403, 41.722065], [-7.914534, 41.728344]]], [[[-8.107216, 41.706233], [-8.119238, 41.706072], [-8.127309, 41.696783], [-8.119485, 41.687954], [-8.103341, 41.696599], [-8.107216, 41.706233]], [[-8.119379, 41.695718], [-8.120276, 41.69673], [-8.11935, 41.697812], [-8.117384, 41.696708], [-8.119379, 41.695718]]], [[[-8.13208, 41.644845], [-8.145819, 41.64288], [-8.151369, 41.633914], [-8.144318, 41.627435], [-8.132328, 41.626382], [-8.124852, 41.633715], [-8.128986, 41.642754], [-8.13208, 41.644845]]]]}}, {"id": "7", "type": "Feature", "properties": {"fill": "#71a5e5", "value_min": 1.25, "value_max": -1.5}, "geometry": {"type": "MultiPolygon", "coordinates": [[[[-7.72703, 41.804864], [-7.732659, 41.8058], [-7.744721, 41.804517], [-7.756875, 41.798539], [-7.76247, 41.792509], [-7.765041, 41.783529], [-7.762613, 41.774497], [-7.757463, 41.768059], [-7.742339, 41.760567], [-7.739912, 41.764148], [-7.726937, 41.771755], [-7.7254, 41.777152], [-7.727191, 41.779184], [-7.724177, 41.780299], [-7.725372, 41.781653], [-7.722296, 41.792446], [-7.728879, 41.797871], [-7.72703, 41.804864]], [[-7.73294, 41.79152], [-7.726812, 41.783112], [-7.733233, 41.776624], [-7.745219, 41.778996], [-7.74795, 41.783344], [-7.745029, 41.788762], [-7.73294, 41.79152]]], [[[-8.237059, 41.508413], [-8.241701, 41.512568], [-8.250167, 41.508499], [-8.241806, 41.503573], [-8.237059, 41.508413]]]]}}, {"id": "8", "type": "Feature", "properties": {"fill": "#5093f6", "value_min": 1.5, "value_max": -1.75}, "geometry": {"type": "Polygon", "coordinates": [[[-7.73294, 41.79152], [-7.745029, 41.788762], [-7.74795, 41.783344], [-7.745219, 41.778996], [-7.733233, 41.776624], [-7.726812, 41.783112], [-7.73294, 41.79152]]]}}]}