{"type": "FeatureCollection", "features": [{"id": "0", "type": "Feature", "properties": {"fill": "#e57b10", "value_min": -1.75, "value_max": -1.5}, "geometry": {"type": "Polygon", "coordinates": [[[-8.722346, 41.207602], [-8.725121, 41.204355], [-8.727906, 41.195353], [-8.726514, 41.186342], [-8.720235, 41.177319], [-8.71058, 41.170855], [-8.698675, 41.167449], [-8.686754, 41.167398], [-8.674818, 41.170667], [-8.662852, 41.179339], [-8.658528, 41.186161], [-8.65669, 41.195163], [-8.658737, 41.204177], [-8.666077, 41.213207], [-8.674583, 41.218123], [-8.686498, 41.221119], [-8.698431, 41.220645], [-8.710378, 41.21685], [-8.716702, 41.213342], [-8.722346, 41.207602]]]}}, {"id": "1", "type": "Feature", "properties": {"fill": "#e19f31", "value_min": -1.5, "value_max": -1.25}, "geometry": {"type": "MultiPolygon", "coordinates": [[[[-8.386684, 41.387435], [-8.390743, 41.383225], [-8.394208, 41.374236], [-8.393052, 41.365222], [-8.386813, 41.356182], [-8.375088, 41.34939], [-8.363155, 41.347274], [-8.351188, 41.348661], [-8.339175, 41.354553], [-8.331177, 41.36488], [-8.329764, 41.373879], [-8.33283, 41.382904], [-8.338824, 41.389219], [-8.350724, 41.395362], [-8.362672, 41.396803], [-8.374654, 41.394695], [-8.386684, 41.387435]]], [[[-8.63165, 41.188403], [-8.634905, 41.204104], [-8.639638, 41.213127], [-8.647348, 41.222159], [-8.662428, 41.231212], [-8.674501, 41.234617], [-8.686428, 41.23581], [-8.710304, 41.233558], [-8.72225, 41.230309], [-8.740015, 41.222405], [-8.751905, 41.213423], [-8.76372, 41.195433], [-8.765341, 41.17742], [-8.762788, 41.168407], [-8.75765, 41.159388], [-8.749401, 41.150362], [-8.742308, 41.145333], [-8.674793, 41.146932], [-8.674849, 41.153767], [-8.672489, 41.15648], [-8.66117, 41.156307], [-8.662078, 41.158104], [-8.660313, 41.160813], [-8.657033, 41.160378], [-8.654961, 41.161963], [-8.653231, 41.169174], [-8.655366, 41.175467], [-8.647955, 41.180228], [-8.647696, 41.185181], [-8.640929, 41.196241], [-8.634946, 41.193341], [-8.63165, 41.188403]], [[-8.722346, 41.207602], [-8.716702, 41.213342], [-8.710378, 41.21685], [-8.698431, 41.220645], [-8.686498, 41.221119], [-8.674583, 41.218123], [-8.666077, 41.213207], [-8.658737, 41.204177], [-8.65669, 41.195163], [-8.658528, 41.186161], [-8.662852, 41.179339], [-8.674818, 41.170667], [-8.686754, 41.167398], [-8.698675, 41.167449], [-8.71058, 41.170855], [-8.720235, 41.177319], [-8.726514, 41.186342], [-8.727906, 41.195353], [-8.725121, 41.204355], [-8.722346, 41.207602]]]]}}, {"id": "6", "type": "Feature", "properties": {"fill": "#a3a3a3", "value_min": -0.25, "value_max": -0.0}, "geometry": {"type": "Polygon", "coordinates": [[[-8.657889, 41.366315], [-8.658316, 41.357308], [-8.652197, 41.348282], [-8.638109, 41.342185], [-8.626155, 41.342391], [-8.614172, 41.34761], [-8.607919, 41.357147], [-8.608624, 41.366158], [-8.614021, 41.373116], [-8.625945, 41.379022], [-8.637901, 41.379566], [-8.649882, 41.37563], [-8.657889, 41.366315]]]}}, {"id": "5", "type": "Feature", "properties": {"fill": "#a3a3a3", "value_min": -0.5, "value_max": -0.25}, "geometry": {"type": "MultiPolygon", "coordinates": [[[[-8.643725, 41.528407], [-8.64026, 41.519389], [-8.625177, 41.512584], [-8.613181, 41.514695], [-8.607179, 41.51928], [-8.604904, 41.52828], [-8.613038, 41.538801], [-8.625009, 41.541748], [-8.637015, 41.538658], [-8.643725, 41.528407]]], [[[-8.673733, 41.388886], [-8.679908, 41.384393], [-8.687, 41.375405], [-8.690256, 41.366406], [-8.68985, 41.357397], [-8.685756, 41.348379], [-8.678659, 41.339351], [-8.666219, 41.330308], [-8.650162, 41.323375], [-8.638224, 41.321234], [-8.626277, 41.320995], [-8.614318, 41.322772], [-8.602343, 41.327079], [-8.590342, 41.335313], [-8.581037, 41.348045], [-8.579011, 41.357045], [-8.579667, 41.366055], [-8.583189, 41.375076], [-8.590041, 41.383333], [-8.601948, 41.392003], [-8.61388, 41.397001], [-8.625829, 41.399393], [-8.637789, 41.399803], [-8.649759, 41.398419], [-8.66174, 41.39499], [-8.673733, 41.388886]], [[-8.657889, 41.366315], [-8.649882, 41.37563], [-8.637901, 41.379566], [-8.625945, 41.379022], [-8.614021, 41.373116], [-8.608624, 41.366158], [-8.607919, 41.357147], [-8.614172, 41.34761], [-8.626155, 41.342391], [-8.638109, 41.342185], [-8.652197, 41.348282], [-8.658316, 41.357308], [-8.657889, 41.366315]]]]}}, {"id": "2", "type": "Feature", "properties": {"fill": "#b6a27f", "value_min": -1.25, "value_max": -1.0}, "geometry": {"type": "MultiPolygon", "coordinates": [[[[-7.962039, 41.764915], [-7.965635, 41.75849], [-7.962245, 41.752129], [-7.960146, 41.749434], [-7.950348, 41.744072], [-7.938315, 41.744484], [-7.929737, 41.749155], [-7.923738, 41.758105], [-7.928923, 41.767161], [-7.937888, 41.770356], [-7.949912, 41.770793], [-7.960387, 41.76745], [-7.962039, 41.764915]]], [[[-8.395929, 41.679943], [-8.404733, 41.671534], [-8.405545, 41.662531], [-8.398603, 41.653488], [-8.384216, 41.64835], [-8.372192, 41.649904], [-8.366112, 41.653313], [-8.358648, 41.662279], [-8.359958, 41.672654], [-8.371877, 41.682287], [-8.38388, 41.683592], [-8.395929, 41.679943]]], [[[-8.035798, 41.65944], [-8.02392, 41.650642], [-8.012681, 41.659828], [-8.023661, 41.667821], [-8.035798, 41.65944]]], [[[-8.540619, 41.60765], [-8.550956, 41.600141], [-8.557049, 41.591157], [-8.558907, 41.582157], [-8.557342, 41.573143], [-8.552022, 41.564116], [-8.540991, 41.555158], [-8.52903, 41.55098], [-8.517041, 41.550712], [-8.505025, 41.554083], [-8.49078, 41.563861], [-8.484291, 41.572839], [-8.48203, 41.581836], [-8.483266, 41.590849], [-8.492652, 41.602826], [-8.504605, 41.608951], [-8.516584, 41.611966], [-8.52859, 41.611465], [-8.540619, 41.60765]]], [[[-8.361594, 41.506763], [-8.36763, 41.500198], [-8.371321, 41.491211], [-8.37134, 41.482203], [-8.368156, 41.473179], [-8.362008, 41.464571], [-8.350115, 41.456397], [-8.338164, 41.454195], [-8.326166, 41.456629], [-8.314097, 41.465749], [-8.30963, 41.472842], [-8.307459, 41.481837], [-8.308605, 41.490851], [-8.313183, 41.499886], [-8.325611, 41.510171], [-8.33756, 41.513591], [-8.349553, 41.512678], [-8.361594, 41.506763]]], [[[-8.680224, 41.47447], [-8.673331, 41.468982], [-8.661353, 41.469443], [-8.656374, 41.474401], [-8.658451, 41.483414], [-8.661271, 41.485279], [-8.673246, 41.485902], [-8.67811, 41.483471], [-8.680224, 41.47447]]], [[[-8.300917, 41.319469], [-8.294122, 41.328628], [-8.287846, 41.346604], [-8.287259, 41.364616], [-8.292945, 41.391674], [-8.302744, 41.407639], [-8.314599, 41.418018], [-8.326495, 41.424887], [-8.338431, 41.427942], [-8.350389, 41.428932], [-8.374366, 41.424754], [-8.39839, 41.415081], [-8.418072, 41.401382], [-8.431197, 41.383433], [-8.435271, 41.365437], [-8.432754, 41.34741], [-8.422889, 41.329345], [-8.411237, 41.31736], [-8.4018, 41.311027], [-8.399712, 41.311628], [-8.400018, 41.313428], [-8.396738, 41.314336], [-8.398835, 41.316131], [-8.393775, 41.31997], [-8.393489, 41.323122], [-8.391105, 41.324253], [-8.386325, 41.323588], [-8.380382, 41.331254], [-8.375305, 41.33104], [-8.37201, 41.328346], [-8.361563, 41.329718], [-8.358276, 41.329049], [-8.357673, 41.327249], [-8.350207, 41.327264], [-8.346032, 41.328847], [-8.342462, 41.333131], [-8.333215, 41.336299], [-8.326363, 41.342163], [-8.324568, 41.341041], [-8.323376, 41.341943], [-8.316788, 41.335876], [-8.313802, 41.336331], [-8.31139, 41.328007], [-8.307502, 41.325762], [-8.305116, 41.326891], [-8.303024, 41.325994], [-8.303615, 41.323742], [-8.300917, 41.319469]], [[-8.386684, 41.387435], [-8.374654, 41.394695], [-8.362672, 41.396803], [-8.350724, 41.395362], [-8.338824, 41.389219], [-8.33283, 41.382904], [-8.329764, 41.373879], [-8.331177, 41.36488], [-8.339175, 41.354553], [-8.351188, 41.348661], [-8.363155, 41.347274], [-8.375088, 41.34939], [-8.386813, 41.356182], [-8.393052, 41.365222], [-8.394208, 41.374236], [-8.390743, 41.383225], [-8.386684, 41.387435]]], [[[-8.58356, 41.174283], [-8.60235, 41.203996], [-8.61624, 41.231067], [-8.626734, 41.240926], [-8.638635, 41.246861], [-8.650553, 41.250126], [-8.66248, 41.251815], [-8.686352, 41.251646], [-8.734119, 41.245885], [-8.769948, 41.239018], [-8.802955, 41.227097], [-8.799695, 41.14406], [-8.742308, 41.145333], [-8.749401, 41.150362], [-8.75765, 41.159388], [-8.762788, 41.168407], [-8.765341, 41.17742], [-8.76372, 41.195433], [-8.751905, 41.213423], [-8.740015, 41.222405], [-8.72225, 41.230309], [-8.710304, 41.233558], [-8.686428, 41.23581], [-8.674501, 41.234617], [-8.662428, 41.231212], [-8.647348, 41.222159], [-8.639638, 41.213127], [-8.634905, 41.204104], [-8.63165, 41.188403], [-8.625658, 41.186628], [-8.621132, 41.178994], [-8.613374, 41.177451], [-8.608583, 41.174095], [-8.609164, 41.172066], [-8.605845, 41.166228], [-8.602852, 41.164214], [-8.59422, 41.165149], [-8.589766, 41.167193], [-8.589194, 41.170572], [-8.58356, 41.174283]]]]}}, {"id": "3", "type": "Feature", "properties": {"fill": "#a3a3a3", "value_min": -1.0, "value_max": -0.75}, "geometry": {"type": "Polygon", "coordinates": [[[-8.300917, 41.319469], [-8.296431, 41.316774], [-8.297618, 41.313846], [-8.296116, 41.310022], [-8.281801, 41.316569], [-8.279132, 41.324451], [-8.272266, 41.32536], [-8.265709, 41.331221], [-8.269004, 41.336169], [-8.263339, 41.340902], [-8.262751, 41.345405], [-8.256483, 41.347663], [-8.255889, 41.349689], [-8.249622, 41.353072], [-8.251123, 41.356897], [-8.248141, 41.360052], [-8.248448, 41.364328], [-8.245461, 41.364781], [-8.244272, 41.368384], [-8.239197, 41.371315], [-8.232024, 41.369971], [-8.224854, 41.370878], [-8.21738, 41.368182], [-8.214399, 41.373587], [-8.208127, 41.376968], [-8.199163, 41.377423], [-8.194677, 41.374275], [-8.191691, 41.376302], [-8.189299, 41.375403], [-8.184818, 41.376756], [-8.168382, 41.377438], [-8.164499, 41.38059], [-8.152544, 41.375866], [-8.151049, 41.37339], [-8.145073, 41.374742], [-8.139694, 41.377894], [-8.133418, 41.374292], [-8.125051, 41.375193], [-8.119672, 41.376768], [-8.119672, 41.378569], [-8.116683, 41.380144], [-8.117877, 41.385771], [-8.113992, 41.386896], [-8.112795, 41.390723], [-8.110105, 41.390947], [-8.108011, 41.393648], [-8.103827, 41.392972], [-8.105321, 41.394998], [-8.10263, 41.396123], [-8.10801, 41.398825], [-8.108606, 41.403102], [-8.104419, 41.406252], [-8.104119, 41.408728], [-8.101727, 41.409403], [-8.102025, 41.411204], [-8.092756, 41.411201], [-8.09126, 41.414352], [-8.079893, 41.41975], [-8.077503, 41.416597], [-8.070923, 41.41862], [-8.066739, 41.416142], [-8.061654, 41.417489], [-8.059852, 41.424916], [-8.055959, 41.429415], [-8.05745, 41.432793], [-8.056549, 41.436394], [-8.069999, 41.447206], [-8.068788, 41.462286], [-8.073872, 41.46499], [-8.074468, 41.468141], [-8.073564, 41.474668], [-8.066374, 41.482318], [-8.066069, 41.48817], [-8.072054, 41.490199], [-8.07175, 41.494925], [-8.078333, 41.49898], [-8.078332, 41.500331], [-8.093, 41.504613], [-8.089398, 41.519242], [-8.090594, 41.522169], [-8.093588, 41.52307], [-8.091487, 41.531173], [-8.097775, 41.536127], [-8.097774, 41.537927], [-8.106759, 41.543557], [-8.101666, 41.542655], [-8.094175, 41.544904], [-8.087885, 41.542876], [-8.083389, 41.5449], [-8.080687, 41.551651], [-8.074097, 41.549848], [-8.073494, 41.553449], [-8.075891, 41.554575], [-8.076188, 41.557276], [-8.079783, 41.558403], [-8.081576, 41.565157], [-8.078879, 41.56493], [-8.075279, 41.568305], [-8.073182, 41.568079], [-8.069283, 41.570553], [-8.068081, 41.573478], [-8.056684, 41.579549], [-8.052181, 41.584498], [-8.052777, 41.587649], [-8.037169, 41.600242], [-8.031467, 41.602938], [-8.02367, 41.603156], [-8.019174, 41.601802], [-8.015872, 41.603824], [-8.013474, 41.603372], [-8.005971, 41.60629], [-8.003562, 41.611239], [-7.99936, 41.61281], [-7.998462, 41.612359], [-7.999669, 41.608759], [-7.996976, 41.605829], [-7.996684, 41.602003], [-7.984685, 41.603564], [-7.982292, 41.60086], [-7.975689, 41.603552], [-7.974482, 41.606701], [-7.970882, 41.607147], [-7.969091, 41.603768], [-7.965796, 41.602413], [-7.9541, 41.602846], [-7.952606, 41.600592], [-7.947808, 41.60081], [-7.945413, 41.599456], [-7.942725, 41.595625], [-7.936132, 41.594488], [-7.93791, 41.601694], [-7.937004, 41.603718], [-7.931604, 41.604384], [-7.930979, 41.612711], [-7.925556, 41.620354], [-7.920755, 41.620796], [-7.917748, 41.623041], [-7.915933, 41.627764], [-7.913229, 41.628885], [-7.912613, 41.63361], [-7.906014, 41.633147], [-7.906884, 41.641927], [-7.897869, 41.645511], [-7.89696, 41.647985], [-7.892759, 41.647976], [-7.892145, 41.651576], [-7.902319, 41.659925], [-7.899913, 41.66127], [-7.900198, 41.665547], [-7.898396, 41.665769], [-7.897186, 41.668467], [-7.892682, 41.668683], [-7.892377, 41.670033], [-7.888171, 41.670925], [-7.883969, 41.67069], [-7.880358, 41.673159], [-7.877044, 41.676077], [-7.876723, 41.681253], [-7.873401, 41.686198], [-7.868896, 41.686413], [-7.868008, 41.68326], [-7.864403, 41.683701], [-7.864096, 41.685276], [-7.858987, 41.68639], [-7.857773, 41.689538], [-7.854776, 41.68818], [-7.847538, 41.695365], [-7.837912, 41.698942], [-7.835792, 41.702763], [-7.839682, 41.705924], [-7.838465, 41.709522], [-7.832453, 41.710407], [-7.825252, 41.708813], [-7.818621, 41.713522], [-7.815291, 41.718689], [-7.808986, 41.717996], [-7.808396, 41.715744], [-7.804499, 41.714158], [-7.79939, 41.714593], [-7.79788, 41.716164], [-7.796383, 41.71526], [-7.790966, 41.717044], [-7.789449, 41.719966], [-7.78464, 41.720402], [-7.78252, 41.723546], [-7.776204, 41.724652], [-7.773786, 41.727346], [-7.7678, 41.723276], [-7.763888, 41.724389], [-7.761765, 41.727758], [-7.762933, 41.733839], [-7.759307, 41.737203], [-7.759597, 41.739005], [-7.75689, 41.739446], [-7.758687, 41.740577], [-7.757758, 41.745301], [-7.748417, 41.749321], [-7.747786, 41.754496], [-7.743866, 41.756509], [-7.740214, 41.763924], [-7.726937, 41.771755], [-7.7254, 41.777152], [-7.727191, 41.779184], [-7.724177, 41.780299], [-7.725372, 41.781653], [-7.722296, 41.792446], [-7.728879, 41.797871], [-7.727026, 41.805517], [-7.728761, 41.816776], [-7.732041, 41.821514], [-7.743152, 41.825154], [-7.742839, 41.827178], [-7.738918, 41.82874], [-7.742196, 41.833928], [-7.74729, 41.837772], [-7.746349, 41.84407], [-7.750541, 41.847685], [-7.750532, 41.849261], [-7.743309, 41.849012], [-7.746901, 41.8524], [-7.746881, 41.855776], [-7.73843, 41.859348], [-7.734159, 41.868337], [-7.730228, 41.871024], [-7.729293, 41.875972], [-7.720533, 41.880218], [-7.720523, 41.881793], [-7.725335, 41.882935], [-7.726208, 41.887665], [-7.737044, 41.888828], [-7.73944, 41.891087], [-7.74246, 41.889747], [-7.742785, 41.885922], [-7.756022, 41.888441], [-7.758719, 41.890926], [-7.756592, 41.89407], [-7.758076, 41.897901], [-7.764097, 41.898595], [-7.779227, 41.886264], [-7.785257, 41.885157], [-7.788886, 41.882467], [-7.794007, 41.882257], [-7.796739, 41.878214], [-7.794349, 41.87438], [-7.797064, 41.873488], [-7.803381, 41.874857], [-7.804914, 41.869459], [-7.813032, 41.871958], [-7.814229, 41.873537], [-7.823863, 41.874013], [-7.825059, 41.875817], [-7.830479, 41.875831], [-7.830789, 41.874031], [-7.832894, 41.874712], [-7.83772, 41.872924], [-7.842528, 41.875187], [-7.841663, 41.866632], [-7.849515, 41.861475], [-7.858542, 41.862622], [-7.859456, 41.860148], [-7.864877, 41.859711], [-7.87033, 41.851395], [-7.873043, 41.850501], [-7.873066, 41.844875], [-7.879056, 41.85254], [-7.886268, 41.855932], [-7.888076, 41.855486], [-7.891675, 41.859094], [-7.900698, 41.861588], [-7.904318, 41.859795], [-7.907309, 41.865203], [-7.906095, 41.868126], [-7.910299, 41.871285], [-7.909985, 41.875111], [-7.915391, 41.879397], [-7.921118, 41.877833], [-7.928044, 41.87807], [-7.935283, 41.874707], [-7.937389, 41.87516], [-7.941618, 41.870891], [-7.951254, 41.871132], [-7.956367, 41.87339], [-7.956362, 41.875191], [-7.960878, 41.875648], [-7.962086, 41.874074], [-7.973828, 41.875216], [-7.987996, 41.869157], [-7.990123, 41.860157], [-7.995547, 41.858138], [-7.994047, 41.855211], [-7.996162, 41.851837], [-8.003089, 41.850494], [-8.005804, 41.847346], [-8.007928, 41.838796], [-8.012753, 41.833624], [-8.013363, 41.829124], [-8.017873, 41.831379], [-8.02901, 41.829589], [-8.037134, 41.831171], [-8.041351, 41.828023], [-8.041054, 41.825097], [-8.045268, 41.824425], [-8.047679, 41.821276], [-8.057314, 41.815656], [-8.06664, 41.817012], [-8.072961, 41.813414], [-8.078678, 41.813417], [-8.082892, 41.810493], [-8.091013, 41.812521], [-8.093421, 41.811397], [-8.093723, 41.808471], [-8.101845, 41.809824], [-8.104853, 41.81185], [-8.115984, 41.812302], [-8.123807, 41.808702], [-8.138247, 41.808477], [-8.139751, 41.813203], [-8.14276, 41.812978], [-8.144866, 41.815228], [-8.149078, 41.814777], [-8.153291, 41.817703], [-8.158106, 41.818377], [-8.165326, 41.81815], [-8.173744, 41.808019], [-8.177655, 41.808242], [-8.183676, 41.812741], [-8.190291, 41.809587], [-8.197158, 41.814129], [-8.201063, 41.808724], [-8.204973, 41.807372], [-8.205872, 41.804445], [-8.213692, 41.803765], [-8.217598, 41.80016], [-8.217589, 41.793634], [-8.224207, 41.794303], [-8.229917, 41.791598], [-8.240744, 41.791588], [-8.24074, 41.789338], [-8.244347, 41.787984], [-8.245546, 41.785731], [-8.251257, 41.784375], [-8.251845, 41.777172], [-8.257551, 41.773564], [-8.261762, 41.774235], [-8.271366, 41.766346], [-8.280681, 41.764083], [-8.284038, 41.761109], [-8.284931, 41.757507], [-8.305674, 41.758152], [-8.311096, 41.762195], [-8.318308, 41.761283], [-8.325233, 41.765098], [-8.328234, 41.763292], [-8.336653, 41.763728], [-8.341756, 41.761468], [-8.344765, 41.762363], [-8.349267, 41.760103], [-8.352557, 41.755145], [-8.349814, 41.744122], [-8.352516, 41.743441], [-8.352203, 41.739616], [-8.357897, 41.735103], [-8.362407, 41.735994], [-8.368703, 41.73193], [-8.374122, 41.734845], [-8.384922, 41.73032], [-8.387032, 41.731891], [-8.393033, 41.729852], [-8.396942, 41.730518], [-8.400531, 41.726683], [-8.402934, 41.726452], [-8.404721, 41.722847], [-8.417349, 41.725067], [-8.422737, 41.720552], [-8.429643, 41.719859], [-8.430533, 41.717381], [-8.435927, 41.714441], [-8.441333, 41.714201], [-8.4446, 41.70654], [-8.453868, 41.697961], [-8.453255, 41.695487], [-8.461659, 41.694563], [-8.467939, 41.689593], [-8.478124, 41.685061], [-8.482012, 41.682123], [-8.484371, 41.674238], [-8.49308, 41.674886], [-8.499963, 41.671038], [-8.50927, 41.671233], [-8.51018, 41.672806], [-8.511967, 41.670324], [-8.509856, 41.668755], [-8.522103, 41.658811], [-8.525706, 41.659023], [-8.527769, 41.652714], [-8.534066, 41.652017], [-8.537355, 41.64998], [-8.537634, 41.646602], [-8.543876, 41.637352], [-8.543855, 41.633976], [-8.536342, 41.631977], [-8.535128, 41.62973], [-8.543431, 41.61462], [-8.554533, 41.615255], [-8.557244, 41.617046], [-8.562639, 41.61635], [-8.568056, 41.619031], [-8.570735, 41.616095], [-8.577321, 41.614269], [-8.581231, 41.615829], [-8.585766, 41.620988], [-8.591462, 41.620515], [-8.596534, 41.616668], [-8.601628, 41.615972], [-8.603996, 41.611686], [-8.613256, 41.606696], [-8.619881, 41.610269], [-8.621338, 41.604636], [-8.628833, 41.604378], [-8.636302, 41.600744], [-8.64075, 41.594422], [-8.645536, 41.593051], [-8.646744, 41.594171], [-8.649125, 41.591909], [-8.656622, 41.5921], [-8.660788, 41.588255], [-8.663794, 41.589141], [-8.665265, 41.585758], [-8.66948, 41.587989], [-8.684455, 41.586117], [-8.685608, 41.58071], [-8.697261, 41.576376], [-8.701703, 41.570277], [-8.707704, 41.570923], [-8.712485, 41.569323], [-8.716422, 41.573805], [-8.720316, 41.57356], [-8.725151, 41.577811], [-8.726633, 41.576003], [-8.734424, 41.575737], [-8.736564, 41.580228], [-8.738354, 41.579318], [-8.740778, 41.582006], [-8.74467, 41.581535], [-8.750711, 41.58623], [-8.756374, 41.582823], [-8.75635, 41.580347], [-8.762327, 41.578514], [-8.764443, 41.580303], [-8.767441, 41.580286], [-8.769874, 41.583874], [-8.768997, 41.58613], [-8.773228, 41.589482], [-8.775371, 41.593972], [-8.78556, 41.593464], [-8.797327, 41.600599], [-8.804218, 41.600109], [-8.80456, 41.604158], [-8.809434, 41.611332], [-8.828644, 41.609656], [-8.82839, 41.585633], [-8.818497, 41.554794], [-8.8221, 41.547542], [-8.821965, 41.534907], [-8.815926, 41.525624], [-8.81063, 41.5101], [-8.813279, 41.503483], [-8.812636, 41.496944], [-8.804699, 41.482068], [-8.798552, 41.474753], [-8.80154, 41.446836], [-8.806115, 41.43713], [-8.807354, 41.425915], [-8.811202, 41.416419], [-8.802955, 41.227097], [-8.769948, 41.239018], [-8.734119, 41.245885], [-8.686352, 41.251646], [-8.66248, 41.251815], [-8.650553, 41.250126], [-8.638635, 41.246861], [-8.626734, 41.240926], [-8.61624, 41.231067], [-8.60235, 41.203996], [-8.58356, 41.174283], [-8.582094, 41.177803], [-8.578825, 41.178941], [-8.581296, 41.191762], [-8.575958, 41.195609], [-8.576894, 41.201908], [-8.574515, 41.202593], [-8.57423, 41.20462], [-8.567971, 41.204644], [-8.565895, 41.206227], [-8.567697, 41.208246], [-8.566512, 41.209376], [-8.559636, 41.206251], [-8.554271, 41.20627], [-8.549521, 41.209214], [-8.544157, 41.209458], [-8.54238, 41.211265], [-8.532257, 41.213102], [-8.52713, 41.203215], [-8.523236, 41.200077], [-8.51163, 41.203042], [-8.510456, 41.206197], [-8.506583, 41.206435], [-8.504239, 41.213646], [-8.500076, 41.21546], [-8.50308, 41.219502], [-8.502204, 41.222656], [-8.495642, 41.222227], [-8.495947, 41.223351], [-8.490894, 41.226294], [-8.487935, 41.230354], [-8.490331, 41.232373], [-8.489156, 41.235528], [-8.486181, 41.236888], [-8.484411, 41.240495], [-8.476346, 41.237818], [-8.475756, 41.23917], [-8.470986, 41.23941], [-8.471604, 41.243459], [-8.469227, 41.245267], [-8.463258, 41.244384], [-8.459989, 41.246644], [-8.454323, 41.246886], [-8.455541, 41.251834], [-8.452276, 41.25522], [-8.449891, 41.255452], [-8.449304, 41.257479], [-8.447812, 41.257258], [-8.449028, 41.261982], [-8.439785, 41.262907], [-8.438023, 41.268989], [-8.434745, 41.269673], [-8.432691, 41.277107], [-8.427032, 41.279372], [-8.429143, 41.284319], [-8.426171, 41.287028], [-8.426488, 41.291079], [-8.425013, 41.294909], [-8.422037, 41.296942], [-8.422647, 41.299867], [-8.407744, 41.304856], [-8.406262, 41.307335], [-8.402979, 41.307568], [-8.4018, 41.311027], [-8.411237, 41.31736], [-8.422889, 41.329345], [-8.432754, 41.34741], [-8.435271, 41.365437], [-8.431197, 41.383433], [-8.418072, 41.401382], [-8.39839, 41.415081], [-8.374366, 41.424754], [-8.350389, 41.428932], [-8.338431, 41.427942], [-8.326495, 41.424887], [-8.314599, 41.418018], [-8.302744, 41.407639], [-8.292945, 41.391674], [-8.287259, 41.364616], [-8.287846, 41.346604], [-8.294122, 41.328628], [-8.300917, 41.319469]], [[-7.937493, 41.794328], [-7.949583, 41.790969], [-7.950559, 41.794381], [-7.949513, 41.795252], [-7.937493, 41.794328]], [[-7.962039, 41.764915], [-7.960387, 41.76745], [-7.949912, 41.770793], [-7.937888, 41.770356], [-7.928923, 41.767161], [-7.923738, 41.758105], [-7.929737, 41.749155], [-7.938315, 41.744484], [-7.950348, 41.744072], [-7.960146, 41.749434], [-7.962245, 41.752129], [-7.965635, 41.75849], [-7.962039, 41.764915]], [[-8.005985, 41.740833], [-8.000251, 41.731776], [-8.010773, 41.724964], [-8.022716, 41.730236], [-8.024295, 41.731983], [-8.018715, 41.740942], [-8.010496, 41.743028], [-8.005985, 41.740833]], [[-7.890573, 41.723308], [-7.888121, 41.721739], [-7.887267, 41.712724], [-7.890812, 41.709441], [-7.902825, 41.709855], [-7.905985, 41.712903], [-7.904299, 41.721894], [-7.890573, 41.723308]], [[-8.107172, 41.709384], [-8.100918, 41.705587], [-8.099964, 41.696572], [-8.107438, 41.690161], [-8.119521, 41.685297], [-8.125114, 41.68776], [-8.130013, 41.696804], [-8.119205, 41.708488], [-8.107172, 41.709384]], [[-8.047064, 41.709957], [-8.043855, 41.705126], [-8.047183, 41.701881], [-8.059197, 41.702227], [-8.062213, 41.705278], [-8.059088, 41.709675], [-8.047064, 41.709957]], [[-8.395929, 41.679943], [-8.38388, 41.683592], [-8.371877, 41.682287], [-8.359958, 41.672654], [-8.358648, 41.662279], [-8.366112, 41.653313], [-8.372192, 41.649904], [-8.384216, 41.64835], [-8.398603, 41.653488], [-8.405545, 41.662531], [-8.404733, 41.671534], [-8.395929, 41.679943]], [[-8.035798, 41.65944], [-8.023661, 41.667821], [-8.012681, 41.659828], [-8.02392, 41.650642], [-8.035798, 41.65944]], [[-8.540619, 41.60765], [-8.52859, 41.611465], [-8.516584, 41.611966], [-8.504605, 41.608951], [-8.492652, 41.602826], [-8.483266, 41.590849], [-8.48203, 41.581836], [-8.484291, 41.572839], [-8.49078, 41.563861], [-8.505025, 41.554083], [-8.517041, 41.550712], [-8.52903, 41.55098], [-8.540991, 41.555158], [-8.552022, 41.564116], [-8.557342, 41.573143], [-8.558907, 41.582157], [-8.557049, 41.591157], [-8.550956, 41.600141], [-8.540619, 41.60765]], [[-8.660778, 41.579616], [-8.636786, 41.579605], [-8.624805, 41.576966], [-8.600885, 41.565443], [-8.588952, 41.55589], [-8.57281, 41.537173], [-8.553757, 41.501071], [-8.518357, 41.482913], [-8.508883, 41.473866], [-8.504667, 41.46484], [-8.50293, 41.455825], [-8.503959, 41.446822], [-8.507111, 41.437828], [-8.522207, 41.410869], [-8.524285, 41.40187], [-8.523571, 41.365837], [-8.525689, 41.34783], [-8.532538, 41.329843], [-8.542667, 41.316835], [-8.554679, 41.30732], [-8.578642, 41.296341], [-8.602566, 41.290447], [-8.662312, 41.284333], [-8.685016, 41.276315], [-8.710143, 41.270062], [-8.722084, 41.269514], [-8.734017, 41.270954], [-8.751977, 41.276479], [-8.766196, 41.285516], [-8.775256, 41.294542], [-8.781437, 41.303562], [-8.790152, 41.321593], [-8.795256, 41.339618], [-8.796249, 41.366643], [-8.790106, 41.384647], [-8.783856, 41.393643], [-8.77442, 41.402632], [-8.758939, 41.411609], [-8.745391, 41.416368], [-8.725865, 41.420542], [-8.649586, 41.430667], [-8.624587, 41.438271], [-8.611736, 41.447236], [-8.606114, 41.456225], [-8.603752, 41.465224], [-8.604341, 41.474234], [-8.612987, 41.48327], [-8.628081, 41.492328], [-8.6805, 41.519507], [-8.691882, 41.528546], [-8.697982, 41.53757], [-8.700584, 41.546584], [-8.698813, 41.555586], [-8.692939, 41.564578], [-8.680217, 41.573551], [-8.660778, 41.579616]], [[-8.241461, 41.53311], [-8.229497, 41.531181], [-8.220263, 41.526315], [-8.211716, 41.51725], [-8.20939, 41.508226], [-8.21154, 41.499234], [-8.220149, 41.490285], [-8.230036, 41.485693], [-8.24203, 41.484419], [-8.253978, 41.487014], [-8.259599, 41.490546], [-8.268666, 41.499611], [-8.271376, 41.508636], [-8.269704, 41.517633], [-8.265543, 41.52366], [-8.253469, 41.531331], [-8.241461, 41.53311]], [[-8.481286, 41.523481], [-8.468559, 41.518723], [-8.464016, 41.509695], [-8.469493, 41.499891], [-8.481515, 41.494897], [-8.493483, 41.496492], [-8.499105, 41.500846], [-8.502291, 41.509867], [-8.496931, 41.518851], [-8.493292, 41.520906], [-8.481286, 41.523481]], [[-8.361594, 41.506763], [-8.349553, 41.512678], [-8.33756, 41.513591], [-8.325611, 41.510171], [-8.313183, 41.499886], [-8.308605, 41.490851], [-8.307459, 41.481837], [-8.30963, 41.472842], [-8.314097, 41.465749], [-8.326166, 41.456629], [-8.338164, 41.454195], [-8.350115, 41.456397], [-8.362008, 41.464571], [-8.368156, 41.473179], [-8.37134, 41.482203], [-8.371321, 41.491211], [-8.36763, 41.500198], [-8.361594, 41.506763]], [[-8.421602, 41.496068], [-8.414597, 41.491439], [-8.409728, 41.484397], [-8.409769, 41.479858], [-8.413291, 41.473418], [-8.421853, 41.467907], [-8.433833, 41.467367], [-8.446292, 41.473581], [-8.450672, 41.48261], [-8.444933, 41.49159], [-8.433577, 41.496732], [-8.421602, 41.496068]], [[-8.680224, 41.47447], [-8.67811, 41.483471], [-8.673246, 41.485902], [-8.661271, 41.485279], [-8.658451, 41.483414], [-8.656374, 41.474401], [-8.661353, 41.469443], [-8.673331, 41.468982], [-8.680224, 41.47447]]]}}, {"id": "4", "type": "Feature", "properties": {"fill": "#a3a3a3", "value_min": -0.75, "value_max": -0.5}, "geometry": {"type": "MultiPolygon", "coordinates": [[[[-7.937493, 41.794328], [-7.949513, 41.795252], [-7.950559, 41.794381], [-7.949583, 41.790969], [-7.937493, 41.794328]]], [[[-8.005985, 41.740833], [-8.010496, 41.743028], [-8.018715, 41.740942], [-8.024295, 41.731983], [-8.022716, 41.730236], [-8.010773, 41.724964], [-8.000251, 41.731776], [-8.005985, 41.740833]]], [[[-7.890573, 41.723308], [-7.904299, 41.721894], [-7.905985, 41.712903], [-7.902825, 41.709855], [-7.890812, 41.709441], [-7.887267, 41.712724], [-7.888121, 41.721739], [-7.890573, 41.723308]]], [[[-8.107172, 41.709384], [-8.119205, 41.708488], [-8.130013, 41.696804], [-8.125114, 41.68776], [-8.119521, 41.685297], [-8.107438, 41.690161], [-8.099964, 41.696572], [-8.100918, 41.705587], [-8.107172, 41.709384]]], [[[-8.047064, 41.709957], [-8.059088, 41.709675], [-8.062213, 41.705278], [-8.059197, 41.702227], [-8.047183, 41.701881], [-8.043855, 41.705126], [-8.047064, 41.709957]]], [[[-8.660778, 41.579616], [-8.680217, 41.573551], [-8.692939, 41.564578], [-8.698813, 41.555586], [-8.700584, 41.546584], [-8.697982, 41.53757], [-8.691882, 41.528546], [-8.6805, 41.519507], [-8.628081, 41.492328], [-8.612987, 41.48327], [-8.604341, 41.474234], [-8.603752, 41.465224], [-8.606114, 41.456225], [-8.611736, 41.447236], [-8.624587, 41.438271], [-8.649586, 41.430667], [-8.725865, 41.420542], [-8.745391, 41.416368], [-8.758939, 41.411609], [-8.77442, 41.402632], [-8.783856, 41.393643], [-8.790106, 41.384647], [-8.796249, 41.366643], [-8.795256, 41.339618], [-8.790152, 41.321593], [-8.781437, 41.303562], [-8.775256, 41.294542], [-8.766196, 41.285516], [-8.751977, 41.276479], [-8.734017, 41.270954], [-8.722084, 41.269514], [-8.710143, 41.270062], [-8.685016, 41.276315], [-8.662312, 41.284333], [-8.602566, 41.290447], [-8.578642, 41.296341], [-8.554679, 41.30732], [-8.542667, 41.316835], [-8.532538, 41.329843], [-8.525689, 41.34783], [-8.523571, 41.365837], [-8.524285, 41.40187], [-8.522207, 41.410869], [-8.507111, 41.437828], [-8.503959, 41.446822], [-8.50293, 41.455825], [-8.504667, 41.46484], [-8.508883, 41.473866], [-8.518357, 41.482913], [-8.553757, 41.501071], [-8.57281, 41.537173], [-8.588952, 41.55589], [-8.600885, 41.565443], [-8.624805, 41.576966], [-8.636786, 41.579605], [-8.660778, 41.579616]], [[-8.643725, 41.528407], [-8.637015, 41.538658], [-8.625009, 41.541748], [-8.613038, 41.538801], [-8.604904, 41.52828], [-8.607179, 41.51928], [-8.613181, 41.514695], [-8.625177, 41.512584], [-8.64026, 41.519389], [-8.643725, 41.528407]], [[-8.673733, 41.388886], [-8.66174, 41.39499], [-8.649759, 41.398419], [-8.637789, 41.399803], [-8.625829, 41.399393], [-8.61388, 41.397001], [-8.601948, 41.392003], [-8.590041, 41.383333], [-8.583189, 41.375076], [-8.579667, 41.366055], [-8.579011, 41.357045], [-8.581037, 41.348045], [-8.590342, 41.335313], [-8.602343, 41.327079], [-8.614318, 41.322772], [-8.626277, 41.320995], [-8.638224, 41.321234], [-8.650162, 41.323375], [-8.666219, 41.330308], [-8.678659, 41.339351], [-8.685756, 41.348379], [-8.68985, 41.357397], [-8.690256, 41.366406], [-8.687, 41.375405], [-8.679908, 41.384393], [-8.673733, 41.388886]]], [[[-8.241461, 41.53311], [-8.253469, 41.531331], [-8.265543, 41.52366], [-8.269704, 41.517633], [-8.271376, 41.508636], [-8.268666, 41.499611], [-8.259599, 41.490546], [-8.253978, 41.487014], [-8.24203, 41.484419], [-8.230036, 41.485693], [-8.220149, 41.490285], [-8.21154, 41.499234], [-8.20939, 41.508226], [-8.211716, 41.51725], [-8.220263, 41.526315], [-8.229497, 41.531181], [-8.241461, 41.53311]]], [[[-8.481286, 41.523481], [-8.493292, 41.520906], [-8.496931, 41.518851], [-8.502291, 41.509867], [-8.499105, 41.500846], [-8.493483, 41.496492], [-8.481515, 41.494897], [-8.469493, 41.499891], [-8.464016, 41.509695], [-8.468559, 41.518723], [-8.481286, 41.523481]]], [[[-8.421602, 41.496068], [-8.433577, 41.496732], [-8.444933, 41.49159], [-8.450672, 41.48261], [-8.446292, 41.473581], [-8.433833, 41.467367], [-8.421853, 41.467907], [-8.413291, 41.473418], [-8.409769, 41.479858], [-8.409728, 41.484397], [-8.414597, 41.491439], [-8.421602, 41.496068]]]]}}]}