{"type": "FeatureCollection", "features": [{"id": "0", "type": "Feature", "properties": {"fill": "#c93e18", "value_min": -2.0, "value_max": -1.75}, "geometry": {"type": "Polygon", "coordinates": [[[-8.698467, 41.212695], [-8.711215, 41.204321], [-8.713506, 41.195319], [-8.709023, 41.186299], [-8.698614, 41.180638], [-8.686694, 41.18], [-8.673467, 41.186204], [-8.669138, 41.1952], [-8.67112, 41.204213], [-8.674633, 41.207904], [-8.685562, 41.213261], [-8.698467, 41.212695]]]}}, {"id": "3", "type": "Feature", "properties": {"fill": "#b6a27f", "value_min": -1.25, "value_max": -1.0}, "geometry": {"type": "MultiPolygon", "coordinates": [[[[-8.673794, 41.376524], [-8.678286, 41.366373], [-8.67753, 41.357364], [-8.672823, 41.348343], [-8.663982, 41.339309], [-8.65012, 41.331147], [-8.63819, 41.327412], [-8.626246, 41.326475], [-8.609872, 41.330131], [-8.595546, 41.339089], [-8.589288, 41.348075], [-8.586973, 41.357074], [-8.588201, 41.366086], [-8.59297, 41.375111], [-8.601999, 41.383551], [-8.613923, 41.38976], [-8.625867, 41.392667], [-8.637826, 41.393183], [-8.649797, 41.391443], [-8.665853, 41.384353], [-8.673794, 41.376524]], [[-8.630534, 41.384245], [-8.625917, 41.384037], [-8.613982, 41.37971], [-8.607555, 41.375162], [-8.601224, 41.366132], [-8.600281, 41.357121], [-8.604295, 41.348127], [-8.614216, 41.340131], [-8.626188, 41.336546], [-8.638138, 41.336848], [-8.650068, 41.340925], [-8.659779, 41.348305], [-8.664987, 41.357328], [-8.664994, 41.366335], [-8.659352, 41.375327], [-8.649851, 41.381453], [-8.637874, 41.384562], [-8.630534, 41.384245]]], [[[-8.633593, 41.190195], [-8.636178, 41.204108], [-8.640054, 41.213128], [-8.650678, 41.226557], [-8.662572, 41.233845], [-8.674488, 41.23721], [-8.686416, 41.238249], [-8.710293, 41.236012], [-8.727811, 41.231385], [-8.746991, 41.222421], [-8.758439, 41.213437], [-8.765974, 41.204445], [-8.770038, 41.195445], [-8.772108, 41.186441], [-8.769354, 41.16842], [-8.7646, 41.159403], [-8.749772, 41.145169], [-8.67527, 41.147484], [-8.676193, 41.146567], [-8.674793, 41.146932], [-8.674204, 41.147693], [-8.674259, 41.154422], [-8.686831, 41.151187], [-8.698752, 41.150497], [-8.710664, 41.151825], [-8.722566, 41.155549], [-8.734456, 41.162684], [-8.740461, 41.168359], [-8.746172, 41.177379], [-8.748669, 41.186393], [-8.748188, 41.1954], [-8.744737, 41.2044], [-8.737792, 41.213392], [-8.724974, 41.22237], [-8.710329, 41.227856], [-8.698387, 41.230125], [-8.686454, 41.230418], [-8.674531, 41.228487], [-8.662625, 41.223448], [-8.651469, 41.213163], [-8.646741, 41.204141], [-8.645094, 41.188569], [-8.640929, 41.196241], [-8.634946, 41.193341], [-8.633593, 41.190195]]], [[[-8.653252, 41.169174], [-8.66295, 41.160184], [-8.669707, 41.156718], [-8.66117, 41.156307], [-8.662078, 41.158104], [-8.660313, 41.160813], [-8.657033, 41.160378], [-8.654961, 41.161963], [-8.653252, 41.169174]]]]}}, {"id": "2", "type": "Feature", "properties": {"fill": "#e19f31", "value_min": -1.5, "value_max": -1.25}, "geometry": {"type": "MultiPolygon", "coordinates": [[[[-8.630534, 41.384245], [-8.637874, 41.384562], [-8.649851, 41.381453], [-8.659352, 41.375327], [-8.664994, 41.366335], [-8.664987, 41.357328], [-8.659779, 41.348305], [-8.650068, 41.340925], [-8.638138, 41.336848], [-8.626188, 41.336546], [-8.614216, 41.340131], [-8.604295, 41.348127], [-8.600281, 41.357121], [-8.601224, 41.366132], [-8.607555, 41.375162], [-8.613982, 41.37971], [-8.625917, 41.384037], [-8.630534, 41.384245]], [[-8.632112, 41.375243], [-8.625969, 41.37485], [-8.614172, 41.366176], [-8.613357, 41.357166], [-8.62613, 41.346682], [-8.638085, 41.346486], [-8.642394, 41.348252], [-8.652235, 41.35729], [-8.651701, 41.366296], [-8.638613, 41.375263], [-8.632112, 41.375243]]], [[[-8.645094, 41.188569], [-8.646741, 41.204141], [-8.651469, 41.213163], [-8.662625, 41.223448], [-8.674531, 41.228487], [-8.686454, 41.230418], [-8.698387, 41.230125], [-8.710329, 41.227856], [-8.724974, 41.22237], [-8.737792, 41.213392], [-8.744737, 41.2044], [-8.748188, 41.1954], [-8.748669, 41.186393], [-8.746172, 41.177379], [-8.740461, 41.168359], [-8.734456, 41.162684], [-8.722566, 41.155549], [-8.710664, 41.151825], [-8.698752, 41.150497], [-8.686831, 41.151187], [-8.674259, 41.154422], [-8.672489, 41.15648], [-8.669707, 41.156718], [-8.66295, 41.160184], [-8.653252, 41.169174], [-8.655366, 41.175467], [-8.647955, 41.180228], [-8.647696, 41.185181], [-8.645094, 41.188569]], [[-8.686491, 41.222657], [-8.674575, 41.219649], [-8.662686, 41.211674], [-8.65776, 41.204174], [-8.655897, 41.195161], [-8.657671, 41.186158], [-8.663441, 41.177167], [-8.674824, 41.169373], [-8.686761, 41.165952], [-8.698682, 41.165754], [-8.71059, 41.168662], [-8.722479, 41.176052], [-8.729456, 41.186349], [-8.730689, 41.19536], [-8.727953, 41.204361], [-8.720084, 41.213351], [-8.710369, 41.218771], [-8.698683, 41.222304], [-8.686491, 41.222657]]]]}}, {"id": "1", "type": "Feature", "properties": {"fill": "#e57b10", "value_min": -1.75, "value_max": -1.5}, "geometry": {"type": "MultiPolygon", "coordinates": [[[[-8.632112, 41.375243], [-8.638613, 41.375263], [-8.651701, 41.366296], [-8.652235, 41.35729], [-8.642394, 41.348252], [-8.638085, 41.346486], [-8.62613, 41.346682], [-8.613357, 41.357166], [-8.614172, 41.366176], [-8.625969, 41.37485], [-8.632112, 41.375243]]], [[[-8.686491, 41.222657], [-8.698683, 41.222304], [-8.710369, 41.218771], [-8.720084, 41.213351], [-8.727953, 41.204361], [-8.730689, 41.19536], [-8.729456, 41.186349], [-8.722479, 41.176052], [-8.71059, 41.168662], [-8.698682, 41.165754], [-8.686761, 41.165952], [-8.674824, 41.169373], [-8.663441, 41.177167], [-8.657671, 41.186158], [-8.655897, 41.195161], [-8.65776, 41.204174], [-8.662686, 41.211674], [-8.674575, 41.219649], [-8.686491, 41.222657]], [[-8.698467, 41.212695], [-8.685562, 41.213261], [-8.674633, 41.207904], [-8.67112, 41.204213], [-8.669138, 41.1952], [-8.673467, 41.186204], [-8.686694, 41.18], [-8.698614, 41.180638], [-8.709023, 41.186299], [-8.713506, 41.195319], [-8.711215, 41.204321], [-8.698467, 41.212695]]]]}}, {"id": "4", "type": "Feature", "properties": {"fill": "#a3a3a3", "value_min": -1.0, "value_max": -0.75}, "geometry": {"type": "MultiPolygon", "coordinates": [[[[-8.144133, 41.641437], [-8.148499, 41.633893], [-8.144305, 41.628435], [-8.132342, 41.625312], [-8.122865, 41.6337], [-8.128341, 41.642749], [-8.132083, 41.644643], [-8.144133, 41.641437]]], [[[-8.467667, 41.626807], [-8.462683, 41.617776], [-8.45656, 41.613617], [-8.444582, 41.610846], [-8.432556, 41.613562], [-8.426862, 41.617603], [-8.423027, 41.626591], [-8.426817, 41.635618], [-8.432323, 41.640107], [-8.444298, 41.643923], [-8.456321, 41.642116], [-8.464979, 41.635801], [-8.467667, 41.626807]]], [[[-8.105561, 41.542304], [-8.109472, 41.542507], [-8.121549, 41.535953], [-8.123961, 41.525622], [-8.112987, 41.516531], [-8.109841, 41.515557], [-8.097858, 41.515524], [-8.090201, 41.520368], [-8.090594, 41.522169], [-8.093588, 41.52307], [-8.09209, 41.524645], [-8.092385, 41.532749], [-8.095978, 41.534325], [-8.098073, 41.538152], [-8.105561, 41.542304]]], [[[-8.649741, 41.401915], [-8.661718, 41.399243], [-8.673705, 41.39434], [-8.68722, 41.384413], [-8.69312, 41.375422], [-8.694621, 41.366418], [-8.69268, 41.357405], [-8.678737, 41.339352], [-8.662093, 41.326836], [-8.650177, 41.32047], [-8.638254, 41.315936], [-8.626317, 41.314077], [-8.614367, 41.314531], [-8.602402, 41.317496], [-8.590416, 41.323526], [-8.582286, 41.330034], [-8.575298, 41.339016], [-8.571604, 41.34801], [-8.570651, 41.357014], [-8.572152, 41.366028], [-8.576532, 41.375052], [-8.583861, 41.384086], [-8.601923, 41.396037], [-8.61386, 41.400295], [-8.625811, 41.40243], [-8.649741, 41.401915]], [[-8.673794, 41.376524], [-8.665853, 41.384353], [-8.649797, 41.391443], [-8.637826, 41.393183], [-8.625867, 41.392667], [-8.613923, 41.38976], [-8.601999, 41.383551], [-8.59297, 41.375111], [-8.588201, 41.366086], [-8.586973, 41.357074], [-8.589288, 41.348075], [-8.595546, 41.339089], [-8.609872, 41.330131], [-8.626246, 41.326475], [-8.63819, 41.327412], [-8.65012, 41.331147], [-8.663982, 41.339309], [-8.672823, 41.348343], [-8.67753, 41.357364], [-8.678286, 41.366373], [-8.673794, 41.376524]]], [[[-8.61969, 41.178775], [-8.62527, 41.204073], [-8.632826, 41.222113], [-8.638722, 41.230979], [-8.650601, 41.240975], [-8.662512, 41.245444], [-8.67444, 41.246864], [-8.698315, 41.245745], [-8.7222, 41.242104], [-8.761397, 41.231459], [-8.779191, 41.222487], [-8.79091, 41.213501], [-8.801877, 41.199662], [-8.799695, 41.14406], [-8.749772, 41.145169], [-8.7646, 41.159403], [-8.769354, 41.16842], [-8.772108, 41.186441], [-8.770038, 41.195445], [-8.765974, 41.204445], [-8.758439, 41.213437], [-8.746991, 41.222421], [-8.727811, 41.231385], [-8.710293, 41.236012], [-8.686416, 41.238249], [-8.674488, 41.23721], [-8.662572, 41.233845], [-8.650678, 41.226557], [-8.640054, 41.213128], [-8.636178, 41.204108], [-8.633593, 41.190195], [-8.632526, 41.188624], [-8.625658, 41.186628], [-8.62263, 41.180113], [-8.61969, 41.178775]]]]}}, {"id": "5", "type": "Feature", "properties": {"fill": "#a3a3a3", "value_min": -0.75, "value_max": -0.5}, "geometry": {"type": "MultiPolygon", "coordinates": [[[[-8.480298, 41.646865], [-8.486188, 41.635898], [-8.485681, 41.626889], [-8.480835, 41.61786], [-8.468619, 41.606705], [-8.456664, 41.601263], [-8.444682, 41.599157], [-8.432677, 41.599782], [-8.420645, 41.603414], [-8.412701, 41.608525], [-8.406145, 41.617498], [-8.404911, 41.626499], [-8.408703, 41.635526], [-8.420247, 41.647842], [-8.432197, 41.654495], [-8.444178, 41.657899], [-8.456187, 41.658088], [-8.468222, 41.655064], [-8.480298, 41.646865]], [[-8.467667, 41.626807], [-8.464979, 41.635801], [-8.456321, 41.642116], [-8.444298, 41.643923], [-8.432323, 41.640107], [-8.426817, 41.635618], [-8.423027, 41.626591], [-8.426862, 41.617603], [-8.432556, 41.613562], [-8.444582, 41.610846], [-8.45656, 41.613617], [-8.462683, 41.617776], [-8.467667, 41.626807]]], [[[-8.156066, 41.647112], [-8.160938, 41.642991], [-8.164401, 41.634009], [-8.161818, 41.624984], [-8.156422, 41.619814], [-8.144484, 41.614892], [-8.132468, 41.615901], [-8.120375, 41.622525], [-8.112968, 41.633624], [-8.113642, 41.642636], [-8.120011, 41.649315], [-8.131961, 41.653725], [-8.143981, 41.652962], [-8.156066, 41.647112]], [[-8.144133, 41.641437], [-8.132083, 41.644643], [-8.128341, 41.642749], [-8.122865, 41.6337], [-8.132342, 41.625312], [-8.144305, 41.628435], [-8.148499, 41.633893], [-8.144133, 41.641437]]], [[[-8.082787, 41.548361], [-8.097326, 41.553742], [-8.109309, 41.554345], [-8.121337, 41.551671], [-8.133475, 41.543709], [-8.138447, 41.534739], [-8.137207, 41.525722], [-8.1287, 41.516651], [-8.10991, 41.510553], [-8.097937, 41.50979], [-8.0912, 41.510957], [-8.090201, 41.520368], [-8.097858, 41.515524], [-8.109841, 41.515557], [-8.112987, 41.516531], [-8.123961, 41.525622], [-8.121549, 41.535953], [-8.109472, 41.542507], [-8.105561, 41.542304], [-8.106459, 41.543782], [-8.101666, 41.542655], [-8.094475, 41.544904], [-8.087885, 41.542876], [-8.083389, 41.5449], [-8.082488, 41.548159], [-8.082661, 41.548276], [-8.082787, 41.548361]]], [[[-8.673623, 41.410709], [-8.697592, 41.402296], [-8.711436, 41.393484], [-8.719069, 41.384495], [-8.721675, 41.375494], [-8.720656, 41.366484], [-8.715963, 41.357465], [-8.695892, 41.339398], [-8.638363, 41.296149], [-8.626447, 41.291276], [-8.614505, 41.291088], [-8.590576, 41.297985], [-8.566594, 41.312066], [-8.557651, 41.320935], [-8.548277, 41.338914], [-8.546915, 41.356923], [-8.54883, 41.365939], [-8.558767, 41.383992], [-8.567994, 41.393035], [-8.581327, 41.402092], [-8.589895, 41.406572], [-8.613779, 41.414094], [-8.6377, 41.415875], [-8.673623, 41.410709]], [[-8.649741, 41.401915], [-8.625811, 41.40243], [-8.61386, 41.400295], [-8.601923, 41.396037], [-8.583861, 41.384086], [-8.576532, 41.375052], [-8.572152, 41.366028], [-8.570651, 41.357014], [-8.571604, 41.34801], [-8.575298, 41.339016], [-8.582286, 41.330034], [-8.590416, 41.323526], [-8.602402, 41.317496], [-8.614367, 41.314531], [-8.626317, 41.314077], [-8.638254, 41.315936], [-8.650177, 41.32047], [-8.662093, 41.326836], [-8.678737, 41.339352], [-8.69268, 41.357405], [-8.694621, 41.366418], [-8.69312, 41.375422], [-8.68722, 41.384413], [-8.673705, 41.39434], [-8.661718, 41.399243], [-8.649741, 41.401915]]], [[[-8.597252, 41.165137], [-8.613286, 41.204034], [-8.626715, 41.244228], [-8.638571, 41.258565], [-8.650491, 41.26175], [-8.662433, 41.260789], [-8.722161, 41.251325], [-8.781855, 41.246929], [-8.803622, 41.244058], [-8.801877, 41.199662], [-8.79091, 41.213501], [-8.779191, 41.222487], [-8.761397, 41.231459], [-8.7222, 41.242104], [-8.698315, 41.245745], [-8.67444, 41.246864], [-8.662512, 41.245444], [-8.650601, 41.240975], [-8.638722, 41.230979], [-8.632826, 41.222113], [-8.62527, 41.204073], [-8.61969, 41.178775], [-8.613374, 41.177451], [-8.608583, 41.174095], [-8.609164, 41.172066], [-8.604942, 41.164881], [-8.597252, 41.165137]]]]}}, {"id": "6", "type": "Feature", "properties": {"fill": "#a3a3a3", "value_min": -0.5, "value_max": -0.25}, "geometry": {"type": "MultiPolygon", "coordinates": [[[[-7.87706, 41.80885], [-7.865015, 41.809213], [-7.862805, 41.811559], [-7.864914, 41.814955], [-7.876941, 41.815666], [-7.879451, 41.811723], [-7.87706, 41.80885]]], [[[-8.077978, 41.566715], [-8.132124, 41.579727], [-8.134672, 41.588754], [-8.101557, 41.633535], [-8.09594, 41.653168], [-8.075297, 41.669356], [-8.071563, 41.678055], [-8.076204, 41.687377], [-8.083369, 41.692731], [-8.095369, 41.693934], [-8.106684, 41.687618], [-8.116568, 41.678687], [-8.119683, 41.673391], [-8.131681, 41.669795], [-8.155807, 41.667012], [-8.167872, 41.662858], [-8.17997, 41.656028], [-8.185506, 41.652175], [-8.193201, 41.643222], [-8.198128, 41.63425], [-8.199524, 41.625252], [-8.198048, 41.616235], [-8.193252, 41.607194], [-8.185363, 41.598131], [-8.157561, 41.579917], [-8.158468, 41.570916], [-8.16686, 41.552963], [-8.167807, 41.543962], [-8.166455, 41.534945], [-8.161454, 41.525901], [-8.150437, 41.516813], [-8.133871, 41.510948], [-8.109975, 41.505827], [-8.092402, 41.504184], [-8.0912, 41.510957], [-8.097937, 41.50979], [-8.10991, 41.510553], [-8.1287, 41.516651], [-8.137207, 41.525722], [-8.138447, 41.534739], [-8.133475, 41.543709], [-8.121337, 41.551671], [-8.109309, 41.554345], [-8.097326, 41.553742], [-8.082787, 41.548361], [-8.080687, 41.551651], [-8.074396, 41.549848], [-8.072897, 41.551197], [-8.076188, 41.557276], [-8.079783, 41.558403], [-8.082177, 41.563131], [-8.081576, 41.565157], [-8.078879, 41.56493], [-8.077978, 41.566715]], [[-8.156066, 41.647112], [-8.143981, 41.652962], [-8.131961, 41.653725], [-8.120011, 41.649315], [-8.113642, 41.642636], [-8.112968, 41.633624], [-8.120375, 41.622525], [-8.132468, 41.615901], [-8.144484, 41.614892], [-8.156422, 41.619814], [-8.161818, 41.624984], [-8.164401, 41.634009], [-8.160938, 41.642991], [-8.156066, 41.647112]]], [[[-8.091948, 41.504163], [-8.091948, 41.504163], [-8.091803, 41.504156], [-8.091948, 41.504163]]], [[[-8.082661, 41.548276], [-8.082661, 41.548276], [-8.082488, 41.548159], [-8.082661, 41.548276]]], [[[-8.529073, 41.652034], [-8.524327, 41.636062], [-8.508081, 41.61798], [-8.480699, 41.596908], [-8.468765, 41.588901], [-8.456815, 41.583221], [-8.432868, 41.57799], [-8.408875, 41.578131], [-8.394651, 41.581409], [-8.376001, 41.590317], [-8.366074, 41.59927], [-8.357533, 41.617237], [-8.357188, 41.626242], [-8.359734, 41.635263], [-8.365981, 41.644305], [-8.372202, 41.648839], [-8.38417, 41.653198], [-8.396104, 41.661272], [-8.404054, 41.67153], [-8.408, 41.673852], [-8.426078, 41.68065], [-8.469738, 41.689007], [-8.482012, 41.682123], [-8.484371, 41.674238], [-8.49308, 41.674886], [-8.499963, 41.671038], [-8.50927, 41.671233], [-8.51018, 41.672806], [-8.511967, 41.670324], [-8.509856, 41.668755], [-8.522103, 41.658811], [-8.525706, 41.659023], [-8.529073, 41.652034]], [[-8.480298, 41.646865], [-8.468222, 41.655064], [-8.456187, 41.658088], [-8.444178, 41.657899], [-8.432197, 41.654495], [-8.420247, 41.647842], [-8.408703, 41.635526], [-8.404911, 41.626499], [-8.406145, 41.617498], [-8.412701, 41.608525], [-8.420645, 41.603414], [-8.432677, 41.599782], [-8.444682, 41.599157], [-8.456664, 41.601263], [-8.468619, 41.606705], [-8.480835, 41.61786], [-8.485681, 41.626889], [-8.486188, 41.635898], [-8.480298, 41.646865]]], [[[-8.553688, 41.452497], [-8.548728, 41.456014], [-8.553651, 41.457876], [-8.55611, 41.456043], [-8.553688, 41.452497]]], [[[-8.580023, 41.179989], [-8.59124, 41.191452], [-8.602882, 41.213006], [-8.60503, 41.231029], [-8.599667, 41.249026], [-8.590815, 41.259627], [-8.578828, 41.267429], [-8.533048, 41.284806], [-8.518931, 41.293756], [-8.511676, 41.302733], [-8.50585, 41.320724], [-8.505286, 41.347744], [-8.510114, 41.374788], [-8.518198, 41.394602], [-8.530039, 41.411387], [-8.541924, 41.422877], [-8.553837, 41.430692], [-8.56577, 41.43601], [-8.589689, 41.439324], [-8.613636, 41.438078], [-8.673527, 41.429923], [-8.769284, 41.427431], [-8.808646, 41.424234], [-8.811211, 41.415789], [-8.803622, 41.244058], [-8.781855, 41.246929], [-8.722161, 41.251325], [-8.662433, 41.260789], [-8.650491, 41.26175], [-8.638571, 41.258565], [-8.626715, 41.244228], [-8.613286, 41.204034], [-8.597252, 41.165137], [-8.589766, 41.167193], [-8.589194, 41.170572], [-8.585925, 41.17171], [-8.582094, 41.177803], [-8.578825, 41.178964], [-8.579445, 41.179389], [-8.580023, 41.179989]], [[-8.673623, 41.410709], [-8.6377, 41.415875], [-8.613779, 41.414094], [-8.589895, 41.406572], [-8.581327, 41.402092], [-8.567994, 41.393035], [-8.558767, 41.383992], [-8.54883, 41.365939], [-8.546915, 41.356923], [-8.548277, 41.338914], [-8.557651, 41.320935], [-8.566594, 41.312066], [-8.590576, 41.297985], [-8.614505, 41.291088], [-8.626447, 41.291276], [-8.638363, 41.296149], [-8.695892, 41.339398], [-8.715963, 41.357465], [-8.720656, 41.366484], [-8.721675, 41.375494], [-8.719069, 41.384495], [-8.711436, 41.393484], [-8.697592, 41.402296], [-8.673623, 41.410709]], [[-8.745685, 41.340832], [-8.721799, 41.33673], [-8.709865, 41.332681], [-8.689141, 41.321365], [-8.678153, 41.312327], [-8.67091, 41.303299], [-8.667262, 41.29428], [-8.667767, 41.285274], [-8.674293, 41.276285], [-8.686269, 41.268957], [-8.710176, 41.26243], [-8.722118, 41.261398], [-8.745987, 41.263172], [-8.763019, 41.267494], [-8.769837, 41.270649], [-8.780934, 41.276537], [-8.79175, 41.285565], [-8.798507, 41.294585], [-8.801865, 41.303599], [-8.802241, 41.312607], [-8.799319, 41.32161], [-8.791183, 41.330603], [-8.781558, 41.336028], [-8.769169, 41.339569], [-8.745685, 41.340832]]], [[[-8.19252, 41.375852], [-8.191886, 41.382001], [-8.196022, 41.391037], [-8.207129, 41.399522], [-8.219054, 41.402681], [-8.231028, 41.401767], [-8.243064, 41.395421], [-8.246663, 41.39138], [-8.249975, 41.382394], [-8.248451, 41.373377], [-8.24427, 41.367177], [-8.239197, 41.371315], [-8.232024, 41.369971], [-8.224854, 41.370878], [-8.21738, 41.368182], [-8.214399, 41.373587], [-8.208127, 41.376968], [-8.199163, 41.377423], [-8.194976, 41.374275], [-8.19252, 41.375852]]]]}}, {"id": "11", "type": "Feature", "properties": {"fill": "#a3a3a3", "value_min": 0.75, "value_max": -1.0}, "geometry": {"type": "MultiPolygon", "coordinates": [[[[-8.023847, 41.65554], [-8.018332, 41.659876], [-8.023721, 41.663868], [-8.029574, 41.659971], [-8.023847, 41.65554]]], [[[-8.381282, 41.374167], [-8.378094, 41.365143], [-8.374963, 41.362409], [-8.363044, 41.358672], [-8.351061, 41.36139], [-8.346559, 41.364968], [-8.343014, 41.373955], [-8.347778, 41.38299], [-8.350826, 41.385089], [-8.36276, 41.387707], [-8.376512, 41.383149], [-8.381282, 41.374167]]]]}}, {"id": "7", "type": "Feature", "properties": {"fill": "#a3a3a3", "value_min": -0.25, "value_max": -0.0}, "geometry": {"type": "MultiPolygon", "coordinates": [[[[-8.529073, 41.652034], [-8.534066, 41.652017], [-8.537355, 41.64998], [-8.537634, 41.646602], [-8.543876, 41.637352], [-8.543855, 41.633976], [-8.536342, 41.631977], [-8.535132, 41.630406], [-8.543431, 41.61462], [-8.554533, 41.615255], [-8.557244, 41.617046], [-8.562639, 41.61635], [-8.568056, 41.619031], [-8.570735, 41.616095], [-8.577321, 41.614269], [-8.581231, 41.615829], [-8.585766, 41.620988], [-8.591462, 41.620515], [-8.596534, 41.616668], [-8.601628, 41.615972], [-8.603996, 41.611686], [-8.613256, 41.606696], [-8.619881, 41.610269], [-8.621338, 41.604636], [-8.628833, 41.604378], [-8.636302, 41.600744], [-8.64075, 41.594422], [-8.645536, 41.593051], [-8.646744, 41.594171], [-8.649125, 41.591909], [-8.656622, 41.5921], [-8.660788, 41.588255], [-8.663794, 41.589141], [-8.665265, 41.585758], [-8.66948, 41.587989], [-8.684455, 41.586117], [-8.685608, 41.58071], [-8.697261, 41.576376], [-8.701703, 41.570277], [-8.707704, 41.570923], [-8.712485, 41.569323], [-8.716422, 41.573805], [-8.720316, 41.57356], [-8.725151, 41.577811], [-8.726633, 41.576003], [-8.734424, 41.575737], [-8.736564, 41.580228], [-8.738354, 41.579318], [-8.740778, 41.582006], [-8.74467, 41.581535], [-8.750711, 41.58623], [-8.756374, 41.582823], [-8.75635, 41.580347], [-8.762327, 41.578514], [-8.764443, 41.580303], [-8.767441, 41.580286], [-8.769874, 41.583874], [-8.768997, 41.58613], [-8.773228, 41.589482], [-8.775371, 41.593972], [-8.78556, 41.593464], [-8.797327, 41.600599], [-8.804218, 41.600109], [-8.80456, 41.604158], [-8.809434, 41.611332], [-8.828644, 41.609656], [-8.82839, 41.585633], [-8.818497, 41.554794], [-8.8221, 41.547542], [-8.821965, 41.534907], [-8.815926, 41.525624], [-8.81063, 41.5101], [-8.813279, 41.503483], [-8.812636, 41.496944], [-8.804699, 41.482068], [-8.798552, 41.474753], [-8.80154, 41.446836], [-8.806115, 41.43713], [-8.808646, 41.424234], [-8.769284, 41.427431], [-8.673527, 41.429923], [-8.613636, 41.438078], [-8.589689, 41.439324], [-8.56577, 41.43601], [-8.553837, 41.430692], [-8.541924, 41.422877], [-8.530039, 41.411387], [-8.518198, 41.394602], [-8.510114, 41.374788], [-8.505286, 41.347744], [-8.50585, 41.320724], [-8.511676, 41.302733], [-8.518931, 41.293756], [-8.533048, 41.284806], [-8.578828, 41.267429], [-8.590815, 41.259627], [-8.599667, 41.249026], [-8.60503, 41.231029], [-8.602882, 41.213006], [-8.59124, 41.191452], [-8.580023, 41.179989], [-8.581296, 41.191762], [-8.575958, 41.195609], [-8.577183, 41.200557], [-8.575383, 41.202364], [-8.579229, 41.204964], [-8.584512, 41.212941], [-8.586585, 41.221957], [-8.584309, 41.230956], [-8.576358, 41.239935], [-8.567039, 41.244783], [-8.55509, 41.246909], [-8.543162, 41.245897], [-8.531258, 41.241571], [-8.519438, 41.230704], [-8.516349, 41.221683], [-8.517911, 41.212682], [-8.526286, 41.202543], [-8.523236, 41.200077], [-8.518471, 41.200543], [-8.51163, 41.203042], [-8.510456, 41.206197], [-8.505693, 41.207113], [-8.504239, 41.213646], [-8.500076, 41.21546], [-8.50308, 41.219502], [-8.502204, 41.222656], [-8.495642, 41.222227], [-8.495947, 41.223351], [-8.490894, 41.226294], [-8.487935, 41.230354], [-8.490331, 41.232373], [-8.489156, 41.235528], [-8.486181, 41.236888], [-8.484411, 41.240495], [-8.476346, 41.237818], [-8.475756, 41.23917], [-8.470986, 41.23941], [-8.471604, 41.243459], [-8.469227, 41.245267], [-8.463258, 41.244384], [-8.459989, 41.246644], [-8.454323, 41.246886], [-8.455541, 41.251834], [-8.452276, 41.25522], [-8.449891, 41.255452], [-8.449304, 41.257479], [-8.447812, 41.257258], [-8.449028, 41.261982], [-8.439785, 41.262907], [-8.438023, 41.268989], [-8.434745, 41.269673], [-8.432691, 41.277107], [-8.427032, 41.279372], [-8.429143, 41.284319], [-8.426171, 41.287028], [-8.425606, 41.294007], [-8.422037, 41.296942], [-8.421513, 41.30077], [-8.439579, 41.32042], [-8.449276, 41.338482], [-8.455074, 41.365533], [-8.453233, 41.383539], [-8.44557, 41.401518], [-8.434283, 41.415539], [-8.422235, 41.424824], [-8.410213, 41.430805], [-8.398209, 41.434666], [-8.374245, 41.437273], [-8.338358, 41.435138], [-8.314476, 41.429732], [-8.302568, 41.424068], [-8.296031, 41.418715], [-8.28978, 41.409669], [-8.286576, 41.400642], [-8.275512, 41.324906], [-8.269582, 41.326939], [-8.265709, 41.331221], [-8.269004, 41.336169], [-8.263339, 41.340902], [-8.262751, 41.345405], [-8.256483, 41.347663], [-8.255889, 41.349689], [-8.249622, 41.353072], [-8.251123, 41.356897], [-8.248141, 41.360052], [-8.248448, 41.364328], [-8.245461, 41.364781], [-8.24427, 41.367177], [-8.248451, 41.373377], [-8.249975, 41.382394], [-8.246663, 41.39138], [-8.243064, 41.395421], [-8.231028, 41.401767], [-8.219054, 41.402681], [-8.207129, 41.399522], [-8.196022, 41.391037], [-8.191886, 41.382001], [-8.19252, 41.375852], [-8.169578, 41.377212], [-8.164499, 41.38059], [-8.152544, 41.375866], [-8.151049, 41.37339], [-8.145073, 41.374742], [-8.139694, 41.377894], [-8.133418, 41.374292], [-8.119672, 41.376768], [-8.119672, 41.378569], [-8.116683, 41.380144], [-8.117578, 41.386447], [-8.113992, 41.386896], [-8.112795, 41.390723], [-8.110105, 41.390947], [-8.108011, 41.393648], [-8.103827, 41.392972], [-8.105321, 41.394998], [-8.10263, 41.396123], [-8.10801, 41.398825], [-8.108606, 41.403102], [-8.101727, 41.410328], [-8.123181, 41.415048], [-8.135085, 41.41963], [-8.162348, 41.435834], [-8.171894, 41.444911], [-8.178074, 41.453963], [-8.180543, 41.462988], [-8.18033, 41.471994], [-8.177623, 41.480982], [-8.170668, 41.489939], [-8.156795, 41.498845], [-8.133977, 41.502999], [-8.110033, 41.501536], [-8.09295, 41.49836], [-8.071754, 41.490439], [-8.07175, 41.494925], [-8.078333, 41.49898], [-8.078332, 41.500331], [-8.091803, 41.504156], [-8.091948, 41.504163], [-8.092402, 41.504184], [-8.109975, 41.505827], [-8.133871, 41.510948], [-8.150437, 41.516813], [-8.161454, 41.525901], [-8.166455, 41.534945], [-8.167807, 41.543962], [-8.16686, 41.552963], [-8.158468, 41.570916], [-8.157561, 41.579917], [-8.185363, 41.598131], [-8.193252, 41.607194], [-8.198048, 41.616235], [-8.199524, 41.625252], [-8.198128, 41.63425], [-8.193201, 41.643222], [-8.185506, 41.652175], [-8.17997, 41.656028], [-8.167872, 41.662858], [-8.155807, 41.667012], [-8.131681, 41.669795], [-8.119683, 41.673391], [-8.116568, 41.678687], [-8.106684, 41.687618], [-8.095369, 41.693934], [-8.083369, 41.692731], [-8.076204, 41.687377], [-8.071563, 41.678055], [-8.075297, 41.669356], [-8.09594, 41.653168], [-8.101557, 41.633535], [-8.134672, 41.588754], [-8.132124, 41.579727], [-8.077978, 41.566715], [-8.073182, 41.568079], [-8.069283, 41.570553], [-8.068081, 41.573478], [-8.056684, 41.579549], [-8.052181, 41.584498], [-8.052777, 41.587649], [-8.03807, 41.598923], [-8.060552, 41.609029], [-8.066451, 41.606234], [-8.084647, 41.602527], [-8.096595, 41.606211], [-8.100005, 41.615509], [-8.096376, 41.621949], [-8.091252, 41.624447], [-8.084299, 41.627129], [-8.072285, 41.627781], [-8.068841, 41.633275], [-8.067832, 41.651281], [-8.057488, 41.678218], [-8.057759, 41.687227], [-8.072764, 41.705363], [-8.078706, 41.723425], [-8.082834, 41.730336], [-8.094721, 41.740091], [-8.106694, 41.743931], [-8.118749, 41.74185], [-8.130884, 41.733745], [-8.140481, 41.723904], [-8.131068, 41.720122], [-8.12853, 41.714807], [-8.131259, 41.705939], [-8.143585, 41.705913], [-8.149294, 41.714962], [-8.155135, 41.718327], [-8.16716, 41.718095], [-8.17916, 41.719817], [-8.191123, 41.724482], [-8.206108, 41.733383], [-8.214178, 41.742445], [-8.219112, 41.751486], [-8.220077, 41.769506], [-8.209252, 41.804443], [-8.213692, 41.803765], [-8.217598, 41.80016], [-8.217589, 41.793634], [-8.224207, 41.794303], [-8.229917, 41.791598], [-8.240744, 41.791588], [-8.24074, 41.789338], [-8.244347, 41.787984], [-8.245546, 41.785731], [-8.251257, 41.784375], [-8.251845, 41.777172], [-8.257551, 41.773564], [-8.261762, 41.774235], [-8.271366, 41.766346], [-8.280681, 41.764083], [-8.284038, 41.761109], [-8.284931, 41.757507], [-8.287033, 41.756829], [-8.298457, 41.757263], [-8.300866, 41.758835], [-8.305674, 41.758152], [-8.311096, 41.762195], [-8.318308, 41.761283], [-8.325233, 41.765098], [-8.328234, 41.763292], [-8.336653, 41.763728], [-8.341756, 41.761468], [-8.344765, 41.762363], [-8.349267, 41.760103], [-8.352557, 41.755145], [-8.349814, 41.744122], [-8.352516, 41.743441], [-8.352203, 41.739616], [-8.357897, 41.735103], [-8.362407, 41.735994], [-8.368703, 41.73193], [-8.374122, 41.734845], [-8.384922, 41.73032], [-8.387032, 41.731891], [-8.393033, 41.729852], [-8.396942, 41.730518], [-8.400531, 41.726683], [-8.402934, 41.726452], [-8.404721, 41.722847], [-8.417349, 41.725067], [-8.422737, 41.720552], [-8.429643, 41.719859], [-8.430533, 41.717381], [-8.435927, 41.714441], [-8.441333, 41.714201], [-8.4446, 41.70654], [-8.453868, 41.697961], [-8.453255, 41.695487], [-8.461659, 41.694563], [-8.469738, 41.689007], [-8.426078, 41.68065], [-8.408, 41.673852], [-8.404054, 41.67153], [-8.396104, 41.661272], [-8.38417, 41.653198], [-8.372202, 41.648839], [-8.365981, 41.644305], [-8.359734, 41.635263], [-8.357188, 41.626242], [-8.357533, 41.617237], [-8.366074, 41.59927], [-8.376001, 41.590317], [-8.394651, 41.581409], [-8.408875, 41.578131], [-8.432868, 41.57799], [-8.456815, 41.583221], [-8.468765, 41.588901], [-8.480699, 41.596908], [-8.508081, 41.61798], [-8.524327, 41.636062], [-8.529073, 41.652034]], [[-8.280414, 41.751886], [-8.28708, 41.74494], [-8.289996, 41.751946], [-8.286977, 41.754224], [-8.280414, 41.751886]], [[-8.528705, 41.595719], [-8.516709, 41.595277], [-8.504763, 41.590944], [-8.495378, 41.581896], [-8.493064, 41.572878], [-8.496853, 41.563887], [-8.505003, 41.556893], [-8.517027, 41.552613], [-8.529018, 41.552597], [-8.540979, 41.556793], [-8.549978, 41.564108], [-8.553365, 41.573128], [-8.551702, 41.582129], [-8.543009, 41.591102], [-8.528705, 41.595719]], [[-8.668993, 41.510468], [-8.661144, 41.509566], [-8.649184, 41.505285], [-8.643671, 41.501384], [-8.634728, 41.492349], [-8.631459, 41.483331], [-8.632514, 41.474327], [-8.638095, 41.465337], [-8.6516, 41.456371], [-8.661436, 41.45355], [-8.673412, 41.452917], [-8.689827, 41.456481], [-8.704006, 41.465526], [-8.70977, 41.474548], [-8.711449, 41.48356], [-8.709023, 41.492561], [-8.697114, 41.505197], [-8.685109, 41.509912], [-8.668993, 41.510468]], [[-8.553688, 41.452497], [-8.55611, 41.456043], [-8.553651, 41.457876], [-8.548728, 41.456014], [-8.553688, 41.452497]]], [[[-8.579445, 41.179389], [-8.579445, 41.179389], [-8.578825, 41.178964], [-8.579445, 41.179389]]], [[[-8.071064, 41.490198], [-8.071064, 41.490198], [-8.067864, 41.488997], [-8.071064, 41.490198]]], [[[-8.067068, 41.488395], [-8.067068, 41.488395], [-8.066069, 41.48764], [-8.067068, 41.488395]]], [[[-7.888643, 41.835222], [-7.894467, 41.829882], [-7.899967, 41.820928], [-7.900649, 41.811928], [-7.896802, 41.802884], [-7.889311, 41.79655], [-7.877355, 41.791934], [-7.865327, 41.791512], [-7.853241, 41.794363], [-7.840701, 41.802332], [-7.835861, 41.811289], [-7.836712, 41.820305], [-7.842454, 41.829369], [-7.852481, 41.836983], [-7.864458, 41.840724], [-7.876512, 41.840198], [-7.888643, 41.835222]], [[-7.87706, 41.80885], [-7.879451, 41.811723], [-7.876941, 41.815666], [-7.864914, 41.814955], [-7.862805, 41.811559], [-7.865015, 41.809213], [-7.87706, 41.80885]]], [[[-8.745685, 41.340832], [-8.769169, 41.339569], [-8.781558, 41.336028], [-8.791183, 41.330603], [-8.799319, 41.32161], [-8.802241, 41.312607], [-8.801865, 41.303599], [-8.798507, 41.294585], [-8.79175, 41.285565], [-8.780934, 41.276537], [-8.769837, 41.270649], [-8.763019, 41.267494], [-8.745987, 41.263172], [-8.722118, 41.261398], [-8.710176, 41.26243], [-8.686269, 41.268957], [-8.674293, 41.276285], [-8.667767, 41.285274], [-8.667262, 41.29428], [-8.67091, 41.303299], [-8.678153, 41.312327], [-8.689141, 41.321365], [-8.709865, 41.332681], [-8.721799, 41.33673], [-8.745685, 41.340832]], [[-8.733824, 41.318593], [-8.721869, 41.320145], [-8.709929, 41.318363], [-8.698005, 41.313101], [-8.688856, 41.303349], [-8.686364, 41.294334], [-8.689711, 41.285335], [-8.698166, 41.278171], [-8.710125, 41.273991], [-8.722068, 41.273339], [-8.736593, 41.276444], [-8.749577, 41.285481], [-8.753908, 41.294498], [-8.7531, 41.303504], [-8.746365, 41.312497], [-8.733824, 41.318593]]]]}}, {"id": "8", "type": "Feature", "properties": {"fill": "#a3a3a3", "value_min": 0.0, "value_max": -0.25}, "geometry": {"type": "MultiPolygon", "coordinates": [[[[-8.209252, 41.804443], [-8.220077, 41.769506], [-8.219112, 41.751486], [-8.214178, 41.742445], [-8.206108, 41.733383], [-8.191123, 41.724482], [-8.17916, 41.719817], [-8.16716, 41.718095], [-8.155135, 41.718327], [-8.149294, 41.714962], [-8.143585, 41.705913], [-8.131259, 41.705939], [-8.12853, 41.714807], [-8.131068, 41.720122], [-8.140481, 41.723904], [-8.130884, 41.733745], [-8.118749, 41.74185], [-8.106694, 41.743931], [-8.094721, 41.740091], [-8.082834, 41.730336], [-8.078706, 41.723425], [-8.072764, 41.705363], [-8.057759, 41.687227], [-8.057488, 41.678218], [-8.067832, 41.651281], [-8.068841, 41.633275], [-8.072285, 41.627781], [-8.084299, 41.627129], [-8.091252, 41.624447], [-8.096376, 41.621949], [-8.100005, 41.615509], [-8.096595, 41.606211], [-8.084647, 41.602527], [-8.066451, 41.606234], [-8.060552, 41.609029], [-8.03807, 41.598923], [-8.031467, 41.602938], [-8.02367, 41.603156], [-8.019174, 41.601802], [-8.015872, 41.603824], [-8.013474, 41.603372], [-8.005971, 41.60629], [-8.003562, 41.611239], [-7.998761, 41.612809], [-7.999669, 41.608759], [-7.996976, 41.605829], [-7.996684, 41.602003], [-7.984685, 41.603564], [-7.982292, 41.60086], [-7.975689, 41.603552], [-7.974482, 41.606701], [-7.970882, 41.607147], [-7.969091, 41.603768], [-7.965796, 41.602413], [-7.9541, 41.602846], [-7.952606, 41.600592], [-7.947808, 41.60081], [-7.945413, 41.599456], [-7.942725, 41.595625], [-7.936132, 41.594488], [-7.93791, 41.601694], [-7.937004, 41.603718], [-7.931604, 41.604384], [-7.930979, 41.612711], [-7.925556, 41.620354], [-7.920755, 41.620796], [-7.917748, 41.623041], [-7.915933, 41.627764], [-7.913229, 41.628885], [-7.912613, 41.63361], [-7.906014, 41.633147], [-7.906884, 41.641927], [-7.897869, 41.645511], [-7.89696, 41.647985], [-7.892759, 41.647976], [-7.892145, 41.651576], [-7.901724, 41.658573], [-7.899907, 41.662956], [-7.915859, 41.667962], [-7.936265, 41.67716], [-7.947681, 41.686272], [-7.951202, 41.691543], [-7.962012, 41.713423], [-7.990348, 41.75871], [-7.991943, 41.767731], [-7.989302, 41.776715], [-7.985842, 41.781219], [-7.977773, 41.78562], [-7.973711, 41.787368], [-7.949721, 41.782552], [-7.925632, 41.783854], [-7.913643, 41.781185], [-7.889815, 41.767334], [-7.877809, 41.765907], [-7.865748, 41.767668], [-7.855802, 41.766456], [-7.841873, 41.75728], [-7.804249, 41.73891], [-7.793623, 41.729792], [-7.787014, 41.720634], [-7.78464, 41.720402], [-7.78252, 41.723546], [-7.776204, 41.724652], [-7.773786, 41.727346], [-7.7678, 41.723276], [-7.763888, 41.724389], [-7.761765, 41.727758], [-7.762933, 41.733839], [-7.759307, 41.737203], [-7.759597, 41.739005], [-7.75689, 41.739446], [-7.758687, 41.740577], [-7.757758, 41.745301], [-7.748417, 41.749321], [-7.747786, 41.754496], [-7.743866, 41.756509], [-7.740214, 41.763924], [-7.726937, 41.771755], [-7.7254, 41.777152], [-7.727191, 41.779184], [-7.724177, 41.780299], [-7.725372, 41.781653], [-7.722296, 41.792446], [-7.728879, 41.797871], [-7.72705, 41.801691], [-7.7285, 41.810417], [-7.756668, 41.809208], [-7.768682, 41.810504], [-7.780646, 41.814464], [-7.792517, 41.823395], [-7.811978, 41.847072], [-7.821048, 41.865179], [-7.823375, 41.874012], [-7.825059, 41.875817], [-7.830479, 41.875831], [-7.830789, 41.874031], [-7.832894, 41.874712], [-7.838021, 41.872924], [-7.842528, 41.875187], [-7.841663, 41.866632], [-7.849515, 41.861475], [-7.858542, 41.862622], [-7.859456, 41.860148], [-7.864877, 41.859711], [-7.87033, 41.851395], [-7.873043, 41.850501], [-7.873367, 41.844875], [-7.879056, 41.85254], [-7.886268, 41.855932], [-7.888076, 41.855486], [-7.891675, 41.859094], [-7.900698, 41.861588], [-7.904318, 41.859795], [-7.907309, 41.865203], [-7.906095, 41.868126], [-7.910299, 41.871285], [-7.909985, 41.875111], [-7.915391, 41.879397], [-7.921118, 41.877833], [-7.928044, 41.87807], [-7.935283, 41.874707], [-7.937389, 41.87516], [-7.941618, 41.870891], [-7.951254, 41.871132], [-7.956367, 41.87339], [-7.956362, 41.875191], [-7.960878, 41.875648], [-7.962086, 41.874074], [-7.973828, 41.875216], [-7.987996, 41.869157], [-7.990123, 41.860157], [-7.995547, 41.858138], [-7.994047, 41.855211], [-7.996162, 41.851837], [-8.003089, 41.850494], [-8.005804, 41.847346], [-8.007928, 41.838796], [-8.012753, 41.833624], [-8.013363, 41.829124], [-8.017873, 41.831379], [-8.02901, 41.829589], [-8.037134, 41.831171], [-8.041351, 41.828023], [-8.041054, 41.825097], [-8.045268, 41.824425], [-8.047679, 41.821276], [-8.057314, 41.815656], [-8.06664, 41.817012], [-8.072961, 41.813414], [-8.078678, 41.813417], [-8.082892, 41.810493], [-8.091013, 41.812521], [-8.093421, 41.811397], [-8.093723, 41.808471], [-8.101845, 41.809824], [-8.104853, 41.81185], [-8.115984, 41.812302], [-8.123807, 41.808702], [-8.138247, 41.808477], [-8.139751, 41.813203], [-8.14276, 41.812978], [-8.144866, 41.815228], [-8.149078, 41.814777], [-8.153893, 41.817928], [-8.165326, 41.81815], [-8.173744, 41.808019], [-8.177655, 41.808242], [-8.183676, 41.812741], [-8.190291, 41.809587], [-8.197158, 41.814129], [-8.201063, 41.808724], [-8.204973, 41.807372], [-8.205872, 41.804445], [-8.209252, 41.804443]], [[-7.947268, 41.839385], [-7.948814, 41.838051], [-7.951738, 41.839426], [-7.94876, 41.841348], [-7.947268, 41.839385]], [[-7.888643, 41.835222], [-7.876512, 41.840198], [-7.864458, 41.840724], [-7.852481, 41.836983], [-7.842454, 41.829369], [-7.836712, 41.820305], [-7.835861, 41.811289], [-7.840701, 41.802332], [-7.853241, 41.794363], [-7.865327, 41.791512], [-7.877355, 41.791934], [-7.889311, 41.79655], [-7.896802, 41.802884], [-7.900649, 41.811928], [-7.899967, 41.820928], [-7.894467, 41.829882], [-7.888643, 41.835222]], [[-7.999328, 41.687744], [-7.987348, 41.685438], [-7.969745, 41.677465], [-7.96487, 41.668414], [-7.964895, 41.659407], [-7.967934, 41.650427], [-7.976126, 41.641494], [-7.990688, 41.632615], [-8.000228, 41.629597], [-8.012253, 41.628274], [-8.024238, 41.629593], [-8.036176, 41.634135], [-8.048035, 41.644119], [-8.052049, 41.651152], [-8.052609, 41.660164], [-8.048796, 41.669139], [-8.035462, 41.681977], [-8.023384, 41.686124], [-8.011339, 41.688072], [-7.999328, 41.687744]]], [[[-8.280414, 41.751886], [-8.286977, 41.754224], [-8.289996, 41.751946], [-8.28708, 41.74494], [-8.280414, 41.751886]]], [[[-8.528705, 41.595719], [-8.543009, 41.591102], [-8.551702, 41.582129], [-8.553365, 41.573128], [-8.549978, 41.564108], [-8.540979, 41.556793], [-8.529018, 41.552597], [-8.517027, 41.552613], [-8.505003, 41.556893], [-8.496853, 41.563887], [-8.493064, 41.572878], [-8.495378, 41.581896], [-8.504763, 41.590944], [-8.516709, 41.595277], [-8.528705, 41.595719]]], [[[-8.668993, 41.510468], [-8.685109, 41.509912], [-8.697114, 41.505197], [-8.709023, 41.492561], [-8.711449, 41.48356], [-8.70977, 41.474548], [-8.704006, 41.465526], [-8.689827, 41.456481], [-8.673412, 41.452917], [-8.661436, 41.45355], [-8.6516, 41.456371], [-8.638095, 41.465337], [-8.632514, 41.474327], [-8.631459, 41.483331], [-8.634728, 41.492349], [-8.643671, 41.501384], [-8.649184, 41.505285], [-8.661144, 41.509566], [-8.668993, 41.510468]]], [[[-8.071754, 41.490439], [-8.09295, 41.49836], [-8.110033, 41.501536], [-8.133977, 41.502999], [-8.156795, 41.498845], [-8.170668, 41.489939], [-8.177623, 41.480982], [-8.18033, 41.471994], [-8.180543, 41.462988], [-8.178074, 41.453963], [-8.171894, 41.444911], [-8.162348, 41.435834], [-8.135085, 41.41963], [-8.123181, 41.415048], [-8.101727, 41.410328], [-8.101128, 41.411654], [-8.092756, 41.411201], [-8.09126, 41.414352], [-8.079893, 41.41975], [-8.077503, 41.416597], [-8.070923, 41.41862], [-8.066739, 41.416142], [-8.061953, 41.417264], [-8.059852, 41.424916], [-8.055959, 41.429415], [-8.057743, 41.438645], [-8.061033, 41.438872], [-8.064916, 41.444052], [-8.067908, 41.444279], [-8.069999, 41.447206], [-8.068788, 41.462286], [-8.073872, 41.46499], [-8.074468, 41.468141], [-8.074164, 41.473543], [-8.067273, 41.480743], [-8.066069, 41.48764], [-8.067068, 41.488395], [-8.067864, 41.488997], [-8.071064, 41.490198], [-8.071754, 41.490439]], [[-8.122069, 41.497537], [-8.1101, 41.496682], [-8.098176, 41.492604], [-8.091384, 41.48934], [-8.084267, 41.480276], [-8.083066, 41.471259], [-8.087487, 41.462287], [-8.098708, 41.454188], [-8.110722, 41.451173], [-8.122685, 41.451834], [-8.134602, 41.456001], [-8.143166, 41.462715], [-8.148594, 41.471763], [-8.148781, 41.480772], [-8.143257, 41.489738], [-8.134088, 41.49467], [-8.122069, 41.497537]]], [[[-8.275512, 41.324906], [-8.286576, 41.400642], [-8.28978, 41.409669], [-8.296031, 41.418715], [-8.302568, 41.424068], [-8.314476, 41.429732], [-8.338358, 41.435138], [-8.374245, 41.437273], [-8.398209, 41.434666], [-8.410213, 41.430805], [-8.422235, 41.424824], [-8.434283, 41.415539], [-8.44557, 41.401518], [-8.453233, 41.383539], [-8.455074, 41.365533], [-8.449276, 41.338482], [-8.439579, 41.32042], [-8.421513, 41.30077], [-8.416982, 41.301232], [-8.407744, 41.304856], [-8.406262, 41.307335], [-8.403277, 41.307342], [-8.401801, 41.311398], [-8.399712, 41.311628], [-8.400316, 41.313202], [-8.396738, 41.314336], [-8.398835, 41.316131], [-8.393775, 41.31997], [-8.393489, 41.323122], [-8.391105, 41.324253], [-8.386325, 41.323588], [-8.385139, 41.325742], [-8.39915, 41.332505], [-8.414425, 41.347318], [-8.419104, 41.356349], [-8.420866, 41.374373], [-8.418311, 41.383368], [-8.412612, 41.392347], [-8.402954, 41.401305], [-8.386476, 41.409595], [-8.374481, 41.412735], [-8.362506, 41.413786], [-8.350549, 41.412909], [-8.338614, 41.409858], [-8.326705, 41.404492], [-8.313375, 41.391797], [-8.308767, 41.382762], [-8.306578, 41.364734], [-8.312046, 41.346752], [-8.319182, 41.337549], [-8.312604, 41.334983], [-8.313794, 41.333405], [-8.310792, 41.327557], [-8.308701, 41.327561], [-8.307502, 41.325762], [-8.305116, 41.326891], [-8.303024, 41.325994], [-8.303615, 41.323742], [-8.301216, 41.319694], [-8.296431, 41.316774], [-8.297618, 41.313846], [-8.296116, 41.310022], [-8.281801, 41.316569], [-8.279132, 41.324451], [-8.275512, 41.324906]]], [[[-8.733824, 41.318593], [-8.746365, 41.312497], [-8.7531, 41.303504], [-8.753908, 41.294498], [-8.749577, 41.285481], [-8.736593, 41.276444], [-8.722068, 41.273339], [-8.710125, 41.273991], [-8.698166, 41.278171], [-8.689711, 41.285335], [-8.686364, 41.294334], [-8.688856, 41.303349], [-8.698005, 41.313101], [-8.709929, 41.318363], [-8.721869, 41.320145], [-8.733824, 41.318593]]], [[[-8.526286, 41.202543], [-8.517911, 41.212682], [-8.516349, 41.221683], [-8.519438, 41.230704], [-8.531258, 41.241571], [-8.543162, 41.245897], [-8.55509, 41.246909], [-8.567039, 41.244783], [-8.576358, 41.239935], [-8.584309, 41.230956], [-8.586585, 41.221957], [-8.584512, 41.212941], [-8.579229, 41.204964], [-8.575383, 41.202364], [-8.57423, 41.20462], [-8.568566, 41.204416], [-8.565895, 41.206227], [-8.567697, 41.208246], [-8.566512, 41.209376], [-8.559636, 41.206251], [-8.554271, 41.20627], [-8.549521, 41.209214], [-8.544157, 41.209458], [-8.54238, 41.211265], [-8.532257, 41.213102], [-8.526286, 41.202543]]]]}}, {"id": "10", "type": "Feature", "properties": {"fill": "#a3a3a3", "value_min": 0.5, "value_max": -0.75}, "geometry": {"type": "MultiPolygon", "coordinates": [[[[-7.729612, 41.873247], [-7.743203, 41.882146], [-7.755221, 41.883885], [-7.767319, 41.881544], [-7.77954, 41.872645], [-7.78303, 41.864782], [-7.782028, 41.855765], [-7.774051, 41.846673], [-7.768054, 41.843256], [-7.756054, 41.840963], [-7.746359, 41.842355], [-7.750532, 41.849261], [-7.743309, 41.849012], [-7.746901, 41.8524], [-7.746881, 41.855776], [-7.73843, 41.859348], [-7.734159, 41.868337], [-7.729612, 41.873247]]], [[[-7.96213, 41.759218], [-7.955682, 41.749393], [-7.950313, 41.746234], [-7.938285, 41.746291], [-7.933191, 41.749187], [-7.927252, 41.758138], [-7.932451, 41.767194], [-7.937901, 41.769554], [-7.949923, 41.770153], [-7.957299, 41.767422], [-7.96213, 41.759218]]], [[[-8.042572, 41.660081], [-8.03952, 41.651048], [-8.035976, 41.647551], [-8.024029, 41.643473], [-8.011993, 41.645313], [-8.003852, 41.650744], [-8.000657, 41.659724], [-8.005086, 41.668769], [-8.011575, 41.672669], [-8.023557, 41.674723], [-8.03563, 41.670746], [-8.042572, 41.660081]], [[-8.023847, 41.65554], [-8.029574, 41.659971], [-8.023721, 41.663868], [-8.018332, 41.659876], [-8.023847, 41.65554]]], [[[-8.131759, 41.480645], [-8.126115, 41.471594], [-8.122449, 41.46934], [-8.110478, 41.469016], [-8.1062, 41.471441], [-8.100607, 41.480405], [-8.107552, 41.489467], [-8.122162, 41.490657], [-8.125143, 41.489602], [-8.131759, 41.480645]]], [[[-8.396581, 41.383256], [-8.399768, 41.374265], [-8.398852, 41.364989], [-8.393986, 41.35622], [-8.387036, 41.349945], [-8.375136, 41.344346], [-8.363201, 41.342539], [-8.351235, 41.343859], [-8.339231, 41.348972], [-8.331394, 41.355873], [-8.326334, 41.364851], [-8.325357, 41.373853], [-8.328195, 41.382877], [-8.338778, 41.393776], [-8.35069, 41.398746], [-8.362639, 41.400097], [-8.374618, 41.398473], [-8.388111, 41.392219], [-8.396581, 41.383256]], [[-8.381282, 41.374167], [-8.376512, 41.383149], [-8.36276, 41.387707], [-8.350826, 41.385089], [-8.347778, 41.38299], [-8.343014, 41.373955], [-8.346559, 41.364968], [-8.351061, 41.36139], [-8.363044, 41.358672], [-8.374963, 41.362409], [-8.378094, 41.365143], [-8.381282, 41.374167]]]]}}, {"id": "9", "type": "Feature", "properties": {"fill": "#a3a3a3", "value_min": 0.25, "value_max": -0.5}, "geometry": {"type": "MultiPolygon", "coordinates": [[[[-7.823375, 41.874012], [-7.821048, 41.865179], [-7.811978, 41.847072], [-7.792517, 41.823395], [-7.780646, 41.814464], [-7.768682, 41.810504], [-7.756668, 41.809208], [-7.7285, 41.810417], [-7.728171, 41.814974], [-7.732041, 41.821514], [-7.74345, 41.825605], [-7.738918, 41.82874], [-7.742196, 41.833928], [-7.74729, 41.837772], [-7.746359, 41.842355], [-7.756054, 41.840963], [-7.768054, 41.843256], [-7.774051, 41.846673], [-7.782028, 41.855765], [-7.78303, 41.864782], [-7.77954, 41.872645], [-7.767319, 41.881544], [-7.755221, 41.883885], [-7.743203, 41.882146], [-7.729612, 41.873247], [-7.729293, 41.875972], [-7.720533, 41.880218], [-7.720523, 41.881793], [-7.725335, 41.882935], [-7.726208, 41.887665], [-7.737044, 41.888828], [-7.73944, 41.891087], [-7.74246, 41.889747], [-7.742785, 41.885922], [-7.756022, 41.888441], [-7.758719, 41.890926], [-7.756592, 41.89407], [-7.758076, 41.897901], [-7.763193, 41.898593], [-7.779227, 41.886264], [-7.785257, 41.885157], [-7.788886, 41.882467], [-7.794007, 41.882257], [-7.796739, 41.878214], [-7.794349, 41.87438], [-7.797064, 41.873488], [-7.803381, 41.874857], [-7.804914, 41.869459], [-7.813032, 41.871958], [-7.814229, 41.873537], [-7.823375, 41.874012]]], [[[-7.947268, 41.839385], [-7.94876, 41.841348], [-7.951738, 41.839426], [-7.948814, 41.838051], [-7.947268, 41.839385]]], [[[-7.787014, 41.720634], [-7.793623, 41.729792], [-7.804249, 41.73891], [-7.841873, 41.75728], [-7.855802, 41.766456], [-7.865748, 41.767668], [-7.877809, 41.765907], [-7.889815, 41.767334], [-7.913643, 41.781185], [-7.925632, 41.783854], [-7.949721, 41.782552], [-7.973711, 41.787368], [-7.977773, 41.78562], [-7.985842, 41.781219], [-7.989302, 41.776715], [-7.991943, 41.767731], [-7.990348, 41.75871], [-7.962012, 41.713423], [-7.951202, 41.691543], [-7.947681, 41.686272], [-7.936265, 41.67716], [-7.915859, 41.667962], [-7.899907, 41.662956], [-7.900198, 41.665547], [-7.898396, 41.665769], [-7.896885, 41.668692], [-7.883969, 41.67069], [-7.879755, 41.673607], [-7.877044, 41.676077], [-7.876723, 41.681253], [-7.873401, 41.686198], [-7.868896, 41.686413], [-7.868008, 41.68326], [-7.864403, 41.683701], [-7.864096, 41.685276], [-7.858987, 41.68639], [-7.857773, 41.689538], [-7.854776, 41.68818], [-7.847538, 41.695365], [-7.837309, 41.699391], [-7.835792, 41.702763], [-7.839682, 41.705924], [-7.838465, 41.709522], [-7.832453, 41.710407], [-7.825252, 41.708813], [-7.818621, 41.713522], [-7.815291, 41.718689], [-7.808986, 41.717996], [-7.808396, 41.715744], [-7.803298, 41.714154], [-7.790966, 41.717044], [-7.789449, 41.719966], [-7.787014, 41.720634]], [[-7.96213, 41.759218], [-7.957299, 41.767422], [-7.949923, 41.770153], [-7.937901, 41.769554], [-7.932451, 41.767194], [-7.927252, 41.758138], [-7.933191, 41.749187], [-7.938285, 41.746291], [-7.950313, 41.746234], [-7.955682, 41.749393], [-7.96213, 41.759218]]], [[[-7.999328, 41.687744], [-8.011339, 41.688072], [-8.023384, 41.686124], [-8.035462, 41.681977], [-8.048796, 41.669139], [-8.052609, 41.660164], [-8.052049, 41.651152], [-8.048035, 41.644119], [-8.036176, 41.634135], [-8.024238, 41.629593], [-8.012253, 41.628274], [-8.000228, 41.629597], [-7.990688, 41.632615], [-7.976126, 41.641494], [-7.967934, 41.650427], [-7.964895, 41.659407], [-7.96487, 41.668414], [-7.969745, 41.677465], [-7.987348, 41.685438], [-7.999328, 41.687744]], [[-8.042572, 41.660081], [-8.03563, 41.670746], [-8.023557, 41.674723], [-8.011575, 41.672669], [-8.005086, 41.668769], [-8.000657, 41.659724], [-8.003852, 41.650744], [-8.011993, 41.645313], [-8.024029, 41.643473], [-8.035976, 41.647551], [-8.03952, 41.651048], [-8.042572, 41.660081]]], [[[-8.122069, 41.497537], [-8.134088, 41.49467], [-8.143257, 41.489738], [-8.148781, 41.480772], [-8.148594, 41.471763], [-8.143166, 41.462715], [-8.134602, 41.456001], [-8.122685, 41.451834], [-8.110722, 41.451173], [-8.098708, 41.454188], [-8.087487, 41.462287], [-8.083066, 41.471259], [-8.084267, 41.480276], [-8.091384, 41.48934], [-8.098176, 41.492604], [-8.1101, 41.496682], [-8.122069, 41.497537]], [[-8.131759, 41.480645], [-8.125143, 41.489602], [-8.122162, 41.490657], [-8.107552, 41.489467], [-8.100607, 41.480405], [-8.1062, 41.471441], [-8.110478, 41.469016], [-8.122449, 41.46934], [-8.126115, 41.471594], [-8.131759, 41.480645]]], [[[-8.319182, 41.337549], [-8.312046, 41.346752], [-8.306578, 41.364734], [-8.308767, 41.382762], [-8.313375, 41.391797], [-8.326705, 41.404492], [-8.338614, 41.409858], [-8.350549, 41.412909], [-8.362506, 41.413786], [-8.374481, 41.412735], [-8.386476, 41.409595], [-8.402954, 41.401305], [-8.412612, 41.392347], [-8.418311, 41.383368], [-8.420866, 41.374373], [-8.419104, 41.356349], [-8.414425, 41.347318], [-8.39915, 41.332505], [-8.385139, 41.325742], [-8.380382, 41.331254], [-8.375305, 41.33104], [-8.37201, 41.328346], [-8.361563, 41.329718], [-8.358276, 41.329049], [-8.357673, 41.327249], [-8.350207, 41.327264], [-8.346032, 41.328847], [-8.342462, 41.333131], [-8.333215, 41.336299], [-8.326363, 41.342163], [-8.324568, 41.341041], [-8.323376, 41.341943], [-8.319182, 41.337549]], [[-8.396581, 41.383256], [-8.388111, 41.392219], [-8.374618, 41.398473], [-8.362639, 41.400097], [-8.35069, 41.398746], [-8.338778, 41.393776], [-8.328195, 41.382877], [-8.325357, 41.373853], [-8.326334, 41.364851], [-8.331394, 41.355873], [-8.339231, 41.348972], [-8.351235, 41.343859], [-8.363201, 41.342539], [-8.375136, 41.344346], [-8.387036, 41.349945], [-8.393986, 41.35622], [-8.398852, 41.364989], [-8.399768, 41.374265], [-8.396581, 41.383256]]]]}}]}