{"type": "FeatureCollection", "features": [{"id": "8", "type": "Feature", "properties": {"fill": "#a3a3a3", "value_min": -0.5, "value_max": -0.25}, "geometry": {"type": "MultiPolygon", "coordinates": [[[[-8.134202, 41.48606], [-8.136785, 41.480682], [-8.134363, 41.473976], [-8.132951, 41.471646], [-8.122501, 41.465479], [-8.110533, 41.465015], [-8.098259, 41.471379], [-8.094946, 41.480361], [-8.100445, 41.489411], [-8.110143, 41.493515], [-8.122119, 41.493824], [-8.131958, 41.489653], [-8.134202, 41.48606]]], [[[-8.386562, 41.400457], [-8.398999, 41.392276], [-8.406288, 41.383307], [-8.409387, 41.374315], [-8.409525, 41.365308], [-8.40668, 41.356286], [-8.399023, 41.346341], [-8.387146, 41.338276], [-8.375236, 41.333903], [-8.3633, 41.332352], [-8.351342, 41.333151], [-8.339355, 41.336709], [-8.324299, 41.346824], [-8.317891, 41.355794], [-8.315106, 41.364785], [-8.314969, 41.373792], [-8.317459, 41.382814], [-8.323802, 41.391859], [-8.337379, 41.400946], [-8.350627, 41.405087], [-8.362582, 41.405993], [-8.374559, 41.404581], [-8.386562, 41.400457]]], [[[-8.733779, 41.329589], [-8.752871, 41.321519], [-8.762588, 41.312532], [-8.767172, 41.303534], [-8.76815, 41.294528], [-8.765777, 41.285515], [-8.757879, 41.275671], [-8.745967, 41.268398], [-8.734042, 41.264862], [-8.722109, 41.263708], [-8.710167, 41.264556], [-8.698215, 41.267515], [-8.682558, 41.276308], [-8.675154, 41.285295], [-8.67206, 41.294294], [-8.672676, 41.303304], [-8.676957, 41.312324], [-8.686019, 41.321107], [-8.697939, 41.327438], [-8.709875, 41.330352], [-8.721823, 41.331096], [-8.733779, 41.329589]]]]}}, {"id": "1", "type": "Feature", "properties": {"fill": "#b11c1c", "value_min": -2.25, "value_max": -2.0}, "geometry": {"type": "Polygon", "coordinates": [[[-8.643325, 41.528406], [-8.640059, 41.519388], [-8.625175, 41.513006], [-8.613176, 41.515607], [-8.60851, 41.519285], [-8.605984, 41.528284], [-8.613041, 41.538148], [-8.625012, 41.541198], [-8.637019, 41.538028], [-8.643325, 41.528406]], [[-8.622133, 41.528338], [-8.625107, 41.524875], [-8.627324, 41.528355], [-8.625078, 41.529744], [-8.622133, 41.528338]]]}}, {"id": "0", "type": "Feature", "properties": {"fill": "#a21c1c", "value_min": -2.5, "value_max": -2.25}, "geometry": {"type": "Polygon", "coordinates": [[[-8.622133, 41.528338], [-8.625078, 41.529744], [-8.627324, 41.528355], [-8.625107, 41.524875], [-8.622133, 41.528338]]]}}, {"id": "2", "type": "Feature", "properties": {"fill": "#c93e18", "value_min": -2.0, "value_max": -1.75}, "geometry": {"type": "Polygon", "coordinates": [[[-8.648988, 41.54163], [-8.652611, 41.537441], [-8.65468, 41.52844], [-8.650913, 41.519421], [-8.639303, 41.510378], [-8.625214, 41.50632], [-8.613224, 41.507556], [-8.601193, 41.515392], [-8.598066, 41.519249], [-8.596282, 41.52825], [-8.601049, 41.538808], [-8.612987, 41.547345], [-8.624961, 41.550028], [-8.636959, 41.548661], [-8.648988, 41.54163]], [[-8.643325, 41.528406], [-8.637019, 41.538028], [-8.625012, 41.541198], [-8.613041, 41.538148], [-8.605984, 41.528284], [-8.60851, 41.519285], [-8.613176, 41.515607], [-8.625175, 41.513006], [-8.640059, 41.519388], [-8.643325, 41.528406]]]}}, {"id": "7", "type": "Feature", "properties": {"fill": "#a3a3a3", "value_min": -0.75, "value_max": -0.5}, "geometry": {"type": "MultiPolygon", "coordinates": [[[[-8.521107, 41.66039], [-8.521756, 41.654066], [-8.536011, 41.631528], [-8.535128, 41.62973], [-8.542257, 41.618676], [-8.542536, 41.615299], [-8.547235, 41.614832], [-8.554275, 41.600153], [-8.556344, 41.582147], [-8.554409, 41.573132], [-8.549909, 41.564107], [-8.534166, 41.54603], [-8.528878, 41.537001], [-8.526832, 41.527985], [-8.526214, 41.500961], [-8.518818, 41.4649], [-8.519076, 41.455894], [-8.521749, 41.446897], [-8.526048, 41.437908], [-8.534094, 41.428933], [-8.550562, 41.419991], [-8.577868, 41.416181], [-8.637692, 41.417257], [-8.733448, 41.410631], [-8.810194, 41.410767], [-8.799695, 41.14406], [-8.67527, 41.147484], [-8.676193, 41.146567], [-8.674793, 41.146932], [-8.674204, 41.147693], [-8.674239, 41.15202], [-8.686829, 41.151642], [-8.69874, 41.153261], [-8.710639, 41.157428], [-8.722524, 41.165392], [-8.730895, 41.177345], [-8.732954, 41.186357], [-8.731795, 41.195363], [-8.727182, 41.20436], [-8.717337, 41.213344], [-8.710378, 41.2168], [-8.69843, 41.220783], [-8.686493, 41.222149], [-8.674569, 41.220888], [-8.638847, 41.208321], [-8.626887, 41.213988], [-8.607355, 41.240045], [-8.596748, 41.249016], [-8.578885, 41.258544], [-8.566925, 41.262], [-8.554977, 41.263469], [-8.543042, 41.263124], [-8.53112, 41.260866], [-8.519215, 41.25637], [-8.506758, 41.248666], [-8.497479, 41.239618], [-8.490258, 41.227646], [-8.487935, 41.230354], [-8.490331, 41.232373], [-8.489156, 41.235528], [-8.486181, 41.236888], [-8.484411, 41.240495], [-8.476346, 41.237818], [-8.475756, 41.23917], [-8.470986, 41.23941], [-8.471604, 41.243459], [-8.469227, 41.245267], [-8.463258, 41.244384], [-8.459989, 41.246644], [-8.454323, 41.246886], [-8.455541, 41.251834], [-8.452276, 41.25522], [-8.449891, 41.255452], [-8.449304, 41.257479], [-8.447812, 41.257258], [-8.449028, 41.261982], [-8.439785, 41.262907], [-8.438023, 41.268989], [-8.434745, 41.269673], [-8.432691, 41.277107], [-8.427032, 41.279372], [-8.429143, 41.284319], [-8.426171, 41.287028], [-8.426488, 41.291079], [-8.425013, 41.294909], [-8.422037, 41.296942], [-8.422647, 41.299867], [-8.407744, 41.304856], [-8.406262, 41.307335], [-8.403277, 41.307342], [-8.401801, 41.311398], [-8.399712, 41.311628], [-8.400316, 41.313202], [-8.396738, 41.314336], [-8.398835, 41.316131], [-8.393775, 41.31997], [-8.393489, 41.323122], [-8.391105, 41.324253], [-8.386325, 41.323588], [-8.380382, 41.331254], [-8.375305, 41.33104], [-8.37201, 41.328346], [-8.361563, 41.329718], [-8.358276, 41.329049], [-8.357673, 41.327249], [-8.350207, 41.327264], [-8.346032, 41.328847], [-8.342462, 41.333131], [-8.333215, 41.336299], [-8.326363, 41.342163], [-8.324568, 41.341041], [-8.323376, 41.341943], [-8.320676, 41.338121], [-8.312604, 41.334983], [-8.313794, 41.333405], [-8.31139, 41.328007], [-8.307502, 41.325762], [-8.305116, 41.326891], [-8.303024, 41.325994], [-8.303615, 41.323742], [-8.301216, 41.319694], [-8.296431, 41.316774], [-8.297618, 41.313846], [-8.295817, 41.310022], [-8.281801, 41.316569], [-8.281808, 41.319721], [-8.278828, 41.321976], [-8.278238, 41.325128], [-8.273161, 41.325134], [-8.269582, 41.326939], [-8.265709, 41.331221], [-8.269004, 41.336169], [-8.263339, 41.340902], [-8.262751, 41.345405], [-8.256483, 41.347663], [-8.255889, 41.349689], [-8.249622, 41.353072], [-8.251123, 41.356897], [-8.248141, 41.360052], [-8.248448, 41.364328], [-8.245461, 41.364781], [-8.244272, 41.368384], [-8.239197, 41.371315], [-8.232024, 41.369971], [-8.224854, 41.370878], [-8.21738, 41.368182], [-8.214399, 41.373587], [-8.208127, 41.376968], [-8.199163, 41.377423], [-8.194677, 41.374275], [-8.191691, 41.376302], [-8.189299, 41.375403], [-8.184818, 41.376756], [-8.168382, 41.377438], [-8.164499, 41.38059], [-8.152544, 41.375866], [-8.151049, 41.37339], [-8.145073, 41.374742], [-8.139694, 41.377894], [-8.133418, 41.374292], [-8.119672, 41.376768], [-8.119672, 41.378569], [-8.116683, 41.380144], [-8.117578, 41.386447], [-8.113992, 41.386896], [-8.112795, 41.390723], [-8.110105, 41.390947], [-8.108011, 41.393648], [-8.103827, 41.392972], [-8.105321, 41.394998], [-8.10263, 41.396123], [-8.10801, 41.398825], [-8.108606, 41.403102], [-8.104419, 41.406252], [-8.104119, 41.408728], [-8.101727, 41.409403], [-8.102025, 41.411204], [-8.092756, 41.411201], [-8.09126, 41.414352], [-8.079893, 41.41975], [-8.077503, 41.416597], [-8.070923, 41.41862], [-8.066739, 41.416142], [-8.061953, 41.417264], [-8.059852, 41.424916], [-8.055959, 41.429415], [-8.057743, 41.438645], [-8.061033, 41.438872], [-8.064916, 41.444052], [-8.067908, 41.444279], [-8.069999, 41.447206], [-8.068788, 41.462286], [-8.073872, 41.46499], [-8.074468, 41.468141], [-8.073564, 41.474668], [-8.066374, 41.482318], [-8.066069, 41.48817], [-8.072054, 41.490199], [-8.07175, 41.494925], [-8.078333, 41.49898], [-8.078332, 41.500331], [-8.093, 41.504613], [-8.089398, 41.519242], [-8.090594, 41.522169], [-8.093588, 41.52307], [-8.091487, 41.531173], [-8.097775, 41.536127], [-8.097774, 41.537927], [-8.106759, 41.543557], [-8.101666, 41.542655], [-8.094175, 41.544904], [-8.087885, 41.542876], [-8.083389, 41.5449], [-8.080687, 41.551651], [-8.074097, 41.549848], [-8.073494, 41.553449], [-8.075891, 41.554575], [-8.076188, 41.557276], [-8.079783, 41.558403], [-8.081576, 41.565157], [-8.078879, 41.56493], [-8.075279, 41.568305], [-8.073182, 41.568079], [-8.069283, 41.570553], [-8.068081, 41.573478], [-8.056684, 41.579549], [-8.052181, 41.584498], [-8.052777, 41.587649], [-8.037169, 41.600242], [-8.031467, 41.602938], [-8.02367, 41.603156], [-8.019174, 41.601802], [-8.015872, 41.603824], [-8.013474, 41.603372], [-8.005971, 41.60629], [-8.003562, 41.611239], [-7.99936, 41.61281], [-7.998462, 41.612359], [-7.999669, 41.608759], [-7.996976, 41.605829], [-7.996684, 41.602003], [-7.984685, 41.603564], [-7.982292, 41.60086], [-7.975689, 41.603552], [-7.974482, 41.606701], [-7.970882, 41.607147], [-7.969091, 41.603768], [-7.965796, 41.602413], [-7.9541, 41.602846], [-7.952606, 41.600592], [-7.947808, 41.60081], [-7.945413, 41.599456], [-7.942725, 41.595625], [-7.936132, 41.594488], [-7.93791, 41.601694], [-7.937004, 41.603718], [-7.931604, 41.604384], [-7.930073, 41.614735], [-7.925255, 41.620579], [-7.920755, 41.620796], [-7.917748, 41.623041], [-7.915933, 41.627764], [-7.913229, 41.628885], [-7.912613, 41.63361], [-7.906014, 41.633147], [-7.905701, 41.637025], [-7.927849, 41.650591], [-7.939688, 41.660948], [-7.952285, 41.677307], [-7.960107, 41.695392], [-7.962019, 41.713423], [-7.960024, 41.731419], [-7.954914, 41.74038], [-7.938281, 41.746508], [-7.934649, 41.7492], [-7.928774, 41.758153], [-7.937937, 41.767395], [-7.953623, 41.767388], [-7.962094, 41.761474], [-7.974163, 41.759025], [-7.990815, 41.767721], [-8.001986, 41.776826], [-8.013572, 41.794939], [-8.015296, 41.803961], [-8.014223, 41.812959], [-8.009281, 41.822021], [-7.997131, 41.828996], [-7.98509, 41.8289], [-7.961078, 41.824422], [-7.949044, 41.823945], [-7.924899, 41.82767], [-7.912908, 41.824695], [-7.900616, 41.802921], [-7.889438, 41.78921], [-7.877506, 41.783324], [-7.865516, 41.780819], [-7.84144, 41.781352], [-7.817315, 41.784523], [-7.805317, 41.782596], [-7.784982, 41.756722], [-7.761288, 41.735409], [-7.759597, 41.739005], [-7.75689, 41.739446], [-7.758687, 41.740577], [-7.757758, 41.745301], [-7.748417, 41.749321], [-7.747786, 41.754496], [-7.743866, 41.756509], [-7.740214, 41.763924], [-7.726937, 41.771755], [-7.7254, 41.777152], [-7.727191, 41.779184], [-7.724177, 41.780299], [-7.725372, 41.781653], [-7.722296, 41.792446], [-7.728879, 41.797871], [-7.72705, 41.801691], [-7.728174, 41.814394], [-7.761087, 41.810507], [-7.792913, 41.802329], [-7.804858, 41.807289], [-7.828323, 41.840823], [-7.849021, 41.861698], [-7.858542, 41.862622], [-7.859456, 41.860148], [-7.864877, 41.859711], [-7.87033, 41.851395], [-7.873043, 41.850501], [-7.873367, 41.844875], [-7.879056, 41.85254], [-7.886268, 41.855932], [-7.888076, 41.855486], [-7.891675, 41.859094], [-7.900698, 41.861588], [-7.904318, 41.859795], [-7.907309, 41.865203], [-7.906095, 41.868126], [-7.910299, 41.871285], [-7.909985, 41.875111], [-7.915391, 41.879397], [-7.921118, 41.877833], [-7.928044, 41.87807], [-7.935283, 41.874707], [-7.937389, 41.87516], [-7.941618, 41.870891], [-7.951254, 41.871132], [-7.956367, 41.87339], [-7.956362, 41.875191], [-7.960878, 41.875648], [-7.96299, 41.874075], [-7.972322, 41.875439], [-7.987996, 41.869157], [-7.990123, 41.860157], [-7.995547, 41.858138], [-7.994047, 41.855211], [-7.996162, 41.851837], [-8.003089, 41.850494], [-8.005804, 41.847346], [-8.007928, 41.838796], [-8.012753, 41.833624], [-8.013363, 41.829124], [-8.017873, 41.831379], [-8.02901, 41.829589], [-8.037134, 41.831171], [-8.041351, 41.828023], [-8.041054, 41.825097], [-8.045268, 41.824425], [-8.047679, 41.821276], [-8.057314, 41.815656], [-8.06664, 41.817012], [-8.072961, 41.813414], [-8.078678, 41.813417], [-8.082892, 41.810493], [-8.091013, 41.812521], [-8.093421, 41.811397], [-8.093723, 41.808471], [-8.101845, 41.809824], [-8.104853, 41.81185], [-8.115984, 41.812302], [-8.123807, 41.808702], [-8.138247, 41.808477], [-8.139751, 41.813203], [-8.14276, 41.812978], [-8.144866, 41.815228], [-8.149078, 41.814777], [-8.153291, 41.817703], [-8.158106, 41.818377], [-8.165326, 41.81815], [-8.173744, 41.808019], [-8.177655, 41.808242], [-8.183676, 41.812741], [-8.190291, 41.809587], [-8.197158, 41.814129], [-8.201063, 41.808724], [-8.204973, 41.807372], [-8.205872, 41.804445], [-8.213692, 41.803765], [-8.217598, 41.80016], [-8.217589, 41.793634], [-8.224207, 41.794303], [-8.229917, 41.791598], [-8.240744, 41.791588], [-8.24074, 41.789338], [-8.244347, 41.787984], [-8.245546, 41.785731], [-8.251257, 41.784375], [-8.251845, 41.777172], [-8.257551, 41.773564], [-8.261762, 41.774235], [-8.271366, 41.766346], [-8.280681, 41.764083], [-8.284038, 41.761109], [-8.284931, 41.757507], [-8.305674, 41.758152], [-8.311096, 41.762195], [-8.318308, 41.761283], [-8.325233, 41.765098], [-8.328234, 41.763292], [-8.336653, 41.763728], [-8.341756, 41.761468], [-8.344765, 41.762363], [-8.349267, 41.760103], [-8.352557, 41.755145], [-8.349814, 41.744122], [-8.352516, 41.743441], [-8.352203, 41.739616], [-8.357897, 41.735103], [-8.362407, 41.735994], [-8.368703, 41.73193], [-8.374122, 41.734845], [-8.384922, 41.73032], [-8.387032, 41.731891], [-8.393033, 41.729852], [-8.396942, 41.730518], [-8.400531, 41.726683], [-8.402934, 41.726452], [-8.404721, 41.722847], [-8.417349, 41.725067], [-8.422737, 41.720552], [-8.429643, 41.719859], [-8.430533, 41.717381], [-8.435927, 41.714441], [-8.441632, 41.713975], [-8.4446, 41.70654], [-8.453868, 41.697961], [-8.453255, 41.695487], [-8.461659, 41.694563], [-8.482012, 41.682123], [-8.484371, 41.674238], [-8.49308, 41.674886], [-8.499963, 41.671038], [-8.50927, 41.671233], [-8.51018, 41.672806], [-8.511967, 41.670324], [-8.509856, 41.668755], [-8.51702, 41.661979], [-8.521107, 41.66039]], [[-8.395777, 41.696289], [-8.383749, 41.69727], [-8.371748, 41.695562], [-8.359786, 41.690033], [-8.349118, 41.68024], [-8.344505, 41.671206], [-8.343676, 41.662194], [-8.348168, 41.650462], [-8.360294, 41.638704], [-8.372353, 41.633337], [-8.4038, 41.626493], [-8.408452, 41.624403], [-8.416061, 41.617549], [-8.432591, 41.609563], [-8.444604, 41.608196], [-8.456584, 41.610742], [-8.468971, 41.617806], [-8.476356, 41.626847], [-8.479327, 41.635867], [-8.478904, 41.644873], [-8.473178, 41.653854], [-8.444055, 41.67216], [-8.433422, 41.680686], [-8.416623, 41.689609], [-8.395777, 41.696289]], [[-8.337643, 41.505391], [-8.324972, 41.499956], [-8.318815, 41.490912], [-8.319276, 41.481907], [-8.327812, 41.47295], [-8.338008, 41.469563], [-8.349974, 41.470513], [-8.361867, 41.478938], [-8.364125, 41.482164], [-8.364578, 41.491174], [-8.357755, 41.500143], [-8.349633, 41.504612], [-8.337643, 41.505391]], [[-8.134202, 41.48606], [-8.131958, 41.489653], [-8.122119, 41.493824], [-8.110143, 41.493515], [-8.100445, 41.489411], [-8.094946, 41.480361], [-8.098259, 41.471379], [-8.110533, 41.465015], [-8.122501, 41.465479], [-8.132951, 41.471646], [-8.134363, 41.473976], [-8.136785, 41.480682], [-8.134202, 41.48606]], [[-8.386562, 41.400457], [-8.374559, 41.404581], [-8.362582, 41.405993], [-8.350627, 41.405087], [-8.337379, 41.400946], [-8.323802, 41.391859], [-8.317459, 41.382814], [-8.314969, 41.373792], [-8.315106, 41.364785], [-8.317891, 41.355794], [-8.324299, 41.346824], [-8.339355, 41.336709], [-8.351342, 41.333151], [-8.3633, 41.332352], [-8.375236, 41.333903], [-8.387146, 41.338276], [-8.399023, 41.346341], [-8.40668, 41.356286], [-8.409525, 41.365308], [-8.409387, 41.374315], [-8.406288, 41.383307], [-8.398999, 41.392276], [-8.386562, 41.400457]], [[-8.733779, 41.329589], [-8.721823, 41.331096], [-8.709875, 41.330352], [-8.697939, 41.327438], [-8.686019, 41.321107], [-8.676957, 41.312324], [-8.672676, 41.303304], [-8.67206, 41.294294], [-8.675154, 41.285295], [-8.682558, 41.276308], [-8.698215, 41.267515], [-8.710167, 41.264556], [-8.722109, 41.263708], [-8.734042, 41.264862], [-8.745967, 41.268398], [-8.757879, 41.275671], [-8.765777, 41.285515], [-8.76815, 41.294528], [-8.767172, 41.303534], [-8.762588, 41.312532], [-8.752871, 41.321519], [-8.733779, 41.329589]]], [[[-8.553665, 41.455801], [-8.553058, 41.456031], [-8.553663, 41.456152], [-8.553665, 41.455801]]]]}}, {"id": "3", "type": "Feature", "properties": {"fill": "#e57b10", "value_min": -1.75, "value_max": -1.5}, "geometry": {"type": "Polygon", "coordinates": [[[-8.660938, 41.549019], [-8.667923, 41.537487], [-8.667677, 41.528479], [-8.662558, 41.519456], [-8.652308, 41.510418], [-8.637215, 41.502892], [-8.625251, 41.499803], [-8.613268, 41.500174], [-8.601259, 41.504602], [-8.593978, 41.510227], [-8.588226, 41.519214], [-8.586772, 41.528216], [-8.589309, 41.537233], [-8.600975, 41.550891], [-8.612928, 41.557139], [-8.624904, 41.559989], [-8.636896, 41.559927], [-8.648906, 41.556814], [-8.660938, 41.549019]], [[-8.648988, 41.54163], [-8.636959, 41.548661], [-8.624961, 41.550028], [-8.612987, 41.547345], [-8.601049, 41.538808], [-8.596282, 41.52825], [-8.598066, 41.519249], [-8.601193, 41.515392], [-8.613224, 41.507556], [-8.625214, 41.50632], [-8.639303, 41.510378], [-8.650913, 41.519421], [-8.65468, 41.52844], [-8.652611, 41.537441], [-8.648988, 41.54163]]]}}, {"id": "4", "type": "Feature", "properties": {"fill": "#e19f31", "value_min": -1.5, "value_max": -1.25}, "geometry": {"type": "Polygon", "coordinates": [[[-8.66082, 41.571588], [-8.675057, 41.564529], [-8.684446, 41.555548], [-8.689317, 41.546554], [-8.690359, 41.537549], [-8.687599, 41.528534], [-8.68091, 41.519509], [-8.668286, 41.510465], [-8.637258, 41.495314], [-8.625297, 41.491784], [-8.613323, 41.490896], [-8.601326, 41.493763], [-8.58868, 41.501201], [-8.580245, 41.510178], [-8.576426, 41.519171], [-8.575432, 41.528175], [-8.581819, 41.546213], [-8.58896, 41.554695], [-8.600893, 41.564163], [-8.612849, 41.570374], [-8.636812, 41.574994], [-8.648811, 41.5743], [-8.66082, 41.571588]], [[-8.660938, 41.549019], [-8.648906, 41.556814], [-8.636896, 41.559927], [-8.624904, 41.559989], [-8.612928, 41.557139], [-8.600975, 41.550891], [-8.589309, 41.537233], [-8.586772, 41.528216], [-8.588226, 41.519214], [-8.593978, 41.510227], [-8.601259, 41.504602], [-8.613268, 41.500174], [-8.625251, 41.499803], [-8.637215, 41.502892], [-8.652308, 41.510418], [-8.662558, 41.519456], [-8.667677, 41.528479], [-8.667923, 41.537487], [-8.660938, 41.549019]]]}}, {"id": "6", "type": "Feature", "properties": {"fill": "#a3a3a3", "value_min": -1.0, "value_max": -0.75}, "geometry": {"type": "MultiPolygon", "coordinates": [[[[-7.849021, 41.861698], [-7.828323, 41.840823], [-7.804858, 41.807289], [-7.792913, 41.802329], [-7.761087, 41.810507], [-7.728174, 41.814394], [-7.732041, 41.821514], [-7.74345, 41.825605], [-7.738918, 41.82874], [-7.742196, 41.833928], [-7.74729, 41.837772], [-7.746349, 41.84407], [-7.750246, 41.846784], [-7.750532, 41.849261], [-7.743309, 41.849012], [-7.746901, 41.8524], [-7.746881, 41.855776], [-7.73843, 41.859348], [-7.734159, 41.868337], [-7.730228, 41.871024], [-7.729293, 41.875972], [-7.720533, 41.880218], [-7.720523, 41.881793], [-7.725335, 41.882935], [-7.726208, 41.887665], [-7.737044, 41.888828], [-7.73944, 41.891087], [-7.74246, 41.889747], [-7.742785, 41.885922], [-7.756022, 41.888441], [-7.758719, 41.890926], [-7.756592, 41.89407], [-7.758076, 41.897901], [-7.764097, 41.898595], [-7.779227, 41.886264], [-7.785257, 41.885157], [-7.788886, 41.882467], [-7.794007, 41.882257], [-7.796739, 41.878214], [-7.794349, 41.87438], [-7.797064, 41.873488], [-7.803381, 41.874857], [-7.804914, 41.869459], [-7.813032, 41.871958], [-7.814229, 41.873537], [-7.823863, 41.874013], [-7.825059, 41.875817], [-7.830479, 41.875831], [-7.830789, 41.874031], [-7.832894, 41.874712], [-7.83772, 41.872924], [-7.842528, 41.875187], [-7.841663, 41.866632], [-7.849021, 41.861698]]], [[[-8.733176, 41.576644], [-8.735931, 41.57663], [-8.736564, 41.580228], [-8.738354, 41.579318], [-8.740778, 41.582006], [-8.74467, 41.581535], [-8.750711, 41.58623], [-8.75993, 41.578527], [-8.767441, 41.580286], [-8.769874, 41.583874], [-8.768997, 41.58613], [-8.773228, 41.589482], [-8.774165, 41.593303], [-8.78556, 41.593464], [-8.797327, 41.600599], [-8.804218, 41.600109], [-8.80456, 41.604158], [-8.809434, 41.611332], [-8.828644, 41.609656], [-8.82839, 41.585633], [-8.818497, 41.554794], [-8.8221, 41.547542], [-8.821965, 41.534907], [-8.815926, 41.525624], [-8.81063, 41.5101], [-8.813279, 41.503483], [-8.812636, 41.496944], [-8.804699, 41.482068], [-8.798552, 41.474753], [-8.80154, 41.446836], [-8.806115, 41.43713], [-8.807354, 41.425915], [-8.811035, 41.418186], [-8.810194, 41.410767], [-8.733448, 41.410631], [-8.637692, 41.417257], [-8.577868, 41.416181], [-8.550562, 41.419991], [-8.534094, 41.428933], [-8.526048, 41.437908], [-8.521749, 41.446897], [-8.519076, 41.455894], [-8.518818, 41.4649], [-8.526214, 41.500961], [-8.526832, 41.527985], [-8.528878, 41.537001], [-8.534166, 41.54603], [-8.549909, 41.564107], [-8.554409, 41.573132], [-8.556344, 41.582147], [-8.554275, 41.600153], [-8.547235, 41.614832], [-8.554533, 41.615255], [-8.557244, 41.617046], [-8.562639, 41.61635], [-8.568056, 41.619031], [-8.570735, 41.616095], [-8.577321, 41.614269], [-8.581231, 41.615829], [-8.585766, 41.620988], [-8.591462, 41.620515], [-8.596534, 41.616668], [-8.601628, 41.615972], [-8.603996, 41.611686], [-8.609369, 41.608287], [-8.614156, 41.606692], [-8.619881, 41.610269], [-8.621338, 41.604636], [-8.628833, 41.604378], [-8.632714, 41.602148], [-8.612703, 41.594864], [-8.600749, 41.587606], [-8.588815, 41.577489], [-8.570448, 41.555179], [-8.560802, 41.537127], [-8.558965, 41.519106], [-8.561391, 41.510107], [-8.56665, 41.50112], [-8.577385, 41.490683], [-8.601429, 41.476819], [-8.61342, 41.474599], [-8.625387, 41.476218], [-8.650049, 41.492397], [-8.66121, 41.496948], [-8.673174, 41.500301], [-8.709093, 41.50587], [-8.721849, 41.510607], [-8.733005, 41.518776], [-8.74072, 41.528666], [-8.744974, 41.546691], [-8.74112, 41.564697], [-8.733176, 41.576644]], [[-8.553665, 41.455801], [-8.553663, 41.456152], [-8.553058, 41.456031], [-8.553665, 41.455801]]], [[[-8.536011, 41.631528], [-8.521756, 41.654066], [-8.521107, 41.66039], [-8.522103, 41.658811], [-8.525706, 41.659023], [-8.527769, 41.652714], [-8.534066, 41.652017], [-8.537951, 41.649302], [-8.537634, 41.646602], [-8.543876, 41.637352], [-8.543855, 41.633976], [-8.536011, 41.631528]]], [[[-7.761288, 41.735409], [-7.784982, 41.756722], [-7.805317, 41.782596], [-7.817315, 41.784523], [-7.84144, 41.781352], [-7.865516, 41.780819], [-7.877506, 41.783324], [-7.889438, 41.78921], [-7.900616, 41.802921], [-7.912908, 41.824695], [-7.924899, 41.82767], [-7.949044, 41.823945], [-7.961078, 41.824422], [-7.98509, 41.8289], [-7.997131, 41.828996], [-8.009281, 41.822021], [-8.014223, 41.812959], [-8.015296, 41.803961], [-8.013572, 41.794939], [-8.001986, 41.776826], [-7.990815, 41.767721], [-7.974163, 41.759025], [-7.962094, 41.761474], [-7.953623, 41.767388], [-7.937937, 41.767395], [-7.928774, 41.758153], [-7.934649, 41.7492], [-7.938281, 41.746508], [-7.954914, 41.74038], [-7.960024, 41.731419], [-7.962019, 41.713423], [-7.960107, 41.695392], [-7.952285, 41.677307], [-7.939688, 41.660948], [-7.927849, 41.650591], [-7.905701, 41.637025], [-7.907793, 41.639453], [-7.906884, 41.641927], [-7.904483, 41.641923], [-7.897869, 41.645511], [-7.89696, 41.647985], [-7.893961, 41.647528], [-7.892455, 41.649101], [-7.892145, 41.651576], [-7.901724, 41.658573], [-7.902017, 41.660599], [-7.899913, 41.66127], [-7.900198, 41.665547], [-7.898396, 41.665769], [-7.896885, 41.668692], [-7.883969, 41.67069], [-7.879755, 41.673607], [-7.877044, 41.676077], [-7.876723, 41.681253], [-7.873401, 41.686198], [-7.868896, 41.686413], [-7.867408, 41.683258], [-7.864403, 41.683701], [-7.864096, 41.685276], [-7.860493, 41.685268], [-7.857773, 41.689538], [-7.854776, 41.68818], [-7.847538, 41.695365], [-7.837309, 41.699391], [-7.835792, 41.702763], [-7.839682, 41.705924], [-7.838465, 41.709522], [-7.832453, 41.710407], [-7.825252, 41.708813], [-7.818621, 41.713522], [-7.815291, 41.718689], [-7.808986, 41.717996], [-7.808396, 41.715744], [-7.803298, 41.714154], [-7.790966, 41.717044], [-7.789449, 41.719966], [-7.78464, 41.720402], [-7.78252, 41.723546], [-7.776204, 41.724652], [-7.773786, 41.727346], [-7.770798, 41.72441], [-7.765698, 41.723044], [-7.761765, 41.727758], [-7.763239, 41.732714], [-7.761288, 41.735409]], [[-7.937372, 41.801651], [-7.928385, 41.794176], [-7.92979, 41.785183], [-7.937709, 41.781225], [-7.949743, 41.781167], [-7.958622, 41.785448], [-7.960353, 41.79447], [-7.949399, 41.802232], [-7.937372, 41.801651]], [[-7.890423, 41.732039], [-7.877736, 41.721638], [-7.8787, 41.71264], [-7.890971, 41.7002], [-7.903002, 41.699417], [-7.9149, 41.706594], [-7.918839, 41.713025], [-7.917406, 41.722018], [-7.902443, 41.732282], [-7.890423, 41.732039]]], [[[-8.395777, 41.696289], [-8.416623, 41.689609], [-8.433422, 41.680686], [-8.444055, 41.67216], [-8.473178, 41.653854], [-8.478904, 41.644873], [-8.479327, 41.635867], [-8.476356, 41.626847], [-8.468971, 41.617806], [-8.456584, 41.610742], [-8.444604, 41.608196], [-8.432591, 41.609563], [-8.416061, 41.617549], [-8.408452, 41.624403], [-8.4038, 41.626493], [-8.372353, 41.633337], [-8.360294, 41.638704], [-8.348168, 41.650462], [-8.343676, 41.662194], [-8.344505, 41.671206], [-8.349118, 41.68024], [-8.359786, 41.690033], [-8.371748, 41.695562], [-8.383749, 41.69727], [-8.395777, 41.696289]]], [[[-8.337643, 41.505391], [-8.349633, 41.504612], [-8.357755, 41.500143], [-8.364578, 41.491174], [-8.364125, 41.482164], [-8.361867, 41.478938], [-8.349974, 41.470513], [-8.338008, 41.469563], [-8.327812, 41.47295], [-8.319276, 41.481907], [-8.318815, 41.490912], [-8.324972, 41.499956], [-8.337643, 41.505391]]], [[[-8.490258, 41.227646], [-8.497479, 41.239618], [-8.506758, 41.248666], [-8.519215, 41.25637], [-8.53112, 41.260866], [-8.543042, 41.263124], [-8.554977, 41.263469], [-8.566925, 41.262], [-8.578885, 41.258544], [-8.596748, 41.249016], [-8.607355, 41.240045], [-8.626887, 41.213988], [-8.638847, 41.208321], [-8.674569, 41.220888], [-8.686493, 41.222149], [-8.69843, 41.220783], [-8.710378, 41.2168], [-8.717337, 41.213344], [-8.727182, 41.20436], [-8.731795, 41.195363], [-8.732954, 41.186357], [-8.730895, 41.177345], [-8.722524, 41.165392], [-8.710639, 41.157428], [-8.69874, 41.153261], [-8.686829, 41.151642], [-8.674239, 41.15202], [-8.674849, 41.153767], [-8.672489, 41.15648], [-8.66117, 41.156307], [-8.662078, 41.158104], [-8.660313, 41.160813], [-8.657033, 41.160378], [-8.654961, 41.161963], [-8.653231, 41.169174], [-8.655366, 41.175467], [-8.647955, 41.180228], [-8.647696, 41.185181], [-8.640929, 41.196241], [-8.634946, 41.193341], [-8.632526, 41.188624], [-8.625658, 41.186628], [-8.621132, 41.178994], [-8.613374, 41.177451], [-8.608583, 41.174095], [-8.609164, 41.172066], [-8.604942, 41.164881], [-8.59422, 41.165149], [-8.589174, 41.167645], [-8.589194, 41.170572], [-8.583263, 41.174422], [-8.582094, 41.177803], [-8.578825, 41.178941], [-8.581296, 41.191762], [-8.575958, 41.195609], [-8.576894, 41.201908], [-8.574515, 41.202593], [-8.57423, 41.20462], [-8.567971, 41.204644], [-8.565895, 41.206227], [-8.567697, 41.208246], [-8.566512, 41.209376], [-8.559636, 41.206251], [-8.554271, 41.20627], [-8.549521, 41.209214], [-8.544157, 41.209458], [-8.54238, 41.211265], [-8.532257, 41.213102], [-8.52653, 41.202542], [-8.523236, 41.200077], [-8.518471, 41.200543], [-8.51163, 41.203042], [-8.510456, 41.206197], [-8.505693, 41.207113], [-8.504239, 41.213646], [-8.500076, 41.21546], [-8.50308, 41.219502], [-8.502204, 41.222656], [-8.495642, 41.222227], [-8.490258, 41.227646]]]]}}, {"id": "5", "type": "Feature", "properties": {"fill": "#b6a27f", "value_min": -1.25, "value_max": -1.0}, "geometry": {"type": "MultiPolygon", "coordinates": [[[[-7.937372, 41.801651], [-7.949399, 41.802232], [-7.960353, 41.79447], [-7.958622, 41.785448], [-7.949743, 41.781167], [-7.937709, 41.781225], [-7.92979, 41.785183], [-7.928385, 41.794176], [-7.937372, 41.801651]]], [[[-7.890423, 41.732039], [-7.902443, 41.732282], [-7.917406, 41.722018], [-7.918839, 41.713025], [-7.9149, 41.706594], [-7.903002, 41.699417], [-7.890971, 41.7002], [-7.8787, 41.71264], [-7.877736, 41.721638], [-7.890423, 41.732039]]], [[[-8.733176, 41.576644], [-8.74112, 41.564697], [-8.744974, 41.546691], [-8.74072, 41.528666], [-8.733005, 41.518776], [-8.721849, 41.510607], [-8.709093, 41.50587], [-8.673174, 41.500301], [-8.66121, 41.496948], [-8.650049, 41.492397], [-8.625387, 41.476218], [-8.61342, 41.474599], [-8.601429, 41.476819], [-8.577385, 41.490683], [-8.56665, 41.50112], [-8.561391, 41.510107], [-8.558965, 41.519106], [-8.560802, 41.537127], [-8.570448, 41.555179], [-8.588815, 41.577489], [-8.600749, 41.587606], [-8.612703, 41.594864], [-8.632714, 41.602148], [-8.639577, 41.597804], [-8.640152, 41.59465], [-8.645536, 41.593051], [-8.646744, 41.594171], [-8.649125, 41.591909], [-8.656622, 41.5921], [-8.660788, 41.588255], [-8.663794, 41.589141], [-8.665265, 41.585758], [-8.66948, 41.587989], [-8.684455, 41.586117], [-8.685608, 41.58071], [-8.697261, 41.576376], [-8.701703, 41.570277], [-8.707704, 41.570923], [-8.712485, 41.569323], [-8.716422, 41.573805], [-8.720316, 41.57356], [-8.725151, 41.577811], [-8.726633, 41.576003], [-8.733176, 41.576644]], [[-8.66082, 41.571588], [-8.648811, 41.5743], [-8.636812, 41.574994], [-8.612849, 41.570374], [-8.600893, 41.564163], [-8.58896, 41.554695], [-8.581819, 41.546213], [-8.575432, 41.528175], [-8.576426, 41.519171], [-8.580245, 41.510178], [-8.58868, 41.501201], [-8.601326, 41.493763], [-8.613323, 41.490896], [-8.625297, 41.491784], [-8.637258, 41.495314], [-8.668286, 41.510465], [-8.68091, 41.519509], [-8.687599, 41.528534], [-8.690359, 41.537549], [-8.689317, 41.546554], [-8.684446, 41.555548], [-8.675057, 41.564529], [-8.66082, 41.571588]]]]}}]}