{"type": "FeatureCollection", "features": [{"id": "4", "type": "Feature", "properties": {"fill": "#90a4bc", "value_min": 1.0, "value_max": -1.25}, "geometry": {"type": "MultiPolygon", "coordinates": [[[[-7.827311, 41.708818], [-7.830616, 41.714767], [-7.842511, 41.721772], [-7.854536, 41.721602], [-7.866707, 41.713114], [-7.869374, 41.703542], [-7.866998, 41.696581], [-7.855353, 41.688407], [-7.855076, 41.688264], [-7.854776, 41.688262], [-7.847538, 41.695365], [-7.837309, 41.699391], [-7.835792, 41.702763], [-7.839682, 41.705924], [-7.838465, 41.709522], [-7.832453, 41.710407], [-7.827311, 41.708818]]], [[[-8.660936, 41.549469], [-8.668904, 41.537489], [-8.669437, 41.528484], [-8.665788, 41.519466], [-8.656596, 41.510431], [-8.649181, 41.505969], [-8.637226, 41.50093], [-8.625259, 41.498468], [-8.61327, 41.499703], [-8.601259, 41.504625], [-8.593821, 41.510227], [-8.587432, 41.519211], [-8.585316, 41.528211], [-8.589051, 41.540364], [-8.593016, 41.546253], [-8.600961, 41.553054], [-8.612919, 41.558734], [-8.624898, 41.560995], [-8.636893, 41.560565], [-8.648904, 41.557206], [-8.660936, 41.549469]]], [[[-8.122307, 41.479889], [-8.110336, 41.479393], [-8.109476, 41.480474], [-8.110305, 41.481659], [-8.122287, 41.481339], [-8.122307, 41.479889]]], [[[-8.644292, 41.189698], [-8.646252, 41.20414], [-8.650748, 41.213448], [-8.662617, 41.225019], [-8.674522, 41.230304], [-8.686444, 41.232449], [-8.698377, 41.232401], [-8.710317, 41.230594], [-8.732896, 41.222389], [-8.745552, 41.21341], [-8.753352, 41.204419], [-8.757333, 41.195419], [-8.758765, 41.186414], [-8.757657, 41.177404], [-8.753902, 41.168388], [-8.746388, 41.159272], [-8.734503, 41.150888], [-8.721474, 41.145789], [-8.680936, 41.146663], [-8.674215, 41.148997], [-8.674849, 41.153767], [-8.672489, 41.15648], [-8.661583, 41.15653], [-8.661335, 41.156757], [-8.660313, 41.160813], [-8.657621, 41.160375], [-8.654972, 41.163334], [-8.653231, 41.169174], [-8.655366, 41.175467], [-8.647955, 41.180228], [-8.647696, 41.185181], [-8.644292, 41.189698]]]]}}, {"id": "3", "type": "Feature", "properties": {"fill": "#a3a3a3", "value_min": 0.75, "value_max": -1.0}, "geometry": {"type": "MultiPolygon", "coordinates": [[[[-8.107247, 41.8114], [-8.117188, 41.812302], [-8.123807, 41.808702], [-8.138247, 41.808477], [-8.139751, 41.813203], [-8.14276, 41.812978], [-8.145769, 41.815453], [-8.149078, 41.814777], [-8.153893, 41.817928], [-8.161415, 41.818376], [-8.165326, 41.81815], [-8.173744, 41.808019], [-8.177054, 41.808017], [-8.182773, 41.812516], [-8.190291, 41.809587], [-8.197158, 41.814129], [-8.201063, 41.808724], [-8.204973, 41.807372], [-8.205872, 41.804445], [-8.213692, 41.803765], [-8.217598, 41.80016], [-8.217589, 41.793634], [-8.224207, 41.794303], [-8.229917, 41.791598], [-8.240744, 41.791588], [-8.24074, 41.789338], [-8.244347, 41.787984], [-8.245546, 41.785731], [-8.251257, 41.784375], [-8.251845, 41.777172], [-8.257551, 41.773564], [-8.261762, 41.774235], [-8.271366, 41.766346], [-8.280681, 41.764083], [-8.284038, 41.761109], [-8.284931, 41.757507], [-8.305674, 41.758152], [-8.311096, 41.762195], [-8.318308, 41.761283], [-8.325233, 41.765098], [-8.328234, 41.763292], [-8.336653, 41.763728], [-8.341756, 41.761468], [-8.344765, 41.762363], [-8.349267, 41.760103], [-8.352557, 41.755145], [-8.349814, 41.744122], [-8.352516, 41.743441], [-8.352203, 41.739616], [-8.357897, 41.735103], [-8.362407, 41.735994], [-8.368703, 41.73193], [-8.374122, 41.734845], [-8.384922, 41.73032], [-8.387032, 41.731891], [-8.393033, 41.729852], [-8.396942, 41.730518], [-8.400531, 41.726683], [-8.402934, 41.726452], [-8.404721, 41.722847], [-8.417349, 41.725067], [-8.422737, 41.720552], [-8.429643, 41.719859], [-8.430533, 41.717381], [-8.435927, 41.714441], [-8.441632, 41.713975], [-8.4446, 41.70654], [-8.453868, 41.697961], [-8.453255, 41.695487], [-8.461659, 41.694563], [-8.467939, 41.689593], [-8.478124, 41.685061], [-8.482012, 41.682123], [-8.484371, 41.674238], [-8.49308, 41.674886], [-8.499963, 41.671038], [-8.50927, 41.671233], [-8.51018, 41.672806], [-8.511967, 41.670324], [-8.509856, 41.668755], [-8.512252, 41.667847], [-8.514629, 41.663788], [-8.522103, 41.658811], [-8.525706, 41.659023], [-8.527769, 41.652714], [-8.534066, 41.652017], [-8.537951, 41.649302], [-8.537634, 41.646602], [-8.543876, 41.637352], [-8.543855, 41.633976], [-8.536342, 41.631977], [-8.535128, 41.62973], [-8.543431, 41.61462], [-8.554533, 41.615255], [-8.557244, 41.617046], [-8.562639, 41.61635], [-8.568056, 41.619031], [-8.570735, 41.616095], [-8.577321, 41.614269], [-8.581231, 41.615829], [-8.585766, 41.620988], [-8.591462, 41.620515], [-8.596534, 41.616668], [-8.601628, 41.615972], [-8.603996, 41.611686], [-8.613256, 41.606696], [-8.619881, 41.610269], [-8.621338, 41.604636], [-8.628833, 41.604378], [-8.636302, 41.600744], [-8.64075, 41.594422], [-8.645536, 41.593051], [-8.646744, 41.594171], [-8.649125, 41.591909], [-8.656622, 41.5921], [-8.660788, 41.588255], [-8.663794, 41.589141], [-8.665265, 41.585758], [-8.66948, 41.587989], [-8.684455, 41.586117], [-8.685608, 41.58071], [-8.697261, 41.576376], [-8.701703, 41.570277], [-8.707704, 41.570923], [-8.711586, 41.569327], [-8.716422, 41.573805], [-8.720316, 41.57356], [-8.725151, 41.577811], [-8.726633, 41.576003], [-8.734424, 41.575737], [-8.736564, 41.580228], [-8.738354, 41.579318], [-8.740778, 41.582006], [-8.74467, 41.581535], [-8.750711, 41.58623], [-8.756374, 41.582823], [-8.75635, 41.580347], [-8.762327, 41.578514], [-8.764443, 41.580303], [-8.767441, 41.580286], [-8.769874, 41.583874], [-8.768997, 41.58613], [-8.773228, 41.589482], [-8.775371, 41.593972], [-8.78556, 41.593464], [-8.797327, 41.600599], [-8.804218, 41.600109], [-8.80456, 41.604158], [-8.809434, 41.611332], [-8.828644, 41.609656], [-8.82839, 41.585633], [-8.818497, 41.554794], [-8.8221, 41.547542], [-8.821965, 41.534907], [-8.815926, 41.525624], [-8.81063, 41.5101], [-8.813279, 41.503483], [-8.812636, 41.496944], [-8.804699, 41.482068], [-8.798552, 41.474753], [-8.80154, 41.446836], [-8.806115, 41.43713], [-8.807354, 41.425915], [-8.811211, 41.415789], [-8.799695, 41.14406], [-8.721474, 41.145789], [-8.734503, 41.150888], [-8.746388, 41.159272], [-8.753902, 41.168388], [-8.757657, 41.177404], [-8.758765, 41.186414], [-8.757333, 41.195419], [-8.753352, 41.204419], [-8.745552, 41.21341], [-8.732896, 41.222389], [-8.710317, 41.230594], [-8.698377, 41.232401], [-8.686444, 41.232449], [-8.674522, 41.230304], [-8.662617, 41.225019], [-8.650748, 41.213448], [-8.646252, 41.20414], [-8.644292, 41.189698], [-8.641225, 41.196014], [-8.638841, 41.196025], [-8.638231, 41.194227], [-8.634946, 41.193341], [-8.632526, 41.188624], [-8.625658, 41.186628], [-8.621132, 41.178994], [-8.613374, 41.177451], [-8.608583, 41.174095], [-8.609164, 41.172066], [-8.604942, 41.164881], [-8.59571, 41.165267], [-8.603257, 41.176269], [-8.615032, 41.201387], [-8.625095, 41.240104], [-8.627567, 41.267136], [-8.626549, 41.273366], [-8.625974, 41.276138], [-8.616649, 41.285115], [-8.602564, 41.290734], [-8.57864, 41.296628], [-8.554735, 41.299081], [-8.530854, 41.297956], [-8.507003, 41.29299], [-8.483187, 41.284039], [-8.467602, 41.275515], [-8.447825, 41.260025], [-8.448432, 41.262208], [-8.439785, 41.262907], [-8.438023, 41.268989], [-8.434745, 41.269673], [-8.432691, 41.277107], [-8.427032, 41.279372], [-8.429143, 41.284319], [-8.426171, 41.287028], [-8.426488, 41.291079], [-8.425013, 41.294909], [-8.422037, 41.296942], [-8.422647, 41.299867], [-8.407744, 41.304856], [-8.406262, 41.307335], [-8.403277, 41.307342], [-8.401801, 41.311398], [-8.399712, 41.311628], [-8.400316, 41.313202], [-8.396738, 41.314336], [-8.398835, 41.316131], [-8.393775, 41.31997], [-8.393489, 41.323122], [-8.391105, 41.324253], [-8.386325, 41.323588], [-8.380382, 41.331254], [-8.375305, 41.33104], [-8.37201, 41.328346], [-8.361563, 41.329718], [-8.358276, 41.329049], [-8.357673, 41.327249], [-8.350207, 41.327264], [-8.346032, 41.328847], [-8.342462, 41.333131], [-8.333215, 41.336299], [-8.326363, 41.342163], [-8.324568, 41.341041], [-8.323376, 41.341943], [-8.320676, 41.338121], [-8.312604, 41.334983], [-8.313794, 41.333405], [-8.31139, 41.328007], [-8.307502, 41.325762], [-8.305116, 41.326891], [-8.303024, 41.325994], [-8.303615, 41.323742], [-8.301216, 41.319694], [-8.296431, 41.316774], [-8.297618, 41.313846], [-8.295817, 41.310022], [-8.281801, 41.316569], [-8.279132, 41.324451], [-8.272266, 41.32536], [-8.265709, 41.331221], [-8.269004, 41.336169], [-8.263339, 41.340902], [-8.262751, 41.345405], [-8.256483, 41.347663], [-8.255889, 41.349689], [-8.249622, 41.353072], [-8.251123, 41.356897], [-8.248141, 41.360052], [-8.248448, 41.364328], [-8.245461, 41.364781], [-8.244272, 41.368384], [-8.241287, 41.370413], [-8.224854, 41.370878], [-8.21738, 41.368182], [-8.214399, 41.373587], [-8.208127, 41.376968], [-8.199163, 41.377423], [-8.194677, 41.374275], [-8.191691, 41.376302], [-8.189299, 41.375403], [-8.184818, 41.376756], [-8.168382, 41.377438], [-8.164499, 41.38059], [-8.152544, 41.375866], [-8.151049, 41.37339], [-8.145073, 41.374742], [-8.139694, 41.377894], [-8.133418, 41.374292], [-8.125051, 41.375193], [-8.119672, 41.376768], [-8.119672, 41.378569], [-8.116683, 41.380144], [-8.117877, 41.385771], [-8.113992, 41.386896], [-8.112795, 41.390723], [-8.110105, 41.390947], [-8.108011, 41.393648], [-8.103827, 41.392972], [-8.105321, 41.394998], [-8.10263, 41.396123], [-8.10801, 41.398825], [-8.108606, 41.403102], [-8.104419, 41.406252], [-8.104119, 41.408728], [-8.101727, 41.409403], [-8.102025, 41.411204], [-8.092756, 41.411201], [-8.09126, 41.414352], [-8.079893, 41.41975], [-8.077503, 41.416597], [-8.070923, 41.41862], [-8.066739, 41.416142], [-8.061953, 41.417264], [-8.059852, 41.424916], [-8.055959, 41.429415], [-8.05745, 41.432793], [-8.056549, 41.436394], [-8.069999, 41.447206], [-8.068788, 41.462286], [-8.073872, 41.46499], [-8.074468, 41.468141], [-8.073564, 41.474668], [-8.066374, 41.482318], [-8.066069, 41.48817], [-8.072054, 41.490199], [-8.07175, 41.494925], [-8.078333, 41.49898], [-8.078332, 41.500331], [-8.093, 41.504613], [-8.0909, 41.511806], [-8.097924, 41.510761], [-8.109896, 41.511555], [-8.126918, 41.516637], [-8.136872, 41.52572], [-8.139661, 41.534748], [-8.137353, 41.543738], [-8.13336, 41.549255], [-8.121242, 41.558628], [-8.097169, 41.565043], [-8.085188, 41.564172], [-8.081578, 41.562584], [-8.081276, 41.565382], [-8.078879, 41.56493], [-8.075279, 41.568305], [-8.073182, 41.568079], [-8.069283, 41.570553], [-8.068081, 41.573478], [-8.056684, 41.579549], [-8.052181, 41.584498], [-8.052777, 41.587649], [-8.048277, 41.590122], [-8.045573, 41.594386], [-8.072849, 41.58837], [-8.08484, 41.588874], [-8.096785, 41.592646], [-8.108171, 41.606566], [-8.108117, 41.615572], [-8.102253, 41.624534], [-8.096245, 41.631296], [-8.091133, 41.633454], [-8.084911, 41.642411], [-8.089972, 41.651459], [-8.09592, 41.654567], [-8.107772, 41.66598], [-8.109957, 41.669629], [-8.108398, 41.678624], [-8.095404, 41.691401], [-8.085185, 41.696456], [-8.080852, 41.705428], [-8.080108, 41.714429], [-8.086291, 41.76852], [-8.092587, 41.786584], [-8.107247, 41.8114]], [[-8.131109, 41.71707], [-8.129105, 41.714811], [-8.131238, 41.707472], [-8.143275, 41.706203], [-8.143571, 41.71492], [-8.131109, 41.71707]], [[-8.660936, 41.549469], [-8.648904, 41.557206], [-8.636893, 41.560565], [-8.624898, 41.560995], [-8.612919, 41.558734], [-8.600961, 41.553054], [-8.593016, 41.546253], [-8.589051, 41.540364], [-8.585316, 41.528211], [-8.587432, 41.519211], [-8.593821, 41.510227], [-8.601259, 41.504625], [-8.61327, 41.499703], [-8.625259, 41.498468], [-8.637226, 41.50093], [-8.649181, 41.505969], [-8.656596, 41.510431], [-8.665788, 41.519466], [-8.669437, 41.528484], [-8.668904, 41.537489], [-8.660936, 41.549469]], [[-8.122307, 41.479889], [-8.122287, 41.481339], [-8.110305, 41.481659], [-8.109476, 41.480474], [-8.110336, 41.479393], [-8.122307, 41.479889]], [[-8.745669, 41.344943], [-8.73371, 41.346455], [-8.709811, 41.344896], [-8.685947, 41.336239], [-8.66386, 41.321294], [-8.654116, 41.312257], [-8.643203, 41.294208], [-8.643763, 41.285202], [-8.655609, 41.276231], [-8.678197, 41.267288], [-8.710185, 41.260457], [-8.734062, 41.260006], [-8.745993, 41.261631], [-8.757919, 41.264685], [-8.76984, 41.269788], [-8.780228, 41.276536], [-8.788351, 41.285559], [-8.792208, 41.294574], [-8.793109, 41.303583], [-8.791403, 41.312588], [-8.786629, 41.321587], [-8.777892, 41.330578], [-8.762653, 41.339555], [-8.745669, 41.344943]]], [[[-7.779672, 41.723763], [-7.802879, 41.747903], [-7.836631, 41.793284], [-7.83997, 41.811331], [-7.844191, 41.82038], [-7.852638, 41.82817], [-7.864603, 41.832534], [-7.87666, 41.831737], [-7.880589, 41.829748], [-7.888821, 41.824879], [-7.89246, 41.820856], [-7.896291, 41.811886], [-7.892795, 41.793839], [-7.893797, 41.784842], [-7.914007, 41.759606], [-7.925949, 41.764808], [-7.92808, 41.767153], [-7.937901, 41.769559], [-7.949928, 41.769846], [-7.958641, 41.767434], [-7.965484, 41.758489], [-7.961589, 41.749447], [-7.950381, 41.742049], [-7.938362, 41.741613], [-7.918379, 41.749048], [-7.91409, 41.754678], [-7.910438, 41.748973], [-7.902194, 41.746893], [-7.890289, 41.739848], [-7.879279, 41.73066], [-7.876955, 41.72163], [-7.879262, 41.712646], [-7.891036, 41.696414], [-7.919079, 41.676999], [-7.926246, 41.66806], [-7.940115, 41.634925], [-7.947671, 41.623223], [-7.957373, 41.614304], [-7.970882, 41.607135], [-7.969091, 41.603768], [-7.965796, 41.602413], [-7.9541, 41.602846], [-7.952606, 41.600592], [-7.947808, 41.60081], [-7.945413, 41.599456], [-7.942725, 41.595625], [-7.936132, 41.594488], [-7.93791, 41.601694], [-7.937004, 41.603718], [-7.931604, 41.604384], [-7.930979, 41.612711], [-7.925556, 41.620354], [-7.920755, 41.620796], [-7.917748, 41.623041], [-7.915933, 41.627764], [-7.913229, 41.628885], [-7.912613, 41.63361], [-7.906014, 41.633147], [-7.906884, 41.641927], [-7.897869, 41.645511], [-7.89696, 41.647985], [-7.892759, 41.647976], [-7.892145, 41.651576], [-7.902319, 41.659925], [-7.899913, 41.66127], [-7.900198, 41.665547], [-7.898396, 41.665769], [-7.896885, 41.668692], [-7.883969, 41.67069], [-7.879755, 41.673607], [-7.877044, 41.676077], [-7.876723, 41.681253], [-7.873401, 41.686198], [-7.868896, 41.686413], [-7.867408, 41.683258], [-7.864403, 41.683701], [-7.864096, 41.685276], [-7.860493, 41.685268], [-7.857773, 41.689538], [-7.855353, 41.688407], [-7.866998, 41.696581], [-7.869374, 41.703542], [-7.866707, 41.713114], [-7.854536, 41.721602], [-7.842511, 41.721772], [-7.830616, 41.714767], [-7.827311, 41.708818], [-7.825252, 41.708813], [-7.818621, 41.713522], [-7.815291, 41.718689], [-7.808986, 41.717996], [-7.808396, 41.715744], [-7.804499, 41.714158], [-7.79939, 41.714593], [-7.79788, 41.716164], [-7.796383, 41.71526], [-7.790966, 41.717044], [-7.789449, 41.719966], [-7.78464, 41.720402], [-7.78252, 41.723546], [-7.779672, 41.723763]]], [[[-7.971182, 41.607009], [-7.971182, 41.607009], [-7.971389, 41.606922], [-7.971182, 41.607009]]], [[[-7.974484, 41.605624], [-7.984387, 41.602679], [-7.983492, 41.600861], [-7.979592, 41.601531], [-7.974484, 41.605624]]], [[[-8.045273, 41.594452], [-8.045273, 41.594452], [-8.045524, 41.594397], [-8.045273, 41.594452]]], [[[-7.854776, 41.688262], [-7.854776, 41.688262], [-7.855076, 41.688264], [-7.854776, 41.688262]]], [[[-8.654972, 41.163334], [-8.654972, 41.163334], [-8.657621, 41.160375], [-8.654972, 41.163334]]], [[[-8.661335, 41.156757], [-8.661335, 41.156757], [-8.661583, 41.15653], [-8.661335, 41.156757]]], [[[-8.674215, 41.148997], [-8.680936, 41.146663], [-8.674793, 41.146932], [-8.674215, 41.148997]]]]}}, {"id": "2", "type": "Feature", "properties": {"fill": "#a3a3a3", "value_min": 0.5, "value_max": -0.75}, "geometry": {"type": "MultiPolygon", "coordinates": [[[[-8.107247, 41.8114], [-8.092587, 41.786584], [-8.086291, 41.76852], [-8.080108, 41.714429], [-8.080852, 41.705428], [-8.085185, 41.696456], [-8.095404, 41.691401], [-8.108398, 41.678624], [-8.109957, 41.669629], [-8.107772, 41.66598], [-8.09592, 41.654567], [-8.089972, 41.651459], [-8.084911, 41.642411], [-8.091133, 41.633454], [-8.096245, 41.631296], [-8.102253, 41.624534], [-8.108117, 41.615572], [-8.108171, 41.606566], [-8.096785, 41.592646], [-8.08484, 41.588874], [-8.072849, 41.58837], [-8.045573, 41.594386], [-8.045524, 41.594397], [-8.045273, 41.594452], [-8.031467, 41.602938], [-8.02367, 41.603156], [-8.019174, 41.601802], [-8.005971, 41.60629], [-8.003562, 41.611239], [-7.99936, 41.61281], [-7.998462, 41.612359], [-7.999669, 41.608759], [-7.996976, 41.605829], [-7.996684, 41.602003], [-7.988584, 41.603569], [-7.984387, 41.602679], [-7.974484, 41.605624], [-7.974482, 41.606701], [-7.971389, 41.606922], [-7.971182, 41.607009], [-7.970882, 41.607135], [-7.957373, 41.614304], [-7.947671, 41.623223], [-7.940115, 41.634925], [-7.926246, 41.66806], [-7.919079, 41.676999], [-7.891036, 41.696414], [-7.879262, 41.712646], [-7.876955, 41.72163], [-7.879279, 41.73066], [-7.890289, 41.739848], [-7.902194, 41.746893], [-7.910438, 41.748973], [-7.91409, 41.754678], [-7.918379, 41.749048], [-7.938362, 41.741613], [-7.950381, 41.742049], [-7.961589, 41.749447], [-7.965484, 41.758489], [-7.958641, 41.767434], [-7.949928, 41.769846], [-7.937901, 41.769559], [-7.92808, 41.767153], [-7.925949, 41.764808], [-7.914007, 41.759606], [-7.893797, 41.784842], [-7.892795, 41.793839], [-7.896291, 41.811886], [-7.89246, 41.820856], [-7.888821, 41.824879], [-7.880589, 41.829748], [-7.87666, 41.831737], [-7.864603, 41.832534], [-7.852638, 41.82817], [-7.844191, 41.82038], [-7.83997, 41.811331], [-7.836631, 41.793284], [-7.802879, 41.747903], [-7.779672, 41.723763], [-7.776204, 41.724652], [-7.773786, 41.727346], [-7.7678, 41.723276], [-7.763888, 41.724389], [-7.761765, 41.727758], [-7.762933, 41.733839], [-7.759307, 41.737203], [-7.759597, 41.739005], [-7.75689, 41.739446], [-7.758687, 41.740577], [-7.757758, 41.745301], [-7.748417, 41.749321], [-7.747487, 41.754087], [-7.757642, 41.758786], [-7.766089, 41.765527], [-7.773088, 41.774609], [-7.776344, 41.78365], [-7.777343, 41.810681], [-7.783177, 41.81975], [-7.807837, 41.847029], [-7.812614, 41.856085], [-7.816293, 41.873542], [-7.818448, 41.872873], [-7.823863, 41.874013], [-7.825059, 41.875817], [-7.830479, 41.875831], [-7.830789, 41.874031], [-7.832894, 41.874712], [-7.838021, 41.872924], [-7.842528, 41.875187], [-7.841663, 41.866632], [-7.849515, 41.861475], [-7.858542, 41.862622], [-7.859456, 41.860148], [-7.864877, 41.859711], [-7.87033, 41.851395], [-7.873043, 41.850501], [-7.873367, 41.844875], [-7.879056, 41.85254], [-7.886268, 41.855932], [-7.888076, 41.855486], [-7.891675, 41.859094], [-7.900698, 41.861588], [-7.904318, 41.859795], [-7.907309, 41.865203], [-7.906095, 41.868126], [-7.910299, 41.871285], [-7.909985, 41.875111], [-7.915391, 41.879397], [-7.921118, 41.877833], [-7.928044, 41.87807], [-7.935283, 41.874707], [-7.937389, 41.87516], [-7.941618, 41.870891], [-7.951254, 41.871132], [-7.956367, 41.87339], [-7.956362, 41.875191], [-7.960878, 41.875648], [-7.962086, 41.874074], [-7.973828, 41.875216], [-7.987996, 41.869157], [-7.990123, 41.860157], [-7.995547, 41.858138], [-7.994047, 41.855211], [-7.996162, 41.851837], [-8.003089, 41.850494], [-8.005804, 41.847346], [-8.007928, 41.838796], [-8.012753, 41.833624], [-8.013363, 41.829124], [-8.017873, 41.831379], [-8.02901, 41.829589], [-8.037134, 41.831171], [-8.041351, 41.828023], [-8.041054, 41.825097], [-8.045268, 41.824425], [-8.047679, 41.821276], [-8.057314, 41.815656], [-8.06664, 41.817012], [-8.072961, 41.813414], [-8.078678, 41.813417], [-8.082892, 41.810493], [-8.091013, 41.812521], [-8.093421, 41.811397], [-8.093723, 41.808471], [-8.101845, 41.809824], [-8.104853, 41.81185], [-8.107247, 41.8114]], [[-7.94831, 41.868792], [-7.936312, 41.865699], [-7.92527, 41.857195], [-7.921138, 41.848149], [-7.921854, 41.839149], [-7.927543, 41.830196], [-7.937006, 41.823788], [-7.949094, 41.820899], [-7.961121, 41.821751], [-7.973083, 41.826677], [-7.978422, 41.830659], [-7.983372, 41.83971], [-7.983294, 41.848716], [-7.978343, 41.857679], [-7.972507, 41.862727], [-7.960376, 41.867823], [-7.94831, 41.868792]]], [[[-8.131109, 41.71707], [-8.143571, 41.71492], [-8.143275, 41.706203], [-8.131238, 41.707472], [-8.129105, 41.714811], [-8.131109, 41.71707]]], [[[-8.081578, 41.562584], [-8.085188, 41.564172], [-8.097169, 41.565043], [-8.121242, 41.558628], [-8.13336, 41.549255], [-8.137353, 41.543738], [-8.139661, 41.534748], [-8.136872, 41.52572], [-8.126918, 41.516637], [-8.109896, 41.511555], [-8.097924, 41.510761], [-8.0909, 41.511806], [-8.091196, 41.516767], [-8.089398, 41.519468], [-8.090594, 41.522169], [-8.093588, 41.52307], [-8.091786, 41.531848], [-8.097775, 41.536127], [-8.097774, 41.537927], [-8.106759, 41.543557], [-8.101666, 41.542655], [-8.094175, 41.544904], [-8.087885, 41.542876], [-8.083389, 41.5449], [-8.080687, 41.551651], [-8.074097, 41.549848], [-8.073494, 41.553449], [-8.075891, 41.554575], [-8.076188, 41.557276], [-8.079783, 41.558403], [-8.081578, 41.562584]]], [[[-8.745669, 41.344943], [-8.762653, 41.339555], [-8.777892, 41.330578], [-8.786629, 41.321587], [-8.791403, 41.312588], [-8.793109, 41.303583], [-8.792208, 41.294574], [-8.788351, 41.285559], [-8.780228, 41.276536], [-8.76984, 41.269788], [-8.757919, 41.264685], [-8.745993, 41.261631], [-8.734062, 41.260006], [-8.710185, 41.260457], [-8.678197, 41.267288], [-8.655609, 41.276231], [-8.643763, 41.285202], [-8.643203, 41.294208], [-8.654116, 41.312257], [-8.66386, 41.321294], [-8.685947, 41.336239], [-8.709811, 41.344896], [-8.73371, 41.346455], [-8.745669, 41.344943]]], [[[-8.447825, 41.260025], [-8.467602, 41.275515], [-8.483187, 41.284039], [-8.507003, 41.29299], [-8.530854, 41.297956], [-8.554735, 41.299081], [-8.57864, 41.296628], [-8.602564, 41.290734], [-8.616649, 41.285115], [-8.625974, 41.276138], [-8.626549, 41.273366], [-8.627567, 41.267136], [-8.625095, 41.240104], [-8.615032, 41.201387], [-8.603257, 41.176269], [-8.59571, 41.165267], [-8.589174, 41.167645], [-8.589194, 41.170572], [-8.583263, 41.174422], [-8.582094, 41.177803], [-8.578825, 41.178941], [-8.581296, 41.191762], [-8.575958, 41.195609], [-8.577183, 41.200557], [-8.57492, 41.202591], [-8.579226, 41.20533], [-8.584611, 41.212942], [-8.586545, 41.221956], [-8.583761, 41.230954], [-8.579027, 41.23649], [-8.567052, 41.242778], [-8.555109, 41.244048], [-8.543191, 41.241724], [-8.531313, 41.233884], [-8.528424, 41.230741], [-8.525134, 41.22172], [-8.526537, 41.212717], [-8.529842, 41.208104], [-8.523236, 41.200077], [-8.51163, 41.203042], [-8.510456, 41.206197], [-8.505693, 41.207113], [-8.504239, 41.213646], [-8.500076, 41.21546], [-8.50308, 41.219502], [-8.502204, 41.222656], [-8.495642, 41.222227], [-8.495947, 41.223351], [-8.490894, 41.226294], [-8.487935, 41.230354], [-8.490331, 41.232373], [-8.489156, 41.235528], [-8.486181, 41.236888], [-8.484411, 41.240495], [-8.476346, 41.237818], [-8.475756, 41.23917], [-8.470986, 41.23941], [-8.471604, 41.243459], [-8.469227, 41.245267], [-8.463258, 41.244384], [-8.459989, 41.246644], [-8.455512, 41.245982], [-8.455541, 41.251834], [-8.452276, 41.25522], [-8.449891, 41.255452], [-8.449304, 41.257479], [-8.447812, 41.257258], [-8.447825, 41.260025]]]]}}, {"id": "1", "type": "Feature", "properties": {"fill": "#a3a3a3", "value_min": 0.25, "value_max": -0.5}, "geometry": {"type": "MultiPolygon", "coordinates": [[[[-7.816293, 41.873542], [-7.812614, 41.856085], [-7.807837, 41.847029], [-7.783177, 41.81975], [-7.777343, 41.810681], [-7.776344, 41.78365], [-7.773088, 41.774609], [-7.766089, 41.765527], [-7.757642, 41.758786], [-7.747487, 41.754087], [-7.743866, 41.756509], [-7.740214, 41.763924], [-7.726937, 41.771755], [-7.7254, 41.777152], [-7.727191, 41.779184], [-7.724177, 41.780299], [-7.725372, 41.781653], [-7.722296, 41.792446], [-7.728879, 41.797871], [-7.727026, 41.805517], [-7.728761, 41.816776], [-7.732041, 41.821514], [-7.743152, 41.825154], [-7.742839, 41.827178], [-7.738918, 41.82874], [-7.742196, 41.833928], [-7.74729, 41.837772], [-7.745767, 41.840692], [-7.747549, 41.844784], [-7.756007, 41.843388], [-7.768896, 41.846618], [-7.777695, 41.855719], [-7.778619, 41.864735], [-7.771919, 41.87367], [-7.767412, 41.87672], [-7.755311, 41.879256], [-7.743307, 41.876847], [-7.737598, 41.873298], [-7.734104, 41.868336], [-7.730228, 41.871024], [-7.729293, 41.875972], [-7.722351, 41.878424], [-7.720523, 41.881793], [-7.725335, 41.882935], [-7.726208, 41.887665], [-7.737044, 41.888828], [-7.737935, 41.890857], [-7.74246, 41.889747], [-7.742785, 41.885922], [-7.756022, 41.888441], [-7.758719, 41.890926], [-7.756592, 41.89407], [-7.758076, 41.897901], [-7.763193, 41.898593], [-7.779227, 41.886264], [-7.785257, 41.885157], [-7.788886, 41.882467], [-7.794309, 41.882033], [-7.796739, 41.878214], [-7.794954, 41.873932], [-7.803381, 41.874857], [-7.804914, 41.869459], [-7.816293, 41.873542]]], [[[-7.94831, 41.868792], [-7.960376, 41.867823], [-7.972507, 41.862727], [-7.978343, 41.857679], [-7.983294, 41.848716], [-7.983372, 41.83971], [-7.978422, 41.830659], [-7.973083, 41.826677], [-7.961121, 41.821751], [-7.949094, 41.820899], [-7.937006, 41.823788], [-7.927543, 41.830196], [-7.921854, 41.839149], [-7.921138, 41.848149], [-7.92527, 41.857195], [-7.936312, 41.865699], [-7.94831, 41.868792]]], [[[-8.529842, 41.208104], [-8.526537, 41.212717], [-8.525134, 41.22172], [-8.528424, 41.230741], [-8.531313, 41.233884], [-8.543191, 41.241724], [-8.555109, 41.244048], [-8.567052, 41.242778], [-8.579027, 41.23649], [-8.583761, 41.230954], [-8.586545, 41.221956], [-8.584611, 41.212942], [-8.579226, 41.20533], [-8.57492, 41.202591], [-8.57423, 41.20462], [-8.568566, 41.204416], [-8.565895, 41.206227], [-8.567697, 41.208246], [-8.566512, 41.209376], [-8.559636, 41.206251], [-8.554271, 41.20627], [-8.549521, 41.209214], [-8.544157, 41.209458], [-8.54238, 41.211265], [-8.532257, 41.213102], [-8.531648, 41.211078], [-8.529858, 41.210859], [-8.529842, 41.208104]]]]}}, {"id": "0", "type": "Feature", "properties": {"fill": "#a3a3a3", "value_min": 0.0, "value_max": -0.25}, "geometry": {"type": "Polygon", "coordinates": [[[-7.734104, 41.868336], [-7.737598, 41.873298], [-7.743307, 41.876847], [-7.755311, 41.879256], [-7.767412, 41.87672], [-7.771919, 41.87367], [-7.778619, 41.864735], [-7.777695, 41.855719], [-7.768896, 41.846618], [-7.756007, 41.843388], [-7.747549, 41.844784], [-7.750246, 41.846784], [-7.750532, 41.849261], [-7.743309, 41.849012], [-7.746901, 41.8524], [-7.746881, 41.855776], [-7.73843, 41.859348], [-7.734104, 41.868336]]]}}]}