{"type": "FeatureCollection", "features": [{"id": "2", "type": "Feature", "properties": {"fill": "#b6a27f", "value_min": -1.25, "value_max": -1.0}, "geometry": {"type": "Polygon", "coordinates": [[[-8.191159, 41.376302], [-8.190798, 41.381993], [-8.194977, 41.39103], [-8.207003, 41.400121], [-8.219047, 41.403205], [-8.231016, 41.402714], [-8.243034, 41.398043], [-8.250752, 41.391407], [-8.25492, 41.382426], [-8.254265, 41.373414], [-8.248448, 41.364303], [-8.245461, 41.364781], [-8.242225, 41.369511], [-8.245622, 41.373358], [-8.247018, 41.382375], [-8.241888, 41.391349], [-8.231086, 41.396797], [-8.219116, 41.397449], [-8.207209, 41.392928], [-8.199732, 41.382056], [-8.200492, 41.377648], [-8.194976, 41.374275], [-8.191159, 41.376302]]]}}, {"id": "1", "type": "Feature", "properties": {"fill": "#e19f31", "value_min": -1.5, "value_max": -1.25}, "geometry": {"type": "MultiPolygon", "coordinates": [[[[-8.200492, 41.377648], [-8.199732, 41.382056], [-8.207209, 41.392928], [-8.219116, 41.397449], [-8.231086, 41.396797], [-8.241888, 41.391349], [-8.247018, 41.382375], [-8.245622, 41.373358], [-8.242225, 41.369511], [-8.239197, 41.371315], [-8.232024, 41.369971], [-8.224854, 41.370878], [-8.21738, 41.368182], [-8.214697, 41.372982], [-8.219438, 41.370505], [-8.231383, 41.371569], [-8.233766, 41.37328], [-8.23714, 41.38231], [-8.231174, 41.38936], [-8.219194, 41.390935], [-8.210018, 41.382127], [-8.214055, 41.373812], [-8.211712, 41.376065], [-8.200492, 41.377648]]], [[[-8.2141, 41.37372], [-8.2141, 41.37372], [-8.214165, 41.373587], [-8.2141, 41.37372]]], [[[-8.214398, 41.373138], [-8.214398, 41.373138], [-8.214401, 41.373137], [-8.214398, 41.373138]]]]}}, {"id": "0", "type": "Feature", "properties": {"fill": "#e57b10", "value_min": -1.75, "value_max": -1.5}, "geometry": {"type": "Polygon", "coordinates": [[[-8.214055, 41.373812], [-8.210018, 41.382127], [-8.219194, 41.390935], [-8.231174, 41.38936], [-8.23714, 41.38231], [-8.233766, 41.37328], [-8.231383, 41.371569], [-8.219438, 41.370505], [-8.214697, 41.372982], [-8.214401, 41.373137], [-8.214398, 41.373138], [-8.214165, 41.373587], [-8.2141, 41.37372], [-8.214055, 41.373812]]]}}, {"id": "4", "type": "Feature", "properties": {"fill": "#a3a3a3", "value_min": -0.75, "value_max": -0.5}, "geometry": {"type": "MultiPolygon", "coordinates": [[[[-8.395967, 41.675972], [-8.400826, 41.671514], [-8.401876, 41.662512], [-8.39616, 41.655277], [-8.384196, 41.650428], [-8.36953, 41.653332], [-8.360931, 41.662292], [-8.361504, 41.671302], [-8.3719, 41.67992], [-8.374978, 41.680383], [-8.383903, 41.681201], [-8.395967, 41.675972]], [[-8.371976, 41.672195], [-8.370641, 41.662345], [-8.372085, 41.660962], [-8.384125, 41.657904], [-8.391873, 41.662459], [-8.391008, 41.671462], [-8.383962, 41.674949], [-8.371976, 41.672195]]], [[[-8.171943, 41.377661], [-8.175955, 41.390895], [-8.183725, 41.399958], [-8.195066, 41.407621], [-8.206974, 41.412202], [-8.218916, 41.414121], [-8.230886, 41.413747], [-8.242885, 41.41091], [-8.260783, 41.400479], [-8.267749, 41.391516], [-8.271259, 41.382531], [-8.271646, 41.373526], [-8.26922, 41.364503], [-8.263791, 41.355461], [-8.256185, 41.348144], [-8.255889, 41.349689], [-8.249622, 41.353072], [-8.250822, 41.355842], [-8.258996, 41.364437], [-8.262652, 41.373468], [-8.262748, 41.382477], [-8.259203, 41.391461], [-8.255018, 41.396186], [-8.242958, 41.404624], [-8.230953, 41.408066], [-8.218984, 41.408492], [-8.207048, 41.406119], [-8.194754, 41.400036], [-8.18584, 41.390966], [-8.181986, 41.381931], [-8.181872, 41.376307], [-8.171943, 41.377661]]], [[[-8.698521, 41.200959], [-8.700201, 41.195285], [-8.698556, 41.193358], [-8.686642, 41.19101], [-8.681688, 41.195235], [-8.686575, 41.205074], [-8.693655, 41.204275], [-8.698521, 41.200959]]]]}}, {"id": "7", "type": "Feature", "properties": {"fill": "#a3a3a3", "value_min": 0.0, "value_max": -0.25}, "geometry": {"type": "MultiPolygon", "coordinates": [[[[-7.950218, 41.752067], [-7.938158, 41.753986], [-7.934904, 41.75821], [-7.93801, 41.762979], [-7.950001, 41.765389], [-7.956695, 41.758409], [-7.950218, 41.752067]]], [[[-8.022425, 41.749429], [-8.030558, 41.741043], [-8.030499, 41.732035], [-8.022822, 41.723298], [-8.010873, 41.718487], [-7.998829, 41.71989], [-7.993582, 41.722711], [-7.987279, 41.731662], [-7.98844, 41.74068], [-7.999884, 41.749787], [-8.010352, 41.752401], [-8.022425, 41.749429]], [[-7.999647, 41.740778], [-7.996564, 41.731744], [-7.998681, 41.729412], [-8.010783, 41.724356], [-8.023765, 41.731978], [-8.021189, 41.740963], [-8.010464, 41.745094], [-7.999647, 41.740778]]], [[[-7.858664, 41.703436], [-7.854919, 41.700059], [-7.84456, 41.703295], [-7.850803, 41.712365], [-7.855947, 41.712416], [-7.858664, 41.703436]]], [[[-8.407883, 41.686567], [-8.420234, 41.68062], [-8.432965, 41.671677], [-8.444152, 41.660848], [-8.468316, 41.64358], [-8.472767, 41.635837], [-8.47303, 41.626831], [-8.468081, 41.617801], [-8.456592, 41.609884], [-8.444616, 41.60686], [-8.432609, 41.607502], [-8.408529, 41.616073], [-8.372469, 41.621314], [-8.360429, 41.625014], [-8.348365, 41.630929], [-8.334584, 41.644128], [-8.329893, 41.653108], [-8.328309, 41.662106], [-8.329442, 41.671119], [-8.33391, 41.680152], [-8.347745, 41.692412], [-8.35972, 41.696614], [-8.371732, 41.697246], [-8.383767, 41.695434], [-8.407883, 41.686567]], [[-8.371791, 41.691211], [-8.359802, 41.68842], [-8.347845, 41.680232], [-8.342274, 41.671193], [-8.341397, 41.662181], [-8.344436, 41.653192], [-8.35241, 41.64423], [-8.36029, 41.639043], [-8.372332, 41.635437], [-8.384347, 41.634547], [-8.396335, 41.636487], [-8.412189, 41.644551], [-8.419234, 41.653594], [-8.42117, 41.662611], [-8.418224, 41.671603], [-8.408891, 41.680563], [-8.395864, 41.686994], [-8.383814, 41.690469], [-8.371791, 41.691211]]], [[[-8.672921, 41.550635], [-8.678069, 41.546523], [-8.684612, 41.537534], [-8.68872, 41.528537], [-8.692465, 41.510533], [-8.701585, 41.483534], [-8.70009, 41.474523], [-8.693561, 41.465498], [-8.685349, 41.46033], [-8.673393, 41.456713], [-8.661418, 41.45696], [-8.649423, 41.460977], [-8.642194, 41.46535], [-8.625359, 41.481151], [-8.601324, 41.494046], [-8.593433, 41.501218], [-8.587119, 41.510203], [-8.584324, 41.5192], [-8.584682, 41.528209], [-8.588229, 41.537229], [-8.600972, 41.551316], [-8.612923, 41.558045], [-8.624895, 41.561556], [-8.636882, 41.562577], [-8.648881, 41.56143], [-8.660893, 41.557765], [-8.672921, 41.550635]], [[-8.625005, 41.542483], [-8.613035, 41.539317], [-8.604366, 41.528278], [-8.606138, 41.519277], [-8.613192, 41.512846], [-8.625193, 41.509903], [-8.637158, 41.513139], [-8.64491, 41.519403], [-8.647233, 41.528418], [-8.641608, 41.537408], [-8.637007, 41.540194], [-8.625005, 41.542483]]], [[[-8.122725, 41.376768], [-8.130342, 41.39056], [-8.138124, 41.399626], [-8.148237, 41.408708], [-8.170936, 41.423477], [-8.194755, 41.432774], [-8.206696, 41.435045], [-8.230627, 41.435754], [-8.242612, 41.434394], [-8.26663, 41.427314], [-8.284262, 41.418642], [-8.326893, 41.386322], [-8.338848, 41.386852], [-8.350774, 41.3903], [-8.362727, 41.391124], [-8.374722, 41.387578], [-8.381199, 41.383175], [-8.386358, 41.374195], [-8.384847, 41.365179], [-8.376843, 41.356128], [-8.363128, 41.34998], [-8.339284, 41.343703], [-8.332917, 41.336749], [-8.325766, 41.342164], [-8.324568, 41.341041], [-8.323376, 41.341943], [-8.316788, 41.335876], [-8.313802, 41.336331], [-8.31139, 41.328007], [-8.307502, 41.325762], [-8.305116, 41.326891], [-8.303024, 41.325994], [-8.303615, 41.323742], [-8.301216, 41.319694], [-8.296431, 41.316774], [-8.297618, 41.313846], [-8.296116, 41.310022], [-8.281801, 41.316569], [-8.279132, 41.324451], [-8.274733, 41.325132], [-8.287062, 41.337592], [-8.295249, 41.355658], [-8.296757, 41.373682], [-8.295115, 41.382679], [-8.285669, 41.400636], [-8.276235, 41.409585], [-8.254727, 41.421602], [-8.242719, 41.425146], [-8.218761, 41.427077], [-8.194874, 41.423123], [-8.182969, 41.418234], [-8.167445, 41.408849], [-8.157529, 41.399769], [-8.15046, 41.39071], [-8.144176, 41.375788], [-8.139096, 41.377894], [-8.131924, 41.374292], [-8.122725, 41.376768]]], [[[-8.630339, 41.187959], [-8.633637, 41.2041], [-8.642305, 41.222143], [-8.650651, 41.23172], [-8.662545, 41.23917], [-8.67446, 41.242856], [-8.686388, 41.244168], [-8.710263, 41.242735], [-8.734151, 41.238059], [-8.754464, 41.231445], [-8.771275, 41.222471], [-8.782249, 41.213485], [-8.790015, 41.204491], [-8.797755, 41.186489], [-8.798782, 41.177483], [-8.795414, 41.159461], [-8.786574, 41.144354], [-8.67527, 41.147484], [-8.676193, 41.146567], [-8.674793, 41.146932], [-8.674204, 41.147693], [-8.67394, 41.151852], [-8.686847, 41.147875], [-8.69877, 41.146672], [-8.710683, 41.147537], [-8.722587, 41.150588], [-8.738983, 41.159347], [-8.747963, 41.168375], [-8.752928, 41.177394], [-8.754835, 41.186406], [-8.754127, 41.195412], [-8.750631, 41.204413], [-8.743668, 41.213405], [-8.731658, 41.222386], [-8.710318, 41.230434], [-8.698377, 41.232266], [-8.686445, 41.232234], [-8.674524, 41.229966], [-8.66262, 41.224558], [-8.650947, 41.213162], [-8.646545, 41.20414], [-8.644733, 41.189471], [-8.640035, 41.196245], [-8.634946, 41.193341], [-8.633126, 41.189072], [-8.630339, 41.187959]]], [[[-8.654397, 41.166041], [-8.659832, 41.16059], [-8.657033, 41.160378], [-8.654961, 41.161963], [-8.654397, 41.166041]]], [[[-8.660508, 41.159912], [-8.664155, 41.157067], [-8.66117, 41.156307], [-8.662078, 41.158104], [-8.660508, 41.159912]]]]}}, {"id": "6", "type": "Feature", "properties": {"fill": "#a3a3a3", "value_min": -0.25, "value_max": -0.0}, "geometry": {"type": "MultiPolygon", "coordinates": [[[[-7.999647, 41.740778], [-8.010464, 41.745094], [-8.021189, 41.740963], [-8.023765, 41.731978], [-8.010783, 41.724356], [-7.998681, 41.729412], [-7.996564, 41.731744], [-7.999647, 41.740778]], [[-8.009567, 41.731857], [-8.011691, 41.731875], [-8.010644, 41.733405], [-8.009567, 41.731857]]], [[[-8.371791, 41.691211], [-8.383814, 41.690469], [-8.395864, 41.686994], [-8.408891, 41.680563], [-8.418224, 41.671603], [-8.42117, 41.662611], [-8.419234, 41.653594], [-8.412189, 41.644551], [-8.396335, 41.636487], [-8.384347, 41.634547], [-8.372332, 41.635437], [-8.36029, 41.639043], [-8.35241, 41.64423], [-8.344436, 41.653192], [-8.341397, 41.662181], [-8.342274, 41.671193], [-8.347845, 41.680232], [-8.359802, 41.68842], [-8.371791, 41.691211]], [[-8.383859, 41.685797], [-8.371846, 41.685549], [-8.359477, 41.680298], [-8.3524, 41.671251], [-8.351746, 41.66224], [-8.356542, 41.65326], [-8.360182, 41.650021], [-8.372245, 41.644459], [-8.384262, 41.643508], [-8.396241, 41.646629], [-8.405734, 41.653525], [-8.410625, 41.662557], [-8.408745, 41.671555], [-8.399425, 41.680513], [-8.383859, 41.685797]]], [[[-8.625005, 41.542483], [-8.637007, 41.540194], [-8.641608, 41.537408], [-8.647233, 41.528418], [-8.64491, 41.519403], [-8.637158, 41.513139], [-8.625193, 41.509903], [-8.613192, 41.512846], [-8.606138, 41.519277], [-8.604366, 41.528278], [-8.613035, 41.539317], [-8.625005, 41.542483]]], [[[-8.144176, 41.375788], [-8.15046, 41.39071], [-8.157529, 41.399769], [-8.167445, 41.408849], [-8.182969, 41.418234], [-8.194874, 41.423123], [-8.218761, 41.427077], [-8.242719, 41.425146], [-8.254727, 41.421602], [-8.276235, 41.409585], [-8.285669, 41.400636], [-8.295115, 41.382679], [-8.296757, 41.373682], [-8.295249, 41.355658], [-8.287062, 41.337592], [-8.274733, 41.325132], [-8.269582, 41.326939], [-8.265709, 41.331221], [-8.269004, 41.336169], [-8.265722, 41.337748], [-8.264988, 41.34], [-8.271696, 41.346503], [-8.277527, 41.355548], [-8.282127, 41.373592], [-8.281177, 41.382593], [-8.277861, 41.39158], [-8.27188, 41.40055], [-8.254825, 41.413019], [-8.242808, 41.417485], [-8.230815, 41.419794], [-8.218844, 41.42015], [-8.194974, 41.415025], [-8.183085, 41.40893], [-8.171852, 41.399873], [-8.16461, 41.390813], [-8.160382, 41.379466], [-8.152544, 41.375866], [-8.151049, 41.37339], [-8.144176, 41.375788]]], [[[-8.644733, 41.189471], [-8.646545, 41.20414], [-8.650947, 41.213162], [-8.66262, 41.224558], [-8.674524, 41.229966], [-8.686445, 41.232234], [-8.698377, 41.232266], [-8.710318, 41.230434], [-8.731658, 41.222386], [-8.743668, 41.213405], [-8.750631, 41.204413], [-8.754127, 41.195412], [-8.754835, 41.186406], [-8.752928, 41.177394], [-8.747963, 41.168375], [-8.738983, 41.159347], [-8.722587, 41.150588], [-8.710683, 41.147537], [-8.69877, 41.146672], [-8.686847, 41.147875], [-8.67394, 41.151852], [-8.674849, 41.153767], [-8.672489, 41.15648], [-8.664155, 41.157067], [-8.660508, 41.159912], [-8.659832, 41.16059], [-8.654397, 41.166041], [-8.653231, 41.169174], [-8.655366, 41.175467], [-8.647955, 41.180228], [-8.647696, 41.185181], [-8.644733, 41.189471]], [[-8.69843, 41.220859], [-8.686498, 41.221054], [-8.674585, 41.217604], [-8.667805, 41.213212], [-8.660586, 41.204183], [-8.658834, 41.19517], [-8.662834, 41.182788], [-8.674809, 41.17246], [-8.686748, 41.168696], [-8.69867, 41.168425], [-8.710577, 41.171562], [-8.71974, 41.177318], [-8.726571, 41.186342], [-8.728224, 41.195354], [-8.72562, 41.204356], [-8.717405, 41.213344], [-8.710376, 41.21724], [-8.69843, 41.220859]]]]}}, {"id": "5", "type": "Feature", "properties": {"fill": "#a3a3a3", "value_min": -0.5, "value_max": -0.25}, "geometry": {"type": "MultiPolygon", "coordinates": [[[[-8.009567, 41.731857], [-8.010644, 41.733405], [-8.011691, 41.731875], [-8.009567, 41.731857]]], [[[-8.383859, 41.685797], [-8.399425, 41.680513], [-8.408745, 41.671555], [-8.410625, 41.662557], [-8.405734, 41.653525], [-8.396241, 41.646629], [-8.384262, 41.643508], [-8.372245, 41.644459], [-8.360182, 41.650021], [-8.356542, 41.65326], [-8.351746, 41.66224], [-8.3524, 41.671251], [-8.359477, 41.680298], [-8.371846, 41.685549], [-8.383859, 41.685797]], [[-8.395967, 41.675972], [-8.383903, 41.681201], [-8.374978, 41.680383], [-8.3719, 41.67992], [-8.361504, 41.671302], [-8.360931, 41.662292], [-8.36953, 41.653332], [-8.384196, 41.650428], [-8.39616, 41.655277], [-8.401876, 41.662512], [-8.400826, 41.671514], [-8.395967, 41.675972]]], [[[-8.160382, 41.379466], [-8.16461, 41.390813], [-8.171852, 41.399873], [-8.183085, 41.40893], [-8.194974, 41.415025], [-8.218844, 41.42015], [-8.230815, 41.419794], [-8.242808, 41.417485], [-8.254825, 41.413019], [-8.27188, 41.40055], [-8.277861, 41.39158], [-8.281177, 41.382593], [-8.282127, 41.373592], [-8.277527, 41.355548], [-8.271696, 41.346503], [-8.264988, 41.34], [-8.263339, 41.340902], [-8.262751, 41.345405], [-8.256185, 41.348144], [-8.263791, 41.355461], [-8.26922, 41.364503], [-8.271646, 41.373526], [-8.271259, 41.382531], [-8.267749, 41.391516], [-8.260783, 41.400479], [-8.242885, 41.41091], [-8.230886, 41.413747], [-8.218916, 41.414121], [-8.206974, 41.412202], [-8.195066, 41.407621], [-8.183725, 41.399958], [-8.175955, 41.390895], [-8.171943, 41.377661], [-8.168382, 41.377438], [-8.164499, 41.38059], [-8.160382, 41.379466]]], [[[-8.69843, 41.220859], [-8.710376, 41.21724], [-8.717405, 41.213344], [-8.72562, 41.204356], [-8.728224, 41.195354], [-8.726571, 41.186342], [-8.71974, 41.177318], [-8.710577, 41.171562], [-8.69867, 41.168425], [-8.686748, 41.168696], [-8.674809, 41.17246], [-8.662834, 41.182788], [-8.658834, 41.19517], [-8.660586, 41.204183], [-8.667805, 41.213212], [-8.674585, 41.217604], [-8.686498, 41.221054], [-8.69843, 41.220859]], [[-8.698521, 41.200959], [-8.693655, 41.204275], [-8.686575, 41.205074], [-8.681688, 41.195235], [-8.686642, 41.19101], [-8.698556, 41.193358], [-8.700201, 41.195285], [-8.698521, 41.200959]]]]}}, {"id": "8", "type": "Feature", "properties": {"fill": "#a3a3a3", "value_min": 0.25, "value_max": -0.5}, "geometry": {"type": "MultiPolygon", "coordinates": [[[[-7.727046, 41.802321], [-7.732705, 41.803435], [-7.74477, 41.802032], [-7.758815, 41.792469], [-7.761653, 41.783493], [-7.759165, 41.774459], [-7.748036, 41.765332], [-7.739619, 41.762819], [-7.739912, 41.764148], [-7.726937, 41.771755], [-7.725406, 41.776252], [-7.727191, 41.779184], [-7.724177, 41.780299], [-7.725372, 41.781653], [-7.722296, 41.792446], [-7.728879, 41.797871], [-7.727046, 41.802321]]], [[[-7.972663, 41.758553], [-7.974242, 41.754052], [-8.010205, 41.761988], [-8.022263, 41.760137], [-8.034399, 41.753047], [-8.040403, 41.741125], [-8.038191, 41.7321], [-8.030205, 41.723026], [-8.022912, 41.717351], [-8.010967, 41.712324], [-7.998962, 41.711327], [-7.990737, 41.713679], [-7.977286, 41.722567], [-7.966183, 41.740481], [-7.962409, 41.741918], [-7.950394, 41.741252], [-7.938329, 41.743646], [-7.931149, 41.749168], [-7.926596, 41.758132], [-7.931528, 41.767185], [-7.937893, 41.770067], [-7.949911, 41.770879], [-7.962413, 41.767468], [-7.972663, 41.758553]], [[-7.950218, 41.752067], [-7.956695, 41.758409], [-7.950001, 41.765389], [-7.93801, 41.762979], [-7.934904, 41.75821], [-7.938158, 41.753986], [-7.950218, 41.752067]], [[-8.022425, 41.749429], [-8.010352, 41.752401], [-7.999884, 41.749787], [-7.98844, 41.74068], [-7.987279, 41.731662], [-7.993582, 41.722711], [-7.998829, 41.71989], [-8.010873, 41.718487], [-8.022822, 41.723298], [-8.030499, 41.732035], [-8.030558, 41.741043], [-8.022425, 41.749429]]], [[[-7.830057, 41.710176], [-7.830807, 41.712163], [-7.842561, 41.718995], [-7.854567, 41.719858], [-7.866703, 41.713387], [-7.870404, 41.703552], [-7.867033, 41.694581], [-7.857775, 41.689068], [-7.854776, 41.68818], [-7.847538, 41.695365], [-7.837309, 41.699391], [-7.835792, 41.702763], [-7.839682, 41.705924], [-7.838465, 41.709522], [-7.830057, 41.710176]], [[-7.858664, 41.703436], [-7.855947, 41.712416], [-7.850803, 41.712365], [-7.84456, 41.703295], [-7.854919, 41.700059], [-7.858664, 41.703436]]], [[[-8.395776, 41.69633], [-8.431936, 41.684139], [-8.46804, 41.677241], [-8.487344, 41.671932], [-8.50112, 41.662986], [-8.506738, 41.654003], [-8.507788, 41.645], [-8.504971, 41.635981], [-8.500023, 41.626952], [-8.491979, 41.61791], [-8.468683, 41.59898], [-8.456737, 41.592591], [-8.444772, 41.588599], [-8.432793, 41.586491], [-8.408794, 41.586979], [-8.372722, 41.595292], [-8.348625, 41.605132], [-8.33655, 41.612396], [-8.324438, 41.62291], [-8.315372, 41.635008], [-8.30922, 41.652985], [-8.310662, 41.671008], [-8.314219, 41.680037], [-8.3206, 41.689082], [-8.331148, 41.698151], [-8.347612, 41.705626], [-8.35962, 41.706689], [-8.371656, 41.705028], [-8.395776, 41.69633]], [[-8.407883, 41.686567], [-8.383767, 41.695434], [-8.371732, 41.697246], [-8.35972, 41.696614], [-8.347745, 41.692412], [-8.33391, 41.680152], [-8.329442, 41.671119], [-8.328309, 41.662106], [-8.329893, 41.653108], [-8.334584, 41.644128], [-8.348365, 41.630929], [-8.360429, 41.625014], [-8.372469, 41.621314], [-8.408529, 41.616073], [-8.432609, 41.607502], [-8.444616, 41.60686], [-8.456592, 41.609884], [-8.468081, 41.617801], [-8.47303, 41.626831], [-8.472767, 41.635837], [-8.468316, 41.64358], [-8.444152, 41.660848], [-8.432965, 41.671677], [-8.420234, 41.68062], [-8.407883, 41.686567]]], [[[-8.119414, 41.693134], [-8.11222, 41.696668], [-8.119311, 41.700661], [-8.122636, 41.696748], [-8.119414, 41.693134]]], [[[-8.773861, 41.592843], [-8.801628, 41.573824], [-8.818947, 41.555382], [-8.8221, 41.547542], [-8.822119, 41.535992], [-8.820421, 41.530712], [-8.815926, 41.525624], [-8.81063, 41.5101], [-8.813279, 41.503483], [-8.812976, 41.498005], [-8.804699, 41.482068], [-8.798552, 41.474753], [-8.800767, 41.450833], [-8.803551, 41.442522], [-8.793192, 41.436121], [-8.769289, 41.426079], [-8.745376, 41.420231], [-8.721455, 41.417374], [-8.697524, 41.416974], [-8.625703, 41.421227], [-8.601788, 41.418184], [-8.565954, 41.408445], [-8.542046, 41.405503], [-8.530075, 41.406465], [-8.518084, 41.410034], [-8.506058, 41.418082], [-8.498822, 41.428785], [-8.496528, 41.437782], [-8.498384, 41.455805], [-8.503074, 41.464833], [-8.510443, 41.473872], [-8.543003, 41.501028], [-8.564679, 41.537142], [-8.588878, 41.567638], [-8.612733, 41.589853], [-8.633013, 41.602081], [-8.639577, 41.597804], [-8.640152, 41.59465], [-8.645536, 41.593051], [-8.646744, 41.594171], [-8.649125, 41.591909], [-8.656622, 41.5921], [-8.660788, 41.588255], [-8.663794, 41.589141], [-8.665265, 41.585758], [-8.66948, 41.587989], [-8.684455, 41.586117], [-8.685608, 41.58071], [-8.697261, 41.576376], [-8.701703, 41.570277], [-8.707704, 41.570923], [-8.711586, 41.569327], [-8.716422, 41.573805], [-8.720316, 41.57356], [-8.725151, 41.577811], [-8.726633, 41.576003], [-8.734424, 41.575737], [-8.736564, 41.580228], [-8.738354, 41.579318], [-8.740778, 41.582006], [-8.74467, 41.581535], [-8.750711, 41.58623], [-8.75993, 41.578527], [-8.767441, 41.580286], [-8.769874, 41.583874], [-8.768997, 41.58613], [-8.773228, 41.589482], [-8.773861, 41.592843]], [[-8.672921, 41.550635], [-8.660893, 41.557765], [-8.648881, 41.56143], [-8.636882, 41.562577], [-8.624895, 41.561556], [-8.612923, 41.558045], [-8.600972, 41.551316], [-8.588229, 41.537229], [-8.584682, 41.528209], [-8.584324, 41.5192], [-8.587119, 41.510203], [-8.593433, 41.501218], [-8.601324, 41.494046], [-8.625359, 41.481151], [-8.642194, 41.46535], [-8.649423, 41.460977], [-8.661418, 41.45696], [-8.673393, 41.456713], [-8.685349, 41.46033], [-8.693561, 41.465498], [-8.70009, 41.474523], [-8.701585, 41.483534], [-8.692465, 41.510533], [-8.68872, 41.528537], [-8.684612, 41.537534], [-8.678069, 41.546523], [-8.672921, 41.550635]]], [[[-8.108009, 41.401207], [-8.132097, 41.417595], [-8.170755, 41.43771], [-8.194598, 41.445507], [-8.218506, 41.448337], [-8.24247, 41.446581], [-8.266472, 41.441332], [-8.314552, 41.422522], [-8.326551, 41.419427], [-8.374454, 41.415598], [-8.402273, 41.410309], [-8.424114, 41.401412], [-8.437465, 41.392471], [-8.445402, 41.383502], [-8.450107, 41.374517], [-8.451957, 41.365518], [-8.451646, 41.356509], [-8.445915, 41.338466], [-8.434582, 41.320396], [-8.417482, 41.301231], [-8.407744, 41.304856], [-8.406262, 41.307335], [-8.402979, 41.307568], [-8.401801, 41.311398], [-8.399712, 41.311628], [-8.400316, 41.313202], [-8.396738, 41.314336], [-8.398835, 41.316131], [-8.393775, 41.31997], [-8.393489, 41.323122], [-8.391105, 41.324253], [-8.386325, 41.323588], [-8.380382, 41.331254], [-8.375305, 41.33104], [-8.37201, 41.328346], [-8.361563, 41.329718], [-8.358276, 41.329049], [-8.357673, 41.327249], [-8.350207, 41.327264], [-8.346032, 41.328847], [-8.342462, 41.333131], [-8.332917, 41.336749], [-8.339284, 41.343703], [-8.363128, 41.34998], [-8.376843, 41.356128], [-8.384847, 41.365179], [-8.386358, 41.374195], [-8.381199, 41.383175], [-8.374722, 41.387578], [-8.362727, 41.391124], [-8.350774, 41.3903], [-8.338848, 41.386852], [-8.326893, 41.386322], [-8.284262, 41.418642], [-8.26663, 41.427314], [-8.242612, 41.434394], [-8.230627, 41.435754], [-8.206696, 41.435045], [-8.194755, 41.432774], [-8.170936, 41.423477], [-8.148237, 41.408708], [-8.138124, 41.399626], [-8.130342, 41.39056], [-8.122725, 41.376768], [-8.119672, 41.376768], [-8.119672, 41.378569], [-8.116683, 41.380144], [-8.117877, 41.385771], [-8.113992, 41.386896], [-8.112795, 41.390723], [-8.110105, 41.390947], [-8.108011, 41.393648], [-8.103827, 41.392972], [-8.105321, 41.394998], [-8.10263, 41.396123], [-8.107412, 41.39815], [-8.107411, 41.400785], [-8.107504, 41.400851], [-8.10771, 41.400996], [-8.107823, 41.401076], [-8.108009, 41.401207]]], [[[-8.611088, 41.17566], [-8.630579, 41.231114], [-8.638641, 41.245691], [-8.650523, 41.255717], [-8.66244, 41.259589], [-8.674372, 41.260562], [-8.734078, 41.255958], [-8.804197, 41.258673], [-8.799695, 41.14406], [-8.786574, 41.144354], [-8.795414, 41.159461], [-8.798782, 41.177483], [-8.797755, 41.186489], [-8.790015, 41.204491], [-8.782249, 41.213485], [-8.771275, 41.222471], [-8.754464, 41.231445], [-8.734151, 41.238059], [-8.710263, 41.242735], [-8.686388, 41.244168], [-8.67446, 41.242856], [-8.662545, 41.23917], [-8.650651, 41.23172], [-8.642305, 41.222143], [-8.633637, 41.2041], [-8.630339, 41.187959], [-8.625658, 41.186628], [-8.621132, 41.178994], [-8.613374, 41.177451], [-8.611088, 41.17566]]]]}}, {"id": "3", "type": "Feature", "properties": {"fill": "#a3a3a3", "value_min": -1.0, "value_max": -0.75}, "geometry": {"type": "MultiPolygon", "coordinates": [[[[-8.371976, 41.672195], [-8.383962, 41.674949], [-8.391008, 41.671462], [-8.391873, 41.662459], [-8.384125, 41.657904], [-8.372085, 41.660962], [-8.370641, 41.662345], [-8.371976, 41.672195]]], [[[-8.181872, 41.376307], [-8.181986, 41.381931], [-8.18584, 41.390966], [-8.194754, 41.400036], [-8.207048, 41.406119], [-8.218984, 41.408492], [-8.230953, 41.408066], [-8.242958, 41.404624], [-8.255018, 41.396186], [-8.259203, 41.391461], [-8.262748, 41.382477], [-8.262652, 41.373468], [-8.258996, 41.364437], [-8.250822, 41.355842], [-8.249635, 41.359825], [-8.248141, 41.360052], [-8.248448, 41.364303], [-8.254265, 41.373414], [-8.25492, 41.382426], [-8.250752, 41.391407], [-8.243034, 41.398043], [-8.231016, 41.402714], [-8.219047, 41.403205], [-8.207003, 41.400121], [-8.194977, 41.39103], [-8.190798, 41.381993], [-8.191159, 41.376302], [-8.181872, 41.376307]]]]}}, {"id": "9", "type": "Feature", "properties": {"fill": "#a3a3a3", "value_min": 0.5, "value_max": -0.75}, "geometry": {"type": "MultiPolygon", "coordinates": [[[[-8.773861, 41.592843], [-8.775371, 41.593972], [-8.78556, 41.593464], [-8.797327, 41.600599], [-8.804218, 41.600109], [-8.80456, 41.604158], [-8.809434, 41.611332], [-8.828644, 41.609656], [-8.82839, 41.585633], [-8.818947, 41.555382], [-8.801628, 41.573824], [-8.773861, 41.592843]]], [[[-8.633013, 41.602081], [-8.612733, 41.589853], [-8.588878, 41.567638], [-8.564679, 41.537142], [-8.543003, 41.501028], [-8.510443, 41.473872], [-8.503074, 41.464833], [-8.498384, 41.455805], [-8.496528, 41.437782], [-8.498822, 41.428785], [-8.506058, 41.418082], [-8.518084, 41.410034], [-8.530075, 41.406465], [-8.542046, 41.405503], [-8.565954, 41.408445], [-8.601788, 41.418184], [-8.625703, 41.421227], [-8.697524, 41.416974], [-8.721455, 41.417374], [-8.745376, 41.420231], [-8.769289, 41.426079], [-8.793192, 41.436121], [-8.803551, 41.442522], [-8.811211, 41.415789], [-8.804197, 41.258673], [-8.734078, 41.255958], [-8.674372, 41.260562], [-8.66244, 41.259589], [-8.650523, 41.255717], [-8.638641, 41.245691], [-8.630579, 41.231114], [-8.611088, 41.17566], [-8.608583, 41.174095], [-8.609164, 41.172066], [-8.604942, 41.164881], [-8.602852, 41.164214], [-8.59422, 41.165149], [-8.589766, 41.167193], [-8.589194, 41.170572], [-8.58445, 41.173775], [-8.591312, 41.179932], [-8.603134, 41.19665], [-8.609843, 41.21303], [-8.612845, 41.231056], [-8.610769, 41.249064], [-8.60739, 41.258061], [-8.602714, 41.26599], [-8.590702, 41.277822], [-8.578722, 41.283852], [-8.56676, 41.286925], [-8.554811, 41.287899], [-8.542874, 41.287138], [-8.519031, 41.281571], [-8.507128, 41.276415], [-8.490928, 41.266612], [-8.480212, 41.257557], [-8.469594, 41.244591], [-8.463258, 41.244384], [-8.459989, 41.246644], [-8.454323, 41.246886], [-8.455541, 41.251834], [-8.452276, 41.25522], [-8.449891, 41.255452], [-8.449304, 41.257479], [-8.447812, 41.257258], [-8.449028, 41.261982], [-8.439785, 41.262907], [-8.438023, 41.268989], [-8.434745, 41.269673], [-8.432691, 41.277107], [-8.427032, 41.279372], [-8.429143, 41.284319], [-8.426171, 41.287028], [-8.425606, 41.294007], [-8.422037, 41.296942], [-8.421756, 41.30077], [-8.417482, 41.301231], [-8.434582, 41.320396], [-8.445915, 41.338466], [-8.451646, 41.356509], [-8.451957, 41.365518], [-8.450107, 41.374517], [-8.445402, 41.383502], [-8.437465, 41.392471], [-8.424114, 41.401412], [-8.402273, 41.410309], [-8.374454, 41.415598], [-8.326551, 41.419427], [-8.314552, 41.422522], [-8.266472, 41.441332], [-8.24247, 41.446581], [-8.218506, 41.448337], [-8.194598, 41.445507], [-8.170755, 41.43771], [-8.132097, 41.417595], [-8.108009, 41.401207], [-8.108606, 41.403102], [-8.101128, 41.411654], [-8.092756, 41.411201], [-8.09126, 41.414352], [-8.079893, 41.41975], [-8.077503, 41.416597], [-8.070325, 41.41862], [-8.065543, 41.416141], [-8.061654, 41.417489], [-8.059855, 41.421843], [-8.099042, 41.430082], [-8.12289, 41.436675], [-8.146702, 41.44632], [-8.170485, 41.458855], [-8.194331, 41.467055], [-8.218281, 41.467096], [-8.266258, 41.460371], [-8.303769, 41.445785], [-8.326344, 41.439472], [-8.350296, 41.438315], [-8.362251, 41.439791], [-8.380522, 41.446224], [-8.390179, 41.455283], [-8.393254, 41.464306], [-8.398218, 41.509369], [-8.396545, 41.518368], [-8.391879, 41.527351], [-8.385296, 41.534646], [-8.373216, 41.544114], [-8.315844, 41.57196], [-8.302763, 41.580889], [-8.293123, 41.589837], [-8.280794, 41.607775], [-8.274035, 41.625747], [-8.269867, 41.652742], [-8.271298, 41.670765], [-8.279268, 41.68883], [-8.287862, 41.69789], [-8.29973, 41.70697], [-8.32341, 41.721167], [-8.335376, 41.726581], [-8.347375, 41.729007], [-8.359437, 41.725205], [-8.384548, 41.707456], [-8.407791, 41.69666], [-8.419835, 41.693705], [-8.431862, 41.692637], [-8.453255, 41.695542], [-8.453856, 41.695676], [-8.455004, 41.695932], [-8.461659, 41.694563], [-8.467939, 41.689593], [-8.478124, 41.685061], [-8.482012, 41.682123], [-8.484371, 41.674238], [-8.49308, 41.674886], [-8.499963, 41.671038], [-8.50927, 41.671233], [-8.51018, 41.672806], [-8.511967, 41.670324], [-8.509856, 41.668755], [-8.522103, 41.658811], [-8.525706, 41.659023], [-8.527769, 41.652714], [-8.534066, 41.652017], [-8.537355, 41.64998], [-8.537634, 41.646602], [-8.543876, 41.637352], [-8.543855, 41.633976], [-8.536342, 41.631977], [-8.535128, 41.62973], [-8.543431, 41.61462], [-8.554533, 41.615255], [-8.557244, 41.617046], [-8.562639, 41.61635], [-8.568056, 41.619031], [-8.570735, 41.616095], [-8.577321, 41.614269], [-8.581231, 41.615829], [-8.585766, 41.620988], [-8.591462, 41.620515], [-8.596534, 41.616668], [-8.601628, 41.615972], [-8.603996, 41.611686], [-8.609369, 41.608287], [-8.614156, 41.606692], [-8.619881, 41.610269], [-8.621338, 41.604636], [-8.628833, 41.604378], [-8.633013, 41.602081]], [[-8.395776, 41.69633], [-8.371656, 41.705028], [-8.35962, 41.706689], [-8.347612, 41.705626], [-8.331148, 41.698151], [-8.3206, 41.689082], [-8.314219, 41.680037], [-8.310662, 41.671008], [-8.30922, 41.652985], [-8.315372, 41.635008], [-8.324438, 41.62291], [-8.33655, 41.612396], [-8.348625, 41.605132], [-8.372722, 41.595292], [-8.408794, 41.586979], [-8.432793, 41.586491], [-8.444772, 41.588599], [-8.456737, 41.592591], [-8.468683, 41.59898], [-8.491979, 41.61791], [-8.500023, 41.626952], [-8.504971, 41.635981], [-8.507788, 41.645], [-8.506738, 41.654003], [-8.50112, 41.662986], [-8.487344, 41.671932], [-8.46804, 41.677241], [-8.431936, 41.684139], [-8.395776, 41.69633]], [[-8.528596, 41.610681], [-8.516609, 41.608681], [-8.504639, 41.604513], [-8.492697, 41.597003], [-8.485454, 41.590859], [-8.479052, 41.581823], [-8.477018, 41.572806], [-8.480874, 41.563816], [-8.493065, 41.549982], [-8.505103, 41.543823], [-8.517109, 41.541564], [-8.529088, 41.542901], [-8.541044, 41.547678], [-8.551182, 41.555105], [-8.559049, 41.564143], [-8.563421, 41.573167], [-8.564976, 41.58218], [-8.563718, 41.591182], [-8.558331, 41.600169], [-8.552639, 41.604947], [-8.540605, 41.609661], [-8.528596, 41.610681]], [[-8.637847, 41.389352], [-8.625889, 41.388802], [-8.613947, 41.385702], [-8.602028, 41.378937], [-8.597212, 41.375126], [-8.590907, 41.366096], [-8.588221, 41.357079], [-8.588864, 41.348073], [-8.592842, 41.33908], [-8.601668, 41.330103], [-8.614312, 41.323892], [-8.626272, 41.321986], [-8.638219, 41.322201], [-8.650157, 41.324298], [-8.662081, 41.329068], [-8.673985, 41.338394], [-8.679967, 41.348363], [-8.681024, 41.357373], [-8.678668, 41.366374], [-8.6721, 41.375364], [-8.658683, 41.384332], [-8.649818, 41.387478], [-8.637847, 41.389352]], [[-8.709944, 41.314911], [-8.698024, 41.308981], [-8.693982, 41.303362], [-8.694028, 41.294355], [-8.702535, 41.285369], [-8.710087, 41.282683], [-8.722029, 41.282542], [-8.730402, 41.285438], [-8.733946, 41.288617], [-8.73812, 41.294463], [-8.737414, 41.30347], [-8.733866, 41.30813], [-8.721893, 41.314609], [-8.709944, 41.314911]]], [[[-8.107823, 41.401076], [-8.107823, 41.401076], [-8.10771, 41.400996], [-8.107823, 41.401076]]], [[[-8.107504, 41.400851], [-8.107504, 41.400851], [-8.107411, 41.400785], [-8.107504, 41.400851]]], [[[-7.728763, 41.816421], [-7.74453, 41.814318], [-7.75666, 41.809615], [-7.767145, 41.801566], [-7.772979, 41.792621], [-7.775083, 41.783637], [-7.774226, 41.774621], [-7.770563, 41.765575], [-7.7578, 41.750601], [-7.752545, 41.74776], [-7.747812, 41.749995], [-7.747786, 41.754496], [-7.743866, 41.756509], [-7.743242, 41.760333], [-7.739619, 41.762819], [-7.748036, 41.765332], [-7.759165, 41.774459], [-7.761653, 41.783493], [-7.758815, 41.792469], [-7.74477, 41.802032], [-7.732705, 41.803435], [-7.727046, 41.802321], [-7.728763, 41.816421]]], [[[-8.034055, 41.775979], [-8.046196, 41.768646], [-8.053296, 41.759246], [-8.055441, 41.750257], [-8.054232, 41.74124], [-8.048225, 41.732183], [-8.023029, 41.709634], [-8.01445, 41.704878], [-8.01114, 41.701074], [-7.999196, 41.696269], [-7.98721, 41.694255], [-7.975157, 41.696481], [-7.963032, 41.703216], [-7.946159, 41.722286], [-7.925516, 41.740108], [-7.919418, 41.749058], [-7.917911, 41.758051], [-7.921539, 41.767092], [-7.925853, 41.770562], [-7.937822, 41.774375], [-7.985936, 41.775276], [-8.009945, 41.778899], [-8.02198, 41.778746], [-8.034055, 41.775979]], [[-7.972663, 41.758553], [-7.962413, 41.767468], [-7.949911, 41.770879], [-7.937893, 41.770067], [-7.931528, 41.767185], [-7.926596, 41.758132], [-7.931149, 41.749168], [-7.938329, 41.743646], [-7.950394, 41.741252], [-7.962409, 41.741918], [-7.966183, 41.740481], [-7.977286, 41.722567], [-7.990737, 41.713679], [-7.998962, 41.711327], [-8.010967, 41.712324], [-8.022912, 41.717351], [-8.030205, 41.723026], [-8.038191, 41.7321], [-8.040403, 41.741125], [-8.034399, 41.753047], [-8.022263, 41.760137], [-8.010205, 41.761988], [-7.974242, 41.754052], [-7.972663, 41.758553]]], [[[-7.816499, 41.717495], [-7.821665, 41.721076], [-7.830448, 41.724029], [-7.842432, 41.726178], [-7.854459, 41.725918], [-7.867581, 41.721538], [-7.875255, 41.712607], [-7.882673, 41.694665], [-7.882571, 41.685657], [-7.877175, 41.676078], [-7.876723, 41.681253], [-7.873401, 41.686198], [-7.868896, 41.686413], [-7.868008, 41.68326], [-7.864403, 41.683701], [-7.864096, 41.685276], [-7.858987, 41.68639], [-7.857775, 41.689068], [-7.867033, 41.694581], [-7.870404, 41.703552], [-7.866703, 41.713387], [-7.854567, 41.719858], [-7.842561, 41.718995], [-7.830807, 41.712163], [-7.830057, 41.710176], [-7.825252, 41.708813], [-7.818621, 41.713522], [-7.816499, 41.717495]]], [[[-8.227465, 41.701661], [-8.231347, 41.697526], [-8.229009, 41.688504], [-8.215685, 41.682015], [-8.203653, 41.683412], [-8.197627, 41.688289], [-8.19473, 41.697276], [-8.20336, 41.707199], [-8.215362, 41.708577], [-8.22197, 41.70647], [-8.227465, 41.701661]]], [[[-8.127805, 41.696787], [-8.119494, 41.687289], [-8.107412, 41.692074], [-8.102378, 41.696591], [-8.107212, 41.706504], [-8.119231, 41.706523], [-8.127805, 41.696787]], [[-8.119414, 41.693134], [-8.122636, 41.696748], [-8.119311, 41.700661], [-8.11222, 41.696668], [-8.119414, 41.693134]]], [[[-8.042416, 41.660079], [-8.038983, 41.651043], [-8.035966, 41.648192], [-8.024025, 41.643707], [-8.012001, 41.644793], [-8.001598, 41.650725], [-7.997197, 41.659694], [-8.000686, 41.668731], [-8.011542, 41.674824], [-8.02355, 41.675138], [-8.035632, 41.670559], [-8.042416, 41.660079]]]]}}, {"id": "10", "type": "Feature", "properties": {"fill": "#a3a3a3", "value_min": 0.75, "value_max": -1.0}, "geometry": {"type": "MultiPolygon", "coordinates": [[[[-8.455004, 41.695932], [-8.455004, 41.695932], [-8.453856, 41.695676], [-8.455004, 41.695932]]], [[[-8.453255, 41.695542], [-8.431862, 41.692637], [-8.419835, 41.693705], [-8.407791, 41.69666], [-8.384548, 41.707456], [-8.359437, 41.725205], [-8.347375, 41.729007], [-8.335376, 41.726581], [-8.32341, 41.721167], [-8.29973, 41.70697], [-8.287862, 41.69789], [-8.279268, 41.68883], [-8.271298, 41.670765], [-8.269867, 41.652742], [-8.274035, 41.625747], [-8.280794, 41.607775], [-8.293123, 41.589837], [-8.302763, 41.580889], [-8.315844, 41.57196], [-8.373216, 41.544114], [-8.385296, 41.534646], [-8.391879, 41.527351], [-8.396545, 41.518368], [-8.398218, 41.509369], [-8.393254, 41.464306], [-8.390179, 41.455283], [-8.380522, 41.446224], [-8.362251, 41.439791], [-8.350296, 41.438315], [-8.326344, 41.439472], [-8.303769, 41.445785], [-8.266258, 41.460371], [-8.218281, 41.467096], [-8.194331, 41.467055], [-8.170485, 41.458855], [-8.146702, 41.44632], [-8.12289, 41.436675], [-8.099042, 41.430082], [-8.059855, 41.421843], [-8.059852, 41.424916], [-8.055959, 41.429415], [-8.05745, 41.432793], [-8.056549, 41.436394], [-8.069999, 41.447206], [-8.068788, 41.462286], [-8.073872, 41.46499], [-8.074468, 41.468141], [-8.073564, 41.474668], [-8.066374, 41.482318], [-8.066069, 41.48817], [-8.072054, 41.490199], [-8.07175, 41.494925], [-8.078333, 41.49898], [-8.078332, 41.500331], [-8.093, 41.504613], [-8.089398, 41.519242], [-8.090594, 41.522169], [-8.093588, 41.52307], [-8.091487, 41.531173], [-8.097775, 41.536127], [-8.097774, 41.537927], [-8.106759, 41.543106], [-8.095973, 41.543853], [-8.121409, 41.546304], [-8.133353, 41.54974], [-8.157183, 41.561358], [-8.169071, 41.569547], [-8.180923, 41.58079], [-8.187532, 41.589139], [-8.196665, 41.607218], [-8.199387, 41.625251], [-8.198083, 41.634249], [-8.18865, 41.652197], [-8.17332, 41.670102], [-8.170244, 41.679087], [-8.171542, 41.688104], [-8.179314, 41.707725], [-8.205984, 41.742389], [-8.207454, 41.751406], [-8.205352, 41.760398], [-8.199589, 41.769365], [-8.190458, 41.777469], [-8.178348, 41.783498], [-8.16628, 41.786135], [-8.154242, 41.786449], [-8.142232, 41.784576], [-8.130261, 41.779901], [-8.118333, 41.772199], [-8.106462, 41.760657], [-8.082816, 41.731652], [-8.058852, 41.725821], [-8.046899, 41.721099], [-8.036988, 41.714076], [-8.029466, 41.705006], [-8.028523, 41.695991], [-8.035377, 41.687643], [-8.050425, 41.67816], [-8.05781, 41.669213], [-8.061155, 41.660234], [-8.059914, 41.651217], [-8.05385, 41.64216], [-8.021972, 41.614872], [-8.013639, 41.603372], [-8.005971, 41.60629], [-8.003562, 41.611239], [-7.998761, 41.612809], [-7.999669, 41.608759], [-7.996976, 41.605829], [-7.996684, 41.602003], [-7.984685, 41.603564], [-7.982292, 41.60086], [-7.975689, 41.603552], [-7.974482, 41.606701], [-7.970882, 41.607147], [-7.969091, 41.603768], [-7.965796, 41.602413], [-7.9541, 41.602846], [-7.952606, 41.600592], [-7.947808, 41.60081], [-7.945413, 41.599456], [-7.942725, 41.595625], [-7.936132, 41.594488], [-7.93791, 41.601694], [-7.937004, 41.603718], [-7.931604, 41.604384], [-7.930979, 41.612711], [-7.925556, 41.620354], [-7.920755, 41.620796], [-7.917748, 41.623041], [-7.915933, 41.627764], [-7.913229, 41.628885], [-7.912613, 41.63361], [-7.906014, 41.633147], [-7.906884, 41.641927], [-7.897869, 41.645511], [-7.89696, 41.647985], [-7.892759, 41.647976], [-7.892145, 41.651576], [-7.902319, 41.659925], [-7.899913, 41.66127], [-7.900198, 41.665547], [-7.898396, 41.665769], [-7.896885, 41.668692], [-7.883969, 41.67069], [-7.877175, 41.676078], [-7.882571, 41.685657], [-7.882673, 41.694665], [-7.875255, 41.712607], [-7.867581, 41.721538], [-7.854459, 41.725918], [-7.842432, 41.726178], [-7.830448, 41.724029], [-7.821665, 41.721076], [-7.816499, 41.717495], [-7.815291, 41.718689], [-7.808986, 41.717996], [-7.808396, 41.715744], [-7.804499, 41.714158], [-7.79939, 41.714593], [-7.79788, 41.716164], [-7.796383, 41.71526], [-7.790966, 41.717044], [-7.789449, 41.719966], [-7.78464, 41.720402], [-7.78252, 41.723546], [-7.776204, 41.724652], [-7.773786, 41.727346], [-7.770798, 41.72441], [-7.765698, 41.723044], [-7.761765, 41.727758], [-7.762933, 41.733839], [-7.759307, 41.737203], [-7.759597, 41.739005], [-7.75689, 41.739446], [-7.758687, 41.740577], [-7.757758, 41.745301], [-7.752545, 41.74776], [-7.7578, 41.750601], [-7.770563, 41.765575], [-7.774226, 41.774621], [-7.775083, 41.783637], [-7.772979, 41.792621], [-7.767145, 41.801566], [-7.75666, 41.809615], [-7.74453, 41.814318], [-7.728763, 41.816421], [-7.732041, 41.821514], [-7.743152, 41.825154], [-7.742839, 41.827178], [-7.738919, 41.828515], [-7.740406, 41.831458], [-7.756334, 41.826508], [-7.768496, 41.820211], [-7.780787, 41.807017], [-7.787294, 41.792773], [-7.789144, 41.783786], [-7.790046, 41.747768], [-7.797744, 41.738842], [-7.806182, 41.735913], [-7.818236, 41.734349], [-7.866408, 41.730147], [-7.878506, 41.725912], [-7.883723, 41.721696], [-7.890835, 41.708118], [-7.902895, 41.705732], [-7.913525, 41.712975], [-7.913353, 41.72198], [-7.907291, 41.73093], [-7.906227, 41.739926], [-7.908284, 41.75796], [-7.913811, 41.771203], [-7.925706, 41.779397], [-7.949755, 41.780429], [-7.967089, 41.785524], [-7.997355, 41.814666], [-8.016454, 41.830477], [-8.021183, 41.831382], [-8.030816, 41.82959], [-8.037134, 41.831171], [-8.041351, 41.828023], [-8.041054, 41.825097], [-8.045268, 41.824425], [-8.046775, 41.821951], [-8.056712, 41.81588], [-8.06664, 41.817012], [-8.072961, 41.813414], [-8.078678, 41.813417], [-8.082892, 41.810493], [-8.091013, 41.812521], [-8.093421, 41.811397], [-8.093723, 41.808471], [-8.101845, 41.809824], [-8.104853, 41.81185], [-8.115984, 41.812302], [-8.123807, 41.808702], [-8.138247, 41.808477], [-8.139751, 41.813203], [-8.14276, 41.812978], [-8.144866, 41.815228], [-8.149078, 41.814777], [-8.153291, 41.817703], [-8.158106, 41.818377], [-8.165326, 41.81815], [-8.173744, 41.808019], [-8.177655, 41.808242], [-8.183676, 41.812741], [-8.190291, 41.809587], [-8.197158, 41.814129], [-8.201063, 41.808724], [-8.204973, 41.807372], [-8.205872, 41.804445], [-8.213692, 41.803765], [-8.217598, 41.80016], [-8.217589, 41.793634], [-8.224207, 41.794303], [-8.229917, 41.791598], [-8.240744, 41.791588], [-8.24074, 41.789338], [-8.244347, 41.787984], [-8.245546, 41.785731], [-8.251257, 41.784375], [-8.251845, 41.777172], [-8.257551, 41.773564], [-8.261762, 41.774235], [-8.271366, 41.766346], [-8.280681, 41.764083], [-8.284038, 41.761109], [-8.284931, 41.757507], [-8.305674, 41.758152], [-8.311096, 41.762195], [-8.318308, 41.761283], [-8.325233, 41.765098], [-8.328234, 41.763292], [-8.336653, 41.763728], [-8.341756, 41.761468], [-8.344765, 41.762363], [-8.349267, 41.760103], [-8.352557, 41.755145], [-8.349814, 41.744122], [-8.352516, 41.743441], [-8.352203, 41.739616], [-8.356398, 41.736231], [-8.357897, 41.735103], [-8.362407, 41.735994], [-8.368703, 41.73193], [-8.371416, 41.7344], [-8.376825, 41.734389], [-8.385509, 41.730319], [-8.384868, 41.725472], [-8.387718, 41.71648], [-8.396483, 41.707519], [-8.40774, 41.702212], [-8.419782, 41.699571], [-8.431793, 41.700475], [-8.445463, 41.706087], [-8.453868, 41.697961], [-8.453255, 41.695542]], [[-8.034055, 41.775979], [-8.02198, 41.778746], [-8.009945, 41.778899], [-7.985936, 41.775276], [-7.937822, 41.774375], [-7.925853, 41.770562], [-7.921539, 41.767092], [-7.917911, 41.758051], [-7.919418, 41.749058], [-7.925516, 41.740108], [-7.946159, 41.722286], [-7.963032, 41.703216], [-7.975157, 41.696481], [-7.98721, 41.694255], [-7.999196, 41.696269], [-8.01114, 41.701074], [-8.01445, 41.704878], [-8.023029, 41.709634], [-8.048225, 41.732183], [-8.054232, 41.74124], [-8.055441, 41.750257], [-8.053296, 41.759246], [-8.046196, 41.768646], [-8.034055, 41.775979]], [[-8.227465, 41.701661], [-8.22197, 41.70647], [-8.215362, 41.708577], [-8.20336, 41.707199], [-8.19473, 41.697276], [-8.197627, 41.688289], [-8.203653, 41.683412], [-8.215685, 41.682015], [-8.229009, 41.688504], [-8.231347, 41.697526], [-8.227465, 41.701661]], [[-8.042416, 41.660079], [-8.035632, 41.670559], [-8.02355, 41.675138], [-8.011542, 41.674824], [-8.000686, 41.668731], [-7.997197, 41.659694], [-8.001598, 41.650725], [-8.012001, 41.644793], [-8.024025, 41.643707], [-8.035966, 41.648192], [-8.038983, 41.651043], [-8.042416, 41.660079]], [[-8.241512, 41.528821], [-8.229561, 41.525749], [-8.219925, 41.517306], [-8.218108, 41.508286], [-8.222635, 41.499309], [-8.229934, 41.494345], [-8.241958, 41.490572], [-8.253928, 41.491397], [-8.274416, 41.499648], [-8.276389, 41.508667], [-8.270892, 41.51764], [-8.26557, 41.521293], [-8.253514, 41.527467], [-8.241512, 41.528821]], [[-8.337444, 41.524947], [-8.32546, 41.524782], [-8.313498, 41.522502], [-8.301943, 41.517833], [-8.289666, 41.509771], [-8.284107, 41.508716], [-8.28038, 41.499685], [-8.284009, 41.4907], [-8.295563, 41.472757], [-8.306374, 41.463815], [-8.326179, 41.455422], [-8.338168, 41.453855], [-8.35013, 41.454907], [-8.362065, 41.458829], [-8.369283, 41.464177], [-8.376059, 41.473222], [-8.37901, 41.482245], [-8.37949, 41.491255], [-8.377439, 41.500251], [-8.373576, 41.506854], [-8.361487, 41.517657], [-8.34945, 41.52295], [-8.337444, 41.524947]], [[-8.107824, 41.507483], [-8.09799, 41.505962], [-8.087643, 41.498318], [-8.082698, 41.489271], [-8.083067, 41.480267], [-8.088848, 41.471305], [-8.098553, 41.465358], [-8.11057, 41.46229], [-8.122528, 41.463478], [-8.13737, 41.471679], [-8.142709, 41.480727], [-8.142704, 41.489734], [-8.133983, 41.502569], [-8.121936, 41.507349], [-8.107824, 41.507483]]], [[[-8.087885, 41.542902], [-8.087885, 41.542902], [-8.088783, 41.543075], [-8.087885, 41.542902]]], [[[-8.088918, 41.543101], [-8.088918, 41.543101], [-8.089981, 41.543306], [-8.088918, 41.543101]]], [[[-8.090088, 41.543327], [-8.090088, 41.543327], [-8.090281, 41.543364], [-8.090088, 41.543327]]], [[[-8.090581, 41.543396], [-8.090581, 41.543396], [-8.092079, 41.543523], [-8.090581, 41.543396]]], [[[-8.092431, 41.543553], [-8.092431, 41.543553], [-8.092678, 41.543574], [-8.092431, 41.543553]]], [[[-8.385569, 41.730769], [-8.385569, 41.730769], [-8.385523, 41.730425], [-8.385569, 41.730769]]], [[[-8.119173, 41.710797], [-8.131369, 41.697763], [-8.134207, 41.696836], [-8.138956, 41.687864], [-8.13435, 41.678823], [-8.131642, 41.677424], [-8.119641, 41.676497], [-8.107541, 41.682718], [-8.095364, 41.694292], [-8.091103, 41.696503], [-8.088679, 41.705491], [-8.095058, 41.716083], [-8.107088, 41.715447], [-8.119173, 41.710797]], [[-8.127805, 41.696787], [-8.119231, 41.706523], [-8.107212, 41.706504], [-8.102378, 41.696591], [-8.107412, 41.692074], [-8.119494, 41.687289], [-8.127805, 41.696787]]], [[[-8.528596, 41.610681], [-8.540605, 41.609661], [-8.552639, 41.604947], [-8.558331, 41.600169], [-8.563718, 41.591182], [-8.564976, 41.58218], [-8.563421, 41.573167], [-8.559049, 41.564143], [-8.551182, 41.555105], [-8.541044, 41.547678], [-8.529088, 41.542901], [-8.517109, 41.541564], [-8.505103, 41.543823], [-8.493065, 41.549982], [-8.480874, 41.563816], [-8.477018, 41.572806], [-8.479052, 41.581823], [-8.485454, 41.590859], [-8.492697, 41.597003], [-8.504639, 41.604513], [-8.516609, 41.608681], [-8.528596, 41.610681]], [[-8.513189, 41.59098], [-8.504769, 41.587495], [-8.499236, 41.581912], [-8.497624, 41.572898], [-8.504956, 41.563033], [-8.516979, 41.559027], [-8.528959, 41.560754], [-8.53459, 41.564046], [-8.541214, 41.57308], [-8.540018, 41.582083], [-8.528739, 41.590991], [-8.516732, 41.592167], [-8.513189, 41.59098]]], [[[-8.637847, 41.389352], [-8.649818, 41.387478], [-8.658683, 41.384332], [-8.6721, 41.375364], [-8.678668, 41.366374], [-8.681024, 41.357373], [-8.679967, 41.348363], [-8.673985, 41.338394], [-8.662081, 41.329068], [-8.650157, 41.324298], [-8.638219, 41.322201], [-8.626272, 41.321986], [-8.614312, 41.323892], [-8.601668, 41.330103], [-8.592842, 41.33908], [-8.588864, 41.348073], [-8.588221, 41.357079], [-8.590907, 41.366096], [-8.597212, 41.375126], [-8.602028, 41.378937], [-8.613947, 41.385702], [-8.625889, 41.388802], [-8.637847, 41.389352]]], [[[-8.709944, 41.314911], [-8.721893, 41.314609], [-8.733866, 41.30813], [-8.737414, 41.30347], [-8.73812, 41.294463], [-8.733946, 41.288617], [-8.730402, 41.285438], [-8.722029, 41.282542], [-8.710087, 41.282683], [-8.702535, 41.285369], [-8.694028, 41.294355], [-8.693982, 41.303362], [-8.698024, 41.308981], [-8.709944, 41.314911]]], [[[-8.469594, 41.244591], [-8.480212, 41.257557], [-8.490928, 41.266612], [-8.507128, 41.276415], [-8.519031, 41.281571], [-8.542874, 41.287138], [-8.554811, 41.287899], [-8.56676, 41.286925], [-8.578722, 41.283852], [-8.590702, 41.277822], [-8.602714, 41.26599], [-8.60739, 41.258061], [-8.610769, 41.249064], [-8.612845, 41.231056], [-8.609843, 41.21303], [-8.603134, 41.19665], [-8.591312, 41.179932], [-8.58445, 41.173775], [-8.582094, 41.177803], [-8.578825, 41.178941], [-8.581276, 41.188836], [-8.579418, 41.193795], [-8.589737, 41.203952], [-8.594401, 41.212976], [-8.596051, 41.22199], [-8.594852, 41.230994], [-8.590274, 41.239985], [-8.579935, 41.248956], [-8.566976, 41.254293], [-8.55503, 41.255706], [-8.543101, 41.254633], [-8.531191, 41.250879], [-8.519311, 41.243332], [-8.509326, 41.230661], [-8.506863, 41.221643], [-8.507402, 41.212637], [-8.510026, 41.206199], [-8.505693, 41.207113], [-8.504239, 41.213646], [-8.500076, 41.21546], [-8.50308, 41.219502], [-8.502204, 41.222656], [-8.495642, 41.222227], [-8.495947, 41.223351], [-8.490894, 41.226294], [-8.487935, 41.230354], [-8.490331, 41.232373], [-8.489156, 41.235528], [-8.486181, 41.236888], [-8.484411, 41.240495], [-8.476644, 41.237817], [-8.475756, 41.23917], [-8.471283, 41.239184], [-8.471604, 41.243459], [-8.469594, 41.244591]]]]}}, {"id": "12", "type": "Feature", "properties": {"fill": "#71a5e5", "value_min": 1.25, "value_max": -1.5}, "geometry": {"type": "MultiPolygon", "coordinates": [[[[-7.910366, 41.872186], [-7.91358, 41.866091], [-7.920717, 41.839138], [-7.929611, 41.821208], [-7.931888, 41.812222], [-7.929525, 41.803194], [-7.922125, 41.794118], [-7.913526, 41.788099], [-7.90348, 41.775928], [-7.898104, 41.757862], [-7.894169, 41.748818], [-7.890207, 41.74457], [-7.878289, 41.738331], [-7.866295, 41.7366], [-7.842186, 41.739873], [-7.821984, 41.7481], [-7.813444, 41.757019], [-7.809602, 41.765986], [-7.798075, 41.8109], [-7.795274, 41.828884], [-7.798873, 41.846935], [-7.81219, 41.871956], [-7.814229, 41.873537], [-7.823863, 41.874013], [-7.825059, 41.875817], [-7.830479, 41.875831], [-7.830789, 41.874031], [-7.832894, 41.874712], [-7.83772, 41.872924], [-7.842528, 41.875187], [-7.841663, 41.866632], [-7.849515, 41.861475], [-7.858542, 41.862622], [-7.859676, 41.860149], [-7.852084, 41.85919], [-7.84012, 41.854555], [-7.828235, 41.845637], [-7.821921, 41.838167], [-7.815008, 41.820083], [-7.81705, 41.80209], [-7.824807, 41.784156], [-7.832288, 41.757212], [-7.841218, 41.748296], [-7.85415, 41.743347], [-7.866192, 41.74242], [-7.878159, 41.74583], [-7.882512, 41.748705], [-7.888452, 41.757769], [-7.889648, 41.775795], [-7.910821, 41.803018], [-7.913545, 41.81205], [-7.913133, 41.821053], [-7.904401, 41.838984], [-7.896259, 41.847913], [-7.885367, 41.85541], [-7.888076, 41.855486], [-7.891675, 41.859094], [-7.898893, 41.86136], [-7.902203, 41.861591], [-7.904318, 41.859795], [-7.907309, 41.865203], [-7.906095, 41.868126], [-7.910366, 41.872186]]], [[[-8.435328, 41.714895], [-8.426135, 41.707671], [-8.419722, 41.706286], [-8.407677, 41.709052], [-8.400346, 41.716547], [-8.40205, 41.72668], [-8.404721, 41.722847], [-8.417349, 41.725067], [-8.422737, 41.720552], [-8.429643, 41.719859], [-8.430533, 41.717381], [-8.435328, 41.714895]]], [[[-8.162459, 41.715059], [-8.161413, 41.706044], [-8.15538, 41.699604], [-8.143399, 41.696868], [-8.131327, 41.700839], [-8.126147, 41.705782], [-8.119582, 41.714738], [-8.119987, 41.723749], [-8.130914, 41.731534], [-8.142943, 41.731135], [-8.155644, 41.724016], [-8.162459, 41.715059]], [[-8.131051, 41.721375], [-8.125453, 41.714783], [-8.129305, 41.705806], [-8.131286, 41.703916], [-8.143324, 41.702466], [-8.149464, 41.705956], [-8.150187, 41.714969], [-8.143082, 41.720705], [-8.131051, 41.721375]]], [[[-8.061187, 41.696262], [-8.0593, 41.695154], [-8.046745, 41.696143], [-8.041438, 41.705106], [-8.047034, 41.711972], [-8.059028, 41.713769], [-8.067201, 41.705318], [-8.061187, 41.696262]]], [[[-8.095632, 41.675169], [-8.083618, 41.675207], [-8.08106, 41.678409], [-8.083534, 41.681086], [-8.09556, 41.680282], [-8.097243, 41.678537], [-8.095632, 41.675169]]], [[[-8.153437, 41.633929], [-8.150026, 41.624897], [-8.144427, 41.619199], [-8.132534, 41.610956], [-8.120241, 41.597651], [-8.108807, 41.590911], [-8.096853, 41.587738], [-8.084861, 41.587361], [-8.072825, 41.590033], [-8.06168, 41.597188], [-8.055935, 41.606148], [-8.055607, 41.615153], [-8.060201, 41.624198], [-8.072183, 41.634878], [-8.084118, 41.639867], [-8.108111, 41.641449], [-8.132032, 41.64839], [-8.144072, 41.646067], [-8.148877, 41.642903], [-8.153437, 41.633929]], [[-8.084316, 41.625905], [-8.081306, 41.624368], [-8.074392, 41.615306], [-8.081084, 41.606352], [-8.084618, 41.604564], [-8.096602, 41.605708], [-8.103512, 41.615536], [-8.096334, 41.624974], [-8.084316, 41.625905]]], [[[-8.349602, 41.507747], [-8.362208, 41.500168], [-8.367094, 41.491188], [-8.366785, 41.482179], [-8.360937, 41.473139], [-8.35001, 41.466934], [-8.338048, 41.465679], [-8.326042, 41.468668], [-8.319189, 41.472899], [-8.312485, 41.481867], [-8.311758, 41.49087], [-8.316716, 41.499907], [-8.325652, 41.506272], [-8.337606, 41.509056], [-8.349602, 41.507747]], [[-8.337729, 41.496982], [-8.328763, 41.49097], [-8.329616, 41.481968], [-8.337931, 41.477097], [-8.34989, 41.478905], [-8.353357, 41.482104], [-8.353828, 41.491114], [-8.349728, 41.495152], [-8.337729, 41.496982]]], [[[-8.573466, 41.221909], [-8.569782, 41.212887], [-8.567262, 41.210931], [-8.555347, 41.209017], [-8.546045, 41.212796], [-8.541731, 41.221787], [-8.549455, 41.230825], [-8.555185, 41.232895], [-8.567127, 41.231389], [-8.573466, 41.221909]]]]}}, {"id": "11", "type": "Feature", "properties": {"fill": "#90a4bc", "value_min": 1.0, "value_max": -1.25}, "geometry": {"type": "MultiPolygon", "coordinates": [[[[-8.016454, 41.830477], [-7.997355, 41.814666], [-7.967089, 41.785524], [-7.949755, 41.780429], [-7.925706, 41.779397], [-7.913811, 41.771203], [-7.908284, 41.75796], [-7.906227, 41.739926], [-7.907291, 41.73093], [-7.913353, 41.72198], [-7.913525, 41.712975], [-7.902895, 41.705732], [-7.890835, 41.708118], [-7.883723, 41.721696], [-7.878506, 41.725912], [-7.866408, 41.730147], [-7.818236, 41.734349], [-7.806182, 41.735913], [-7.797744, 41.738842], [-7.790046, 41.747768], [-7.789144, 41.783786], [-7.787294, 41.792773], [-7.780787, 41.807017], [-7.768496, 41.820211], [-7.756334, 41.826508], [-7.740406, 41.831458], [-7.74729, 41.837772], [-7.746349, 41.84407], [-7.750246, 41.846784], [-7.750532, 41.849261], [-7.743309, 41.849012], [-7.746901, 41.8524], [-7.746881, 41.855776], [-7.73843, 41.859348], [-7.734159, 41.868337], [-7.730228, 41.871024], [-7.729293, 41.875972], [-7.720533, 41.880218], [-7.720523, 41.881793], [-7.725335, 41.882935], [-7.726208, 41.887665], [-7.737044, 41.888828], [-7.73944, 41.891087], [-7.74246, 41.889747], [-7.742785, 41.885922], [-7.756022, 41.888441], [-7.758719, 41.890926], [-7.756592, 41.89407], [-7.758076, 41.897901], [-7.764097, 41.898595], [-7.779227, 41.886264], [-7.785257, 41.885157], [-7.788886, 41.882467], [-7.794309, 41.882033], [-7.796739, 41.878214], [-7.794954, 41.873932], [-7.803381, 41.874857], [-7.804914, 41.869459], [-7.81219, 41.871956], [-7.798873, 41.846935], [-7.795274, 41.828884], [-7.798075, 41.8109], [-7.809602, 41.765986], [-7.813444, 41.757019], [-7.821984, 41.7481], [-7.842186, 41.739873], [-7.866295, 41.7366], [-7.878289, 41.738331], [-7.890207, 41.74457], [-7.894169, 41.748818], [-7.898104, 41.757862], [-7.90348, 41.775928], [-7.913526, 41.788099], [-7.922125, 41.794118], [-7.929525, 41.803194], [-7.931888, 41.812222], [-7.929611, 41.821208], [-7.920717, 41.839138], [-7.91358, 41.866091], [-7.910366, 41.872186], [-7.910285, 41.875562], [-7.915391, 41.879397], [-7.921118, 41.877833], [-7.928044, 41.87807], [-7.935283, 41.874707], [-7.937389, 41.87516], [-7.941618, 41.870891], [-7.951254, 41.871132], [-7.956367, 41.87339], [-7.956362, 41.875191], [-7.960576, 41.875647], [-7.962086, 41.874074], [-7.97202, 41.875439], [-7.975637, 41.874543], [-7.987996, 41.869157], [-7.990123, 41.860157], [-7.995547, 41.858138], [-7.994044, 41.856786], [-7.994954, 41.853411], [-7.996765, 41.851162], [-8.00339, 41.85027], [-8.007618, 41.843072], [-8.007928, 41.838796], [-8.012753, 41.833624], [-8.01276, 41.829798], [-8.014266, 41.828899], [-8.016454, 41.830477]]], [[[-8.013639, 41.603372], [-8.021972, 41.614872], [-8.05385, 41.64216], [-8.059914, 41.651217], [-8.061155, 41.660234], [-8.05781, 41.669213], [-8.050425, 41.67816], [-8.035377, 41.687643], [-8.028523, 41.695991], [-8.029466, 41.705006], [-8.036988, 41.714076], [-8.046899, 41.721099], [-8.058852, 41.725821], [-8.082816, 41.731652], [-8.106462, 41.760657], [-8.118333, 41.772199], [-8.130261, 41.779901], [-8.142232, 41.784576], [-8.154242, 41.786449], [-8.16628, 41.786135], [-8.178348, 41.783498], [-8.190458, 41.777469], [-8.199589, 41.769365], [-8.205352, 41.760398], [-8.207454, 41.751406], [-8.205984, 41.742389], [-8.179314, 41.707725], [-8.171542, 41.688104], [-8.170244, 41.679087], [-8.17332, 41.670102], [-8.18865, 41.652197], [-8.198083, 41.634249], [-8.199387, 41.625251], [-8.196665, 41.607218], [-8.187532, 41.589139], [-8.180923, 41.58079], [-8.169071, 41.569547], [-8.157183, 41.561358], [-8.133353, 41.54974], [-8.121409, 41.546304], [-8.095973, 41.543853], [-8.094175, 41.544904], [-8.092678, 41.543574], [-8.092431, 41.543553], [-8.092079, 41.543523], [-8.090581, 41.543396], [-8.090281, 41.543364], [-8.090088, 41.543327], [-8.089981, 41.543306], [-8.088918, 41.543101], [-8.088783, 41.543075], [-8.087885, 41.542902], [-8.083389, 41.5449], [-8.080687, 41.551651], [-8.074396, 41.549848], [-8.072897, 41.551197], [-8.076188, 41.557276], [-8.080082, 41.558854], [-8.081576, 41.565157], [-8.078879, 41.56493], [-8.075279, 41.568305], [-8.073182, 41.568079], [-8.069283, 41.570553], [-8.068081, 41.573478], [-8.056684, 41.579549], [-8.052181, 41.584498], [-8.052777, 41.587649], [-8.037169, 41.600242], [-8.031467, 41.602938], [-8.02367, 41.603156], [-8.019174, 41.601802], [-8.015872, 41.603824], [-8.013639, 41.603372]], [[-8.162459, 41.715059], [-8.155644, 41.724016], [-8.142943, 41.731135], [-8.130914, 41.731534], [-8.119987, 41.723749], [-8.119582, 41.714738], [-8.126147, 41.705782], [-8.131327, 41.700839], [-8.143399, 41.696868], [-8.15538, 41.699604], [-8.161413, 41.706044], [-8.162459, 41.715059]], [[-8.119173, 41.710797], [-8.107088, 41.715447], [-8.095058, 41.716083], [-8.088679, 41.705491], [-8.091103, 41.696503], [-8.095364, 41.694292], [-8.107541, 41.682718], [-8.119641, 41.676497], [-8.131642, 41.677424], [-8.13435, 41.678823], [-8.138956, 41.687864], [-8.134207, 41.696836], [-8.131369, 41.697763], [-8.119173, 41.710797]], [[-8.061187, 41.696262], [-8.067201, 41.705318], [-8.059028, 41.713769], [-8.047034, 41.711972], [-8.041438, 41.705106], [-8.046745, 41.696143], [-8.0593, 41.695154], [-8.061187, 41.696262]], [[-8.095632, 41.675169], [-8.097243, 41.678537], [-8.09556, 41.680282], [-8.083534, 41.681086], [-8.08106, 41.678409], [-8.083618, 41.675207], [-8.095632, 41.675169]], [[-8.153437, 41.633929], [-8.148877, 41.642903], [-8.144072, 41.646067], [-8.132032, 41.64839], [-8.108111, 41.641449], [-8.084118, 41.639867], [-8.072183, 41.634878], [-8.060201, 41.624198], [-8.055607, 41.615153], [-8.055935, 41.606148], [-8.06168, 41.597188], [-8.072825, 41.590033], [-8.084861, 41.587361], [-8.096853, 41.587738], [-8.108807, 41.590911], [-8.120241, 41.597651], [-8.132534, 41.610956], [-8.144427, 41.619199], [-8.150026, 41.624897], [-8.153437, 41.633929]]], [[[-8.445463, 41.706087], [-8.431793, 41.700475], [-8.419782, 41.699571], [-8.40774, 41.702212], [-8.396483, 41.707519], [-8.387718, 41.71648], [-8.384868, 41.725472], [-8.385509, 41.730319], [-8.385523, 41.730425], [-8.385569, 41.730769], [-8.387332, 41.73189], [-8.393033, 41.729852], [-8.396942, 41.730518], [-8.40205, 41.72668], [-8.400346, 41.716547], [-8.407677, 41.709052], [-8.419722, 41.706286], [-8.426135, 41.707671], [-8.435328, 41.714895], [-8.441632, 41.713975], [-8.441618, 41.711049], [-8.445463, 41.706087]]], [[[-8.513189, 41.59098], [-8.516732, 41.592167], [-8.528739, 41.590991], [-8.540018, 41.582083], [-8.541214, 41.57308], [-8.53459, 41.564046], [-8.528959, 41.560754], [-8.516979, 41.559027], [-8.504956, 41.563033], [-8.497624, 41.572898], [-8.499236, 41.581912], [-8.504769, 41.587495], [-8.513189, 41.59098]]], [[[-8.241512, 41.528821], [-8.253514, 41.527467], [-8.26557, 41.521293], [-8.270892, 41.51764], [-8.276389, 41.508667], [-8.274416, 41.499648], [-8.253928, 41.491397], [-8.241958, 41.490572], [-8.229934, 41.494345], [-8.222635, 41.499309], [-8.218108, 41.508286], [-8.219925, 41.517306], [-8.229561, 41.525749], [-8.241512, 41.528821]]], [[[-8.337444, 41.524947], [-8.34945, 41.52295], [-8.361487, 41.517657], [-8.373576, 41.506854], [-8.377439, 41.500251], [-8.37949, 41.491255], [-8.37901, 41.482245], [-8.376059, 41.473222], [-8.369283, 41.464177], [-8.362065, 41.458829], [-8.35013, 41.454907], [-8.338168, 41.453855], [-8.326179, 41.455422], [-8.306374, 41.463815], [-8.295563, 41.472757], [-8.284009, 41.4907], [-8.28038, 41.499685], [-8.284107, 41.508716], [-8.289666, 41.509771], [-8.301943, 41.517833], [-8.313498, 41.522502], [-8.32546, 41.524782], [-8.337444, 41.524947]], [[-8.349602, 41.507747], [-8.337606, 41.509056], [-8.325652, 41.506272], [-8.316716, 41.499907], [-8.311758, 41.49087], [-8.312485, 41.481867], [-8.319189, 41.472899], [-8.326042, 41.468668], [-8.338048, 41.465679], [-8.35001, 41.466934], [-8.360937, 41.473139], [-8.366785, 41.482179], [-8.367094, 41.491188], [-8.362208, 41.500168], [-8.349602, 41.507747]]], [[[-8.107824, 41.507483], [-8.121936, 41.507349], [-8.133983, 41.502569], [-8.142704, 41.489734], [-8.142709, 41.480727], [-8.13737, 41.471679], [-8.122528, 41.463478], [-8.11057, 41.46229], [-8.098553, 41.465358], [-8.088848, 41.471305], [-8.083067, 41.480267], [-8.082698, 41.489271], [-8.087643, 41.498318], [-8.09799, 41.505962], [-8.107824, 41.507483]]], [[[-8.510026, 41.206199], [-8.507402, 41.212637], [-8.506863, 41.221643], [-8.509326, 41.230661], [-8.519311, 41.243332], [-8.531191, 41.250879], [-8.543101, 41.254633], [-8.55503, 41.255706], [-8.566976, 41.254293], [-8.579935, 41.248956], [-8.590274, 41.239985], [-8.594852, 41.230994], [-8.596051, 41.22199], [-8.594401, 41.212976], [-8.589737, 41.203952], [-8.579418, 41.193795], [-8.575958, 41.195609], [-8.576894, 41.201908], [-8.574515, 41.202593], [-8.57423, 41.20462], [-8.567971, 41.204644], [-8.565895, 41.206227], [-8.567697, 41.208246], [-8.566512, 41.209376], [-8.559636, 41.206251], [-8.554271, 41.20627], [-8.549521, 41.209214], [-8.544157, 41.209458], [-8.54238, 41.211265], [-8.532257, 41.213102], [-8.52713, 41.203215], [-8.523236, 41.200077], [-8.51163, 41.203042], [-8.510026, 41.206199]], [[-8.573466, 41.221909], [-8.567127, 41.231389], [-8.555185, 41.232895], [-8.549455, 41.230825], [-8.541731, 41.221787], [-8.546045, 41.212796], [-8.555347, 41.209017], [-8.567262, 41.210931], [-8.569782, 41.212887], [-8.573466, 41.221909]]]]}}, {"id": "13", "type": "Feature", "properties": {"fill": "#5093f6", "value_min": 1.5, "value_max": -1.75}, "geometry": {"type": "MultiPolygon", "coordinates": [[[[-7.885367, 41.85541], [-7.896259, 41.847913], [-7.904401, 41.838984], [-7.913133, 41.821053], [-7.913545, 41.81205], [-7.910821, 41.803018], [-7.889648, 41.775795], [-7.888452, 41.757769], [-7.882512, 41.748705], [-7.878159, 41.74583], [-7.866192, 41.74242], [-7.85415, 41.743347], [-7.841218, 41.748296], [-7.832288, 41.757212], [-7.824807, 41.784156], [-7.81705, 41.80209], [-7.815008, 41.820083], [-7.821921, 41.838167], [-7.828235, 41.845637], [-7.84012, 41.854555], [-7.852084, 41.85919], [-7.859676, 41.860149], [-7.865481, 41.859262], [-7.87033, 41.851395], [-7.873043, 41.850501], [-7.873064, 41.845242], [-7.864365, 41.845984], [-7.852359, 41.843817], [-7.842316, 41.838375], [-7.83295, 41.829273], [-7.829047, 41.820227], [-7.828454, 41.811214], [-7.830913, 41.802232], [-7.841302, 41.789018], [-7.849397, 41.784405], [-7.852761, 41.775432], [-7.845694, 41.766355], [-7.84549, 41.757346], [-7.854034, 41.749855], [-7.866098, 41.747763], [-7.879928, 41.757687], [-7.877759, 41.768811], [-7.869018, 41.775593], [-7.878355, 41.784692], [-7.889424, 41.789984], [-7.893703, 41.793847], [-7.901367, 41.802928], [-7.905095, 41.81197], [-7.90414, 41.820968], [-7.899075, 41.829926], [-7.888566, 41.839622], [-7.873968, 41.845165], [-7.879056, 41.85254], [-7.885367, 41.85541]]], [[[-8.131051, 41.721375], [-8.143082, 41.720705], [-8.150187, 41.714969], [-8.149464, 41.705956], [-8.143324, 41.702466], [-8.131286, 41.703916], [-8.129305, 41.705806], [-8.125453, 41.714783], [-8.131051, 41.721375]]], [[[-8.084316, 41.625905], [-8.096334, 41.624974], [-8.103512, 41.615536], [-8.096602, 41.605708], [-8.084618, 41.604564], [-8.081084, 41.606352], [-8.074392, 41.615306], [-8.081306, 41.624368], [-8.084316, 41.625905]]], [[[-8.337729, 41.496982], [-8.349728, 41.495152], [-8.353828, 41.491114], [-8.353357, 41.482104], [-8.34989, 41.478905], [-8.337931, 41.477097], [-8.329616, 41.481968], [-8.328763, 41.49097], [-8.337729, 41.496982]]]]}}, {"id": "15", "type": "Feature", "properties": {"fill": "#245ede", "value_min": 2.0, "value_max": -2.25}, "geometry": {"type": "MultiPolygon", "coordinates": [[[[-7.896499, 41.820895], [-7.898073, 41.811903], [-7.894472, 41.802862], [-7.889292, 41.797669], [-7.877364, 41.791417], [-7.865353, 41.790075], [-7.854294, 41.793461], [-7.842358, 41.802348], [-7.838626, 41.811317], [-7.839955, 41.820338], [-7.846826, 41.829413], [-7.852545, 41.833415], [-7.864527, 41.836864], [-7.876583, 41.836142], [-7.888729, 41.830228], [-7.896499, 41.820895]], [[-7.864127, 41.829586], [-7.852713, 41.823985], [-7.849346, 41.820432], [-7.847042, 41.811402], [-7.853113, 41.801579], [-7.865243, 41.796295], [-7.877268, 41.796912], [-7.887274, 41.802792], [-7.889156, 41.805512], [-7.892219, 41.811847], [-7.88958, 41.820828], [-7.876703, 41.829279], [-7.864127, 41.829586]]], [[[-7.865951, 41.756119], [-7.861522, 41.757506], [-7.865861, 41.761259], [-7.868013, 41.75757], [-7.865951, 41.756119]]]]}}, {"id": "14", "type": "Feature", "properties": {"fill": "#3171ee", "value_min": 1.75, "value_max": -2.0}, "geometry": {"type": "Polygon", "coordinates": [[[-7.873968, 41.845165], [-7.888566, 41.839622], [-7.899075, 41.829926], [-7.90414, 41.820968], [-7.905095, 41.81197], [-7.901367, 41.802928], [-7.893703, 41.793847], [-7.889424, 41.789984], [-7.878355, 41.784692], [-7.869018, 41.775593], [-7.877759, 41.768811], [-7.879928, 41.757687], [-7.866098, 41.747763], [-7.854034, 41.749855], [-7.84549, 41.757346], [-7.845694, 41.766355], [-7.852761, 41.775432], [-7.849397, 41.784405], [-7.841302, 41.789018], [-7.830913, 41.802232], [-7.828454, 41.811214], [-7.829047, 41.820227], [-7.83295, 41.829273], [-7.842316, 41.838375], [-7.852359, 41.843817], [-7.864365, 41.845984], [-7.873064, 41.845242], [-7.873968, 41.845165]], [[-7.896499, 41.820895], [-7.888729, 41.830228], [-7.876583, 41.836142], [-7.864527, 41.836864], [-7.852545, 41.833415], [-7.846826, 41.829413], [-7.839955, 41.820338], [-7.838626, 41.811317], [-7.842358, 41.802348], [-7.854294, 41.793461], [-7.865353, 41.790075], [-7.877364, 41.791417], [-7.889292, 41.797669], [-7.894472, 41.802862], [-7.898073, 41.811903], [-7.896499, 41.820895]], [[-7.865951, 41.756119], [-7.868013, 41.75757], [-7.865861, 41.761259], [-7.861522, 41.757506], [-7.865951, 41.756119]]]}}, {"id": "18", "type": "Feature", "properties": {"fill": "#1f3f95", "value_min": 2.75, "value_max": -3.0}, "geometry": {"type": "Polygon", "coordinates": [[[-7.877047, 41.80958], [-7.865002, 41.809963], [-7.863555, 41.811567], [-7.864936, 41.8137], [-7.876962, 41.814444], [-7.878721, 41.811716], [-7.877047, 41.80958]]]}}, {"id": "17", "type": "Feature", "properties": {"fill": "#2048ac", "value_min": 2.5, "value_max": -2.75}, "geometry": {"type": "Polygon", "coordinates": [[[-7.885802, 41.811785], [-7.877185, 41.80167], [-7.865153, 41.801386], [-7.855107, 41.811483], [-7.85977, 41.820536], [-7.864764, 41.823451], [-7.876806, 41.823363], [-7.880861, 41.820743], [-7.885802, 41.811785]], [[-7.877047, 41.80958], [-7.878721, 41.811716], [-7.876962, 41.814444], [-7.864936, 41.8137], [-7.863555, 41.811567], [-7.865002, 41.809963], [-7.877047, 41.80958]]]}}, {"id": "16", "type": "Feature", "properties": {"fill": "#2253c5", "value_min": 2.25, "value_max": -2.5}, "geometry": {"type": "Polygon", "coordinates": [[[-7.864127, 41.829586], [-7.876703, 41.829279], [-7.88958, 41.820828], [-7.892219, 41.811847], [-7.889156, 41.805512], [-7.887274, 41.802792], [-7.877268, 41.796912], [-7.865243, 41.796295], [-7.853113, 41.801579], [-7.847042, 41.811402], [-7.849346, 41.820432], [-7.852713, 41.823985], [-7.864127, 41.829586]], [[-7.885802, 41.811785], [-7.880861, 41.820743], [-7.876806, 41.823363], [-7.864764, 41.823451], [-7.85977, 41.820536], [-7.855107, 41.811483], [-7.865153, 41.801386], [-7.877185, 41.80167], [-7.885802, 41.811785]]]}}]}