{"type": "FeatureCollection", "features": [{"id": "7", "type": "Feature", "properties": {"fill": "#a3a3a3", "value_min": 0.25, "value_max": -0.5}, "geometry": {"type": "MultiPolygon", "coordinates": [[[[-8.361612, 41.504957], [-8.366421, 41.500191], [-8.370757, 41.491208], [-8.370808, 41.482201], [-8.366847, 41.473171], [-8.361978, 41.467708], [-8.350065, 41.461376], [-8.338107, 41.459864], [-8.326107, 41.462332], [-8.314046, 41.470532], [-8.308414, 41.481842], [-8.309064, 41.490854], [-8.313932, 41.49989], [-8.325626, 41.508751], [-8.337577, 41.511913], [-8.349571, 41.510795], [-8.361612, 41.504957]], [[-8.33766, 41.503733], [-8.32573, 41.498775], [-8.319705, 41.490917], [-8.319646, 41.481909], [-8.325988, 41.473818], [-8.338011, 41.469278], [-8.349972, 41.470724], [-8.35386, 41.473099], [-8.36225, 41.482153], [-8.362306, 41.491161], [-8.354026, 41.500122], [-8.349653, 41.502594], [-8.33766, 41.503733]]], [[[-8.733814, 41.320884], [-8.750131, 41.312506], [-8.757041, 41.303513], [-8.759264, 41.29451], [-8.757487, 41.285498], [-8.751153, 41.276477], [-8.745951, 41.272444], [-8.734915, 41.267433], [-8.722102, 41.265238], [-8.710159, 41.266279], [-8.698202, 41.270419], [-8.686213, 41.280665], [-8.68334, 41.285318], [-8.681713, 41.294321], [-8.68421, 41.303336], [-8.691994, 41.312365], [-8.697989, 41.316503], [-8.709916, 41.321206], [-8.721859, 41.322515], [-8.733814, 41.320884]]]]}}, {"id": "5", "type": "Feature", "properties": {"fill": "#a3a3a3", "value_min": -0.25, "value_max": -0.0}, "geometry": {"type": "MultiPolygon", "coordinates": [[[[-7.882404, 41.757711], [-7.874891, 41.748631], [-7.866139, 41.745418], [-7.851272, 41.748397], [-7.843859, 41.757329], [-7.847003, 41.766368], [-7.853669, 41.770346], [-7.865671, 41.772019], [-7.878792, 41.766682], [-7.882404, 41.757711]]], [[[-8.034453, 41.749411], [-8.039857, 41.741121], [-8.038847, 41.732105], [-8.031395, 41.723036], [-8.022916, 41.717051], [-8.010943, 41.713919], [-7.998906, 41.714933], [-7.98749, 41.722657], [-7.984198, 41.731635], [-7.98688, 41.740666], [-7.998325, 41.752351], [-8.010289, 41.756499], [-8.022325, 41.756041], [-8.034453, 41.749411]], [[-8.002858, 41.740806], [-7.998099, 41.731757], [-8.010777, 41.724726], [-8.023726, 41.731978], [-8.020091, 41.740954], [-8.010479, 41.744143], [-8.002858, 41.740806]]], [[[-8.445797, 41.705746], [-8.431812, 41.698258], [-8.419807, 41.696863], [-8.407769, 41.699001], [-8.392325, 41.707497], [-8.386664, 41.716474], [-8.386499, 41.725481], [-8.389429, 41.730985], [-8.393033, 41.729852], [-8.396942, 41.730518], [-8.400531, 41.726683], [-8.402934, 41.726452], [-8.404721, 41.722847], [-8.417349, 41.725067], [-8.422737, 41.720552], [-8.429643, 41.719859], [-8.430533, 41.717381], [-8.435927, 41.714441], [-8.441632, 41.713975], [-8.441618, 41.711049], [-8.445797, 41.705746]]], [[[-8.155089, 41.721845], [-8.158525, 41.71503], [-8.155313, 41.704727], [-8.143374, 41.698703], [-8.131314, 41.701809], [-8.121282, 41.714751], [-8.123848, 41.723778], [-8.130937, 41.729788], [-8.142954, 41.730309], [-8.155089, 41.721845]], [[-8.131081, 41.719115], [-8.127599, 41.7148], [-8.130502, 41.705815], [-8.143296, 41.704588], [-8.145646, 41.705928], [-8.146788, 41.714944], [-8.143117, 41.71811], [-8.131081, 41.719115]]], [[[-8.143999, 41.651535], [-8.158666, 41.642975], [-8.162625, 41.633997], [-8.159679, 41.624968], [-8.156395, 41.621922], [-8.144457, 41.616909], [-8.13244, 41.617963], [-8.120325, 41.626272], [-8.115555, 41.633644], [-8.116174, 41.642656], [-8.120042, 41.647045], [-8.131983, 41.652043], [-8.143999, 41.651535]], [[-8.132127, 41.641328], [-8.127172, 41.633733], [-8.132291, 41.6291], [-8.144406, 41.633862], [-8.132127, 41.641328]]], [[[-8.657741, 41.537457], [-8.658503, 41.528452], [-8.654122, 41.519431], [-8.637189, 41.5076], [-8.625226, 41.504168], [-8.613242, 41.504439], [-8.601294, 41.510253], [-8.595081, 41.519238], [-8.594354, 41.528243], [-8.598112, 41.537264], [-8.612976, 41.549084], [-8.624949, 41.552224], [-8.636942, 41.551847], [-8.65024, 41.546442], [-8.657741, 41.537457]], [[-8.624795, 41.528347], [-8.625088, 41.527998], [-8.625311, 41.528348], [-8.624795, 41.528347]]], [[[-8.083388, 41.545974], [-8.097371, 41.550515], [-8.109353, 41.551172], [-8.121372, 41.549052], [-8.132681, 41.543703], [-8.141453, 41.534761], [-8.144409, 41.525776], [-8.144171, 41.516767], [-8.138179, 41.498707], [-8.139462, 41.480702], [-8.135759, 41.471667], [-8.122526, 41.463627], [-8.11056, 41.463027], [-8.098524, 41.4675], [-8.093563, 41.471342], [-8.082208, 41.489267], [-8.07507, 41.496953], [-8.078332, 41.500331], [-8.093, 41.504613], [-8.089398, 41.519242], [-8.090594, 41.522169], [-8.093588, 41.52307], [-8.091487, 41.531173], [-8.097775, 41.536127], [-8.097774, 41.537927], [-8.106759, 41.543106], [-8.10616, 41.543782], [-8.101666, 41.542655], [-8.094175, 41.544904], [-8.087885, 41.542876], [-8.083388, 41.545974]]], [[[-8.145001, 41.374967], [-8.148385, 41.390695], [-8.153015, 41.399736], [-8.160902, 41.408801], [-8.173097, 41.417897], [-8.194828, 41.426865], [-8.206761, 41.429758], [-8.242608, 41.434715], [-8.254528, 41.438996], [-8.266314, 41.455372], [-8.29458, 41.517788], [-8.301457, 41.527614], [-8.313357, 41.535843], [-8.325305, 41.539681], [-8.337287, 41.540349], [-8.349294, 41.538498], [-8.361324, 41.534248], [-8.373385, 41.52664], [-8.381988, 41.518291], [-8.387867, 41.509315], [-8.391062, 41.500324], [-8.391187, 41.464295], [-8.386167, 41.44235], [-8.374347, 41.426686], [-8.362454, 41.419065], [-8.314795, 41.399435], [-8.308128, 41.391766], [-8.299006, 41.364688], [-8.290007, 41.346618], [-8.282503, 41.337564], [-8.269583, 41.327525], [-8.265709, 41.331221], [-8.269004, 41.336169], [-8.263339, 41.340902], [-8.262751, 41.345405], [-8.256483, 41.347663], [-8.255889, 41.349689], [-8.249622, 41.353072], [-8.251123, 41.356897], [-8.248141, 41.360052], [-8.248448, 41.364328], [-8.245461, 41.364781], [-8.244272, 41.368384], [-8.239197, 41.371315], [-8.232024, 41.369971], [-8.224854, 41.370878], [-8.21738, 41.368182], [-8.214399, 41.373587], [-8.208127, 41.376968], [-8.199163, 41.377423], [-8.194677, 41.374275], [-8.191691, 41.376302], [-8.189299, 41.375403], [-8.184818, 41.376756], [-8.168382, 41.377438], [-8.164499, 41.38059], [-8.152544, 41.375866], [-8.151049, 41.37339], [-8.145001, 41.374967]], [[-8.33747, 41.522374], [-8.325506, 41.520332], [-8.313583, 41.514461], [-8.307564, 41.508859], [-8.30119, 41.499813], [-8.295543, 41.481764], [-8.296187, 41.472761], [-8.300038, 41.463777], [-8.308842, 41.454823], [-8.314249, 41.451304], [-8.326261, 41.447453], [-8.338241, 41.446667], [-8.350197, 41.448186], [-8.36212, 41.453211], [-8.373556, 41.464201], [-8.378189, 41.473233], [-8.380155, 41.491259], [-8.377534, 41.500252], [-8.373582, 41.506257], [-8.361498, 41.51658], [-8.349467, 41.521183], [-8.33747, 41.522374]]], [[[-8.565618, 41.458811], [-8.567284, 41.456085], [-8.562262, 41.447059], [-8.55375, 41.443364], [-8.540525, 41.446974], [-8.536976, 41.455967], [-8.541641, 41.463101], [-8.553592, 41.466523], [-8.558574, 41.46506], [-8.565618, 41.458811]]], [[[-8.613305, 41.177226], [-8.622698, 41.213073], [-8.625112, 41.231096], [-8.622891, 41.249105], [-8.614204, 41.276099], [-8.613236, 41.285104], [-8.615174, 41.294118], [-8.620534, 41.303144], [-8.63076, 41.312185], [-8.662065, 41.332102], [-8.697793, 41.358865], [-8.721655, 41.3704], [-8.7336, 41.373494], [-8.757505, 41.376605], [-8.781422, 41.376716], [-8.808722, 41.373495], [-8.805265, 41.2858], [-8.801474, 41.303598], [-8.788282, 41.32159], [-8.775815, 41.330574], [-8.757648, 41.338127], [-8.733731, 41.341496], [-8.721782, 41.340613], [-8.69791, 41.33373], [-8.677837, 41.321334], [-8.667943, 41.312298], [-8.661667, 41.303272], [-8.65783, 41.294253], [-8.65693, 41.285242], [-8.658496, 41.276239], [-8.672729, 41.249257], [-8.675099, 41.240256], [-8.671215, 41.231237], [-8.657026, 41.21318], [-8.653158, 41.204161], [-8.651922, 41.195149], [-8.653556, 41.186146], [-8.658274, 41.177152], [-8.66767, 41.168172], [-8.674852, 41.163686], [-8.68679, 41.15989], [-8.698715, 41.158654], [-8.710629, 41.159689], [-8.722534, 41.163091], [-8.734428, 41.169447], [-8.743565, 41.177374], [-8.750091, 41.186396], [-8.759603, 41.21344], [-8.764621, 41.222458], [-8.79142, 41.249533], [-8.797813, 41.258553], [-8.80219, 41.267568], [-8.805222, 41.284713], [-8.799695, 41.14406], [-8.674793, 41.146932], [-8.674849, 41.153767], [-8.672489, 41.15648], [-8.66117, 41.156307], [-8.662078, 41.158104], [-8.660313, 41.160813], [-8.657033, 41.160378], [-8.654961, 41.161963], [-8.653231, 41.169174], [-8.655366, 41.175467], [-8.647955, 41.180228], [-8.647696, 41.185181], [-8.640929, 41.196241], [-8.634946, 41.193341], [-8.632526, 41.188624], [-8.625658, 41.186628], [-8.621132, 41.178994], [-8.613305, 41.177226]]]]}}, {"id": "6", "type": "Feature", "properties": {"fill": "#a3a3a3", "value_min": 0.0, "value_max": -0.25}, "geometry": {"type": "MultiPolygon", "coordinates": [[[[-8.002858, 41.740806], [-8.010479, 41.744143], [-8.020091, 41.740954], [-8.023726, 41.731978], [-8.010777, 41.724726], [-7.998099, 41.731757], [-8.002858, 41.740806]]], [[[-8.131081, 41.719115], [-8.143117, 41.71811], [-8.146788, 41.714944], [-8.145646, 41.705928], [-8.143296, 41.704588], [-8.130502, 41.705815], [-8.127599, 41.7148], [-8.131081, 41.719115]]], [[[-8.132127, 41.641328], [-8.144406, 41.633862], [-8.132291, 41.6291], [-8.127172, 41.633733], [-8.132127, 41.641328]]], [[[-8.624795, 41.528347], [-8.625311, 41.528348], [-8.625088, 41.527998], [-8.624795, 41.528347]]], [[[-8.33747, 41.522374], [-8.349467, 41.521183], [-8.361498, 41.51658], [-8.373582, 41.506257], [-8.377534, 41.500252], [-8.380155, 41.491259], [-8.378189, 41.473233], [-8.373556, 41.464201], [-8.36212, 41.453211], [-8.350197, 41.448186], [-8.338241, 41.446667], [-8.326261, 41.447453], [-8.314249, 41.451304], [-8.308842, 41.454823], [-8.300038, 41.463777], [-8.296187, 41.472761], [-8.295543, 41.481764], [-8.30119, 41.499813], [-8.307564, 41.508859], [-8.313583, 41.514461], [-8.325506, 41.520332], [-8.33747, 41.522374]], [[-8.361612, 41.504957], [-8.349571, 41.510795], [-8.337577, 41.511913], [-8.325626, 41.508751], [-8.313932, 41.49989], [-8.309064, 41.490854], [-8.308414, 41.481842], [-8.314046, 41.470532], [-8.326107, 41.462332], [-8.338107, 41.459864], [-8.350065, 41.461376], [-8.361978, 41.467708], [-8.366847, 41.473171], [-8.370808, 41.482201], [-8.370757, 41.491208], [-8.366421, 41.500191], [-8.361612, 41.504957]]], [[[-8.805222, 41.284713], [-8.80219, 41.267568], [-8.797813, 41.258553], [-8.79142, 41.249533], [-8.764621, 41.222458], [-8.759603, 41.21344], [-8.750091, 41.186396], [-8.743565, 41.177374], [-8.734428, 41.169447], [-8.722534, 41.163091], [-8.710629, 41.159689], [-8.698715, 41.158654], [-8.68679, 41.15989], [-8.674852, 41.163686], [-8.66767, 41.168172], [-8.658274, 41.177152], [-8.653556, 41.186146], [-8.651922, 41.195149], [-8.653158, 41.204161], [-8.657026, 41.21318], [-8.671215, 41.231237], [-8.675099, 41.240256], [-8.672729, 41.249257], [-8.658496, 41.276239], [-8.65693, 41.285242], [-8.65783, 41.294253], [-8.661667, 41.303272], [-8.667943, 41.312298], [-8.677837, 41.321334], [-8.69791, 41.33373], [-8.721782, 41.340613], [-8.733731, 41.341496], [-8.757648, 41.338127], [-8.775815, 41.330574], [-8.788282, 41.32159], [-8.801474, 41.303598], [-8.805265, 41.2858], [-8.805222, 41.284713]], [[-8.733814, 41.320884], [-8.721859, 41.322515], [-8.709916, 41.321206], [-8.697989, 41.316503], [-8.691994, 41.312365], [-8.68421, 41.303336], [-8.681713, 41.294321], [-8.68334, 41.285318], [-8.686213, 41.280665], [-8.698202, 41.270419], [-8.710159, 41.266279], [-8.722102, 41.265238], [-8.734915, 41.267433], [-8.745951, 41.272444], [-8.751153, 41.276477], [-8.757487, 41.285498], [-8.759264, 41.29451], [-8.757041, 41.303513], [-8.750131, 41.312506], [-8.733814, 41.320884]]]]}}, {"id": "8", "type": "Feature", "properties": {"fill": "#a3a3a3", "value_min": 0.5, "value_max": -0.75}, "geometry": {"type": "Polygon", "coordinates": [[[-8.33766, 41.503733], [-8.349653, 41.502594], [-8.354026, 41.500122], [-8.362306, 41.491161], [-8.36225, 41.482153], [-8.35386, 41.473099], [-8.349972, 41.470724], [-8.338011, 41.469278], [-8.325988, 41.473818], [-8.319646, 41.481909], [-8.319705, 41.490917], [-8.32573, 41.498775], [-8.33766, 41.503733]], [[-8.337752, 41.494739], [-8.332161, 41.49099], [-8.332775, 41.481986], [-8.337914, 41.47879], [-8.349873, 41.480639], [-8.351393, 41.482093], [-8.351759, 41.491102], [-8.349749, 41.493016], [-8.337752, 41.494739]]]}}, {"id": "9", "type": "Feature", "properties": {"fill": "#a3a3a3", "value_min": 0.75, "value_max": -1.0}, "geometry": {"type": "Polygon", "coordinates": [[[-8.337752, 41.494739], [-8.349749, 41.493016], [-8.351759, 41.491102], [-8.351393, 41.482093], [-8.349873, 41.480639], [-8.337914, 41.47879], [-8.332775, 41.481986], [-8.332161, 41.49099], [-8.337752, 41.494739]]]}}, {"id": "4", "type": "Feature", "properties": {"fill": "#a3a3a3", "value_min": -0.5, "value_max": -0.25}, "geometry": {"type": "MultiPolygon", "coordinates": [[[[-8.64266, 41.594414], [-8.645536, 41.593051], [-8.646744, 41.594171], [-8.649125, 41.591909], [-8.656622, 41.5921], [-8.660788, 41.588255], [-8.663794, 41.589141], [-8.665265, 41.585758], [-8.66948, 41.587989], [-8.684455, 41.586117], [-8.685608, 41.58071], [-8.697261, 41.576376], [-8.701703, 41.570277], [-8.707704, 41.570923], [-8.712485, 41.569323], [-8.716422, 41.573805], [-8.720316, 41.57356], [-8.725151, 41.577811], [-8.726633, 41.576003], [-8.734424, 41.575737], [-8.736564, 41.580228], [-8.738354, 41.579318], [-8.740778, 41.582006], [-8.74467, 41.581535], [-8.750711, 41.58623], [-8.75993, 41.578527], [-8.767441, 41.580286], [-8.769874, 41.583874], [-8.768997, 41.58613], [-8.773228, 41.589482], [-8.774165, 41.593303], [-8.78556, 41.593464], [-8.797327, 41.600599], [-8.804218, 41.600109], [-8.80456, 41.604158], [-8.809434, 41.611332], [-8.828644, 41.609656], [-8.82839, 41.585633], [-8.818497, 41.554794], [-8.8221, 41.547542], [-8.821965, 41.534907], [-8.815926, 41.525624], [-8.81063, 41.5101], [-8.813279, 41.503483], [-8.812636, 41.496944], [-8.804699, 41.482068], [-8.798552, 41.474753], [-8.80154, 41.446836], [-8.806115, 41.43713], [-8.807354, 41.425915], [-8.811166, 41.417099], [-8.808722, 41.373495], [-8.781422, 41.376716], [-8.757505, 41.376605], [-8.7336, 41.373494], [-8.721655, 41.3704], [-8.697793, 41.358865], [-8.662065, 41.332102], [-8.63076, 41.312185], [-8.620534, 41.303144], [-8.615174, 41.294118], [-8.613236, 41.285104], [-8.614204, 41.276099], [-8.622891, 41.249105], [-8.625112, 41.231096], [-8.622698, 41.213073], [-8.613305, 41.177226], [-8.608583, 41.174095], [-8.609164, 41.172066], [-8.604942, 41.164881], [-8.59422, 41.165149], [-8.589766, 41.167193], [-8.589194, 41.170572], [-8.583263, 41.174422], [-8.582094, 41.177803], [-8.578825, 41.178941], [-8.581296, 41.191762], [-8.577139, 41.194029], [-8.576264, 41.19681], [-8.584445, 41.203933], [-8.590054, 41.212961], [-8.591538, 41.221974], [-8.589167, 41.230974], [-8.578985, 41.242944], [-8.567012, 41.248808], [-8.555062, 41.251057], [-8.54313, 41.25041], [-8.531221, 41.246733], [-8.520256, 41.239715], [-8.513125, 41.230677], [-8.510506, 41.221658], [-8.51133, 41.212654], [-8.519165, 41.200541], [-8.51163, 41.203042], [-8.510456, 41.206197], [-8.505693, 41.207113], [-8.504239, 41.213646], [-8.500076, 41.21546], [-8.50308, 41.219502], [-8.502204, 41.222656], [-8.495642, 41.222227], [-8.495947, 41.223351], [-8.490894, 41.226294], [-8.487935, 41.230354], [-8.490331, 41.232373], [-8.489156, 41.235528], [-8.486181, 41.236888], [-8.484411, 41.240495], [-8.476346, 41.237818], [-8.475756, 41.23917], [-8.470986, 41.23941], [-8.471604, 41.243459], [-8.469227, 41.245267], [-8.463258, 41.244384], [-8.459989, 41.246644], [-8.454323, 41.246886], [-8.455541, 41.251834], [-8.452276, 41.25522], [-8.449891, 41.255452], [-8.449304, 41.257479], [-8.447812, 41.257258], [-8.449028, 41.261982], [-8.439785, 41.262907], [-8.438023, 41.268989], [-8.434745, 41.269673], [-8.432691, 41.277107], [-8.427032, 41.279372], [-8.429143, 41.284319], [-8.426171, 41.287028], [-8.426488, 41.291079], [-8.425013, 41.294909], [-8.422037, 41.296942], [-8.422647, 41.299867], [-8.407744, 41.304856], [-8.406262, 41.307335], [-8.403277, 41.307342], [-8.401801, 41.311398], [-8.399712, 41.311628], [-8.400316, 41.313202], [-8.396738, 41.314336], [-8.398835, 41.316131], [-8.393775, 41.31997], [-8.393489, 41.323122], [-8.391105, 41.324253], [-8.386325, 41.323588], [-8.380382, 41.331254], [-8.375305, 41.33104], [-8.37201, 41.328346], [-8.361563, 41.329718], [-8.358276, 41.329049], [-8.357673, 41.327249], [-8.350207, 41.327264], [-8.346032, 41.328847], [-8.342462, 41.333131], [-8.333215, 41.336299], [-8.326363, 41.342163], [-8.324568, 41.341041], [-8.323376, 41.341943], [-8.320676, 41.338121], [-8.312604, 41.334983], [-8.313794, 41.333405], [-8.31139, 41.328007], [-8.307502, 41.325762], [-8.305116, 41.326891], [-8.303024, 41.325994], [-8.303615, 41.323742], [-8.301216, 41.319694], [-8.296431, 41.316774], [-8.297618, 41.313846], [-8.296116, 41.310022], [-8.281801, 41.316569], [-8.281808, 41.319721], [-8.278828, 41.321976], [-8.278238, 41.325128], [-8.272266, 41.32536], [-8.269583, 41.327525], [-8.282503, 41.337564], [-8.290007, 41.346618], [-8.299006, 41.364688], [-8.308128, 41.391766], [-8.314795, 41.399435], [-8.362454, 41.419065], [-8.374347, 41.426686], [-8.386167, 41.44235], [-8.391187, 41.464295], [-8.391062, 41.500324], [-8.387867, 41.509315], [-8.381988, 41.518291], [-8.373385, 41.52664], [-8.361324, 41.534248], [-8.349294, 41.538498], [-8.337287, 41.540349], [-8.325305, 41.539681], [-8.313357, 41.535843], [-8.301457, 41.527614], [-8.29458, 41.517788], [-8.266314, 41.455372], [-8.254528, 41.438996], [-8.242608, 41.434715], [-8.206761, 41.429758], [-8.194828, 41.426865], [-8.173097, 41.417897], [-8.160902, 41.408801], [-8.153015, 41.399736], [-8.148385, 41.390695], [-8.145001, 41.374967], [-8.139694, 41.377894], [-8.133418, 41.374292], [-8.119074, 41.377218], [-8.119672, 41.378569], [-8.116683, 41.380144], [-8.117578, 41.386447], [-8.113992, 41.386896], [-8.112795, 41.390723], [-8.110105, 41.390947], [-8.108011, 41.393648], [-8.103827, 41.392972], [-8.105321, 41.394998], [-8.10263, 41.396123], [-8.10801, 41.398825], [-8.108606, 41.403102], [-8.104419, 41.406252], [-8.104119, 41.408728], [-8.101727, 41.409403], [-8.102025, 41.411204], [-8.092756, 41.411201], [-8.09126, 41.414352], [-8.079893, 41.41975], [-8.077503, 41.416597], [-8.070923, 41.41862], [-8.066739, 41.416142], [-8.061654, 41.417489], [-8.059852, 41.424916], [-8.055959, 41.429415], [-8.05745, 41.432793], [-8.056549, 41.436394], [-8.069999, 41.447206], [-8.068788, 41.462286], [-8.073872, 41.46499], [-8.074164, 41.473543], [-8.066374, 41.482318], [-8.066069, 41.48817], [-8.072054, 41.490199], [-8.07175, 41.494925], [-8.07507, 41.496953], [-8.082208, 41.489267], [-8.093563, 41.471342], [-8.098524, 41.4675], [-8.11056, 41.463027], [-8.122526, 41.463627], [-8.135759, 41.471667], [-8.139462, 41.480702], [-8.138179, 41.498707], [-8.144171, 41.516767], [-8.144409, 41.525776], [-8.141453, 41.534761], [-8.132681, 41.543703], [-8.121372, 41.549052], [-8.109353, 41.551172], [-8.097371, 41.550515], [-8.083388, 41.545974], [-8.080687, 41.551651], [-8.074396, 41.549848], [-8.072897, 41.551197], [-8.076188, 41.557276], [-8.079783, 41.558403], [-8.082176, 41.564032], [-8.070782, 41.569926], [-8.109011, 41.576041], [-8.120948, 41.58034], [-8.130747, 41.588724], [-8.131063, 41.597734], [-8.126886, 41.606709], [-8.105894, 41.633569], [-8.100541, 41.642535], [-8.099221, 41.651531], [-8.107831, 41.661743], [-8.119784, 41.665999], [-8.143739, 41.671222], [-8.155778, 41.669223], [-8.167884, 41.661941], [-8.216404, 41.622739], [-8.228474, 41.61724], [-8.240512, 41.614239], [-8.264521, 41.61382], [-8.32443, 41.623653], [-8.336435, 41.62357], [-8.348471, 41.620428], [-8.360555, 41.612253], [-8.372719, 41.595547], [-8.397143, 41.549778], [-8.413925, 41.509451], [-8.416263, 41.500455], [-8.413749, 41.482427], [-8.417846, 41.473441], [-8.421842, 41.469094], [-8.445918, 41.454502], [-8.457937, 41.448871], [-8.469928, 41.446512], [-8.481892, 41.447513], [-8.493824, 41.452585], [-8.520092, 41.473913], [-8.552676, 41.492059], [-8.564116, 41.50111], [-8.575925, 41.537184], [-8.588956, 41.555236], [-8.612814, 41.576329], [-8.64266, 41.594414]], [[-8.143999, 41.651535], [-8.131983, 41.652043], [-8.120042, 41.647045], [-8.116174, 41.642656], [-8.115555, 41.633644], [-8.120325, 41.626272], [-8.13244, 41.617963], [-8.144457, 41.616909], [-8.156395, 41.621922], [-8.159679, 41.624968], [-8.162625, 41.633997], [-8.158666, 41.642975], [-8.143999, 41.651535]], [[-8.657741, 41.537457], [-8.65024, 41.546442], [-8.636942, 41.551847], [-8.624949, 41.552224], [-8.612976, 41.549084], [-8.598112, 41.537264], [-8.594354, 41.528243], [-8.595081, 41.519238], [-8.601294, 41.510253], [-8.613242, 41.504439], [-8.625226, 41.504168], [-8.637189, 41.5076], [-8.654122, 41.519431], [-8.658503, 41.528452], [-8.657741, 41.537457]], [[-8.241393, 41.538974], [-8.229423, 41.537411], [-8.217511, 41.531092], [-8.208097, 41.517225], [-8.207176, 41.508211], [-8.209782, 41.499222], [-8.218004, 41.490184], [-8.230047, 41.484792], [-8.242035, 41.483978], [-8.253977, 41.487088], [-8.258852, 41.490541], [-8.267828, 41.499606], [-8.270772, 41.508632], [-8.270055, 41.517635], [-8.265509, 41.526717], [-8.25342, 41.535655], [-8.241393, 41.538974]], [[-8.709058, 41.513774], [-8.685103, 41.511183], [-8.661173, 41.504055], [-8.638344, 41.49236], [-8.626903, 41.483316], [-8.621188, 41.47429], [-8.620837, 41.465282], [-8.623847, 41.456284], [-8.629557, 41.447295], [-8.637568, 41.439609], [-8.649573, 41.433156], [-8.661557, 41.430314], [-8.673529, 41.429505], [-8.697452, 41.432424], [-8.721348, 41.442229], [-8.739513, 41.456604], [-8.749297, 41.474641], [-8.750222, 41.48365], [-8.748156, 41.492653], [-8.742225, 41.501648], [-8.733049, 41.508188], [-8.721048, 41.512412], [-8.709058, 41.513774]], [[-8.565618, 41.458811], [-8.558574, 41.46506], [-8.553592, 41.466523], [-8.541641, 41.463101], [-8.536976, 41.455967], [-8.540525, 41.446974], [-8.55375, 41.443364], [-8.562262, 41.447059], [-8.567284, 41.456085], [-8.565618, 41.458811]]], [[[-8.494577, 41.67415], [-8.449289, 41.653742], [-8.444271, 41.647093], [-8.43228, 41.645065], [-8.420242, 41.648424], [-8.40194, 41.671519], [-8.385477, 41.68044], [-8.371886, 41.681452], [-8.347878, 41.679223], [-8.336028, 41.689172], [-8.33026, 41.707152], [-8.330095, 41.725166], [-8.335461, 41.76373], [-8.341756, 41.761468], [-8.344765, 41.762363], [-8.349267, 41.760103], [-8.352557, 41.755145], [-8.349814, 41.744122], [-8.352516, 41.743441], [-8.352203, 41.739616], [-8.357897, 41.735103], [-8.362407, 41.735994], [-8.368703, 41.73193], [-8.374122, 41.734845], [-8.384922, 41.73032], [-8.387032, 41.731891], [-8.389429, 41.730985], [-8.386499, 41.725481], [-8.386664, 41.716474], [-8.392325, 41.707497], [-8.407769, 41.699001], [-8.419807, 41.696863], [-8.431812, 41.698258], [-8.445797, 41.705746], [-8.453868, 41.697961], [-8.453255, 41.695487], [-8.461659, 41.694563], [-8.482012, 41.682123], [-8.484371, 41.674238], [-8.494577, 41.67415]]], [[[-8.220315, 41.793632], [-8.220332, 41.769508], [-8.213955, 41.751451], [-8.208227, 41.742404], [-8.198541, 41.73333], [-8.179163, 41.719588], [-8.165062, 41.697064], [-8.155555, 41.686279], [-8.143512, 41.688331], [-8.136555, 41.696853], [-8.131358, 41.698533], [-8.11916, 41.71176], [-8.110303, 41.714667], [-8.107032, 41.71954], [-8.094961, 41.72304], [-8.08295, 41.722237], [-8.059118, 41.70759], [-8.04713, 41.705462], [-8.035154, 41.696047], [-8.011267, 41.69276], [-7.987256, 41.691343], [-7.975211, 41.693124], [-7.969279, 41.695475], [-7.958911, 41.704388], [-7.956244, 41.713371], [-7.958298, 41.722396], [-7.986099, 41.764945], [-7.997894, 41.780062], [-8.009813, 41.787483], [-8.021771, 41.792484], [-8.083965, 41.810493], [-8.085599, 41.811047], [-8.085959, 41.811169], [-8.086501, 41.811353], [-8.086624, 41.811394], [-8.086802, 41.811455], [-8.087289, 41.81162], [-8.087403, 41.811658], [-8.087954, 41.811845], [-8.088005, 41.811862], [-8.088618, 41.81207], [-8.088908, 41.812168], [-8.089283, 41.812296], [-8.093421, 41.811397], [-8.093723, 41.808471], [-8.101845, 41.809824], [-8.104853, 41.81185], [-8.115984, 41.812302], [-8.123807, 41.808702], [-8.138247, 41.808477], [-8.139751, 41.813203], [-8.14276, 41.812978], [-8.145769, 41.815453], [-8.149078, 41.814777], [-8.153893, 41.817928], [-8.161415, 41.818376], [-8.165326, 41.81815], [-8.173744, 41.808019], [-8.177054, 41.808017], [-8.182773, 41.812516], [-8.190291, 41.809587], [-8.197158, 41.814129], [-8.201063, 41.808724], [-8.204973, 41.807372], [-8.205872, 41.804445], [-8.214593, 41.803089], [-8.214591, 41.801513], [-8.217598, 41.80016], [-8.217589, 41.793634], [-8.220315, 41.793632]], [[-8.034453, 41.749411], [-8.022325, 41.756041], [-8.010289, 41.756499], [-7.998325, 41.752351], [-7.98688, 41.740666], [-7.984198, 41.731635], [-7.98749, 41.722657], [-7.998906, 41.714933], [-8.010943, 41.713919], [-8.022916, 41.717051], [-8.031395, 41.723036], [-8.038847, 41.732105], [-8.039857, 41.741121], [-8.034453, 41.749411]], [[-8.155089, 41.721845], [-8.142954, 41.730309], [-8.130937, 41.729788], [-8.123848, 41.723778], [-8.121282, 41.714751], [-8.131314, 41.701809], [-8.143374, 41.698703], [-8.155313, 41.704727], [-8.158525, 41.71503], [-8.155089, 41.721845]]], [[[-7.961492, 41.798782], [-7.966712, 41.794527], [-7.96253, 41.785483], [-7.949742, 41.78124], [-7.937707, 41.781351], [-7.928191, 41.785168], [-7.926794, 41.794161], [-7.937346, 41.80321], [-7.949366, 41.804286], [-7.961492, 41.798782]]], [[[-7.889681, 41.775091], [-7.898486, 41.766873], [-7.900422, 41.757885], [-7.899925, 41.748873], [-7.896114, 41.73983], [-7.890406, 41.733039], [-7.866348, 41.733574], [-7.842221, 41.737925], [-7.837518, 41.739252], [-7.823649, 41.748117], [-7.820484, 41.757092], [-7.822617, 41.76612], [-7.831951, 41.775223], [-7.841481, 41.779068], [-7.853478, 41.7811], [-7.865511, 41.781078], [-7.877575, 41.779333], [-7.889681, 41.775091]], [[-7.882404, 41.757711], [-7.878792, 41.766682], [-7.865671, 41.772019], [-7.853669, 41.770346], [-7.847003, 41.766368], [-7.843859, 41.757329], [-7.851272, 41.748397], [-7.866139, 41.745418], [-7.874891, 41.748631], [-7.882404, 41.757711]]], [[[-7.90801, 41.712923], [-7.902822, 41.710004], [-7.890779, 41.711367], [-7.888649, 41.721744], [-7.890505, 41.727267], [-7.902546, 41.726217], [-7.907478, 41.721924], [-7.90801, 41.712923]]], [[[-8.095588, 41.678257], [-8.083583, 41.677648], [-8.08292, 41.678424], [-8.083564, 41.678953], [-8.095588, 41.678257]]], [[[-8.456408, 41.631791], [-8.45646, 41.625608], [-8.444523, 41.617683], [-8.432478, 41.62248], [-8.427254, 41.626613], [-8.427696, 41.635622], [-8.43229, 41.643875], [-8.444301, 41.643566], [-8.456408, 41.631791]]]]}}, {"id": "3", "type": "Feature", "properties": {"fill": "#a3a3a3", "value_min": -0.75, "value_max": -0.5}, "geometry": {"type": "MultiPolygon", "coordinates": [[[[-8.335461, 41.76373], [-8.330095, 41.725166], [-8.33026, 41.707152], [-8.336028, 41.689172], [-8.347878, 41.679223], [-8.371886, 41.681452], [-8.385477, 41.68044], [-8.40194, 41.671519], [-8.420242, 41.648424], [-8.43228, 41.645065], [-8.444271, 41.647093], [-8.449289, 41.653742], [-8.494577, 41.67415], [-8.499963, 41.671038], [-8.50927, 41.671233], [-8.51018, 41.672806], [-8.511967, 41.670324], [-8.509856, 41.668755], [-8.512252, 41.667847], [-8.514629, 41.663788], [-8.522103, 41.658811], [-8.525706, 41.659023], [-8.527769, 41.652714], [-8.534066, 41.652017], [-8.537951, 41.649302], [-8.537634, 41.646602], [-8.543876, 41.637352], [-8.543855, 41.633976], [-8.536342, 41.631977], [-8.535132, 41.630406], [-8.540473, 41.621029], [-8.528516, 41.621669], [-8.516525, 41.619902], [-8.504552, 41.615957], [-8.480673, 41.60019], [-8.471465, 41.590795], [-8.467248, 41.581769], [-8.467605, 41.572763], [-8.477595, 41.554794], [-8.47949, 41.545795], [-8.473516, 41.536761], [-8.446454, 41.518619], [-8.445555, 41.509607], [-8.449423, 41.500619], [-8.457801, 41.491651], [-8.469631, 41.483019], [-8.481639, 41.479324], [-8.493609, 41.480192], [-8.505554, 41.484556], [-8.517308, 41.491916], [-8.527073, 41.500964], [-8.533058, 41.509996], [-8.540688, 41.528041], [-8.569611, 41.564183], [-8.576116, 41.582222], [-8.576112, 41.591229], [-8.573377, 41.600226], [-8.566444, 41.609207], [-8.554886, 41.616379], [-8.562639, 41.61635], [-8.568056, 41.619031], [-8.570735, 41.616095], [-8.577321, 41.614269], [-8.581231, 41.615829], [-8.585766, 41.620988], [-8.591462, 41.620515], [-8.596534, 41.616668], [-8.601628, 41.615972], [-8.603996, 41.611686], [-8.613256, 41.606696], [-8.619881, 41.610269], [-8.621338, 41.604636], [-8.631821, 41.603015], [-8.639577, 41.597804], [-8.639854, 41.594877], [-8.64266, 41.594414], [-8.612814, 41.576329], [-8.588956, 41.555236], [-8.575925, 41.537184], [-8.564116, 41.50111], [-8.552676, 41.492059], [-8.520092, 41.473913], [-8.493824, 41.452585], [-8.481892, 41.447513], [-8.469928, 41.446512], [-8.457937, 41.448871], [-8.445918, 41.454502], [-8.421842, 41.469094], [-8.417846, 41.473441], [-8.413749, 41.482427], [-8.416263, 41.500455], [-8.413925, 41.509451], [-8.397143, 41.549778], [-8.372719, 41.595547], [-8.360555, 41.612253], [-8.348471, 41.620428], [-8.336435, 41.62357], [-8.32443, 41.623653], [-8.264521, 41.61382], [-8.240512, 41.614239], [-8.228474, 41.61724], [-8.216404, 41.622739], [-8.167884, 41.661941], [-8.155778, 41.669223], [-8.143739, 41.671222], [-8.119784, 41.665999], [-8.107831, 41.661743], [-8.099221, 41.651531], [-8.100541, 41.642535], [-8.105894, 41.633569], [-8.126886, 41.606709], [-8.131063, 41.597734], [-8.130747, 41.588724], [-8.120948, 41.58034], [-8.109011, 41.576041], [-8.070782, 41.569926], [-8.068081, 41.573478], [-8.056684, 41.579549], [-8.052181, 41.584498], [-8.052777, 41.587649], [-8.037169, 41.600242], [-8.031467, 41.602938], [-8.02367, 41.603156], [-8.019174, 41.601802], [-8.015872, 41.603824], [-8.013474, 41.603372], [-8.005971, 41.60629], [-8.003562, 41.611239], [-7.99936, 41.61281], [-7.998462, 41.612359], [-7.999669, 41.608759], [-7.996976, 41.605829], [-7.996684, 41.602003], [-7.984685, 41.603564], [-7.982292, 41.60086], [-7.975689, 41.603552], [-7.974482, 41.606701], [-7.970882, 41.607147], [-7.969091, 41.603768], [-7.965796, 41.602413], [-7.9541, 41.602846], [-7.952606, 41.600592], [-7.947808, 41.60081], [-7.945413, 41.599456], [-7.942725, 41.595625], [-7.936132, 41.594488], [-7.93791, 41.601694], [-7.937004, 41.603718], [-7.931604, 41.604384], [-7.930979, 41.612711], [-7.925556, 41.620354], [-7.920755, 41.620796], [-7.917748, 41.623041], [-7.915933, 41.627764], [-7.913229, 41.628885], [-7.912613, 41.63361], [-7.906014, 41.633147], [-7.906884, 41.641927], [-7.897869, 41.645511], [-7.89696, 41.647985], [-7.892759, 41.647976], [-7.892145, 41.651576], [-7.902319, 41.659925], [-7.899913, 41.66127], [-7.900198, 41.665547], [-7.898396, 41.665769], [-7.896885, 41.668692], [-7.883969, 41.67069], [-7.879755, 41.673607], [-7.877044, 41.676077], [-7.876723, 41.681253], [-7.873401, 41.686198], [-7.868896, 41.686413], [-7.868008, 41.68326], [-7.861713, 41.685271], [-7.867145, 41.688193], [-7.871603, 41.694557], [-7.873093, 41.703579], [-7.870037, 41.712555], [-7.866645, 41.716663], [-7.854517, 41.722699], [-7.842491, 41.722858], [-7.830538, 41.719044], [-7.820796, 41.712177], [-7.815291, 41.718689], [-7.808986, 41.717996], [-7.808396, 41.715744], [-7.804499, 41.714158], [-7.79939, 41.714593], [-7.79788, 41.716164], [-7.796383, 41.71526], [-7.790966, 41.717044], [-7.789449, 41.719966], [-7.78464, 41.720402], [-7.78252, 41.723546], [-7.776204, 41.724652], [-7.773786, 41.727346], [-7.770798, 41.72441], [-7.765698, 41.723044], [-7.761765, 41.727758], [-7.762933, 41.733839], [-7.759307, 41.737203], [-7.759597, 41.739005], [-7.75689, 41.739446], [-7.758687, 41.740577], [-7.757758, 41.745301], [-7.753493, 41.747313], [-7.767261, 41.756533], [-7.775491, 41.765628], [-7.792916, 41.802197], [-7.804858, 41.807284], [-7.843745, 41.793355], [-7.853294, 41.79141], [-7.8774, 41.789377], [-7.889401, 41.791325], [-7.894994, 41.79386], [-7.905256, 41.802965], [-7.912994, 41.819592], [-7.924739, 41.837268], [-7.937102, 41.830284], [-7.948971, 41.828432], [-7.960974, 41.830883], [-7.968455, 41.839577], [-7.966849, 41.848569], [-7.960588, 41.854733], [-7.948483, 41.858257], [-7.940728, 41.857338], [-7.936461, 41.856679], [-7.924521, 41.850294], [-7.91245, 41.85174], [-7.898594, 41.860636], [-7.902203, 41.861591], [-7.904318, 41.859795], [-7.907309, 41.865203], [-7.906095, 41.868126], [-7.910299, 41.871285], [-7.909985, 41.875111], [-7.915391, 41.879397], [-7.921118, 41.877833], [-7.928044, 41.87807], [-7.935283, 41.874707], [-7.937389, 41.87516], [-7.941618, 41.870891], [-7.951254, 41.871132], [-7.956367, 41.87339], [-7.956362, 41.875191], [-7.960878, 41.875648], [-7.962086, 41.874074], [-7.973828, 41.875216], [-7.987996, 41.869157], [-7.990123, 41.860157], [-7.995547, 41.858138], [-7.994047, 41.855211], [-7.996162, 41.851837], [-8.003089, 41.850494], [-8.005804, 41.847346], [-8.007928, 41.838796], [-8.012753, 41.833624], [-8.013363, 41.829124], [-8.017873, 41.831379], [-8.02901, 41.829589], [-8.037134, 41.831171], [-8.041351, 41.828023], [-8.041054, 41.825097], [-8.045268, 41.824425], [-8.046775, 41.821951], [-8.056712, 41.81588], [-8.06664, 41.817012], [-8.072961, 41.813414], [-8.078678, 41.813417], [-8.083965, 41.810493], [-8.021771, 41.792484], [-8.009813, 41.787483], [-7.997894, 41.780062], [-7.986099, 41.764945], [-7.958298, 41.722396], [-7.956244, 41.713371], [-7.958911, 41.704388], [-7.969279, 41.695475], [-7.975211, 41.693124], [-7.987256, 41.691343], [-8.011267, 41.69276], [-8.035154, 41.696047], [-8.04713, 41.705462], [-8.059118, 41.70759], [-8.08295, 41.722237], [-8.094961, 41.72304], [-8.107032, 41.71954], [-8.110303, 41.714667], [-8.11916, 41.71176], [-8.131358, 41.698533], [-8.136555, 41.696853], [-8.143512, 41.688331], [-8.155555, 41.686279], [-8.165062, 41.697064], [-8.179163, 41.719588], [-8.198541, 41.73333], [-8.208227, 41.742404], [-8.213955, 41.751451], [-8.220332, 41.769508], [-8.220315, 41.793632], [-8.224207, 41.794303], [-8.229917, 41.791598], [-8.240744, 41.791588], [-8.24074, 41.789338], [-8.244347, 41.787984], [-8.245546, 41.785731], [-8.251257, 41.784375], [-8.251845, 41.777172], [-8.257551, 41.773564], [-8.261762, 41.774235], [-8.271366, 41.766346], [-8.280681, 41.764083], [-8.284038, 41.761109], [-8.284931, 41.757507], [-8.287033, 41.756829], [-8.298457, 41.757263], [-8.300866, 41.758835], [-8.305674, 41.758152], [-8.311096, 41.762195], [-8.318308, 41.761283], [-8.325233, 41.765098], [-8.328234, 41.763292], [-8.335461, 41.76373]], [[-7.961492, 41.798782], [-7.949366, 41.804286], [-7.937346, 41.80321], [-7.926794, 41.794161], [-7.928191, 41.785168], [-7.937707, 41.781351], [-7.949742, 41.78124], [-7.96253, 41.785483], [-7.966712, 41.794527], [-7.961492, 41.798782]], [[-7.889681, 41.775091], [-7.877575, 41.779333], [-7.865511, 41.781078], [-7.853478, 41.7811], [-7.841481, 41.779068], [-7.831951, 41.775223], [-7.822617, 41.76612], [-7.820484, 41.757092], [-7.823649, 41.748117], [-7.837518, 41.739252], [-7.842221, 41.737925], [-7.866348, 41.733574], [-7.890406, 41.733039], [-7.896114, 41.73983], [-7.899925, 41.748873], [-7.900422, 41.757885], [-7.898486, 41.766873], [-7.889681, 41.775091]], [[-7.937891, 41.7702], [-7.930092, 41.767172], [-7.925826, 41.758125], [-7.931917, 41.749175], [-7.938296, 41.745653], [-7.95032, 41.745782], [-7.956196, 41.749398], [-7.962172, 41.756656], [-7.962096, 41.761325], [-7.95891, 41.767436], [-7.949915, 41.770629], [-7.937891, 41.7702]], [[-7.90801, 41.712923], [-7.907478, 41.721924], [-7.902546, 41.726217], [-7.890505, 41.727267], [-7.888649, 41.721744], [-7.890779, 41.711367], [-7.902822, 41.710004], [-7.90801, 41.712923]], [[-8.227208, 41.72316], [-8.215182, 41.723431], [-8.203191, 41.720884], [-8.192757, 41.715276], [-8.182838, 41.706199], [-8.178971, 41.697164], [-8.178332, 41.688152], [-8.182103, 41.679172], [-8.191798, 41.670609], [-8.203879, 41.665083], [-8.215912, 41.663335], [-8.227912, 41.664263], [-8.239874, 41.668553], [-8.252758, 41.679653], [-8.257071, 41.688688], [-8.257176, 41.697696], [-8.253127, 41.706677], [-8.244688, 41.715629], [-8.239279, 41.719057], [-8.227208, 41.72316]], [[-8.10719, 41.708075], [-8.102254, 41.705597], [-8.099118, 41.696566], [-8.107458, 41.688749], [-8.119532, 41.684451], [-8.124945, 41.687758], [-8.128737, 41.696794], [-8.119222, 41.707237], [-8.10719, 41.708075]], [[-8.095588, 41.678257], [-8.083564, 41.678953], [-8.08292, 41.678424], [-8.083583, 41.677648], [-8.095588, 41.678257]], [[-8.013984, 41.659839], [-8.023917, 41.650898], [-8.035615, 41.660022], [-8.023675, 41.666876], [-8.013984, 41.659839]], [[-8.456408, 41.631791], [-8.444301, 41.643566], [-8.43229, 41.643875], [-8.427696, 41.635622], [-8.427254, 41.626613], [-8.432478, 41.62248], [-8.444523, 41.617683], [-8.45646, 41.625608], [-8.456408, 41.631791]], [[-8.072752, 41.633307], [-8.057608, 41.624176], [-8.05384, 41.615138], [-8.056228, 41.606151], [-8.066238, 41.597225], [-8.072764, 41.594332], [-8.08479, 41.592388], [-8.096761, 41.594365], [-8.108623, 41.604237], [-8.109599, 41.615584], [-8.103619, 41.624544], [-8.096246, 41.631226], [-8.08419, 41.634785], [-8.072752, 41.633307]]], [[[-7.84314, 41.873111], [-7.838321, 41.873348], [-7.842528, 41.875187], [-7.84314, 41.873111]]], [[[-7.837116, 41.873445], [-7.824459, 41.875252], [-7.830479, 41.875831], [-7.830789, 41.874031], [-7.837116, 41.873445]]], [[[-8.089283, 41.812296], [-8.089283, 41.812296], [-8.088908, 41.812168], [-8.089283, 41.812296]]], [[[-8.088618, 41.81207], [-8.088618, 41.81207], [-8.088005, 41.811862], [-8.088618, 41.81207]]], [[[-8.087954, 41.811845], [-8.087954, 41.811845], [-8.087403, 41.811658], [-8.087954, 41.811845]]], [[[-8.087289, 41.81162], [-8.087289, 41.81162], [-8.086802, 41.811455], [-8.087289, 41.81162]]], [[[-8.086624, 41.811394], [-8.086624, 41.811394], [-8.086501, 41.811353], [-8.086624, 41.811394]]], [[[-8.085959, 41.811169], [-8.085959, 41.811169], [-8.085599, 41.811047], [-8.085959, 41.811169]]], [[[-8.241393, 41.538974], [-8.25342, 41.535655], [-8.265509, 41.526717], [-8.270055, 41.517635], [-8.270772, 41.508632], [-8.267828, 41.499606], [-8.258852, 41.490541], [-8.253977, 41.487088], [-8.242035, 41.483978], [-8.230047, 41.484792], [-8.218004, 41.490184], [-8.209782, 41.499222], [-8.207176, 41.508211], [-8.208097, 41.517225], [-8.217511, 41.531092], [-8.229423, 41.537411], [-8.241393, 41.538974]]], [[[-8.709058, 41.513774], [-8.721048, 41.512412], [-8.733049, 41.508188], [-8.742225, 41.501648], [-8.748156, 41.492653], [-8.750222, 41.48365], [-8.749297, 41.474641], [-8.739513, 41.456604], [-8.721348, 41.442229], [-8.697452, 41.432424], [-8.673529, 41.429505], [-8.661557, 41.430314], [-8.649573, 41.433156], [-8.637568, 41.439609], [-8.629557, 41.447295], [-8.623847, 41.456284], [-8.620837, 41.465282], [-8.621188, 41.47429], [-8.626903, 41.483316], [-8.638344, 41.49236], [-8.661173, 41.504055], [-8.685103, 41.511183], [-8.709058, 41.513774]], [[-8.661308, 41.478049], [-8.661331, 41.473676], [-8.674291, 41.474453], [-8.673282, 41.478749], [-8.661308, 41.478049]]], [[[-8.519165, 41.200541], [-8.51133, 41.212654], [-8.510506, 41.221658], [-8.513125, 41.230677], [-8.520256, 41.239715], [-8.531221, 41.246733], [-8.54313, 41.25041], [-8.555062, 41.251057], [-8.567012, 41.248808], [-8.578985, 41.242944], [-8.589167, 41.230974], [-8.591538, 41.221974], [-8.590054, 41.212961], [-8.584445, 41.203933], [-8.576264, 41.19681], [-8.576894, 41.201908], [-8.574515, 41.202593], [-8.57423, 41.20462], [-8.567971, 41.204644], [-8.565895, 41.206227], [-8.567697, 41.208246], [-8.566512, 41.209376], [-8.559636, 41.206251], [-8.554271, 41.20627], [-8.549521, 41.209214], [-8.544157, 41.209458], [-8.54238, 41.211265], [-8.533747, 41.213097], [-8.529858, 41.210859], [-8.530444, 41.209056], [-8.52653, 41.202542], [-8.523236, 41.200077], [-8.519165, 41.200541]]]]}}, {"id": "0", "type": "Feature", "properties": {"fill": "#e19f31", "value_min": -1.5, "value_max": -1.25}, "geometry": {"type": "MultiPolygon", "coordinates": [[[[-8.215606, 41.688561], [-8.203591, 41.688455], [-8.199241, 41.697307], [-8.203424, 41.701965], [-8.215442, 41.702068], [-8.220361, 41.697452], [-8.215606, 41.688561]]], [[[-8.53355, 41.573049], [-8.52891, 41.567448], [-8.516944, 41.563665], [-8.503685, 41.572924], [-8.506668, 41.581945], [-8.516774, 41.586557], [-8.528791, 41.583887], [-8.53111, 41.582047], [-8.53355, 41.573049]]], [[[-8.49332, 41.517281], [-8.496101, 41.50984], [-8.493402, 41.506774], [-8.481451, 41.50289], [-8.472229, 41.509733], [-8.4774, 41.518764], [-8.481309, 41.520712], [-8.491575, 41.518827], [-8.49332, 41.517281]]]]}}, {"id": "1", "type": "Feature", "properties": {"fill": "#b6a27f", "value_min": -1.25, "value_max": -1.0}, "geometry": {"type": "MultiPolygon", "coordinates": [[[[-7.888862, 41.822545], [-7.892066, 41.811845], [-7.885699, 41.802777], [-7.877235, 41.79885], [-7.865199, 41.798795], [-7.855271, 41.802478], [-7.847614, 41.811408], [-7.848713, 41.820426], [-7.852695, 41.825011], [-7.864633, 41.830841], [-7.876686, 41.830252], [-7.888862, 41.822545]]], [[[-8.23548, 41.697554], [-8.233904, 41.688536], [-8.227696, 41.682335], [-8.21574, 41.677505], [-8.203715, 41.678409], [-8.19015, 41.688236], [-8.188554, 41.697232], [-8.191401, 41.702319], [-8.194615, 41.706282], [-8.203306, 41.71151], [-8.215312, 41.712695], [-8.227385, 41.70838], [-8.23548, 41.697554]], [[-8.215606, 41.688561], [-8.220361, 41.697452], [-8.215442, 41.702068], [-8.203424, 41.701965], [-8.199241, 41.697307], [-8.203591, 41.688455], [-8.215606, 41.688561]]], [[[-8.119425, 41.692321], [-8.110517, 41.696655], [-8.119303, 41.701281], [-8.123168, 41.696752], [-8.119425, 41.692321]]], [[[-8.096536, 41.610452], [-8.084582, 41.607133], [-8.076658, 41.615324], [-8.08435, 41.623481], [-8.096409, 41.619544], [-8.098966, 41.615501], [-8.096536, 41.610452]]], [[[-8.528674, 41.599857], [-8.540705, 41.595512], [-8.546288, 41.591115], [-8.551549, 41.582128], [-8.551777, 41.573122], [-8.547627, 41.564098], [-8.540974, 41.557607], [-8.529027, 41.551345], [-8.517048, 41.549791], [-8.50503, 41.553426], [-8.493265, 41.563872], [-8.488683, 41.572859], [-8.489318, 41.581869], [-8.495963, 41.590905], [-8.504698, 41.596827], [-8.516673, 41.600085], [-8.528674, 41.599857]], [[-8.53355, 41.573049], [-8.53111, 41.582047], [-8.528791, 41.583887], [-8.516774, 41.586557], [-8.506668, 41.581945], [-8.503685, 41.572924], [-8.516944, 41.563665], [-8.52891, 41.567448], [-8.53355, 41.573049]]], [[[-8.505235, 41.526445], [-8.511212, 41.518913], [-8.511699, 41.509907], [-8.505434, 41.50028], [-8.493505, 41.493618], [-8.481532, 41.492656], [-8.469518, 41.496858], [-8.464939, 41.500692], [-8.460062, 41.509676], [-8.462747, 41.518696], [-8.469298, 41.523766], [-8.481237, 41.529713], [-8.493211, 41.531318], [-8.505235, 41.526445]], [[-8.49332, 41.517281], [-8.491575, 41.518827], [-8.481309, 41.520712], [-8.4774, 41.518764], [-8.472229, 41.509733], [-8.481451, 41.50289], [-8.493402, 41.506774], [-8.496101, 41.50984], [-8.49332, 41.517281]]]]}}, {"id": "2", "type": "Feature", "properties": {"fill": "#a3a3a3", "value_min": -1.0, "value_max": -0.75}, "geometry": {"type": "MultiPolygon", "coordinates": [[[[-7.824459, 41.875252], [-7.837116, 41.873445], [-7.838321, 41.873348], [-7.84314, 41.873111], [-7.841663, 41.866632], [-7.849515, 41.861475], [-7.858542, 41.862622], [-7.859456, 41.860148], [-7.864877, 41.859711], [-7.87033, 41.851395], [-7.873043, 41.850501], [-7.873066, 41.844875], [-7.879956, 41.853217], [-7.888076, 41.855486], [-7.891675, 41.859094], [-7.898594, 41.860636], [-7.91245, 41.85174], [-7.924521, 41.850294], [-7.936461, 41.856679], [-7.940728, 41.857338], [-7.948483, 41.858257], [-7.960588, 41.854733], [-7.966849, 41.848569], [-7.968455, 41.839577], [-7.960974, 41.830883], [-7.948971, 41.828432], [-7.937102, 41.830284], [-7.924739, 41.837268], [-7.912994, 41.819592], [-7.905256, 41.802965], [-7.894994, 41.79386], [-7.889401, 41.791325], [-7.8774, 41.789377], [-7.853294, 41.79141], [-7.843745, 41.793355], [-7.804858, 41.807284], [-7.792916, 41.802197], [-7.775491, 41.765628], [-7.767261, 41.756533], [-7.753493, 41.747313], [-7.747812, 41.749995], [-7.747786, 41.754496], [-7.743866, 41.756509], [-7.740214, 41.763924], [-7.726937, 41.771755], [-7.7254, 41.777152], [-7.727191, 41.779184], [-7.724177, 41.780299], [-7.725372, 41.781653], [-7.722302, 41.791546], [-7.722889, 41.793798], [-7.728879, 41.797871], [-7.727026, 41.805517], [-7.728761, 41.816776], [-7.732041, 41.821514], [-7.743152, 41.825154], [-7.742839, 41.827178], [-7.738918, 41.82874], [-7.742196, 41.833928], [-7.74729, 41.837772], [-7.746349, 41.84407], [-7.750246, 41.846784], [-7.750532, 41.849261], [-7.743309, 41.849012], [-7.746901, 41.8524], [-7.746881, 41.855776], [-7.73843, 41.859348], [-7.734159, 41.868337], [-7.730228, 41.871024], [-7.729293, 41.875972], [-7.722351, 41.878424], [-7.720523, 41.881793], [-7.725335, 41.882935], [-7.726208, 41.887665], [-7.737044, 41.888828], [-7.737935, 41.890857], [-7.74246, 41.889747], [-7.742785, 41.885922], [-7.756022, 41.888441], [-7.758719, 41.890926], [-7.756592, 41.89407], [-7.758076, 41.897901], [-7.764097, 41.898595], [-7.779227, 41.886264], [-7.785257, 41.885157], [-7.788886, 41.882467], [-7.794007, 41.882257], [-7.796739, 41.878214], [-7.794349, 41.87438], [-7.797064, 41.873488], [-7.803381, 41.874857], [-7.804914, 41.869459], [-7.813032, 41.871958], [-7.814229, 41.873537], [-7.818448, 41.872873], [-7.824459, 41.875252]], [[-7.888862, 41.822545], [-7.876686, 41.830252], [-7.864633, 41.830841], [-7.852695, 41.825011], [-7.848713, 41.820426], [-7.847614, 41.811408], [-7.855271, 41.802478], [-7.865199, 41.798795], [-7.877235, 41.79885], [-7.885699, 41.802777], [-7.892066, 41.811845], [-7.888862, 41.822545]]], [[[-7.937891, 41.7702], [-7.949915, 41.770629], [-7.95891, 41.767436], [-7.962096, 41.761325], [-7.962172, 41.756656], [-7.956196, 41.749398], [-7.95032, 41.745782], [-7.938296, 41.745653], [-7.931917, 41.749175], [-7.925826, 41.758125], [-7.930092, 41.767172], [-7.937891, 41.7702]]], [[[-7.820796, 41.712177], [-7.830538, 41.719044], [-7.842491, 41.722858], [-7.854517, 41.722699], [-7.866645, 41.716663], [-7.870037, 41.712555], [-7.873093, 41.703579], [-7.871603, 41.694557], [-7.867145, 41.688193], [-7.861713, 41.685271], [-7.858987, 41.68639], [-7.857773, 41.689538], [-7.854776, 41.68818], [-7.847538, 41.695365], [-7.837309, 41.699391], [-7.835792, 41.702763], [-7.839682, 41.705924], [-7.838465, 41.709522], [-7.832453, 41.710407], [-7.825252, 41.708813], [-7.820796, 41.712177]]], [[[-8.227208, 41.72316], [-8.239279, 41.719057], [-8.244688, 41.715629], [-8.253127, 41.706677], [-8.257176, 41.697696], [-8.257071, 41.688688], [-8.252758, 41.679653], [-8.239874, 41.668553], [-8.227912, 41.664263], [-8.215912, 41.663335], [-8.203879, 41.665083], [-8.191798, 41.670609], [-8.182103, 41.679172], [-8.178332, 41.688152], [-8.178971, 41.697164], [-8.182838, 41.706199], [-8.192757, 41.715276], [-8.203191, 41.720884], [-8.215182, 41.723431], [-8.227208, 41.72316]], [[-8.23548, 41.697554], [-8.227385, 41.70838], [-8.215312, 41.712695], [-8.203306, 41.71151], [-8.194615, 41.706282], [-8.191401, 41.702319], [-8.188554, 41.697232], [-8.19015, 41.688236], [-8.203715, 41.678409], [-8.21574, 41.677505], [-8.227696, 41.682335], [-8.233904, 41.688536], [-8.23548, 41.697554]]], [[[-8.10719, 41.708075], [-8.119222, 41.707237], [-8.128737, 41.696794], [-8.124945, 41.687758], [-8.119532, 41.684451], [-8.107458, 41.688749], [-8.099118, 41.696566], [-8.102254, 41.705597], [-8.10719, 41.708075]], [[-8.119425, 41.692321], [-8.123168, 41.696752], [-8.119303, 41.701281], [-8.110517, 41.696655], [-8.119425, 41.692321]]], [[[-8.013984, 41.659839], [-8.023675, 41.666876], [-8.035615, 41.660022], [-8.023917, 41.650898], [-8.013984, 41.659839]]], [[[-8.072752, 41.633307], [-8.08419, 41.634785], [-8.096246, 41.631226], [-8.103619, 41.624544], [-8.109599, 41.615584], [-8.108623, 41.604237], [-8.096761, 41.594365], [-8.08479, 41.592388], [-8.072764, 41.594332], [-8.066238, 41.597225], [-8.056228, 41.606151], [-8.05384, 41.615138], [-8.057608, 41.624176], [-8.072752, 41.633307]], [[-8.096536, 41.610452], [-8.098966, 41.615501], [-8.096409, 41.619544], [-8.08435, 41.623481], [-8.076658, 41.615324], [-8.084582, 41.607133], [-8.096536, 41.610452]]], [[[-8.554886, 41.616379], [-8.566444, 41.609207], [-8.573377, 41.600226], [-8.576112, 41.591229], [-8.576116, 41.582222], [-8.569611, 41.564183], [-8.540688, 41.528041], [-8.533058, 41.509996], [-8.527073, 41.500964], [-8.517308, 41.491916], [-8.505554, 41.484556], [-8.493609, 41.480192], [-8.481639, 41.479324], [-8.469631, 41.483019], [-8.457801, 41.491651], [-8.449423, 41.500619], [-8.445555, 41.509607], [-8.446454, 41.518619], [-8.473516, 41.536761], [-8.47949, 41.545795], [-8.477595, 41.554794], [-8.467605, 41.572763], [-8.467248, 41.581769], [-8.471465, 41.590795], [-8.480673, 41.60019], [-8.504552, 41.615957], [-8.516525, 41.619902], [-8.528516, 41.621669], [-8.540473, 41.621029], [-8.543431, 41.61462], [-8.554533, 41.615255], [-8.554886, 41.616379]], [[-8.528674, 41.599857], [-8.516673, 41.600085], [-8.504698, 41.596827], [-8.495963, 41.590905], [-8.489318, 41.581869], [-8.488683, 41.572859], [-8.493265, 41.563872], [-8.50503, 41.553426], [-8.517048, 41.549791], [-8.529027, 41.551345], [-8.540974, 41.557607], [-8.547627, 41.564098], [-8.551777, 41.573122], [-8.551549, 41.582128], [-8.546288, 41.591115], [-8.540705, 41.595512], [-8.528674, 41.599857]], [[-8.505235, 41.526445], [-8.493211, 41.531318], [-8.481237, 41.529713], [-8.469298, 41.523766], [-8.462747, 41.518696], [-8.460062, 41.509676], [-8.464939, 41.500692], [-8.469518, 41.496858], [-8.481532, 41.492656], [-8.493505, 41.493618], [-8.505434, 41.50028], [-8.511699, 41.509907], [-8.511212, 41.518913], [-8.505235, 41.526445]]], [[[-8.661308, 41.478049], [-8.673282, 41.478749], [-8.674291, 41.474453], [-8.661331, 41.473676], [-8.661308, 41.478049]]]]}}]}