{"type": "FeatureCollection", "features": [{"id": "8", "type": "Feature", "properties": {"fill": "#a3a3a3", "value_min": -0.5, "value_max": -0.25}, "geometry": {"type": "MultiPolygon", "coordinates": [[[[-8.538581, 41.623866], [-8.530546, 41.618074], [-8.504637, 41.604846], [-8.490908, 41.59989], [-8.468719, 41.59451], [-8.432742, 41.592292], [-8.408713, 41.595881], [-8.396673, 41.600294], [-8.384275, 41.608376], [-8.376447, 41.617341], [-8.372939, 41.626329], [-8.371913, 41.635331], [-8.374119, 41.64435], [-8.395783, 41.66248], [-8.394817, 41.671482], [-8.38393, 41.678398], [-8.371881, 41.681897], [-8.363502, 41.689327], [-8.359907, 41.698314], [-8.359, 41.707316], [-8.361919, 41.725347], [-8.365441, 41.734188], [-8.368703, 41.73193], [-8.373822, 41.734846], [-8.381118, 41.732129], [-8.378015, 41.725435], [-8.377163, 41.716423], [-8.380196, 41.707433], [-8.38369, 41.70345], [-8.395795, 41.694317], [-8.419921, 41.684089], [-8.434742, 41.680693], [-8.443376, 41.671728], [-8.432114, 41.663961], [-8.411127, 41.644545], [-8.404729, 41.635505], [-8.40254, 41.626487], [-8.405182, 41.617493], [-8.413754, 41.60853], [-8.432664, 41.601301], [-8.444671, 41.600398], [-8.456661, 41.601669], [-8.46863, 41.605449], [-8.475395, 41.608828], [-8.486443, 41.617885], [-8.491634, 41.626915], [-8.493723, 41.635932], [-8.492383, 41.644933], [-8.487946, 41.65392], [-8.480176, 41.662049], [-8.468097, 41.670245], [-8.461829, 41.671815], [-8.456555, 41.680798], [-8.466695, 41.690947], [-8.482012, 41.682123], [-8.484371, 41.674238], [-8.49308, 41.674886], [-8.499963, 41.671038], [-8.50927, 41.671233], [-8.51018, 41.672806], [-8.511967, 41.670324], [-8.509856, 41.668755], [-8.522103, 41.658811], [-8.525706, 41.659023], [-8.527769, 41.652714], [-8.534066, 41.652017], [-8.537355, 41.64998], [-8.537634, 41.646602], [-8.543876, 41.637352], [-8.543855, 41.633976], [-8.536342, 41.631977], [-8.535132, 41.630406], [-8.538581, 41.623866]]], [[[-7.901784, 41.770986], [-7.909594, 41.766979], [-7.913956, 41.762644], [-7.926018, 41.760701], [-7.935281, 41.76722], [-7.949955, 41.768188], [-7.952626, 41.767379], [-7.960502, 41.758444], [-7.956262, 41.749399], [-7.946103, 41.740299], [-7.945174, 41.71327], [-7.941309, 41.704227], [-7.934257, 41.695155], [-7.927201, 41.68966], [-7.915264, 41.684937], [-7.903258, 41.684355], [-7.891169, 41.68863], [-7.878879, 41.704416], [-7.866464, 41.726971], [-7.854354, 41.731828], [-7.826485, 41.73914], [-7.815361, 41.748032], [-7.812694, 41.757012], [-7.816098, 41.766053], [-7.825478, 41.775157], [-7.841447, 41.780958], [-7.853454, 41.78241], [-7.877552, 41.780668], [-7.894612, 41.775843], [-7.901784, 41.770986]], [[-7.86556, 41.778322], [-7.853535, 41.777904], [-7.843975, 41.775344], [-7.831523, 41.766211], [-7.829139, 41.75718], [-7.832815, 41.748211], [-7.842147, 41.742035], [-7.866327, 41.73477], [-7.874641, 41.730614], [-7.879173, 41.712645], [-7.890989, 41.699142], [-7.90305, 41.696623], [-7.915014, 41.699793], [-7.920749, 41.704036], [-7.925855, 41.713091], [-7.92544, 41.722094], [-7.919829, 41.731048], [-7.902237, 41.744393], [-7.899457, 41.748869], [-7.897738, 41.757859], [-7.892568, 41.766816], [-7.878636, 41.775688], [-7.86556, 41.778322]]], [[[-8.022581, 41.739167], [-8.023545, 41.731976], [-8.010787, 41.724101], [-7.998714, 41.727318], [-7.993201, 41.731714], [-7.995195, 41.740739], [-7.998469, 41.743071], [-8.010444, 41.746438], [-8.021949, 41.74097], [-8.022581, 41.739167]]], [[[-8.227328, 41.713122], [-8.236878, 41.70657], [-8.242502, 41.6976], [-8.242786, 41.688595], [-8.236917, 41.679549], [-8.227798, 41.673876], [-8.215811, 41.671643], [-8.203781, 41.67306], [-8.191678, 41.680166], [-8.185893, 41.688206], [-8.184888, 41.697206], [-8.18946, 41.706246], [-8.203267, 41.714687], [-8.21527, 41.716187], [-8.227328, 41.713122]], [[-8.203344, 41.708491], [-8.199695, 41.706317], [-8.192246, 41.697258], [-8.195074, 41.688271], [-8.20367, 41.682052], [-8.215693, 41.681392], [-8.227765, 41.688495], [-8.229832, 41.697516], [-8.221996, 41.70647], [-8.215355, 41.709215], [-8.203344, 41.708491]]], [[[-8.023825, 41.656941], [-8.019958, 41.65989], [-8.023742, 41.662433], [-8.027411, 41.659953], [-8.023825, 41.656941]]], [[[-8.716479, 41.573804], [-8.720564, 41.564649], [-8.721896, 41.555645], [-8.720145, 41.546633], [-8.71533, 41.537614], [-8.705625, 41.528582], [-8.690515, 41.519535], [-8.649208, 41.500787], [-8.63391, 41.492346], [-8.623542, 41.483305], [-8.619404, 41.474284], [-8.622603, 41.438265], [-8.619036, 41.429246], [-8.61372, 41.424065], [-8.594528, 41.411147], [-8.56602, 41.3986], [-8.554079, 41.395345], [-8.542126, 41.394051], [-8.530157, 41.395074], [-8.514808, 41.401831], [-8.506129, 41.408723], [-8.498334, 41.419775], [-8.494251, 41.437772], [-8.497465, 41.455801], [-8.509655, 41.473869], [-8.529475, 41.489594], [-8.548491, 41.50105], [-8.557585, 41.510093], [-8.571995, 41.555184], [-8.588798, 41.580222], [-8.600729, 41.590766], [-8.612684, 41.59807], [-8.630325, 41.603406], [-8.6366, 41.600518], [-8.639873, 41.597352], [-8.640152, 41.59465], [-8.645536, 41.593051], [-8.646744, 41.594171], [-8.649125, 41.591909], [-8.656622, 41.5921], [-8.660788, 41.588255], [-8.663794, 41.589141], [-8.665265, 41.585758], [-8.66948, 41.587989], [-8.684455, 41.586117], [-8.685608, 41.58071], [-8.697261, 41.576376], [-8.701703, 41.570277], [-8.707704, 41.570923], [-8.712485, 41.569323], [-8.716479, 41.573804]], [[-8.636926, 41.554645], [-8.624931, 41.555339], [-8.612953, 41.552999], [-8.601004, 41.546153], [-8.593459, 41.537247], [-8.590492, 41.52823], [-8.591252, 41.519225], [-8.596639, 41.510237], [-8.601247, 41.506498], [-8.613252, 41.502813], [-8.62523, 41.503423], [-8.643187, 41.51039], [-8.654589, 41.519433], [-8.659178, 41.528454], [-8.65904, 41.537461], [-8.65337, 41.546451], [-8.648943, 41.54993], [-8.636926, 41.554645]], [[-8.553473, 41.483859], [-8.541513, 41.48117], [-8.528107, 41.473946], [-8.519423, 41.464903], [-8.515479, 41.455879], [-8.515385, 41.446871], [-8.519251, 41.437879], [-8.529919, 41.42804], [-8.54192, 41.423346], [-8.553894, 41.422404], [-8.565849, 41.424291], [-8.577782, 41.429601], [-8.587707, 41.438145], [-8.592563, 41.44717], [-8.593607, 41.456181], [-8.589505, 41.468477], [-8.585629, 41.474168], [-8.577452, 41.480385], [-8.565451, 41.483804], [-8.553473, 41.483859]]], [[[-8.082787, 41.548496], [-8.097335, 41.55313], [-8.109323, 41.553346], [-8.121352, 41.550525], [-8.131927, 41.543697], [-8.137353, 41.53473], [-8.136595, 41.525718], [-8.128729, 41.516651], [-8.109912, 41.510366], [-8.097941, 41.50951], [-8.0912, 41.510532], [-8.091197, 41.51633], [-8.097873, 41.514428], [-8.109854, 41.514639], [-8.115912, 41.516553], [-8.125859, 41.525636], [-8.124869, 41.534636], [-8.121518, 41.538295], [-8.109449, 41.544159], [-8.096885, 41.543554], [-8.094175, 41.544904], [-8.087885, 41.542876], [-8.083389, 41.5449], [-8.082787, 41.548496]]], [[[-8.361414, 41.525091], [-8.373481, 41.516669], [-8.379804, 41.509272], [-8.383863, 41.500286], [-8.384245, 41.473266], [-8.378719, 41.455221], [-8.374134, 41.448918], [-8.36224, 41.440931], [-8.350302, 41.437629], [-8.338345, 41.436365], [-8.326368, 41.437099], [-8.314365, 41.440269], [-8.302287, 41.450349], [-8.296489, 41.463755], [-8.296189, 41.481768], [-8.30199, 41.499818], [-8.313559, 41.51673], [-8.325454, 41.525292], [-8.337404, 41.528891], [-8.349391, 41.528762], [-8.361414, 41.525091]], [[-8.349511, 41.516827], [-8.337523, 41.517183], [-8.325572, 41.513939], [-8.313687, 41.504576], [-8.306176, 41.490836], [-8.304956, 41.481822], [-8.306634, 41.472824], [-8.31226, 41.463851], [-8.326182, 41.45511], [-8.338179, 41.4527], [-8.35014, 41.453955], [-8.362066, 41.458694], [-8.368112, 41.464171], [-8.373905, 41.472716], [-8.376757, 41.482233], [-8.376727, 41.49124], [-8.373527, 41.50023], [-8.361538, 41.512485], [-8.349511, 41.516827]]], [[[-8.807483, 41.342095], [-8.793468, 41.349078], [-8.769538, 41.355596], [-8.745624, 41.356552], [-8.721732, 41.35233], [-8.697872, 41.341873], [-8.685955, 41.33458], [-8.65655, 41.312264], [-8.640831, 41.294201], [-8.633376, 41.276162], [-8.633717, 41.267155], [-8.641122, 41.258171], [-8.666834, 41.24924], [-8.734152, 41.23783], [-8.758028, 41.235268], [-8.781891, 41.235947], [-8.803523, 41.24154], [-8.799695, 41.14406], [-8.764944, 41.144835], [-8.765189, 41.168412], [-8.763046, 41.177415], [-8.754113, 41.195412], [-8.735639, 41.213387], [-8.718427, 41.222354], [-8.6984, 41.227353], [-8.686464, 41.228181], [-8.674538, 41.227071], [-8.662626, 41.22343], [-8.649366, 41.213157], [-8.641241, 41.195339], [-8.638841, 41.196025], [-8.638231, 41.194227], [-8.634946, 41.193341], [-8.632526, 41.188624], [-8.625658, 41.186628], [-8.621132, 41.178994], [-8.613374, 41.177451], [-8.608583, 41.174095], [-8.609164, 41.172066], [-8.604942, 41.164881], [-8.59422, 41.165149], [-8.589766, 41.167193], [-8.589194, 41.170572], [-8.585925, 41.17171], [-8.582979, 41.176521], [-8.591301, 41.181691], [-8.603146, 41.194568], [-8.608564, 41.204018], [-8.614621, 41.222054], [-8.615892, 41.231066], [-8.614787, 41.243202], [-8.612688, 41.249071], [-8.60277, 41.256811], [-8.590804, 41.261391], [-8.566903, 41.265306], [-8.543039, 41.263529], [-8.531126, 41.260051], [-8.519231, 41.254236], [-8.507366, 41.244777], [-8.497458, 41.23061], [-8.495343, 41.223353], [-8.487935, 41.230354], [-8.490333, 41.232598], [-8.484411, 41.240495], [-8.476346, 41.237818], [-8.475756, 41.23917], [-8.470986, 41.23941], [-8.471604, 41.243459], [-8.469227, 41.245267], [-8.463258, 41.244384], [-8.459989, 41.246644], [-8.454323, 41.246886], [-8.455541, 41.251834], [-8.452276, 41.25522], [-8.449891, 41.255452], [-8.449304, 41.257479], [-8.447812, 41.257258], [-8.448025, 41.26221], [-8.462766, 41.275492], [-8.483141, 41.289858], [-8.495033, 41.296497], [-8.518852, 41.305859], [-8.542718, 41.309542], [-8.602457, 41.308338], [-8.614393, 41.310151], [-8.638244, 41.317757], [-8.662072, 41.330919], [-8.673704, 41.339337], [-8.693448, 41.357407], [-8.721583, 41.387216], [-8.733511, 41.395327], [-8.745449, 41.40143], [-8.769344, 41.410466], [-8.793253, 41.417035], [-8.810605, 41.420029], [-8.807483, 41.342095]]], [[[-8.15688, 41.376991], [-8.163362, 41.390804], [-8.171395, 41.39987], [-8.183085, 41.408936], [-8.194974, 41.415056], [-8.206893, 41.418905], [-8.230794, 41.421592], [-8.253229, 41.418445], [-8.266787, 41.413389], [-8.272892, 41.409564], [-8.280456, 41.400604], [-8.285508, 41.38262], [-8.281779, 41.355574], [-8.278047, 41.346543], [-8.266604, 41.330735], [-8.265711, 41.332121], [-8.269004, 41.336169], [-8.263339, 41.340902], [-8.262751, 41.345405], [-8.256483, 41.347663], [-8.255889, 41.349689], [-8.249622, 41.353072], [-8.251023, 41.356897], [-8.258117, 41.364432], [-8.261915, 41.373464], [-8.262241, 41.382473], [-8.25892, 41.39146], [-8.255021, 41.39593], [-8.242963, 41.404191], [-8.230962, 41.407323], [-8.218997, 41.407436], [-8.207066, 41.404682], [-8.197775, 41.400057], [-8.187992, 41.390981], [-8.183872, 41.381944], [-8.183615, 41.376081], [-8.168382, 41.377438], [-8.164499, 41.38059], [-8.158223, 41.378791], [-8.15688, 41.376991]]]]}}, {"id": "9", "type": "Feature", "properties": {"fill": "#a3a3a3", "value_min": -0.25, "value_max": -0.0}, "geometry": {"type": "MultiPolygon", "coordinates": [[[[-7.86556, 41.778322], [-7.878636, 41.775688], [-7.892568, 41.766816], [-7.897738, 41.757859], [-7.899457, 41.748869], [-7.902237, 41.744393], [-7.919829, 41.731048], [-7.92544, 41.722094], [-7.925855, 41.713091], [-7.920749, 41.704036], [-7.915014, 41.699793], [-7.90305, 41.696623], [-7.890989, 41.699142], [-7.879173, 41.712645], [-7.874641, 41.730614], [-7.866327, 41.73477], [-7.842147, 41.742035], [-7.832815, 41.748211], [-7.829139, 41.75718], [-7.831523, 41.766211], [-7.843975, 41.775344], [-7.853535, 41.777904], [-7.86556, 41.778322]], [[-7.865631, 41.774296], [-7.85362, 41.77309], [-7.842086, 41.766318], [-7.838909, 41.757279], [-7.844662, 41.748331], [-7.854148, 41.743466], [-7.866208, 41.741529], [-7.878197, 41.743651], [-7.884434, 41.748724], [-7.887364, 41.757759], [-7.883457, 41.766728], [-7.877729, 41.770532], [-7.865631, 41.774296]], [[-7.890457, 41.730057], [-7.883345, 41.721692], [-7.884987, 41.712701], [-7.890865, 41.706335], [-7.90291, 41.704813], [-7.913945, 41.712979], [-7.913347, 41.72198], [-7.90248, 41.730093], [-7.890457, 41.730057]]], [[[-8.466695, 41.690947], [-8.456555, 41.680798], [-8.461829, 41.671815], [-8.468097, 41.670245], [-8.480176, 41.662049], [-8.487946, 41.65392], [-8.492383, 41.644933], [-8.493723, 41.635932], [-8.491634, 41.626915], [-8.486443, 41.617885], [-8.475395, 41.608828], [-8.46863, 41.605449], [-8.456661, 41.601669], [-8.444671, 41.600398], [-8.432664, 41.601301], [-8.413754, 41.60853], [-8.405182, 41.617493], [-8.40254, 41.626487], [-8.404729, 41.635505], [-8.411127, 41.644545], [-8.432114, 41.663961], [-8.443376, 41.671728], [-8.434742, 41.680693], [-8.419921, 41.684089], [-8.395795, 41.694317], [-8.38369, 41.70345], [-8.380196, 41.707433], [-8.377163, 41.716423], [-8.378015, 41.725435], [-8.381118, 41.732129], [-8.384922, 41.73032], [-8.387032, 41.731891], [-8.393033, 41.729852], [-8.396049, 41.73052], [-8.392448, 41.725512], [-8.391347, 41.716499], [-8.396453, 41.707519], [-8.407754, 41.700698], [-8.419795, 41.698206], [-8.4318, 41.699679], [-8.444302, 41.707034], [-8.453868, 41.697961], [-8.453255, 41.695487], [-8.461659, 41.694563], [-8.466695, 41.690947]], [[-8.444245, 41.650055], [-8.42987, 41.64464], [-8.420216, 41.635584], [-8.417464, 41.626563], [-8.421166, 41.617575], [-8.432587, 41.610019], [-8.444607, 41.607908], [-8.456591, 41.609929], [-8.468535, 41.617033], [-8.474522, 41.626838], [-8.473641, 41.635841], [-8.465689, 41.644812], [-8.45626, 41.649333], [-8.444245, 41.650055]]], [[[-8.203344, 41.708491], [-8.215355, 41.709215], [-8.221996, 41.70647], [-8.229832, 41.697516], [-8.227765, 41.688495], [-8.215693, 41.681392], [-8.20367, 41.682052], [-8.195074, 41.688271], [-8.192246, 41.697258], [-8.199695, 41.706317], [-8.203344, 41.708491]], [[-8.203446, 41.70016], [-8.2009, 41.697319], [-8.203549, 41.691865], [-8.215559, 41.692438], [-8.218185, 41.697438], [-8.215467, 41.699954], [-8.203446, 41.70016]]], [[[-8.636926, 41.554645], [-8.648943, 41.54993], [-8.65337, 41.546451], [-8.65904, 41.537461], [-8.659178, 41.528454], [-8.654589, 41.519433], [-8.643187, 41.51039], [-8.62523, 41.503423], [-8.613252, 41.502813], [-8.601247, 41.506498], [-8.596639, 41.510237], [-8.591252, 41.519225], [-8.590492, 41.52823], [-8.593459, 41.537247], [-8.601004, 41.546153], [-8.612953, 41.552999], [-8.624931, 41.555339], [-8.636926, 41.554645]], [[-8.6131, 41.52841], [-8.62065, 41.519326], [-8.625145, 41.518262], [-8.628048, 41.51935], [-8.633916, 41.528376], [-8.625054, 41.534019], [-8.6131, 41.52841]]], [[[-8.096885, 41.543554], [-8.109449, 41.544159], [-8.121518, 41.538295], [-8.124869, 41.534636], [-8.125859, 41.525636], [-8.115912, 41.516553], [-8.109854, 41.514639], [-8.097873, 41.514428], [-8.091197, 41.51633], [-8.089398, 41.519468], [-8.090594, 41.522169], [-8.093588, 41.52307], [-8.091786, 41.531848], [-8.097775, 41.536127], [-8.097774, 41.537927], [-8.106759, 41.543106], [-8.096885, 41.543554]], [[-8.105504, 41.534487], [-8.097619, 41.532719], [-8.094652, 41.525395], [-8.097756, 41.522855], [-8.109753, 41.522019], [-8.114247, 41.525548], [-8.110039, 41.534522], [-8.105504, 41.534487]]], [[[-8.349511, 41.516827], [-8.361538, 41.512485], [-8.373527, 41.50023], [-8.376727, 41.49124], [-8.376757, 41.482233], [-8.373905, 41.472716], [-8.368112, 41.464171], [-8.362066, 41.458694], [-8.35014, 41.453955], [-8.338179, 41.4527], [-8.326182, 41.45511], [-8.31226, 41.463851], [-8.306634, 41.472824], [-8.304956, 41.481822], [-8.306176, 41.490836], [-8.313687, 41.504576], [-8.325572, 41.513939], [-8.337523, 41.517183], [-8.349511, 41.516827]], [[-8.336737, 41.509031], [-8.325661, 41.505368], [-8.319229, 41.499922], [-8.313755, 41.490882], [-8.313187, 41.481871], [-8.317468, 41.472889], [-8.32607, 41.465886], [-8.338079, 41.462604], [-8.35004, 41.463891], [-8.361953, 41.470241], [-8.369016, 41.482191], [-8.369, 41.491198], [-8.361634, 41.502711], [-8.349593, 41.508656], [-8.336737, 41.509031]]], [[[-8.553473, 41.483859], [-8.565451, 41.483804], [-8.577452, 41.480385], [-8.585629, 41.474168], [-8.589505, 41.468477], [-8.593607, 41.456181], [-8.592563, 41.44717], [-8.587707, 41.438145], [-8.577782, 41.429601], [-8.565849, 41.424291], [-8.553894, 41.422404], [-8.54192, 41.423346], [-8.529919, 41.42804], [-8.519251, 41.437879], [-8.515385, 41.446871], [-8.515479, 41.455879], [-8.519423, 41.464903], [-8.528107, 41.473946], [-8.541513, 41.48117], [-8.553473, 41.483859]], [[-8.553554, 41.471979], [-8.541594, 41.469674], [-8.534678, 41.464965], [-8.529586, 41.455937], [-8.532338, 41.446941], [-8.541806, 41.439672], [-8.553788, 41.43789], [-8.565732, 41.441793], [-8.571667, 41.447094], [-8.574473, 41.456112], [-8.570323, 41.465104], [-8.565553, 41.468646], [-8.553554, 41.471979]]], [[[-8.183615, 41.376081], [-8.183872, 41.381944], [-8.187992, 41.390981], [-8.197775, 41.400057], [-8.207066, 41.404682], [-8.218997, 41.407436], [-8.230962, 41.407323], [-8.242963, 41.404191], [-8.255021, 41.39593], [-8.25892, 41.39146], [-8.262241, 41.382473], [-8.261915, 41.373464], [-8.258117, 41.364432], [-8.251023, 41.356897], [-8.248141, 41.360052], [-8.248448, 41.364328], [-8.245461, 41.364781], [-8.244272, 41.368384], [-8.239197, 41.371315], [-8.234946, 41.370644], [-8.238657, 41.373312], [-8.241544, 41.382339], [-8.231134, 41.392739], [-8.219166, 41.393317], [-8.2138, 41.39116], [-8.205729, 41.382097], [-8.206912, 41.376968], [-8.199163, 41.377423], [-8.194976, 41.374275], [-8.191691, 41.376302], [-8.183615, 41.376081]]], [[[-8.21738, 41.36819], [-8.21738, 41.36819], [-8.217395, 41.368182], [-8.21738, 41.36819]]], [[[-8.803523, 41.24154], [-8.781891, 41.235947], [-8.758028, 41.235268], [-8.734152, 41.23783], [-8.666834, 41.24924], [-8.641122, 41.258171], [-8.633717, 41.267155], [-8.633376, 41.276162], [-8.640831, 41.294201], [-8.65655, 41.312264], [-8.685955, 41.33458], [-8.697872, 41.341873], [-8.721732, 41.35233], [-8.745624, 41.356552], [-8.769538, 41.355596], [-8.793468, 41.349078], [-8.807483, 41.342095], [-8.803523, 41.24154]], [[-8.745704, 41.33611], [-8.733748, 41.337288], [-8.721799, 41.336633], [-8.709859, 41.334098], [-8.69793, 41.329398], [-8.686012, 41.322535], [-8.674081, 41.312315], [-8.667167, 41.303288], [-8.66384, 41.29427], [-8.663586, 41.285262], [-8.666811, 41.276264], [-8.674333, 41.268316], [-8.686306, 41.261294], [-8.71021, 41.254805], [-8.734088, 41.253598], [-8.746019, 41.254922], [-8.757944, 41.257962], [-8.769862, 41.263493], [-8.775951, 41.26752], [-8.784283, 41.276544], [-8.7887, 41.28556], [-8.790015, 41.29457], [-8.788714, 41.303575], [-8.784487, 41.312575], [-8.776821, 41.321568], [-8.769639, 41.326795], [-8.757667, 41.332822], [-8.745704, 41.33611]]], [[[-8.495343, 41.223353], [-8.497458, 41.23061], [-8.507366, 41.244777], [-8.519231, 41.254236], [-8.531126, 41.260051], [-8.543039, 41.263529], [-8.566903, 41.265306], [-8.590804, 41.261391], [-8.60277, 41.256811], [-8.612688, 41.249071], [-8.614787, 41.243202], [-8.615892, 41.231066], [-8.614621, 41.222054], [-8.608564, 41.204018], [-8.603146, 41.194568], [-8.591301, 41.181691], [-8.582979, 41.176521], [-8.578825, 41.178941], [-8.581296, 41.191762], [-8.575958, 41.195609], [-8.576894, 41.201908], [-8.574515, 41.202593], [-8.57423, 41.20462], [-8.567971, 41.204644], [-8.565895, 41.206227], [-8.567697, 41.208246], [-8.566512, 41.209376], [-8.559636, 41.206251], [-8.554271, 41.20627], [-8.549521, 41.209214], [-8.544157, 41.209458], [-8.54238, 41.211265], [-8.532257, 41.213102], [-8.52653, 41.202542], [-8.523236, 41.200077], [-8.520554, 41.200086], [-8.51163, 41.203042], [-8.510456, 41.206197], [-8.505693, 41.207113], [-8.504239, 41.213646], [-8.500076, 41.21546], [-8.50308, 41.219502], [-8.502204, 41.222656], [-8.496833, 41.221998], [-8.495343, 41.223353]], [[-8.555187, 41.232635], [-8.550428, 41.230829], [-8.543316, 41.223799], [-8.543354, 41.218287], [-8.546738, 41.212799], [-8.555347, 41.208991], [-8.567264, 41.210594], [-8.570425, 41.21289], [-8.574171, 41.221911], [-8.567127, 41.231452], [-8.555187, 41.232635]]]]}}, {"id": "10", "type": "Feature", "properties": {"fill": "#a3a3a3", "value_min": 0.0, "value_max": -0.25}, "geometry": {"type": "MultiPolygon", "coordinates": [[[[-7.865631, 41.774296], [-7.877729, 41.770532], [-7.883457, 41.766728], [-7.887364, 41.757759], [-7.884434, 41.748724], [-7.878197, 41.743651], [-7.866208, 41.741529], [-7.854148, 41.743466], [-7.844662, 41.748331], [-7.838909, 41.757279], [-7.842086, 41.766318], [-7.85362, 41.77309], [-7.865631, 41.774296]], [[-7.853713, 41.767904], [-7.851168, 41.76641], [-7.847221, 41.757363], [-7.854039, 41.749581], [-7.866112, 41.746952], [-7.870673, 41.748589], [-7.879952, 41.757687], [-7.874472, 41.76664], [-7.865707, 41.769976], [-7.853713, 41.767904]]], [[[-8.444302, 41.707034], [-8.4318, 41.699679], [-8.419795, 41.698206], [-8.407754, 41.700698], [-8.396453, 41.707519], [-8.391347, 41.716499], [-8.392448, 41.725512], [-8.396049, 41.73052], [-8.400531, 41.726683], [-8.402934, 41.726452], [-8.404721, 41.722847], [-8.414796, 41.724848], [-8.407581, 41.719538], [-8.40762, 41.715321], [-8.419678, 41.711135], [-8.427602, 41.716686], [-8.425334, 41.720095], [-8.429643, 41.719859], [-8.430533, 41.717381], [-8.436526, 41.714214], [-8.441333, 41.714201], [-8.444302, 41.707034]]], [[[-8.42514, 41.720388], [-8.42514, 41.720388], [-8.425034, 41.720546], [-8.42514, 41.720388]]], [[[-7.890457, 41.730057], [-7.90248, 41.730093], [-7.913347, 41.72198], [-7.913945, 41.712979], [-7.90291, 41.704813], [-7.890865, 41.706335], [-7.884987, 41.712701], [-7.883345, 41.721692], [-7.890457, 41.730057]]], [[[-8.203446, 41.70016], [-8.215467, 41.699954], [-8.218185, 41.697438], [-8.215559, 41.692438], [-8.203549, 41.691865], [-8.2009, 41.697319], [-8.203446, 41.70016]]], [[[-8.444245, 41.650055], [-8.45626, 41.649333], [-8.465689, 41.644812], [-8.473641, 41.635841], [-8.474522, 41.626838], [-8.468535, 41.617033], [-8.456591, 41.609929], [-8.444607, 41.607908], [-8.432587, 41.610019], [-8.421166, 41.617575], [-8.417464, 41.626563], [-8.420216, 41.635584], [-8.42987, 41.64464], [-8.444245, 41.650055]], [[-8.444341, 41.638894], [-8.435808, 41.635662], [-8.429903, 41.626626], [-8.432481, 41.622166], [-8.438638, 41.617661], [-8.444537, 41.61603], [-8.456502, 41.62055], [-8.46062, 41.626774], [-8.456373, 41.635885], [-8.444341, 41.638894]]], [[[-8.105504, 41.534487], [-8.110039, 41.534522], [-8.114247, 41.525548], [-8.109753, 41.522019], [-8.097756, 41.522855], [-8.094652, 41.525395], [-8.097619, 41.532719], [-8.105504, 41.534487]]], [[[-8.6131, 41.52841], [-8.625054, 41.534019], [-8.633916, 41.528376], [-8.628048, 41.51935], [-8.625145, 41.518262], [-8.62065, 41.519326], [-8.6131, 41.52841]]], [[[-8.336737, 41.509031], [-8.349593, 41.508656], [-8.361634, 41.502711], [-8.369, 41.491198], [-8.369016, 41.482191], [-8.361953, 41.470241], [-8.35004, 41.463891], [-8.338079, 41.462604], [-8.32607, 41.465886], [-8.317468, 41.472889], [-8.313187, 41.481871], [-8.313755, 41.490882], [-8.319229, 41.499922], [-8.325661, 41.505368], [-8.336737, 41.509031]], [[-8.33767, 41.502804], [-8.325752, 41.496609], [-8.32165, 41.490929], [-8.321563, 41.481921], [-8.325967, 41.475846], [-8.338002, 41.470203], [-8.349964, 41.471489], [-8.361531, 41.482149], [-8.361639, 41.491157], [-8.349661, 41.50187], [-8.33767, 41.502804]]], [[[-8.553554, 41.471979], [-8.565553, 41.468646], [-8.570323, 41.465104], [-8.574473, 41.456112], [-8.571667, 41.447094], [-8.565732, 41.441793], [-8.553788, 41.43789], [-8.541806, 41.439672], [-8.532338, 41.446941], [-8.529586, 41.455937], [-8.534678, 41.464965], [-8.541594, 41.469674], [-8.553554, 41.471979]]], [[[-8.206912, 41.376968], [-8.205729, 41.382097], [-8.2138, 41.39116], [-8.219166, 41.393317], [-8.231134, 41.392739], [-8.241544, 41.382339], [-8.238657, 41.373312], [-8.234946, 41.370644], [-8.224854, 41.370878], [-8.217395, 41.368182], [-8.21738, 41.36819], [-8.212011, 41.375839], [-8.206912, 41.376968]]], [[[-8.745704, 41.33611], [-8.757667, 41.332822], [-8.769639, 41.326795], [-8.776821, 41.321568], [-8.784487, 41.312575], [-8.788714, 41.303575], [-8.790015, 41.29457], [-8.7887, 41.28556], [-8.784283, 41.276544], [-8.775951, 41.26752], [-8.769862, 41.263493], [-8.757944, 41.257962], [-8.746019, 41.254922], [-8.734088, 41.253598], [-8.71021, 41.254805], [-8.686306, 41.261294], [-8.674333, 41.268316], [-8.666811, 41.276264], [-8.663586, 41.285262], [-8.66384, 41.29427], [-8.667167, 41.303288], [-8.674081, 41.312315], [-8.686012, 41.322535], [-8.69793, 41.329398], [-8.709859, 41.334098], [-8.721799, 41.336633], [-8.733748, 41.337288], [-8.745704, 41.33611]], [[-8.72185, 41.324598], [-8.705448, 41.321408], [-8.69798, 41.3184], [-8.689286, 41.312357], [-8.681948, 41.30333], [-8.679443, 41.294315], [-8.681129, 41.285312], [-8.688167, 41.276323], [-8.698202, 41.270296], [-8.710157, 41.266805], [-8.722099, 41.265996], [-8.734031, 41.267532], [-8.745952, 41.272148], [-8.752632, 41.27648], [-8.759941, 41.285503], [-8.762379, 41.294516], [-8.760799, 41.303521], [-8.754759, 41.312516], [-8.740004, 41.321491], [-8.72185, 41.324598]]], [[[-8.555187, 41.232635], [-8.567127, 41.231452], [-8.574171, 41.221911], [-8.570425, 41.21289], [-8.567264, 41.210594], [-8.555347, 41.208991], [-8.546738, 41.212799], [-8.543354, 41.218287], [-8.543316, 41.223799], [-8.550428, 41.230829], [-8.555187, 41.232635]]]]}}, {"id": "11", "type": "Feature", "properties": {"fill": "#a3a3a3", "value_min": 0.25, "value_max": -0.5}, "geometry": {"type": "MultiPolygon", "coordinates": [[[[-7.853713, 41.767904], [-7.865707, 41.769976], [-7.874472, 41.76664], [-7.879952, 41.757687], [-7.870673, 41.748589], [-7.866112, 41.746952], [-7.854039, 41.749581], [-7.847221, 41.757363], [-7.851168, 41.76641], [-7.853713, 41.767904]], [[-7.856468, 41.757456], [-7.865993, 41.753757], [-7.870893, 41.757598], [-7.865813, 41.76396], [-7.856468, 41.757456]]], [[[-8.425034, 41.720546], [-8.42514, 41.720388], [-8.425334, 41.720095], [-8.427602, 41.716686], [-8.419678, 41.711135], [-8.40762, 41.715321], [-8.407581, 41.719538], [-8.414796, 41.724848], [-8.417349, 41.725067], [-8.41974, 41.722135], [-8.425034, 41.720546]]], [[[-8.444341, 41.638894], [-8.456373, 41.635885], [-8.46062, 41.626774], [-8.456502, 41.62055], [-8.444537, 41.61603], [-8.438638, 41.617661], [-8.432481, 41.622166], [-8.429903, 41.626626], [-8.435808, 41.635662], [-8.444341, 41.638894]]], [[[-8.33767, 41.502804], [-8.349661, 41.50187], [-8.361639, 41.491157], [-8.361531, 41.482149], [-8.349964, 41.471489], [-8.338002, 41.470203], [-8.325967, 41.475846], [-8.321563, 41.481921], [-8.32165, 41.490929], [-8.325752, 41.496609], [-8.33767, 41.502804]], [[-8.337747, 41.495171], [-8.331711, 41.490987], [-8.33224, 41.481983], [-8.337919, 41.478316], [-8.349879, 41.480065], [-8.352029, 41.482096], [-8.35238, 41.491106], [-8.349744, 41.49358], [-8.337747, 41.495171]]], [[[-8.72185, 41.324598], [-8.740004, 41.321491], [-8.754759, 41.312516], [-8.760799, 41.303521], [-8.762379, 41.294516], [-8.759941, 41.285503], [-8.752632, 41.27648], [-8.745952, 41.272148], [-8.734031, 41.267532], [-8.722099, 41.265996], [-8.710157, 41.266805], [-8.698202, 41.270296], [-8.688167, 41.276323], [-8.681129, 41.285312], [-8.679443, 41.294315], [-8.681948, 41.30333], [-8.689286, 41.312357], [-8.69798, 41.3184], [-8.705448, 41.321408], [-8.72185, 41.324598]], [[-8.720628, 41.312438], [-8.709959, 41.311559], [-8.697209, 41.303371], [-8.694779, 41.294357], [-8.698127, 41.28657], [-8.7101, 41.27976], [-8.722043, 41.279228], [-8.733965, 41.283962], [-8.740435, 41.294469], [-8.738015, 41.303471], [-8.73387, 41.307256], [-8.720628, 41.312438]]]]}}, {"id": "12", "type": "Feature", "properties": {"fill": "#a3a3a3", "value_min": 0.5, "value_max": -0.75}, "geometry": {"type": "MultiPolygon", "coordinates": [[[[-7.856468, 41.757456], [-7.865813, 41.76396], [-7.870893, 41.757598], [-7.865993, 41.753757], [-7.856468, 41.757456]]], [[[-8.337747, 41.495171], [-8.349744, 41.49358], [-8.35238, 41.491106], [-8.352029, 41.482096], [-8.349879, 41.480065], [-8.337919, 41.478316], [-8.33224, 41.481983], [-8.331711, 41.490987], [-8.337747, 41.495171]]], [[[-8.720628, 41.312438], [-8.73387, 41.307256], [-8.738015, 41.303471], [-8.740435, 41.294469], [-8.733965, 41.283962], [-8.722043, 41.279228], [-8.7101, 41.27976], [-8.698127, 41.28657], [-8.694779, 41.294357], [-8.697209, 41.303371], [-8.709959, 41.311559], [-8.720628, 41.312438]]]]}}, {"id": "7", "type": "Feature", "properties": {"fill": "#a3a3a3", "value_min": -0.75, "value_max": -0.5}, "geometry": {"type": "MultiPolygon", "coordinates": [[[[-8.716479, 41.573804], [-8.720316, 41.57356], [-8.725151, 41.577811], [-8.726633, 41.576003], [-8.734424, 41.575737], [-8.736564, 41.580228], [-8.738354, 41.579318], [-8.740778, 41.582006], [-8.74467, 41.581535], [-8.750711, 41.58623], [-8.756374, 41.582823], [-8.75635, 41.580347], [-8.762327, 41.578514], [-8.764443, 41.580303], [-8.767441, 41.580286], [-8.769874, 41.583874], [-8.768997, 41.58613], [-8.773228, 41.589482], [-8.775371, 41.593972], [-8.78556, 41.593464], [-8.797327, 41.600599], [-8.804218, 41.600109], [-8.80456, 41.604158], [-8.809434, 41.611332], [-8.828644, 41.609656], [-8.82839, 41.585633], [-8.818497, 41.554794], [-8.8221, 41.547542], [-8.821965, 41.534907], [-8.815926, 41.525624], [-8.81063, 41.5101], [-8.813279, 41.503483], [-8.812636, 41.496944], [-8.804699, 41.482068], [-8.798552, 41.474753], [-8.80154, 41.446836], [-8.806115, 41.43713], [-8.807354, 41.425915], [-8.810605, 41.420029], [-8.793253, 41.417035], [-8.769344, 41.410466], [-8.745449, 41.40143], [-8.733511, 41.395327], [-8.721583, 41.387216], [-8.693448, 41.357407], [-8.673704, 41.339337], [-8.662072, 41.330919], [-8.638244, 41.317757], [-8.614393, 41.310151], [-8.602457, 41.308338], [-8.542718, 41.309542], [-8.518852, 41.305859], [-8.495033, 41.296497], [-8.483141, 41.289858], [-8.462766, 41.275492], [-8.448025, 41.26221], [-8.439785, 41.262907], [-8.438023, 41.268989], [-8.434745, 41.269673], [-8.432691, 41.277107], [-8.427032, 41.279372], [-8.429143, 41.284319], [-8.426171, 41.287028], [-8.425606, 41.294007], [-8.422037, 41.296942], [-8.421756, 41.30077], [-8.416982, 41.301232], [-8.407744, 41.304856], [-8.406262, 41.307335], [-8.403277, 41.307342], [-8.401801, 41.311398], [-8.399712, 41.311628], [-8.400316, 41.313202], [-8.396738, 41.314336], [-8.398835, 41.316131], [-8.393775, 41.31997], [-8.393489, 41.323122], [-8.391105, 41.324253], [-8.386325, 41.323588], [-8.382164, 41.328744], [-8.399121, 41.33569], [-8.410983, 41.345613], [-8.418322, 41.356345], [-8.421041, 41.365367], [-8.419452, 41.383374], [-8.41464, 41.392357], [-8.405257, 41.401317], [-8.398482, 41.405078], [-8.386486, 41.408546], [-8.362547, 41.409529], [-8.3506, 41.407812], [-8.333035, 41.400921], [-8.323, 41.391854], [-8.318388, 41.38282], [-8.316889, 41.364796], [-8.323928, 41.346822], [-8.331424, 41.338553], [-8.326359, 41.340812], [-8.326363, 41.342163], [-8.324568, 41.341041], [-8.323376, 41.341943], [-8.320676, 41.338121], [-8.316788, 41.335876], [-8.313802, 41.336331], [-8.31139, 41.328007], [-8.307502, 41.325762], [-8.305116, 41.326891], [-8.303024, 41.325994], [-8.303615, 41.323742], [-8.301216, 41.319694], [-8.296431, 41.316774], [-8.297618, 41.313846], [-8.296116, 41.310022], [-8.281801, 41.316569], [-8.279132, 41.324451], [-8.272266, 41.32536], [-8.266604, 41.330735], [-8.278047, 41.346543], [-8.281779, 41.355574], [-8.285508, 41.38262], [-8.280456, 41.400604], [-8.272892, 41.409564], [-8.266787, 41.413389], [-8.253229, 41.418445], [-8.230794, 41.421592], [-8.206893, 41.418905], [-8.194974, 41.415056], [-8.183085, 41.408936], [-8.171395, 41.39987], [-8.163362, 41.390804], [-8.15688, 41.376991], [-8.152544, 41.375866], [-8.151049, 41.37339], [-8.145073, 41.374742], [-8.139694, 41.377894], [-8.133418, 41.374292], [-8.125051, 41.375193], [-8.119074, 41.377218], [-8.119672, 41.378569], [-8.116683, 41.380144], [-8.117877, 41.385771], [-8.115322, 41.386446], [-8.146203, 41.408693], [-8.182837, 41.428703], [-8.206684, 41.436027], [-8.254479, 41.44327], [-8.266393, 41.448394], [-8.278214, 41.461979], [-8.301557, 41.518362], [-8.313296, 41.541548], [-8.327395, 41.563021], [-8.327753, 41.57203], [-8.323462, 41.581012], [-8.276088, 41.65279], [-8.264057, 41.6546], [-8.240065, 41.65228], [-8.228052, 41.652606], [-8.216024, 41.654139], [-8.203968, 41.657873], [-8.191872, 41.664701], [-8.179816, 41.679156], [-8.176708, 41.688141], [-8.17696, 41.69715], [-8.180581, 41.706183], [-8.191219, 41.716845], [-8.203169, 41.722655], [-8.215164, 41.724877], [-8.227201, 41.723728], [-8.239285, 41.718523], [-8.254992, 41.706689], [-8.271238, 41.688779], [-8.275769, 41.681226], [-8.28785, 41.675225], [-8.299805, 41.680593], [-8.323639, 41.699301], [-8.335516, 41.713016], [-8.352223, 41.743442], [-8.352203, 41.739616], [-8.357897, 41.735103], [-8.362407, 41.735994], [-8.365441, 41.734188], [-8.361919, 41.725347], [-8.359, 41.707316], [-8.359907, 41.698314], [-8.363502, 41.689327], [-8.371881, 41.681897], [-8.38393, 41.678398], [-8.394817, 41.671482], [-8.395783, 41.66248], [-8.374119, 41.64435], [-8.371913, 41.635331], [-8.372939, 41.626329], [-8.376447, 41.617341], [-8.384275, 41.608376], [-8.396673, 41.600294], [-8.408713, 41.595881], [-8.432742, 41.592292], [-8.468719, 41.59451], [-8.490908, 41.59989], [-8.504637, 41.604846], [-8.530546, 41.618074], [-8.538581, 41.623866], [-8.543431, 41.61462], [-8.554533, 41.615255], [-8.557244, 41.617046], [-8.562639, 41.61635], [-8.568056, 41.619031], [-8.570735, 41.616095], [-8.577321, 41.614269], [-8.581231, 41.615829], [-8.585766, 41.620988], [-8.591462, 41.620515], [-8.596534, 41.616668], [-8.601628, 41.615972], [-8.603996, 41.611686], [-8.609369, 41.608287], [-8.614156, 41.606692], [-8.619881, 41.610269], [-8.621338, 41.604636], [-8.630325, 41.603406], [-8.612684, 41.59807], [-8.600729, 41.590766], [-8.588798, 41.580222], [-8.571995, 41.555184], [-8.557585, 41.510093], [-8.548491, 41.50105], [-8.529475, 41.489594], [-8.509655, 41.473869], [-8.497465, 41.455801], [-8.494251, 41.437772], [-8.498334, 41.419775], [-8.506129, 41.408723], [-8.514808, 41.401831], [-8.530157, 41.395074], [-8.542126, 41.394051], [-8.554079, 41.395345], [-8.56602, 41.3986], [-8.594528, 41.411147], [-8.61372, 41.424065], [-8.619036, 41.429246], [-8.622603, 41.438265], [-8.619404, 41.474284], [-8.623542, 41.483305], [-8.63391, 41.492346], [-8.649208, 41.500787], [-8.690515, 41.519535], [-8.705625, 41.528582], [-8.71533, 41.537614], [-8.720145, 41.546633], [-8.721896, 41.555645], [-8.720564, 41.564649], [-8.716479, 41.573804]], [[-8.227328, 41.713122], [-8.21527, 41.716187], [-8.203267, 41.714687], [-8.18946, 41.706246], [-8.184888, 41.697206], [-8.185893, 41.688206], [-8.191678, 41.680166], [-8.203781, 41.67306], [-8.215811, 41.671643], [-8.227798, 41.673876], [-8.236917, 41.679549], [-8.242786, 41.688595], [-8.242502, 41.6976], [-8.236878, 41.70657], [-8.227328, 41.713122]], [[-8.456812, 41.583557], [-8.42084, 41.581575], [-8.396885, 41.577462], [-8.379529, 41.572321], [-8.36728, 41.563247], [-8.367025, 41.554239], [-8.391539, 41.518342], [-8.395788, 41.509357], [-8.396915, 41.500355], [-8.395562, 41.482333], [-8.398655, 41.464335], [-8.410062, 41.447471], [-8.422097, 41.44036], [-8.434077, 41.439287], [-8.446024, 41.441999], [-8.457938, 41.448824], [-8.482378, 41.473749], [-8.515085, 41.500914], [-8.52188, 41.50995], [-8.525708, 41.518973], [-8.526978, 41.527986], [-8.525307, 41.536986], [-8.518404, 41.545965], [-8.505011, 41.555865], [-8.480844, 41.578846], [-8.468817, 41.582619], [-8.456812, 41.583557]], [[-8.361414, 41.525091], [-8.349391, 41.528762], [-8.337404, 41.528891], [-8.325454, 41.525292], [-8.313559, 41.51673], [-8.30199, 41.499818], [-8.296189, 41.481768], [-8.296489, 41.463755], [-8.302287, 41.450349], [-8.314365, 41.440269], [-8.326368, 41.437099], [-8.338345, 41.436365], [-8.350302, 41.437629], [-8.36224, 41.440931], [-8.374134, 41.448918], [-8.378719, 41.455221], [-8.384245, 41.473266], [-8.383863, 41.500286], [-8.379804, 41.509272], [-8.373481, 41.516669], [-8.361414, 41.525091]], [[-8.662786, 41.492435], [-8.64843, 41.483384], [-8.646124, 41.47437], [-8.650361, 41.465375], [-8.66141, 41.458443], [-8.673391, 41.457087], [-8.685348, 41.460451], [-8.692142, 41.465495], [-8.69638, 41.474513], [-8.694194, 41.483515], [-8.685203, 41.490546], [-8.680104, 41.492484], [-8.673207, 41.493705], [-8.662786, 41.492435]], [[-8.625862, 41.393563], [-8.613919, 41.39033], [-8.602058, 41.38415], [-8.592154, 41.375108], [-8.587287, 41.366083], [-8.58655, 41.357073], [-8.590364, 41.348079], [-8.59977, 41.339104], [-8.614255, 41.333481], [-8.626212, 41.332366], [-8.638154, 41.33394], [-8.650082, 41.338282], [-8.661989, 41.346825], [-8.669772, 41.357342], [-8.672107, 41.366356], [-8.670802, 41.37536], [-8.661781, 41.386985], [-8.64979, 41.392642], [-8.637819, 41.3945], [-8.625862, 41.393563]]], [[[-8.33143, 41.338548], [-8.33143, 41.338548], [-8.331683, 41.338327], [-8.33143, 41.338548]]], [[[-8.331727, 41.338288], [-8.331727, 41.338288], [-8.334905, 41.335846], [-8.331727, 41.338288]]], [[[-8.344843, 41.330447], [-8.353493, 41.327629], [-8.350207, 41.327264], [-8.344843, 41.330447]]], [[[-7.727044, 41.802666], [-7.732703, 41.803529], [-7.75067, 41.801388], [-7.767515, 41.792563], [-7.781291, 41.780394], [-7.793343, 41.779408], [-7.817294, 41.785645], [-7.841327, 41.78761], [-7.913605, 41.783412], [-7.93773, 41.779966], [-7.973804, 41.78152], [-7.997964, 41.775558], [-8.022189, 41.76497], [-8.034414, 41.752046], [-8.037394, 41.7411], [-8.034597, 41.73207], [-8.026838, 41.722997], [-8.010947, 41.713631], [-7.987403, 41.704643], [-7.97797, 41.695552], [-7.963535, 41.671874], [-7.948545, 41.659259], [-7.927874, 41.649096], [-7.915922, 41.645681], [-7.899972, 41.644992], [-7.897869, 41.645511], [-7.89696, 41.647985], [-7.892759, 41.647976], [-7.892145, 41.651576], [-7.901724, 41.658573], [-7.902017, 41.660599], [-7.899913, 41.66127], [-7.900198, 41.665547], [-7.898396, 41.665769], [-7.896885, 41.668692], [-7.882465, 41.671588], [-7.877044, 41.676077], [-7.875559, 41.682151], [-7.875848, 41.694599], [-7.870927, 41.712564], [-7.866598, 41.719349], [-7.854452, 41.72633], [-7.830383, 41.727621], [-7.794383, 41.723869], [-7.777407, 41.724545], [-7.776669, 41.724654], [-7.776204, 41.724722], [-7.773786, 41.727346], [-7.771994, 41.72534], [-7.761764, 41.728043], [-7.763239, 41.732714], [-7.759307, 41.737203], [-7.759597, 41.739005], [-7.75689, 41.739446], [-7.758687, 41.740577], [-7.757758, 41.745301], [-7.748417, 41.749321], [-7.747786, 41.754496], [-7.743866, 41.756509], [-7.740214, 41.763924], [-7.726937, 41.771755], [-7.7254, 41.777152], [-7.727191, 41.779184], [-7.724177, 41.780299], [-7.725372, 41.781653], [-7.722296, 41.792446], [-7.728879, 41.797871], [-7.727044, 41.802666]], [[-7.901784, 41.770986], [-7.894612, 41.775843], [-7.877552, 41.780668], [-7.853454, 41.78241], [-7.841447, 41.780958], [-7.825478, 41.775157], [-7.816098, 41.766053], [-7.812694, 41.757012], [-7.815361, 41.748032], [-7.826485, 41.73914], [-7.854354, 41.731828], [-7.866464, 41.726971], [-7.878879, 41.704416], [-7.891169, 41.68863], [-7.903258, 41.684355], [-7.915264, 41.684937], [-7.927201, 41.68966], [-7.934257, 41.695155], [-7.941309, 41.704227], [-7.945174, 41.71327], [-7.946103, 41.740299], [-7.956262, 41.749399], [-7.960502, 41.758444], [-7.952626, 41.767379], [-7.949955, 41.768188], [-7.935281, 41.76722], [-7.926018, 41.760701], [-7.913956, 41.762644], [-7.909594, 41.766979], [-7.901784, 41.770986]], [[-8.022581, 41.739167], [-8.021949, 41.74097], [-8.010444, 41.746438], [-7.998469, 41.743071], [-7.995195, 41.740739], [-7.993201, 41.731714], [-7.998714, 41.727318], [-8.010787, 41.724101], [-8.023545, 41.731976], [-8.022581, 41.739167]]], [[[-8.043378, 41.660087], [-8.041407, 41.651064], [-8.036013, 41.645024], [-8.024081, 41.640018], [-8.012078, 41.639722], [-8.000005, 41.643982], [-7.991073, 41.650633], [-7.988588, 41.659618], [-7.9923, 41.668658], [-8.011527, 41.675747], [-8.023543, 41.675622], [-8.035624, 41.671124], [-8.043378, 41.660087]], [[-8.023825, 41.656941], [-8.027411, 41.659953], [-8.023742, 41.662433], [-8.019958, 41.65989], [-8.023825, 41.656941]]], [[[-8.081578, 41.562518], [-8.097169, 41.565032], [-8.121165, 41.56432], [-8.133202, 41.561053], [-8.145288, 41.553973], [-8.152641, 41.543851], [-8.153977, 41.534854], [-8.151689, 41.52583], [-8.143603, 41.516763], [-8.121919, 41.508593], [-8.093, 41.504723], [-8.0912, 41.510532], [-8.097941, 41.50951], [-8.109912, 41.510366], [-8.128729, 41.516651], [-8.136595, 41.525718], [-8.137353, 41.53473], [-8.131927, 41.543697], [-8.121352, 41.550525], [-8.109323, 41.553346], [-8.097335, 41.55313], [-8.082787, 41.548496], [-8.080687, 41.551651], [-8.074396, 41.549848], [-8.072897, 41.551197], [-8.081578, 41.562518]]], [[[-8.641241, 41.195339], [-8.649366, 41.213157], [-8.662626, 41.22343], [-8.674538, 41.227071], [-8.686464, 41.228181], [-8.6984, 41.227353], [-8.718427, 41.222354], [-8.735639, 41.213387], [-8.754113, 41.195412], [-8.763046, 41.177415], [-8.765189, 41.168412], [-8.764944, 41.144835], [-8.674793, 41.146932], [-8.674849, 41.153767], [-8.672489, 41.15648], [-8.66117, 41.156307], [-8.662078, 41.158104], [-8.660313, 41.160813], [-8.657033, 41.160378], [-8.654961, 41.161963], [-8.653231, 41.169174], [-8.655366, 41.175467], [-8.647955, 41.180228], [-8.647696, 41.185181], [-8.641241, 41.195339]]]]}}, {"id": "6", "type": "Feature", "properties": {"fill": "#a3a3a3", "value_min": -1.0, "value_max": -0.75}, "geometry": {"type": "MultiPolygon", "coordinates": [[[[-8.352223, 41.743442], [-8.335516, 41.713016], [-8.323639, 41.699301], [-8.299805, 41.680593], [-8.28785, 41.675225], [-8.275769, 41.681226], [-8.271238, 41.688779], [-8.254992, 41.706689], [-8.239285, 41.718523], [-8.227201, 41.723728], [-8.215164, 41.724877], [-8.203169, 41.722655], [-8.191219, 41.716845], [-8.180581, 41.706183], [-8.17696, 41.69715], [-8.176708, 41.688141], [-8.179816, 41.679156], [-8.191872, 41.664701], [-8.203968, 41.657873], [-8.216024, 41.654139], [-8.228052, 41.652606], [-8.240065, 41.65228], [-8.264057, 41.6546], [-8.276088, 41.65279], [-8.323462, 41.581012], [-8.327753, 41.57203], [-8.327395, 41.563021], [-8.313296, 41.541548], [-8.301557, 41.518362], [-8.278214, 41.461979], [-8.266393, 41.448394], [-8.254479, 41.44327], [-8.206684, 41.436027], [-8.182837, 41.428703], [-8.146203, 41.408693], [-8.115322, 41.386446], [-8.112795, 41.390723], [-8.110105, 41.390947], [-8.108011, 41.393648], [-8.103827, 41.392972], [-8.105321, 41.394998], [-8.10263, 41.396123], [-8.10801, 41.398825], [-8.108606, 41.403102], [-8.104419, 41.406252], [-8.104119, 41.408728], [-8.101727, 41.409403], [-8.102025, 41.411204], [-8.092756, 41.411201], [-8.09126, 41.414352], [-8.079893, 41.41975], [-8.077503, 41.416597], [-8.070923, 41.41862], [-8.066739, 41.416142], [-8.061654, 41.417489], [-8.059852, 41.424916], [-8.055959, 41.429415], [-8.05655, 41.435881], [-8.063113, 41.431703], [-8.078443, 41.426185], [-8.099129, 41.423754], [-8.111084, 41.424652], [-8.134943, 41.430351], [-8.182526, 41.453488], [-8.194454, 41.457143], [-8.230353, 41.458897], [-8.242308, 41.460524], [-8.254239, 41.464242], [-8.266137, 41.471055], [-8.277971, 41.483895], [-8.28187, 41.490687], [-8.286055, 41.499721], [-8.290329, 41.517762], [-8.288297, 41.535764], [-8.283635, 41.544742], [-8.277212, 41.552077], [-8.265128, 41.560294], [-8.253082, 41.564976], [-8.241058, 41.56762], [-8.229056, 41.568265], [-8.217078, 41.56698], [-8.205138, 41.56259], [-8.193252, 41.554033], [-8.185764, 41.544091], [-8.1703, 41.516958], [-8.157873, 41.50823], [-8.098065, 41.500595], [-8.072051, 41.49297], [-8.07175, 41.494925], [-8.078333, 41.49898], [-8.078332, 41.500331], [-8.093, 41.504723], [-8.121919, 41.508593], [-8.143603, 41.516763], [-8.151689, 41.52583], [-8.153977, 41.534854], [-8.152641, 41.543851], [-8.145288, 41.553973], [-8.133202, 41.561053], [-8.121165, 41.56432], [-8.097169, 41.565032], [-8.081578, 41.562518], [-8.081576, 41.565157], [-8.078879, 41.56493], [-8.077678, 41.566956], [-8.069883, 41.570103], [-8.069281, 41.572579], [-8.058484, 41.578199], [-8.052181, 41.585219], [-8.072956, 41.580882], [-8.096941, 41.581433], [-8.128556, 41.588708], [-8.142157, 41.597817], [-8.14408, 41.606839], [-8.136024, 41.615785], [-8.132455, 41.61689], [-8.123624, 41.624699], [-8.117406, 41.633658], [-8.120095, 41.642686], [-8.132024, 41.649001], [-8.155992, 41.652834], [-8.161827, 41.661012], [-8.164533, 41.688053], [-8.169227, 41.706101], [-8.173766, 41.715141], [-8.202998, 41.736428], [-8.214959, 41.741735], [-8.226995, 41.740913], [-8.263336, 41.717842], [-8.275416, 41.712662], [-8.287459, 41.710622], [-8.299466, 41.71187], [-8.311435, 41.716749], [-8.322768, 41.725123], [-8.330302, 41.734174], [-8.337679, 41.752231], [-8.338618, 41.762149], [-8.344765, 41.762363], [-8.349267, 41.760103], [-8.352557, 41.755145], [-8.34982, 41.745922], [-8.349814, 41.744122], [-8.352223, 41.743442]]], [[[-7.728176, 41.814081], [-7.744557, 41.812964], [-7.780804, 41.806133], [-7.804929, 41.803474], [-7.817005, 41.801406], [-7.845014, 41.793368], [-7.877394, 41.789702], [-7.889406, 41.791018], [-7.899019, 41.793899], [-7.925186, 41.810557], [-7.93718, 41.813217], [-7.973261, 41.815545], [-7.985246, 41.819008], [-7.997199, 41.824652], [-8.011454, 41.834748], [-8.013965, 41.828899], [-8.017873, 41.831379], [-8.02901, 41.829589], [-8.037134, 41.831171], [-8.041351, 41.828023], [-8.041054, 41.825097], [-8.045268, 41.824425], [-8.047679, 41.821276], [-8.057314, 41.815656], [-8.06664, 41.817012], [-8.072961, 41.813414], [-8.078678, 41.813417], [-8.082892, 41.810493], [-8.091013, 41.812521], [-8.093421, 41.811397], [-8.093723, 41.808471], [-8.101845, 41.809824], [-8.104853, 41.81185], [-8.118391, 41.811856], [-8.105871, 41.803213], [-8.093994, 41.791841], [-8.05791, 41.74127], [-8.049552, 41.732194], [-8.027605, 41.713997], [-8.019974, 41.704925], [-8.018209, 41.695903], [-8.025825, 41.686961], [-8.035464, 41.68183], [-8.047623, 41.672032], [-8.054827, 41.660182], [-8.056395, 41.651188], [-8.054179, 41.642162], [-8.034524, 41.614978], [-8.03236, 41.605952], [-8.033877, 41.60114], [-8.031467, 41.602938], [-8.02367, 41.603156], [-8.019174, 41.601802], [-8.015872, 41.603824], [-8.013474, 41.603372], [-8.005971, 41.60629], [-8.003562, 41.611239], [-7.998761, 41.612809], [-7.999669, 41.608759], [-7.996976, 41.605829], [-7.996684, 41.602003], [-7.984685, 41.603564], [-7.982292, 41.60086], [-7.975689, 41.603552], [-7.974482, 41.606701], [-7.970882, 41.607147], [-7.969091, 41.603768], [-7.965796, 41.602413], [-7.9541, 41.602846], [-7.952606, 41.600592], [-7.947808, 41.60081], [-7.945413, 41.599456], [-7.942725, 41.595625], [-7.936733, 41.594264], [-7.93791, 41.601694], [-7.937004, 41.603718], [-7.931604, 41.604384], [-7.930073, 41.614735], [-7.925255, 41.620579], [-7.920755, 41.620796], [-7.917748, 41.623041], [-7.915933, 41.627764], [-7.913229, 41.628885], [-7.912613, 41.63361], [-7.906014, 41.633147], [-7.905699, 41.637648], [-7.907788, 41.640804], [-7.899972, 41.644992], [-7.915922, 41.645681], [-7.927874, 41.649096], [-7.948545, 41.659259], [-7.963535, 41.671874], [-7.97797, 41.695552], [-7.987403, 41.704643], [-8.010947, 41.713631], [-8.026838, 41.722997], [-8.034597, 41.73207], [-8.037394, 41.7411], [-8.034414, 41.752046], [-8.022189, 41.76497], [-7.997964, 41.775558], [-7.973804, 41.78152], [-7.93773, 41.779966], [-7.913605, 41.783412], [-7.841327, 41.78761], [-7.817294, 41.785645], [-7.793343, 41.779408], [-7.781291, 41.780394], [-7.767515, 41.792563], [-7.75067, 41.801388], [-7.732703, 41.803529], [-7.727044, 41.802666], [-7.728176, 41.814081]], [[-8.043378, 41.660087], [-8.035624, 41.671124], [-8.023543, 41.675622], [-8.011527, 41.675747], [-7.9923, 41.668658], [-7.988588, 41.659618], [-7.991073, 41.650633], [-8.000005, 41.643982], [-8.012078, 41.639722], [-8.024081, 41.640018], [-8.036013, 41.645024], [-8.041407, 41.651064], [-8.043378, 41.660087]]], [[[-7.761764, 41.728043], [-7.771994, 41.72534], [-7.765698, 41.723044], [-7.761764, 41.728043]]], [[[-7.776204, 41.724722], [-7.776204, 41.724722], [-7.776669, 41.724654], [-7.776204, 41.724722]]], [[[-7.777407, 41.724545], [-7.794383, 41.723869], [-7.830383, 41.727621], [-7.854452, 41.72633], [-7.866598, 41.719349], [-7.870927, 41.712564], [-7.875848, 41.694599], [-7.875559, 41.682151], [-7.873401, 41.686198], [-7.868896, 41.686413], [-7.867408, 41.683258], [-7.864403, 41.683701], [-7.864096, 41.685276], [-7.860493, 41.685268], [-7.858981, 41.687924], [-7.867039, 41.694233], [-7.86945, 41.703543], [-7.866714, 41.712768], [-7.854548, 41.720955], [-7.841524, 41.721278], [-7.830576, 41.71694], [-7.822805, 41.711057], [-7.818621, 41.713522], [-7.815291, 41.718689], [-7.808986, 41.717996], [-7.808396, 41.715744], [-7.804499, 41.714158], [-7.79939, 41.714593], [-7.79788, 41.716164], [-7.796383, 41.71526], [-7.790966, 41.717044], [-7.789449, 41.719966], [-7.78464, 41.720402], [-7.78252, 41.723546], [-7.777407, 41.724545]]], [[[-8.456812, 41.583557], [-8.468817, 41.582619], [-8.480844, 41.578846], [-8.505011, 41.555865], [-8.518404, 41.545965], [-8.525307, 41.536986], [-8.526978, 41.527986], [-8.525708, 41.518973], [-8.52188, 41.50995], [-8.515085, 41.500914], [-8.482378, 41.473749], [-8.457938, 41.448824], [-8.446024, 41.441999], [-8.434077, 41.439287], [-8.422097, 41.44036], [-8.410062, 41.447471], [-8.398655, 41.464335], [-8.395562, 41.482333], [-8.396915, 41.500355], [-8.395788, 41.509357], [-8.391539, 41.518342], [-8.367025, 41.554239], [-8.36728, 41.563247], [-8.379529, 41.572321], [-8.396885, 41.577462], [-8.42084, 41.581575], [-8.456812, 41.583557]], [[-8.44489, 41.574864], [-8.431104, 41.572588], [-8.420951, 41.569115], [-8.411057, 41.56348], [-8.403225, 41.554432], [-8.401093, 41.545414], [-8.402651, 41.536415], [-8.407374, 41.527432], [-8.423913, 41.509501], [-8.428904, 41.500519], [-8.42158, 41.49856], [-8.414759, 41.49144], [-8.409698, 41.482407], [-8.414766, 41.473425], [-8.421844, 41.468847], [-8.433819, 41.468985], [-8.441904, 41.47356], [-8.44697, 41.482592], [-8.443601, 41.500591], [-8.457459, 41.506264], [-8.472059, 41.51874], [-8.490737, 41.527831], [-8.497106, 41.536866], [-8.495875, 41.545868], [-8.490343, 41.554851], [-8.480959, 41.564433], [-8.468905, 41.571854], [-8.456887, 41.574703], [-8.44489, 41.574864]]], [[[-8.662786, 41.492435], [-8.673207, 41.493705], [-8.680104, 41.492484], [-8.685203, 41.490546], [-8.694194, 41.483515], [-8.69638, 41.474513], [-8.692142, 41.465495], [-8.685348, 41.460451], [-8.673391, 41.457087], [-8.66141, 41.458443], [-8.650361, 41.465375], [-8.646124, 41.47437], [-8.64843, 41.483384], [-8.662786, 41.492435]]], [[[-8.331424, 41.338553], [-8.323928, 41.346822], [-8.316889, 41.364796], [-8.318388, 41.38282], [-8.323, 41.391854], [-8.333035, 41.400921], [-8.3506, 41.407812], [-8.362547, 41.409529], [-8.386486, 41.408546], [-8.398482, 41.405078], [-8.405257, 41.401317], [-8.41464, 41.392357], [-8.419452, 41.383374], [-8.421041, 41.365367], [-8.418322, 41.356345], [-8.410983, 41.345613], [-8.399121, 41.33569], [-8.382164, 41.328744], [-8.380382, 41.331254], [-8.377097, 41.331261], [-8.37201, 41.328346], [-8.361563, 41.329718], [-8.358276, 41.329049], [-8.357673, 41.327249], [-8.353493, 41.327629], [-8.344843, 41.330447], [-8.342462, 41.333131], [-8.334905, 41.335846], [-8.331727, 41.338288], [-8.331683, 41.338327], [-8.33143, 41.338548], [-8.331424, 41.338553]]], [[[-8.625862, 41.393563], [-8.637819, 41.3945], [-8.64979, 41.392642], [-8.661781, 41.386985], [-8.670802, 41.37536], [-8.672107, 41.366356], [-8.669772, 41.357342], [-8.661989, 41.346825], [-8.650082, 41.338282], [-8.638154, 41.33394], [-8.626212, 41.332366], [-8.614255, 41.333481], [-8.59977, 41.339104], [-8.590364, 41.348079], [-8.58655, 41.357073], [-8.587287, 41.366083], [-8.592154, 41.375108], [-8.602058, 41.38415], [-8.613919, 41.39033], [-8.625862, 41.393563]], [[-8.626003, 41.368888], [-8.622405, 41.366204], [-8.621579, 41.357193], [-8.626091, 41.353633], [-8.638047, 41.353246], [-8.643382, 41.357263], [-8.642754, 41.366269], [-8.637957, 41.369572], [-8.626003, 41.368888]]]]}}, {"id": "5", "type": "Feature", "properties": {"fill": "#b6a27f", "value_min": -1.25, "value_max": -1.0}, "geometry": {"type": "MultiPolygon", "coordinates": [[[[-8.011454, 41.834748], [-7.997199, 41.824652], [-7.985246, 41.819008], [-7.973261, 41.815545], [-7.93718, 41.813217], [-7.925186, 41.810557], [-7.899019, 41.793899], [-7.889406, 41.791018], [-7.877394, 41.789702], [-7.845014, 41.793368], [-7.817005, 41.801406], [-7.804929, 41.803474], [-7.780804, 41.806133], [-7.744557, 41.812964], [-7.728176, 41.814081], [-7.72995, 41.819031], [-7.734444, 41.822271], [-7.768515, 41.819215], [-7.816586, 41.824163], [-7.828764, 41.81662], [-7.831868, 41.811249], [-7.842316, 41.802348], [-7.853187, 41.797421], [-7.865279, 41.794256], [-7.877317, 41.794139], [-7.889293, 41.797591], [-7.897756, 41.802893], [-7.904221, 41.811962], [-7.906903, 41.820994], [-7.906503, 41.829997], [-7.901822, 41.838959], [-7.892532, 41.847877], [-7.882053, 41.853897], [-7.888076, 41.855486], [-7.891675, 41.859094], [-7.898893, 41.86136], [-7.902203, 41.861591], [-7.904318, 41.859795], [-7.907309, 41.865203], [-7.906095, 41.868126], [-7.910299, 41.871285], [-7.909985, 41.875111], [-7.915391, 41.879397], [-7.921118, 41.877833], [-7.928044, 41.87807], [-7.935283, 41.874707], [-7.937389, 41.87516], [-7.941618, 41.870891], [-7.951254, 41.871132], [-7.956367, 41.87339], [-7.956362, 41.875191], [-7.960878, 41.875648], [-7.962086, 41.874074], [-7.973828, 41.875216], [-7.987996, 41.869157], [-7.990123, 41.860157], [-7.995547, 41.858138], [-7.994047, 41.855211], [-7.996765, 41.851162], [-8.00339, 41.85027], [-8.007618, 41.843072], [-8.007928, 41.838796], [-8.011454, 41.834748]], [[-7.948517, 41.856181], [-7.936527, 41.852699], [-7.931203, 41.848243], [-7.929791, 41.839223], [-7.94197, 41.830329], [-7.948964, 41.828888], [-7.960956, 41.831976], [-7.967549, 41.839569], [-7.965514, 41.848557], [-7.960614, 41.853101], [-7.948517, 41.856181]]], [[[-8.338618, 41.762149], [-8.337679, 41.752231], [-8.330302, 41.734174], [-8.322768, 41.725123], [-8.311435, 41.716749], [-8.299466, 41.71187], [-8.287459, 41.710622], [-8.275416, 41.712662], [-8.263336, 41.717842], [-8.226995, 41.740913], [-8.214959, 41.741735], [-8.202998, 41.736428], [-8.173766, 41.715141], [-8.169227, 41.706101], [-8.164533, 41.688053], [-8.161827, 41.661012], [-8.155992, 41.652834], [-8.132024, 41.649001], [-8.120095, 41.642686], [-8.117406, 41.633658], [-8.123624, 41.624699], [-8.132455, 41.61689], [-8.136024, 41.615785], [-8.14408, 41.606839], [-8.142157, 41.597817], [-8.128556, 41.588708], [-8.096941, 41.581433], [-8.072956, 41.580882], [-8.052181, 41.585219], [-8.052777, 41.587649], [-8.048277, 41.590122], [-8.047974, 41.592373], [-8.033877, 41.60114], [-8.03236, 41.605952], [-8.034524, 41.614978], [-8.054179, 41.642162], [-8.056395, 41.651188], [-8.054827, 41.660182], [-8.047623, 41.672032], [-8.035464, 41.68183], [-8.025825, 41.686961], [-8.018209, 41.695903], [-8.019974, 41.704925], [-8.027605, 41.713997], [-8.049552, 41.732194], [-8.05791, 41.74127], [-8.093994, 41.791841], [-8.105871, 41.803213], [-8.118391, 41.811856], [-8.123807, 41.808702], [-8.138247, 41.808477], [-8.139751, 41.813203], [-8.14276, 41.812978], [-8.144866, 41.815228], [-8.149078, 41.814777], [-8.153893, 41.817928], [-8.165326, 41.81815], [-8.173744, 41.808019], [-8.177054, 41.808017], [-8.182773, 41.812516], [-8.190291, 41.809587], [-8.197158, 41.814129], [-8.201063, 41.808724], [-8.204973, 41.807372], [-8.205872, 41.804445], [-8.213692, 41.803765], [-8.217598, 41.80016], [-8.217589, 41.793634], [-8.224207, 41.794303], [-8.229917, 41.791598], [-8.240744, 41.791588], [-8.24074, 41.789338], [-8.244347, 41.787984], [-8.245546, 41.785731], [-8.251257, 41.784375], [-8.251845, 41.777172], [-8.257342, 41.77379], [-8.252382, 41.769721], [-8.247598, 41.760683], [-8.247307, 41.751674], [-8.251328, 41.742693], [-8.25913, 41.733737], [-8.275274, 41.725343], [-8.287316, 41.723623], [-8.299316, 41.72567], [-8.31127, 41.7322], [-8.319723, 41.743119], [-8.321763, 41.752138], [-8.319813, 41.76206], [-8.325233, 41.765098], [-8.328234, 41.763292], [-8.336653, 41.763728], [-8.338618, 41.762149]], [[-8.16203, 41.742077], [-8.166889, 41.739067], [-8.175383, 41.742173], [-8.166779, 41.747598], [-8.16203, 41.742077]], [[-8.130926, 41.730613], [-8.118899, 41.730839], [-8.082931, 41.723574], [-8.058905, 41.722222], [-8.046931, 41.718923], [-8.040272, 41.714103], [-8.033689, 41.705041], [-8.03615, 41.696055], [-8.056551, 41.67821], [-8.071873, 41.656442], [-8.083977, 41.649869], [-8.095979, 41.650376], [-8.117622, 41.660681], [-8.130162, 41.669784], [-8.14354, 41.686239], [-8.152117, 41.705976], [-8.15215, 41.714983], [-8.142998, 41.727025], [-8.130926, 41.730613]], [[-8.084214, 41.633136], [-8.072288, 41.627539], [-8.065892, 41.615237], [-8.069589, 41.60626], [-8.072629, 41.603774], [-8.084694, 41.599147], [-8.096678, 41.600313], [-8.105774, 41.606547], [-8.108343, 41.615574], [-8.10328, 41.624542], [-8.096247, 41.631203], [-8.084214, 41.633136]]], [[[-7.822805, 41.711057], [-7.830576, 41.71694], [-7.841524, 41.721278], [-7.854548, 41.720955], [-7.866714, 41.712768], [-7.86945, 41.703543], [-7.867039, 41.694233], [-7.858981, 41.687924], [-7.857773, 41.689538], [-7.854776, 41.68818], [-7.848141, 41.694916], [-7.843026, 41.697089], [-7.854994, 41.695779], [-7.862383, 41.703473], [-7.859218, 41.712449], [-7.854644, 41.715544], [-7.84265, 41.713992], [-7.839448, 41.712251], [-7.838467, 41.709039], [-7.832453, 41.710407], [-7.825252, 41.708813], [-7.822805, 41.711057]]], [[[-7.838408, 41.708847], [-7.838408, 41.708847], [-7.838271, 41.708396], [-7.838408, 41.708847]]], [[[-7.836688, 41.703216], [-7.842895, 41.697154], [-7.837309, 41.699391], [-7.836688, 41.703216]]], [[[-8.44489, 41.574864], [-8.456887, 41.574703], [-8.468905, 41.571854], [-8.480959, 41.564433], [-8.490343, 41.554851], [-8.495875, 41.545868], [-8.497106, 41.536866], [-8.490737, 41.527831], [-8.472059, 41.51874], [-8.457459, 41.506264], [-8.443601, 41.500591], [-8.44697, 41.482592], [-8.441904, 41.47356], [-8.433819, 41.468985], [-8.421844, 41.468847], [-8.414766, 41.473425], [-8.409698, 41.482407], [-8.414759, 41.49144], [-8.42158, 41.49856], [-8.428904, 41.500519], [-8.423913, 41.509501], [-8.407374, 41.527432], [-8.402651, 41.536415], [-8.401093, 41.545414], [-8.403225, 41.554432], [-8.411057, 41.56348], [-8.420951, 41.569115], [-8.431104, 41.572588], [-8.44489, 41.574864]], [[-8.444955, 41.567301], [-8.432324, 41.563587], [-8.420806, 41.554522], [-8.416951, 41.545495], [-8.418577, 41.536496], [-8.425552, 41.527524], [-8.433354, 41.52237], [-8.445362, 41.51967], [-8.457335, 41.521046], [-8.470742, 41.527741], [-8.481678, 41.536798], [-8.484035, 41.545816], [-8.479388, 41.554802], [-8.468975, 41.563257], [-8.456949, 41.567295], [-8.444955, 41.567301]]], [[[-8.072051, 41.49297], [-8.098065, 41.500595], [-8.157873, 41.50823], [-8.1703, 41.516958], [-8.185764, 41.544091], [-8.193252, 41.554033], [-8.205138, 41.56259], [-8.217078, 41.56698], [-8.229056, 41.568265], [-8.241058, 41.56762], [-8.253082, 41.564976], [-8.265128, 41.560294], [-8.277212, 41.552077], [-8.283635, 41.544742], [-8.288297, 41.535764], [-8.290329, 41.517762], [-8.286055, 41.499721], [-8.28187, 41.490687], [-8.277971, 41.483895], [-8.266137, 41.471055], [-8.254239, 41.464242], [-8.242308, 41.460524], [-8.230353, 41.458897], [-8.194454, 41.457143], [-8.182526, 41.453488], [-8.134943, 41.430351], [-8.111084, 41.424652], [-8.099129, 41.423754], [-8.078443, 41.426185], [-8.063113, 41.431703], [-8.05655, 41.435881], [-8.057743, 41.438645], [-8.061033, 41.438872], [-8.064916, 41.444052], [-8.067908, 41.444279], [-8.069999, 41.447206], [-8.068788, 41.462286], [-8.073872, 41.46499], [-8.074164, 41.473543], [-8.066374, 41.482318], [-8.066069, 41.48817], [-8.072054, 41.490199], [-8.072051, 41.49297]], [[-8.235402, 41.544432], [-8.217401, 41.540181], [-8.205516, 41.531748], [-8.195406, 41.517137], [-8.193017, 41.508113], [-8.19291, 41.499105], [-8.196196, 41.49012], [-8.206378, 41.481184], [-8.218175, 41.475937], [-8.230178, 41.473703], [-8.242153, 41.473853], [-8.254098, 41.476578], [-8.265997, 41.483467], [-8.277805, 41.498823], [-8.280724, 41.508695], [-8.280559, 41.517701], [-8.277213, 41.526687], [-8.265373, 41.538706], [-8.253329, 41.54352], [-8.241322, 41.545035], [-8.235402, 41.544432]], [[-8.122037, 41.499901], [-8.110068, 41.49898], [-8.098137, 41.495398], [-8.085775, 41.489296], [-8.077831, 41.480225], [-8.07624, 41.471205], [-8.079066, 41.46222], [-8.086733, 41.454353], [-8.098788, 41.44842], [-8.110786, 41.446484], [-8.122748, 41.447169], [-8.134676, 41.450482], [-8.14656, 41.457214], [-8.153105, 41.462789], [-8.158216, 41.471834], [-8.158994, 41.480847], [-8.154166, 41.489819], [-8.13457, 41.49868], [-8.122037, 41.499901]]], [[[-8.626003, 41.368888], [-8.637957, 41.369572], [-8.642754, 41.366269], [-8.643382, 41.357263], [-8.638047, 41.353246], [-8.626091, 41.353633], [-8.621579, 41.357193], [-8.622405, 41.366204], [-8.626003, 41.368888]]]]}}, {"id": "2", "type": "Feature", "properties": {"fill": "#c93e18", "value_min": -2.0, "value_max": -1.75}, "geometry": {"type": "MultiPolygon", "coordinates": [[[[-7.796395, 41.878438], [-7.796437, 41.878361], [-7.796517, 41.878213], [-7.796741, 41.877798], [-7.794349, 41.87438], [-7.798821, 41.873943], [-7.800164, 41.864962], [-7.798325, 41.855936], [-7.792068, 41.846864], [-7.780192, 41.83836], [-7.768224, 41.834404], [-7.756201, 41.833385], [-7.743485, 41.834833], [-7.74729, 41.837772], [-7.746365, 41.8414], [-7.756075, 41.839887], [-7.768086, 41.841577], [-7.778628, 41.846722], [-7.78607, 41.855807], [-7.787429, 41.864828], [-7.784036, 41.873799], [-7.773427, 41.882693], [-7.767239, 41.885708], [-7.75515, 41.88758], [-7.748503, 41.886655], [-7.750001, 41.887971], [-7.756022, 41.888441], [-7.758719, 41.890926], [-7.756592, 41.89407], [-7.758076, 41.897901], [-7.764097, 41.898595], [-7.779227, 41.886264], [-7.785257, 41.885157], [-7.788886, 41.882467], [-7.794007, 41.882257], [-7.796395, 41.878438]]], [[[-7.748213, 41.886615], [-7.748213, 41.886615], [-7.748202, 41.886613], [-7.748213, 41.886615]]], [[[-7.746555, 41.886384], [-7.746555, 41.886384], [-7.745795, 41.886279], [-7.746555, 41.886384]]], [[[-7.74324, 41.885923], [-7.735335, 41.88228], [-7.728088, 41.876089], [-7.720533, 41.880218], [-7.720523, 41.881793], [-7.725335, 41.882935], [-7.726208, 41.887665], [-7.737044, 41.888828], [-7.739741, 41.891088], [-7.74246, 41.889747], [-7.741573, 41.887043], [-7.74324, 41.885923]]], [[[-7.883774, 41.811765], [-7.877133, 41.804696], [-7.86509, 41.804942], [-7.858129, 41.811513], [-7.862469, 41.820563], [-7.864788, 41.822098], [-7.876827, 41.822184], [-7.883774, 41.811765]]], [[[-8.095655, 41.673494], [-8.083634, 41.674053], [-8.079992, 41.6784], [-8.0835, 41.683501], [-8.095509, 41.683958], [-8.100022, 41.678559], [-8.095655, 41.673494]]], [[[-8.467814, 41.545742], [-8.463767, 41.536716], [-8.457235, 41.533109], [-8.445241, 41.533836], [-8.440733, 41.536606], [-8.437661, 41.545599], [-8.445074, 41.553338], [-8.457053, 41.554786], [-8.467814, 41.545742]], [[-8.452704, 41.545671], [-8.45715, 41.543288], [-8.458265, 41.545697], [-8.457121, 41.546661], [-8.452704, 41.545671]]], [[[-8.264541, 41.508592], [-8.260747, 41.499561], [-8.253898, 41.494021], [-8.241949, 41.491365], [-8.22993, 41.494657], [-8.224057, 41.499319], [-8.220824, 41.508304], [-8.224661, 41.517338], [-8.229614, 41.52134], [-8.241556, 41.524999], [-8.253566, 41.522906], [-8.260631, 41.517575], [-8.264541, 41.508592]], [[-8.24167, 41.515283], [-8.234115, 41.508394], [-8.241844, 41.500349], [-8.254382, 41.508527], [-8.24167, 41.515283]]], [[[-8.122367, 41.475441], [-8.110396, 41.475033], [-8.106118, 41.480448], [-8.110243, 41.486227], [-8.122222, 41.486211], [-8.126329, 41.480603], [-8.122367, 41.475441]]]]}}, {"id": "3", "type": "Feature", "properties": {"fill": "#e57b10", "value_min": -1.75, "value_max": -1.5}, "geometry": {"type": "MultiPolygon", "coordinates": [[[[-7.817006, 41.873319], [-7.814602, 41.856106], [-7.809512, 41.847046], [-7.799187, 41.837932], [-7.780359, 41.829548], [-7.76836, 41.827287], [-7.756326, 41.826923], [-7.73944, 41.828967], [-7.743485, 41.834833], [-7.756201, 41.833385], [-7.768224, 41.834404], [-7.780192, 41.83836], [-7.792068, 41.846864], [-7.798325, 41.855936], [-7.800164, 41.864962], [-7.798821, 41.873943], [-7.803381, 41.874857], [-7.804914, 41.869459], [-7.813032, 41.871958], [-7.814229, 41.873537], [-7.817006, 41.873319]]], [[[-7.796741, 41.877798], [-7.796741, 41.877798], [-7.796517, 41.878213], [-7.796741, 41.877798]]], [[[-7.796437, 41.878361], [-7.796437, 41.878361], [-7.796395, 41.878438], [-7.796437, 41.878361]]], [[[-7.888803, 41.825971], [-7.892577, 41.820857], [-7.893613, 41.81186], [-7.886636, 41.802786], [-7.877234, 41.79886], [-7.865197, 41.798913], [-7.855133, 41.802476], [-7.84666, 41.811398], [-7.846276, 41.820401], [-7.852627, 41.828819], [-7.864578, 41.83398], [-7.876634, 41.833244], [-7.888803, 41.825971]], [[-7.883774, 41.811765], [-7.876827, 41.822184], [-7.864788, 41.822098], [-7.862469, 41.820563], [-7.858129, 41.811513], [-7.86509, 41.804942], [-7.877133, 41.804696], [-7.883774, 41.811765]]], [[[-8.303317, 41.758606], [-8.306998, 41.75205], [-8.304946, 41.74303], [-8.299186, 41.737637], [-8.287207, 41.733486], [-8.275156, 41.735838], [-8.266207, 41.742789], [-8.263472, 41.751779], [-8.268535, 41.760818], [-8.275272, 41.765284], [-8.280681, 41.764083], [-8.284038, 41.761109], [-8.284931, 41.757507], [-8.287033, 41.756829], [-8.303317, 41.758606]]], [[[-8.05916, 41.704735], [-8.047135, 41.705137], [-8.047125, 41.705153], [-8.059147, 41.705606], [-8.05916, 41.704735]]], [[[-8.112862, 41.678659], [-8.107421, 41.669609], [-8.095797, 41.663366], [-8.083782, 41.663638], [-8.074674, 41.66935], [-8.069389, 41.678315], [-8.071696, 41.687341], [-8.08333, 41.695438], [-8.095344, 41.69568], [-8.107448, 41.689452], [-8.112862, 41.678659]], [[-8.095655, 41.673494], [-8.100022, 41.678559], [-8.095509, 41.683958], [-8.0835, 41.683501], [-8.079992, 41.6784], [-8.083634, 41.674053], [-8.095655, 41.673494]]], [[[-8.475618, 41.545778], [-8.472965, 41.536758], [-8.469217, 41.533774], [-8.457279, 41.527802], [-8.445297, 41.527239], [-8.433257, 41.53342], [-8.430108, 41.536554], [-8.427994, 41.545551], [-8.433422, 41.554585], [-8.445014, 41.560365], [-8.457003, 41.560776], [-8.469038, 41.555585], [-8.475618, 41.545778]], [[-8.467814, 41.545742], [-8.457053, 41.554786], [-8.445074, 41.553338], [-8.437661, 41.545599], [-8.440733, 41.536606], [-8.445241, 41.533836], [-8.457235, 41.533109], [-8.463767, 41.536716], [-8.467814, 41.545742]]], [[[-8.265524, 41.525324], [-8.271092, 41.517641], [-8.272728, 41.508644], [-8.27013, 41.499621], [-8.261941, 41.490561], [-8.253993, 41.485689], [-8.242043, 41.483299], [-8.23005, 41.484551], [-8.218168, 41.490272], [-8.210486, 41.499227], [-8.208739, 41.508222], [-8.211188, 41.517246], [-8.219364, 41.526309], [-8.22949, 41.531802], [-8.241454, 41.533789], [-8.253459, 41.532234], [-8.265524, 41.525324]], [[-8.264541, 41.508592], [-8.260631, 41.517575], [-8.253566, 41.522906], [-8.241556, 41.524999], [-8.229614, 41.52134], [-8.224661, 41.517338], [-8.220824, 41.508304], [-8.224057, 41.499319], [-8.22993, 41.494657], [-8.241949, 41.491365], [-8.253898, 41.494021], [-8.260747, 41.499561], [-8.264541, 41.508592]]], [[[-8.141237, 41.480716], [-8.138925, 41.471691], [-8.134455, 41.467092], [-8.122557, 41.461384], [-8.110587, 41.461062], [-8.098541, 41.466262], [-8.093832, 41.471345], [-8.092183, 41.480339], [-8.098399, 41.489395], [-8.110137, 41.493934], [-8.122109, 41.494542], [-8.135836, 41.489683], [-8.141237, 41.480716]], [[-8.122367, 41.475441], [-8.126329, 41.480603], [-8.122222, 41.486211], [-8.110243, 41.486227], [-8.106118, 41.480448], [-8.110396, 41.475033], [-8.122367, 41.475441]]]]}}, {"id": "1", "type": "Feature", "properties": {"fill": "#b11c1c", "value_min": -2.25, "value_max": -2.0}, "geometry": {"type": "MultiPolygon", "coordinates": [[[[-7.748503, 41.886655], [-7.75515, 41.88758], [-7.767239, 41.885708], [-7.773427, 41.882693], [-7.784036, 41.873799], [-7.787429, 41.864828], [-7.78607, 41.855807], [-7.778628, 41.846722], [-7.768086, 41.841577], [-7.756075, 41.839887], [-7.746365, 41.8414], [-7.746349, 41.84407], [-7.750246, 41.846784], [-7.750534, 41.848914], [-7.755937, 41.84698], [-7.767916, 41.850438], [-7.77367, 41.855676], [-7.774547, 41.864692], [-7.767484, 41.872949], [-7.755381, 41.875665], [-7.746941, 41.8734], [-7.743406, 41.87179], [-7.737733, 41.864293], [-7.738295, 41.860699], [-7.728088, 41.876089], [-7.735335, 41.88228], [-7.74324, 41.885923], [-7.745795, 41.886279], [-7.746555, 41.886384], [-7.748202, 41.886613], [-7.748213, 41.886615], [-7.748503, 41.886655]]], [[[-7.738426, 41.859855], [-7.738426, 41.859855], [-7.738506, 41.859349], [-7.738426, 41.859855]]], [[[-7.74521, 41.850819], [-7.749629, 41.849237], [-7.743309, 41.849012], [-7.74521, 41.850819]]], [[[-8.452704, 41.545671], [-8.457121, 41.546661], [-8.458265, 41.545697], [-8.45715, 41.543288], [-8.452704, 41.545671]]], [[[-8.24167, 41.515283], [-8.254382, 41.508527], [-8.241844, 41.500349], [-8.234115, 41.508394], [-8.24167, 41.515283]]]]}}, {"id": "4", "type": "Feature", "properties": {"fill": "#e19f31", "value_min": -1.5, "value_max": -1.25}, "geometry": {"type": "MultiPolygon", "coordinates": [[[[-7.882053, 41.853897], [-7.892532, 41.847877], [-7.901822, 41.838959], [-7.906503, 41.829997], [-7.906903, 41.820994], [-7.904221, 41.811962], [-7.897756, 41.802893], [-7.889293, 41.797591], [-7.877317, 41.794139], [-7.865279, 41.794256], [-7.853187, 41.797421], [-7.842316, 41.802348], [-7.831868, 41.811249], [-7.828764, 41.81662], [-7.816586, 41.824163], [-7.768515, 41.819215], [-7.734444, 41.822271], [-7.743152, 41.825154], [-7.742839, 41.827178], [-7.73944, 41.828967], [-7.756326, 41.826923], [-7.76836, 41.827287], [-7.780359, 41.829548], [-7.799187, 41.837932], [-7.809512, 41.847046], [-7.814602, 41.856106], [-7.817006, 41.873319], [-7.823863, 41.874013], [-7.825059, 41.875817], [-7.830479, 41.875831], [-7.830789, 41.874031], [-7.832894, 41.874712], [-7.838021, 41.872924], [-7.842528, 41.875187], [-7.841663, 41.866632], [-7.849515, 41.861475], [-7.858542, 41.862622], [-7.859456, 41.860148], [-7.864877, 41.859711], [-7.87033, 41.851395], [-7.873043, 41.850501], [-7.873066, 41.844875], [-7.879056, 41.85254], [-7.882053, 41.853897]], [[-7.888803, 41.825971], [-7.876634, 41.833244], [-7.864578, 41.83398], [-7.852627, 41.828819], [-7.846276, 41.820401], [-7.84666, 41.811398], [-7.855133, 41.802476], [-7.865197, 41.798913], [-7.877234, 41.79886], [-7.886636, 41.802786], [-7.893613, 41.81186], [-7.892577, 41.820857], [-7.888803, 41.825971]]], [[[-7.948517, 41.856181], [-7.960614, 41.853101], [-7.965514, 41.848557], [-7.967549, 41.839569], [-7.960956, 41.831976], [-7.948964, 41.828888], [-7.94197, 41.830329], [-7.929791, 41.839223], [-7.931203, 41.848243], [-7.936527, 41.852699], [-7.948517, 41.856181]]], [[[-8.319813, 41.76206], [-8.321763, 41.752138], [-8.319723, 41.743119], [-8.31127, 41.7322], [-8.299316, 41.72567], [-8.287316, 41.723623], [-8.275274, 41.725343], [-8.25913, 41.733737], [-8.251328, 41.742693], [-8.247307, 41.751674], [-8.247598, 41.760683], [-8.252382, 41.769721], [-8.257342, 41.77379], [-8.261762, 41.774235], [-8.269568, 41.76905], [-8.269565, 41.767474], [-8.275272, 41.765284], [-8.268535, 41.760818], [-8.263472, 41.751779], [-8.266207, 41.742789], [-8.275156, 41.735838], [-8.287207, 41.733486], [-8.299186, 41.737637], [-8.304946, 41.74303], [-8.306998, 41.75205], [-8.303317, 41.758606], [-8.30778, 41.758824], [-8.307785, 41.760625], [-8.311096, 41.762195], [-8.319813, 41.76206]]], [[[-8.16203, 41.742077], [-8.166779, 41.747598], [-8.175383, 41.742173], [-8.166889, 41.739067], [-8.16203, 41.742077]]], [[[-8.130926, 41.730613], [-8.142998, 41.727025], [-8.15215, 41.714983], [-8.152117, 41.705976], [-8.14354, 41.686239], [-8.130162, 41.669784], [-8.117622, 41.660681], [-8.095979, 41.650376], [-8.083977, 41.649869], [-8.071873, 41.656442], [-8.056551, 41.67821], [-8.03615, 41.696055], [-8.033689, 41.705041], [-8.040272, 41.714103], [-8.046931, 41.718923], [-8.058905, 41.722222], [-8.082931, 41.723574], [-8.118899, 41.730839], [-8.130926, 41.730613]], [[-8.05916, 41.704735], [-8.059147, 41.705606], [-8.047125, 41.705153], [-8.047135, 41.705137], [-8.05916, 41.704735]], [[-8.112862, 41.678659], [-8.107448, 41.689452], [-8.095344, 41.69568], [-8.08333, 41.695438], [-8.071696, 41.687341], [-8.069389, 41.678315], [-8.074674, 41.66935], [-8.083782, 41.663638], [-8.095797, 41.663366], [-8.107421, 41.669609], [-8.112862, 41.678659]]], [[[-7.838467, 41.709039], [-7.839448, 41.712251], [-7.84265, 41.713992], [-7.854644, 41.715544], [-7.859218, 41.712449], [-7.862383, 41.703473], [-7.854994, 41.695779], [-7.843026, 41.697089], [-7.842895, 41.697154], [-7.836688, 41.703216], [-7.839682, 41.705924], [-7.838271, 41.708396], [-7.838408, 41.708847], [-7.838467, 41.709039]]], [[[-8.084214, 41.633136], [-8.096247, 41.631203], [-8.10328, 41.624542], [-8.108343, 41.615574], [-8.105774, 41.606547], [-8.096678, 41.600313], [-8.084694, 41.599147], [-8.072629, 41.603774], [-8.069589, 41.60626], [-8.065892, 41.615237], [-8.072288, 41.627539], [-8.084214, 41.633136]]], [[[-8.444955, 41.567301], [-8.456949, 41.567295], [-8.468975, 41.563257], [-8.479388, 41.554802], [-8.484035, 41.545816], [-8.481678, 41.536798], [-8.470742, 41.527741], [-8.457335, 41.521046], [-8.445362, 41.51967], [-8.433354, 41.52237], [-8.425552, 41.527524], [-8.418577, 41.536496], [-8.416951, 41.545495], [-8.420806, 41.554522], [-8.432324, 41.563587], [-8.444955, 41.567301]], [[-8.475618, 41.545778], [-8.469038, 41.555585], [-8.457003, 41.560776], [-8.445014, 41.560365], [-8.433422, 41.554585], [-8.427994, 41.545551], [-8.430108, 41.536554], [-8.433257, 41.53342], [-8.445297, 41.527239], [-8.457279, 41.527802], [-8.469217, 41.533774], [-8.472965, 41.536758], [-8.475618, 41.545778]]], [[[-8.235402, 41.544432], [-8.241322, 41.545035], [-8.253329, 41.54352], [-8.265373, 41.538706], [-8.277213, 41.526687], [-8.280559, 41.517701], [-8.280724, 41.508695], [-8.277805, 41.498823], [-8.265997, 41.483467], [-8.254098, 41.476578], [-8.242153, 41.473853], [-8.230178, 41.473703], [-8.218175, 41.475937], [-8.206378, 41.481184], [-8.196196, 41.49012], [-8.19291, 41.499105], [-8.193017, 41.508113], [-8.195406, 41.517137], [-8.205516, 41.531748], [-8.217401, 41.540181], [-8.235402, 41.544432]], [[-8.265524, 41.525324], [-8.253459, 41.532234], [-8.241454, 41.533789], [-8.22949, 41.531802], [-8.219364, 41.526309], [-8.211188, 41.517246], [-8.208739, 41.508222], [-8.210486, 41.499227], [-8.218168, 41.490272], [-8.23005, 41.484551], [-8.242043, 41.483299], [-8.253993, 41.485689], [-8.261941, 41.490561], [-8.27013, 41.499621], [-8.272728, 41.508644], [-8.271092, 41.517641], [-8.265524, 41.525324]]], [[[-8.122037, 41.499901], [-8.13457, 41.49868], [-8.154166, 41.489819], [-8.158994, 41.480847], [-8.158216, 41.471834], [-8.153105, 41.462789], [-8.14656, 41.457214], [-8.134676, 41.450482], [-8.122748, 41.447169], [-8.110786, 41.446484], [-8.098788, 41.44842], [-8.086733, 41.454353], [-8.079066, 41.46222], [-8.07624, 41.471205], [-8.077831, 41.480225], [-8.085775, 41.489296], [-8.098137, 41.495398], [-8.110068, 41.49898], [-8.122037, 41.499901]], [[-8.141237, 41.480716], [-8.135836, 41.489683], [-8.122109, 41.494542], [-8.110137, 41.493934], [-8.098399, 41.489395], [-8.092183, 41.480339], [-8.093832, 41.471345], [-8.098541, 41.466262], [-8.110587, 41.461062], [-8.122557, 41.461384], [-8.134455, 41.467092], [-8.138925, 41.471691], [-8.141237, 41.480716]]]]}}, {"id": "0", "type": "Feature", "properties": {"fill": "#a21c1c", "value_min": -2.5, "value_max": -2.25}, "geometry": {"type": "Polygon", "coordinates": [[[-7.738295, 41.860699], [-7.737733, 41.864293], [-7.743406, 41.87179], [-7.746941, 41.8734], [-7.755381, 41.875665], [-7.767484, 41.872949], [-7.774547, 41.864692], [-7.77367, 41.855676], [-7.767916, 41.850438], [-7.755937, 41.84698], [-7.750534, 41.848914], [-7.749629, 41.849237], [-7.74521, 41.850819], [-7.746881, 41.855776], [-7.738506, 41.859349], [-7.738426, 41.859855], [-7.738295, 41.860699]]]}}]}