{"type": "FeatureCollection", "features": [{"id": "8", "type": "Feature", "properties": {"fill": "#a3a3a3", "value_min": 0.25, "value_max": -0.5}, "geometry": {"type": "MultiPolygon", "coordinates": [[[[-8.361612, 41.505002], [-8.366436, 41.500191], [-8.370733, 41.491208], [-8.370773, 41.4822], [-8.366836, 41.473171], [-8.361978, 41.46766], [-8.350066, 41.461276], [-8.338108, 41.459754], [-8.326108, 41.462242], [-8.314046, 41.470579], [-8.308593, 41.481843], [-8.309288, 41.490855], [-8.314151, 41.499891], [-8.325627, 41.508681], [-8.337577, 41.511917], [-8.349571, 41.510836], [-8.361612, 41.505002]], [[-8.337654, 41.504341], [-8.325719, 41.499766], [-8.318965, 41.490913], [-8.318842, 41.481905], [-8.325999, 41.472745], [-8.338018, 41.468564], [-8.349979, 41.469996], [-8.355043, 41.473106], [-8.362926, 41.482157], [-8.362975, 41.491165], [-8.35514, 41.500129], [-8.349647, 41.503236], [-8.337654, 41.504341]]], [[[-8.745769, 41.319426], [-8.755541, 41.312517], [-8.761806, 41.303523], [-8.763734, 41.294519], [-8.761946, 41.285507], [-8.755779, 41.276487], [-8.745963, 41.269436], [-8.734041, 41.26506], [-8.722109, 41.263639], [-8.710166, 41.264665], [-8.698211, 41.26847], [-8.686556, 41.276319], [-8.680509, 41.28531], [-8.678978, 41.294314], [-8.681397, 41.303328], [-8.688476, 41.312355], [-8.697978, 41.31897], [-8.709906, 41.323502], [-8.721849, 41.32497], [-8.733803, 41.323778], [-8.745769, 41.319426]], [[-8.709976, 41.307672], [-8.702976, 41.303386], [-8.69887, 41.294367], [-8.705993, 41.285378], [-8.710084, 41.283212], [-8.722028, 41.282796], [-8.728199, 41.285433], [-8.735262, 41.294457], [-8.731779, 41.303457], [-8.721919, 41.30832], [-8.709976, 41.307672]]]]}}, {"id": "9", "type": "Feature", "properties": {"fill": "#a3a3a3", "value_min": 0.5, "value_max": -0.75}, "geometry": {"type": "MultiPolygon", "coordinates": [[[[-8.337654, 41.504341], [-8.349647, 41.503236], [-8.35514, 41.500129], [-8.362975, 41.491165], [-8.362926, 41.482157], [-8.355043, 41.473106], [-8.349979, 41.469996], [-8.338018, 41.468564], [-8.325999, 41.472745], [-8.318842, 41.481905], [-8.318965, 41.490913], [-8.325719, 41.499766], [-8.337654, 41.504341]], [[-8.337735, 41.49635], [-8.32974, 41.490976], [-8.330225, 41.481971], [-8.337931, 41.477163], [-8.349889, 41.478994], [-8.353136, 41.482103], [-8.353457, 41.491112], [-8.349733, 41.49466], [-8.337735, 41.49635]]], [[[-8.709976, 41.307672], [-8.721919, 41.30832], [-8.731779, 41.303457], [-8.735262, 41.294457], [-8.728199, 41.285433], [-8.722028, 41.282796], [-8.710084, 41.283212], [-8.705993, 41.285378], [-8.69887, 41.294367], [-8.702976, 41.303386], [-8.709976, 41.307672]]]]}}, {"id": "6", "type": "Feature", "properties": {"fill": "#a3a3a3", "value_min": -0.25, "value_max": -0.0}, "geometry": {"type": "MultiPolygon", "coordinates": [[[[-7.877434, 41.757662], [-7.86608, 41.748794], [-7.853989, 41.752359], [-7.849507, 41.757386], [-7.853744, 41.766149], [-7.865731, 41.768628], [-7.871102, 41.766607], [-7.877434, 41.757662]]], [[[-8.033782, 41.74107], [-8.033549, 41.732061], [-8.022863, 41.720554], [-8.0109, 41.71671], [-7.998851, 41.718462], [-7.992425, 41.722701], [-7.987857, 41.731668], [-7.99018, 41.740695], [-7.99838, 41.748794], [-8.01034, 41.753174], [-8.022392, 41.751638], [-8.033782, 41.74107]], [[-8.009101, 41.74086], [-8.003185, 41.731802], [-8.01073, 41.727798], [-8.018526, 41.731934], [-8.012263, 41.740887], [-8.009101, 41.74086]]], [[[-8.444369, 41.70699], [-8.431797, 41.7], [-8.419793, 41.698343], [-8.407755, 41.700553], [-8.394961, 41.707511], [-8.388994, 41.716487], [-8.389071, 41.725494], [-8.392006, 41.730304], [-8.398141, 41.72984], [-8.400531, 41.726683], [-8.402934, 41.726452], [-8.404721, 41.722847], [-8.417349, 41.725067], [-8.422737, 41.720552], [-8.429643, 41.719859], [-8.430533, 41.717381], [-8.435927, 41.714441], [-8.441632, 41.713975], [-8.444369, 41.70699]]], [[[-8.148628, 41.70595], [-8.143315, 41.703156], [-8.131278, 41.704474], [-8.126206, 41.714789], [-8.131051, 41.721349], [-8.143073, 41.721359], [-8.150347, 41.71497], [-8.148628, 41.70595]]], [[[-8.156147, 41.640949], [-8.15952, 41.633974], [-8.155687, 41.624939], [-8.144433, 41.618791], [-8.132423, 41.619288], [-8.12404, 41.624702], [-8.116757, 41.633653], [-8.118115, 41.642671], [-8.132006, 41.650366], [-8.144026, 41.649555], [-8.155259, 41.64295], [-8.156147, 41.640949]], [[-8.12799, 41.633739], [-8.132281, 41.629848], [-8.142535, 41.633848], [-8.132145, 41.640027], [-8.12799, 41.633739]]], [[[-8.648969, 41.545054], [-8.655495, 41.53745], [-8.656617, 41.528446], [-8.652257, 41.519426], [-8.649122, 41.516874], [-8.637183, 41.50863], [-8.62522, 41.505163], [-8.613236, 41.505522], [-8.603254, 41.51026], [-8.59615, 41.519242], [-8.595254, 41.528246], [-8.601044, 41.539642], [-8.612982, 41.548186], [-8.624954, 41.551241], [-8.636949, 41.550544], [-8.648969, 41.545054]], [[-8.624873, 41.528347], [-8.625088, 41.528094], [-8.625248, 41.528348], [-8.624873, 41.528347]]], [[[-8.084132, 41.544675], [-8.097391, 41.549091], [-8.109373, 41.54969], [-8.121398, 41.547132], [-8.128521, 41.543671], [-8.137706, 41.534733], [-8.140595, 41.525747], [-8.139311, 41.516731], [-8.133916, 41.507528], [-8.12316, 41.498594], [-8.122138, 41.492388], [-8.116763, 41.489538], [-8.122204, 41.4875], [-8.124039, 41.480586], [-8.122326, 41.478515], [-8.110359, 41.477756], [-8.107132, 41.480456], [-8.108404, 41.489473], [-8.098182, 41.492143], [-8.081625, 41.501205], [-8.093, 41.504613], [-8.089398, 41.519242], [-8.090594, 41.522169], [-8.093588, 41.52307], [-8.091487, 41.531173], [-8.097775, 41.536127], [-8.097774, 41.537927], [-8.106759, 41.543106], [-8.10616, 41.543782], [-8.101666, 41.542655], [-8.094175, 41.544904], [-8.087885, 41.542876], [-8.084132, 41.544675]]], [[[-8.149111, 41.373841], [-8.152821, 41.390727], [-8.158622, 41.399777], [-8.167219, 41.408847], [-8.181786, 41.417959], [-8.194874, 41.423154], [-8.206808, 41.425903], [-8.254645, 41.428831], [-8.266582, 41.431553], [-8.271211, 41.436576], [-8.279658, 41.472658], [-8.294415, 41.508779], [-8.301531, 41.520738], [-8.313408, 41.531042], [-8.325351, 41.535265], [-8.337327, 41.536371], [-8.349328, 41.535095], [-8.361354, 41.531189], [-8.373416, 41.523473], [-8.378659, 41.518273], [-8.384839, 41.509299], [-8.388246, 41.500309], [-8.389307, 41.491308], [-8.387607, 41.464276], [-8.382295, 41.446233], [-8.37427, 41.434685], [-8.362391, 41.425511], [-8.33855, 41.416253], [-8.311942, 41.409804], [-8.302802, 41.402201], [-8.297766, 41.373688], [-8.291253, 41.355633], [-8.279567, 41.339561], [-8.267199, 41.329966], [-8.265711, 41.332121], [-8.269004, 41.336169], [-8.263339, 41.340902], [-8.262751, 41.345405], [-8.256483, 41.347663], [-8.255889, 41.349689], [-8.249622, 41.353072], [-8.251123, 41.356897], [-8.248141, 41.360052], [-8.248448, 41.364328], [-8.245461, 41.364781], [-8.244272, 41.368384], [-8.239197, 41.371315], [-8.230775, 41.369972], [-8.236091, 41.373295], [-8.2394, 41.382325], [-8.231147, 41.391666], [-8.219178, 41.392283], [-8.216484, 41.391178], [-8.207417, 41.382109], [-8.210296, 41.375841], [-8.200358, 41.377648], [-8.194677, 41.374275], [-8.191691, 41.376302], [-8.189299, 41.375403], [-8.184818, 41.376756], [-8.168382, 41.377438], [-8.1642, 41.38059], [-8.152544, 41.375866], [-8.151049, 41.37339], [-8.149111, 41.373841]], [[-8.33748, 41.521394], [-8.325519, 41.519048], [-8.3136, 41.512871], [-8.309453, 41.508871], [-8.302779, 41.499823], [-8.29719, 41.481774], [-8.297979, 41.472772], [-8.302109, 41.463789], [-8.311276, 41.454837], [-8.326251, 41.448452], [-8.338232, 41.447512], [-8.350188, 41.449103], [-8.362107, 41.454547], [-8.372274, 41.464194], [-8.377132, 41.473228], [-8.379266, 41.491254], [-8.373595, 41.504843], [-8.361506, 41.515741], [-8.349477, 41.520252], [-8.33748, 41.521394]]], [[[-8.215292, 41.371183], [-8.215292, 41.371183], [-8.215432, 41.37111], [-8.215292, 41.371183]]], [[[-8.215591, 41.371028], [-8.215591, 41.371028], [-8.215866, 41.370885], [-8.215591, 41.371028]]], [[[-8.215889, 41.370873], [-8.221265, 41.369173], [-8.21738, 41.368182], [-8.215889, 41.370873]]], [[[-8.57394, 41.45611], [-8.571563, 41.447094], [-8.565734, 41.441531], [-8.55379, 41.4376], [-8.541806, 41.439534], [-8.533038, 41.446944], [-8.530962, 41.455943], [-8.536902, 41.464974], [-8.541606, 41.468038], [-8.553564, 41.470556], [-8.565561, 41.467448], [-8.569101, 41.465099], [-8.57394, 41.45611]]], [[[-8.634418, 41.191768], [-8.63939, 41.231142], [-8.6355, 41.249145], [-8.625361, 41.276136], [-8.624539, 41.285141], [-8.626715, 41.294156], [-8.631746, 41.30318], [-8.64104, 41.312217], [-8.697819, 41.353312], [-8.72168, 41.364642], [-8.745572, 41.369877], [-8.757526, 41.370806], [-8.781444, 41.369952], [-8.80838, 41.36483], [-8.799695, 41.14406], [-8.674793, 41.146932], [-8.674849, 41.153767], [-8.672489, 41.15648], [-8.66117, 41.156307], [-8.662078, 41.158104], [-8.660313, 41.160813], [-8.657033, 41.160378], [-8.654961, 41.161963], [-8.653231, 41.169174], [-8.655366, 41.175467], [-8.647955, 41.180228], [-8.647696, 41.185181], [-8.641225, 41.196014], [-8.638841, 41.196025], [-8.634418, 41.191768]], [[-8.73373, 41.341512], [-8.709842, 41.33793], [-8.697911, 41.333492], [-8.678388, 41.321335], [-8.668562, 41.3123], [-8.662468, 41.303274], [-8.658902, 41.294256], [-8.658463, 41.285247], [-8.660936, 41.276246], [-8.666123, 41.267254], [-8.674382, 41.2586], [-8.686358, 41.250469], [-8.698318, 41.24509], [-8.710267, 41.241973], [-8.734146, 41.239161], [-8.758004, 41.241736], [-8.769924, 41.245698], [-8.781836, 41.252527], [-8.796256, 41.267558], [-8.802498, 41.285584], [-8.800042, 41.303595], [-8.787773, 41.321589], [-8.775687, 41.330574], [-8.757647, 41.33819], [-8.73373, 41.341512]]]]}}, {"id": "10", "type": "Feature", "properties": {"fill": "#a3a3a3", "value_min": 0.75, "value_max": -1.0}, "geometry": {"type": "Polygon", "coordinates": [[[-8.337735, 41.49635], [-8.349733, 41.49466], [-8.353457, 41.491112], [-8.353136, 41.482103], [-8.349889, 41.478994], [-8.337931, 41.477163], [-8.330225, 41.481971], [-8.32974, 41.490976], [-8.337735, 41.49635]]]}}, {"id": "7", "type": "Feature", "properties": {"fill": "#a3a3a3", "value_min": 0.0, "value_max": -0.25}, "geometry": {"type": "MultiPolygon", "coordinates": [[[[-8.009101, 41.74086], [-8.012263, 41.740887], [-8.018526, 41.731934], [-8.01073, 41.727798], [-8.003185, 41.731802], [-8.009101, 41.74086]]], [[[-8.12799, 41.633739], [-8.132145, 41.640027], [-8.142535, 41.633848], [-8.132281, 41.629848], [-8.12799, 41.633739]]], [[[-8.624873, 41.528347], [-8.625248, 41.528348], [-8.625088, 41.528094], [-8.624873, 41.528347]]], [[[-8.33748, 41.521394], [-8.349477, 41.520252], [-8.361506, 41.515741], [-8.373595, 41.504843], [-8.379266, 41.491254], [-8.377132, 41.473228], [-8.372274, 41.464194], [-8.362107, 41.454547], [-8.350188, 41.449103], [-8.338232, 41.447512], [-8.326251, 41.448452], [-8.311276, 41.454837], [-8.302109, 41.463789], [-8.297979, 41.472772], [-8.29719, 41.481774], [-8.302779, 41.499823], [-8.309453, 41.508871], [-8.3136, 41.512871], [-8.325519, 41.519048], [-8.33748, 41.521394]], [[-8.361612, 41.505002], [-8.349571, 41.510836], [-8.337577, 41.511917], [-8.325627, 41.508681], [-8.314151, 41.499891], [-8.309288, 41.490855], [-8.308593, 41.481843], [-8.314046, 41.470579], [-8.326108, 41.462242], [-8.338108, 41.459754], [-8.350066, 41.461276], [-8.361978, 41.46766], [-8.366836, 41.473171], [-8.370773, 41.4822], [-8.370733, 41.491208], [-8.366436, 41.500191], [-8.361612, 41.505002]]], [[[-8.210296, 41.375841], [-8.207417, 41.382109], [-8.216484, 41.391178], [-8.219178, 41.392283], [-8.231147, 41.391666], [-8.2394, 41.382325], [-8.236091, 41.373295], [-8.230775, 41.369972], [-8.224854, 41.370878], [-8.221265, 41.369173], [-8.215889, 41.370873], [-8.215866, 41.370885], [-8.215591, 41.371028], [-8.215432, 41.37111], [-8.215292, 41.371183], [-8.212011, 41.375839], [-8.210296, 41.375841]]], [[[-8.73373, 41.341512], [-8.757647, 41.33819], [-8.775687, 41.330574], [-8.787773, 41.321589], [-8.800042, 41.303595], [-8.802498, 41.285584], [-8.796256, 41.267558], [-8.781836, 41.252527], [-8.769924, 41.245698], [-8.758004, 41.241736], [-8.734146, 41.239161], [-8.710267, 41.241973], [-8.698318, 41.24509], [-8.686358, 41.250469], [-8.674382, 41.2586], [-8.666123, 41.267254], [-8.660936, 41.276246], [-8.658463, 41.285247], [-8.658902, 41.294256], [-8.662468, 41.303274], [-8.668562, 41.3123], [-8.678388, 41.321335], [-8.697911, 41.333492], [-8.709842, 41.33793], [-8.73373, 41.341512]], [[-8.745769, 41.319426], [-8.733803, 41.323778], [-8.721849, 41.32497], [-8.709906, 41.323502], [-8.697978, 41.31897], [-8.688476, 41.312355], [-8.681397, 41.303328], [-8.678978, 41.294314], [-8.680509, 41.28531], [-8.686556, 41.276319], [-8.698211, 41.26847], [-8.710166, 41.264665], [-8.722109, 41.263639], [-8.734041, 41.26506], [-8.745963, 41.269436], [-8.755779, 41.276487], [-8.761946, 41.285507], [-8.763734, 41.294519], [-8.761806, 41.303523], [-8.755541, 41.312517], [-8.745769, 41.319426]]]]}}, {"id": "0", "type": "Feature", "properties": {"fill": "#e57b10", "value_min": -1.75, "value_max": -1.5}, "geometry": {"type": "Polygon", "coordinates": [[[-8.481397, 41.509613], [-8.48118, 41.509774], [-8.481393, 41.51014], [-8.48182, 41.509777], [-8.481397, 41.509613]]]}}, {"id": "5", "type": "Feature", "properties": {"fill": "#a3a3a3", "value_min": -0.5, "value_max": -0.25}, "geometry": {"type": "MultiPolygon", "coordinates": [[[[-8.482965, 41.678744], [-8.456104, 41.667938], [-8.444107, 41.666062], [-8.432086, 41.667114], [-8.405555, 41.680545], [-8.359713, 41.697365], [-8.350005, 41.707266], [-8.347484, 41.716259], [-8.347227, 41.725264], [-8.350964, 41.743895], [-8.352516, 41.743441], [-8.352203, 41.739616], [-8.357897, 41.735103], [-8.362407, 41.735994], [-8.368703, 41.73193], [-8.374122, 41.734845], [-8.384922, 41.73032], [-8.387032, 41.731891], [-8.392006, 41.730304], [-8.389071, 41.725494], [-8.388994, 41.716487], [-8.394961, 41.707511], [-8.407755, 41.700553], [-8.419793, 41.698343], [-8.431797, 41.7], [-8.444369, 41.70699], [-8.453868, 41.697961], [-8.453255, 41.695487], [-8.458061, 41.695698], [-8.464654, 41.692979], [-8.467939, 41.689593], [-8.475731, 41.686644], [-8.482012, 41.682123], [-8.482965, 41.678744]]], [[[-7.952074, 41.785388], [-7.936707, 41.785247], [-7.935039, 41.794238], [-7.937455, 41.796615], [-7.94947, 41.797928], [-7.954634, 41.794418], [-7.952074, 41.785388]]], [[[-8.190465, 41.776906], [-8.198407, 41.769357], [-8.203163, 41.760383], [-8.204068, 41.751383], [-8.201124, 41.742355], [-8.193469, 41.733295], [-8.167896, 41.715098], [-8.163475, 41.706059], [-8.155403, 41.697888], [-8.143407, 41.696205], [-8.131326, 41.70096], [-8.126332, 41.705783], [-8.119291, 41.714736], [-8.115392, 41.723713], [-8.116589, 41.741736], [-8.120445, 41.75978], [-8.130364, 41.772314], [-8.142297, 41.779667], [-8.154281, 41.783477], [-8.166303, 41.784374], [-8.17836, 41.782585], [-8.190465, 41.776906]], [[-8.148628, 41.70595], [-8.150347, 41.71497], [-8.143073, 41.721359], [-8.131051, 41.721349], [-8.126206, 41.714789], [-8.131278, 41.704474], [-8.143315, 41.703156], [-8.148628, 41.70595]]], [[[-8.046094, 41.775485], [-8.059062, 41.7683], [-8.065903, 41.759349], [-8.066891, 41.75035], [-8.06426, 41.741322], [-8.057668, 41.732261], [-8.023095, 41.705274], [-8.011149, 41.700484], [-7.999147, 41.699385], [-7.987106, 41.700899], [-7.97845, 41.704563], [-7.969044, 41.713486], [-7.96721, 41.722477], [-7.969451, 41.731504], [-7.986228, 41.75676], [-7.998086, 41.767722], [-8.01001, 41.774675], [-8.022003, 41.777263], [-8.034028, 41.777725], [-8.046094, 41.775485]], [[-8.033782, 41.74107], [-8.022392, 41.751638], [-8.01034, 41.753174], [-7.99838, 41.748794], [-7.99018, 41.740695], [-7.987857, 41.731668], [-7.992425, 41.722701], [-7.998851, 41.718462], [-8.0109, 41.71671], [-8.022863, 41.720554], [-8.033549, 41.732061], [-8.033782, 41.74107]]], [[[-7.877642, 41.775517], [-7.891148, 41.766802], [-7.894801, 41.757831], [-7.893524, 41.748812], [-7.890242, 41.742573], [-7.886501, 41.739737], [-7.878326, 41.736255], [-7.854238, 41.738377], [-7.842139, 41.742466], [-7.833235, 41.748215], [-7.829724, 41.757186], [-7.83213, 41.766218], [-7.841582, 41.773436], [-7.853546, 41.777268], [-7.865571, 41.77771], [-7.877642, 41.775517]], [[-7.877434, 41.757662], [-7.871102, 41.766607], [-7.865731, 41.768628], [-7.853744, 41.766149], [-7.849507, 41.757386], [-7.853989, 41.752359], [-7.86608, 41.748794], [-7.877434, 41.757662]]], [[[-7.913304, 41.712973], [-7.902889, 41.706048], [-7.890834, 41.708151], [-7.88705, 41.712721], [-7.885423, 41.721713], [-7.890466, 41.72955], [-7.902497, 41.729089], [-7.912116, 41.721968], [-7.913304, 41.712973]]], [[[-8.078278, 41.566153], [-8.121045, 41.573205], [-8.143028, 41.579809], [-8.1498, 41.588867], [-8.14478, 41.592512], [-8.142312, 41.597818], [-8.13262, 41.604591], [-8.120452, 41.616896], [-8.10844, 41.633589], [-8.104943, 41.642569], [-8.108563, 41.651604], [-8.119878, 41.65908], [-8.131848, 41.662114], [-8.143847, 41.663036], [-8.15589, 41.660615], [-8.171952, 41.652078], [-8.181542, 41.64314], [-8.188407, 41.634181], [-8.19202, 41.6252], [-8.194262, 41.616208], [-8.193888, 41.589184], [-8.203143, 41.571234], [-8.204154, 41.562234], [-8.193552, 41.529885], [-8.191642, 41.508103], [-8.198403, 41.490136], [-8.207614, 41.481192], [-8.218177, 41.475738], [-8.230181, 41.473431], [-8.242152, 41.473941], [-8.254088, 41.477451], [-8.265974, 41.48554], [-8.275935, 41.499657], [-8.279791, 41.517696], [-8.277428, 41.532749], [-8.266032, 41.562646], [-8.269346, 41.571674], [-8.285424, 41.580782], [-8.30084, 41.584935], [-8.324821, 41.586186], [-8.336837, 41.584305], [-8.348875, 41.580242], [-8.360934, 41.57383], [-8.373025, 41.563964], [-8.385147, 41.550368], [-8.394209, 41.53637], [-8.403285, 41.518403], [-8.405837, 41.509409], [-8.403571, 41.482375], [-8.405104, 41.473376], [-8.409919, 41.463315], [-8.421998, 41.451563], [-8.43404, 41.443485], [-8.458062, 41.433838], [-8.470037, 41.433114], [-8.481978, 41.436693], [-8.493875, 41.445998], [-8.510318, 41.464864], [-8.521188, 41.473917], [-8.541478, 41.486119], [-8.556101, 41.492072], [-8.568048, 41.501125], [-8.573992, 41.52817], [-8.57763, 41.53719], [-8.588968, 41.553489], [-8.60089, 41.564641], [-8.624789, 41.579857], [-8.636757, 41.584863], [-8.658409, 41.590629], [-8.660788, 41.588255], [-8.663794, 41.589141], [-8.665265, 41.585758], [-8.66948, 41.587989], [-8.684455, 41.586117], [-8.685608, 41.58071], [-8.697261, 41.576376], [-8.701703, 41.570277], [-8.707704, 41.570923], [-8.712485, 41.569323], [-8.716422, 41.573805], [-8.720316, 41.57356], [-8.725151, 41.577811], [-8.726633, 41.576003], [-8.734424, 41.575737], [-8.736539, 41.577527], [-8.736262, 41.580004], [-8.738354, 41.579318], [-8.740515, 41.581557], [-8.754565, 41.573734], [-8.765311, 41.564749], [-8.767039, 41.555745], [-8.754623, 41.546712], [-8.736384, 41.537664], [-8.661158, 41.506829], [-8.632772, 41.492343], [-8.620161, 41.483294], [-8.615131, 41.47427], [-8.617016, 41.456261], [-8.625619, 41.435912], [-8.637675, 41.420332], [-8.649686, 41.412194], [-8.661652, 41.411882], [-8.685565, 41.41556], [-8.721416, 41.42648], [-8.745837, 41.438603], [-8.768932, 41.456667], [-8.783215, 41.47471], [-8.787986, 41.483726], [-8.79301, 41.50175], [-8.792915, 41.523307], [-8.785291, 41.546773], [-8.784261, 41.555778], [-8.795251, 41.564806], [-8.828036, 41.58422], [-8.818497, 41.554794], [-8.8221, 41.547542], [-8.821717, 41.533832], [-8.815926, 41.525624], [-8.81063, 41.5101], [-8.813279, 41.503483], [-8.812976, 41.498005], [-8.804699, 41.482068], [-8.798552, 41.474753], [-8.80154, 41.446836], [-8.806115, 41.43713], [-8.807354, 41.425915], [-8.811166, 41.417099], [-8.80838, 41.36483], [-8.781444, 41.369952], [-8.757526, 41.370806], [-8.745572, 41.369877], [-8.72168, 41.364642], [-8.697819, 41.353312], [-8.64104, 41.312217], [-8.631746, 41.30318], [-8.626715, 41.294156], [-8.624539, 41.285141], [-8.625361, 41.276136], [-8.6355, 41.249145], [-8.63939, 41.231142], [-8.634418, 41.191768], [-8.632526, 41.188624], [-8.625658, 41.186628], [-8.621132, 41.178994], [-8.613374, 41.177451], [-8.608583, 41.174095], [-8.609164, 41.172066], [-8.605845, 41.166228], [-8.602852, 41.164214], [-8.59422, 41.165149], [-8.589174, 41.167645], [-8.589194, 41.170572], [-8.583263, 41.174422], [-8.582094, 41.177803], [-8.578825, 41.178941], [-8.580146, 41.182312], [-8.591235, 41.192216], [-8.598697, 41.203984], [-8.602815, 41.222014], [-8.601178, 41.231016], [-8.596757, 41.240008], [-8.590892, 41.247332], [-8.578899, 41.256429], [-8.566925, 41.261949], [-8.554968, 41.264833], [-8.543024, 41.265692], [-8.531092, 41.264732], [-8.519177, 41.261675], [-8.507282, 41.255987], [-8.497213, 41.248624], [-8.487281, 41.236209], [-8.484411, 41.240495], [-8.476346, 41.237818], [-8.475756, 41.23917], [-8.470986, 41.23941], [-8.471604, 41.243459], [-8.469227, 41.245267], [-8.463258, 41.244384], [-8.459989, 41.246644], [-8.454323, 41.246886], [-8.455541, 41.251834], [-8.452276, 41.25522], [-8.449891, 41.255452], [-8.449304, 41.257479], [-8.447812, 41.257258], [-8.449028, 41.261982], [-8.439785, 41.262907], [-8.438023, 41.268989], [-8.434745, 41.269673], [-8.432691, 41.277107], [-8.427032, 41.279372], [-8.429143, 41.284319], [-8.426171, 41.287028], [-8.426488, 41.291079], [-8.425013, 41.294909], [-8.422037, 41.296942], [-8.422647, 41.299867], [-8.407744, 41.304856], [-8.406262, 41.307335], [-8.403277, 41.307342], [-8.401801, 41.311398], [-8.399712, 41.311628], [-8.400316, 41.313202], [-8.396738, 41.314336], [-8.398835, 41.316131], [-8.393775, 41.31997], [-8.393489, 41.323122], [-8.391105, 41.324253], [-8.386325, 41.323588], [-8.380382, 41.331254], [-8.375305, 41.33104], [-8.37201, 41.328346], [-8.361563, 41.329718], [-8.358276, 41.329049], [-8.357673, 41.327249], [-8.350207, 41.327264], [-8.346032, 41.328847], [-8.342462, 41.333131], [-8.333215, 41.336299], [-8.326363, 41.342163], [-8.324568, 41.341041], [-8.323376, 41.341943], [-8.320676, 41.338121], [-8.312604, 41.334983], [-8.313794, 41.333405], [-8.31139, 41.328007], [-8.307502, 41.325762], [-8.305116, 41.326891], [-8.303024, 41.325994], [-8.303615, 41.323742], [-8.301216, 41.319694], [-8.296431, 41.316774], [-8.297618, 41.313846], [-8.296116, 41.310022], [-8.281801, 41.316569], [-8.279132, 41.324451], [-8.272266, 41.32536], [-8.267199, 41.329966], [-8.279567, 41.339561], [-8.291253, 41.355633], [-8.297766, 41.373688], [-8.302802, 41.402201], [-8.311942, 41.409804], [-8.33855, 41.416253], [-8.362391, 41.425511], [-8.37427, 41.434685], [-8.382295, 41.446233], [-8.387607, 41.464276], [-8.389307, 41.491308], [-8.388246, 41.500309], [-8.384839, 41.509299], [-8.378659, 41.518273], [-8.373416, 41.523473], [-8.361354, 41.531189], [-8.349328, 41.535095], [-8.337327, 41.536371], [-8.325351, 41.535265], [-8.313408, 41.531042], [-8.301531, 41.520738], [-8.294415, 41.508779], [-8.279658, 41.472658], [-8.271211, 41.436576], [-8.266582, 41.431553], [-8.254645, 41.428831], [-8.206808, 41.425903], [-8.194874, 41.423154], [-8.181786, 41.417959], [-8.167219, 41.408847], [-8.158622, 41.399777], [-8.152821, 41.390727], [-8.149111, 41.373841], [-8.139694, 41.377894], [-8.133418, 41.374292], [-8.119074, 41.377218], [-8.119672, 41.378569], [-8.116683, 41.380144], [-8.117578, 41.386447], [-8.113992, 41.386896], [-8.112795, 41.390723], [-8.110105, 41.390947], [-8.108011, 41.393648], [-8.103827, 41.392972], [-8.105321, 41.394998], [-8.10263, 41.396123], [-8.10801, 41.398825], [-8.108606, 41.403102], [-8.101128, 41.411654], [-8.092756, 41.411201], [-8.09126, 41.414352], [-8.079893, 41.41975], [-8.077503, 41.416597], [-8.070923, 41.41862], [-8.066739, 41.416142], [-8.061654, 41.417489], [-8.059852, 41.424916], [-8.055959, 41.429415], [-8.05745, 41.432793], [-8.056549, 41.436394], [-8.069999, 41.447206], [-8.068788, 41.462286], [-8.073872, 41.46499], [-8.074468, 41.468141], [-8.073564, 41.474668], [-8.066374, 41.482318], [-8.066069, 41.48817], [-8.072054, 41.490199], [-8.07175, 41.494925], [-8.078333, 41.49898], [-8.078332, 41.500331], [-8.081625, 41.501205], [-8.098182, 41.492143], [-8.108404, 41.489473], [-8.107132, 41.480456], [-8.110359, 41.477756], [-8.122326, 41.478515], [-8.124039, 41.480586], [-8.122204, 41.4875], [-8.116763, 41.489538], [-8.122138, 41.492388], [-8.12316, 41.498594], [-8.133916, 41.507528], [-8.139311, 41.516731], [-8.140595, 41.525747], [-8.137706, 41.534733], [-8.128521, 41.543671], [-8.121398, 41.547132], [-8.109373, 41.54969], [-8.097391, 41.549091], [-8.084132, 41.544675], [-8.081886, 41.550977], [-8.079489, 41.551876], [-8.074097, 41.549848], [-8.072897, 41.551197], [-8.076188, 41.557276], [-8.079783, 41.558403], [-8.082177, 41.563131], [-8.081576, 41.565157], [-8.078879, 41.56493], [-8.078278, 41.566153]], [[-8.156147, 41.640949], [-8.155259, 41.64295], [-8.144026, 41.649555], [-8.132006, 41.650366], [-8.118115, 41.642671], [-8.116757, 41.633653], [-8.12404, 41.624702], [-8.132423, 41.619288], [-8.144433, 41.618791], [-8.155687, 41.624939], [-8.15952, 41.633974], [-8.156147, 41.640949]], [[-8.648969, 41.545054], [-8.636949, 41.550544], [-8.624954, 41.551241], [-8.612982, 41.548186], [-8.601044, 41.539642], [-8.595254, 41.528246], [-8.59615, 41.519242], [-8.603254, 41.51026], [-8.613236, 41.505522], [-8.62522, 41.505163], [-8.637183, 41.50863], [-8.649122, 41.516874], [-8.652257, 41.519426], [-8.656617, 41.528446], [-8.655495, 41.53745], [-8.648969, 41.545054]], [[-8.57394, 41.45611], [-8.569101, 41.465099], [-8.565561, 41.467448], [-8.553564, 41.470556], [-8.541606, 41.468038], [-8.536902, 41.464974], [-8.530962, 41.455943], [-8.533038, 41.446944], [-8.541806, 41.439534], [-8.55379, 41.4376], [-8.565734, 41.441531], [-8.571563, 41.447094], [-8.57394, 41.45611]], [[-8.637778, 41.401744], [-8.625826, 41.399825], [-8.613891, 41.395147], [-8.597084, 41.384133], [-8.590012, 41.3751], [-8.586869, 41.366081], [-8.588098, 41.357078], [-8.593847, 41.348091], [-8.60225, 41.342413], [-8.614229, 41.337901], [-8.626186, 41.336901], [-8.638129, 41.33858], [-8.650052, 41.343933], [-8.656001, 41.348294], [-8.663425, 41.357323], [-8.666159, 41.366339], [-8.665753, 41.375345], [-8.661786, 41.386024], [-8.649752, 41.399879], [-8.637778, 41.401744]]], [[[-8.455659, 41.626751], [-8.444505, 41.619807], [-8.432374, 41.626638], [-8.440597, 41.635685], [-8.444356, 41.637201], [-8.455659, 41.626751]]]]}}, {"id": "4", "type": "Feature", "properties": {"fill": "#a3a3a3", "value_min": -0.75, "value_max": -0.5}, "geometry": {"type": "MultiPolygon", "coordinates": [[[[-8.740515, 41.581557], [-8.74467, 41.581535], [-8.746796, 41.58445], [-8.75101, 41.586228], [-8.75993, 41.578527], [-8.767441, 41.580286], [-8.769874, 41.583874], [-8.768997, 41.58613], [-8.773228, 41.589482], [-8.774165, 41.593303], [-8.78556, 41.593464], [-8.797327, 41.600599], [-8.804218, 41.600109], [-8.80456, 41.604158], [-8.808527, 41.610662], [-8.810935, 41.611548], [-8.828644, 41.609656], [-8.828036, 41.58422], [-8.795251, 41.564806], [-8.784261, 41.555778], [-8.785291, 41.546773], [-8.792915, 41.523307], [-8.79301, 41.50175], [-8.787986, 41.483726], [-8.783215, 41.47471], [-8.768932, 41.456667], [-8.745837, 41.438603], [-8.721416, 41.42648], [-8.685565, 41.41556], [-8.661652, 41.411882], [-8.649686, 41.412194], [-8.637675, 41.420332], [-8.625619, 41.435912], [-8.617016, 41.456261], [-8.615131, 41.47427], [-8.620161, 41.483294], [-8.632772, 41.492343], [-8.661158, 41.506829], [-8.736384, 41.537664], [-8.754623, 41.546712], [-8.767039, 41.555745], [-8.765311, 41.564749], [-8.754565, 41.573734], [-8.740515, 41.581557]], [[-8.673218, 41.491588], [-8.661246, 41.49002], [-8.651143, 41.483392], [-8.648454, 41.474377], [-8.649362, 41.472397], [-8.655586, 41.465391], [-8.661391, 41.462127], [-8.673369, 41.461402], [-8.683724, 41.465472], [-8.690401, 41.474497], [-8.688613, 41.4835], [-8.673218, 41.491588]]], [[[-8.658409, 41.590629], [-8.636757, 41.584863], [-8.624789, 41.579857], [-8.60089, 41.564641], [-8.588968, 41.553489], [-8.57763, 41.53719], [-8.573992, 41.52817], [-8.568048, 41.501125], [-8.556101, 41.492072], [-8.541478, 41.486119], [-8.521188, 41.473917], [-8.510318, 41.464864], [-8.493875, 41.445998], [-8.481978, 41.436693], [-8.470037, 41.433114], [-8.458062, 41.433838], [-8.43404, 41.443485], [-8.421998, 41.451563], [-8.409919, 41.463315], [-8.405104, 41.473376], [-8.403571, 41.482375], [-8.405837, 41.509409], [-8.403285, 41.518403], [-8.394209, 41.53637], [-8.385147, 41.550368], [-8.373025, 41.563964], [-8.360934, 41.57383], [-8.348875, 41.580242], [-8.336837, 41.584305], [-8.324821, 41.586186], [-8.30084, 41.584935], [-8.285424, 41.580782], [-8.269346, 41.571674], [-8.266032, 41.562646], [-8.277428, 41.532749], [-8.279791, 41.517696], [-8.275935, 41.499657], [-8.265974, 41.48554], [-8.254088, 41.477451], [-8.242152, 41.473941], [-8.230181, 41.473431], [-8.218177, 41.475738], [-8.207614, 41.481192], [-8.198403, 41.490136], [-8.191642, 41.508103], [-8.193552, 41.529885], [-8.204154, 41.562234], [-8.203143, 41.571234], [-8.193888, 41.589184], [-8.194262, 41.616208], [-8.19202, 41.6252], [-8.188407, 41.634181], [-8.181542, 41.64314], [-8.171952, 41.652078], [-8.15589, 41.660615], [-8.143847, 41.663036], [-8.131848, 41.662114], [-8.119878, 41.65908], [-8.108563, 41.651604], [-8.104943, 41.642569], [-8.10844, 41.633589], [-8.120452, 41.616896], [-8.13262, 41.604591], [-8.142312, 41.597818], [-8.14478, 41.592512], [-8.1498, 41.588867], [-8.143028, 41.579809], [-8.121045, 41.573205], [-8.078278, 41.566153], [-8.069883, 41.570103], [-8.068081, 41.573478], [-8.056684, 41.579549], [-8.052181, 41.584498], [-8.052777, 41.587649], [-8.037169, 41.600242], [-8.031467, 41.602938], [-8.02367, 41.603156], [-8.019174, 41.601802], [-8.015872, 41.603824], [-8.013474, 41.603372], [-8.005971, 41.60629], [-8.003562, 41.611239], [-7.99936, 41.61281], [-7.998462, 41.612359], [-7.999669, 41.608759], [-7.996976, 41.605829], [-7.996684, 41.602003], [-7.984685, 41.603564], [-7.982292, 41.60086], [-7.975689, 41.603552], [-7.974482, 41.606701], [-7.970882, 41.607147], [-7.969091, 41.603768], [-7.965796, 41.602413], [-7.9541, 41.602846], [-7.952606, 41.600592], [-7.947808, 41.60081], [-7.945413, 41.599456], [-7.942725, 41.595625], [-7.936132, 41.594488], [-7.93791, 41.601694], [-7.937004, 41.603718], [-7.931604, 41.604384], [-7.930979, 41.612711], [-7.925556, 41.620354], [-7.920755, 41.620796], [-7.917748, 41.623041], [-7.915933, 41.627764], [-7.913229, 41.628885], [-7.912613, 41.63361], [-7.906014, 41.633147], [-7.906884, 41.641927], [-7.897869, 41.645511], [-7.89696, 41.647985], [-7.892759, 41.647976], [-7.892145, 41.651576], [-7.902319, 41.659925], [-7.899913, 41.66127], [-7.900198, 41.665547], [-7.898396, 41.665769], [-7.896885, 41.668692], [-7.882465, 41.671588], [-7.877044, 41.676077], [-7.876723, 41.681253], [-7.872283, 41.68597], [-7.87563, 41.694596], [-7.875144, 41.703599], [-7.8718, 41.712573], [-7.863523, 41.721498], [-7.854466, 41.725523], [-7.842428, 41.726411], [-7.83043, 41.725014], [-7.816881, 41.721027], [-7.812491, 41.718006], [-7.808986, 41.717996], [-7.808396, 41.715744], [-7.804499, 41.714158], [-7.79939, 41.714593], [-7.79788, 41.716164], [-7.796383, 41.71526], [-7.790966, 41.717044], [-7.789449, 41.719966], [-7.78464, 41.720402], [-7.78252, 41.723546], [-7.776204, 41.724652], [-7.773786, 41.727346], [-7.770798, 41.72441], [-7.765698, 41.723044], [-7.761765, 41.727758], [-7.763239, 41.732714], [-7.760617, 41.736082], [-7.769963, 41.743529], [-7.793721, 41.774827], [-7.805288, 41.784138], [-7.81726, 41.787499], [-7.829285, 41.788018], [-7.889502, 41.785494], [-7.901474, 41.789101], [-7.912741, 41.803036], [-7.917942, 41.812092], [-7.919929, 41.821117], [-7.906275, 41.864525], [-7.906095, 41.868126], [-7.910299, 41.871285], [-7.909985, 41.875111], [-7.915391, 41.879397], [-7.921118, 41.877833], [-7.928044, 41.87807], [-7.935283, 41.874707], [-7.937389, 41.87516], [-7.941618, 41.870891], [-7.951254, 41.871132], [-7.956367, 41.87339], [-7.956362, 41.875191], [-7.960878, 41.875648], [-7.962086, 41.874074], [-7.973828, 41.875216], [-7.987996, 41.869157], [-7.990123, 41.860157], [-7.995547, 41.858138], [-7.994047, 41.855211], [-7.996162, 41.851837], [-8.003089, 41.850494], [-8.005804, 41.847346], [-8.007928, 41.838796], [-8.010941, 41.836773], [-8.013965, 41.828899], [-8.017873, 41.831379], [-8.02901, 41.829589], [-8.037134, 41.831171], [-8.041351, 41.828023], [-8.041054, 41.825097], [-8.045268, 41.824425], [-8.046775, 41.821951], [-8.056712, 41.81588], [-8.06664, 41.817012], [-8.072961, 41.813414], [-8.078678, 41.813417], [-8.082892, 41.810493], [-8.091013, 41.812521], [-8.093421, 41.811397], [-8.093723, 41.808471], [-8.101845, 41.809824], [-8.104853, 41.81185], [-8.115984, 41.812302], [-8.123807, 41.808702], [-8.138247, 41.808477], [-8.139751, 41.813203], [-8.14276, 41.812978], [-8.144866, 41.815228], [-8.149078, 41.814777], [-8.153291, 41.817703], [-8.158106, 41.818377], [-8.165326, 41.81815], [-8.173744, 41.808019], [-8.177655, 41.808242], [-8.183676, 41.812741], [-8.190291, 41.809587], [-8.197158, 41.814129], [-8.201063, 41.808724], [-8.204973, 41.807372], [-8.205872, 41.804445], [-8.213692, 41.803765], [-8.217598, 41.80016], [-8.217589, 41.793634], [-8.224207, 41.794303], [-8.229917, 41.791598], [-8.240744, 41.791588], [-8.24074, 41.789338], [-8.244347, 41.787984], [-8.245546, 41.785731], [-8.251257, 41.784375], [-8.251845, 41.777172], [-8.257551, 41.773564], [-8.261762, 41.774235], [-8.271366, 41.766346], [-8.280681, 41.764083], [-8.284038, 41.761109], [-8.284931, 41.757507], [-8.305674, 41.758152], [-8.311096, 41.762195], [-8.318308, 41.761283], [-8.325233, 41.765098], [-8.328234, 41.763292], [-8.336653, 41.763728], [-8.341756, 41.761468], [-8.344765, 41.762363], [-8.349267, 41.760103], [-8.352557, 41.755145], [-8.34982, 41.745922], [-8.350964, 41.743895], [-8.347227, 41.725264], [-8.347484, 41.716259], [-8.350005, 41.707266], [-8.359713, 41.697365], [-8.405555, 41.680545], [-8.432086, 41.667114], [-8.444107, 41.666062], [-8.456104, 41.667938], [-8.482965, 41.678744], [-8.484371, 41.674238], [-8.49308, 41.674886], [-8.499963, 41.671038], [-8.50927, 41.671233], [-8.51018, 41.672806], [-8.511967, 41.670324], [-8.509856, 41.668755], [-8.522103, 41.658811], [-8.525706, 41.659023], [-8.527769, 41.652714], [-8.534066, 41.652017], [-8.537355, 41.64998], [-8.537634, 41.646602], [-8.543876, 41.637352], [-8.543855, 41.633976], [-8.536342, 41.631977], [-8.535132, 41.630406], [-8.539285, 41.622954], [-8.528504, 41.623272], [-8.516514, 41.621364], [-8.504544, 41.616973], [-8.492593, 41.610399], [-8.478475, 41.599835], [-8.462927, 41.581749], [-8.461648, 41.572735], [-8.471765, 41.554768], [-8.47356, 41.545768], [-8.467137, 41.536732], [-8.447887, 41.527633], [-8.437942, 41.518578], [-8.43782, 41.50957], [-8.442508, 41.500585], [-8.449962, 41.491614], [-8.457644, 41.484043], [-8.469684, 41.476558], [-8.481675, 41.474773], [-8.493639, 41.47637], [-8.505579, 41.481297], [-8.522026, 41.491936], [-8.531539, 41.500982], [-8.537841, 41.510015], [-8.550432, 41.537087], [-8.570464, 41.564186], [-8.577247, 41.582226], [-8.577678, 41.591235], [-8.575408, 41.600233], [-8.569484, 41.609219], [-8.558879, 41.616815], [-8.562639, 41.61635], [-8.568056, 41.619031], [-8.570735, 41.616095], [-8.577321, 41.614269], [-8.581231, 41.615829], [-8.585766, 41.620988], [-8.591462, 41.620515], [-8.596534, 41.616668], [-8.601628, 41.615972], [-8.603996, 41.611686], [-8.609369, 41.608287], [-8.614156, 41.606692], [-8.619881, 41.610269], [-8.621338, 41.604636], [-8.628833, 41.604378], [-8.636302, 41.600744], [-8.639873, 41.597352], [-8.640152, 41.59465], [-8.645536, 41.593051], [-8.646744, 41.594171], [-8.649125, 41.591909], [-8.656622, 41.5921], [-8.658409, 41.590629]], [[-7.952074, 41.785388], [-7.954634, 41.794418], [-7.94947, 41.797928], [-7.937455, 41.796615], [-7.935039, 41.794238], [-7.936707, 41.785247], [-7.952074, 41.785388]], [[-8.190465, 41.776906], [-8.17836, 41.782585], [-8.166303, 41.784374], [-8.154281, 41.783477], [-8.142297, 41.779667], [-8.130364, 41.772314], [-8.120445, 41.75978], [-8.116589, 41.741736], [-8.115392, 41.723713], [-8.119291, 41.714736], [-8.126332, 41.705783], [-8.131326, 41.70096], [-8.143407, 41.696205], [-8.155403, 41.697888], [-8.163475, 41.706059], [-8.167896, 41.715098], [-8.193469, 41.733295], [-8.201124, 41.742355], [-8.204068, 41.751383], [-8.203163, 41.760383], [-8.198407, 41.769357], [-8.190465, 41.776906]], [[-8.046094, 41.775485], [-8.034028, 41.777725], [-8.022003, 41.777263], [-8.01001, 41.774675], [-7.998086, 41.767722], [-7.986228, 41.75676], [-7.969451, 41.731504], [-7.96721, 41.722477], [-7.969044, 41.713486], [-7.97845, 41.704563], [-7.987106, 41.700899], [-7.999147, 41.699385], [-8.011149, 41.700484], [-8.023095, 41.705274], [-8.057668, 41.732261], [-8.06426, 41.741322], [-8.066891, 41.75035], [-8.065903, 41.759349], [-8.059062, 41.7683], [-8.046094, 41.775485]], [[-7.877642, 41.775517], [-7.865571, 41.77771], [-7.853546, 41.777268], [-7.841582, 41.773436], [-7.83213, 41.766218], [-7.829724, 41.757186], [-7.833235, 41.748215], [-7.842139, 41.742466], [-7.854238, 41.738377], [-7.878326, 41.736255], [-7.886501, 41.739737], [-7.890242, 41.742573], [-7.893524, 41.748812], [-7.894801, 41.757831], [-7.891148, 41.766802], [-7.877642, 41.775517]], [[-7.949879, 41.772827], [-7.937852, 41.772563], [-7.923341, 41.767109], [-7.920524, 41.758075], [-7.925504, 41.749115], [-7.938354, 41.742106], [-7.950375, 41.742395], [-7.962107, 41.749452], [-7.967251, 41.758505], [-7.964747, 41.767489], [-7.949879, 41.772827]], [[-8.215148, 41.726183], [-8.203167, 41.722801], [-8.188789, 41.715248], [-8.179738, 41.706177], [-8.174878, 41.697135], [-8.173298, 41.688116], [-8.176353, 41.679131], [-8.191854, 41.666152], [-8.203922, 41.661604], [-8.215961, 41.65926], [-8.227967, 41.659685], [-8.23994, 41.662868], [-8.252856, 41.670647], [-8.260568, 41.679704], [-8.263461, 41.68873], [-8.26338, 41.697736], [-8.260397, 41.706724], [-8.25259, 41.715681], [-8.239222, 41.723904], [-8.227163, 41.726922], [-8.215148, 41.726183]], [[-7.913304, 41.712973], [-7.912116, 41.721968], [-7.902497, 41.729089], [-7.890466, 41.72955], [-7.885423, 41.721713], [-7.88705, 41.712721], [-7.890834, 41.708151], [-7.902889, 41.706048], [-7.913304, 41.712973]], [[-8.107122, 41.71304], [-8.095171, 41.708057], [-8.092443, 41.70552], [-8.092243, 41.696512], [-8.107542, 41.682625], [-8.119603, 41.679286], [-8.131566, 41.683128], [-8.135442, 41.687838], [-8.133142, 41.696828], [-8.11918, 41.710264], [-8.107122, 41.71304]], [[-8.021552, 41.668911], [-8.010329, 41.659807], [-8.016599, 41.650854], [-8.023964, 41.647754], [-8.035895, 41.652981], [-8.038595, 41.660047], [-8.035735, 41.66369], [-8.025998, 41.668948], [-8.021552, 41.668911]], [[-8.455659, 41.626751], [-8.444356, 41.637201], [-8.440597, 41.635685], [-8.432374, 41.626638], [-8.444505, 41.619807], [-8.455659, 41.626751]], [[-8.084128, 41.639213], [-8.072119, 41.639345], [-8.054653, 41.633159], [-8.046316, 41.624083], [-8.043613, 41.615054], [-8.046069, 41.606067], [-8.05358, 41.597122], [-8.060784, 41.593], [-8.07284, 41.589027], [-8.084849, 41.588172], [-8.096823, 41.589922], [-8.108726, 41.596751], [-8.113655, 41.606608], [-8.112173, 41.615604], [-8.106258, 41.624565], [-8.096207, 41.634011], [-8.084128, 41.639213]], [[-8.241587, 41.522385], [-8.229654, 41.517985], [-8.224874, 41.508332], [-8.229028, 41.499352], [-8.241909, 41.494771], [-8.253856, 41.497662], [-8.260256, 41.508565], [-8.253602, 41.519787], [-8.241587, 41.522385]]], [[[-8.637778, 41.401744], [-8.649752, 41.399879], [-8.661786, 41.386024], [-8.665753, 41.375345], [-8.666159, 41.366339], [-8.663425, 41.357323], [-8.656001, 41.348294], [-8.650052, 41.343933], [-8.638129, 41.33858], [-8.626186, 41.336901], [-8.614229, 41.337901], [-8.60225, 41.342413], [-8.593847, 41.348091], [-8.588098, 41.357078], [-8.586869, 41.366081], [-8.590012, 41.3751], [-8.597084, 41.384133], [-8.613891, 41.395147], [-8.625826, 41.399825], [-8.637778, 41.401744]]], [[[-8.487281, 41.236209], [-8.497213, 41.248624], [-8.507282, 41.255987], [-8.519177, 41.261675], [-8.531092, 41.264732], [-8.543024, 41.265692], [-8.554968, 41.264833], [-8.566925, 41.261949], [-8.578899, 41.256429], [-8.590892, 41.247332], [-8.596757, 41.240008], [-8.601178, 41.231016], [-8.602815, 41.222014], [-8.598697, 41.203984], [-8.591235, 41.192216], [-8.580146, 41.182312], [-8.581296, 41.191762], [-8.575958, 41.195609], [-8.576894, 41.201908], [-8.574515, 41.202593], [-8.57423, 41.20462], [-8.567971, 41.204644], [-8.565895, 41.206227], [-8.567697, 41.208246], [-8.566512, 41.209376], [-8.559636, 41.206251], [-8.554271, 41.20627], [-8.549521, 41.209214], [-8.544157, 41.209458], [-8.54238, 41.211265], [-8.532257, 41.213102], [-8.52653, 41.202542], [-8.523236, 41.200077], [-8.518471, 41.200543], [-8.51163, 41.203042], [-8.510456, 41.206197], [-8.505693, 41.207113], [-8.504239, 41.213646], [-8.500076, 41.21546], [-8.50308, 41.219502], [-8.502204, 41.222656], [-8.496833, 41.221998], [-8.493861, 41.223583], [-8.487935, 41.230354], [-8.490333, 41.232598], [-8.487281, 41.236209]]]]}}, {"id": "1", "type": "Feature", "properties": {"fill": "#e19f31", "value_min": -1.5, "value_max": -1.25}, "geometry": {"type": "MultiPolygon", "coordinates": [[[[-7.887977, 41.811806], [-7.880778, 41.802729], [-7.877197, 41.800988], [-7.865162, 41.800881], [-7.860822, 41.802533], [-7.85259, 41.811458], [-7.855476, 41.820493], [-7.864718, 41.826043], [-7.876766, 41.82569], [-7.884046, 41.820774], [-7.887977, 41.811806]]], [[[-8.216361, 41.688418], [-8.202984, 41.688326], [-8.198649, 41.697303], [-8.203417, 41.702539], [-8.215434, 41.702702], [-8.221015, 41.697457], [-8.216361, 41.688418]]], [[[-8.119392, 41.694788], [-8.115479, 41.696693], [-8.119336, 41.698876], [-8.121151, 41.696736], [-8.119392, 41.694788]]], [[[-8.528827, 41.578865], [-8.530599, 41.573037], [-8.528885, 41.570919], [-8.516925, 41.56629], [-8.506842, 41.572938], [-8.511573, 41.581965], [-8.516791, 41.584315], [-8.526008, 41.582026], [-8.528827, 41.578865]]], [[[-8.501848, 41.509865], [-8.493452, 41.500389], [-8.481486, 41.498429], [-8.469449, 41.505367], [-8.466627, 41.509707], [-8.470318, 41.518732], [-8.481281, 41.524117], [-8.493275, 41.523073], [-8.499494, 41.518862], [-8.501848, 41.509865]], [[-8.481397, 41.509613], [-8.48182, 41.509777], [-8.481393, 41.51014], [-8.48118, 41.509774], [-8.481397, 41.509613]]]]}}, {"id": "2", "type": "Feature", "properties": {"fill": "#b6a27f", "value_min": -1.25, "value_max": -1.0}, "geometry": {"type": "MultiPolygon", "coordinates": [[[[-7.743456, 41.856665], [-7.743537, 41.865072], [-7.755474, 41.870847], [-7.767598, 41.867014], [-7.769811, 41.864641], [-7.76963, 41.855632], [-7.76785, 41.853907], [-7.755875, 41.850196], [-7.74659, 41.854], [-7.746881, 41.855776], [-7.743456, 41.856665]]], [[[-7.888645, 41.835108], [-7.893981, 41.829877], [-7.899335, 41.820922], [-7.899977, 41.811921], [-7.895982, 41.802876], [-7.889297, 41.797373], [-7.877333, 41.793237], [-7.865299, 41.793116], [-7.853212, 41.796029], [-7.84111, 41.802336], [-7.833349, 41.811264], [-7.831977, 41.820257], [-7.835284, 41.829297], [-7.84048, 41.834574], [-7.852408, 41.841055], [-7.86442, 41.842921], [-7.876497, 41.841073], [-7.888645, 41.835108]], [[-7.887977, 41.811806], [-7.884046, 41.820774], [-7.876766, 41.82569], [-7.864718, 41.826043], [-7.855476, 41.820493], [-7.85259, 41.811458], [-7.860822, 41.802533], [-7.865162, 41.800881], [-7.877197, 41.800988], [-7.880778, 41.802729], [-7.887977, 41.811806]]], [[[-7.857096, 41.703421], [-7.854896, 41.701329], [-7.848016, 41.70333], [-7.854699, 41.712451], [-7.857096, 41.703421]]], [[[-8.237356, 41.697566], [-8.236068, 41.688551], [-8.227722, 41.680172], [-8.215759, 41.675951], [-8.203734, 41.676822], [-8.19163, 41.684022], [-8.188292, 41.688223], [-8.186978, 41.697221], [-8.19137, 41.704767], [-8.203294, 41.712521], [-8.215299, 41.7138], [-8.227364, 41.710082], [-8.232436, 41.706541], [-8.237356, 41.697566]], [[-8.216361, 41.688418], [-8.221015, 41.697457], [-8.215434, 41.702702], [-8.203417, 41.702539], [-8.198649, 41.697303], [-8.202984, 41.688326], [-8.216361, 41.688418]]], [[[-8.119475, 41.688697], [-8.107392, 41.693492], [-8.104039, 41.696604], [-8.107258, 41.703169], [-8.119243, 41.705657], [-8.126771, 41.696779], [-8.119475, 41.688697]], [[-8.119392, 41.694788], [-8.121151, 41.696736], [-8.119336, 41.698876], [-8.115479, 41.696693], [-8.119392, 41.694788]]], [[[-8.102335, 41.615527], [-8.096617, 41.60464], [-8.084646, 41.602592], [-8.075944, 41.606311], [-8.070331, 41.615273], [-8.076842, 41.624333], [-8.084297, 41.627246], [-8.096336, 41.6248], [-8.102335, 41.615527]]], [[[-8.550629, 41.582125], [-8.550979, 41.573119], [-8.546867, 41.564095], [-8.54097, 41.55805], [-8.529028, 41.551143], [-8.517054, 41.548943], [-8.505041, 41.551962], [-8.492957, 41.563786], [-8.488701, 41.572859], [-8.489681, 41.58187], [-8.496775, 41.590909], [-8.504703, 41.59618], [-8.516678, 41.599468], [-8.52868, 41.599161], [-8.540712, 41.59453], [-8.545042, 41.59111], [-8.550629, 41.582125]], [[-8.528827, 41.578865], [-8.526008, 41.582026], [-8.516791, 41.584315], [-8.511573, 41.581965], [-8.506842, 41.572938], [-8.516925, 41.56629], [-8.528885, 41.570919], [-8.530599, 41.573037], [-8.528827, 41.578865]]], [[[-8.516573, 41.518935], [-8.51636, 41.509927], [-8.511615, 41.500899], [-8.505469, 41.495679], [-8.493534, 41.489906], [-8.481563, 41.488838], [-8.469552, 41.492712], [-8.459904, 41.500668], [-8.455654, 41.509656], [-8.458555, 41.518677], [-8.469273, 41.526903], [-8.481209, 41.533142], [-8.493179, 41.535468], [-8.505178, 41.533907], [-8.512176, 41.527924], [-8.516573, 41.518935]], [[-8.501848, 41.509865], [-8.499494, 41.518862], [-8.493275, 41.523073], [-8.481281, 41.524117], [-8.470318, 41.518732], [-8.466627, 41.509707], [-8.469449, 41.505367], [-8.481486, 41.498429], [-8.493452, 41.500389], [-8.501848, 41.509865]]]]}}, {"id": "3", "type": "Feature", "properties": {"fill": "#a3a3a3", "value_min": -1.0, "value_max": -0.75}, "geometry": {"type": "MultiPolygon", "coordinates": [[[[-7.906275, 41.864525], [-7.919929, 41.821117], [-7.917942, 41.812092], [-7.912741, 41.803036], [-7.901474, 41.789101], [-7.889502, 41.785494], [-7.829285, 41.788018], [-7.81726, 41.787499], [-7.805288, 41.784138], [-7.793721, 41.774827], [-7.769963, 41.743529], [-7.760617, 41.736082], [-7.759597, 41.739005], [-7.75689, 41.739446], [-7.758687, 41.740577], [-7.757758, 41.745301], [-7.748417, 41.749321], [-7.747786, 41.754496], [-7.743866, 41.756509], [-7.740214, 41.763924], [-7.726937, 41.771755], [-7.7254, 41.777152], [-7.727191, 41.779184], [-7.724177, 41.780299], [-7.725372, 41.781653], [-7.722302, 41.791546], [-7.722889, 41.793798], [-7.728879, 41.797871], [-7.727026, 41.805517], [-7.72995, 41.819031], [-7.73594, 41.823554], [-7.74345, 41.825605], [-7.738918, 41.82874], [-7.742196, 41.833928], [-7.74729, 41.837772], [-7.746349, 41.84407], [-7.750541, 41.847685], [-7.750532, 41.849261], [-7.743309, 41.849012], [-7.746901, 41.8524], [-7.74659, 41.854], [-7.755875, 41.850196], [-7.76785, 41.853907], [-7.76963, 41.855632], [-7.769811, 41.864641], [-7.767598, 41.867014], [-7.755474, 41.870847], [-7.743537, 41.865072], [-7.743456, 41.856665], [-7.736611, 41.861368], [-7.734159, 41.868337], [-7.730228, 41.871024], [-7.729293, 41.875972], [-7.722351, 41.878424], [-7.720523, 41.881793], [-7.725335, 41.882935], [-7.726208, 41.887665], [-7.737044, 41.888828], [-7.737935, 41.890857], [-7.74246, 41.889747], [-7.742785, 41.885922], [-7.756022, 41.888441], [-7.758719, 41.890926], [-7.756592, 41.89407], [-7.758076, 41.897901], [-7.763193, 41.898593], [-7.779227, 41.886264], [-7.785257, 41.885157], [-7.788886, 41.882467], [-7.794007, 41.882257], [-7.796739, 41.878214], [-7.794349, 41.87438], [-7.797064, 41.873488], [-7.803381, 41.874857], [-7.804914, 41.869459], [-7.813032, 41.871958], [-7.814229, 41.873537], [-7.823863, 41.874013], [-7.825059, 41.875817], [-7.830479, 41.875831], [-7.830789, 41.874031], [-7.832894, 41.874712], [-7.83772, 41.872924], [-7.842528, 41.875187], [-7.841663, 41.866632], [-7.849515, 41.861475], [-7.858542, 41.862622], [-7.859456, 41.860148], [-7.864877, 41.859711], [-7.87033, 41.851395], [-7.873043, 41.850501], [-7.873066, 41.844875], [-7.879956, 41.853217], [-7.888076, 41.855486], [-7.891675, 41.859094], [-7.898893, 41.86136], [-7.902203, 41.861591], [-7.904318, 41.859795], [-7.906275, 41.864525]], [[-7.888645, 41.835108], [-7.876497, 41.841073], [-7.86442, 41.842921], [-7.852408, 41.841055], [-7.84048, 41.834574], [-7.835284, 41.829297], [-7.831977, 41.820257], [-7.833349, 41.811264], [-7.84111, 41.802336], [-7.853212, 41.796029], [-7.865299, 41.793116], [-7.877333, 41.793237], [-7.889297, 41.797373], [-7.895982, 41.802876], [-7.899977, 41.811921], [-7.899335, 41.820922], [-7.893981, 41.829877], [-7.888645, 41.835108]]], [[[-7.949879, 41.772827], [-7.964747, 41.767489], [-7.967251, 41.758505], [-7.962107, 41.749452], [-7.950375, 41.742395], [-7.938354, 41.742106], [-7.925504, 41.749115], [-7.920524, 41.758075], [-7.923341, 41.767109], [-7.937852, 41.772563], [-7.949879, 41.772827]]], [[[-8.215148, 41.726183], [-8.227163, 41.726922], [-8.239222, 41.723904], [-8.25259, 41.715681], [-8.260397, 41.706724], [-8.26338, 41.697736], [-8.263461, 41.68873], [-8.260568, 41.679704], [-8.252856, 41.670647], [-8.23994, 41.662868], [-8.227967, 41.659685], [-8.215961, 41.65926], [-8.203922, 41.661604], [-8.191854, 41.666152], [-8.176353, 41.679131], [-8.173298, 41.688116], [-8.174878, 41.697135], [-8.179738, 41.706177], [-8.188789, 41.715248], [-8.203167, 41.722801], [-8.215148, 41.726183]], [[-8.237356, 41.697566], [-8.232436, 41.706541], [-8.227364, 41.710082], [-8.215299, 41.7138], [-8.203294, 41.712521], [-8.19137, 41.704767], [-8.186978, 41.697221], [-8.188292, 41.688223], [-8.19163, 41.684022], [-8.203734, 41.676822], [-8.215759, 41.675951], [-8.227722, 41.680172], [-8.236068, 41.688551], [-8.237356, 41.697566]]], [[[-7.812491, 41.718006], [-7.816881, 41.721027], [-7.83043, 41.725014], [-7.842428, 41.726411], [-7.854466, 41.725523], [-7.863523, 41.721498], [-7.8718, 41.712573], [-7.875144, 41.703599], [-7.87563, 41.694596], [-7.872283, 41.68597], [-7.868896, 41.686413], [-7.867408, 41.683258], [-7.864403, 41.683701], [-7.864096, 41.685276], [-7.860493, 41.685268], [-7.857773, 41.689538], [-7.854776, 41.68818], [-7.847538, 41.695365], [-7.837309, 41.699391], [-7.835792, 41.702763], [-7.839682, 41.705924], [-7.838465, 41.709522], [-7.832453, 41.710407], [-7.825252, 41.708813], [-7.818621, 41.713522], [-7.815291, 41.718689], [-7.812491, 41.718006]], [[-7.857096, 41.703421], [-7.854699, 41.712451], [-7.848016, 41.70333], [-7.854896, 41.701329], [-7.857096, 41.703421]]], [[[-8.107122, 41.71304], [-8.11918, 41.710264], [-8.133142, 41.696828], [-8.135442, 41.687838], [-8.131566, 41.683128], [-8.119603, 41.679286], [-8.107542, 41.682625], [-8.092243, 41.696512], [-8.092443, 41.70552], [-8.095171, 41.708057], [-8.107122, 41.71304]], [[-8.119475, 41.688697], [-8.126771, 41.696779], [-8.119243, 41.705657], [-8.107258, 41.703169], [-8.104039, 41.696604], [-8.107392, 41.693492], [-8.119475, 41.688697]]], [[[-8.021552, 41.668911], [-8.025998, 41.668948], [-8.035735, 41.66369], [-8.038595, 41.660047], [-8.035895, 41.652981], [-8.023964, 41.647754], [-8.016599, 41.650854], [-8.010329, 41.659807], [-8.021552, 41.668911]]], [[[-8.084128, 41.639213], [-8.096207, 41.634011], [-8.106258, 41.624565], [-8.112173, 41.615604], [-8.113655, 41.606608], [-8.108726, 41.596751], [-8.096823, 41.589922], [-8.084849, 41.588172], [-8.07284, 41.589027], [-8.060784, 41.593], [-8.05358, 41.597122], [-8.046069, 41.606067], [-8.043613, 41.615054], [-8.046316, 41.624083], [-8.054653, 41.633159], [-8.072119, 41.639345], [-8.084128, 41.639213]], [[-8.102335, 41.615527], [-8.096336, 41.6248], [-8.084297, 41.627246], [-8.076842, 41.624333], [-8.070331, 41.615273], [-8.075944, 41.606311], [-8.084646, 41.602592], [-8.096617, 41.60464], [-8.102335, 41.615527]]], [[[-8.558879, 41.616815], [-8.569484, 41.609219], [-8.575408, 41.600233], [-8.577678, 41.591235], [-8.577247, 41.582226], [-8.570464, 41.564186], [-8.550432, 41.537087], [-8.537841, 41.510015], [-8.531539, 41.500982], [-8.522026, 41.491936], [-8.505579, 41.481297], [-8.493639, 41.47637], [-8.481675, 41.474773], [-8.469684, 41.476558], [-8.457644, 41.484043], [-8.449962, 41.491614], [-8.442508, 41.500585], [-8.43782, 41.50957], [-8.437942, 41.518578], [-8.447887, 41.527633], [-8.467137, 41.536732], [-8.47356, 41.545768], [-8.471765, 41.554768], [-8.461648, 41.572735], [-8.462927, 41.581749], [-8.478475, 41.599835], [-8.492593, 41.610399], [-8.504544, 41.616973], [-8.516514, 41.621364], [-8.528504, 41.623272], [-8.539285, 41.622954], [-8.543431, 41.61462], [-8.554533, 41.615255], [-8.555743, 41.616826], [-8.558879, 41.616815]], [[-8.550629, 41.582125], [-8.545042, 41.59111], [-8.540712, 41.59453], [-8.52868, 41.599161], [-8.516678, 41.599468], [-8.504703, 41.59618], [-8.496775, 41.590909], [-8.489681, 41.58187], [-8.488701, 41.572859], [-8.492957, 41.563786], [-8.505041, 41.551962], [-8.517054, 41.548943], [-8.529028, 41.551143], [-8.54097, 41.55805], [-8.546867, 41.564095], [-8.550979, 41.573119], [-8.550629, 41.582125]], [[-8.516573, 41.518935], [-8.512176, 41.527924], [-8.505178, 41.533907], [-8.493179, 41.535468], [-8.481209, 41.533142], [-8.469273, 41.526903], [-8.458555, 41.518677], [-8.455654, 41.509656], [-8.459904, 41.500668], [-8.469552, 41.492712], [-8.481563, 41.488838], [-8.493534, 41.489906], [-8.505469, 41.495679], [-8.511615, 41.500899], [-8.51636, 41.509927], [-8.516573, 41.518935]]], [[[-8.241587, 41.522385], [-8.253602, 41.519787], [-8.260256, 41.508565], [-8.253856, 41.497662], [-8.241909, 41.494771], [-8.229028, 41.499352], [-8.224874, 41.508332], [-8.229654, 41.517985], [-8.241587, 41.522385]]], [[[-8.673218, 41.491588], [-8.688613, 41.4835], [-8.690401, 41.474497], [-8.683724, 41.465472], [-8.673369, 41.461402], [-8.661391, 41.462127], [-8.655586, 41.465391], [-8.649362, 41.472397], [-8.648454, 41.474377], [-8.651143, 41.483392], [-8.661246, 41.49002], [-8.673218, 41.491588]]]]}}]}