{"type": "FeatureCollection", "features": [{"id": "4", "type": "Feature", "properties": {"fill": "#a3a3a3", "value_min": 0.0, "value_max": -0.25}, "geometry": {"type": "MultiPolygon", "coordinates": [[[[-8.070553, 41.81494], [-8.055357, 41.804297], [-8.033794, 41.793356], [-8.021817, 41.789473], [-7.997776, 41.787608], [-7.985719, 41.789058], [-7.949419, 41.801047], [-7.925337, 41.801471], [-7.913222, 41.806123], [-7.888635, 41.835662], [-7.876457, 41.843338], [-7.864355, 41.846567], [-7.852318, 41.846074], [-7.840353, 41.841632], [-7.80917, 41.820022], [-7.79268, 41.814735], [-7.780646, 41.814474], [-7.731748, 41.820343], [-7.73594, 41.823554], [-7.743152, 41.825154], [-7.742839, 41.827178], [-7.741031, 41.827591], [-7.768388, 41.825862], [-7.780393, 41.827771], [-7.792352, 41.8322], [-7.80141, 41.837955], [-7.811198, 41.847064], [-7.823244, 41.865201], [-7.826736, 41.875821], [-7.830479, 41.875831], [-7.830789, 41.874031], [-7.832894, 41.874712], [-7.83772, 41.872924], [-7.842528, 41.875187], [-7.841663, 41.866632], [-7.849515, 41.861475], [-7.858542, 41.862622], [-7.859456, 41.860148], [-7.864877, 41.859711], [-7.87033, 41.851395], [-7.873043, 41.850501], [-7.873066, 41.844875], [-7.879956, 41.853217], [-7.888076, 41.855486], [-7.891675, 41.859094], [-7.895644, 41.859553], [-7.903884, 41.838979], [-7.91012, 41.830032], [-7.925074, 41.81723], [-7.937172, 41.813724], [-7.961285, 41.811594], [-7.973317, 41.812057], [-7.98532, 41.814344], [-8.00123, 41.821853], [-8.012717, 41.833624], [-8.013965, 41.828899], [-8.017873, 41.831379], [-8.02901, 41.829589], [-8.037134, 41.831171], [-8.041351, 41.828023], [-8.041054, 41.825097], [-8.045268, 41.824425], [-8.046775, 41.821951], [-8.056712, 41.81588], [-8.06664, 41.817012], [-8.070553, 41.81494]]], [[[-7.74073, 41.827642], [-7.74073, 41.827642], [-7.740849, 41.827622], [-7.74073, 41.827642]]], [[[-8.026018, 41.731997], [-8.022744, 41.728412], [-8.010805, 41.7229], [-7.998694, 41.728633], [-7.996415, 41.731743], [-7.998337, 41.740766], [-8.010436, 41.746958], [-8.022518, 41.743332], [-8.024719, 41.740993], [-8.026018, 41.731997]]], [[[-8.219849, 41.688442], [-8.215634, 41.686251], [-8.203611, 41.686816], [-8.201732, 41.688317], [-8.197948, 41.697298], [-8.203396, 41.704227], [-8.215401, 41.705371], [-8.224196, 41.697478], [-8.219849, 41.688442]]], [[[-8.407972, 41.67691], [-8.412836, 41.671576], [-8.413516, 41.662572], [-8.407863, 41.653536], [-8.396257, 41.644926], [-8.384286, 41.641012], [-8.372273, 41.641555], [-8.360214, 41.646744], [-8.353194, 41.653241], [-8.34916, 41.662226], [-8.349709, 41.671236], [-8.355493, 41.680275], [-8.35985, 41.683569], [-8.371821, 41.688133], [-8.383835, 41.6883], [-8.395882, 41.685024], [-8.404511, 41.68054], [-8.407972, 41.67691]]], [[[-8.605243, 41.611231], [-8.613256, 41.606696], [-8.619881, 41.610269], [-8.621338, 41.604636], [-8.628833, 41.604378], [-8.6366, 41.600518], [-8.639873, 41.597352], [-8.640152, 41.59465], [-8.645536, 41.593051], [-8.646744, 41.594171], [-8.649125, 41.591909], [-8.656622, 41.5921], [-8.660788, 41.588255], [-8.663794, 41.589141], [-8.665265, 41.585758], [-8.66948, 41.587989], [-8.684455, 41.586117], [-8.685608, 41.58071], [-8.697261, 41.576376], [-8.701703, 41.570277], [-8.707704, 41.570923], [-8.711586, 41.569327], [-8.716422, 41.573805], [-8.720316, 41.57356], [-8.725151, 41.577811], [-8.726633, 41.576003], [-8.734424, 41.575737], [-8.736564, 41.580228], [-8.738354, 41.579318], [-8.740778, 41.582006], [-8.74467, 41.581535], [-8.750711, 41.58623], [-8.756374, 41.582823], [-8.75635, 41.580347], [-8.762327, 41.578514], [-8.764443, 41.580303], [-8.767441, 41.580286], [-8.769874, 41.583874], [-8.768997, 41.58613], [-8.773228, 41.589482], [-8.775371, 41.593972], [-8.78556, 41.593464], [-8.797327, 41.600599], [-8.804218, 41.600109], [-8.80456, 41.604158], [-8.809434, 41.611332], [-8.828644, 41.609656], [-8.82839, 41.585633], [-8.818497, 41.554794], [-8.8221, 41.547542], [-8.821965, 41.534907], [-8.815926, 41.525624], [-8.81063, 41.5101], [-8.813279, 41.503483], [-8.812636, 41.496944], [-8.804699, 41.482068], [-8.798552, 41.474753], [-8.80154, 41.446836], [-8.806115, 41.43713], [-8.807354, 41.425915], [-8.811211, 41.415789], [-8.799695, 41.14406], [-8.674793, 41.146932], [-8.674849, 41.153767], [-8.672489, 41.15648], [-8.66117, 41.156307], [-8.662078, 41.158104], [-8.660313, 41.160813], [-8.657033, 41.160378], [-8.654961, 41.161963], [-8.653231, 41.169174], [-8.655366, 41.175467], [-8.647955, 41.180228], [-8.647696, 41.185181], [-8.640929, 41.196241], [-8.634946, 41.193341], [-8.632526, 41.188624], [-8.625658, 41.186628], [-8.621132, 41.178994], [-8.613374, 41.177451], [-8.608583, 41.174095], [-8.609164, 41.172066], [-8.604942, 41.164881], [-8.59422, 41.165149], [-8.589174, 41.167645], [-8.589194, 41.170572], [-8.583263, 41.174422], [-8.582094, 41.177803], [-8.578825, 41.178941], [-8.581296, 41.191762], [-8.575958, 41.195609], [-8.576894, 41.201908], [-8.574515, 41.202593], [-8.57423, 41.20462], [-8.567971, 41.204644], [-8.565895, 41.206227], [-8.567697, 41.208246], [-8.566512, 41.209376], [-8.559636, 41.206251], [-8.554271, 41.20627], [-8.549521, 41.209214], [-8.544157, 41.209458], [-8.54238, 41.211265], [-8.532257, 41.213102], [-8.52653, 41.202542], [-8.523236, 41.200077], [-8.518471, 41.200543], [-8.51163, 41.203042], [-8.510456, 41.206197], [-8.505693, 41.207113], [-8.504239, 41.213646], [-8.500076, 41.21546], [-8.50308, 41.219502], [-8.502204, 41.222656], [-8.495642, 41.222227], [-8.495947, 41.223351], [-8.490894, 41.226294], [-8.487935, 41.230354], [-8.490331, 41.232373], [-8.489156, 41.235528], [-8.486181, 41.236888], [-8.484411, 41.240495], [-8.476644, 41.237817], [-8.475756, 41.23917], [-8.472226, 41.239181], [-8.48683, 41.257586], [-8.507116, 41.275691], [-8.530902, 41.29138], [-8.542804, 41.297269], [-8.566644, 41.304529], [-8.602448, 41.309783], [-8.626309, 41.315468], [-8.65015, 41.325605], [-8.662061, 41.332996], [-8.680257, 41.348364], [-8.687165, 41.35739], [-8.691811, 41.36641], [-8.693442, 41.375422], [-8.691644, 41.384425], [-8.684797, 41.393414], [-8.673674, 41.40066], [-8.661686, 41.405388], [-8.637731, 41.410227], [-8.6138, 41.410478], [-8.601845, 41.408847], [-8.554066, 41.397272], [-8.542105, 41.397068], [-8.530125, 41.399477], [-8.518124, 41.404651], [-8.498251, 41.419775], [-8.483828, 41.437726], [-8.475267, 41.455702], [-8.46842, 41.482693], [-8.462485, 41.491673], [-8.450657, 41.500624], [-8.402095, 41.518397], [-8.398173, 41.527384], [-8.399391, 41.545405], [-8.402954, 41.554431], [-8.409997, 41.563475], [-8.42093, 41.5715], [-8.432882, 41.576375], [-8.456846, 41.579509], [-8.468852, 41.578383], [-8.480888, 41.573344], [-8.505025, 41.553962], [-8.517051, 41.549406], [-8.529043, 41.549149], [-8.541011, 41.552358], [-8.559131, 41.564143], [-8.582087, 41.591251], [-8.605243, 41.611231]], [[-8.617571, 41.528323], [-8.625119, 41.52264], [-8.628959, 41.52836], [-8.625066, 41.531939], [-8.617571, 41.528323]], [[-8.661252, 41.488866], [-8.653226, 41.483399], [-8.651025, 41.474385], [-8.661377, 41.464861], [-8.673354, 41.464422], [-8.686265, 41.474486], [-8.684734, 41.483489], [-8.673227, 41.489829], [-8.661252, 41.488866]], [[-8.733763, 41.333496], [-8.721814, 41.333088], [-8.709875, 41.330528], [-8.690253, 41.321368], [-8.679102, 41.31233], [-8.672503, 41.303303], [-8.669334, 41.294286], [-8.669598, 41.285279], [-8.673636, 41.276283], [-8.682558, 41.2673], [-8.698251, 41.259589], [-8.710202, 41.256653], [-8.73408, 41.255617], [-8.746009, 41.257582], [-8.75793, 41.261671], [-8.769842, 41.269203], [-8.776918, 41.27653], [-8.781224, 41.285546], [-8.782599, 41.294556], [-8.781091, 41.303561], [-8.77673, 41.31256], [-8.769663, 41.319898], [-8.757686, 41.327627], [-8.745721, 41.331778], [-8.733763, 41.333496]]], [[[-8.081848, 41.550977], [-8.097308, 41.555083], [-8.109294, 41.555477], [-8.12415, 41.552645], [-8.14076, 41.543763], [-8.147706, 41.534808], [-8.15082, 41.525823], [-8.153856, 41.480809], [-8.151238, 41.471783], [-8.144574, 41.462726], [-8.134609, 41.455517], [-8.122696, 41.451038], [-8.110746, 41.449415], [-8.098762, 41.450267], [-8.086741, 41.453782], [-8.071502, 41.463863], [-8.073872, 41.46499], [-8.074164, 41.473543], [-8.066374, 41.482318], [-8.066069, 41.48817], [-8.072054, 41.490199], [-8.07175, 41.494925], [-8.078333, 41.49898], [-8.078332, 41.500331], [-8.093, 41.504613], [-8.089398, 41.519242], [-8.090594, 41.522169], [-8.093588, 41.52307], [-8.091487, 41.531173], [-8.097775, 41.536127], [-8.097774, 41.537927], [-8.106759, 41.543106], [-8.10616, 41.543782], [-8.101666, 41.542655], [-8.094175, 41.544904], [-8.087885, 41.542876], [-8.083389, 41.5449], [-8.081848, 41.550977]]], [[[-8.385452, 41.518076], [-8.393556, 41.509345], [-8.391883, 41.491321], [-8.388746, 41.482297], [-8.383048, 41.473259], [-8.373963, 41.466664], [-8.36204, 41.461321], [-8.35009, 41.45892], [-8.338116, 41.458964], [-8.326112, 41.461823], [-8.314056, 41.469666], [-8.307611, 41.481838], [-8.307926, 41.490847], [-8.313697, 41.503627], [-8.32556, 41.515108], [-8.337486, 41.520773], [-8.349444, 41.523472], [-8.361427, 41.523817], [-8.373428, 41.522222], [-8.385452, 41.518076]]]]}}, {"id": "5", "type": "Feature", "properties": {"fill": "#a3a3a3", "value_min": 0.25, "value_max": -0.5}, "geometry": {"type": "MultiPolygon", "coordinates": [[[[-8.605243, 41.611231], [-8.582087, 41.591251], [-8.559131, 41.564143], [-8.541011, 41.552358], [-8.529043, 41.549149], [-8.517051, 41.549406], [-8.505025, 41.553962], [-8.480888, 41.573344], [-8.468852, 41.578383], [-8.456846, 41.579509], [-8.432882, 41.576375], [-8.42093, 41.5715], [-8.409997, 41.563475], [-8.402954, 41.554431], [-8.399391, 41.545405], [-8.398173, 41.527384], [-8.402095, 41.518397], [-8.450657, 41.500624], [-8.462485, 41.491673], [-8.46842, 41.482693], [-8.475267, 41.455702], [-8.483828, 41.437726], [-8.498251, 41.419775], [-8.518124, 41.404651], [-8.530125, 41.399477], [-8.542105, 41.397068], [-8.554066, 41.397272], [-8.601845, 41.408847], [-8.6138, 41.410478], [-8.637731, 41.410227], [-8.661686, 41.405388], [-8.673674, 41.40066], [-8.684797, 41.393414], [-8.691644, 41.384425], [-8.693442, 41.375422], [-8.691811, 41.36641], [-8.687165, 41.35739], [-8.680257, 41.348364], [-8.662061, 41.332996], [-8.65015, 41.325605], [-8.626309, 41.315468], [-8.602448, 41.309783], [-8.566644, 41.304529], [-8.542804, 41.297269], [-8.530902, 41.29138], [-8.507116, 41.275691], [-8.48683, 41.257586], [-8.472226, 41.239181], [-8.470986, 41.23941], [-8.471604, 41.243459], [-8.469227, 41.245267], [-8.463258, 41.244384], [-8.459989, 41.246644], [-8.455512, 41.245982], [-8.455541, 41.251834], [-8.452276, 41.25522], [-8.449891, 41.255452], [-8.449304, 41.257479], [-8.447812, 41.257258], [-8.449028, 41.261982], [-8.443657, 41.261771], [-8.438004, 41.264938], [-8.438023, 41.268989], [-8.434745, 41.269673], [-8.432691, 41.277107], [-8.427032, 41.279372], [-8.429143, 41.284319], [-8.426171, 41.287028], [-8.425606, 41.294007], [-8.422037, 41.296942], [-8.421756, 41.30077], [-8.416982, 41.301232], [-8.407744, 41.304856], [-8.406262, 41.307335], [-8.403277, 41.307342], [-8.401801, 41.311398], [-8.399712, 41.311628], [-8.400316, 41.313202], [-8.396738, 41.314336], [-8.398835, 41.316131], [-8.393775, 41.31997], [-8.393489, 41.323122], [-8.391105, 41.324253], [-8.386325, 41.323588], [-8.38398, 41.326294], [-8.399137, 41.333911], [-8.412476, 41.347308], [-8.417134, 41.356339], [-8.41895, 41.365356], [-8.418309, 41.374361], [-8.415016, 41.383351], [-8.408442, 41.392325], [-8.398525, 41.400425], [-8.386504, 41.406579], [-8.374509, 41.409822], [-8.36253, 41.411259], [-8.338627, 41.408634], [-8.319973, 41.400844], [-8.308647, 41.391769], [-8.29907, 41.373696], [-8.298262, 41.364684], [-8.299951, 41.355686], [-8.304333, 41.346705], [-8.313801, 41.33596], [-8.31139, 41.328007], [-8.307502, 41.325762], [-8.305116, 41.326891], [-8.303024, 41.325994], [-8.303615, 41.323742], [-8.301216, 41.319694], [-8.296431, 41.316774], [-8.297618, 41.313846], [-8.295817, 41.310022], [-8.281801, 41.316569], [-8.281808, 41.319721], [-8.278828, 41.321976], [-8.278238, 41.325128], [-8.273161, 41.325134], [-8.269582, 41.326939], [-8.265709, 41.331221], [-8.269004, 41.336169], [-8.263339, 41.340902], [-8.262751, 41.345405], [-8.256483, 41.347663], [-8.255889, 41.349689], [-8.249622, 41.353072], [-8.251123, 41.356897], [-8.248141, 41.360052], [-8.248448, 41.364328], [-8.245461, 41.364781], [-8.244272, 41.368384], [-8.239197, 41.371315], [-8.232024, 41.369971], [-8.224854, 41.370878], [-8.21738, 41.368182], [-8.214399, 41.373587], [-8.208127, 41.376968], [-8.199163, 41.377423], [-8.194677, 41.374275], [-8.191691, 41.376302], [-8.189299, 41.375403], [-8.184818, 41.376756], [-8.168382, 41.377438], [-8.164499, 41.38059], [-8.152544, 41.375866], [-8.151049, 41.37339], [-8.145073, 41.374742], [-8.139694, 41.377894], [-8.133418, 41.374292], [-8.119672, 41.376768], [-8.119672, 41.378569], [-8.116683, 41.380144], [-8.117578, 41.386447], [-8.113992, 41.386896], [-8.112795, 41.390723], [-8.110105, 41.390947], [-8.108011, 41.393648], [-8.103827, 41.392972], [-8.105321, 41.394998], [-8.10263, 41.396123], [-8.10801, 41.398825], [-8.108606, 41.403102], [-8.104419, 41.406252], [-8.104119, 41.408728], [-8.101727, 41.409403], [-8.102025, 41.411204], [-8.092756, 41.411201], [-8.09126, 41.414352], [-8.079893, 41.41975], [-8.077503, 41.416597], [-8.070923, 41.41862], [-8.066739, 41.416142], [-8.061654, 41.417489], [-8.059852, 41.424916], [-8.055959, 41.429415], [-8.05745, 41.432793], [-8.056549, 41.436394], [-8.069999, 41.447206], [-8.068788, 41.462286], [-8.071502, 41.463863], [-8.086741, 41.453782], [-8.098762, 41.450267], [-8.110746, 41.449415], [-8.122696, 41.451038], [-8.134609, 41.455517], [-8.144574, 41.462726], [-8.151238, 41.471783], [-8.153856, 41.480809], [-8.15082, 41.525823], [-8.147706, 41.534808], [-8.14076, 41.543763], [-8.12415, 41.552645], [-8.109294, 41.555477], [-8.097308, 41.555083], [-8.081848, 41.550977], [-8.079489, 41.551876], [-8.074097, 41.549848], [-8.072897, 41.551197], [-8.076188, 41.557276], [-8.080082, 41.558854], [-8.081576, 41.565157], [-8.078879, 41.56493], [-8.075279, 41.568305], [-8.073182, 41.568079], [-8.069283, 41.570553], [-8.068081, 41.573478], [-8.056684, 41.579549], [-8.052181, 41.584498], [-8.052777, 41.587649], [-8.048277, 41.590122], [-8.045573, 41.594397], [-8.031467, 41.602938], [-8.02367, 41.603156], [-8.019174, 41.601802], [-8.015872, 41.603824], [-8.010473, 41.604494], [-8.005971, 41.60629], [-8.003562, 41.611239], [-7.99936, 41.61281], [-7.998462, 41.612359], [-7.999669, 41.608759], [-7.996976, 41.605829], [-7.996684, 41.602003], [-7.984685, 41.603564], [-7.982292, 41.60086], [-7.975689, 41.603552], [-7.974482, 41.606701], [-7.970882, 41.607147], [-7.969091, 41.603768], [-7.965796, 41.602413], [-7.9541, 41.602846], [-7.952606, 41.600592], [-7.947808, 41.60081], [-7.945413, 41.599456], [-7.942725, 41.595625], [-7.936132, 41.594488], [-7.93791, 41.601694], [-7.937004, 41.603718], [-7.931604, 41.604384], [-7.930979, 41.612711], [-7.925556, 41.620354], [-7.920755, 41.620796], [-7.917748, 41.623041], [-7.915933, 41.627764], [-7.913229, 41.628885], [-7.912613, 41.63361], [-7.906014, 41.633147], [-7.906884, 41.641927], [-7.897869, 41.645511], [-7.89696, 41.647985], [-7.892759, 41.647976], [-7.892145, 41.651576], [-7.900826, 41.657773], [-7.90111, 41.657897], [-7.901126, 41.657904], [-7.915589, 41.665547], [-7.927446, 41.674869], [-7.937048, 41.686174], [-7.941967, 41.695226], [-7.944489, 41.704257], [-7.944529, 41.713264], [-7.941839, 41.722246], [-7.935909, 41.731198], [-7.926383, 41.738827], [-7.914246, 41.745398], [-7.902183, 41.747528], [-7.890181, 41.746084], [-7.866262, 41.738457], [-7.794149, 41.736394], [-7.78947, 41.738755], [-7.787373, 41.74774], [-7.789517, 41.774783], [-7.787263, 41.783766], [-7.780831, 41.792705], [-7.769823, 41.801594], [-7.756713, 41.80691], [-7.744616, 41.809895], [-7.728498, 41.810664], [-7.728761, 41.816776], [-7.731748, 41.820343], [-7.780646, 41.814474], [-7.79268, 41.814735], [-7.80917, 41.820022], [-7.840353, 41.841632], [-7.852318, 41.846074], [-7.864355, 41.846567], [-7.876457, 41.843338], [-7.888635, 41.835662], [-7.913222, 41.806123], [-7.925337, 41.801471], [-7.949419, 41.801047], [-7.985719, 41.789058], [-7.997776, 41.787608], [-8.021817, 41.789473], [-8.033794, 41.793356], [-8.055357, 41.804297], [-8.070553, 41.81494], [-8.072962, 41.813414], [-8.078678, 41.813417], [-8.082892, 41.810493], [-8.091013, 41.812521], [-8.093421, 41.811397], [-8.093723, 41.808471], [-8.101845, 41.809824], [-8.104853, 41.81185], [-8.115984, 41.812302], [-8.123807, 41.808702], [-8.138247, 41.808477], [-8.139751, 41.813203], [-8.14276, 41.812978], [-8.144866, 41.815228], [-8.149078, 41.814777], [-8.153291, 41.817703], [-8.158106, 41.818377], [-8.165326, 41.81815], [-8.173744, 41.808019], [-8.177655, 41.808242], [-8.183676, 41.812741], [-8.190291, 41.809587], [-8.197158, 41.814129], [-8.201063, 41.808724], [-8.204973, 41.807372], [-8.205872, 41.804445], [-8.213692, 41.803765], [-8.217598, 41.80016], [-8.217589, 41.793634], [-8.224207, 41.794303], [-8.229917, 41.791598], [-8.240744, 41.791588], [-8.24074, 41.789338], [-8.244347, 41.787984], [-8.245546, 41.785731], [-8.251257, 41.784375], [-8.251845, 41.777172], [-8.257551, 41.773564], [-8.261762, 41.774235], [-8.271366, 41.766346], [-8.280681, 41.764083], [-8.284038, 41.761109], [-8.284931, 41.757507], [-8.305674, 41.758152], [-8.311096, 41.762195], [-8.318308, 41.761283], [-8.325233, 41.765098], [-8.328234, 41.763292], [-8.336653, 41.763728], [-8.341756, 41.761468], [-8.344765, 41.762363], [-8.349267, 41.760103], [-8.352557, 41.755145], [-8.349814, 41.744122], [-8.352516, 41.743441], [-8.352203, 41.739616], [-8.357897, 41.735103], [-8.362407, 41.735994], [-8.368703, 41.73193], [-8.374122, 41.734845], [-8.384922, 41.73032], [-8.387032, 41.731891], [-8.393033, 41.729852], [-8.396942, 41.730518], [-8.400531, 41.726683], [-8.402934, 41.726452], [-8.404721, 41.722847], [-8.417349, 41.725067], [-8.422737, 41.720552], [-8.429643, 41.719859], [-8.430533, 41.717381], [-8.435927, 41.714441], [-8.441632, 41.713975], [-8.4446, 41.70654], [-8.453868, 41.697961], [-8.453255, 41.695487], [-8.461659, 41.694563], [-8.467939, 41.689593], [-8.478124, 41.685061], [-8.482012, 41.682123], [-8.484371, 41.674238], [-8.49308, 41.674886], [-8.499963, 41.671038], [-8.50927, 41.671233], [-8.51018, 41.672806], [-8.511967, 41.670324], [-8.509856, 41.668755], [-8.512252, 41.667847], [-8.514629, 41.663788], [-8.522103, 41.658811], [-8.525706, 41.659023], [-8.527769, 41.652714], [-8.534066, 41.652017], [-8.537951, 41.649302], [-8.537634, 41.646602], [-8.543876, 41.637352], [-8.543855, 41.633976], [-8.536342, 41.631977], [-8.535128, 41.62973], [-8.543431, 41.61462], [-8.554533, 41.615255], [-8.557244, 41.617046], [-8.562639, 41.61635], [-8.568056, 41.619031], [-8.570735, 41.616095], [-8.577321, 41.614269], [-8.581231, 41.615829], [-8.586066, 41.620987], [-8.591462, 41.620515], [-8.596534, 41.616668], [-8.601628, 41.615972], [-8.605243, 41.611231]], [[-7.864754, 41.823983], [-7.857293, 41.820511], [-7.851628, 41.811448], [-7.852995, 41.808201], [-7.856426, 41.802489], [-7.865209, 41.798217], [-7.877234, 41.798875], [-7.882529, 41.802746], [-7.886937, 41.811796], [-7.880876, 41.820744], [-7.876807, 41.823335], [-7.864754, 41.823983]], [[-8.026018, 41.731997], [-8.024719, 41.740993], [-8.022518, 41.743332], [-8.010436, 41.746958], [-7.998337, 41.740766], [-7.996415, 41.731743], [-7.998694, 41.728633], [-8.010805, 41.7229], [-8.022744, 41.728412], [-8.026018, 41.731997]], [[-8.125761, 41.723793], [-8.118052, 41.714727], [-8.123497, 41.705761], [-8.131352, 41.699039], [-8.143396, 41.697045], [-8.154959, 41.705997], [-8.154151, 41.714998], [-8.14304, 41.723871], [-8.13099, 41.725889], [-8.125761, 41.723793]], [[-8.219849, 41.688442], [-8.224196, 41.697478], [-8.215401, 41.705371], [-8.203396, 41.704227], [-8.197948, 41.697298], [-8.201732, 41.688317], [-8.203611, 41.686816], [-8.215634, 41.686251], [-8.219849, 41.688442]], [[-8.407972, 41.67691], [-8.404511, 41.68054], [-8.395882, 41.685024], [-8.383835, 41.6883], [-8.371821, 41.688133], [-8.35985, 41.683569], [-8.355493, 41.680275], [-8.349709, 41.671236], [-8.34916, 41.662226], [-8.353194, 41.653241], [-8.360214, 41.646744], [-8.372273, 41.641555], [-8.384286, 41.641012], [-8.396257, 41.644926], [-8.407863, 41.653536], [-8.413516, 41.662572], [-8.412836, 41.671576], [-8.407972, 41.67691]], [[-8.385452, 41.518076], [-8.373428, 41.522222], [-8.361427, 41.523817], [-8.349444, 41.523472], [-8.337486, 41.520773], [-8.32556, 41.515108], [-8.313697, 41.503627], [-8.307926, 41.490847], [-8.307611, 41.481838], [-8.314056, 41.469666], [-8.326112, 41.461823], [-8.338116, 41.458964], [-8.35009, 41.45892], [-8.36204, 41.461321], [-8.373963, 41.466664], [-8.383048, 41.473259], [-8.388746, 41.482297], [-8.391883, 41.491321], [-8.393556, 41.509345], [-8.385452, 41.518076]]], [[[-8.617571, 41.528323], [-8.625066, 41.531939], [-8.628959, 41.52836], [-8.625119, 41.52264], [-8.617571, 41.528323]]]]}}, {"id": "6", "type": "Feature", "properties": {"fill": "#a3a3a3", "value_min": 0.5, "value_max": -0.75}, "geometry": {"type": "MultiPolygon", "coordinates": [[[[-7.864754, 41.823983], [-7.876807, 41.823335], [-7.880876, 41.820744], [-7.886937, 41.811796], [-7.882529, 41.802746], [-7.877234, 41.798875], [-7.865209, 41.798217], [-7.856426, 41.802489], [-7.852995, 41.808201], [-7.851628, 41.811448], [-7.857293, 41.820511], [-7.864754, 41.823983]]], [[[-7.728498, 41.810664], [-7.744616, 41.809895], [-7.756713, 41.80691], [-7.769823, 41.801594], [-7.780831, 41.792705], [-7.787263, 41.783766], [-7.789517, 41.774783], [-7.787373, 41.74774], [-7.78947, 41.738755], [-7.794149, 41.736394], [-7.866262, 41.738457], [-7.890181, 41.746084], [-7.902183, 41.747528], [-7.914246, 41.745398], [-7.926383, 41.738827], [-7.935909, 41.731198], [-7.941839, 41.722246], [-7.944529, 41.713264], [-7.944489, 41.704257], [-7.941967, 41.695226], [-7.937048, 41.686174], [-7.927446, 41.674869], [-7.915589, 41.665547], [-7.901126, 41.657904], [-7.902319, 41.66015], [-7.899913, 41.66127], [-7.900198, 41.665547], [-7.898396, 41.665769], [-7.896885, 41.668692], [-7.883969, 41.67069], [-7.879755, 41.673607], [-7.877044, 41.676077], [-7.876723, 41.681253], [-7.873401, 41.686198], [-7.868896, 41.686413], [-7.868008, 41.68326], [-7.864403, 41.683701], [-7.864096, 41.685276], [-7.858987, 41.68639], [-7.857773, 41.689538], [-7.854776, 41.68818], [-7.847538, 41.695365], [-7.837309, 41.699391], [-7.835792, 41.702763], [-7.839682, 41.705924], [-7.838465, 41.709522], [-7.832453, 41.710407], [-7.825252, 41.708813], [-7.818621, 41.713522], [-7.815291, 41.718689], [-7.808986, 41.717996], [-7.808396, 41.715744], [-7.804499, 41.714158], [-7.79939, 41.714593], [-7.79788, 41.716164], [-7.796383, 41.71526], [-7.790966, 41.717044], [-7.789449, 41.719966], [-7.78464, 41.720402], [-7.78252, 41.723546], [-7.776204, 41.724652], [-7.773786, 41.727346], [-7.770798, 41.72441], [-7.765698, 41.723044], [-7.761765, 41.727758], [-7.762933, 41.733839], [-7.759307, 41.737203], [-7.759597, 41.739005], [-7.75689, 41.739446], [-7.758687, 41.740577], [-7.757758, 41.745301], [-7.748417, 41.749321], [-7.747786, 41.754496], [-7.743866, 41.756509], [-7.743242, 41.760333], [-7.738406, 41.764556], [-7.745484, 41.765402], [-7.75736, 41.773394], [-7.760506, 41.783481], [-7.755955, 41.792438], [-7.744846, 41.798147], [-7.73279, 41.799153], [-7.728579, 41.797701], [-7.727026, 41.805517], [-7.728498, 41.810664]], [[-7.890227, 41.730766], [-7.874799, 41.721609], [-7.872354, 41.712578], [-7.879814, 41.703644], [-7.891004, 41.698287], [-7.903007, 41.699139], [-7.910989, 41.703944], [-7.914872, 41.70822], [-7.917413, 41.713012], [-7.915571, 41.722001], [-7.902469, 41.730736], [-7.890227, 41.730766]]], [[[-7.90111, 41.657897], [-7.90111, 41.657897], [-7.900826, 41.657773], [-7.90111, 41.657897]]], [[[-8.125761, 41.723793], [-8.13099, 41.725889], [-8.14304, 41.723871], [-8.154151, 41.714998], [-8.154959, 41.705997], [-8.143396, 41.697045], [-8.131352, 41.699039], [-8.123497, 41.705761], [-8.118052, 41.714727], [-8.125761, 41.723793]]], [[[-8.313801, 41.33596], [-8.304333, 41.346705], [-8.299951, 41.355686], [-8.298262, 41.364684], [-8.29907, 41.373696], [-8.308647, 41.391769], [-8.319973, 41.400844], [-8.338627, 41.408634], [-8.36253, 41.411259], [-8.374509, 41.409822], [-8.386504, 41.406579], [-8.398525, 41.400425], [-8.408442, 41.392325], [-8.415016, 41.383351], [-8.418309, 41.374361], [-8.41895, 41.365356], [-8.417134, 41.356339], [-8.412476, 41.347308], [-8.399137, 41.333911], [-8.38398, 41.326294], [-8.380382, 41.331254], [-8.375305, 41.33104], [-8.37201, 41.328346], [-8.361563, 41.329718], [-8.358276, 41.329049], [-8.357673, 41.327249], [-8.350207, 41.327264], [-8.346032, 41.328847], [-8.342462, 41.333131], [-8.333215, 41.336299], [-8.326363, 41.342163], [-8.324568, 41.341041], [-8.323376, 41.341943], [-8.316788, 41.335876], [-8.313801, 41.33596]], [[-8.350845, 41.383161], [-8.345487, 41.373969], [-8.351038, 41.363717], [-8.363022, 41.360895], [-8.374938, 41.365051], [-8.378483, 41.374152], [-8.372013, 41.383125], [-8.362779, 41.385787], [-8.350845, 41.383161]]]]}}, {"id": "7", "type": "Feature", "properties": {"fill": "#a3a3a3", "value_min": 0.75, "value_max": -1.0}, "geometry": {"type": "MultiPolygon", "coordinates": [[[[-7.728579, 41.797701], [-7.73279, 41.799153], [-7.744846, 41.798147], [-7.755955, 41.792438], [-7.760506, 41.783481], [-7.75736, 41.773394], [-7.745484, 41.765402], [-7.738406, 41.764556], [-7.726937, 41.771755], [-7.7254, 41.777152], [-7.727191, 41.779184], [-7.724177, 41.780299], [-7.725372, 41.781653], [-7.722296, 41.792446], [-7.728579, 41.797701]]], [[[-7.890227, 41.730766], [-7.902469, 41.730736], [-7.915571, 41.722001], [-7.917413, 41.713012], [-7.914872, 41.70822], [-7.910989, 41.703944], [-7.903007, 41.699139], [-7.891004, 41.698287], [-7.879814, 41.703644], [-7.872354, 41.712578], [-7.874799, 41.721609], [-7.890227, 41.730766]]], [[[-8.350845, 41.383161], [-8.362779, 41.385787], [-8.372013, 41.383125], [-8.378483, 41.374152], [-8.374938, 41.365051], [-8.363022, 41.360895], [-8.351038, 41.363717], [-8.345487, 41.373969], [-8.350845, 41.383161]]]]}}, {"id": "3", "type": "Feature", "properties": {"fill": "#a3a3a3", "value_min": -0.25, "value_max": -0.0}, "geometry": {"type": "MultiPolygon", "coordinates": [[[[-7.826736, 41.875821], [-7.823244, 41.865201], [-7.811198, 41.847064], [-7.80141, 41.837955], [-7.792352, 41.8322], [-7.780393, 41.827771], [-7.768388, 41.825862], [-7.741031, 41.827591], [-7.740849, 41.827622], [-7.74073, 41.827642], [-7.738919, 41.828515], [-7.739805, 41.831219], [-7.743996, 41.83499], [-7.756195, 41.833665], [-7.768219, 41.834644], [-7.780187, 41.838652], [-7.791581, 41.846859], [-7.798047, 41.855933], [-7.800485, 41.864966], [-7.799963, 41.873947], [-7.804288, 41.874184], [-7.805215, 41.86946], [-7.814229, 41.873537], [-7.818448, 41.872873], [-7.826736, 41.875821]]], [[[-8.012717, 41.833624], [-8.00123, 41.821853], [-7.98532, 41.814344], [-7.973317, 41.812057], [-7.961285, 41.811594], [-7.937172, 41.813724], [-7.925074, 41.81723], [-7.91012, 41.830032], [-7.903884, 41.838979], [-7.895644, 41.859553], [-7.900698, 41.861588], [-7.904318, 41.859795], [-7.907309, 41.865203], [-7.906095, 41.868126], [-7.910299, 41.871285], [-7.909985, 41.875111], [-7.91479, 41.879171], [-7.928044, 41.87807], [-7.935494, 41.874707], [-7.924217, 41.868415], [-7.916049, 41.857108], [-7.914482, 41.848086], [-7.916169, 41.839096], [-7.924901, 41.827545], [-7.937052, 41.820966], [-7.949133, 41.818542], [-7.961168, 41.818876], [-7.973157, 41.822081], [-7.98653, 41.830731], [-7.992375, 41.839789], [-7.993451, 41.848806], [-7.990914, 41.85779], [-7.983762, 41.866734], [-7.969914, 41.874753], [-7.973828, 41.875216], [-7.987996, 41.869157], [-7.990123, 41.860157], [-7.995547, 41.858138], [-7.994047, 41.855211], [-7.996765, 41.851162], [-8.00339, 41.85027], [-8.007618, 41.843072], [-8.007928, 41.838796], [-8.012717, 41.833624]]], [[[-7.935899, 41.874933], [-7.935899, 41.874933], [-7.935884, 41.874924], [-7.935899, 41.874933]]], [[[-8.661252, 41.488866], [-8.673227, 41.489829], [-8.684734, 41.483489], [-8.686265, 41.474486], [-8.673354, 41.464422], [-8.661377, 41.464861], [-8.651025, 41.474385], [-8.653226, 41.483399], [-8.661252, 41.488866]]], [[[-8.733763, 41.333496], [-8.745721, 41.331778], [-8.757686, 41.327627], [-8.769663, 41.319898], [-8.77673, 41.31256], [-8.781091, 41.303561], [-8.782599, 41.294556], [-8.781224, 41.285546], [-8.776918, 41.27653], [-8.769842, 41.269203], [-8.75793, 41.261671], [-8.746009, 41.257582], [-8.73408, 41.255617], [-8.710202, 41.256653], [-8.698251, 41.259589], [-8.682558, 41.2673], [-8.673636, 41.276283], [-8.669598, 41.285279], [-8.669334, 41.294286], [-8.672503, 41.303303], [-8.679102, 41.31233], [-8.690253, 41.321368], [-8.709875, 41.330528], [-8.721814, 41.333088], [-8.733763, 41.333496]]]]}}, {"id": "0", "type": "Feature", "properties": {"fill": "#a3a3a3", "value_min": -1.0, "value_max": -0.75}, "geometry": {"type": "MultiPolygon", "coordinates": [[[[-7.764086, 41.855573], [-7.755818, 41.853119], [-7.749763, 41.855418], [-7.748476, 41.864411], [-7.755528, 41.868085], [-7.7654, 41.864594], [-7.764086, 41.855573]]], [[[-7.966381, 41.839558], [-7.960937, 41.833144], [-7.948953, 41.829548], [-7.934864, 41.83927], [-7.937848, 41.848305], [-7.948564, 41.853308], [-7.960653, 41.850667], [-7.963301, 41.848537], [-7.966381, 41.839558]]]]}}, {"id": "1", "type": "Feature", "properties": {"fill": "#a3a3a3", "value_min": -0.75, "value_max": -0.5}, "geometry": {"type": "MultiPolygon", "coordinates": [[[[-7.729535, 41.873722], [-7.74318, 41.88333], [-7.755194, 41.885306], [-7.767286, 41.883259], [-7.780954, 41.873767], [-7.784621, 41.864799], [-7.783169, 41.855777], [-7.774505, 41.846678], [-7.768049, 41.843548], [-7.756038, 41.841753], [-7.746353, 41.843369], [-7.750246, 41.846784], [-7.750532, 41.849261], [-7.743309, 41.849012], [-7.746901, 41.8524], [-7.746881, 41.855776], [-7.73843, 41.859348], [-7.729535, 41.873722]], [[-7.764086, 41.855573], [-7.7654, 41.864594], [-7.755528, 41.868085], [-7.748476, 41.864411], [-7.749763, 41.855418], [-7.755818, 41.853119], [-7.764086, 41.855573]]], [[[-7.972622, 41.855526], [-7.977547, 41.848665], [-7.978071, 41.839663], [-7.971619, 41.830599], [-7.961061, 41.825452], [-7.94904, 41.824214], [-7.936947, 41.827344], [-7.93223, 41.830239], [-7.925963, 41.839188], [-7.92603, 41.848195], [-7.936403, 41.860157], [-7.948394, 41.863684], [-7.96046, 41.862619], [-7.972622, 41.855526]], [[-7.966381, 41.839558], [-7.963301, 41.848537], [-7.960653, 41.850667], [-7.948564, 41.853308], [-7.937848, 41.848305], [-7.934864, 41.83927], [-7.948953, 41.829548], [-7.960937, 41.833144], [-7.966381, 41.839558]]]]}}, {"id": "2", "type": "Feature", "properties": {"fill": "#a3a3a3", "value_min": -0.5, "value_max": -0.25}, "geometry": {"type": "MultiPolygon", "coordinates": [[[[-7.799963, 41.873947], [-7.800485, 41.864966], [-7.798047, 41.855933], [-7.791581, 41.846859], [-7.780187, 41.838652], [-7.768219, 41.834644], [-7.756195, 41.833665], [-7.743996, 41.83499], [-7.74729, 41.837772], [-7.746353, 41.843369], [-7.756038, 41.841753], [-7.768049, 41.843548], [-7.774505, 41.846678], [-7.783169, 41.855777], [-7.784621, 41.864799], [-7.780954, 41.873767], [-7.767286, 41.883259], [-7.755194, 41.885306], [-7.74318, 41.88333], [-7.729535, 41.873722], [-7.729293, 41.875972], [-7.720533, 41.880218], [-7.720523, 41.881793], [-7.725335, 41.882935], [-7.726208, 41.887665], [-7.737044, 41.888828], [-7.73944, 41.891087], [-7.74246, 41.889747], [-7.742785, 41.885922], [-7.756022, 41.888441], [-7.758719, 41.890926], [-7.756592, 41.89407], [-7.758076, 41.897901], [-7.763193, 41.898593], [-7.779227, 41.886264], [-7.785257, 41.885157], [-7.788886, 41.882467], [-7.794007, 41.882257], [-7.796739, 41.878214], [-7.794349, 41.87438], [-7.799963, 41.873947]]], [[[-7.969914, 41.874753], [-7.983762, 41.866734], [-7.990914, 41.85779], [-7.993451, 41.848806], [-7.992375, 41.839789], [-7.98653, 41.830731], [-7.973157, 41.822081], [-7.961168, 41.818876], [-7.949133, 41.818542], [-7.937052, 41.820966], [-7.924901, 41.827545], [-7.916169, 41.839096], [-7.914482, 41.848086], [-7.916049, 41.857108], [-7.924217, 41.868415], [-7.935494, 41.874707], [-7.935884, 41.874924], [-7.935899, 41.874933], [-7.937389, 41.87516], [-7.941618, 41.870891], [-7.951254, 41.871132], [-7.956367, 41.87339], [-7.956362, 41.875191], [-7.960878, 41.875648], [-7.962086, 41.874074], [-7.969914, 41.874753]], [[-7.972622, 41.855526], [-7.96046, 41.862619], [-7.948394, 41.863684], [-7.936403, 41.860157], [-7.92603, 41.848195], [-7.925963, 41.839188], [-7.93223, 41.830239], [-7.936947, 41.827344], [-7.94904, 41.824214], [-7.961061, 41.825452], [-7.971619, 41.830599], [-7.978071, 41.839663], [-7.977547, 41.848665], [-7.972622, 41.855526]]]]}}]}